{"type":"FeatureCollection","features":[{"type":"Feature","properties":{"zcta5":"55070","AFFGEOID10":"8600000US55070","GEOID10":"55070","ALAND10":70674178,"AWATER10":751805,"county_name":"Anoka","state_code":"MN","county_state":"Anoka County, MN","county_fips":"27003","risk_level_county":"Medium Risk (70–79% vaccinated)","mean_vaccination_rate_county":74.37,"risk_level_zcta":"Medium Risk (70–79% vaccinated)","mean_vaccination_rate_zips":71.76,"cases":17},"geometry":{"type":"Polygon","coordinates":[[[-93.450324,45.471676],[-93.45143,45.470102],[-93.454473,45.468478],[-93.458225,45.468013],[-93.460291,45.46642],[-93.460119,45.457073],[-93.470352,45.457056],[-93.47016,45.442509],[-93.461658,45.442425],[-93.458162,45.428427],[-93.466445,45.428453],[-93.458083,45.428109],[-93.456321,45.421051],[-93.458343,45.421119],[-93.45826,45.424656],[-93.462235,45.424697],[-93.462645,45.421084],[-93.462452,45.416046],[-93.464669,45.413921],[-93.449639,45.413736],[-93.45011,45.392415],[-93.445013,45.39215],[-93.445044,45.385005],[-93.42704,45.384974],[-93.417059,45.384931],[-93.411273,45.3798],[-93.408909,45.379098],[-93.405448,45.381712],[-93.403542,45.381481],[-93.400375,45.379906],[-93.392474,45.380371],[-93.388565,45.380253],[-93.38862,45.384689],[-93.380053,45.384719],[-93.378185,45.384726],[-93.378129,45.381123],[-93.381517,45.380023],[-93.381549,45.376502],[-93.373318,45.376486],[-93.372657,45.376936],[-93.367917,45.376949],[-93.366802,45.378146],[-93.358768,45.378018],[-93.352457,45.378172],[-93.351833,45.377886],[-93.347477,45.377835],[-93.347299,45.384857],[-93.342756,45.384811],[-93.334305,45.384771],[-93.270842,45.384729],[-93.265321,45.384754],[-93.265351,45.394692],[-93.275585,45.394626],[-93.275568,45.391188],[-93.280651,45.391153],[-93.28084,45.409914],[-93.270444,45.409981],[-93.27048,45.413341],[-93.271645,45.413665],[-93.409056,45.413735],[-93.408747,45.442424],[-93.397072,45.44247],[-93.396611,45.447114],[-93.398652,45.449521],[-93.398822,45.450715],[-93.408935,45.450739],[-93.408896,45.456921],[-93.429861,45.456948],[-93.42978,45.471862],[-93.434041,45.47184],[-93.434094,45.468699],[-93.450297,45.468682],[-93.450324,45.471676]]]}},{"type":"Feature","properties":{"zcta5":"55448","AFFGEOID10":"8600000US55448","GEOID10":"55448","ALAND10":28117636,"AWATER10":442792,"county_name":"Anoka","state_code":"MN","county_state":"Anoka County, MN","county_fips":"27003","risk_level_county":"Medium Risk (70–79% vaccinated)","mean_vaccination_rate_county":74.37,"risk_level_zcta":"Lowest Risk (85%+)","mean_vaccination_rate_zips":85.1,"cases":17},"geometry":{"type":"Polygon","coordinates":[[[-93.357412,45.212284],[-93.362444,45.212315],[-93.36491,45.210169],[-93.365388,45.204773],[-93.367136,45.204799],[-93.367162,45.202814],[-93.365293,45.202804],[-93.365267,45.201068],[-93.362847,45.201044],[-93.362846,45.198309],[-93.362176,45.197547],[-93.348242,45.189378],[-93.349085,45.190394],[-93.34899,45.19361],[-93.354938,45.193827],[-93.357137,45.195756],[-93.354299,45.197452],[-93.350348,45.197461],[-93.350336,45.196084],[-93.345546,45.196077],[-93.346676,45.197454],[-93.340294,45.197464],[-93.332465,45.19047],[-93.327879,45.187516],[-93.30884,45.179199],[-93.304179,45.176796],[-93.286407,45.164448],[-93.271037,45.148865],[-93.270425,45.148034],[-93.269899,45.146495],[-93.270133,45.134502],[-93.269253,45.130693],[-93.266834,45.128101],[-93.266796,45.12849],[-93.266161,45.129948],[-93.265726,45.130321],[-93.264606,45.130636],[-93.265595,45.131794],[-93.266769,45.132687],[-93.265859,45.211519],[-93.278869,45.211719],[-93.278022,45.209866],[-93.278375,45.208309],[-93.279488,45.207773],[-93.280017,45.205983],[-93.281241,45.205815],[-93.281143,45.207987],[-93.282404,45.208896],[-93.289301,45.20891],[-93.290811,45.210037],[-93.290874,45.211857],[-93.303142,45.212005],[-93.303156,45.212633],[-93.306382,45.212708],[-93.310142,45.211934],[-93.316716,45.212239],[-93.319358,45.21291],[-93.321804,45.212324],[-93.357412,45.212284]]]}},{"type":"Feature","properties":{"zcta5":"55434","AFFGEOID10":"8600000US55434","GEOID10":"55434","ALAND10":23392051,"AWATER10":592514,"county_name":"Anoka","state_code":"MN","county_state":"Anoka County, MN","county_fips":"27003","risk_level_county":"Medium Risk (70–79% vaccinated)","mean_vaccination_rate_county":74.37,"risk_level_zcta":"Lower Risk (80–84% vaccinated)","mean_vaccination_rate_zips":83.08,"cases":17},"geometry":{"type":"Polygon","coordinates":[[[-93.266834,45.128101],[-93.266888,45.124603],[-93.235167,45.124568],[-93.235501,45.14],[-93.235463,45.149855],[-93.233534,45.15001],[-93.233402,45.150379],[-93.233378,45.153023],[-93.235003,45.153505],[-93.234977,45.157314],[-93.233413,45.157339],[-93.232739,45.160828],[-93.235301,45.160818],[-93.235128,45.175362],[-93.234398,45.200206],[-93.23253,45.20064],[-93.234107,45.201438],[-93.233054,45.203079],[-93.231904,45.202561],[-93.231533,45.204363],[-93.234319,45.204333],[-93.234207,45.211441],[-93.234852,45.211509],[-93.265859,45.211519],[-93.266769,45.132687],[-93.265595,45.131794],[-93.264606,45.130636],[-93.265726,45.130321],[-93.266161,45.129948],[-93.266796,45.12849],[-93.266834,45.128101]]]}},{"type":"Feature","properties":{"zcta5":"55330","AFFGEOID10":"8600000US55330","GEOID10":"55330","ALAND10":270591204,"AWATER10":10490316,"county_name":"Anoka","state_code":"MN","county_state":"Anoka County, MN","county_fips":"27003","risk_level_county":"Medium Risk (70–79% vaccinated)","mean_vaccination_rate_county":74.37,"risk_level_zcta":"Lowest Risk (85%+)","mean_vaccination_rate_zips":85.54,"cases":17},"geometry":{"type":"Polygon","coordinates":[[[-93.653261,45.410684],[-93.653553,45.407652],[-93.654805,45.406499],[-93.654042,45.404241],[-93.655461,45.400956],[-93.655018,45.398725],[-93.649586,45.395505],[-93.648518,45.394372],[-93.64793,45.391328],[-93.648358,45.390504],[-93.645374,45.387913],[-93.64336,45.387326],[-93.642171,45.385812],[-93.675081,45.38603],[-93.675367,45.387101],[-93.678137,45.38926],[-93.680975,45.389283],[-93.680082,45.388211],[-93.681486,45.386712],[-93.685109,45.387292],[-93.685114,45.385828],[-93.683397,45.380113],[-93.686758,45.380348],[-93.690146,45.381337],[-93.689457,45.375616],[-93.689391,45.370755],[-93.692306,45.370759],[-93.692337,45.367974],[-93.695646,45.367644],[-93.69556,45.36191],[-93.694473,45.361192],[-93.681219,45.361186],[-93.681568,45.357525],[-93.680967,45.355732],[-93.678083,45.353957],[-93.685705,45.353953],[-93.688559,45.353274],[-93.690794,45.353881],[-93.695181,45.353915],[-93.697603,45.351987],[-93.684617,45.351966],[-93.684779,45.346399],[-93.675025,45.346386],[-93.674377,45.342165],[-93.667893,45.336091],[-93.666259,45.333938],[-93.674543,45.33431],[-93.679866,45.335788],[-93.679762,45.328534],[-93.664724,45.328014],[-93.664829,45.323686],[-93.683115,45.325464],[-93.68544,45.329466],[-93.687119,45.331188],[-93.688595,45.331902],[-93.691012,45.332354],[-93.695683,45.332384],[-93.69567,45.333473],[-93.698318,45.333512],[-93.700783,45.334268],[-93.700826,45.33238],[-93.706037,45.332437],[-93.706046,45.332745],[-93.710235,45.332739],[-93.710303,45.332466],[-93.715725,45.332501],[-93.721389,45.332519],[-93.729374,45.332119],[-93.728445,45.332067],[-93.731757,45.331038],[-93.731771,45.330041],[-93.726718,45.329588],[-93.725504,45.32948],[-93.725476,45.33207],[-93.720218,45.331747],[-93.708801,45.331886],[-93.70864,45.332232],[-93.706048,45.332216],[-93.706064,45.330888],[-93.704757,45.329684],[-93.706072,45.329547],[-93.706306,45.30682],[-93.701293,45.306828],[-93.701304,45.303695],[-93.693653,45.300276],[-93.687981,45.305139],[-93.684256,45.305383],[-93.682623,45.304895],[-93.681643,45.302871],[-93.679882,45.300313],[-93.675209,45.297139],[-93.673369,45.296206],[-93.669669,45.29522],[-93.667447,45.295181],[-93.658941,45.295964],[-93.652995,45.295237],[-93.649358,45.295305],[-93.649119,45.292109],[-93.653991,45.292134],[-93.653979,45.288786],[-93.658681,45.288807],[-93.658677,45.28515],[-93.658688,45.281632],[-93.656383,45.281627],[-93.638448,45.266941],[-93.637828,45.267164],[-93.6375,45.270513],[-93.61233,45.270465],[-93.612342,45.266302],[-93.627416,45.266335],[-93.62743,45.259467],[-93.627324,45.245377],[-93.628628,45.24131],[-93.628709,45.237999],[-93.60423,45.238031],[-93.602521,45.238573],[-93.601463,45.238032],[-93.568459,45.238073],[-93.560279,45.238068],[-93.557324,45.238056],[-93.55561,45.238055],[-93.552771,45.232321],[-93.552296,45.229446],[-93.549332,45.230139],[-93.552074,45.231894],[-93.552625,45.234895],[-93.547647,45.235288],[-93.547622,45.237134],[-93.552615,45.237132],[-93.55285,45.239479],[-93.550947,45.241286],[-93.550474,45.24519],[-93.531476,45.245216],[-93.524795,45.244518],[-93.522828,45.244409],[-93.52243,45.244371],[-93.52207,45.245685],[-93.521653,45.246618],[-93.514032,45.246145],[-93.51219,45.245683],[-93.512649,45.246691],[-93.512403,45.256306],[-93.512072,45.268285],[-93.511834,45.27636],[-93.511266,45.292135],[-93.511266,45.298157],[-93.510992,45.299346],[-93.500382,45.299331],[-93.500391,45.301203],[-93.497256,45.301318],[-93.49019,45.30292],[-93.485077,45.303271],[-93.485127,45.309829],[-93.482839,45.313504],[-93.480387,45.31821],[-93.477426,45.320279],[-93.47509,45.321144],[-93.472561,45.323207],[-93.469847,45.323936],[-93.470203,45.324798],[-93.470313,45.331205],[-93.467127,45.332455],[-93.465591,45.331838],[-93.462063,45.332953],[-93.460428,45.33511],[-93.45549,45.337092],[-93.451604,45.335453],[-93.449058,45.333182],[-93.449054,45.345883],[-93.441462,45.345859],[-93.438184,45.345194],[-93.435745,45.345906],[-93.43387,45.348661],[-93.433763,45.351325],[-93.434527,45.352787],[-93.434556,45.356686],[-93.429428,45.356663],[-93.429491,45.365243],[-93.426742,45.365209],[-93.423016,45.368787],[-93.423826,45.369462],[-93.429525,45.369075],[-93.429524,45.371142],[-93.42402,45.371057],[-93.424282,45.378937],[-93.426819,45.378975],[-93.42704,45.384974],[-93.445044,45.385005],[-93.445013,45.39215],[-93.45011,45.392415],[-93.449639,45.413736],[-93.464669,45.413921],[-93.51007,45.414798],[-93.510003,45.406953],[-93.510884,45.407415],[-93.514929,45.407258],[-93.519823,45.409949],[-93.521771,45.403033],[-93.52506,45.402553],[-93.522594,45.400778],[-93.523537,45.396554],[-93.528456,45.396611],[-93.529867,45.397008],[-93.530172,45.400262],[-93.564782,45.399942],[-93.56621,45.402602],[-93.56671,45.404932],[-93.565811,45.415047],[-93.567,45.403799],[-93.572566,45.403848],[-93.577569,45.404508],[-93.5784,45.403859],[-93.580172,45.405043],[-93.580007,45.406072],[-93.576713,45.407777],[-93.576726,45.409907],[-93.577722,45.411172],[-93.592767,45.410909],[-93.593176,45.421739],[-93.600824,45.421907],[-93.606178,45.418688],[-93.60644,45.413392],[-93.605625,45.409504],[-93.606804,45.40355],[-93.610307,45.40191],[-93.60917,45.40001],[-93.608677,45.397512],[-93.609211,45.396806],[-93.612013,45.395339],[-93.616021,45.395662],[-93.618142,45.392926],[-93.621625,45.392931],[-93.621826,45.38941],[-93.628383,45.389443],[-93.62852,45.392732],[-93.633661,45.393143],[-93.633331,45.400635],[-93.654028,45.400766],[-93.653066,45.409904],[-93.653261,45.410684]],[[-93.703555,45.327392],[-93.703556,45.329669],[-93.695656,45.328608],[-93.695683,45.332153],[-93.689057,45.331844],[-93.686545,45.330543],[-93.683304,45.325483],[-93.689518,45.326087],[-93.703555,45.327392]]]}},{"type":"Feature","properties":{"zcta5":"55449","AFFGEOID10":"8600000US55449","GEOID10":"55449","ALAND10":55924246,"AWATER10":2191802,"county_name":"Anoka","state_code":"MN","county_state":"Anoka County, MN","county_fips":"27003","risk_level_county":"Medium Risk (70–79% vaccinated)","mean_vaccination_rate_county":74.37,"risk_level_zcta":"Lowest Risk (85%+)","mean_vaccination_rate_zips":85.13,"cases":17},"geometry":{"type":"Polygon","coordinates":[[[-93.234207,45.211441],[-93.234319,45.204333],[-93.231533,45.204363],[-93.231904,45.202561],[-93.233054,45.203079],[-93.234107,45.201438],[-93.23253,45.20064],[-93.234398,45.200206],[-93.235128,45.175362],[-93.235301,45.160818],[-93.232739,45.160828],[-93.233413,45.157339],[-93.234977,45.157314],[-93.235003,45.153505],[-93.233378,45.153023],[-93.233402,45.150379],[-93.233534,45.15001],[-93.235463,45.149855],[-93.235501,45.14],[-93.235167,45.124568],[-93.227696,45.124533],[-93.198985,45.124394],[-93.198791,45.118616],[-93.188625,45.11857],[-93.188706,45.124374],[-93.184132,45.124329],[-93.184264,45.125056],[-93.184252,45.140825],[-93.182901,45.142416],[-93.185471,45.142426],[-93.181545,45.145959],[-93.169635,45.154611],[-93.16948,45.154724],[-93.16346,45.159101],[-93.157472,45.163352],[-93.154311,45.164914],[-93.151948,45.165775],[-93.142932,45.167994],[-93.142659,45.169738],[-93.142582,45.196365],[-93.142341,45.210951],[-93.16293,45.211159],[-93.173393,45.211225],[-93.234207,45.211441]]]}},{"type":"Feature","properties":{"zcta5":"55014","AFFGEOID10":"8600000US55014","GEOID10":"55014","ALAND10":48367382,"AWATER10":7839644,"county_name":"Anoka","state_code":"MN","county_state":"Anoka County, MN","county_fips":"27003","risk_level_county":"Medium Risk (70–79% vaccinated)","mean_vaccination_rate_county":74.37,"risk_level_zcta":"Medium Risk (70–79% vaccinated)","mean_vaccination_rate_zips":79.48,"cases":17},"geometry":{"type":"Polygon","coordinates":[[[-93.142341,45.210951],[-93.142582,45.196365],[-93.142659,45.169738],[-93.142932,45.167994],[-93.151948,45.165775],[-93.154311,45.164914],[-93.157472,45.163352],[-93.16346,45.159101],[-93.16948,45.154724],[-93.169635,45.154611],[-93.181545,45.145959],[-93.185471,45.142426],[-93.182901,45.142416],[-93.184252,45.140825],[-93.184264,45.125056],[-93.184132,45.124329],[-93.122094,45.124129],[-93.122096,45.125135],[-93.12213,45.126528],[-93.121316,45.12666],[-93.121024,45.126706],[-93.111232,45.128276],[-93.109208,45.129695],[-93.106765,45.130056],[-93.104498,45.128992],[-93.103023,45.129368],[-93.099535,45.13026],[-93.096075,45.133696],[-93.095109,45.13728],[-93.09278,45.136804],[-93.089826,45.13807],[-93.088409,45.13984],[-93.086912,45.140396],[-93.085456,45.142502],[-93.084627,45.145726],[-93.081394,45.145739],[-93.08118,45.146717],[-93.083304,45.1521],[-93.084445,45.1533],[-93.084351,45.154755],[-93.086641,45.16104],[-93.083694,45.16144],[-93.08399,45.163384],[-93.081559,45.165909],[-93.081937,45.174609],[-93.071154,45.174785],[-93.0715,45.175398],[-93.071575,45.191127],[-93.072322,45.192099],[-93.074226,45.193832],[-93.077348,45.195897],[-93.079479,45.196411],[-93.088717,45.196497],[-93.0888,45.197549],[-93.08624,45.19757],[-93.086849,45.210819],[-93.093646,45.210948],[-93.121559,45.210991],[-93.138615,45.211041],[-93.142341,45.210951]]]}},{"type":"Feature","properties":{"zcta5":"55005","AFFGEOID10":"8600000US55005","GEOID10":"55005","ALAND10":50173234,"AWATER10":2426942,"county_name":"Anoka","state_code":"MN","county_state":"Anoka County, MN","county_fips":"27003","risk_level_county":"Medium Risk (70–79% vaccinated)","mean_vaccination_rate_county":74.37,"risk_level_zcta":"Higher Risk (60–69% vaccinated)","mean_vaccination_rate_zips":69.42,"cases":17},"geometry":{"type":"MultiPolygon","coordinates":[[[[-93.271645,45.413665],[-93.27048,45.413341],[-93.270444,45.409981],[-93.28084,45.409914],[-93.280651,45.391153],[-93.275568,45.391188],[-93.275585,45.394626],[-93.265351,45.394692],[-93.265321,45.384754],[-93.2654,45.380224],[-93.259009,45.381531],[-93.249632,45.381104],[-93.245499,45.375496],[-93.244992,45.37325],[-93.241115,45.374827],[-93.241209,45.376743],[-93.237711,45.378464],[-93.236311,45.37847],[-93.236755,45.370581],[-93.216006,45.37039],[-93.21528,45.37547],[-93.204965,45.375344],[-93.20509,45.374109],[-93.202498,45.373853],[-93.202415,45.377712],[-93.204386,45.377922],[-93.203925,45.385069],[-93.198524,45.385094],[-93.199205,45.379687],[-93.188782,45.3783],[-93.181673,45.37882],[-93.163013,45.382266],[-93.162747,45.384079],[-93.160779,45.382808],[-93.160386,45.380039],[-93.156337,45.377134],[-93.145881,45.377381],[-93.143077,45.376965],[-93.116253,45.372997],[-93.116832,45.378592],[-93.115469,45.380758],[-93.111698,45.382342],[-93.114672,45.384385],[-93.117214,45.384738],[-93.129317,45.384936],[-93.142178,45.40163],[-93.142063,45.413642],[-93.142242,45.413645],[-93.237744,45.413813],[-93.24055,45.413713],[-93.255994,45.413759],[-93.25634,45.413791],[-93.270983,45.413668],[-93.271284,45.413694],[-93.271645,45.413665]]],[[[-93.347477,45.377835],[-93.34756,45.373144],[-93.347618,45.370557],[-93.34296,45.370506],[-93.340467,45.374041],[-93.332092,45.376484],[-93.329417,45.377891],[-93.321851,45.378552],[-93.322048,45.370364],[-93.286073,45.370419],[-93.286023,45.373606],[-93.275699,45.376084],[-93.275785,45.370493],[-93.274162,45.370506],[-93.270842,45.384729],[-93.334305,45.384771],[-93.342756,45.384811],[-93.347299,45.384857],[-93.347477,45.377835]]]]}},{"type":"Feature","properties":{"zcta5":"55011","AFFGEOID10":"8600000US55011","GEOID10":"55011","ALAND10":116452606,"AWATER10":4344202,"county_name":"Anoka","state_code":"MN","county_state":"Anoka County, MN","county_fips":"27003","risk_level_county":"Medium Risk (70–79% vaccinated)","mean_vaccination_rate_county":74.37,"risk_level_zcta":"Medium Risk (70–79% vaccinated)","mean_vaccination_rate_zips":70.53,"cases":17},"geometry":{"type":"Polygon","coordinates":[[[-93.347618,45.370557],[-93.347764,45.363367],[-93.347766,45.363299],[-93.347841,45.360465],[-93.346958,45.360431],[-93.346207,45.359633],[-93.347727,45.35781],[-93.347893,45.356127],[-93.347296,45.354873],[-93.34443,45.353045],[-93.345229,45.35169],[-93.347462,45.350333],[-93.347931,45.34967],[-93.347431,45.347958],[-93.3474,45.342708],[-93.347395,45.334403],[-93.34816,45.329719],[-93.347449,45.327281],[-93.347347,45.310145],[-93.342028,45.31008],[-93.340061,45.304514],[-93.342522,45.3037],[-93.343914,45.302294],[-93.345417,45.302797],[-93.34728,45.302069],[-93.347096,45.298322],[-93.342596,45.298222],[-93.325308,45.297989],[-93.322363,45.297991],[-93.265376,45.298062],[-93.241752,45.298077],[-93.236857,45.298061],[-93.234303,45.298051],[-93.233828,45.298365],[-93.232181,45.298045],[-93.219255,45.297968],[-93.21784,45.302655],[-93.219908,45.305743],[-93.221221,45.305489],[-93.219754,45.306412],[-93.214966,45.306649],[-93.2127,45.308375],[-93.213164,45.312511],[-93.212024,45.313882],[-93.207793,45.315468],[-93.205132,45.318108],[-93.205123,45.319539],[-93.202496,45.319516],[-93.197379,45.324417],[-93.1928,45.324147],[-93.187015,45.326619],[-93.18462,45.323532],[-93.183633,45.32045],[-93.180507,45.320257],[-93.178174,45.317717],[-93.17075,45.316869],[-93.165675,45.31385],[-93.163745,45.315248],[-93.164362,45.34498],[-93.152511,45.345053],[-93.148633,45.345895],[-93.142555,45.345175],[-93.14253,45.347877],[-93.143386,45.348413],[-93.141103,45.349688],[-93.136642,45.348757],[-93.134902,45.350072],[-93.135013,45.353134],[-93.134033,45.355114],[-93.133857,45.359344],[-93.143693,45.362623],[-93.143815,45.369886],[-93.143077,45.376965],[-93.145881,45.377381],[-93.156337,45.377134],[-93.160386,45.380039],[-93.160779,45.382808],[-93.162747,45.384079],[-93.163013,45.382266],[-93.181673,45.37882],[-93.188782,45.3783],[-93.199205,45.379687],[-93.198524,45.385094],[-93.203925,45.385069],[-93.204386,45.377922],[-93.202415,45.377712],[-93.202498,45.373853],[-93.20509,45.374109],[-93.204965,45.375344],[-93.21528,45.37547],[-93.216006,45.37039],[-93.236755,45.370581],[-93.236311,45.37847],[-93.237711,45.378464],[-93.241209,45.376743],[-93.241115,45.374827],[-93.244992,45.37325],[-93.245499,45.375496],[-93.249632,45.381104],[-93.259009,45.381531],[-93.2654,45.380224],[-93.265321,45.384754],[-93.270842,45.384729],[-93.274162,45.370506],[-93.275785,45.370493],[-93.275699,45.376084],[-93.286023,45.373606],[-93.286073,45.370419],[-93.322048,45.370364],[-93.321851,45.378552],[-93.329417,45.377891],[-93.332092,45.376484],[-93.340467,45.374041],[-93.34296,45.370506],[-93.347618,45.370557]]]}},{"type":"Feature","properties":{"zcta5":"55421","AFFGEOID10":"8600000US55421","GEOID10":"55421","ALAND10":16267971,"AWATER10":853148,"county_name":"Anoka","state_code":"MN","county_state":"Anoka County, MN","county_fips":"27003","risk_level_county":"Medium Risk (70–79% vaccinated)","mean_vaccination_rate_county":74.37,"risk_level_zcta":"Medium Risk (70–79% vaccinated)","mean_vaccination_rate_zips":79.21,"cases":17},"geometry":{"type":"Polygon","coordinates":[[[-93.282094,45.069493],[-93.284026,45.065165],[-93.285226,45.058465],[-93.282926,45.053465],[-93.282226,45.051165],[-93.280826,45.043565],[-93.283426,45.035365],[-93.283215,45.033452],[-93.282696,45.032427],[-93.278069,45.035397],[-93.277354,45.035466],[-93.259918,45.035544],[-93.259922,45.035033],[-93.255473,45.035051],[-93.255469,45.035546],[-93.234577,45.035624],[-93.234609,45.034524],[-93.233192,45.034878],[-93.232735,45.035088],[-93.231293,45.035091],[-93.230751,45.035229],[-93.230751,45.035652],[-93.226929,45.035671],[-93.208092,45.035744],[-93.208164,45.043016],[-93.218326,45.042874],[-93.21831,45.044704],[-93.221289,45.042635],[-93.222982,45.043088],[-93.223655,45.04174],[-93.225479,45.041547],[-93.226978,45.042356],[-93.227237,45.065027],[-93.246917,45.067595],[-93.24705,45.068583],[-93.247465,45.067688],[-93.259701,45.068763],[-93.267343,45.068843],[-93.282094,45.069493]]]}},{"type":"Feature","properties":{"zcta5":"55040","AFFGEOID10":"8600000US55040","GEOID10":"55040","ALAND10":256903621,"AWATER10":7783065,"county_name":"Anoka","state_code":"MN","county_state":"Anoka County, MN","county_fips":"27003","risk_level_county":"Medium Risk (70–79% vaccinated)","mean_vaccination_rate_county":74.37,"risk_level_zcta":"Lower Risk (80–84% vaccinated)","mean_vaccination_rate_zips":81.93,"cases":17},"geometry":{"type":"Polygon","coordinates":[[[-93.450745,45.484144],[-93.450324,45.471676],[-93.434041,45.47184],[-93.42978,45.471862],[-93.429861,45.456948],[-93.408896,45.456921],[-93.408935,45.450739],[-93.398822,45.450715],[-93.398652,45.449521],[-93.396611,45.447114],[-93.397072,45.44247],[-93.408747,45.442424],[-93.409056,45.413735],[-93.271645,45.413665],[-93.271284,45.413694],[-93.270983,45.413668],[-93.25634,45.413791],[-93.255994,45.413759],[-93.24055,45.413713],[-93.237744,45.413813],[-93.142242,45.413645],[-93.142282,45.42205],[-93.14751,45.425305],[-93.152746,45.426139],[-93.152768,45.428398],[-93.1422,45.427988],[-93.142461,45.45657],[-93.136838,45.456706],[-93.133321,45.455331],[-93.127422,45.456978],[-93.124058,45.457106],[-93.124168,45.471275],[-93.124543,45.4784],[-93.129346,45.477777],[-93.134803,45.47866],[-93.135581,45.479821],[-93.133818,45.481853],[-93.135648,45.484778],[-93.13545,45.485753],[-93.135642,45.488241],[-93.133329,45.489913],[-93.135531,45.49199],[-93.137524,45.492864],[-93.138941,45.495913],[-93.141119,45.498468],[-93.139654,45.500151],[-93.142193,45.500117],[-93.142154,45.505552],[-93.144944,45.507887],[-93.147122,45.508867],[-93.153671,45.514011],[-93.154406,45.514929],[-93.15602,45.519238],[-93.155221,45.521355],[-93.161694,45.52659],[-93.178247,45.523365],[-93.178234,45.522027],[-93.23529,45.522083],[-93.23904,45.521574],[-93.245796,45.521618],[-93.253747,45.521658],[-93.254405,45.520556],[-93.257905,45.520792],[-93.260813,45.518315],[-93.260672,45.51688],[-93.262345,45.514164],[-93.264648,45.516991],[-93.265596,45.517147],[-93.265536,45.521964],[-93.275962,45.522085],[-93.275865,45.507471],[-93.285819,45.507536],[-93.286224,45.516008],[-93.298633,45.524077],[-93.306751,45.524638],[-93.30691,45.536875],[-93.324977,45.536975],[-93.327491,45.535618],[-93.327488,45.531208],[-93.329333,45.529771],[-93.342923,45.529797],[-93.342959,45.52239],[-93.350115,45.522519],[-93.368772,45.522345],[-93.368835,45.515152],[-93.375231,45.515401],[-93.379001,45.51454],[-93.383062,45.510555],[-93.384437,45.510172],[-93.38891,45.510642],[-93.38894,45.507583],[-93.3932,45.507608],[-93.394678,45.507102],[-93.411112,45.507285],[-93.411129,45.507448],[-93.410551,45.510306],[-93.409686,45.512712],[-93.41764,45.512725],[-93.417627,45.508296],[-93.426038,45.508283],[-93.426207,45.500573],[-93.440558,45.50071],[-93.440619,45.488389],[-93.441361,45.487192],[-93.44241,45.486558],[-93.449442,45.485768],[-93.450745,45.484144]]]}},{"type":"Feature","properties":{"zcta5":"55303","AFFGEOID10":"8600000US55303","GEOID10":"55303","ALAND10":163544273,"AWATER10":6347517,"county_name":"Anoka","state_code":"MN","county_state":"Anoka County, MN","county_fips":"27003","risk_level_county":"Medium Risk (70–79% vaccinated)","mean_vaccination_rate_county":74.37,"risk_level_zcta":"Lower Risk (80–84% vaccinated)","mean_vaccination_rate_zips":83.76,"cases":17},"geometry":{"type":"Polygon","coordinates":[[[-93.42704,45.384974],[-93.426819,45.378975],[-93.424282,45.378937],[-93.42402,45.371057],[-93.429524,45.371142],[-93.429525,45.369075],[-93.423826,45.369462],[-93.423016,45.368787],[-93.426742,45.365209],[-93.429491,45.365243],[-93.429428,45.356663],[-93.434556,45.356686],[-93.434527,45.352787],[-93.433763,45.351325],[-93.43387,45.348661],[-93.435745,45.345906],[-93.438184,45.345194],[-93.441462,45.345859],[-93.449054,45.345883],[-93.449058,45.333182],[-93.451604,45.335453],[-93.45549,45.337092],[-93.460428,45.33511],[-93.462063,45.332953],[-93.465591,45.331838],[-93.467127,45.332455],[-93.470313,45.331205],[-93.470203,45.324798],[-93.469847,45.323936],[-93.472561,45.323207],[-93.47509,45.321144],[-93.477426,45.320279],[-93.480387,45.31821],[-93.482839,45.313504],[-93.485127,45.309829],[-93.485077,45.303271],[-93.49019,45.30292],[-93.497256,45.301318],[-93.500391,45.301203],[-93.500382,45.299331],[-93.510992,45.299346],[-93.511266,45.298157],[-93.511266,45.292135],[-93.511834,45.27636],[-93.512072,45.268285],[-93.512403,45.256306],[-93.512649,45.246691],[-93.51219,45.245683],[-93.502681,45.242224],[-93.500234,45.240565],[-93.496892,45.234264],[-93.492315,45.230144],[-93.485469,45.225678],[-93.48174,45.224971],[-93.47707,45.225108],[-93.47028,45.225942],[-93.46764,45.225787],[-93.464405,45.22462],[-93.461674,45.222423],[-93.458165,45.220386],[-93.456533,45.219965],[-93.450718,45.219478],[-93.444966,45.216937],[-93.443165,45.21648],[-93.438824,45.216816],[-93.433826,45.218036],[-93.424915,45.214099],[-93.422453,45.211423],[-93.415232,45.200665],[-93.412032,45.198164],[-93.394035,45.190673],[-93.390008,45.18764],[-93.37543,45.178664],[-93.373301,45.178169],[-93.373519,45.180404],[-93.373541,45.190372],[-93.368213,45.190268],[-93.368196,45.197573],[-93.362176,45.197547],[-93.362846,45.198309],[-93.362847,45.201044],[-93.365267,45.201068],[-93.365293,45.202804],[-93.367162,45.202814],[-93.367136,45.204799],[-93.365388,45.204773],[-93.36491,45.210169],[-93.362444,45.212315],[-93.357412,45.212284],[-93.357329,45.219614],[-93.362567,45.219637],[-93.365585,45.220902],[-93.367058,45.22293],[-93.3672,45.226711],[-93.369409,45.228357],[-93.381208,45.228317],[-93.387003,45.227133],[-93.390769,45.227088],[-93.389302,45.229143],[-93.389831,45.230379],[-93.392002,45.230637],[-93.394942,45.231878],[-93.396318,45.233202],[-93.394916,45.237277],[-93.393956,45.238415],[-93.390496,45.238894],[-93.388364,45.243317],[-93.385847,45.24462],[-93.383467,45.244521],[-93.381163,45.245694],[-93.380458,45.248029],[-93.384039,45.250437],[-93.384738,45.251665],[-93.383954,45.254139],[-93.385831,45.255665],[-93.387925,45.255865],[-93.390938,45.254905],[-93.393193,45.255918],[-93.393835,45.258763],[-93.396119,45.258602],[-93.397855,45.259873],[-93.397558,45.262923],[-93.401241,45.264208],[-93.402337,45.265701],[-93.401568,45.27136],[-93.405503,45.272495],[-93.406282,45.273385],[-93.406263,45.275519],[-93.406048,45.278015],[-93.406881,45.280073],[-93.407053,45.281105],[-93.406938,45.28177],[-93.406333,45.282363],[-93.40281,45.283579],[-93.403016,45.285766],[-93.401582,45.288092],[-93.400473,45.289302],[-93.396497,45.288552],[-93.394846,45.289403],[-93.389986,45.291214],[-93.386721,45.290562],[-93.38279,45.290626],[-93.379526,45.285903],[-93.376818,45.284876],[-93.373976,45.285181],[-93.370917,45.284334],[-93.369895,45.283009],[-93.368728,45.283131],[-93.368352,45.286219],[-93.371394,45.286533],[-93.372592,45.287867],[-93.373011,45.289939],[-93.376072,45.291309],[-93.375255,45.292618],[-93.373096,45.292596],[-93.371113,45.291457],[-93.369802,45.292441],[-93.371642,45.292581],[-93.37104,45.294668],[-93.373762,45.294621],[-93.375439,45.295301],[-93.377646,45.297491],[-93.377468,45.29874],[-93.36842,45.29861],[-93.367022,45.298374],[-93.366862,45.300624],[-93.362581,45.303324],[-93.360135,45.304089],[-93.35666,45.303639],[-93.356107,45.301928],[-93.354264,45.301585],[-93.348495,45.301624],[-93.34728,45.302069],[-93.345417,45.302797],[-93.343914,45.302294],[-93.342522,45.3037],[-93.340061,45.304514],[-93.342028,45.31008],[-93.347347,45.310145],[-93.347449,45.327281],[-93.34816,45.329719],[-93.347395,45.334403],[-93.3474,45.342708],[-93.347431,45.347958],[-93.347931,45.34967],[-93.347462,45.350333],[-93.345229,45.35169],[-93.34443,45.353045],[-93.347296,45.354873],[-93.347893,45.356127],[-93.347727,45.35781],[-93.346207,45.359633],[-93.346958,45.360431],[-93.347841,45.360465],[-93.347766,45.363299],[-93.347764,45.363367],[-93.347618,45.370557],[-93.34756,45.373144],[-93.347477,45.377835],[-93.351833,45.377886],[-93.352457,45.378172],[-93.358768,45.378018],[-93.366802,45.378146],[-93.367917,45.376949],[-93.372657,45.376936],[-93.373318,45.376486],[-93.381549,45.376502],[-93.381517,45.380023],[-93.378129,45.381123],[-93.378185,45.384726],[-93.380053,45.384719],[-93.38862,45.384689],[-93.388565,45.380253],[-93.392474,45.380371],[-93.400375,45.379906],[-93.403542,45.381481],[-93.405448,45.381712],[-93.408909,45.379098],[-93.411273,45.3798],[-93.417059,45.384931],[-93.42704,45.384974]]]}},{"type":"Feature","properties":{"zcta5":"55304","AFFGEOID10":"8600000US55304","GEOID10":"55304","ALAND10":178939857,"AWATER10":6355221,"county_name":"Anoka","state_code":"MN","county_state":"Anoka County, MN","county_fips":"27003","risk_level_county":"Medium Risk (70–79% vaccinated)","mean_vaccination_rate_county":74.37,"risk_level_zcta":"Lower Risk (80–84% vaccinated)","mean_vaccination_rate_zips":84.83,"cases":17},"geometry":{"type":"Polygon","coordinates":[[[-93.34728,45.302069],[-93.348495,45.301624],[-93.354264,45.301585],[-93.356107,45.301928],[-93.35666,45.303639],[-93.360135,45.304089],[-93.362581,45.303324],[-93.366862,45.300624],[-93.367022,45.298374],[-93.36842,45.29861],[-93.377468,45.29874],[-93.377646,45.297491],[-93.375439,45.295301],[-93.373762,45.294621],[-93.37104,45.294668],[-93.371642,45.292581],[-93.369802,45.292441],[-93.371113,45.291457],[-93.373096,45.292596],[-93.375255,45.292618],[-93.376072,45.291309],[-93.373011,45.289939],[-93.372592,45.287867],[-93.371394,45.286533],[-93.368352,45.286219],[-93.368728,45.283131],[-93.369895,45.283009],[-93.370917,45.284334],[-93.373976,45.285181],[-93.376818,45.284876],[-93.379526,45.285903],[-93.38279,45.290626],[-93.386721,45.290562],[-93.389986,45.291214],[-93.394846,45.289403],[-93.396497,45.288552],[-93.400473,45.289302],[-93.401582,45.288092],[-93.403016,45.285766],[-93.40281,45.283579],[-93.406333,45.282363],[-93.406938,45.28177],[-93.407053,45.281105],[-93.406881,45.280073],[-93.406048,45.278015],[-93.406263,45.275519],[-93.406282,45.273385],[-93.405503,45.272495],[-93.401568,45.27136],[-93.402337,45.265701],[-93.401241,45.264208],[-93.397558,45.262923],[-93.397855,45.259873],[-93.396119,45.258602],[-93.393835,45.258763],[-93.393193,45.255918],[-93.390938,45.254905],[-93.387925,45.255865],[-93.385831,45.255665],[-93.383954,45.254139],[-93.384738,45.251665],[-93.384039,45.250437],[-93.380458,45.248029],[-93.381163,45.245694],[-93.383467,45.244521],[-93.385847,45.24462],[-93.388364,45.243317],[-93.390496,45.238894],[-93.393956,45.238415],[-93.394916,45.237277],[-93.396318,45.233202],[-93.394942,45.231878],[-93.392002,45.230637],[-93.389831,45.230379],[-93.389302,45.229143],[-93.390769,45.227088],[-93.387003,45.227133],[-93.381208,45.228317],[-93.369409,45.228357],[-93.3672,45.226711],[-93.367058,45.22293],[-93.365585,45.220902],[-93.362567,45.219637],[-93.357329,45.219614],[-93.357412,45.212284],[-93.321804,45.212324],[-93.319358,45.21291],[-93.316716,45.212239],[-93.310142,45.211934],[-93.306382,45.212708],[-93.303156,45.212633],[-93.303142,45.212005],[-93.290874,45.211857],[-93.290811,45.210037],[-93.289301,45.20891],[-93.282404,45.208896],[-93.281143,45.207987],[-93.281241,45.205815],[-93.280017,45.205983],[-93.279488,45.207773],[-93.278375,45.208309],[-93.278022,45.209866],[-93.278869,45.211719],[-93.265859,45.211519],[-93.234852,45.211509],[-93.234207,45.211441],[-93.173393,45.211225],[-93.16293,45.211159],[-93.142341,45.210951],[-93.142287,45.286831],[-93.142463,45.29733],[-93.188352,45.297715],[-93.206218,45.297848],[-93.219255,45.297968],[-93.232181,45.298045],[-93.233828,45.298365],[-93.234303,45.298051],[-93.236857,45.298061],[-93.241752,45.298077],[-93.265376,45.298062],[-93.322363,45.297991],[-93.325308,45.297989],[-93.342596,45.298222],[-93.347096,45.298322],[-93.34728,45.302069]]]}},{"type":"Feature","properties":{"zcta5":"55038","AFFGEOID10":"8600000US55038","GEOID10":"55038","ALAND10":128371038,"AWATER10":11310186,"county_name":"Anoka","state_code":"MN","county_state":"Anoka County, MN","county_fips":"27003","risk_level_county":"Medium Risk (70–79% vaccinated)","mean_vaccination_rate_county":74.37,"risk_level_zcta":"Lower Risk (80–84% vaccinated)","mean_vaccination_rate_zips":83.62,"cases":17},"geometry":{"type":"Polygon","coordinates":[[[-93.096075,45.133696],[-93.093077,45.133276],[-93.091667,45.13264],[-93.091539,45.124067],[-93.097071,45.124087],[-93.097035,45.118976],[-93.088849,45.118906],[-93.086767,45.118888],[-93.086768,45.12405],[-93.056778,45.124008],[-93.052843,45.124055],[-93.049837,45.124001],[-93.049572,45.124],[-93.048851,45.126206],[-93.043477,45.131785],[-93.037419,45.138425],[-93.024041,45.138663],[-93.023173,45.142732],[-93.020414,45.142339],[-93.02033,45.14675],[-93.018236,45.147169],[-93.014366,45.145505],[-93.013669,45.143881],[-93.011598,45.144105],[-93.00951,45.142838],[-93.014448,45.139928],[-93.014788,45.137262],[-93.012948,45.136657],[-93.013044,45.133254],[-93.010475,45.133776],[-93.005353,45.133897],[-93.002354,45.131016],[-92.999272,45.131026],[-92.9945,45.1265],[-92.994465,45.12376],[-92.984621,45.123757],[-92.984884,45.130565],[-92.9848,45.138972],[-92.981725,45.138836],[-92.979011,45.139363],[-92.978917,45.145711],[-92.948269,45.14437],[-92.948374,45.14066],[-92.950894,45.140634],[-92.948092,45.137604],[-92.945683,45.138555],[-92.9417,45.139373],[-92.939153,45.137238],[-92.938407,45.134258],[-92.938891,45.130094],[-92.941147,45.128747],[-92.943937,45.128368],[-92.945292,45.130171],[-92.946868,45.130865],[-92.979028,45.130989],[-92.979023,45.126154],[-92.980396,45.124734],[-92.983556,45.123832],[-92.958309,45.123626],[-92.910325,45.123666],[-92.910336,45.12209],[-92.907627,45.122134],[-92.905187,45.123658],[-92.8976,45.123662],[-92.897616,45.124382],[-92.888542,45.127558],[-92.876472,45.127152],[-92.876505,45.131113],[-92.875463,45.132893],[-92.87647,45.132845],[-92.876479,45.135044],[-92.878676,45.13505],[-92.878669,45.137464],[-92.876418,45.137576],[-92.87627,45.138857],[-92.879421,45.138568],[-92.881973,45.141625],[-92.882716,45.141344],[-92.88318,45.14307],[-92.882351,45.156842],[-92.880538,45.156838],[-92.878574,45.158153],[-92.879219,45.159054],[-92.882262,45.158739],[-92.8816,45.169332],[-92.874013,45.17076],[-92.875556,45.17756],[-92.878268,45.180574],[-92.879778,45.182662],[-92.880311,45.184772],[-92.881003,45.191935],[-92.883625,45.199615],[-92.884286,45.20953],[-92.884501,45.210318],[-92.980171,45.210566],[-92.980853,45.210657],[-93.019745,45.210895],[-93.019747,45.210741],[-93.029498,45.210762],[-93.029193,45.218506],[-93.027673,45.222315],[-93.027942,45.226244],[-93.028958,45.226362],[-93.02846,45.240451],[-93.026154,45.246972],[-93.024428,45.250465],[-93.025946,45.250446],[-93.02592,45.249298],[-93.028259,45.244089],[-93.028838,45.241595],[-93.029133,45.235598],[-93.029923,45.232324],[-93.032256,45.228684],[-93.032126,45.225464],[-93.032806,45.220392],[-93.034698,45.216706],[-93.034337,45.214602],[-93.039337,45.21076],[-93.059037,45.210768],[-93.058458,45.208476],[-93.059532,45.206221],[-93.05901,45.204517],[-93.059915,45.201615],[-93.063904,45.196387],[-93.066344,45.195039],[-93.071068,45.193684],[-93.074226,45.193832],[-93.072322,45.192099],[-93.071575,45.191127],[-93.0715,45.175398],[-93.071154,45.174785],[-93.081937,45.174609],[-93.081559,45.165909],[-93.08399,45.163384],[-93.083694,45.16144],[-93.086641,45.16104],[-93.084351,45.154755],[-93.084445,45.1533],[-93.083304,45.1521],[-93.08118,45.146717],[-93.081394,45.145739],[-93.084627,45.145726],[-93.085456,45.142502],[-93.086912,45.140396],[-93.088409,45.13984],[-93.089826,45.13807],[-93.09278,45.136804],[-93.095109,45.13728],[-93.096075,45.133696]],[[-93.020313,45.146796],[-93.020368,45.15358],[-93.017807,45.15323],[-93.016401,45.152923],[-93.015762,45.152428],[-93.015748,45.151528],[-93.016114,45.149895],[-93.016495,45.149355],[-93.019899,45.147185],[-93.020313,45.146796]]]}},{"type":"Feature","properties":{"zcta5":"55432","AFFGEOID10":"8600000US55432","GEOID10":"55432","ALAND10":25601333,"AWATER10":1573662,"county_name":"Anoka","state_code":"MN","county_state":"Anoka County, MN","county_fips":"27003","risk_level_county":"Medium Risk (70–79% vaccinated)","mean_vaccination_rate_county":74.37,"risk_level_zcta":"Medium Risk (70–79% vaccinated)","mean_vaccination_rate_zips":79.47,"cases":17},"geometry":{"type":"Polygon","coordinates":[[[-93.296092,45.121736],[-93.296059,45.119047],[-93.294796,45.114918],[-93.291458,45.112257],[-93.287946,45.110736],[-93.280327,45.105765],[-93.278327,45.103365],[-93.279927,45.089965],[-93.280227,45.088765],[-93.280126,45.083865],[-93.279026,45.080165],[-93.280815,45.071716],[-93.282094,45.069493],[-93.267343,45.068843],[-93.259701,45.068763],[-93.247465,45.067688],[-93.24705,45.068583],[-93.246917,45.067595],[-93.227237,45.065027],[-93.227844,45.11135],[-93.224883,45.111383],[-93.222955,45.111781],[-93.22295,45.11308],[-93.224918,45.114197],[-93.227967,45.116218],[-93.227789,45.116797],[-93.227696,45.124533],[-93.235167,45.124568],[-93.266888,45.124603],[-93.280604,45.12446],[-93.277883,45.118786],[-93.284435,45.118767],[-93.28498,45.120154],[-93.287666,45.119264],[-93.29104,45.119348],[-93.293046,45.118743],[-93.294476,45.119427],[-93.296092,45.121736]]]}},{"type":"Feature","properties":{"zcta5":"55092","AFFGEOID10":"8600000US55092","GEOID10":"55092","ALAND10":87424988,"AWATER10":10008024,"county_name":"Anoka","state_code":"MN","county_state":"Anoka County, MN","county_fips":"27003","risk_level_county":"Medium Risk (70–79% vaccinated)","mean_vaccination_rate_county":74.37,"risk_level_zcta":"Medium Risk (70–79% vaccinated)","mean_vaccination_rate_zips":78.24,"cases":17},"geometry":{"type":"MultiPolygon","coordinates":[[[[-93.019244,45.315636],[-93.019219,45.311228],[-93.014505,45.31124],[-93.01363,45.312688],[-93.015349,45.315428],[-93.019244,45.315636]]],[[[-93.143077,45.376965],[-93.143815,45.369886],[-93.143693,45.362623],[-93.133857,45.359344],[-93.134033,45.355114],[-93.135013,45.353134],[-93.134902,45.350072],[-93.136642,45.348757],[-93.141103,45.349688],[-93.143386,45.348413],[-93.14253,45.347877],[-93.142555,45.345175],[-93.148633,45.345895],[-93.152511,45.345053],[-93.164362,45.34498],[-93.163745,45.315248],[-93.165675,45.31385],[-93.17075,45.316869],[-93.178174,45.317717],[-93.180507,45.320257],[-93.183633,45.32045],[-93.18462,45.323532],[-93.187015,45.326619],[-93.1928,45.324147],[-93.197379,45.324417],[-93.202496,45.319516],[-93.205123,45.319539],[-93.205132,45.318108],[-93.207793,45.315468],[-93.212024,45.313882],[-93.213164,45.312511],[-93.2127,45.308375],[-93.214966,45.306649],[-93.219754,45.306412],[-93.221221,45.305489],[-93.219908,45.305743],[-93.21784,45.302655],[-93.219255,45.297968],[-93.206218,45.297848],[-93.188352,45.297715],[-93.142463,45.29733],[-93.142287,45.286831],[-93.122069,45.287019],[-93.12214,45.289097],[-93.123577,45.289856],[-93.124353,45.292762],[-93.123635,45.29383],[-93.11948,45.295908],[-93.117446,45.298414],[-93.117994,45.299625],[-93.120743,45.302956],[-93.11939,45.30608],[-93.121347,45.307312],[-93.12176,45.310118],[-93.120481,45.3125],[-93.120311,45.317413],[-93.122762,45.319188],[-93.12315,45.326213],[-93.019318,45.325746],[-93.019316,45.325588],[-93.014621,45.325599],[-93.011919,45.322547],[-93.009105,45.32357],[-93.007831,45.32334],[-93.00583,45.323335],[-93.013028,45.313935],[-93.009902,45.313028],[-93.003695,45.313882],[-93.003526,45.323948],[-93.003752,45.325676],[-93.003024,45.325675],[-93.002884,45.318565],[-93.001003,45.316978],[-92.997263,45.319356],[-92.995939,45.318427],[-92.9988,45.315417],[-92.998425,45.313573],[-92.996522,45.314188],[-92.994994,45.312564],[-92.993362,45.313631],[-92.993061,45.312394],[-92.993155,45.312146],[-92.993147,45.3113],[-92.989844,45.311267],[-92.98699,45.311262],[-92.983388,45.311275],[-92.983405,45.311894],[-92.978242,45.311954],[-92.978242,45.311262],[-92.976235,45.310936],[-92.975173,45.310035],[-92.974042,45.310757],[-92.952219,45.317435],[-92.950237,45.320019],[-92.951463,45.320859],[-92.951269,45.323144],[-92.952507,45.323011],[-92.951209,45.325206],[-92.949938,45.327357],[-92.946603,45.324409],[-92.943416,45.325753],[-92.942282,45.324509],[-92.942109,45.326003],[-92.944135,45.327503],[-92.950764,45.329948],[-92.951325,45.332096],[-92.952676,45.333829],[-92.955619,45.333557],[-92.958532,45.337076],[-92.961857,45.338257],[-92.960109,45.339733],[-92.960822,45.341903],[-92.960268,45.342737],[-92.958396,45.343374],[-92.954618,45.342614],[-92.95355,45.343397],[-92.953839,45.344884],[-92.959199,45.346729],[-92.961938,45.344937],[-92.963551,45.344621],[-92.96495,45.346379],[-92.96841,45.348597],[-92.967888,45.350853],[-92.968698,45.352281],[-92.967207,45.355298],[-92.965667,45.356276],[-92.957396,45.357851],[-92.957342,45.361614],[-92.960947,45.361625],[-92.960804,45.364461],[-92.958054,45.36574],[-92.957882,45.367588],[-92.970646,45.367519],[-92.970724,45.364885],[-92.969051,45.363169],[-92.968819,45.360444],[-92.972248,45.356203],[-92.972343,45.355265],[-92.974355,45.355205],[-92.977335,45.354174],[-92.977353,45.352037],[-92.993723,45.362698],[-92.993018,45.366201],[-92.995889,45.366464],[-92.992181,45.382384],[-93.018645,45.382738],[-93.018413,45.374965],[-93.019499,45.342127],[-93.021353,45.342664],[-93.028958,45.346588],[-93.034524,45.350915],[-93.037057,45.351883],[-93.050476,45.353453],[-93.055811,45.35932],[-93.069167,45.361652],[-93.0709,45.362842],[-93.069635,45.371615],[-93.075896,45.371563],[-93.076714,45.370219],[-93.080245,45.369399],[-93.084682,45.364786],[-93.085967,45.364494],[-93.08747,45.366453],[-93.088766,45.369434],[-93.087677,45.373322],[-93.088007,45.376152],[-93.08999,45.37705],[-93.09,45.375619],[-93.093368,45.375035],[-93.094482,45.375385],[-93.101132,45.375256],[-93.10065,45.381124],[-93.109189,45.381181],[-93.111698,45.382342],[-93.115469,45.380758],[-93.116832,45.378592],[-93.116253,45.372997],[-93.143077,45.376965]]]]}},{"type":"Feature","properties":{"zcta5":"55433","AFFGEOID10":"8600000US55433","GEOID10":"55433","ALAND10":30082398,"AWATER10":1460042,"county_name":"Anoka","state_code":"MN","county_state":"Anoka County, MN","county_fips":"27003","risk_level_county":"Medium Risk (70–79% vaccinated)","mean_vaccination_rate_county":74.37,"risk_level_zcta":"Lowest Risk (85%+)","mean_vaccination_rate_zips":86.08,"cases":17},"geometry":{"type":"Polygon","coordinates":[[[-93.362176,45.197547],[-93.368196,45.197573],[-93.368213,45.190268],[-93.373541,45.190372],[-93.373519,45.180404],[-93.373301,45.178169],[-93.35883,45.174965],[-93.354396,45.170658],[-93.348415,45.162732],[-93.346229,45.160165],[-93.34016,45.157399],[-93.335749,45.155142],[-93.330566,45.153027],[-93.328204,45.151363],[-93.323129,45.147165],[-93.319728,45.145965],[-93.315728,45.145365],[-93.311544,45.143778],[-93.308935,45.140397],[-93.309097,45.139356],[-93.307624,45.137199],[-93.302128,45.133165],[-93.298986,45.128892],[-93.297128,45.126965],[-93.296092,45.121736],[-93.294476,45.119427],[-93.293046,45.118743],[-93.29104,45.119348],[-93.287666,45.119264],[-93.28498,45.120154],[-93.284435,45.118767],[-93.277883,45.118786],[-93.280604,45.12446],[-93.266888,45.124603],[-93.266834,45.128101],[-93.269253,45.130693],[-93.270133,45.134502],[-93.269899,45.146495],[-93.270425,45.148034],[-93.271037,45.148865],[-93.286407,45.164448],[-93.304179,45.176796],[-93.30884,45.179199],[-93.327879,45.187516],[-93.332465,45.19047],[-93.340294,45.197464],[-93.346676,45.197454],[-93.345546,45.196077],[-93.350336,45.196084],[-93.350348,45.197461],[-93.354299,45.197452],[-93.357137,45.195756],[-93.354938,45.193827],[-93.34899,45.19361],[-93.349085,45.190394],[-93.348242,45.189378],[-93.362176,45.197547]]]}},{"type":"Feature","properties":{"zcta5":"55126","AFFGEOID10":"8600000US55126","GEOID10":"55126","ALAND10":31059184,"AWATER10":5998489,"county_name":"Anoka","state_code":"MN","county_state":"Anoka County, MN","county_fips":"27003","risk_level_county":"Medium Risk (70–79% vaccinated)","mean_vaccination_rate_county":74.37,"risk_level_zcta":"Lower Risk (80–84% vaccinated)","mean_vaccination_rate_zips":84.65,"cases":17},"geometry":{"type":"Polygon","coordinates":[[[-93.184132,45.124329],[-93.188706,45.124374],[-93.188625,45.11857],[-93.188521,45.107946],[-93.147689,45.108074],[-93.147257,45.070055],[-93.152361,45.070044],[-93.152313,45.064685],[-93.14722,45.064704],[-93.147111,45.053841],[-93.156393,45.053822],[-93.156732,45.052801],[-93.147077,45.051049],[-93.147079,45.035757],[-93.106214,45.035871],[-93.105334,45.035962],[-93.096672,45.03716],[-93.093793,45.037034],[-93.094181,45.038808],[-93.102983,45.042223],[-93.106274,45.042574],[-93.106285,45.043209],[-93.103451,45.043197],[-93.103167,45.043203],[-93.106285,45.045004],[-93.10628,45.045877],[-93.102828,45.045468],[-93.100107,45.045928],[-93.097667,45.046738],[-93.095534,45.046462],[-93.093978,45.045234],[-93.090193,45.044014],[-93.088803,45.043154],[-93.088531,45.043154],[-93.090234,45.044503],[-93.093607,45.045475],[-93.095389,45.048301],[-93.095624,45.049928],[-93.094053,45.051552],[-93.096676,45.053004],[-93.097373,45.054681],[-93.099689,45.056356],[-93.10009,45.057928],[-93.102167,45.059676],[-93.104287,45.05972],[-93.106335,45.058633],[-93.106532,45.079104],[-93.117154,45.079339],[-93.118819,45.082894],[-93.116844,45.0829],[-93.1169,45.088352],[-93.123412,45.088389],[-93.127004,45.091764],[-93.127136,45.092483],[-93.127273,45.10819],[-93.119234,45.108215],[-93.11177,45.108282],[-93.111859,45.111929],[-93.106655,45.111963],[-93.106675,45.115624],[-93.097342,45.115457],[-93.097035,45.118976],[-93.097071,45.124087],[-93.091539,45.124067],[-93.091667,45.13264],[-93.093077,45.133276],[-93.096075,45.133696],[-93.099535,45.13026],[-93.103023,45.129368],[-93.104498,45.128992],[-93.106765,45.130056],[-93.109208,45.129695],[-93.111232,45.128276],[-93.121024,45.126706],[-93.121316,45.12666],[-93.12213,45.126528],[-93.122096,45.125135],[-93.122094,45.124129],[-93.184132,45.124329]]]}},{"type":"Feature","properties":{"zcta5":"55025","AFFGEOID10":"8600000US55025","GEOID10":"55025","ALAND10":203961279,"AWATER10":20906881,"county_name":"Anoka","state_code":"MN","county_state":"Anoka County, MN","county_fips":"27003","risk_level_county":"Medium Risk (70–79% vaccinated)","mean_vaccination_rate_county":74.37,"risk_level_zcta":"Lower Risk (80–84% vaccinated)","mean_vaccination_rate_zips":82.36,"cases":17},"geometry":{"type":"Polygon","coordinates":[[[-93.142287,45.286831],[-93.142341,45.210951],[-93.138615,45.211041],[-93.121559,45.210991],[-93.093646,45.210948],[-93.086849,45.210819],[-93.08624,45.19757],[-93.0888,45.197549],[-93.088717,45.196497],[-93.079479,45.196411],[-93.077348,45.195897],[-93.074226,45.193832],[-93.071068,45.193684],[-93.066344,45.195039],[-93.063904,45.196387],[-93.059915,45.201615],[-93.05901,45.204517],[-93.059532,45.206221],[-93.058458,45.208476],[-93.059037,45.210768],[-93.039337,45.21076],[-93.034337,45.214602],[-93.034698,45.216706],[-93.032806,45.220392],[-93.032126,45.225464],[-93.032256,45.228684],[-93.029923,45.232324],[-93.029133,45.235598],[-93.028838,45.241595],[-93.028259,45.244089],[-93.02592,45.249298],[-93.025946,45.250446],[-93.024428,45.250465],[-93.026154,45.246972],[-93.02846,45.240451],[-93.028958,45.226362],[-93.027942,45.226244],[-93.027673,45.222315],[-93.029193,45.218506],[-93.029498,45.210762],[-93.019747,45.210741],[-93.019745,45.210895],[-92.980853,45.210657],[-92.980171,45.210566],[-92.884501,45.210318],[-92.886938,45.213364],[-92.886617,45.217371],[-92.896617,45.217499],[-92.896477,45.22275],[-92.896966,45.224351],[-92.896992,45.228198],[-92.897006,45.238842],[-92.896907,45.245427],[-92.898208,45.250159],[-92.898163,45.250727],[-92.896942,45.250661],[-92.896922,45.253528],[-92.896661,45.268377],[-92.896885,45.270524],[-92.896795,45.28228],[-92.897355,45.284443],[-92.898716,45.286],[-92.901422,45.28604],[-92.906992,45.289521],[-92.90698,45.296244],[-92.927324,45.296279],[-92.927278,45.299942],[-92.928455,45.301226],[-92.932228,45.307198],[-92.932169,45.316484],[-92.929439,45.318084],[-92.931431,45.318061],[-92.937235,45.315397],[-92.938776,45.314653],[-92.944563,45.317484],[-92.949454,45.325012],[-92.951209,45.325206],[-92.952507,45.323011],[-92.951269,45.323144],[-92.951463,45.320859],[-92.950237,45.320019],[-92.952219,45.317435],[-92.974042,45.310757],[-92.975173,45.310035],[-92.976235,45.310936],[-92.978242,45.311262],[-92.978242,45.311954],[-92.983405,45.311894],[-92.983388,45.311275],[-92.98699,45.311262],[-92.989844,45.311267],[-92.993147,45.3113],[-92.993155,45.312146],[-92.993061,45.312394],[-92.993362,45.313631],[-92.994994,45.312564],[-92.996522,45.314188],[-92.998425,45.313573],[-92.9988,45.315417],[-92.995939,45.318427],[-92.997263,45.319356],[-93.001003,45.316978],[-93.002884,45.318565],[-93.003024,45.325675],[-93.003752,45.325676],[-93.003526,45.323948],[-93.003695,45.313882],[-93.009902,45.313028],[-93.013028,45.313935],[-93.00583,45.323335],[-93.007831,45.32334],[-93.009105,45.32357],[-93.011919,45.322547],[-93.014621,45.325599],[-93.019316,45.325588],[-93.019318,45.325746],[-93.12315,45.326213],[-93.122762,45.319188],[-93.120311,45.317413],[-93.120481,45.3125],[-93.12176,45.310118],[-93.121347,45.307312],[-93.11939,45.30608],[-93.120743,45.302956],[-93.117994,45.299625],[-93.117446,45.298414],[-93.11948,45.295908],[-93.123635,45.29383],[-93.124353,45.292762],[-93.123577,45.289856],[-93.12214,45.289097],[-93.122069,45.287019],[-93.142287,45.286831]],[[-93.019244,45.315636],[-93.015349,45.315428],[-93.01363,45.312688],[-93.014505,45.31124],[-93.019219,45.311228],[-93.019244,45.315636]],[[-92.909715,45.279001],[-92.9074,45.279559],[-92.905015,45.281961],[-92.898738,45.282301],[-92.898788,45.27779],[-92.904229,45.276214],[-92.90951,45.276947],[-92.909715,45.279001]]]}},{"type":"Feature","properties":{"zcta5":"55110","AFFGEOID10":"8600000US55110","GEOID10":"55110","ALAND10":62694880,"AWATER10":15863280,"county_name":"Anoka","state_code":"MN","county_state":"Anoka County, MN","county_fips":"27003","risk_level_county":"Medium Risk (70–79% vaccinated)","mean_vaccination_rate_county":74.37,"risk_level_zcta":"Lower Risk (80–84% vaccinated)","mean_vaccination_rate_zips":82.74,"cases":17},"geometry":{"type":"MultiPolygon","coordinates":[[[[-93.020313,45.146796],[-93.019899,45.147185],[-93.016495,45.149355],[-93.016114,45.149895],[-93.015748,45.151528],[-93.015762,45.152428],[-93.016401,45.152923],[-93.017807,45.15323],[-93.020368,45.15358],[-93.020313,45.146796]]],[[[-93.062576,45.038858],[-93.061476,45.037824],[-93.061126,45.037653],[-93.058285,45.037899],[-93.036146,45.037509],[-93.027017,45.037323],[-93.012768,45.037426],[-93.00944,45.03718],[-92.990814,45.035179],[-92.984792,45.034276],[-92.984759,45.051769],[-92.983649,45.051764],[-92.983631,45.051142],[-92.982158,45.051133],[-92.982146,45.050231],[-92.981652,45.050229],[-92.981997,45.052499],[-92.984758,45.05253],[-92.984763,45.053968],[-92.980423,45.054016],[-92.980347,45.057366],[-92.974982,45.057239],[-92.974982,45.054256],[-92.969915,45.054166],[-92.970127,45.058308],[-92.971392,45.060204],[-92.974932,45.061427],[-92.976089,45.063139],[-92.978032,45.064195],[-92.983045,45.065802],[-92.984822,45.065885],[-92.984712,45.075372],[-92.974491,45.076941],[-92.965153,45.081429],[-92.964436,45.07766],[-92.961936,45.078006],[-92.963254,45.080282],[-92.963002,45.080478],[-92.963064,45.080832],[-92.963001,45.080937],[-92.962776,45.081125],[-92.960511,45.082606],[-92.959638,45.083824],[-92.954871,45.083362],[-92.95469,45.081158],[-92.951556,45.081232],[-92.94945,45.081201],[-92.949236,45.081179],[-92.94943,45.082402],[-92.944612,45.082662],[-92.944431,45.087327],[-92.945351,45.088927],[-92.944956,45.107924],[-92.945204,45.108348],[-92.954927,45.108419],[-92.955366,45.115185],[-92.960416,45.115251],[-92.960656,45.118684],[-92.962417,45.118906],[-92.961007,45.11971],[-92.960042,45.122778],[-92.958309,45.123626],[-92.983556,45.123832],[-92.980396,45.124734],[-92.979023,45.126154],[-92.979028,45.130989],[-92.946868,45.130865],[-92.945292,45.130171],[-92.943937,45.128368],[-92.941147,45.128747],[-92.938891,45.130094],[-92.938407,45.134258],[-92.939153,45.137238],[-92.9417,45.139373],[-92.945683,45.138555],[-92.948092,45.137604],[-92.950894,45.140634],[-92.948374,45.14066],[-92.948269,45.14437],[-92.978917,45.145711],[-92.979011,45.139363],[-92.981725,45.138836],[-92.9848,45.138972],[-92.984884,45.130565],[-92.984621,45.123757],[-92.994465,45.12376],[-92.9945,45.1265],[-92.999272,45.131026],[-93.002354,45.131016],[-93.005353,45.133897],[-93.010475,45.133776],[-93.013044,45.133254],[-93.012948,45.136657],[-93.014788,45.137262],[-93.014448,45.139928],[-93.00951,45.142838],[-93.011598,45.144105],[-93.013669,45.143881],[-93.014366,45.145505],[-93.018236,45.147169],[-93.02033,45.14675],[-93.020414,45.142339],[-93.023173,45.142732],[-93.024041,45.138663],[-93.037419,45.138425],[-93.043477,45.131785],[-93.048851,45.126206],[-93.049572,45.124],[-93.048684,45.123996],[-93.04934,45.122271],[-93.049528,45.120247],[-93.049277,45.107757],[-93.049862,45.104595],[-93.050156,45.104594],[-93.052259,45.093761],[-93.052354,45.088972],[-93.052642,45.088882],[-93.053082,45.083013],[-93.052509,45.074316],[-93.056472,45.062247],[-93.057985,45.053737],[-93.060412,45.04696],[-93.062576,45.038858]]]]}},{"type":"Feature","properties":{"zcta5":"55079","AFFGEOID10":"8600000US55079","GEOID10":"55079","ALAND10":158951476,"AWATER10":9858442,"county_name":"Anoka","state_code":"MN","county_state":"Anoka County, MN","county_fips":"27003","risk_level_county":"Medium Risk (70–79% vaccinated)","mean_vaccination_rate_county":74.37,"risk_level_zcta":"Medium Risk (70–79% vaccinated)","mean_vaccination_rate_zips":75.51,"cases":17},"geometry":{"type":"Polygon","coordinates":[[[-93.124168,45.471275],[-93.124058,45.457106],[-93.127422,45.456978],[-93.133321,45.455331],[-93.136838,45.456706],[-93.142461,45.45657],[-93.1422,45.427988],[-93.152768,45.428398],[-93.152746,45.426139],[-93.14751,45.425305],[-93.142282,45.42205],[-93.142242,45.413645],[-93.142063,45.413642],[-93.142178,45.40163],[-93.129317,45.384936],[-93.117214,45.384738],[-93.114672,45.384385],[-93.111698,45.382342],[-93.109189,45.381181],[-93.10065,45.381124],[-93.101132,45.375256],[-93.094482,45.375385],[-93.093368,45.375035],[-93.09,45.375619],[-93.08999,45.37705],[-93.088007,45.376152],[-93.087677,45.373322],[-93.088766,45.369434],[-93.08747,45.366453],[-93.085967,45.364494],[-93.084682,45.364786],[-93.080245,45.369399],[-93.076714,45.370219],[-93.075896,45.371563],[-93.069635,45.371615],[-93.0709,45.362842],[-93.069167,45.361652],[-93.055811,45.35932],[-93.050476,45.353453],[-93.037057,45.351883],[-93.034524,45.350915],[-93.028958,45.346588],[-93.021353,45.342664],[-93.019499,45.342127],[-93.018413,45.374965],[-93.018645,45.382738],[-92.992181,45.382384],[-92.995889,45.366464],[-92.993018,45.366201],[-92.993723,45.362698],[-92.977353,45.352037],[-92.977335,45.354174],[-92.974355,45.355205],[-92.972343,45.355265],[-92.972248,45.356203],[-92.968819,45.360444],[-92.969051,45.363169],[-92.970724,45.364885],[-92.970646,45.367519],[-92.957882,45.367588],[-92.958054,45.36574],[-92.957575,45.368745],[-92.947091,45.368594],[-92.947173,45.360004],[-92.943313,45.359991],[-92.938938,45.361296],[-92.937039,45.36128],[-92.936625,45.375661],[-92.932508,45.375603],[-92.93019,45.37506],[-92.929985,45.378884],[-92.929037,45.381079],[-92.929637,45.382612],[-92.932823,45.385651],[-92.913649,45.405243],[-92.916707,45.407555],[-92.916731,45.409183],[-92.92654,45.409981],[-92.928996,45.409806],[-92.932143,45.408752],[-92.93242,45.411868],[-92.934793,45.413463],[-92.937892,45.418776],[-92.936934,45.421451],[-92.934006,45.425053],[-92.929293,45.428811],[-92.927911,45.431938],[-92.923635,45.433914],[-92.917644,45.433891],[-92.9121,45.438657],[-92.908209,45.438138],[-92.907396,45.437495],[-92.907835,45.454479],[-92.915188,45.454535],[-92.917764,45.454914],[-92.918071,45.456838],[-92.922577,45.456755],[-92.926544,45.454676],[-92.927882,45.454889],[-92.931916,45.453708],[-92.933668,45.451071],[-92.940586,45.448081],[-92.945085,45.44674],[-92.953928,45.446325],[-92.958917,45.447131],[-92.969464,45.447186],[-92.969785,45.460065],[-92.97723,45.461221],[-92.978514,45.460019],[-92.978431,45.458486],[-92.979998,45.458457],[-92.979875,45.450829],[-93.021107,45.451235],[-93.041752,45.451885],[-93.042255,45.466025],[-93.045477,45.466502],[-93.044299,45.469019],[-93.044414,45.470725],[-93.05095,45.470766],[-93.053724,45.466333],[-93.052699,45.464659],[-93.055289,45.460118],[-93.057285,45.456617],[-93.061646,45.455351],[-93.062464,45.457202],[-93.07723,45.458951],[-93.082304,45.468401],[-93.08354,45.468453],[-93.083238,45.470001],[-93.081707,45.470946],[-93.124168,45.471275]]]}}]}