{"type":"FeatureCollection","features":[{"type":"Feature","properties":{"zcta5":"36051","AFFGEOID10":"8600000US36051","GEOID10":"36051","ALAND10":131536170,"AWATER10":776285,"county_name":"Autauga","state_code":"AL","county_state":"Autauga County, AL","county_fips":"01001","risk_level_county":"Higher Risk (60–69% vaccinated)","mean_vaccination_rate_county":69.22,"risk_level_zcta":"Medium Risk (70–79% vaccinated)","mean_vaccination_rate_zips":71.6,"cases":1},"geometry":{"type":"MultiPolygon","coordinates":[[[[-86.594945,32.682572],[-86.593819,32.678733],[-86.594832,32.674411],[-86.594213,32.670864],[-86.592255,32.668895],[-86.590895,32.664727],[-86.588859,32.661082],[-86.58767,32.660918],[-86.586466,32.658338],[-86.585297,32.659346],[-86.585408,32.661529],[-86.582964,32.665971],[-86.582087,32.668464],[-86.580378,32.671912],[-86.577726,32.675233],[-86.575691,32.677114],[-86.573168,32.678665],[-86.572245,32.679813],[-86.570731,32.680101],[-86.567256,32.683034],[-86.564144,32.681707],[-86.560761,32.683666],[-86.557524,32.685118],[-86.556993,32.68677],[-86.555744,32.688133],[-86.556467,32.692096],[-86.557631,32.694608],[-86.559211,32.69601],[-86.560595,32.695827],[-86.562357,32.696562],[-86.562102,32.698254],[-86.558918,32.699408],[-86.558179,32.70019],[-86.557054,32.703452],[-86.55949,32.703463],[-86.560574,32.70413],[-86.559788,32.705129],[-86.560171,32.706877],[-86.563682,32.708551],[-86.569353,32.712308],[-86.570452,32.710313],[-86.572064,32.711967],[-86.575224,32.711458],[-86.574986,32.706728],[-86.577342,32.706705],[-86.578512,32.706242],[-86.582413,32.70044],[-86.585098,32.698537],[-86.588739,32.69511],[-86.58961,32.693824],[-86.590572,32.689787],[-86.594945,32.682572]]],[[[-86.585523,32.65446],[-86.593149,32.651988],[-86.59509,32.650492],[-86.596308,32.648249],[-86.600613,32.648162],[-86.600412,32.636695],[-86.601042,32.634782],[-86.604146,32.632351],[-86.604672,32.630547],[-86.604413,32.60977],[-86.599254,32.603175],[-86.604386,32.602877],[-86.604386,32.597755],[-86.603478,32.595297],[-86.601562,32.593578],[-86.596556,32.593676],[-86.595118,32.59196],[-86.592636,32.591616],[-86.590243,32.5902],[-86.586464,32.588645],[-86.584613,32.59079],[-86.583267,32.590528],[-86.583063,32.592047],[-86.580377,32.593826],[-86.580222,32.595221],[-86.578679,32.59732],[-86.575628,32.600442],[-86.574417,32.602373],[-86.574425,32.603747],[-86.563,32.603437],[-86.566753,32.608857],[-86.569295,32.609274],[-86.571185,32.610202],[-86.573366,32.610388],[-86.573276,32.612679],[-86.571477,32.615204],[-86.570911,32.619946],[-86.570228,32.621412],[-86.571331,32.621831],[-86.569878,32.623452],[-86.569464,32.624902],[-86.567132,32.625891],[-86.56309,32.625698],[-86.561978,32.626216],[-86.557813,32.626326],[-86.555597,32.628107],[-86.553391,32.626523],[-86.546844,32.623708],[-86.545742,32.622767],[-86.543302,32.625878],[-86.539054,32.630223],[-86.537769,32.632218],[-86.536613,32.632362],[-86.524429,32.64316],[-86.528247,32.6439],[-86.530856,32.643773],[-86.530545,32.645665],[-86.532424,32.649375],[-86.533742,32.656578],[-86.533619,32.658946],[-86.528573,32.658669],[-86.529545,32.660939],[-86.523711,32.663576],[-86.51969,32.663459],[-86.517466,32.664513],[-86.51218,32.664786],[-86.508102,32.667733],[-86.505418,32.665965],[-86.504282,32.664189],[-86.502176,32.663116],[-86.502271,32.664904],[-86.500575,32.66494],[-86.497815,32.666987],[-86.495912,32.66697],[-86.494878,32.669504],[-86.494891,32.671221],[-86.493199,32.674166],[-86.491067,32.674312],[-86.491066,32.67045],[-86.490577,32.666801],[-86.489423,32.672046],[-86.488429,32.672876],[-86.488664,32.674405],[-86.481852,32.674477],[-86.479111,32.676012],[-86.478573,32.674645],[-86.47945,32.673533],[-86.478182,32.671995],[-86.477908,32.670081],[-86.474708,32.668355],[-86.472341,32.666459],[-86.469701,32.664969],[-86.46901,32.662359],[-86.465186,32.662295],[-86.46393,32.662712],[-86.462698,32.664115],[-86.46233,32.667988],[-86.461067,32.670091],[-86.456858,32.673378],[-86.457382,32.675821],[-86.457091,32.678206],[-86.455262,32.680869],[-86.455691,32.683937],[-86.459352,32.687482],[-86.45987,32.689424],[-86.456669,32.689424],[-86.458762,32.692911],[-86.45664,32.69306],[-86.454822,32.692437],[-86.454195,32.690938],[-86.452913,32.690103],[-86.449161,32.684835],[-86.448666,32.682674],[-86.447808,32.682178],[-86.448367,32.680782],[-86.447138,32.678555],[-86.444628,32.678066],[-86.443698,32.677258],[-86.439654,32.675745],[-86.43875,32.674965],[-86.435434,32.673673],[-86.432346,32.671649],[-86.424583,32.669938],[-86.423686,32.66919],[-86.4213,32.669217],[-86.419474,32.668563],[-86.417185,32.669673],[-86.412962,32.669522],[-86.412912,32.657263],[-86.409699,32.659449],[-86.406025,32.660421],[-86.403698,32.659771],[-86.402873,32.660679],[-86.399512,32.660882],[-86.396771,32.662868],[-86.397431,32.664107],[-86.395657,32.66762],[-86.396812,32.669621],[-86.394254,32.671982],[-86.393116,32.672108],[-86.392486,32.670842],[-86.386993,32.6689],[-86.38399,32.668788],[-86.37983,32.667313],[-86.378518,32.66558],[-86.376727,32.669797],[-86.376742,32.671191],[-86.382163,32.672161],[-86.385001,32.675792],[-86.385031,32.678655],[-86.387478,32.683233],[-86.38985,32.68518],[-86.390532,32.687195],[-86.393437,32.689625],[-86.394739,32.692579],[-86.39844,32.69276],[-86.400146,32.694502],[-86.400192,32.696182],[-86.398187,32.696742],[-86.396892,32.698214],[-86.396163,32.701455],[-86.392031,32.702784],[-86.391056,32.706576],[-86.391464,32.708706],[-86.39151,32.712893],[-86.3899,32.711928],[-86.386551,32.714436],[-86.386287,32.716867],[-86.385225,32.719989],[-86.384415,32.724531],[-86.38585,32.726714],[-86.384943,32.727341],[-86.384085,32.726412],[-86.38143,32.728417],[-86.376251,32.728729],[-86.374756,32.727855],[-86.370995,32.72773],[-86.370097,32.727252],[-86.367788,32.727902],[-86.366584,32.727127],[-86.361913,32.727199],[-86.366887,32.738843],[-86.368403,32.742015],[-86.369574,32.747494],[-86.371151,32.750627],[-86.413335,32.750591],[-86.413116,32.707386],[-86.439632,32.708213],[-86.468032,32.707859],[-86.472066,32.70969],[-86.472083,32.711112],[-86.47506,32.712501],[-86.478199,32.711736],[-86.476143,32.714216],[-86.47381,32.719344],[-86.476146,32.719351],[-86.476538,32.720221],[-86.477381,32.719023],[-86.483657,32.71887],[-86.483892,32.714709],[-86.485489,32.713909],[-86.486966,32.720618],[-86.488769,32.726944],[-86.489505,32.727984],[-86.493555,32.731475],[-86.496328,32.734249],[-86.498137,32.740113],[-86.499797,32.742125],[-86.500445,32.741041],[-86.50029,32.73894],[-86.500968,32.736461],[-86.505975,32.732075],[-86.50794,32.731679],[-86.509951,32.730279],[-86.511025,32.728602],[-86.514676,32.727311],[-86.517049,32.728572],[-86.521896,32.729228],[-86.526099,32.727826],[-86.527947,32.72808],[-86.529756,32.727206],[-86.530641,32.725997],[-86.533551,32.725234],[-86.531408,32.723985],[-86.533459,32.720346],[-86.533137,32.717227],[-86.538619,32.713355],[-86.543641,32.711347],[-86.550839,32.707943],[-86.554395,32.707552],[-86.554725,32.706933],[-86.556014,32.70438],[-86.555151,32.702671],[-86.553994,32.698756],[-86.553878,32.69435],[-86.553136,32.692909],[-86.54908,32.688085],[-86.548263,32.686591],[-86.547291,32.681111],[-86.545687,32.677307],[-86.542101,32.671231],[-86.536441,32.663725],[-86.54057,32.664642],[-86.542435,32.664538],[-86.543691,32.663936],[-86.552162,32.657904],[-86.553189,32.65963],[-86.557356,32.659067],[-86.557452,32.653596],[-86.558196,32.649132],[-86.557506,32.64697],[-86.55745,32.637991],[-86.556168,32.636913],[-86.557216,32.632657],[-86.558942,32.631068],[-86.559125,32.629829],[-86.561302,32.629953],[-86.565757,32.629658],[-86.570542,32.630221],[-86.57322,32.63024],[-86.575184,32.631753],[-86.575769,32.634739],[-86.579331,32.638686],[-86.581439,32.646731],[-86.584228,32.65063],[-86.584716,32.653214],[-86.585523,32.65446]]]]}},{"type":"Feature","properties":{"zcta5":"36067","AFFGEOID10":"8600000US36067","GEOID10":"36067","ALAND10":619551811,"AWATER10":10975818,"county_name":"Autauga","state_code":"AL","county_state":"Autauga County, AL","county_fips":"01001","risk_level_county":"Higher Risk (60–69% vaccinated)","mean_vaccination_rate_county":69.22,"risk_level_zcta":"Higher Risk (60–69% vaccinated)","mean_vaccination_rate_zips":66.45,"cases":1},"geometry":{"type":"Polygon","coordinates":[[[-86.750038,32.554643],[-86.749994,32.552787],[-86.751205,32.55129],[-86.751244,32.54711],[-86.750848,32.545343],[-86.751258,32.538271],[-86.745723,32.538108],[-86.743244,32.537236],[-86.742649,32.534329],[-86.740906,32.532759],[-86.740124,32.531186],[-86.737489,32.528163],[-86.736993,32.525626],[-86.736087,32.524603],[-86.730641,32.522661],[-86.731471,32.519646],[-86.730243,32.516466],[-86.730529,32.513087],[-86.729965,32.50929],[-86.728647,32.507033],[-86.728143,32.503214],[-86.732549,32.501835],[-86.734607,32.499837],[-86.732559,32.498998],[-86.728561,32.495863],[-86.726761,32.495939],[-86.725743,32.494342],[-86.72383,32.493833],[-86.724516,32.496602],[-86.725563,32.498565],[-86.723952,32.505423],[-86.720695,32.507734],[-86.718149,32.507886],[-86.71501,32.508958],[-86.714333,32.507516],[-86.712601,32.506027],[-86.711898,32.504446],[-86.708761,32.502774],[-86.706922,32.502591],[-86.702811,32.49915],[-86.702243,32.495804],[-86.700079,32.492987],[-86.699322,32.490535],[-86.698159,32.489161],[-86.69259,32.488542],[-86.691354,32.488953],[-86.689634,32.48713],[-86.685318,32.487969],[-86.680813,32.488428],[-86.6772,32.485785],[-86.676952,32.482822],[-86.676299,32.480168],[-86.674603,32.476261],[-86.675474,32.474035],[-86.672669,32.473699],[-86.670141,32.472189],[-86.66855,32.472105],[-86.66588,32.473584],[-86.663804,32.478814],[-86.659404,32.487648],[-86.659447,32.492045],[-86.657734,32.493385],[-86.65666,32.495532],[-86.655086,32.496215],[-86.65232,32.496377],[-86.650975,32.497031],[-86.643139,32.478469],[-86.636852,32.477736],[-86.63772,32.471805],[-86.639426,32.466761],[-86.638948,32.463951],[-86.632273,32.465566],[-86.627701,32.466206],[-86.622812,32.466344],[-86.618854,32.465415],[-86.614996,32.465387],[-86.614013,32.463313],[-86.612228,32.462677],[-86.607156,32.462757],[-86.605869,32.459864],[-86.604417,32.460368],[-86.602026,32.459456],[-86.601741,32.4574],[-86.602852,32.45328],[-86.601875,32.449844],[-86.599359,32.448665],[-86.595488,32.447845],[-86.591736,32.446156],[-86.589754,32.444107],[-86.591983,32.441567],[-86.589768,32.437403],[-86.624194,32.43716],[-86.624194,32.440018],[-86.633795,32.443157],[-86.632912,32.437123],[-86.627627,32.437153],[-86.628852,32.433143],[-86.629003,32.431399],[-86.628712,32.42441],[-86.62901,32.422476],[-86.633522,32.422483],[-86.632614,32.420546],[-86.630713,32.422044],[-86.629747,32.421854],[-86.630886,32.421843],[-86.632537,32.418887],[-86.63261,32.416558],[-86.631995,32.414752],[-86.632774,32.413254],[-86.63237,32.411462],[-86.633032,32.410216],[-86.63285,32.408327],[-86.631147,32.40486],[-86.6348,32.403838],[-86.633912,32.402699],[-86.631991,32.403042],[-86.627684,32.40511],[-86.62636,32.406545],[-86.623879,32.407541],[-86.621032,32.40757],[-86.617981,32.406613],[-86.616885,32.407074],[-86.613209,32.401232],[-86.612473,32.398854],[-86.612235,32.395539],[-86.612393,32.38984],[-86.611456,32.387302],[-86.610437,32.388278],[-86.611274,32.38674],[-86.610699,32.384859],[-86.610969,32.383178],[-86.611339,32.385831],[-86.612553,32.387845],[-86.613077,32.385654],[-86.612762,32.383654],[-86.612996,32.380654],[-86.613916,32.378467],[-86.613994,32.381031],[-86.615261,32.381456],[-86.615688,32.379404],[-86.615379,32.377336],[-86.614085,32.375137],[-86.612125,32.373123],[-86.606791,32.369934],[-86.602326,32.367868],[-86.598137,32.366838],[-86.595859,32.365453],[-86.594047,32.366261],[-86.592715,32.368025],[-86.591678,32.367821],[-86.595047,32.364849],[-86.59315,32.361666],[-86.591271,32.363117],[-86.589835,32.365555],[-86.59043,32.367246],[-86.589038,32.369013],[-86.588261,32.367749],[-86.581873,32.375019],[-86.579213,32.37586],[-86.575392,32.37608],[-86.570551,32.375006],[-86.558946,32.369033],[-86.547899,32.369242],[-86.544042,32.366356],[-86.542537,32.363517],[-86.539251,32.3452],[-86.537215,32.341262],[-86.532531,32.338775],[-86.520054,32.340333],[-86.502944,32.343541],[-86.496774,32.344437],[-86.493413,32.344963],[-86.490865,32.346772],[-86.489766,32.350472],[-86.489949,32.352691],[-86.492299,32.359077],[-86.492772,32.361587],[-86.491902,32.364327],[-86.490803,32.365159],[-86.486363,32.366898],[-86.483769,32.366776],[-86.479603,32.364609],[-86.476703,32.364418],[-86.474949,32.3656],[-86.473255,32.36847],[-86.47092,32.37136],[-86.468891,32.373237],[-86.462497,32.378135],[-86.46175,32.38082],[-86.461994,32.384483],[-86.462574,32.388365],[-86.462055,32.390304],[-86.45914,32.395781],[-86.459339,32.397514],[-86.461048,32.401573],[-86.461277,32.403473],[-86.459552,32.405441],[-86.457035,32.405966],[-86.453037,32.404808],[-86.451282,32.403694],[-86.447696,32.400703],[-86.444721,32.399841],[-86.440876,32.400016],[-86.43613,32.40094],[-86.43001,32.40148],[-86.425072,32.402437],[-86.411172,32.409937],[-86.411278,32.419922],[-86.411348,32.423997],[-86.411373,32.426497],[-86.411369,32.426948],[-86.411489,32.436185],[-86.41157,32.442442],[-86.413164,32.441535],[-86.417993,32.4401],[-86.417925,32.432496],[-86.425967,32.438592],[-86.438108,32.44721],[-86.43838,32.450457],[-86.437717,32.451559],[-86.43807,32.453493],[-86.441328,32.453643],[-86.442631,32.456865],[-86.446411,32.456764],[-86.445682,32.45496],[-86.446491,32.455078],[-86.448581,32.457296],[-86.447589,32.45799],[-86.448904,32.460305],[-86.450679,32.460341],[-86.450834,32.466667],[-86.451707,32.470832],[-86.452044,32.476497],[-86.451909,32.481703],[-86.45354,32.486092],[-86.453689,32.491906],[-86.453936,32.493175],[-86.456473,32.503915],[-86.456338,32.51146],[-86.457245,32.517581],[-86.456907,32.519799],[-86.455499,32.525523],[-86.455226,32.528941],[-86.455771,32.534484],[-86.456476,32.539136],[-86.451605,32.542354],[-86.457759,32.549509],[-86.458074,32.552427],[-86.459295,32.555312],[-86.46132,32.559781],[-86.463921,32.567667],[-86.464282,32.57089],[-86.46424,32.582147],[-86.465768,32.581017],[-86.468686,32.579993],[-86.470823,32.578381],[-86.471403,32.580819],[-86.473396,32.584788],[-86.475569,32.586366],[-86.4789,32.586753],[-86.479658,32.589329],[-86.486494,32.590977],[-86.487753,32.590969],[-86.487736,32.594059],[-86.484601,32.598233],[-86.481025,32.600513],[-86.480761,32.604134],[-86.480166,32.605556],[-86.480816,32.607911],[-86.479342,32.608035],[-86.480966,32.612295],[-86.488184,32.623161],[-86.490544,32.624049],[-86.492575,32.625566],[-86.496772,32.630557],[-86.498588,32.633832],[-86.501755,32.637208],[-86.503988,32.638952],[-86.506959,32.642305],[-86.507914,32.646183],[-86.509311,32.649078],[-86.511052,32.648493],[-86.515485,32.648494],[-86.517604,32.646966],[-86.518463,32.645389],[-86.52109,32.643965],[-86.520741,32.642795],[-86.524429,32.64316],[-86.536613,32.632362],[-86.537769,32.632218],[-86.539054,32.630223],[-86.543302,32.625878],[-86.545742,32.622767],[-86.546844,32.623708],[-86.553391,32.626523],[-86.555597,32.628107],[-86.557813,32.626326],[-86.561978,32.626216],[-86.56309,32.625698],[-86.567132,32.625891],[-86.569464,32.624902],[-86.569878,32.623452],[-86.571331,32.621831],[-86.570228,32.621412],[-86.570911,32.619946],[-86.571477,32.615204],[-86.573276,32.612679],[-86.573366,32.610388],[-86.571185,32.610202],[-86.569295,32.609274],[-86.566753,32.608857],[-86.563,32.603437],[-86.574425,32.603747],[-86.574417,32.602373],[-86.575628,32.600442],[-86.578679,32.59732],[-86.580222,32.595221],[-86.580377,32.593826],[-86.583063,32.592047],[-86.583267,32.590528],[-86.584613,32.59079],[-86.586464,32.588645],[-86.590243,32.5902],[-86.592636,32.591616],[-86.595118,32.59196],[-86.596556,32.593676],[-86.601562,32.593578],[-86.603478,32.595297],[-86.604386,32.597755],[-86.604386,32.602877],[-86.599254,32.603175],[-86.604413,32.60977],[-86.604672,32.630547],[-86.604146,32.632351],[-86.601042,32.634782],[-86.600412,32.636695],[-86.600613,32.648162],[-86.596308,32.648249],[-86.59509,32.650492],[-86.593149,32.651988],[-86.585523,32.65446],[-86.58538,32.655568],[-86.586466,32.658338],[-86.58767,32.660918],[-86.588859,32.661082],[-86.590895,32.664727],[-86.592255,32.668895],[-86.594213,32.670864],[-86.594832,32.674411],[-86.593819,32.678733],[-86.594945,32.682572],[-86.598549,32.686563],[-86.599244,32.688601],[-86.600846,32.68723],[-86.603009,32.687198],[-86.604857,32.686374],[-86.611554,32.685926],[-86.620797,32.683957],[-86.622489,32.683844],[-86.625963,32.684779],[-86.638451,32.68856],[-86.643186,32.688729],[-86.644511,32.68809],[-86.647236,32.685785],[-86.642869,32.680722],[-86.642281,32.679695],[-86.642551,32.677864],[-86.644026,32.675251],[-86.645861,32.670271],[-86.646885,32.668605],[-86.64943,32.665863],[-86.649813,32.66771],[-86.653782,32.667856],[-86.655359,32.668826],[-86.657677,32.669297],[-86.661844,32.668388],[-86.66337,32.668549],[-86.666066,32.664572],[-86.673831,32.658423],[-86.674092,32.657593],[-86.677933,32.65524],[-86.678821,32.65296],[-86.677922,32.652051],[-86.677671,32.650118],[-86.679259,32.649428],[-86.679251,32.648339],[-86.67841,32.646513],[-86.677285,32.645417],[-86.677576,32.643898],[-86.676617,32.642013],[-86.67632,32.639387],[-86.675319,32.637886],[-86.670379,32.633792],[-86.669607,32.631946],[-86.669627,32.629196],[-86.668192,32.628275],[-86.669187,32.627539],[-86.67445,32.625194],[-86.675643,32.625703],[-86.679629,32.62565],[-86.682983,32.626171],[-86.686984,32.6259],[-86.688631,32.626463],[-86.69191,32.625418],[-86.698264,32.621252],[-86.69794,32.617444],[-86.695955,32.613619],[-86.695861,32.611894],[-86.696281,32.610346],[-86.699159,32.606357],[-86.70214,32.602913],[-86.707925,32.59727],[-86.708203,32.594737],[-86.707789,32.591939],[-86.707776,32.587004],[-86.707017,32.584615],[-86.708024,32.58088],[-86.710893,32.577095],[-86.711458,32.573453],[-86.712956,32.571236],[-86.713963,32.570697],[-86.711849,32.567959],[-86.711744,32.562604],[-86.710406,32.559182],[-86.710178,32.557113],[-86.708145,32.556513],[-86.707282,32.555287],[-86.705523,32.555127],[-86.702425,32.55077],[-86.700144,32.54891],[-86.699772,32.545164],[-86.698606,32.544024],[-86.694635,32.541375],[-86.696524,32.536957],[-86.69761,32.535237],[-86.699977,32.532778],[-86.702709,32.531087],[-86.702563,32.524313],[-86.706351,32.525613],[-86.708302,32.526967],[-86.711775,32.531712],[-86.71512,32.534176],[-86.721847,32.537007],[-86.725546,32.539308],[-86.729741,32.541103],[-86.731014,32.541947],[-86.732203,32.544641],[-86.732947,32.54531],[-86.735708,32.545676],[-86.737882,32.545285],[-86.739524,32.545834],[-86.740243,32.547198],[-86.740383,32.549582],[-86.7419,32.551955],[-86.74395,32.552951],[-86.750038,32.554643]]]}},{"type":"Feature","properties":{"zcta5":"36091","AFFGEOID10":"8600000US36091","GEOID10":"36091","ALAND10":211857123,"AWATER10":4253821,"county_name":"Autauga","state_code":"AL","county_state":"Autauga County, AL","county_fips":"01001","risk_level_county":"Higher Risk (60–69% vaccinated)","mean_vaccination_rate_county":69.22,"risk_level_zcta":"Medium Risk (70–79% vaccinated)","mean_vaccination_rate_zips":76.26,"cases":1},"geometry":{"type":"Polygon","coordinates":[[[-86.560218,32.762079],[-86.563373,32.761418],[-86.562716,32.75804],[-86.563443,32.756267],[-86.566741,32.754427],[-86.567221,32.752229],[-86.569071,32.751565],[-86.573837,32.748815],[-86.573152,32.74443],[-86.570882,32.744055],[-86.568599,32.742804],[-86.567099,32.742755],[-86.562047,32.741508],[-86.555704,32.74169],[-86.555883,32.740474],[-86.563871,32.736218],[-86.590586,32.723925],[-86.592803,32.726732],[-86.600582,32.733821],[-86.604544,32.73608],[-86.606647,32.739072],[-86.61205,32.736019],[-86.613853,32.735498],[-86.618946,32.735031],[-86.620471,32.744569],[-86.623113,32.745965],[-86.627387,32.749392],[-86.630732,32.750039],[-86.638096,32.749906],[-86.645025,32.747186],[-86.647952,32.747039],[-86.649753,32.746343],[-86.652362,32.744118],[-86.655168,32.743108],[-86.653334,32.738771],[-86.651624,32.736728],[-86.651512,32.735084],[-86.649544,32.734726],[-86.646477,32.735301],[-86.642269,32.734986],[-86.639029,32.735157],[-86.638307,32.73397],[-86.635756,32.731844],[-86.631872,32.733632],[-86.630204,32.731195],[-86.632171,32.730479],[-86.631827,32.727069],[-86.633282,32.726965],[-86.635629,32.725591],[-86.640588,32.721593],[-86.64108,32.716093],[-86.641942,32.713144],[-86.64204,32.709274],[-86.645233,32.706221],[-86.648441,32.706175],[-86.64753,32.704639],[-86.649986,32.700634],[-86.652483,32.69905],[-86.650353,32.696823],[-86.62961,32.706353],[-86.62619,32.706381],[-86.626154,32.701265],[-86.628211,32.699263],[-86.629072,32.696537],[-86.628898,32.693637],[-86.627621,32.688293],[-86.625756,32.685473],[-86.625963,32.684779],[-86.622489,32.683844],[-86.620797,32.683957],[-86.611554,32.685926],[-86.604857,32.686374],[-86.603009,32.687198],[-86.600846,32.68723],[-86.599244,32.688601],[-86.598549,32.686563],[-86.594945,32.682572],[-86.590572,32.689787],[-86.58961,32.693824],[-86.588739,32.69511],[-86.585098,32.698537],[-86.582413,32.70044],[-86.578512,32.706242],[-86.577342,32.706705],[-86.574986,32.706728],[-86.575224,32.711458],[-86.572064,32.711967],[-86.570452,32.710313],[-86.569353,32.712308],[-86.563682,32.708551],[-86.560171,32.706877],[-86.559788,32.705129],[-86.560574,32.70413],[-86.55949,32.703463],[-86.557054,32.703452],[-86.558179,32.70019],[-86.558918,32.699408],[-86.562102,32.698254],[-86.562357,32.696562],[-86.560595,32.695827],[-86.559211,32.69601],[-86.557631,32.694608],[-86.556467,32.692096],[-86.555744,32.688133],[-86.556993,32.68677],[-86.557524,32.685118],[-86.560761,32.683666],[-86.564144,32.681707],[-86.567256,32.683034],[-86.570731,32.680101],[-86.572245,32.679813],[-86.573168,32.678665],[-86.575691,32.677114],[-86.577726,32.675233],[-86.580378,32.671912],[-86.582087,32.668464],[-86.582964,32.665971],[-86.585408,32.661529],[-86.585297,32.659346],[-86.586466,32.658338],[-86.58538,32.655568],[-86.585523,32.65446],[-86.584716,32.653214],[-86.584228,32.65063],[-86.581439,32.646731],[-86.579331,32.638686],[-86.575769,32.634739],[-86.575184,32.631753],[-86.57322,32.63024],[-86.570542,32.630221],[-86.565757,32.629658],[-86.561302,32.629953],[-86.559125,32.629829],[-86.558942,32.631068],[-86.557216,32.632657],[-86.556168,32.636913],[-86.55745,32.637991],[-86.557506,32.64697],[-86.558196,32.649132],[-86.557452,32.653596],[-86.557356,32.659067],[-86.553189,32.65963],[-86.552162,32.657904],[-86.543691,32.663936],[-86.542435,32.664538],[-86.54057,32.664642],[-86.536441,32.663725],[-86.542101,32.671231],[-86.545687,32.677307],[-86.547291,32.681111],[-86.548263,32.686591],[-86.54908,32.688085],[-86.553136,32.692909],[-86.553878,32.69435],[-86.553994,32.698756],[-86.555151,32.702671],[-86.556014,32.70438],[-86.554725,32.706933],[-86.554395,32.707552],[-86.550839,32.707943],[-86.543641,32.711347],[-86.538619,32.713355],[-86.533137,32.717227],[-86.533459,32.720346],[-86.531408,32.723985],[-86.533551,32.725234],[-86.530641,32.725997],[-86.529756,32.727206],[-86.527947,32.72808],[-86.526099,32.727826],[-86.521896,32.729228],[-86.517049,32.728572],[-86.514676,32.727311],[-86.511025,32.728602],[-86.509951,32.730279],[-86.50794,32.731679],[-86.505975,32.732075],[-86.500968,32.736461],[-86.50029,32.73894],[-86.500445,32.741041],[-86.499797,32.742125],[-86.498137,32.740113],[-86.496328,32.734249],[-86.493555,32.731475],[-86.489505,32.727984],[-86.488769,32.726944],[-86.486966,32.720618],[-86.485489,32.713909],[-86.483892,32.714709],[-86.483657,32.71887],[-86.477381,32.719023],[-86.476538,32.720221],[-86.476146,32.719351],[-86.47381,32.719344],[-86.476143,32.714216],[-86.478199,32.711736],[-86.47506,32.712501],[-86.472083,32.711112],[-86.472066,32.70969],[-86.468032,32.707859],[-86.439632,32.708213],[-86.413116,32.707386],[-86.413335,32.750591],[-86.371151,32.750627],[-86.371243,32.751148],[-86.374974,32.75358],[-86.379953,32.755229],[-86.388017,32.757543],[-86.392616,32.759907],[-86.396737,32.762946],[-86.399421,32.76812],[-86.402648,32.770826],[-86.405906,32.772983],[-86.408702,32.776712],[-86.411564,32.783102],[-86.413402,32.788182],[-86.415482,32.789723],[-86.41883,32.790985],[-86.424005,32.791846],[-86.424198,32.79656],[-86.423253,32.798015],[-86.423294,32.799729],[-86.422403,32.801295],[-86.42039,32.801777],[-86.41675,32.804372],[-86.414434,32.806755],[-86.411086,32.808788],[-86.413948,32.81055],[-86.416919,32.810312],[-86.418045,32.809216],[-86.42185,32.808517],[-86.424111,32.80999],[-86.425034,32.808594],[-86.424598,32.801572],[-86.429167,32.801414],[-86.432346,32.79974],[-86.428756,32.793804],[-86.430921,32.794819],[-86.432772,32.797001],[-86.436667,32.799813],[-86.443834,32.804482],[-86.444654,32.807043],[-86.443925,32.808646],[-86.441309,32.810494],[-86.442493,32.812497],[-86.445005,32.813345],[-86.450493,32.813073],[-86.455198,32.813322],[-86.457015,32.813899],[-86.458735,32.818818],[-86.460232,32.827527],[-86.460581,32.832051],[-86.465355,32.83198],[-86.475189,32.830876],[-86.481516,32.829721],[-86.485257,32.828257],[-86.488928,32.825518],[-86.491397,32.82547],[-86.494468,32.826756],[-86.495205,32.82762],[-86.498098,32.82808],[-86.498971,32.827199],[-86.502256,32.826562],[-86.503924,32.825561],[-86.507981,32.824882],[-86.512247,32.82497],[-86.512606,32.824147],[-86.514702,32.82528],[-86.517054,32.824753],[-86.516494,32.823104],[-86.520715,32.823132],[-86.522753,32.822363],[-86.524081,32.824458],[-86.522602,32.826338],[-86.521469,32.826569],[-86.522406,32.827857],[-86.524255,32.82827],[-86.525278,32.827484],[-86.528716,32.829062],[-86.531882,32.829515],[-86.533854,32.831891],[-86.534375,32.833722],[-86.535697,32.832771],[-86.537401,32.830261],[-86.542043,32.828467],[-86.543937,32.82689],[-86.544261,32.825856],[-86.543886,32.821371],[-86.544504,32.816214],[-86.562956,32.816026],[-86.564657,32.816674],[-86.566172,32.812404],[-86.566355,32.81062],[-86.567733,32.807842],[-86.567118,32.806015],[-86.568027,32.804583],[-86.564105,32.805027],[-86.563795,32.802211],[-86.561705,32.799747],[-86.561718,32.796349],[-86.559342,32.794463],[-86.558899,32.791939],[-86.557836,32.790872],[-86.557848,32.788923],[-86.560051,32.788928],[-86.561219,32.788202],[-86.557126,32.783464],[-86.55085,32.778466],[-86.550363,32.780287],[-86.546513,32.776867],[-86.54537,32.775332],[-86.547119,32.772862],[-86.550074,32.77158],[-86.552679,32.768818],[-86.553121,32.767268],[-86.553162,32.763755],[-86.560218,32.762079]]]}},{"type":"Feature","properties":{"zcta5":"36703","AFFGEOID10":"8600000US36703","GEOID10":"36703","ALAND10":312807282,"AWATER10":11402402,"county_name":"Autauga","state_code":"AL","county_state":"Autauga County, AL","county_fips":"01001","risk_level_county":"Higher Risk (60–69% vaccinated)","mean_vaccination_rate_county":69.22,"risk_level_zcta":"Higher Risk (60–69% vaccinated)","mean_vaccination_rate_zips":65.56,"cases":1},"geometry":{"type":"Polygon","coordinates":[[[-86.951183,32.569338],[-86.952978,32.568968],[-86.957194,32.566972],[-86.963419,32.565993],[-86.965439,32.566152],[-86.966662,32.561155],[-86.96877,32.557799],[-86.976494,32.550165],[-86.979699,32.545349],[-86.980998,32.541272],[-86.982126,32.535196],[-86.985077,32.534146],[-86.987364,32.533968],[-86.988579,32.533208],[-86.992813,32.533835],[-86.995701,32.532804],[-86.996817,32.531329],[-87.006752,32.526739],[-87.009744,32.526307],[-87.010436,32.524819],[-87.009627,32.522058],[-87.010872,32.520705],[-87.010627,32.519577],[-87.011976,32.517575],[-87.007383,32.517581],[-87.007322,32.514018],[-87.005231,32.51397],[-87.005288,32.516274],[-87.004607,32.515347],[-87.005115,32.511543],[-87.004027,32.511094],[-87.001639,32.511836],[-86.99999,32.513641],[-86.999575,32.514961],[-86.997222,32.517003],[-86.995007,32.520446],[-86.9951,32.522148],[-86.993777,32.52462],[-86.986818,32.524881],[-86.986774,32.528284],[-86.982616,32.528758],[-86.978502,32.528269],[-86.978292,32.525216],[-86.979884,32.525086],[-86.982572,32.520418],[-86.984588,32.514882],[-86.982951,32.513511],[-86.985131,32.513449],[-86.990979,32.50242],[-86.988956,32.502218],[-86.989966,32.50034],[-86.99207,32.50034],[-86.999365,32.486646],[-87.002687,32.481149],[-87.005869,32.473244],[-87.006411,32.470993],[-87.0063,32.463744],[-87.006882,32.461208],[-87.009261,32.457194],[-87.012948,32.451628],[-87.013807,32.450406],[-87.008301,32.450217],[-87.00629,32.449937],[-87.005846,32.449939],[-87.005871,32.445214],[-87.014579,32.443984],[-87.014604,32.4452],[-87.014631,32.446385],[-87.014721,32.448957],[-87.017932,32.444148],[-87.023354,32.436006],[-87.024252,32.433698],[-87.024364,32.429465],[-87.022992,32.429474],[-87.022971,32.428269],[-87.024344,32.428244],[-87.024311,32.425398],[-87.021722,32.424836],[-87.021507,32.42353],[-87.02275,32.422866],[-87.022898,32.421231],[-87.024249,32.421453],[-87.024014,32.414819],[-87.018767,32.405996],[-87.018456,32.405461],[-87.013928,32.405334],[-87.011175,32.403639],[-87.011525,32.403067],[-87.013404,32.40006],[-87.014068,32.396825],[-87.012701,32.390939],[-87.009576,32.380594],[-87.01019,32.380594],[-87.009381,32.377815],[-87.008232,32.374114],[-87.007317,32.372456],[-87.006747,32.371848],[-87.004079,32.373483],[-87.004533,32.370007],[-87.004354,32.3695],[-87.002431,32.368515],[-86.992849,32.365038],[-86.992803,32.365144],[-86.991734,32.364689],[-86.988189,32.363152],[-86.976285,32.358627],[-86.984021,32.364905],[-86.982678,32.365157],[-86.9791,32.364193],[-86.967629,32.363477],[-86.932441,32.345641],[-86.951769,32.346942],[-86.954375,32.347199],[-86.957962,32.3481],[-86.963534,32.351345],[-86.965379,32.349597],[-86.954889,32.341079],[-86.954133,32.344003],[-86.950033,32.343021],[-86.948944,32.344213],[-86.947067,32.344274],[-86.941424,32.34559],[-86.935859,32.34525],[-86.934277,32.343963],[-86.935767,32.342435],[-86.937359,32.341886],[-86.941677,32.343173],[-86.943389,32.340929],[-86.94064,32.340536],[-86.939307,32.339543],[-86.939532,32.336292],[-86.941351,32.335569],[-86.940691,32.334001],[-86.938191,32.330894],[-86.937391,32.328384],[-86.933907,32.327972],[-86.932752,32.32685],[-86.930909,32.326507],[-86.930338,32.328621],[-86.927345,32.332058],[-86.926002,32.335735],[-86.926246,32.339385],[-86.925542,32.342121],[-86.91335,32.335966],[-86.903459,32.335898],[-86.904036,32.335424],[-86.905361,32.333585],[-86.904279,32.330833],[-86.904618,32.330592],[-86.905166,32.329365],[-86.905234,32.328761],[-86.904315,32.328452],[-86.904423,32.326],[-86.903745,32.32536],[-86.904172,32.323594],[-86.904773,32.323259],[-86.905102,32.323269],[-86.905715,32.323544],[-86.906317,32.323529],[-86.90642,32.323337],[-86.905726,32.323408],[-86.905243,32.323185],[-86.904445,32.323203],[-86.904138,32.323389],[-86.903584,32.324522],[-86.903585,32.325091],[-86.903739,32.32557],[-86.904343,32.32629],[-86.904078,32.328457],[-86.905035,32.328733],[-86.904154,32.330824],[-86.905108,32.333813],[-86.90328,32.335794],[-86.904857,32.338135],[-86.90145,32.341856],[-86.901789,32.342919],[-86.90048,32.345713],[-86.901563,32.350976],[-86.900659,32.352764],[-86.898633,32.354611],[-86.897867,32.354601],[-86.897057,32.357684],[-86.894545,32.356071],[-86.893502,32.357006],[-86.894373,32.361894],[-86.892543,32.361832],[-86.891985,32.360847],[-86.891066,32.36213],[-86.893198,32.362654],[-86.893634,32.363633],[-86.8924,32.364452],[-86.896349,32.364283],[-86.89739,32.363652],[-86.898531,32.36556],[-86.893789,32.368191],[-86.883788,32.376323],[-86.875636,32.381766],[-86.871786,32.383832],[-86.868238,32.384755],[-86.865846,32.386405],[-86.865243,32.387932],[-86.864832,32.390492],[-86.865294,32.395713],[-86.867233,32.400342],[-86.870785,32.406759],[-86.870532,32.410967],[-86.869774,32.41294],[-86.868409,32.414406],[-86.864991,32.415649],[-86.858404,32.415638],[-86.852479,32.415984],[-86.849255,32.417655],[-86.848633,32.418872],[-86.848682,32.42016],[-86.850141,32.423087],[-86.854199,32.426313],[-86.858086,32.428389],[-86.85921,32.430721],[-86.85724,32.433073],[-86.855364,32.436979],[-86.855291,32.438512],[-86.853572,32.438927],[-86.849898,32.438325],[-86.848192,32.437193],[-86.844802,32.434083],[-86.841522,32.431787],[-86.837081,32.430497],[-86.832896,32.429765],[-86.828371,32.428207],[-86.825084,32.425718],[-86.824394,32.424725],[-86.824579,32.423186],[-86.82677,32.421326],[-86.828082,32.420749],[-86.836393,32.420143],[-86.841099,32.41849],[-86.843781,32.417067],[-86.845448,32.415416],[-86.846074,32.412475],[-86.846149,32.409725],[-86.845119,32.405184],[-86.843758,32.400416],[-86.840336,32.395563],[-86.837069,32.393203],[-86.833644,32.38964],[-86.832624,32.387977],[-86.830079,32.382458],[-86.827244,32.378816],[-86.822067,32.375137],[-86.817664,32.373056],[-86.815399,32.370821],[-86.812406,32.364727],[-86.810986,32.361207],[-86.807378,32.354356],[-86.806867,32.351781],[-86.807438,32.348593],[-86.809259,32.345501],[-86.814912,32.340803],[-86.819706,32.336799],[-86.820921,32.33324],[-86.820273,32.315007],[-86.816107,32.30997],[-86.810802,32.307574],[-86.798268,32.308632],[-86.791073,32.314611],[-86.773163,32.340728],[-86.780447,32.3686],[-86.782218,32.370288],[-86.782467,32.375137],[-86.783858,32.375137],[-86.783711,32.37872],[-86.782556,32.379575],[-86.783369,32.386837],[-86.784012,32.388885],[-86.783799,32.391547],[-86.784391,32.393132],[-86.782875,32.392272],[-86.782545,32.394824],[-86.782227,32.398384],[-86.783086,32.397111],[-86.785185,32.397269],[-86.785885,32.397864],[-86.784297,32.400259],[-86.785929,32.401252],[-86.785123,32.401933],[-86.784755,32.404242],[-86.787115,32.404401],[-86.788045,32.405701],[-86.786229,32.406115],[-86.785656,32.407235],[-86.786402,32.409328],[-86.792604,32.41041],[-86.795351,32.409889],[-86.797113,32.412174],[-86.798609,32.416812],[-86.801124,32.422632],[-86.801701,32.426229],[-86.804097,32.431551],[-86.804246,32.433425],[-86.804308,32.44547],[-86.804521,32.449798],[-86.804409,32.454673],[-86.804719,32.468659],[-86.805517,32.472372],[-86.807915,32.47619],[-86.829741,32.479407],[-86.829162,32.482294],[-86.873537,32.495081],[-86.88196,32.49459],[-86.883038,32.493641],[-86.882569,32.491887],[-86.884007,32.490722],[-86.879684,32.488183],[-86.884874,32.484454],[-86.886552,32.486051],[-86.888662,32.48583],[-86.895354,32.486531],[-86.895165,32.489147],[-86.895647,32.483984],[-86.894064,32.479987],[-86.895966,32.48151],[-86.894167,32.478492],[-86.905528,32.474027],[-86.89928,32.473788],[-86.890751,32.474608],[-86.890469,32.473644],[-86.8867,32.472956],[-86.884677,32.470287],[-86.881987,32.46788],[-86.886946,32.467219],[-86.889896,32.468575],[-86.895205,32.467951],[-86.898762,32.466757],[-86.900924,32.466475],[-86.906973,32.47346],[-86.930756,32.464177],[-86.939786,32.460071],[-86.93992,32.465018],[-86.940466,32.467644],[-86.941942,32.470599],[-86.942921,32.473668],[-86.945739,32.479162],[-86.952474,32.480511],[-86.953515,32.481892],[-86.953901,32.4838],[-86.95646,32.487876],[-86.9561,32.49118],[-86.95645,32.493276],[-86.955466,32.494446],[-86.955228,32.49629],[-86.954032,32.496932],[-86.955897,32.500968],[-86.95582,32.50282],[-86.953921,32.503776],[-86.951026,32.503798],[-86.950998,32.50031],[-86.947641,32.500383],[-86.946863,32.503206],[-86.945596,32.505732],[-86.945041,32.50977],[-86.941031,32.512242],[-86.939272,32.514305],[-86.935587,32.51572],[-86.930067,32.518304],[-86.931522,32.522174],[-86.929907,32.524889],[-86.92943,32.532175],[-86.927034,32.531986],[-86.926145,32.534296],[-86.924899,32.533935],[-86.922012,32.531657],[-86.919212,32.531073],[-86.915317,32.529471],[-86.912511,32.52929],[-86.910165,32.528257],[-86.908774,32.528388],[-86.908195,32.529713],[-86.909904,32.533009],[-86.9118,32.531087],[-86.914013,32.530661],[-86.917076,32.531854],[-86.918206,32.53333],[-86.92299,32.535516],[-86.926141,32.537689],[-86.925444,32.54278],[-86.923823,32.540031],[-86.917279,32.53964],[-86.911005,32.537233],[-86.90623,32.539766],[-86.90323,32.540139],[-86.903253,32.541432],[-86.906688,32.543522],[-86.905947,32.545126],[-86.905915,32.547297],[-86.903797,32.551738],[-86.904782,32.553579],[-86.902514,32.555494],[-86.900709,32.555918],[-86.899601,32.556989],[-86.900533,32.558563],[-86.899458,32.560414],[-86.899138,32.564242],[-86.898065,32.566285],[-86.897968,32.566848],[-86.898304,32.567687],[-86.899514,32.568471],[-86.900401,32.570194],[-86.900175,32.569004],[-86.89848,32.567634],[-86.898262,32.566215],[-86.899076,32.565027],[-86.899641,32.560429],[-86.90038,32.559378],[-86.902228,32.560435],[-86.907547,32.561093],[-86.910818,32.563012],[-86.912521,32.563294],[-86.913422,32.568362],[-86.912936,32.569736],[-86.922509,32.565542],[-86.924148,32.566702],[-86.924797,32.568674],[-86.927178,32.570347],[-86.929695,32.57108],[-86.931237,32.570735],[-86.937789,32.572668],[-86.941319,32.574464],[-86.942729,32.57592],[-86.942805,32.577461],[-86.946227,32.575905],[-86.947161,32.574057],[-86.947954,32.568832],[-86.951183,32.569338]]]}},{"type":"Feature","properties":{"zcta5":"36022","AFFGEOID10":"8600000US36022","GEOID10":"36022","ALAND10":234853546,"AWATER10":8147765,"county_name":"Autauga","state_code":"AL","county_state":"Autauga County, AL","county_fips":"01001","risk_level_county":"Higher Risk (60–69% vaccinated)","mean_vaccination_rate_county":69.22,"risk_level_zcta":"Higher Risk (60–69% vaccinated)","mean_vaccination_rate_zips":64.61,"cases":1},"geometry":{"type":"Polygon","coordinates":[[[-86.361913,32.727199],[-86.366584,32.727127],[-86.367788,32.727902],[-86.370097,32.727252],[-86.370995,32.72773],[-86.374756,32.727855],[-86.376251,32.728729],[-86.38143,32.728417],[-86.384085,32.726412],[-86.384943,32.727341],[-86.38585,32.726714],[-86.384415,32.724531],[-86.385225,32.719989],[-86.386287,32.716867],[-86.386551,32.714436],[-86.3899,32.711928],[-86.39151,32.712893],[-86.391464,32.708706],[-86.391056,32.706576],[-86.392031,32.702784],[-86.396163,32.701455],[-86.396892,32.698214],[-86.398187,32.696742],[-86.400192,32.696182],[-86.400146,32.694502],[-86.39844,32.69276],[-86.394739,32.692579],[-86.393437,32.689625],[-86.390532,32.687195],[-86.38985,32.68518],[-86.387478,32.683233],[-86.385031,32.678655],[-86.385001,32.675792],[-86.382163,32.672161],[-86.376742,32.671191],[-86.376727,32.669797],[-86.378518,32.66558],[-86.37983,32.667313],[-86.38399,32.668788],[-86.386993,32.6689],[-86.392486,32.670842],[-86.393116,32.672108],[-86.394254,32.671982],[-86.396812,32.669621],[-86.395657,32.66762],[-86.397431,32.664107],[-86.396771,32.662868],[-86.399512,32.660882],[-86.402873,32.660679],[-86.403698,32.659771],[-86.406025,32.660421],[-86.409699,32.659449],[-86.412912,32.657263],[-86.412962,32.669522],[-86.417185,32.669673],[-86.419474,32.668563],[-86.4213,32.669217],[-86.423686,32.66919],[-86.424583,32.669938],[-86.432346,32.671649],[-86.435434,32.673673],[-86.43875,32.674965],[-86.439654,32.675745],[-86.443698,32.677258],[-86.444628,32.678066],[-86.447138,32.678555],[-86.448367,32.680782],[-86.447808,32.682178],[-86.448666,32.682674],[-86.449161,32.684835],[-86.452913,32.690103],[-86.454195,32.690938],[-86.454822,32.692437],[-86.45664,32.69306],[-86.458762,32.692911],[-86.456669,32.689424],[-86.45987,32.689424],[-86.459352,32.687482],[-86.455691,32.683937],[-86.455262,32.680869],[-86.457091,32.678206],[-86.457382,32.675821],[-86.456858,32.673378],[-86.461067,32.670091],[-86.46233,32.667988],[-86.462698,32.664115],[-86.46393,32.662712],[-86.465186,32.662295],[-86.46901,32.662359],[-86.469701,32.664969],[-86.472341,32.666459],[-86.474708,32.668355],[-86.477908,32.670081],[-86.478182,32.671995],[-86.47945,32.673533],[-86.478573,32.674645],[-86.479111,32.676012],[-86.481852,32.674477],[-86.488664,32.674405],[-86.488429,32.672876],[-86.489423,32.672046],[-86.490577,32.666801],[-86.491066,32.67045],[-86.491067,32.674312],[-86.493199,32.674166],[-86.494891,32.671221],[-86.494878,32.669504],[-86.495912,32.66697],[-86.497815,32.666987],[-86.500575,32.66494],[-86.502271,32.664904],[-86.502176,32.663116],[-86.504282,32.664189],[-86.505418,32.665965],[-86.508102,32.667733],[-86.51218,32.664786],[-86.517466,32.664513],[-86.51969,32.663459],[-86.523711,32.663576],[-86.529545,32.660939],[-86.528573,32.658669],[-86.533619,32.658946],[-86.533742,32.656578],[-86.532424,32.649375],[-86.530545,32.645665],[-86.530856,32.643773],[-86.528247,32.6439],[-86.524429,32.64316],[-86.520741,32.642795],[-86.52109,32.643965],[-86.518463,32.645389],[-86.517604,32.646966],[-86.515485,32.648494],[-86.511052,32.648493],[-86.509311,32.649078],[-86.507914,32.646183],[-86.506959,32.642305],[-86.503988,32.638952],[-86.501755,32.637208],[-86.498588,32.633832],[-86.496772,32.630557],[-86.492575,32.625566],[-86.490544,32.624049],[-86.488184,32.623161],[-86.480966,32.612295],[-86.479342,32.608035],[-86.480816,32.607911],[-86.480166,32.605556],[-86.480761,32.604134],[-86.481025,32.600513],[-86.484601,32.598233],[-86.487736,32.594059],[-86.487753,32.590969],[-86.486494,32.590977],[-86.479658,32.589329],[-86.4789,32.586753],[-86.475569,32.586366],[-86.473396,32.584788],[-86.471403,32.580819],[-86.470823,32.578381],[-86.468686,32.579993],[-86.465768,32.581017],[-86.46424,32.582147],[-86.45856,32.586489],[-86.455309,32.588316],[-86.454688,32.583985],[-86.452946,32.583899],[-86.450218,32.582037],[-86.450453,32.579458],[-86.449021,32.578598],[-86.447947,32.576653],[-86.44179,32.574849],[-86.439623,32.571917],[-86.437666,32.570127],[-86.436382,32.567321],[-86.433874,32.565272],[-86.434255,32.564301],[-86.43642,32.564483],[-86.439782,32.564],[-86.446073,32.564072],[-86.448485,32.56351],[-86.45127,32.561464],[-86.454397,32.558641],[-86.456201,32.555713],[-86.459295,32.555312],[-86.458074,32.552427],[-86.457759,32.549509],[-86.451605,32.542354],[-86.451028,32.540847],[-86.453035,32.539344],[-86.454942,32.538544],[-86.455737,32.537456],[-86.446138,32.535586],[-86.442161,32.525897],[-86.440181,32.522222],[-86.437873,32.519902],[-86.429204,32.513243],[-86.42387,32.508379],[-86.418928,32.502286],[-86.411981,32.49174],[-86.412073,32.493105],[-86.412297,32.520816],[-86.41202,32.527768],[-86.411695,32.528097],[-86.403617,32.525722],[-86.404457,32.523218],[-86.400237,32.521487],[-86.397546,32.519376],[-86.401412,32.516683],[-86.403715,32.516726],[-86.402792,32.511355],[-86.401209,32.507738],[-86.395019,32.507325],[-86.396394,32.508674],[-86.396606,32.510411],[-86.390626,32.510424],[-86.390553,32.513866],[-86.390102,32.513072],[-86.390162,32.522443],[-86.387885,32.522449],[-86.387885,32.5253],[-86.393959,32.525365],[-86.393875,32.528097],[-86.393931,32.528866],[-86.390617,32.528839],[-86.393964,32.529228],[-86.393881,32.531868],[-86.392997,32.532348],[-86.393871,32.534048],[-86.395311,32.538967],[-86.395099,32.543452],[-86.395035,32.544474],[-86.391681,32.542887],[-86.389908,32.543225],[-86.387239,32.541705],[-86.385229,32.541953],[-86.380695,32.540736],[-86.36905,32.540744],[-86.36905,32.534928],[-86.364389,32.534928],[-86.364389,32.541257],[-86.360629,32.541219],[-86.361096,32.542757],[-86.363908,32.545252],[-86.364859,32.543668],[-86.369093,32.54363],[-86.369102,32.545474],[-86.371121,32.54546],[-86.371604,32.547073],[-86.371759,32.546902],[-86.372352,32.5468],[-86.372429,32.547299],[-86.373028,32.546871],[-86.373969,32.547021],[-86.374603,32.547362],[-86.374579,32.548436],[-86.374587,32.550718],[-86.374587,32.550767],[-86.369342,32.550815],[-86.369022,32.550542],[-86.369274,32.550927],[-86.377879,32.550849],[-86.377948,32.554876],[-86.384284,32.556264],[-86.385666,32.55585],[-86.385674,32.557644],[-86.387335,32.558351],[-86.38884,32.556715],[-86.389329,32.559572],[-86.388345,32.559596],[-86.385673,32.559564],[-86.385672,32.562073],[-86.382756,32.562132],[-86.38281,32.563267],[-86.381205,32.5611],[-86.379217,32.560201],[-86.375846,32.560443],[-86.375246,32.55802],[-86.37045,32.555479],[-86.370622,32.554631],[-86.363708,32.554678],[-86.363087,32.555239],[-86.360636,32.554798],[-86.360472,32.561054],[-86.35627,32.561033],[-86.355976,32.565627],[-86.352106,32.565573],[-86.346367,32.564273],[-86.344549,32.565753],[-86.34047,32.570394],[-86.339037,32.573408],[-86.339936,32.576442],[-86.345652,32.583795],[-86.344626,32.583734],[-86.341685,32.581327],[-86.339061,32.577205],[-86.334313,32.57904],[-86.332199,32.578823],[-86.322783,32.576],[-86.321889,32.581812],[-86.322159,32.58262],[-86.322609,32.590897],[-86.320075,32.595498],[-86.321968,32.597842],[-86.323963,32.599007],[-86.327439,32.602553],[-86.327491,32.606364],[-86.326192,32.60929],[-86.324939,32.61055],[-86.324685,32.611967],[-86.326343,32.614234],[-86.330267,32.616239],[-86.33143,32.61734],[-86.330752,32.619477],[-86.33084,32.625424],[-86.325546,32.627566],[-86.323696,32.627544],[-86.325021,32.632418],[-86.326492,32.632474],[-86.326627,32.636505],[-86.318578,32.635539],[-86.319843,32.638173],[-86.319133,32.639051],[-86.316034,32.636032],[-86.313148,32.637341],[-86.306766,32.636665],[-86.306347,32.637545],[-86.303822,32.638807],[-86.302721,32.641812],[-86.301358,32.642741],[-86.297548,32.642527],[-86.294432,32.640057],[-86.29888,32.645377],[-86.303168,32.649782],[-86.304385,32.652517],[-86.311044,32.659396],[-86.31895,32.660525],[-86.323627,32.665084],[-86.326707,32.668809],[-86.328418,32.672452],[-86.33021,32.674371],[-86.331876,32.677325],[-86.332423,32.678849],[-86.334023,32.680571],[-86.336471,32.68525],[-86.341086,32.690545],[-86.345849,32.695644],[-86.346481,32.697065],[-86.348796,32.699817],[-86.351618,32.705849],[-86.353251,32.708559],[-86.354911,32.712989],[-86.355062,32.714588],[-86.35638,32.717222],[-86.360392,32.722178],[-86.361913,32.727199]],[[-86.40429,32.571754],[-86.403165,32.571992],[-86.402798,32.575026],[-86.40204,32.575121],[-86.401933,32.571964],[-86.398803,32.571936],[-86.398471,32.576254],[-86.393442,32.576262],[-86.390158,32.574194],[-86.386952,32.571295],[-86.386144,32.569902],[-86.386154,32.568807],[-86.391032,32.568808],[-86.39083,32.563373],[-86.388159,32.564501],[-86.388365,32.560596],[-86.390947,32.560617],[-86.390967,32.554215],[-86.393646,32.554336],[-86.394327,32.558906],[-86.395993,32.561729],[-86.399355,32.565199],[-86.402388,32.569336],[-86.40429,32.571754]]]}},{"type":"Feature","properties":{"zcta5":"36758","AFFGEOID10":"8600000US36758","GEOID10":"36758","ALAND10":226475530,"AWATER10":1289005,"county_name":"Autauga","state_code":"AL","county_state":"Autauga County, AL","county_fips":"01001","risk_level_county":"Higher Risk (60–69% vaccinated)","mean_vaccination_rate_county":69.22,"risk_level_zcta":"Lower Risk (80–84% vaccinated)","mean_vaccination_rate_zips":84.91,"cases":1},"geometry":{"type":"Polygon","coordinates":[[[-86.995144,32.621122],[-86.994342,32.617573],[-86.995124,32.61614],[-86.99374,32.612485],[-86.992174,32.610531],[-86.990553,32.607473],[-86.990351,32.601973],[-86.989536,32.599708],[-86.987467,32.599672],[-86.986832,32.596503],[-86.985782,32.59452],[-86.987993,32.591665],[-86.987662,32.589008],[-86.988092,32.585548],[-86.987457,32.584547],[-86.987474,32.582301],[-86.986604,32.581324],[-86.98667,32.57882],[-86.984743,32.576848],[-86.98474,32.574966],[-86.976275,32.577143],[-86.974555,32.577757],[-86.971596,32.579808],[-86.971456,32.577641],[-86.970306,32.578569],[-86.967594,32.579123],[-86.96602,32.571129],[-86.955162,32.57409],[-86.954001,32.571848],[-86.951183,32.569338],[-86.947954,32.568832],[-86.947161,32.574057],[-86.946227,32.575905],[-86.942805,32.577461],[-86.942729,32.57592],[-86.941319,32.574464],[-86.937789,32.572668],[-86.931237,32.570735],[-86.929695,32.57108],[-86.927178,32.570347],[-86.924797,32.568674],[-86.924148,32.566702],[-86.922509,32.565542],[-86.912936,32.569736],[-86.913422,32.568362],[-86.912521,32.563294],[-86.910818,32.563012],[-86.907547,32.561093],[-86.902228,32.560435],[-86.90038,32.559378],[-86.899641,32.560429],[-86.899076,32.565027],[-86.898262,32.566215],[-86.89848,32.567634],[-86.900175,32.569004],[-86.900401,32.570194],[-86.901367,32.574834],[-86.898707,32.577446],[-86.901457,32.579925],[-86.901948,32.58193],[-86.903718,32.583401],[-86.903788,32.584726],[-86.902465,32.586831],[-86.902706,32.587286],[-86.903511,32.587686],[-86.904415,32.58776],[-86.905211,32.588475],[-86.905257,32.590695],[-86.904068,32.591737],[-86.903531,32.592757],[-86.90443,32.595328],[-86.90611,32.597534],[-86.905636,32.600641],[-86.902633,32.602563],[-86.898986,32.602106],[-86.897798,32.597873],[-86.895896,32.594472],[-86.893762,32.591717],[-86.891767,32.591915],[-86.886922,32.591549],[-86.883144,32.592897],[-86.87905,32.596291],[-86.874731,32.597372],[-86.869314,32.596578],[-86.868743,32.598518],[-86.86973,32.601743],[-86.867959,32.604931],[-86.865819,32.60593],[-86.861501,32.606816],[-86.857983,32.608699],[-86.855658,32.61235],[-86.85279,32.612842],[-86.850152,32.614742],[-86.849753,32.616982],[-86.845007,32.617579],[-86.842177,32.619735],[-86.839796,32.619925],[-86.835668,32.620941],[-86.834169,32.620751],[-86.831244,32.618609],[-86.827861,32.61546],[-86.82772,32.614179],[-86.817964,32.618645],[-86.81609,32.61802],[-86.813581,32.618327],[-86.814131,32.615077],[-86.815933,32.61253],[-86.815509,32.609353],[-86.81141,32.60754],[-86.811827,32.604751],[-86.811087,32.6037],[-86.807989,32.601965],[-86.801508,32.602215],[-86.801536,32.604157],[-86.802537,32.607284],[-86.805297,32.609954],[-86.801563,32.618416],[-86.795145,32.621734],[-86.795565,32.626648],[-86.796355,32.628554],[-86.791045,32.630983],[-86.784548,32.633957],[-86.784797,32.635675],[-86.78422,32.637743],[-86.781771,32.639784],[-86.782106,32.641213],[-86.7808,32.64289],[-86.786472,32.644173],[-86.788656,32.647597],[-86.789488,32.64814],[-86.788948,32.649609],[-86.787176,32.651056],[-86.786252,32.654357],[-86.787425,32.656087],[-86.787599,32.66052],[-86.771532,32.660717],[-86.774627,32.665829],[-86.776833,32.668174],[-86.781806,32.670267],[-86.784951,32.671326],[-86.786876,32.67235],[-86.789008,32.674456],[-86.790188,32.677419],[-86.791511,32.684821],[-86.792367,32.683467],[-86.792407,32.678345],[-86.791399,32.676876],[-86.79059,32.672732],[-86.791968,32.669401],[-86.792103,32.663428],[-86.794688,32.663012],[-86.801033,32.664398],[-86.804255,32.663203],[-86.806489,32.664305],[-86.81069,32.664265],[-86.8111,32.662563],[-86.809863,32.66108],[-86.812633,32.660179],[-86.816574,32.660117],[-86.832178,32.660756],[-86.831881,32.663202],[-86.830557,32.666654],[-86.830476,32.67147],[-86.829073,32.67306],[-86.82883,32.678119],[-86.830424,32.681849],[-86.8302,32.68329],[-86.828375,32.684938],[-86.827019,32.687157],[-86.826677,32.688851],[-86.827404,32.689996],[-86.827299,32.696415],[-86.823203,32.696731],[-86.821279,32.695993],[-86.820497,32.696196],[-86.820215,32.69811],[-86.818703,32.700665],[-86.815248,32.702669],[-86.813946,32.70451],[-86.817371,32.70712],[-86.821731,32.708396],[-86.824336,32.70949],[-86.830879,32.714244],[-86.832965,32.712003],[-86.836654,32.712052],[-86.839487,32.714059],[-86.842428,32.713799],[-86.843914,32.712569],[-86.84683,32.711517],[-86.848572,32.712443],[-86.853544,32.711879],[-86.855966,32.71065],[-86.858022,32.710697],[-86.859685,32.711996],[-86.861545,32.712274],[-86.864318,32.711893],[-86.863758,32.716203],[-86.86113,32.719852],[-86.863858,32.722847],[-86.866593,32.724271],[-86.864887,32.725735],[-86.879234,32.734254],[-86.880777,32.735284],[-86.883186,32.734006],[-86.882849,32.732905],[-86.884188,32.732988],[-86.887422,32.73189],[-86.888781,32.72994],[-86.891613,32.729979],[-86.891925,32.728645],[-86.888668,32.727521],[-86.890796,32.723937],[-86.889815,32.721859],[-86.890779,32.720155],[-86.892534,32.720366],[-86.893544,32.719596],[-86.89335,32.717512],[-86.894856,32.716898],[-86.89653,32.715078],[-86.894763,32.710862],[-86.894667,32.709196],[-86.896819,32.707334],[-86.897736,32.705876],[-86.897515,32.70333],[-86.900813,32.702508],[-86.902383,32.701242],[-86.903551,32.702982],[-86.904401,32.706279],[-86.906857,32.706477],[-86.909498,32.710267],[-86.913283,32.71083],[-86.914247,32.709809],[-86.913467,32.713214],[-86.912351,32.714345],[-86.912546,32.717731],[-86.911973,32.720466],[-86.915194,32.721496],[-86.91713,32.723232],[-86.918642,32.72621],[-86.921,32.727171],[-86.926759,32.727969],[-86.930775,32.727078],[-86.933038,32.729484],[-86.93497,32.730795],[-86.935749,32.732131],[-86.938358,32.734254],[-86.94087,32.735298],[-86.941216,32.733862],[-86.94511,32.730974],[-86.949442,32.729954],[-86.953217,32.730277],[-86.956718,32.730007],[-86.957905,32.730367],[-86.963192,32.728591],[-86.968943,32.727981],[-86.970451,32.728256],[-86.97144,32.726605],[-86.972362,32.723501],[-86.973225,32.722213],[-86.975383,32.721169],[-86.975785,32.71969],[-86.977171,32.718425],[-86.979471,32.713295],[-86.979464,32.712091],[-86.983316,32.708275],[-86.983277,32.707203],[-86.979358,32.707566],[-86.978533,32.710014],[-86.977534,32.710894],[-86.972569,32.711613],[-86.970943,32.711025],[-86.968447,32.709152],[-86.969824,32.707388],[-86.96998,32.704439],[-86.970742,32.701105],[-86.970181,32.699475],[-86.967881,32.696894],[-86.966126,32.691333],[-86.963323,32.689878],[-86.961741,32.690851],[-86.959681,32.689293],[-86.953856,32.691425],[-86.950441,32.690875],[-86.948815,32.692937],[-86.94746,32.69319],[-86.944886,32.690097],[-86.943071,32.689089],[-86.94196,32.687508],[-86.941174,32.684827],[-86.937218,32.680428],[-86.93719,32.679315],[-86.939093,32.679628],[-86.94506,32.678841],[-86.947169,32.677107],[-86.947428,32.674577],[-86.948968,32.673775],[-86.951198,32.674726],[-86.959219,32.673988],[-86.960743,32.673138],[-86.96114,32.671426],[-86.959929,32.668044],[-86.956203,32.663893],[-86.971845,32.663749],[-86.969977,32.662041],[-86.967221,32.657908],[-86.966777,32.655552],[-86.970084,32.654801],[-86.971243,32.651918],[-86.973599,32.650884],[-86.973683,32.648654],[-86.97487,32.647467],[-86.976947,32.647319],[-86.977354,32.643486],[-86.981446,32.640412],[-86.98254,32.640548],[-86.983243,32.638714],[-86.984727,32.637907],[-86.987397,32.634445],[-86.986053,32.631744],[-86.986119,32.627697],[-86.987859,32.623872],[-86.991419,32.624473],[-86.993805,32.621723],[-86.995144,32.621122]]]}},{"type":"Feature","properties":{"zcta5":"36006","AFFGEOID10":"8600000US36006","GEOID10":"36006","ALAND10":185067230,"AWATER10":232065,"county_name":"Autauga","state_code":"AL","county_state":"Autauga County, AL","county_fips":"01001","risk_level_county":"Higher Risk (60–69% vaccinated)","mean_vaccination_rate_county":69.22,"risk_level_zcta":"Medium Risk (70–79% vaccinated)","mean_vaccination_rate_zips":76.82,"cases":1},"geometry":{"type":"Polygon","coordinates":[[[-86.791045,32.630983],[-86.789074,32.62981],[-86.78509,32.626195],[-86.781284,32.624211],[-86.779271,32.619242],[-86.778264,32.615647],[-86.778659,32.613191],[-86.777751,32.610476],[-86.777817,32.609706],[-86.780302,32.6079],[-86.780582,32.60606],[-86.782505,32.602387],[-86.782461,32.601044],[-86.783633,32.598022],[-86.784881,32.597078],[-86.784893,32.595225],[-86.786174,32.59313],[-86.786026,32.592022],[-86.784643,32.586902],[-86.782247,32.583028],[-86.782483,32.579196],[-86.781724,32.576363],[-86.784278,32.575892],[-86.786068,32.573659],[-86.787831,32.573383],[-86.788915,32.57189],[-86.789374,32.569541],[-86.794441,32.567535],[-86.795999,32.565513],[-86.795667,32.564255],[-86.797944,32.563116],[-86.798737,32.560488],[-86.798105,32.559106],[-86.781685,32.559226],[-86.780692,32.559035],[-86.779211,32.558196],[-86.774637,32.554304],[-86.773074,32.548916],[-86.771508,32.548215],[-86.770821,32.54824],[-86.764564,32.550593],[-86.76007,32.5514],[-86.758357,32.552216],[-86.755192,32.554433],[-86.752914,32.55516],[-86.750038,32.554643],[-86.74395,32.552951],[-86.7419,32.551955],[-86.740383,32.549582],[-86.740243,32.547198],[-86.739524,32.545834],[-86.737882,32.545285],[-86.735708,32.545676],[-86.732947,32.54531],[-86.732203,32.544641],[-86.731014,32.541947],[-86.729741,32.541103],[-86.725546,32.539308],[-86.721847,32.537007],[-86.71512,32.534176],[-86.711775,32.531712],[-86.708302,32.526967],[-86.706351,32.525613],[-86.702563,32.524313],[-86.702709,32.531087],[-86.699977,32.532778],[-86.69761,32.535237],[-86.696524,32.536957],[-86.694635,32.541375],[-86.698606,32.544024],[-86.699772,32.545164],[-86.700144,32.54891],[-86.702425,32.55077],[-86.705523,32.555127],[-86.707282,32.555287],[-86.708145,32.556513],[-86.710178,32.557113],[-86.710406,32.559182],[-86.711744,32.562604],[-86.711849,32.567959],[-86.713963,32.570697],[-86.712956,32.571236],[-86.711458,32.573453],[-86.710893,32.577095],[-86.708024,32.58088],[-86.707017,32.584615],[-86.707776,32.587004],[-86.707789,32.591939],[-86.708203,32.594737],[-86.707925,32.59727],[-86.70214,32.602913],[-86.699159,32.606357],[-86.696281,32.610346],[-86.695861,32.611894],[-86.695955,32.613619],[-86.69794,32.617444],[-86.698264,32.621252],[-86.69191,32.625418],[-86.688631,32.626463],[-86.686984,32.6259],[-86.682983,32.626171],[-86.679629,32.62565],[-86.675643,32.625703],[-86.67445,32.625194],[-86.669187,32.627539],[-86.668192,32.628275],[-86.669627,32.629196],[-86.669607,32.631946],[-86.670379,32.633792],[-86.675319,32.637886],[-86.67632,32.639387],[-86.676617,32.642013],[-86.677576,32.643898],[-86.677285,32.645417],[-86.67841,32.646513],[-86.679251,32.648339],[-86.679259,32.649428],[-86.677671,32.650118],[-86.677922,32.652051],[-86.678821,32.65296],[-86.677933,32.65524],[-86.674092,32.657593],[-86.673831,32.658423],[-86.666066,32.664572],[-86.66337,32.668549],[-86.661844,32.668388],[-86.657677,32.669297],[-86.655359,32.668826],[-86.653782,32.667856],[-86.649813,32.66771],[-86.64943,32.665863],[-86.646885,32.668605],[-86.645861,32.670271],[-86.644026,32.675251],[-86.642551,32.677864],[-86.642281,32.679695],[-86.642869,32.680722],[-86.647236,32.685785],[-86.644511,32.68809],[-86.643186,32.688729],[-86.638451,32.68856],[-86.625963,32.684779],[-86.625756,32.685473],[-86.627621,32.688293],[-86.628898,32.693637],[-86.629072,32.696537],[-86.628211,32.699263],[-86.626154,32.701265],[-86.62619,32.706381],[-86.62961,32.706353],[-86.650353,32.696823],[-86.652483,32.69905],[-86.649986,32.700634],[-86.64753,32.704639],[-86.648441,32.706175],[-86.645233,32.706221],[-86.64204,32.709274],[-86.641942,32.713144],[-86.64108,32.716093],[-86.640588,32.721593],[-86.635629,32.725591],[-86.633282,32.726965],[-86.631827,32.727069],[-86.632171,32.730479],[-86.648666,32.724049],[-86.652724,32.721198],[-86.654641,32.721262],[-86.657638,32.722634],[-86.661356,32.722962],[-86.664957,32.721646],[-86.666909,32.721362],[-86.672002,32.722951],[-86.674287,32.723083],[-86.676706,32.722512],[-86.679999,32.722316],[-86.687305,32.721362],[-86.689831,32.721317],[-86.697683,32.72187],[-86.703077,32.721536],[-86.70861,32.723016],[-86.710342,32.723059],[-86.716285,32.721367],[-86.716477,32.71647],[-86.719522,32.716302],[-86.721973,32.713703],[-86.72955,32.711353],[-86.73721,32.709877],[-86.742067,32.708641],[-86.745586,32.708412],[-86.746086,32.705737],[-86.747872,32.70288],[-86.74889,32.702464],[-86.751674,32.706221],[-86.753159,32.705652],[-86.756007,32.706252],[-86.757271,32.707445],[-86.759192,32.706322],[-86.763336,32.705792],[-86.765243,32.704414],[-86.768439,32.704803],[-86.770981,32.704743],[-86.774802,32.702388],[-86.777033,32.701439],[-86.780302,32.69746],[-86.776001,32.69332],[-86.77446,32.692411],[-86.775223,32.691747],[-86.775258,32.689845],[-86.778404,32.687711],[-86.77842,32.686266],[-86.776003,32.683557],[-86.776381,32.682039],[-86.777688,32.681492],[-86.77869,32.678896],[-86.778026,32.674089],[-86.778386,32.672652],[-86.780152,32.670869],[-86.781806,32.670267],[-86.776833,32.668174],[-86.774627,32.665829],[-86.771532,32.660717],[-86.787599,32.66052],[-86.787425,32.656087],[-86.786252,32.654357],[-86.787176,32.651056],[-86.788948,32.649609],[-86.789488,32.64814],[-86.788656,32.647597],[-86.786472,32.644173],[-86.7808,32.64289],[-86.782106,32.641213],[-86.781771,32.639784],[-86.78422,32.637743],[-86.784797,32.635675],[-86.784548,32.633957],[-86.791045,32.630983]]]}},{"type":"Feature","properties":{"zcta5":"36749","AFFGEOID10":"8600000US36749","GEOID10":"36749","ALAND10":160351790,"AWATER10":1364605,"county_name":"Autauga","state_code":"AL","county_state":"Autauga County, AL","county_fips":"01001","risk_level_county":"Higher Risk (60–69% vaccinated)","mean_vaccination_rate_county":69.22,"risk_level_zcta":"Medium Risk (70–79% vaccinated)","mean_vaccination_rate_zips":72.79,"cases":1},"geometry":{"type":"Polygon","coordinates":[[[-86.900401,32.570194],[-86.899514,32.568471],[-86.898304,32.567687],[-86.897968,32.566848],[-86.898065,32.566285],[-86.899138,32.564242],[-86.899458,32.560414],[-86.900533,32.558563],[-86.899601,32.556989],[-86.900709,32.555918],[-86.902514,32.555494],[-86.904782,32.553579],[-86.903797,32.551738],[-86.905915,32.547297],[-86.905947,32.545126],[-86.906688,32.543522],[-86.903253,32.541432],[-86.90323,32.540139],[-86.90623,32.539766],[-86.911005,32.537233],[-86.917279,32.53964],[-86.923823,32.540031],[-86.925444,32.54278],[-86.926141,32.537689],[-86.92299,32.535516],[-86.918206,32.53333],[-86.917076,32.531854],[-86.914013,32.530661],[-86.9118,32.531087],[-86.909904,32.533009],[-86.908195,32.529713],[-86.908774,32.528388],[-86.910165,32.528257],[-86.912511,32.52929],[-86.915317,32.529471],[-86.919212,32.531073],[-86.922012,32.531657],[-86.924899,32.533935],[-86.926145,32.534296],[-86.927034,32.531986],[-86.92943,32.532175],[-86.929907,32.524889],[-86.931522,32.522174],[-86.930067,32.518304],[-86.935587,32.51572],[-86.939272,32.514305],[-86.941031,32.512242],[-86.945041,32.50977],[-86.945596,32.505732],[-86.946863,32.503206],[-86.947641,32.500383],[-86.950998,32.50031],[-86.951026,32.503798],[-86.953921,32.503776],[-86.95582,32.50282],[-86.955897,32.500968],[-86.954032,32.496932],[-86.955228,32.49629],[-86.955466,32.494446],[-86.95645,32.493276],[-86.9561,32.49118],[-86.95646,32.487876],[-86.953901,32.4838],[-86.953515,32.481892],[-86.952474,32.480511],[-86.945739,32.479162],[-86.942921,32.473668],[-86.941942,32.470599],[-86.940466,32.467644],[-86.93992,32.465018],[-86.939786,32.460071],[-86.930756,32.464177],[-86.906973,32.47346],[-86.900924,32.466475],[-86.898762,32.466757],[-86.895205,32.467951],[-86.889896,32.468575],[-86.886946,32.467219],[-86.881987,32.46788],[-86.884677,32.470287],[-86.8867,32.472956],[-86.890469,32.473644],[-86.890751,32.474608],[-86.89928,32.473788],[-86.905528,32.474027],[-86.894167,32.478492],[-86.895966,32.48151],[-86.894064,32.479987],[-86.895647,32.483984],[-86.895165,32.489147],[-86.895354,32.486531],[-86.888662,32.48583],[-86.886552,32.486051],[-86.884874,32.484454],[-86.879684,32.488183],[-86.884007,32.490722],[-86.882569,32.491887],[-86.883038,32.493641],[-86.88196,32.49459],[-86.873537,32.495081],[-86.829162,32.482294],[-86.829741,32.479407],[-86.826218,32.484209],[-86.82419,32.485768],[-86.823758,32.487831],[-86.824164,32.48923],[-86.82165,32.49033],[-86.819675,32.494087],[-86.82184,32.498281],[-86.81808,32.498465],[-86.81451,32.496749],[-86.811697,32.4962],[-86.809793,32.496631],[-86.807811,32.501728],[-86.805718,32.511536],[-86.804358,32.514758],[-86.803112,32.516106],[-86.802639,32.518496],[-86.803561,32.523277],[-86.804796,32.524529],[-86.8061,32.524154],[-86.810536,32.524085],[-86.812945,32.522548],[-86.814108,32.522686],[-86.818462,32.52523],[-86.820853,32.525452],[-86.822392,32.524686],[-86.82296,32.526283],[-86.822446,32.52823],[-86.820165,32.530904],[-86.818842,32.531229],[-86.817901,32.532952],[-86.816129,32.533156],[-86.814127,32.538196],[-86.812268,32.539087],[-86.812442,32.54018],[-86.810473,32.540644],[-86.810364,32.543591],[-86.808909,32.545444],[-86.805506,32.547196],[-86.806469,32.547955],[-86.806381,32.550328],[-86.804844,32.551278],[-86.803099,32.551384],[-86.803197,32.552497],[-86.799071,32.554941],[-86.799291,32.556749],[-86.798382,32.55735],[-86.798105,32.559106],[-86.798737,32.560488],[-86.797944,32.563116],[-86.795667,32.564255],[-86.795999,32.565513],[-86.794441,32.567535],[-86.789374,32.569541],[-86.788915,32.57189],[-86.787831,32.573383],[-86.786068,32.573659],[-86.784278,32.575892],[-86.781724,32.576363],[-86.782483,32.579196],[-86.782247,32.583028],[-86.784643,32.586902],[-86.786026,32.592022],[-86.786174,32.59313],[-86.784893,32.595225],[-86.784881,32.597078],[-86.783633,32.598022],[-86.782461,32.601044],[-86.782505,32.602387],[-86.780582,32.60606],[-86.780302,32.6079],[-86.777817,32.609706],[-86.777751,32.610476],[-86.778659,32.613191],[-86.778264,32.615647],[-86.779271,32.619242],[-86.781284,32.624211],[-86.78509,32.626195],[-86.789074,32.62981],[-86.791045,32.630983],[-86.796355,32.628554],[-86.795565,32.626648],[-86.795145,32.621734],[-86.801563,32.618416],[-86.805297,32.609954],[-86.802537,32.607284],[-86.801536,32.604157],[-86.801508,32.602215],[-86.807989,32.601965],[-86.811087,32.6037],[-86.811827,32.604751],[-86.81141,32.60754],[-86.815509,32.609353],[-86.815933,32.61253],[-86.814131,32.615077],[-86.813581,32.618327],[-86.81609,32.61802],[-86.817964,32.618645],[-86.82772,32.614179],[-86.827861,32.61546],[-86.831244,32.618609],[-86.834169,32.620751],[-86.835668,32.620941],[-86.839796,32.619925],[-86.842177,32.619735],[-86.845007,32.617579],[-86.849753,32.616982],[-86.850152,32.614742],[-86.85279,32.612842],[-86.855658,32.61235],[-86.857983,32.608699],[-86.861501,32.606816],[-86.865819,32.60593],[-86.867959,32.604931],[-86.86973,32.601743],[-86.868743,32.598518],[-86.869314,32.596578],[-86.874731,32.597372],[-86.87905,32.596291],[-86.883144,32.592897],[-86.886922,32.591549],[-86.891767,32.591915],[-86.893762,32.591717],[-86.895896,32.594472],[-86.897798,32.597873],[-86.898986,32.602106],[-86.902633,32.602563],[-86.905636,32.600641],[-86.90611,32.597534],[-86.90443,32.595328],[-86.903531,32.592757],[-86.904068,32.591737],[-86.905257,32.590695],[-86.905211,32.588475],[-86.904415,32.58776],[-86.903511,32.587686],[-86.902706,32.587286],[-86.902465,32.586831],[-86.903788,32.584726],[-86.903718,32.583401],[-86.901948,32.58193],[-86.901457,32.579925],[-86.898707,32.577446],[-86.901367,32.574834],[-86.900401,32.570194]]]}},{"type":"Feature","properties":{"zcta5":"36066","AFFGEOID10":"8600000US36066","GEOID10":"36066","ALAND10":51662883,"AWATER10":2898266,"county_name":"Autauga","state_code":"AL","county_state":"Autauga County, AL","county_fips":"01001","risk_level_county":"Higher Risk (60–69% vaccinated)","mean_vaccination_rate_county":69.22,"risk_level_zcta":"Medium Risk (70–79% vaccinated)","mean_vaccination_rate_zips":74.65,"cases":1},"geometry":{"type":"MultiPolygon","coordinates":[[[[-86.451605,32.542354],[-86.456476,32.539136],[-86.455771,32.534484],[-86.455226,32.528941],[-86.455499,32.525523],[-86.456907,32.519799],[-86.457245,32.517581],[-86.456338,32.51146],[-86.456473,32.503915],[-86.453936,32.493175],[-86.453689,32.491906],[-86.45354,32.486092],[-86.451909,32.481703],[-86.452044,32.476497],[-86.451707,32.470832],[-86.450834,32.466667],[-86.450679,32.460341],[-86.448904,32.460305],[-86.447589,32.45799],[-86.448581,32.457296],[-86.446491,32.455078],[-86.445682,32.45496],[-86.446411,32.456764],[-86.442631,32.456865],[-86.441328,32.453643],[-86.43807,32.453493],[-86.437717,32.451559],[-86.43838,32.450457],[-86.438108,32.44721],[-86.425967,32.438592],[-86.417925,32.432496],[-86.417993,32.4401],[-86.413164,32.441535],[-86.41157,32.442442],[-86.411489,32.436185],[-86.411369,32.426948],[-86.411373,32.426497],[-86.411348,32.423997],[-86.411278,32.419922],[-86.411172,32.409937],[-86.40975,32.410615],[-86.408331,32.410989],[-86.407822,32.411102],[-86.400578,32.411623],[-86.397855,32.412821],[-86.396861,32.413674],[-86.395909,32.416015],[-86.396695,32.419106],[-86.399719,32.423951],[-86.399041,32.426461],[-86.396624,32.427245],[-86.390051,32.426712],[-86.386382,32.426893],[-86.382971,32.427536],[-86.374913,32.429946],[-86.373071,32.429837],[-86.372769,32.430535],[-86.368979,32.430636],[-86.370736,32.433206],[-86.387863,32.460198],[-86.387966,32.460352],[-86.388877,32.46181],[-86.394364,32.470461],[-86.397412,32.474815],[-86.408811,32.488698],[-86.412073,32.493105],[-86.411981,32.49174],[-86.418928,32.502286],[-86.42387,32.508379],[-86.429204,32.513243],[-86.437873,32.519902],[-86.440181,32.522222],[-86.442161,32.525897],[-86.446138,32.535586],[-86.455737,32.537456],[-86.454942,32.538544],[-86.453035,32.539344],[-86.451028,32.540847],[-86.451605,32.542354]]],[[[-86.46424,32.582147],[-86.464282,32.57089],[-86.463921,32.567667],[-86.46132,32.559781],[-86.459295,32.555312],[-86.456201,32.555713],[-86.454397,32.558641],[-86.45127,32.561464],[-86.448485,32.56351],[-86.446073,32.564072],[-86.439782,32.564],[-86.43642,32.564483],[-86.434255,32.564301],[-86.433874,32.565272],[-86.436382,32.567321],[-86.437666,32.570127],[-86.439623,32.571917],[-86.44179,32.574849],[-86.447947,32.576653],[-86.449021,32.578598],[-86.450453,32.579458],[-86.450218,32.582037],[-86.452946,32.583899],[-86.454688,32.583985],[-86.455309,32.588316],[-86.45856,32.586489],[-86.46424,32.582147]]]]}},{"type":"Feature","properties":{"zcta5":"36003","AFFGEOID10":"8600000US36003","GEOID10":"36003","ALAND10":241940955,"AWATER10":8772528,"county_name":"Autauga","state_code":"AL","county_state":"Autauga County, AL","county_fips":"01001","risk_level_county":"Higher Risk (60–69% vaccinated)","mean_vaccination_rate_county":69.22,"risk_level_zcta":"Higher Risk (60–69% vaccinated)","mean_vaccination_rate_zips":63.12,"cases":1},"geometry":{"type":"Polygon","coordinates":[[[-86.798105,32.559106],[-86.798382,32.55735],[-86.799291,32.556749],[-86.799071,32.554941],[-86.803197,32.552497],[-86.803099,32.551384],[-86.804844,32.551278],[-86.806381,32.550328],[-86.806469,32.547955],[-86.805506,32.547196],[-86.808909,32.545444],[-86.810364,32.543591],[-86.810473,32.540644],[-86.812442,32.54018],[-86.812268,32.539087],[-86.814127,32.538196],[-86.816129,32.533156],[-86.817901,32.532952],[-86.818842,32.531229],[-86.820165,32.530904],[-86.822446,32.52823],[-86.82296,32.526283],[-86.822392,32.524686],[-86.820853,32.525452],[-86.818462,32.52523],[-86.814108,32.522686],[-86.812945,32.522548],[-86.810536,32.524085],[-86.8061,32.524154],[-86.804796,32.524529],[-86.803561,32.523277],[-86.802639,32.518496],[-86.803112,32.516106],[-86.804358,32.514758],[-86.805718,32.511536],[-86.807811,32.501728],[-86.809793,32.496631],[-86.811697,32.4962],[-86.81451,32.496749],[-86.81808,32.498465],[-86.82184,32.498281],[-86.819675,32.494087],[-86.82165,32.49033],[-86.824164,32.48923],[-86.823758,32.487831],[-86.82419,32.485768],[-86.826218,32.484209],[-86.829741,32.479407],[-86.807915,32.47619],[-86.805517,32.472372],[-86.804719,32.468659],[-86.804409,32.454673],[-86.804521,32.449798],[-86.804308,32.44547],[-86.804246,32.433425],[-86.804097,32.431551],[-86.801701,32.426229],[-86.801124,32.422632],[-86.798609,32.416812],[-86.797113,32.412174],[-86.795351,32.409889],[-86.792604,32.41041],[-86.786402,32.409328],[-86.785656,32.407235],[-86.786229,32.406115],[-86.788045,32.405701],[-86.787115,32.404401],[-86.784755,32.404242],[-86.785123,32.401933],[-86.785929,32.401252],[-86.784297,32.400259],[-86.785885,32.397864],[-86.785185,32.397269],[-86.783086,32.397111],[-86.782227,32.398384],[-86.782545,32.394824],[-86.782875,32.392272],[-86.784391,32.393132],[-86.783799,32.391547],[-86.784012,32.388885],[-86.783369,32.386837],[-86.782556,32.379575],[-86.783711,32.37872],[-86.783858,32.375137],[-86.782467,32.375137],[-86.781411,32.377747],[-86.781243,32.379472],[-86.781516,32.384956],[-86.78228,32.388877],[-86.781354,32.392494],[-86.778365,32.394601],[-86.774765,32.39515],[-86.771681,32.394796],[-86.769425,32.393976],[-86.763543,32.390697],[-86.761259,32.389925],[-86.757398,32.389239],[-86.749981,32.389105],[-86.748514,32.38935],[-86.746598,32.389806],[-86.742157,32.391751],[-86.737372,32.39473],[-86.732099,32.399054],[-86.728523,32.403422],[-86.727181,32.404497],[-86.724072,32.405327],[-86.722688,32.40518],[-86.719259,32.403995],[-86.717897,32.402814],[-86.717193,32.400367],[-86.717812,32.396001],[-86.719268,32.39372],[-86.719967,32.391154],[-86.719273,32.38514],[-86.718983,32.380401],[-86.719893,32.376699],[-86.719028,32.372059],[-86.716239,32.369214],[-86.715362,32.367759],[-86.714118,32.362887],[-86.713372,32.362077],[-86.711337,32.360767],[-86.703595,32.358795],[-86.69696,32.357594],[-86.686199,32.353735],[-86.683537,32.353395],[-86.681314,32.353883],[-86.678795,32.355359],[-86.673513,32.359732],[-86.667497,32.365077],[-86.66123,32.371397],[-86.655597,32.376147],[-86.653837,32.380687],[-86.654034,32.383884],[-86.65579,32.388689],[-86.654528,32.394716],[-86.653419,32.397247],[-86.651507,32.399317],[-86.649559,32.400554],[-86.64541,32.402296],[-86.642459,32.402926],[-86.639547,32.402966],[-86.633057,32.402046],[-86.630933,32.402113],[-86.628712,32.402769],[-86.624978,32.404728],[-86.622856,32.406647],[-86.619812,32.406474],[-86.618,32.405717],[-86.615485,32.403066],[-86.613738,32.399689],[-86.613176,32.393948],[-86.614074,32.388302],[-86.616071,32.382638],[-86.616619,32.379904],[-86.61622,32.377356],[-86.614841,32.374266],[-86.595335,32.361345],[-86.592865,32.361668],[-86.590571,32.362125],[-86.588261,32.367749],[-86.589038,32.369013],[-86.59043,32.367246],[-86.589835,32.365555],[-86.591271,32.363117],[-86.59315,32.361666],[-86.595047,32.364849],[-86.591678,32.367821],[-86.592715,32.368025],[-86.594047,32.366261],[-86.595859,32.365453],[-86.598137,32.366838],[-86.602326,32.367868],[-86.606791,32.369934],[-86.612125,32.373123],[-86.614085,32.375137],[-86.615379,32.377336],[-86.615688,32.379404],[-86.615261,32.381456],[-86.613994,32.381031],[-86.613916,32.378467],[-86.612996,32.380654],[-86.612762,32.383654],[-86.613077,32.385654],[-86.612553,32.387845],[-86.611339,32.385831],[-86.610969,32.383178],[-86.610699,32.384859],[-86.611274,32.38674],[-86.610437,32.388278],[-86.611456,32.387302],[-86.612393,32.38984],[-86.612235,32.395539],[-86.612473,32.398854],[-86.613209,32.401232],[-86.616885,32.407074],[-86.617981,32.406613],[-86.621032,32.40757],[-86.623879,32.407541],[-86.62636,32.406545],[-86.627684,32.40511],[-86.631991,32.403042],[-86.633912,32.402699],[-86.6348,32.403838],[-86.631147,32.40486],[-86.63285,32.408327],[-86.633032,32.410216],[-86.63237,32.411462],[-86.632774,32.413254],[-86.631995,32.414752],[-86.63261,32.416558],[-86.632537,32.418887],[-86.630886,32.421843],[-86.629747,32.421854],[-86.630713,32.422044],[-86.632614,32.420546],[-86.633522,32.422483],[-86.62901,32.422476],[-86.628712,32.42441],[-86.629003,32.431399],[-86.628852,32.433143],[-86.627627,32.437153],[-86.632912,32.437123],[-86.633795,32.443157],[-86.624194,32.440018],[-86.624194,32.43716],[-86.589768,32.437403],[-86.591983,32.441567],[-86.589754,32.444107],[-86.591736,32.446156],[-86.595488,32.447845],[-86.599359,32.448665],[-86.601875,32.449844],[-86.602852,32.45328],[-86.601741,32.4574],[-86.602026,32.459456],[-86.604417,32.460368],[-86.605869,32.459864],[-86.607156,32.462757],[-86.612228,32.462677],[-86.614013,32.463313],[-86.614996,32.465387],[-86.618854,32.465415],[-86.622812,32.466344],[-86.627701,32.466206],[-86.632273,32.465566],[-86.638948,32.463951],[-86.639426,32.466761],[-86.63772,32.471805],[-86.636852,32.477736],[-86.643139,32.478469],[-86.650975,32.497031],[-86.65232,32.496377],[-86.655086,32.496215],[-86.65666,32.495532],[-86.657734,32.493385],[-86.659447,32.492045],[-86.659404,32.487648],[-86.663804,32.478814],[-86.66588,32.473584],[-86.66855,32.472105],[-86.670141,32.472189],[-86.672669,32.473699],[-86.675474,32.474035],[-86.674603,32.476261],[-86.676299,32.480168],[-86.676952,32.482822],[-86.6772,32.485785],[-86.680813,32.488428],[-86.685318,32.487969],[-86.689634,32.48713],[-86.691354,32.488953],[-86.69259,32.488542],[-86.698159,32.489161],[-86.699322,32.490535],[-86.700079,32.492987],[-86.702243,32.495804],[-86.702811,32.49915],[-86.706922,32.502591],[-86.708761,32.502774],[-86.711898,32.504446],[-86.712601,32.506027],[-86.714333,32.507516],[-86.71501,32.508958],[-86.718149,32.507886],[-86.720695,32.507734],[-86.723952,32.505423],[-86.725563,32.498565],[-86.724516,32.496602],[-86.72383,32.493833],[-86.725743,32.494342],[-86.726761,32.495939],[-86.728561,32.495863],[-86.732559,32.498998],[-86.734607,32.499837],[-86.732549,32.501835],[-86.728143,32.503214],[-86.728647,32.507033],[-86.729965,32.50929],[-86.730529,32.513087],[-86.730243,32.516466],[-86.731471,32.519646],[-86.730641,32.522661],[-86.736087,32.524603],[-86.736993,32.525626],[-86.737489,32.528163],[-86.740124,32.531186],[-86.740906,32.532759],[-86.742649,32.534329],[-86.743244,32.537236],[-86.745723,32.538108],[-86.751258,32.538271],[-86.750848,32.545343],[-86.751244,32.54711],[-86.751205,32.55129],[-86.749994,32.552787],[-86.750038,32.554643],[-86.752914,32.55516],[-86.755192,32.554433],[-86.758357,32.552216],[-86.76007,32.5514],[-86.764564,32.550593],[-86.770821,32.54824],[-86.771508,32.548215],[-86.773074,32.548916],[-86.774637,32.554304],[-86.779211,32.558196],[-86.780692,32.559035],[-86.781685,32.559226],[-86.798105,32.559106]]]}}]}