{"type":"FeatureCollection","features":[{"type":"Feature","properties":{"zcta5":"81050","AFFGEOID10":"8600000US81050","GEOID10":"81050","ALAND10":1391238118,"AWATER10":14353298,"county_name":"Bent","state_code":"CO","county_state":"Bent County, CO","county_fips":"08011","risk_level_county":"Higher Risk (60–69% vaccinated)","mean_vaccination_rate_county":67.82,"risk_level_zcta":"Medium Risk (70–79% vaccinated)","mean_vaccination_rate_zips":76.65,"cases":35},"geometry":{"type":"Polygon","coordinates":[[[-103.772877,37.821394],[-103.772386,37.820768],[-103.769045,37.823153],[-103.766665,37.822564],[-103.620171,37.822831],[-103.621054,37.758702],[-103.619613,37.75661],[-103.621072,37.754582],[-103.620059,37.658938],[-103.608673,37.659564],[-103.605816,37.658889],[-103.60401,37.653784],[-103.593023,37.652632],[-103.59046,37.652236],[-103.586775,37.648637],[-103.584705,37.646727],[-103.583031,37.643681],[-103.578893,37.643652],[-103.404339,37.643576],[-103.404426,37.658203],[-103.403962,37.663313],[-103.403682,37.822792],[-103.399854,37.822812],[-103.39912,37.940149],[-103.398108,37.960627],[-103.398334,37.981751],[-103.398942,37.989522],[-103.398619,38.072962],[-103.395018,38.075415],[-103.390747,38.076385],[-103.385216,38.078579],[-103.382924,38.07985],[-103.38077,38.081716],[-103.379078,38.084698],[-103.354093,38.084715],[-103.353007,38.085405],[-103.353074,38.088327],[-103.362201,38.088324],[-103.362499,38.104359],[-103.360832,38.10437],[-103.360047,38.100739],[-103.350786,38.092374],[-103.34778,38.090721],[-103.340126,38.088158],[-103.338363,38.088453],[-103.337052,38.090339],[-103.332935,38.089658],[-103.329178,38.092622],[-103.32848,38.094414],[-103.329888,38.097967],[-103.329181,38.102055],[-103.329678,38.103988],[-103.326365,38.110873],[-103.327662,38.114297],[-103.326278,38.118757],[-103.321905,38.122403],[-103.320979,38.123913],[-103.322739,38.127698],[-103.323249,38.13129],[-103.321317,38.13447],[-103.324382,38.133631],[-103.325669,38.132607],[-103.328015,38.133233],[-103.327976,38.134387],[-103.326421,38.136713],[-103.325745,38.140057],[-103.327843,38.140931],[-103.328876,38.142766],[-103.327451,38.143993],[-103.327074,38.145451],[-103.329843,38.152289],[-103.329518,38.154253],[-103.327432,38.156511],[-103.328245,38.159558],[-103.328635,38.163851],[-103.329358,38.164458],[-103.331223,38.168479],[-103.332165,38.17206],[-103.331949,38.176311],[-103.331194,38.180142],[-103.329812,38.181696],[-103.328129,38.182238],[-103.325092,38.184212],[-103.324275,38.186979],[-103.325295,38.188511],[-103.329916,38.192777],[-103.332003,38.195112],[-103.332236,38.198056],[-103.328774,38.199964],[-103.327191,38.201902],[-103.326238,38.206062],[-103.325265,38.20732],[-103.32239,38.208757],[-103.319612,38.211802],[-103.31878,38.213798],[-103.318989,38.21621],[-103.324192,38.2217],[-103.324876,38.224793],[-103.322968,38.227941],[-103.321039,38.228986],[-103.315271,38.230328],[-103.312746,38.232096],[-103.312078,38.234227],[-103.313446,38.236531],[-103.313032,38.238984],[-103.311348,38.240798],[-103.323701,38.239438],[-103.324579,38.239158],[-103.325575,38.242677],[-103.324565,38.245123],[-103.322022,38.247779],[-103.321791,38.249147],[-103.323536,38.252371],[-103.323066,38.25687],[-103.320296,38.261234],[-103.317693,38.263041],[-103.319287,38.263499],[-103.322218,38.260592],[-103.323814,38.257869],[-103.325991,38.256106],[-103.330054,38.254549],[-103.335365,38.253267],[-103.339429,38.253724],[-103.343667,38.255576],[-103.349791,38.255758],[-103.353854,38.256695],[-103.355538,38.257587],[-103.357428,38.262003],[-103.357254,38.263651],[-103.355573,38.265533],[-103.375489,38.2655],[-103.399938,38.265435],[-103.410375,38.265308],[-103.501764,38.265016],[-103.51006,38.265169],[-103.509912,38.264301],[-103.509711,38.232119],[-103.509579,38.230875],[-103.509364,38.172514],[-103.540176,38.172663],[-103.535472,38.167622],[-103.531735,38.165349],[-103.528919,38.164779],[-103.523241,38.161487],[-103.520615,38.158836],[-103.51771,38.158311],[-103.514738,38.15597],[-103.514477,38.153278],[-103.51303,38.151093],[-103.511536,38.149869],[-103.50928,38.14367],[-103.508902,38.141952],[-103.510441,38.139729],[-103.51145,38.135935],[-103.512476,38.133894],[-103.516566,38.131612],[-103.518894,38.129874],[-103.524662,38.129593],[-103.52899,38.12834],[-103.533659,38.126015],[-103.541377,38.117431],[-103.544491,38.113682],[-103.548835,38.11082],[-103.554585,38.104171],[-103.556749,38.10294],[-103.559878,38.101806],[-103.561835,38.100612],[-103.564531,38.098229],[-103.564258,38.097685],[-103.564955,38.026444],[-103.56908,38.025844],[-103.568028,38.024766],[-103.568163,38.022867],[-103.569963,38.021138],[-103.571046,38.019147],[-103.571241,38.01617],[-103.572187,38.013032],[-103.574062,38.011006],[-103.574838,38.009193],[-103.57584,38.012924],[-103.577564,38.013751],[-103.578695,38.013304],[-103.580368,38.012157],[-103.581001,38.010005],[-103.581839,38.009506],[-103.586632,38.010605],[-103.59018,38.011811],[-103.598355,38.012974],[-103.604453,38.014998],[-103.606984,38.016404],[-103.609709,38.018974],[-103.611482,38.021321],[-103.614239,38.023384],[-103.616409,38.026449],[-103.619251,38.029089],[-103.622182,38.030432],[-103.624426,38.030925],[-103.626483,38.028539],[-103.628182,38.027335],[-103.62835,38.019508],[-103.628349,38.018033],[-103.625317,38.016985],[-103.623875,38.016503],[-103.623314,38.016319],[-103.622306,38.015919],[-103.62223,38.015821],[-103.621948,38.015837],[-103.621784,38.016062],[-103.62219,38.014738],[-103.623053,38.014144],[-103.623399,38.013445],[-103.625398,38.014225],[-103.625563,38.014225],[-103.625883,38.013873],[-103.624541,38.013435],[-103.624543,38.012448],[-103.625279,38.012472],[-103.625299,38.011417],[-103.62787,38.011453],[-103.627891,38.010966],[-103.628559,38.010928],[-103.632528,38.010953],[-103.632499,38.013486],[-103.631184,38.014919],[-103.633222,38.015529],[-103.637558,38.015648],[-103.637501,38.019798],[-103.63724,38.020944],[-103.639295,38.021229],[-103.641195,38.018201],[-103.642329,38.017725],[-103.642562,38.016294],[-103.644454,38.015906],[-103.642816,38.014906],[-103.643245,38.014105],[-103.644588,38.014393],[-103.646309,38.013588],[-103.646702,38.011102],[-103.665102,38.011258],[-103.66516,38.003981],[-103.674322,38.004041],[-103.674263,38.011364],[-103.692659,38.011476],[-103.692804,37.989608],[-103.693543,37.987518],[-103.697437,37.982719],[-103.696548,37.982349],[-103.697183,37.980104],[-103.698144,37.979856],[-103.697244,37.978406],[-103.698075,37.977201],[-103.696801,37.975816],[-103.698655,37.974542],[-103.701288,37.976068],[-103.701418,37.973741],[-103.699876,37.972387],[-103.701112,37.971571],[-103.704217,37.971094],[-103.706674,37.970037],[-103.708269,37.967489],[-103.707224,37.966104],[-103.709627,37.965215],[-103.711275,37.963953],[-103.710802,37.962988],[-103.71432,37.962675],[-103.715898,37.963198],[-103.716379,37.961973],[-103.719263,37.959913],[-103.719362,37.959001],[-103.723032,37.955973],[-103.723078,37.953485],[-103.724848,37.952795],[-103.729752,37.953451],[-103.729804,37.940527],[-103.726969,37.941645],[-103.724566,37.944361],[-103.724016,37.947218],[-103.721979,37.947107],[-103.719469,37.94916],[-103.716982,37.949816],[-103.716654,37.953115],[-103.713838,37.954809],[-103.711748,37.955088],[-103.707605,37.956819],[-103.70185,37.958105],[-103.701845,37.9532],[-103.693032,37.953204],[-103.69336,37.87937],[-103.693297,37.878902],[-103.772877,37.821394]],[[-103.527627,38.093234],[-103.527437,38.103664],[-103.520548,38.103449],[-103.518417,38.105858],[-103.518376,38.107293],[-103.514923,38.107287],[-103.514848,38.109503],[-103.512395,38.109072],[-103.511038,38.110562],[-103.509013,38.111483],[-103.509006,38.10727],[-103.506725,38.106509],[-103.508974,38.10653],[-103.508976,38.104163],[-103.517626,38.104313],[-103.517839,38.100885],[-103.524159,38.094784],[-103.527627,38.093234]]]}},{"type":"Feature","properties":{"zcta5":"81052","AFFGEOID10":"8600000US81052","GEOID10":"81052","ALAND10":1719081446,"AWATER10":8007478,"county_name":"Bent","state_code":"CO","county_state":"Bent County, CO","county_fips":"08011","risk_level_county":"Higher Risk (60–69% vaccinated)","mean_vaccination_rate_county":67.82,"risk_level_zcta":"Higher Risk (60–69% vaccinated)","mean_vaccination_rate_zips":67.4,"cases":35},"geometry":{"type":"Polygon","coordinates":[[[-102.842546,38.066951],[-102.842616,38.065439],[-102.845245,38.062292],[-102.845651,38.060476],[-102.84676,38.060188],[-102.848252,38.061895],[-102.847188,38.06358],[-102.849826,38.06404],[-102.851172,38.062493],[-102.851472,38.060488],[-102.850096,38.05895],[-102.851331,38.057615],[-102.849227,38.055312],[-102.852146,38.053299],[-102.852028,38.0518],[-102.856857,38.051189],[-102.857246,38.049862],[-102.856613,38.048744],[-102.855054,38.048384],[-102.854937,38.047122],[-102.856419,38.046289],[-102.85415,38.044578],[-102.853669,38.043361],[-102.851582,38.043885],[-102.850021,38.045068],[-102.848991,38.044085],[-102.852173,38.042254],[-102.854238,38.040614],[-102.852893,38.040541],[-102.85286,38.037082],[-102.85594,38.037981],[-102.855522,38.036905],[-102.856477,38.036326],[-102.857051,38.037624],[-102.859239,38.038522],[-102.860079,38.0376],[-102.858481,38.036461],[-102.860594,38.034218],[-102.86188,38.033906],[-102.860848,38.033042],[-102.86456,38.031639],[-102.864928,38.030305],[-102.862786,38.028915],[-102.863192,38.027708],[-102.865201,38.028222],[-102.867899,38.027577],[-102.869319,38.026758],[-102.83279,38.026721],[-102.832549,38.013059],[-102.832777,38.011918],[-102.832659,37.997598],[-102.777723,37.997793],[-102.778358,37.994298],[-102.779721,37.992216],[-102.779842,37.99057],[-102.77814,37.987272],[-102.7779,37.98395],[-102.778613,37.979472],[-102.777841,37.977464],[-102.777185,37.867174],[-102.813609,37.867163],[-102.813914,37.823428],[-102.82035,37.823255],[-102.825809,37.819207],[-102.827677,37.816417],[-102.828513,37.811672],[-102.830313,37.809224],[-102.830186,37.804423],[-102.834183,37.805046],[-102.835562,37.804425],[-102.838868,37.804132],[-102.839956,37.803663],[-102.841585,37.801603],[-102.843042,37.800911],[-102.853413,37.798179],[-102.857796,37.795614],[-102.860659,37.795247],[-102.860162,37.792438],[-102.863546,37.789707],[-102.893921,37.789773],[-102.893552,37.731917],[-102.894559,37.731319],[-102.902943,37.731367],[-102.904898,37.728854],[-102.904928,37.728083],[-102.901491,37.712897],[-102.902679,37.701692],[-102.902621,37.687495],[-102.898894,37.687433],[-102.897968,37.687006],[-102.896694,37.685825],[-102.896661,37.684385],[-102.895166,37.683499],[-102.894404,37.681176],[-102.892574,37.6776],[-102.893243,37.675857],[-102.893068,37.672982],[-102.874896,37.673047],[-102.874804,37.643885],[-102.747615,37.643642],[-102.590363,37.643601],[-102.564607,37.643766],[-102.539999,37.643734],[-102.539968,37.648065],[-102.536785,37.648694],[-102.537418,37.650479],[-102.537561,37.653774],[-102.527401,37.655602],[-102.526192,37.655167],[-102.52461,37.653427],[-102.524177,37.654388],[-102.526506,37.659171],[-102.52901,37.661918],[-102.528893,37.665579],[-102.523046,37.669787],[-102.522787,37.67029],[-102.519707,37.670381],[-102.51778,37.668664],[-102.508571,37.666028],[-102.505981,37.665844],[-102.508856,37.670193],[-102.510495,37.672116],[-102.474613,37.67271],[-102.47464,37.716345],[-102.538077,37.716657],[-102.54035,37.716889],[-102.547502,37.716654],[-102.547449,37.823997],[-102.538761,37.824079],[-102.538064,37.840147],[-102.538162,37.851994],[-102.547906,37.851696],[-102.556841,37.852039],[-102.557952,38.012827],[-102.503027,38.012899],[-102.503223,38.041768],[-102.411568,38.041922],[-102.411558,38.068611],[-102.410741,38.068924],[-102.40764,38.068181],[-102.404107,38.065424],[-102.402558,38.067338],[-102.397005,38.067572],[-102.395335,38.066819],[-102.393139,38.067175],[-102.390421,38.066951],[-102.388346,38.066198],[-102.38607,38.067394],[-102.384694,38.06749],[-102.382786,38.066287],[-102.380944,38.064376],[-102.37888,38.064589],[-102.376459,38.061955],[-102.374855,38.061529],[-102.369793,38.064584],[-102.367952,38.066425],[-102.365866,38.06655],[-102.362874,38.063923],[-102.358803,38.061627],[-102.357943,38.059182],[-102.3557,38.060496],[-102.354248,38.058569],[-102.352359,38.05817],[-102.348344,38.055991],[-102.345639,38.056397],[-102.345725,38.060451],[-102.346142,38.063257],[-102.358159,38.063816],[-102.361038,38.064909],[-102.381076,38.078053],[-102.383105,38.079015],[-102.393031,38.081211],[-102.411525,38.085497],[-102.411561,38.096796],[-102.421182,38.096825],[-102.426335,38.100543],[-102.428189,38.099985],[-102.432126,38.099694],[-102.433539,38.099037],[-102.43435,38.097734],[-102.436576,38.096377],[-102.439878,38.097401],[-102.440714,38.098398],[-102.442049,38.098427],[-102.444137,38.097214],[-102.448524,38.098548],[-102.450965,38.100573],[-102.451697,38.103707],[-102.455247,38.106988],[-102.45893,38.109175],[-102.459909,38.109456],[-102.462526,38.108512],[-102.465933,38.106781],[-102.467794,38.106952],[-102.472012,38.108014],[-102.476209,38.109659],[-102.479724,38.111669],[-102.483608,38.111591],[-102.48411,38.114321],[-102.482637,38.115914],[-102.481172,38.116113],[-102.479863,38.11749],[-102.479895,38.119305],[-102.481486,38.120915],[-102.485779,38.121981],[-102.490188,38.123473],[-102.490154,38.124208],[-102.487465,38.126202],[-102.487328,38.127338],[-102.488214,38.128927],[-102.486894,38.132984],[-102.486826,38.135492],[-102.48323,38.138853],[-102.483078,38.140163],[-102.484179,38.143441],[-102.487811,38.14608],[-102.487477,38.148182],[-102.488878,38.151667],[-102.487497,38.153618],[-102.489127,38.154738],[-102.488156,38.156231],[-102.486582,38.155759],[-102.484627,38.156343],[-102.482798,38.15958],[-102.483545,38.161331],[-102.485715,38.163154],[-102.485735,38.164292],[-102.484172,38.166672],[-102.484965,38.16789],[-102.484833,38.169353],[-102.482148,38.170384],[-102.480984,38.173116],[-102.478271,38.172812],[-102.477662,38.173715],[-102.478113,38.174754],[-102.480893,38.177567],[-102.482794,38.178694],[-102.482422,38.181304],[-102.484552,38.183876],[-102.484706,38.185647],[-102.481886,38.188073],[-102.479938,38.188666],[-102.478969,38.190653],[-102.479717,38.19284],[-102.481767,38.194204],[-102.486617,38.19932],[-102.485651,38.201672],[-102.486334,38.204578],[-102.483573,38.20622],[-102.482667,38.207894],[-102.482958,38.209069],[-102.481815,38.212189],[-102.480309,38.213898],[-102.482159,38.218945],[-102.48422,38.219663],[-102.485677,38.220916],[-102.4861,38.223936],[-102.483527,38.225707],[-102.485516,38.227838],[-102.483242,38.229509],[-102.482439,38.230835],[-102.485177,38.235336],[-102.48525,38.237786],[-102.484742,38.2396],[-102.485591,38.242369],[-102.484923,38.244335],[-102.486884,38.247488],[-102.4871,38.249086],[-102.485587,38.250269],[-102.481696,38.256016],[-102.483941,38.259825],[-102.480831,38.263353],[-102.480772,38.264607],[-102.479584,38.266951],[-102.47975,38.26793],[-102.668224,38.267299],[-102.668754,38.193592],[-102.660057,38.193537],[-102.660075,38.186861],[-102.668922,38.186837],[-102.669198,38.17343],[-102.668397,38.157654],[-102.686855,38.15773],[-102.686806,38.128611],[-102.668351,38.128661],[-102.668428,38.115774],[-102.671454,38.115249],[-102.673842,38.115539],[-102.676242,38.114733],[-102.679853,38.114155],[-102.683129,38.113261],[-102.689051,38.113108],[-102.690564,38.113479],[-102.693724,38.115413],[-102.695378,38.115961],[-102.702095,38.115347],[-102.702602,38.120149],[-102.703088,38.122198],[-102.70445,38.125254],[-102.705295,38.126105],[-102.705281,38.114787],[-102.708057,38.114298],[-102.708392,38.11365],[-102.710626,38.114085],[-102.725358,38.114166],[-102.727642,38.113437],[-102.731367,38.113596],[-102.741779,38.114117],[-102.760117,38.114517],[-102.778466,38.114459],[-102.778352,38.101028],[-102.786964,38.100919],[-102.787272,38.099851],[-102.79195,38.099791],[-102.789439,38.097147],[-102.788018,38.095136],[-102.787571,38.093856],[-102.784643,38.093488],[-102.783463,38.093138],[-102.782126,38.092253],[-102.77858500536401,38.091751535219004],[-102.779925,38.091767],[-102.782047,38.092181],[-102.785545,38.093558],[-102.789523,38.093675],[-102.79389,38.092491],[-102.797027,38.091036],[-102.800207,38.088831],[-102.802387,38.087648],[-102.805374,38.087061],[-102.81073,38.088425],[-102.812344,38.088154],[-102.816938,38.088305],[-102.818512,38.087727],[-102.823609,38.086659],[-102.828395,38.085245],[-102.830028,38.084602],[-102.832791,38.08301],[-102.834831,38.080667],[-102.836009,38.077699],[-102.838139,38.076456],[-102.84011,38.075786],[-102.839734,38.073276],[-102.841434,38.069805],[-102.842546,38.066951]],[[-102.77858500536401,38.091751535219004],[-102.777822,38.092147],[-102.774868,38.092362],[-102.773484,38.091847],[-102.775246,38.091713],[-102.77858500536401,38.091751535219004]]]}},{"type":"Feature","properties":{"zcta5":"81054","AFFGEOID10":"8600000US81054","GEOID10":"81054","ALAND10":2471769745,"AWATER10":49865097,"county_name":"Bent","state_code":"CO","county_state":"Bent County, CO","county_fips":"08011","risk_level_county":"Higher Risk (60–69% vaccinated)","mean_vaccination_rate_county":67.82,"risk_level_zcta":"Medium Risk (70–79% vaccinated)","mean_vaccination_rate_zips":70.3,"cases":35},"geometry":{"type":"Polygon","coordinates":[[[-103.355573,38.265533],[-103.357254,38.263651],[-103.357428,38.262003],[-103.355538,38.257587],[-103.353854,38.256695],[-103.349791,38.255758],[-103.343667,38.255576],[-103.339429,38.253724],[-103.335365,38.253267],[-103.330054,38.254549],[-103.325991,38.256106],[-103.323814,38.257869],[-103.322218,38.260592],[-103.319287,38.263499],[-103.317693,38.263041],[-103.320296,38.261234],[-103.323066,38.25687],[-103.323536,38.252371],[-103.321791,38.249147],[-103.322022,38.247779],[-103.324565,38.245123],[-103.325575,38.242677],[-103.324579,38.239158],[-103.323701,38.239438],[-103.311348,38.240798],[-103.313032,38.238984],[-103.313446,38.236531],[-103.312078,38.234227],[-103.312746,38.232096],[-103.315271,38.230328],[-103.321039,38.228986],[-103.322968,38.227941],[-103.324876,38.224793],[-103.324192,38.2217],[-103.318989,38.21621],[-103.31878,38.213798],[-103.319612,38.211802],[-103.32239,38.208757],[-103.325265,38.20732],[-103.326238,38.206062],[-103.327191,38.201902],[-103.328774,38.199964],[-103.332236,38.198056],[-103.332003,38.195112],[-103.329916,38.192777],[-103.325295,38.188511],[-103.324275,38.186979],[-103.325092,38.184212],[-103.328129,38.182238],[-103.329812,38.181696],[-103.331194,38.180142],[-103.331949,38.176311],[-103.332165,38.17206],[-103.331223,38.168479],[-103.329358,38.164458],[-103.328635,38.163851],[-103.328245,38.159558],[-103.327432,38.156511],[-103.329518,38.154253],[-103.329843,38.152289],[-103.327074,38.145451],[-103.327451,38.143993],[-103.328876,38.142766],[-103.327843,38.140931],[-103.325745,38.140057],[-103.326421,38.136713],[-103.327976,38.134387],[-103.328015,38.133233],[-103.325669,38.132607],[-103.324382,38.133631],[-103.321317,38.13447],[-103.323249,38.13129],[-103.322739,38.127698],[-103.320979,38.123913],[-103.321905,38.122403],[-103.326278,38.118757],[-103.327662,38.114297],[-103.326365,38.110873],[-103.329678,38.103988],[-103.329181,38.102055],[-103.329888,38.097967],[-103.32848,38.094414],[-103.329178,38.092622],[-103.332935,38.089658],[-103.337052,38.090339],[-103.338363,38.088453],[-103.340126,38.088158],[-103.34778,38.090721],[-103.350786,38.092374],[-103.360047,38.100739],[-103.360832,38.10437],[-103.362499,38.104359],[-103.362201,38.088324],[-103.353074,38.088327],[-103.353007,38.085405],[-103.354093,38.084715],[-103.379078,38.084698],[-103.38077,38.081716],[-103.382924,38.07985],[-103.385216,38.078579],[-103.390747,38.076385],[-103.395018,38.075415],[-103.398619,38.072962],[-103.398942,37.989522],[-103.398334,37.981751],[-103.398108,37.960627],[-103.39912,37.940149],[-103.399854,37.822812],[-103.403682,37.822792],[-103.403962,37.663313],[-103.404426,37.658203],[-103.404339,37.643576],[-103.131488,37.643662],[-103.128092,37.643477],[-103.125485,37.643581],[-103.117641,37.643299],[-103.114734,37.643415],[-103.075938,37.64342],[-103.075742,37.625011],[-103.075581,37.624601],[-103.075284,37.520365],[-103.071334,37.521385],[-103.07099,37.522202],[-103.070772,37.527315],[-103.069972,37.527737],[-103.040429,37.527823],[-103.036311,37.528888],[-103.030936,37.529249],[-103.028974,37.530183],[-103.026465,37.532134],[-103.025307,37.532544],[-103.021959,37.532145],[-103.016589,37.535062],[-102.984056,37.535117],[-102.984102,37.542364],[-102.965665,37.542422],[-102.965847,37.571539],[-102.874834,37.571828],[-102.874804,37.643885],[-102.902975,37.64404],[-102.965806,37.643821],[-102.966191,37.731201],[-103.021483,37.730933],[-103.021285,37.803978],[-103.10208,37.80369],[-103.102023,37.823484],[-103.105886,37.823236],[-103.106296,37.866853],[-103.051149,37.86691],[-103.051026,37.869578],[-103.051263,37.909799],[-103.050957,37.911466],[-103.050993,37.953861],[-103.049763,37.970981],[-103.012967,37.97083],[-103.013487,38.055188],[-103.017514,38.056953],[-103.020725,38.058327],[-103.02333,38.059152],[-103.02776,38.060303],[-103.029838,38.058503],[-103.032711,38.056715],[-103.032736,38.055595],[-103.034566,38.055268],[-103.034779,38.05886],[-103.035448,38.061917],[-103.037651,38.067669],[-103.038371,38.070182],[-103.041516,38.075288],[-103.043072,38.088875],[-103.042117,38.099583],[-103.044186,38.101829],[-103.044878,38.104913],[-103.046545,38.10585],[-103.044856,38.111928],[-103.044986,38.113459],[-103.031783,38.113461],[-103.03202,38.133014],[-103.032451,38.13303],[-103.026867,38.133008],[-103.026461,38.130916],[-103.0235,38.128651],[-103.022807,38.127616],[-103.023056,38.125007],[-103.021493,38.124135],[-103.017297,38.123901],[-103.013184,38.122573],[-103.007028,38.123584],[-103.004312,38.124253],[-102.999147,38.123957],[-102.996869,38.123392],[-102.992776,38.125171],[-102.98773,38.126583],[-102.984953,38.128299],[-102.983206,38.130195],[-102.97987,38.132192],[-102.977213,38.13259],[-102.975791,38.134851],[-102.97428,38.135868],[-102.969638,38.141204],[-102.968499,38.141942],[-102.964364,38.143184],[-102.961735,38.14752],[-102.960016,38.148613],[-102.959542,38.149951],[-102.961595,38.1533],[-102.963184,38.154927],[-102.963298,38.157038],[-102.961804,38.158818],[-102.960538,38.158692],[-102.957363,38.15669],[-102.95494,38.155856],[-102.950956,38.153247],[-102.947311,38.152316],[-102.937792,38.154005],[-102.933822,38.155027],[-102.926736,38.156025],[-102.923636,38.157764],[-102.922351,38.159434],[-102.916739,38.159977],[-102.911597,38.160034],[-102.906121,38.161912],[-102.902116,38.164197],[-102.899812,38.166973],[-102.897951,38.168184],[-102.896362,38.168464],[-102.895298,38.167455],[-102.895614,38.165304],[-102.895,38.163742],[-102.890657,38.160905],[-102.889368,38.16056],[-102.885224,38.162446],[-102.884069,38.163353],[-102.880807,38.168159],[-102.877678,38.172055],[-102.877353,38.175233],[-102.878287,38.177627],[-102.88105,38.178627],[-102.881413,38.180182],[-102.877899,38.182513],[-102.878184,38.184959],[-102.877377,38.186559],[-102.877142,38.190425],[-102.876392,38.190998],[-102.873525,38.190905],[-102.873617,38.189527],[-102.872548,38.186345],[-102.871185,38.184525],[-102.869416,38.184108],[-102.868228,38.185891],[-102.867088,38.186077],[-102.866306,38.184521],[-102.859953,38.183232],[-102.856764,38.179671],[-102.85596,38.176222],[-102.853906,38.174183],[-102.853774,38.173201],[-102.851498,38.172461],[-102.851477,38.18639],[-102.83537,38.186316],[-102.834637,38.18647],[-102.83456,38.200132],[-102.834386,38.20108],[-102.834481,38.266461],[-102.839085,38.266641],[-102.839875,38.266729],[-102.841535,38.267045],[-102.949841,38.266916],[-102.958605,38.26669],[-103.000479,38.266373],[-103.131096,38.266392],[-103.140048,38.265977],[-103.16358,38.266026],[-103.207018,38.265833],[-103.355573,38.265533]],[[-103.142647,38.085192],[-103.142057,38.084727],[-103.136219,38.076699],[-103.14241,38.075605],[-103.142647,38.085192]]]}},{"type":"Feature","properties":{"zcta5":"81057","AFFGEOID10":"8600000US81057","GEOID10":"81057","ALAND10":135618879,"AWATER10":2327180,"county_name":"Bent","state_code":"CO","county_state":"Bent County, CO","county_fips":"08011","risk_level_county":"Higher Risk (60–69% vaccinated)","mean_vaccination_rate_county":67.82,"risk_level_zcta":"Higher Risk (60–69% vaccinated)","mean_vaccination_rate_zips":64.4,"cases":35},"geometry":{"type":"MultiPolygon","coordinates":[[[[-102.77858500536401,38.091751535219004],[-102.775246,38.091713],[-102.773484,38.091847],[-102.774868,38.092362],[-102.777822,38.092147],[-102.77858500536401,38.091751535219004]]],[[[-102.834637,38.18647],[-102.83537,38.186316],[-102.851477,38.18639],[-102.851498,38.172461],[-102.853774,38.173201],[-102.853906,38.174183],[-102.85596,38.176222],[-102.856764,38.179671],[-102.859953,38.183232],[-102.866306,38.184521],[-102.867088,38.186077],[-102.868228,38.185891],[-102.869416,38.184108],[-102.871185,38.184525],[-102.872548,38.186345],[-102.873617,38.189527],[-102.873525,38.190905],[-102.876392,38.190998],[-102.877142,38.190425],[-102.877377,38.186559],[-102.878184,38.184959],[-102.877899,38.182513],[-102.881413,38.180182],[-102.88105,38.178627],[-102.878287,38.177627],[-102.877353,38.175233],[-102.877678,38.172055],[-102.880807,38.168159],[-102.884069,38.163353],[-102.885224,38.162446],[-102.889368,38.16056],[-102.890657,38.160905],[-102.895,38.163742],[-102.895614,38.165304],[-102.895298,38.167455],[-102.896362,38.168464],[-102.897951,38.168184],[-102.899812,38.166973],[-102.902116,38.164197],[-102.906121,38.161912],[-102.911597,38.160034],[-102.916739,38.159977],[-102.922351,38.159434],[-102.923636,38.157764],[-102.926736,38.156025],[-102.933822,38.155027],[-102.937792,38.154005],[-102.947311,38.152316],[-102.950956,38.153247],[-102.95494,38.155856],[-102.957363,38.15669],[-102.960538,38.158692],[-102.961804,38.158818],[-102.963298,38.157038],[-102.963184,38.154927],[-102.961595,38.1533],[-102.959542,38.149951],[-102.960016,38.148613],[-102.961735,38.14752],[-102.964364,38.143184],[-102.968499,38.141942],[-102.969638,38.141204],[-102.97428,38.135868],[-102.975791,38.134851],[-102.977213,38.13259],[-102.97987,38.132192],[-102.983206,38.130195],[-102.984953,38.128299],[-102.98773,38.126583],[-102.992776,38.125171],[-102.996869,38.123392],[-102.999147,38.123957],[-103.004312,38.124253],[-103.007028,38.123584],[-103.013184,38.122573],[-103.017297,38.123901],[-103.021493,38.124135],[-103.023056,38.125007],[-103.022807,38.127616],[-103.0235,38.128651],[-103.026461,38.130916],[-103.026867,38.133008],[-103.032451,38.13303],[-103.03202,38.133014],[-103.031783,38.113461],[-103.044986,38.113459],[-103.044856,38.111928],[-103.046545,38.10585],[-103.044878,38.104913],[-103.044186,38.101829],[-103.042117,38.099583],[-103.036713,38.099478],[-103.036164,38.097555],[-103.03463,38.096045],[-103.035905,38.095061],[-103.035731,38.093757],[-103.033213,38.093024],[-103.032488,38.094831],[-103.02683,38.099583],[-102.995126,38.099685],[-102.995155,38.113642],[-102.942907,38.11382],[-102.937221,38.114258],[-102.931401,38.114334],[-102.92661,38.109237],[-102.925662,38.105281],[-102.924402,38.10528],[-102.919461,38.10175],[-102.918239,38.099578],[-102.90807,38.099579],[-102.90814,38.09816],[-102.905455,38.097286],[-102.904314,38.095053],[-102.904124,38.092242],[-102.90148,38.090975],[-102.901672,38.099586],[-102.851067,38.099442],[-102.851061,38.088328],[-102.852561,38.086167],[-102.852483,38.083469],[-102.851226,38.080654],[-102.849477,38.078864],[-102.848965,38.077102],[-102.847999,38.069736],[-102.850892,38.069384],[-102.851377,38.067475],[-102.853354,38.065187],[-102.853115,38.064182],[-102.842546,38.066951],[-102.841434,38.069805],[-102.839734,38.073276],[-102.84011,38.075786],[-102.838139,38.076456],[-102.836009,38.077699],[-102.834831,38.080667],[-102.832791,38.08301],[-102.830028,38.084602],[-102.828395,38.085245],[-102.823609,38.086659],[-102.818512,38.087727],[-102.816938,38.088305],[-102.812344,38.088154],[-102.81073,38.088425],[-102.805374,38.087061],[-102.802387,38.087648],[-102.800207,38.088831],[-102.797027,38.091036],[-102.79389,38.092491],[-102.789523,38.093675],[-102.785545,38.093558],[-102.782047,38.092181],[-102.779925,38.091767],[-102.77858500536401,38.091751535219004],[-102.782126,38.092253],[-102.783463,38.093138],[-102.784643,38.093488],[-102.787571,38.093856],[-102.788018,38.095136],[-102.789439,38.097147],[-102.79195,38.099791],[-102.787272,38.099851],[-102.786964,38.100919],[-102.778352,38.101028],[-102.778466,38.114459],[-102.760117,38.114517],[-102.760105,38.133016],[-102.77849,38.132962],[-102.778564,38.143682],[-102.815533,38.143599],[-102.815571,38.154292],[-102.82211,38.15438],[-102.822137,38.158231],[-102.834068,38.158093],[-102.834124,38.163422],[-102.830739,38.167988],[-102.824728,38.172066],[-102.82385,38.185364],[-102.825726,38.185728],[-102.827622,38.186909],[-102.828739,38.189306],[-102.830297,38.189036],[-102.831006,38.186675],[-102.829503,38.184023],[-102.829208,38.182118],[-102.826649,38.180915],[-102.825501,38.179339],[-102.825365,38.174634],[-102.830115,38.172883],[-102.832402,38.171514],[-102.83481,38.171539],[-102.834637,38.18647]]]]}},{"type":"Feature","properties":{"zcta5":"81044","AFFGEOID10":"8600000US81044","GEOID10":"81044","ALAND10":844749529,"AWATER10":15141568,"county_name":"Bent","state_code":"CO","county_state":"Bent County, CO","county_fips":"08011","risk_level_county":"Higher Risk (60–69% vaccinated)","mean_vaccination_rate_county":67.82,"risk_level_zcta":"Very High Risk (<60% vaccinated)","mean_vaccination_rate_zips":56.04,"cases":35},"geometry":{"type":"Polygon","coordinates":[[[-103.042117,38.099583],[-103.043072,38.088875],[-103.041516,38.075288],[-103.038371,38.070182],[-103.037651,38.067669],[-103.035448,38.061917],[-103.034779,38.05886],[-103.034566,38.055268],[-103.032736,38.055595],[-103.032711,38.056715],[-103.029838,38.058503],[-103.02776,38.060303],[-103.02333,38.059152],[-103.020725,38.058327],[-103.017514,38.056953],[-103.013487,38.055188],[-103.012967,37.97083],[-103.049763,37.970981],[-103.050993,37.953861],[-103.050957,37.911466],[-103.051263,37.909799],[-103.051026,37.869578],[-103.051149,37.86691],[-103.106296,37.866853],[-103.105886,37.823236],[-103.102023,37.823484],[-103.10208,37.80369],[-103.021285,37.803978],[-103.021483,37.730933],[-102.966191,37.731201],[-102.965806,37.643821],[-102.902975,37.64404],[-102.874804,37.643885],[-102.874896,37.673047],[-102.893068,37.672982],[-102.893243,37.675857],[-102.892574,37.6776],[-102.894404,37.681176],[-102.895166,37.683499],[-102.896661,37.684385],[-102.896694,37.685825],[-102.897968,37.687006],[-102.898894,37.687433],[-102.902621,37.687495],[-102.902679,37.701692],[-102.901491,37.712897],[-102.904928,37.728083],[-102.904898,37.728854],[-102.902943,37.731367],[-102.894559,37.731319],[-102.893552,37.731917],[-102.893921,37.789773],[-102.863546,37.789707],[-102.860162,37.792438],[-102.860659,37.795247],[-102.857796,37.795614],[-102.853413,37.798179],[-102.843042,37.800911],[-102.841585,37.801603],[-102.839956,37.803663],[-102.838868,37.804132],[-102.835562,37.804425],[-102.834183,37.805046],[-102.830186,37.804423],[-102.830313,37.809224],[-102.828513,37.811672],[-102.827677,37.816417],[-102.825809,37.819207],[-102.82035,37.823255],[-102.813914,37.823428],[-102.813609,37.867163],[-102.777185,37.867174],[-102.777841,37.977464],[-102.778613,37.979472],[-102.7779,37.98395],[-102.77814,37.987272],[-102.779842,37.99057],[-102.779721,37.992216],[-102.778358,37.994298],[-102.777723,37.997793],[-102.832659,37.997598],[-102.832777,38.011918],[-102.832549,38.013059],[-102.83279,38.026721],[-102.869319,38.026758],[-102.867899,38.027577],[-102.865201,38.028222],[-102.863192,38.027708],[-102.862786,38.028915],[-102.864928,38.030305],[-102.86456,38.031639],[-102.860848,38.033042],[-102.86188,38.033906],[-102.860594,38.034218],[-102.858481,38.036461],[-102.860079,38.0376],[-102.859239,38.038522],[-102.857051,38.037624],[-102.856477,38.036326],[-102.855522,38.036905],[-102.85594,38.037981],[-102.85286,38.037082],[-102.852893,38.040541],[-102.854238,38.040614],[-102.852173,38.042254],[-102.848991,38.044085],[-102.850021,38.045068],[-102.851582,38.043885],[-102.853669,38.043361],[-102.85415,38.044578],[-102.856419,38.046289],[-102.854937,38.047122],[-102.855054,38.048384],[-102.856613,38.048744],[-102.857246,38.049862],[-102.856857,38.051189],[-102.852028,38.0518],[-102.852146,38.053299],[-102.849227,38.055312],[-102.851331,38.057615],[-102.850096,38.05895],[-102.851472,38.060488],[-102.851172,38.062493],[-102.849826,38.06404],[-102.847188,38.06358],[-102.848252,38.061895],[-102.84676,38.060188],[-102.845651,38.060476],[-102.845245,38.062292],[-102.842616,38.065439],[-102.842546,38.066951],[-102.853115,38.064182],[-102.853354,38.065187],[-102.851377,38.067475],[-102.850892,38.069384],[-102.847999,38.069736],[-102.848965,38.077102],[-102.849477,38.078864],[-102.851226,38.080654],[-102.852483,38.083469],[-102.852561,38.086167],[-102.851061,38.088328],[-102.851067,38.099442],[-102.901672,38.099586],[-102.90148,38.090975],[-102.904124,38.092242],[-102.904314,38.095053],[-102.905455,38.097286],[-102.90814,38.09816],[-102.90807,38.099579],[-102.918239,38.099578],[-102.919461,38.10175],[-102.924402,38.10528],[-102.925662,38.105281],[-102.92661,38.109237],[-102.931401,38.114334],[-102.937221,38.114258],[-102.942907,38.11382],[-102.995155,38.113642],[-102.995126,38.099685],[-103.02683,38.099583],[-103.032488,38.094831],[-103.033213,38.093024],[-103.035731,38.093757],[-103.035905,38.095061],[-103.03463,38.096045],[-103.036164,38.097555],[-103.036713,38.099478],[-103.042117,38.099583]]]}},{"type":"Feature","properties":{"zcta5":"81092","AFFGEOID10":"8600000US81092","GEOID10":"81092","ALAND10":218776941,"AWATER10":249500,"county_name":"Bent","state_code":"CO","county_state":"Bent County, CO","county_fips":"08011","risk_level_county":"Higher Risk (60–69% vaccinated)","mean_vaccination_rate_county":67.82,"risk_level_zcta":"Higher Risk (60–69% vaccinated)","mean_vaccination_rate_zips":65.72,"cases":35},"geometry":{"type":"Polygon","coordinates":[[[-102.834637,38.18647],[-102.83481,38.171539],[-102.832402,38.171514],[-102.830115,38.172883],[-102.825365,38.174634],[-102.825501,38.179339],[-102.826649,38.180915],[-102.829208,38.182118],[-102.829503,38.184023],[-102.831006,38.186675],[-102.830297,38.189036],[-102.828739,38.189306],[-102.827622,38.186909],[-102.825726,38.185728],[-102.82385,38.185364],[-102.824728,38.172066],[-102.830739,38.167988],[-102.834124,38.163422],[-102.834068,38.158093],[-102.822137,38.158231],[-102.82211,38.15438],[-102.815571,38.154292],[-102.815533,38.143599],[-102.778564,38.143682],[-102.77849,38.132962],[-102.760105,38.133016],[-102.760117,38.114517],[-102.741779,38.114117],[-102.731367,38.113596],[-102.727642,38.113437],[-102.725358,38.114166],[-102.710626,38.114085],[-102.708392,38.11365],[-102.708057,38.114298],[-102.705281,38.114787],[-102.705295,38.126105],[-102.70445,38.125254],[-102.703088,38.122198],[-102.702602,38.120149],[-102.702095,38.115347],[-102.695378,38.115961],[-102.693724,38.115413],[-102.690564,38.113479],[-102.689051,38.113108],[-102.683129,38.113261],[-102.679853,38.114155],[-102.676242,38.114733],[-102.673842,38.115539],[-102.671454,38.115249],[-102.668428,38.115774],[-102.668351,38.128661],[-102.686806,38.128611],[-102.686855,38.15773],[-102.668397,38.157654],[-102.669198,38.17343],[-102.668922,38.186837],[-102.660075,38.186861],[-102.660057,38.193537],[-102.668754,38.193592],[-102.668224,38.267299],[-102.722139,38.267101],[-102.723824,38.26725],[-102.74233,38.266971],[-102.761337,38.266679],[-102.793522,38.267672],[-102.793844,38.267721],[-102.798991,38.267796],[-102.821675,38.26695],[-102.834481,38.266461],[-102.834386,38.20108],[-102.83456,38.200132],[-102.834637,38.18647]]]}}]}