{"type":"FeatureCollection","features":[{"type":"Feature","properties":{"zcta5":"71268","AFFGEOID10":"8600000US71268","GEOID10":"71268","ALAND10":329510615,"AWATER10":480705,"county_name":"Bienville","state_code":"LA","county_state":"Bienville County, LA","county_fips":"22013","risk_level_county":"Higher Risk (60–69% vaccinated)","mean_vaccination_rate_county":63.4,"risk_level_zcta":"Medium Risk (70–79% vaccinated)","mean_vaccination_rate_zips":71.43,"cases":3},"geometry":{"type":"Polygon","coordinates":[[[-92.894317,32.360629],[-92.894493,32.359734],[-92.892784,32.357418],[-92.889189,32.354376],[-92.889113,32.3525],[-92.88616,32.35053],[-92.88316,32.350871],[-92.883793,32.34931],[-92.883911,32.346311],[-92.885668,32.345535],[-92.885788,32.3437],[-92.883257,32.340498],[-92.883847,32.338859],[-92.882838,32.336406],[-92.884458,32.335483],[-92.883352,32.333288],[-92.882522,32.33381],[-92.881772,32.332023],[-92.880341,32.331758],[-92.878037,32.328408],[-92.875014,32.326124],[-92.875843,32.325096],[-92.874688,32.322803],[-92.874856,32.321378],[-92.873055,32.320384],[-92.872362,32.321638],[-92.871164,32.320775],[-92.867608,32.321431],[-92.864202,32.321202],[-92.863003,32.320883],[-92.863345,32.318848],[-92.86157,32.317369],[-92.859933,32.317825],[-92.86444,32.31035],[-92.86752,32.30691],[-92.86968,32.30296],[-92.87254,32.29868],[-92.875153,32.292517],[-92.872577,32.293139],[-92.870783,32.292706],[-92.868379,32.289451],[-92.868151,32.286701],[-92.867056,32.285102],[-92.84121,32.28433],[-92.84117,32.28758],[-92.83985,32.2883],[-92.83881,32.2902],[-92.8388,32.29378],[-92.83705,32.2962],[-92.83555,32.296759],[-92.832798,32.29627],[-92.829754,32.291931],[-92.828737,32.289083],[-92.829805,32.288098],[-92.827215,32.287691],[-92.828018,32.286536],[-92.826179,32.28553],[-92.82425,32.284975],[-92.821521,32.285889],[-92.8209,32.29033],[-92.81783,32.29137],[-92.81488,32.29085],[-92.811619,32.288495],[-92.80996,32.288201],[-92.808041,32.288747],[-92.803483,32.288174],[-92.802964,32.285988],[-92.800747,32.284901],[-92.799825,32.283195],[-92.79522,32.28075],[-92.79221,32.27986],[-92.790592,32.282917],[-92.773519,32.28239],[-92.773875,32.30776],[-92.76018,32.301352],[-92.758252,32.299765],[-92.756649,32.294334],[-92.755247,32.292464],[-92.755029,32.288679],[-92.754235,32.287281],[-92.75737,32.287413],[-92.756986,32.28367],[-92.758072,32.281909],[-92.74135,32.280911],[-92.740909,32.280586],[-92.740657,32.280386],[-92.740547,32.280203],[-92.740056,32.280661],[-92.740062,32.28083],[-92.73891,32.280969],[-92.737284,32.281036],[-92.733718,32.281461],[-92.732046,32.281124],[-92.72781,32.280473],[-92.727199,32.283095],[-92.726656,32.2851],[-92.719607,32.285153],[-92.718582,32.287512],[-92.718585,32.287338],[-92.715238,32.283991],[-92.714211,32.281841],[-92.714972,32.281188],[-92.710758,32.281288],[-92.71079,32.280118],[-92.707609,32.280127],[-92.707634,32.277988],[-92.709506,32.276288],[-92.710542,32.274236],[-92.710652,32.271971],[-92.711336,32.270905],[-92.708203,32.272045],[-92.694074,32.278337],[-92.666923,32.29055],[-92.665149,32.291144],[-92.655546,32.291215],[-92.654872,32.292837],[-92.651206,32.294114],[-92.649295,32.295335],[-92.646351,32.298299],[-92.642235,32.297539],[-92.641835,32.298637],[-92.639996,32.299556],[-92.637633,32.298668],[-92.635198,32.299449],[-92.631533,32.299045],[-92.630604,32.297893],[-92.627853,32.29999],[-92.624987,32.301491],[-92.623768,32.303792],[-92.624967,32.306599],[-92.626637,32.307056],[-92.628074,32.308573],[-92.628502,32.310378],[-92.627927,32.31174],[-92.628294,32.314618],[-92.626808,32.317861],[-92.625506,32.319023],[-92.620495,32.319763],[-92.615856,32.321182],[-92.614466,32.321067],[-92.613919,32.320862],[-92.612757,32.317495],[-92.613052,32.314493],[-92.610108,32.310896],[-92.606276,32.309477],[-92.604657,32.30856],[-92.600448,32.308563],[-92.593513,32.304828],[-92.585989,32.306137],[-92.58228,32.307583],[-92.581951,32.308797],[-92.582508,32.311777],[-92.580069,32.313265],[-92.578174,32.313333],[-92.572245,32.312809],[-92.570575,32.316051],[-92.570638,32.318195],[-92.569306,32.321015],[-92.569394,32.325257],[-92.569124,32.327751],[-92.568095,32.330515],[-92.568536,32.334332],[-92.569439,32.336621],[-92.569317,32.339131],[-92.569667,32.341679],[-92.568888,32.343232],[-92.569506,32.347997],[-92.569431,32.351896],[-92.568864,32.35333],[-92.56897,32.356783],[-92.569481,32.36074],[-92.568738,32.361344],[-92.566973,32.360747],[-92.562932,32.361841],[-92.560317,32.362191],[-92.560842,32.36368],[-92.564298,32.366753],[-92.57047,32.375099],[-92.570595,32.375974],[-92.570505,32.384363],[-92.574235,32.382218],[-92.57595,32.382742],[-92.578422,32.382655],[-92.582975,32.380768],[-92.58454,32.380905],[-92.588107,32.380025],[-92.589758,32.379221],[-92.592424,32.377042],[-92.593612,32.374937],[-92.603426,32.377301],[-92.604562,32.375331],[-92.606627,32.373298],[-92.607248,32.371088],[-92.608616,32.370466],[-92.61194,32.370469],[-92.61222,32.37296],[-92.611819,32.374451],[-92.608464,32.377293],[-92.608134,32.378162],[-92.614429,32.379796],[-92.614585,32.380947],[-92.616986,32.380001],[-92.620874,32.379801],[-92.621094,32.372314],[-92.62459,32.372284],[-92.626645,32.369763],[-92.62942,32.368084],[-92.630962,32.366555],[-92.6308,32.362949],[-92.632575,32.362977],[-92.6379,32.365432],[-92.63928,32.364607],[-92.642144,32.364961],[-92.653255,32.358365],[-92.655563,32.359809],[-92.65818,32.367365],[-92.660291,32.372819],[-92.66022,32.372044],[-92.662119,32.372154],[-92.664303,32.371004],[-92.666959,32.371957],[-92.669396,32.37133],[-92.670851,32.371786],[-92.67116,32.370581],[-92.672849,32.368915],[-92.67302,32.366036],[-92.674652,32.369104],[-92.676187,32.369687],[-92.676459,32.370727],[-92.678073,32.370033],[-92.680568,32.369996],[-92.681313,32.368412],[-92.682382,32.368929],[-92.68303,32.36789],[-92.684715,32.3691],[-92.686102,32.367994],[-92.690353,32.366124],[-92.692147,32.366602],[-92.69551,32.366295],[-92.69634,32.364255],[-92.697538,32.364309],[-92.697162,32.363028],[-92.700434,32.36025],[-92.702125,32.358221],[-92.701244,32.357352],[-92.70252,32.356868],[-92.701723,32.355928],[-92.703757,32.356296],[-92.703615,32.354304],[-92.705578,32.355257],[-92.705156,32.353375],[-92.706497,32.353392],[-92.706108,32.35183],[-92.70846,32.35117],[-92.709425,32.349773],[-92.708868,32.348706],[-92.71052,32.348937],[-92.711148,32.347975],[-92.710338,32.346715],[-92.713603,32.347676],[-92.714459,32.346139],[-92.714617,32.349854],[-92.71328,32.350729],[-92.712568,32.352473],[-92.710029,32.353821],[-92.709102,32.355663],[-92.70793,32.355992],[-92.707373,32.357489],[-92.70839,32.357286],[-92.711228,32.358803],[-92.708861,32.36563],[-92.698543,32.382637],[-92.697055,32.386412],[-92.698864,32.387057],[-92.702759,32.390196],[-92.703051,32.390053],[-92.705528,32.395756],[-92.704653,32.397516],[-92.70761,32.400644],[-92.711241,32.407513],[-92.710846,32.409339],[-92.713311,32.410122],[-92.715365,32.411341],[-92.720881,32.415579],[-92.72479,32.417819],[-92.727044,32.418518],[-92.730847,32.418802],[-92.735704,32.420191],[-92.740657,32.420775],[-92.743059,32.421734],[-92.742726,32.424332],[-92.746448,32.424619],[-92.747879,32.425199],[-92.752718,32.424754],[-92.754128,32.423192],[-92.756332,32.419032],[-92.756829,32.4172],[-92.759011,32.412186],[-92.758954,32.407784],[-92.758567,32.404051],[-92.761732,32.402155],[-92.764718,32.401452],[-92.770273,32.401743],[-92.775107,32.400025],[-92.77635,32.413245],[-92.777197,32.453455],[-92.791448,32.453477],[-92.805807,32.454011],[-92.814906,32.444266],[-92.81333,32.442044],[-92.812492,32.439363],[-92.811303,32.433451],[-92.811546,32.430083],[-92.811114,32.427013],[-92.811303,32.424172],[-92.810547,32.423141],[-92.811222,32.420758],[-92.81384,32.42221],[-92.81543,32.42255],[-92.81996,32.42121],[-92.82571,32.42034],[-92.82782,32.42032],[-92.830231,32.419058],[-92.826068,32.413575],[-92.825886,32.410721],[-92.82492,32.409621],[-92.823092,32.409825],[-92.824097,32.408725],[-92.821439,32.407246],[-92.8209,32.403688],[-92.819941,32.403671],[-92.821315,32.401631],[-92.820609,32.400062],[-92.821765,32.40024],[-92.824379,32.399183],[-92.82267,32.39556],[-92.82211,32.39279],[-92.82203,32.38822],[-92.82751,32.38835],[-92.830592,32.388889],[-92.83224,32.38995],[-92.83899,32.38885],[-92.84112,32.38805],[-92.84314,32.38796],[-92.84484,32.38862],[-92.84711,32.38798],[-92.84992,32.38791],[-92.85021,32.38453],[-92.85736,32.37982],[-92.86027,32.37541],[-92.86141,32.37567],[-92.86621,32.3742],[-92.86799,32.3741],[-92.86948,32.37295],[-92.87296,32.37527],[-92.875263,32.37866],[-92.875926,32.378598],[-92.892271,32.362405],[-92.894317,32.360629]]]}},{"type":"Feature","properties":{"zcta5":"71001","AFFGEOID10":"8600000US71001","GEOID10":"71001","ALAND10":320716672,"AWATER10":222261,"county_name":"Bienville","state_code":"LA","county_state":"Bienville County, LA","county_fips":"22013","risk_level_county":"Higher Risk (60–69% vaccinated)","mean_vaccination_rate_county":63.4,"risk_level_zcta":"Higher Risk (60–69% vaccinated)","mean_vaccination_rate_zips":62.84,"cases":3},"geometry":{"type":"Polygon","coordinates":[[[-93.002742,32.584095],[-93.00412,32.582149],[-93.00561,32.58089],[-93.00785,32.57798],[-93.01147,32.57205],[-93.01613,32.56915],[-93.01693,32.56783],[-93.01778,32.56436],[-93.01688,32.56361],[-93.01423,32.56294],[-93.01121,32.5597],[-93.00887,32.5578],[-93.00839,32.5561],[-93.00798,32.55106],[-93.00813,32.54674],[-93.01005,32.546],[-93.01279,32.54591],[-93.01277,32.54547],[-93.006827,32.545392],[-93.004148,32.54557],[-93.00016,32.546536],[-92.979635,32.553255],[-92.973876,32.554804],[-92.97377,32.54475],[-92.96957,32.5446],[-92.96941,32.54179],[-92.963604,32.541655],[-92.964681,32.538915],[-92.965391,32.538349],[-92.97147,32.535316],[-92.97412,32.534318],[-92.97401,32.52962],[-92.974223,32.521371],[-92.974736,32.519102],[-92.976142,32.516834],[-92.976551,32.514911],[-92.974863,32.514292],[-92.974267,32.512977],[-92.973957,32.509937],[-92.971011,32.508737],[-92.968835,32.504261],[-92.966939,32.502606],[-92.966907,32.501446],[-92.964518,32.499815],[-92.964871,32.49901],[-92.96247,32.49957],[-92.96077,32.49799],[-92.95921,32.49568],[-92.9576,32.49442],[-92.953366,32.492671],[-92.953932,32.490254],[-92.95337,32.48855],[-92.95253,32.48349],[-92.95269,32.48256],[-92.956566,32.474068],[-92.953444,32.473012],[-92.951198,32.473024],[-92.947641,32.474163],[-92.943569,32.47657],[-92.94085,32.474158],[-92.940941,32.47016],[-92.940467,32.466074],[-92.941148,32.461366],[-92.93939,32.458925],[-92.939364,32.456807],[-92.936757,32.455405],[-92.937217,32.454459],[-92.93522,32.453909],[-92.93258,32.451819],[-92.933631,32.450852],[-92.933002,32.449702],[-92.935181,32.448168],[-92.933774,32.446771],[-92.933748,32.445292],[-92.932652,32.443658],[-92.929896,32.441079],[-92.930077,32.4401],[-92.928203,32.439302],[-92.92714,32.435315],[-92.925325,32.43333],[-92.92609,32.431367],[-92.924521,32.429568],[-92.924716,32.426081],[-92.920865,32.423507],[-92.919192,32.423551],[-92.918958,32.425382],[-92.916286,32.428857],[-92.908424,32.430416],[-92.903117,32.442205],[-92.900439,32.441761],[-92.89299,32.44459],[-92.88935,32.44522],[-92.8847,32.44511],[-92.88316,32.44562],[-92.88442,32.45024],[-92.88331,32.45303],[-92.88205,32.45491],[-92.88229,32.45757],[-92.879838,32.463869],[-92.87938,32.468351],[-92.879093,32.476109],[-92.880034,32.500152],[-92.880242,32.55716],[-92.859549,32.553326],[-92.84816,32.551411],[-92.845375,32.553532],[-92.843422,32.556212],[-92.842074,32.558914],[-92.8419,32.560666],[-92.840201,32.562839],[-92.836973,32.5638],[-92.831039,32.568346],[-92.824958,32.571409],[-92.823888,32.571702],[-92.824971,32.575324],[-92.823971,32.580178],[-92.82474,32.58288],[-92.824912,32.58877],[-92.826772,32.591358],[-92.829172,32.593242],[-92.83031,32.592054],[-92.831854,32.589334],[-92.833593,32.588526],[-92.841634,32.588568],[-92.845199,32.591695],[-92.846301,32.592131],[-92.845406,32.606667],[-92.843861,32.606789],[-92.84225,32.607922],[-92.844066,32.60918],[-92.847721,32.610657],[-92.852187,32.612798],[-92.850798,32.614801],[-92.848162,32.619862],[-92.846649,32.621825],[-92.841253,32.626709],[-92.840561,32.627578],[-92.837154,32.63402],[-92.835863,32.635867],[-92.833623,32.637244],[-92.832097,32.637607],[-92.819156,32.639528],[-92.815818,32.640486],[-92.813665,32.641983],[-92.812356,32.643524],[-92.811232,32.646809],[-92.811616,32.655372],[-92.813038,32.659683],[-92.813209,32.661481],[-92.812683,32.664923],[-92.813192,32.668768],[-92.812495,32.670709],[-92.807314,32.671953],[-92.805104,32.671992],[-92.802702,32.672792],[-92.794622,32.673169],[-92.79725,32.676935],[-92.793578,32.680222],[-92.792533,32.680702],[-92.776366,32.684933],[-92.771878,32.685093],[-92.768025,32.68685],[-92.76186,32.686737],[-92.755749,32.686931],[-92.754334,32.692484],[-92.751524,32.693676],[-92.751711,32.695034],[-92.753115,32.6963],[-92.750955,32.698432],[-92.753459,32.698417],[-92.754368,32.700166],[-92.755155,32.699336],[-92.7589,32.70178],[-92.760312,32.701632],[-92.760428,32.702666],[-92.762998,32.701215],[-92.764675,32.701755],[-92.766724,32.701381],[-92.768026,32.699991],[-92.770647,32.700569],[-92.771114,32.701806],[-92.772773,32.702346],[-92.773378,32.701455],[-92.775804,32.701308],[-92.777755,32.700236],[-92.781119,32.697581],[-92.782088,32.697839],[-92.784735,32.696234],[-92.786224,32.697076],[-92.78791,32.695443],[-92.789978,32.6951],[-92.790905,32.694226],[-92.793162,32.695103],[-92.794821,32.694897],[-92.794466,32.69722],[-92.795744,32.69782],[-92.794736,32.698853],[-92.799388,32.700836],[-92.80113,32.699183],[-92.80265,32.700312],[-92.804727,32.699652],[-92.806717,32.69996],[-92.80647,32.70183],[-92.810242,32.703932],[-92.808095,32.703211],[-92.806983,32.705663],[-92.808694,32.705525],[-92.808791,32.707538],[-92.811679,32.707626],[-92.811965,32.709705],[-92.814437,32.709595],[-92.815263,32.710376],[-92.815309,32.712421],[-92.817247,32.712344],[-92.81806,32.713741],[-92.819264,32.712713],[-92.820057,32.714093],[-92.823257,32.713004],[-92.824669,32.71478],[-92.826803,32.713438],[-92.828049,32.714388],[-92.831645,32.714732],[-92.831538,32.716862],[-92.833309,32.717893],[-92.836428,32.717619],[-92.835659,32.719333],[-92.836513,32.720375],[-92.838545,32.720341],[-92.841069,32.719407],[-92.840074,32.718096],[-92.841768,32.718441],[-92.841909,32.717398],[-92.844825,32.717571],[-92.844665,32.715514],[-92.845432,32.713996],[-92.848216,32.713643],[-92.849817,32.71466],[-92.85238,32.714852],[-92.851548,32.717107],[-92.852765,32.718844],[-92.854132,32.71892],[-92.856043,32.717534],[-92.856688,32.719239],[-92.858211,32.719898],[-92.858159,32.721141],[-92.86149,32.721783],[-92.862806,32.723927],[-92.864758,32.724955],[-92.865787,32.726456],[-92.867531,32.726774],[-92.871102,32.72592],[-92.874115,32.727161],[-92.877572,32.726051],[-92.880889,32.728032],[-92.879997,32.728818],[-92.881902,32.730805],[-92.885207,32.731064],[-92.886938,32.730245],[-92.89382,32.731936],[-92.894717,32.733856],[-92.895914,32.73434],[-92.896806,32.732905],[-92.898647,32.733098],[-92.899234,32.734291],[-92.90128,32.73207],[-92.90329,32.73111],[-92.90418,32.72998],[-92.90309,32.72717],[-92.90346,32.72333],[-92.90439,32.72102],[-92.90269,32.71823],[-92.90337,32.71421],[-92.90737,32.71172],[-92.913,32.70994],[-92.91565,32.71031],[-92.91678,32.70969],[-92.91733,32.70774],[-92.91904,32.70672],[-92.92028,32.7046],[-92.92238,32.6997],[-92.92256,32.69495],[-92.92215,32.69198],[-92.92234,32.689],[-92.92327,32.68442],[-92.92336,32.6804],[-92.92295,32.67814],[-92.92369,32.67657],[-92.92882,32.67567],[-92.9298,32.67403],[-92.93596,32.67186],[-92.93724,32.67083],[-92.94712,32.66851],[-92.9496,32.66742],[-92.95346,32.66413],[-92.94987,32.66369],[-92.94788,32.66128],[-92.94475,32.6602],[-92.941,32.65833],[-92.9329,32.65805],[-92.92884,32.65816],[-92.92672,32.65696],[-92.92686,32.65244],[-92.9257,32.65118],[-92.92424,32.64748],[-92.9226,32.64069],[-92.92323,32.63915],[-92.926001,32.635957],[-92.92769,32.63284],[-92.92759,32.63106],[-92.92913,32.6218],[-92.93446,32.62011],[-92.93779,32.61818],[-92.94044,32.61816],[-92.939987,32.615454],[-92.941107,32.615109],[-92.944329,32.612767],[-92.944425,32.603909],[-92.944876,32.600081],[-92.94329,32.596141],[-92.942262,32.594499],[-92.947725,32.594342],[-92.95104,32.59624],[-92.95301,32.59629],[-92.953503,32.598599],[-92.956037,32.596443],[-92.957848,32.593781],[-92.957458,32.591812],[-92.958413,32.591031],[-92.958796,32.588133],[-92.957736,32.584746],[-92.956995,32.58435],[-92.964719,32.584319],[-92.96867,32.58656],[-92.96622,32.59081],[-92.96677,32.59191],[-92.96841,32.59262],[-92.96851,32.59422],[-92.96754,32.59794],[-92.96973,32.59937],[-92.9699,32.6016],[-92.97118,32.60387],[-92.97766,32.60413],[-92.98066,32.60383],[-92.98268,32.60059],[-92.98296,32.59901],[-92.98608,32.59554],[-92.98915,32.5945],[-92.99223,32.59549],[-92.99505,32.59176],[-92.99634,32.58797],[-93.000564,32.585067],[-93.002742,32.584095]]]}},{"type":"Feature","properties":{"zcta5":"71008","AFFGEOID10":"8600000US71008","GEOID10":"71008","ALAND10":391348210,"AWATER10":455885,"county_name":"Bienville","state_code":"LA","county_state":"Bienville County, LA","county_fips":"22013","risk_level_county":"Higher Risk (60–69% vaccinated)","mean_vaccination_rate_county":63.4,"risk_level_zcta":"Medium Risk (70–79% vaccinated)","mean_vaccination_rate_zips":71.36,"cases":3},"geometry":{"type":"Polygon","coordinates":[[[-93.091654,32.36877],[-93.097074,32.364634],[-93.096338,32.362886],[-93.089514,32.348984],[-93.091761,32.348323],[-93.09562,32.344978],[-93.099533,32.342066],[-93.100503,32.338743],[-93.099855,32.336773],[-93.101202,32.331181],[-93.098908,32.331205],[-93.098825,32.327172],[-93.098096,32.326393],[-93.095479,32.326416],[-93.094696,32.327035],[-93.091701,32.326853],[-93.090619,32.32046],[-93.090918,32.319423],[-93.08729,32.31875],[-93.08622,32.31733],[-93.08486,32.31658],[-93.08283,32.31306],[-93.08245,32.30956],[-93.08191,32.30915],[-93.07559,32.30931],[-93.07248,32.31025],[-93.07095,32.31336],[-93.06662,32.31644],[-93.06609,32.31883],[-93.06329,32.32209],[-93.06159,32.32285],[-93.05151,32.3228],[-93.047695,32.323131],[-93.046387,32.321223],[-93.045215,32.318247],[-93.043803,32.317406],[-93.041997,32.315316],[-93.040002,32.314452],[-93.038565,32.311757],[-93.038533,32.31003],[-93.039272,32.308727],[-93.038553,32.308204],[-93.034675,32.306922],[-93.032461,32.30476],[-93.027592,32.303879],[-93.025474,32.303966],[-93.025059,32.305],[-93.021401,32.304488],[-93.019898,32.304938],[-93.016267,32.302231],[-93.012285,32.301943],[-93.010175,32.301195],[-93.007948,32.299549],[-93.00486,32.298877],[-93.003495,32.297369],[-93.00134,32.29616],[-93.00086,32.29313],[-92.99938,32.29118],[-93.007289,32.291091],[-93.035735,32.293113],[-93.03485,32.28902],[-93.03596,32.28565],[-93.03716,32.28342],[-93.0376,32.27685],[-93.03656,32.27439],[-93.03647,32.26981],[-93.03601,32.26856],[-93.0295,32.26837],[-93.02683,32.26809],[-93.023062,32.269724],[-93.02081,32.26829],[-93.01879,32.26824],[-93.01637,32.2662],[-93.0092,32.26399],[-93.0077,32.26333],[-92.99714,32.25547],[-92.999,32.25117],[-93.00343,32.24657],[-93.00744,32.240876],[-93.006405,32.240419],[-93.002085,32.236282],[-93.000972,32.236001],[-92.997126,32.236964],[-92.993738,32.236251],[-92.989228,32.235835],[-92.985353,32.237596],[-92.983172,32.236211],[-92.982925,32.234083],[-92.981534,32.23328],[-92.98147,32.235705],[-92.979258,32.23679],[-92.97898,32.239281],[-92.977667,32.238814],[-92.977176,32.241327],[-92.978684,32.24213],[-92.979571,32.243659],[-92.977469,32.245639],[-92.976805,32.250154],[-92.97381,32.24926],[-92.97054,32.24932],[-92.96616,32.25036],[-92.96058,32.25312],[-92.959938,32.24999],[-92.958843,32.248123],[-92.958851,32.245303],[-92.956477,32.244895],[-92.95845,32.24239],[-92.95936,32.23956],[-92.953602,32.234361],[-92.95316,32.237925],[-92.951489,32.238682],[-92.949116,32.237811],[-92.945989,32.237628],[-92.944722,32.238247],[-92.942545,32.237799],[-92.94244,32.23982],[-92.9407,32.24177],[-92.93936,32.23921],[-92.9376,32.23883],[-92.93705,32.23681],[-92.93703,32.22985],[-92.94078,32.22686],[-92.94013,32.22488],[-92.940715,32.222771],[-92.936114,32.222181],[-92.91666,32.23249],[-92.914,32.23511],[-92.90195,32.235],[-92.894729,32.237355],[-92.88949,32.22259],[-92.88859,32.22326],[-92.88288,32.22268],[-92.88149,32.22433],[-92.88117,32.22008],[-92.88068,32.2181],[-92.8792,32.21662],[-92.87485,32.21496],[-92.87077,32.21788],[-92.86804,32.21725],[-92.8669,32.21759],[-92.86483,32.21648],[-92.86166,32.21916],[-92.86019,32.22108],[-92.85619,32.22429],[-92.85308,32.22602],[-92.85135,32.22743],[-92.84923,32.22767],[-92.84813,32.22867],[-92.84516,32.22742],[-92.841932,32.23253],[-92.837236,32.235652],[-92.832487,32.240664],[-92.832466,32.24102],[-92.833522,32.243665],[-92.833219,32.245315],[-92.835917,32.245825],[-92.835385,32.246915],[-92.838218,32.247668],[-92.839418,32.247363],[-92.840976,32.248934],[-92.841123,32.250281],[-92.842495,32.250319],[-92.843881,32.252546],[-92.844283,32.255225],[-92.84383,32.256215],[-92.844045,32.25908],[-92.845087,32.259261],[-92.844861,32.262313],[-92.84659,32.262934],[-92.848254,32.265513],[-92.847459,32.2668],[-92.849044,32.26669],[-92.850424,32.268141],[-92.852048,32.268548],[-92.854515,32.27018],[-92.855013,32.269636],[-92.855908,32.27205],[-92.859165,32.274914],[-92.858829,32.27597],[-92.860221,32.276547],[-92.860605,32.280759],[-92.865248,32.282188],[-92.867056,32.285102],[-92.868151,32.286701],[-92.868379,32.289451],[-92.870783,32.292706],[-92.872577,32.293139],[-92.875153,32.292517],[-92.87254,32.29868],[-92.86968,32.30296],[-92.86752,32.30691],[-92.86444,32.31035],[-92.859933,32.317825],[-92.86157,32.317369],[-92.863345,32.318848],[-92.863003,32.320883],[-92.864202,32.321202],[-92.867608,32.321431],[-92.871164,32.320775],[-92.872362,32.321638],[-92.873055,32.320384],[-92.874856,32.321378],[-92.874688,32.322803],[-92.875843,32.325096],[-92.875014,32.326124],[-92.878037,32.328408],[-92.880341,32.331758],[-92.881772,32.332023],[-92.882522,32.33381],[-92.883352,32.333288],[-92.884458,32.335483],[-92.882838,32.336406],[-92.883847,32.338859],[-92.883257,32.340498],[-92.885788,32.3437],[-92.885668,32.345535],[-92.883911,32.346311],[-92.883793,32.34931],[-92.88316,32.350871],[-92.88616,32.35053],[-92.889113,32.3525],[-92.889189,32.354376],[-92.892784,32.357418],[-92.894493,32.359734],[-92.894317,32.360629],[-92.893844,32.361378],[-92.894971,32.363006],[-92.898547,32.362475],[-92.90049,32.36525],[-92.90061,32.368],[-92.90385,32.37839],[-92.903726,32.380967],[-92.902,32.38317],[-92.90088,32.38688],[-92.90117,32.38934],[-92.89788,32.39505],[-92.89744,32.39997],[-92.89661,32.402],[-92.89701,32.40367],[-92.89664,32.40583],[-92.89531,32.40695],[-92.89632,32.411],[-92.89608,32.41315],[-92.89501,32.41435],[-92.896576,32.41879],[-92.901208,32.421395],[-92.902534,32.421016],[-92.908468,32.422912],[-92.911452,32.426942],[-92.90924,32.42889],[-92.908424,32.430416],[-92.916286,32.428857],[-92.918958,32.425382],[-92.919192,32.423551],[-92.920865,32.423507],[-92.924716,32.426081],[-92.924521,32.429568],[-92.92609,32.431367],[-92.925325,32.43333],[-92.92714,32.435315],[-92.928203,32.439302],[-92.930077,32.4401],[-92.929896,32.441079],[-92.932652,32.443658],[-92.933748,32.445292],[-92.933774,32.446771],[-92.935181,32.448168],[-92.933002,32.449702],[-92.933631,32.450852],[-92.93258,32.451819],[-92.93522,32.453909],[-92.937217,32.454459],[-92.936757,32.455405],[-92.939364,32.456807],[-92.93939,32.458925],[-92.941148,32.461366],[-92.940467,32.466074],[-92.940941,32.47016],[-92.94085,32.474158],[-92.943569,32.47657],[-92.947641,32.474163],[-92.951198,32.473024],[-92.953444,32.473012],[-92.956566,32.474068],[-92.95875,32.47042],[-92.96096,32.46361],[-92.96412,32.45635],[-92.96519,32.45481],[-92.96794,32.45327],[-92.974756,32.451764],[-92.974726,32.454893],[-92.97748,32.454888],[-92.977423,32.458608],[-92.986348,32.45875],[-92.984259,32.450983],[-92.983324,32.449076],[-92.981606,32.449106],[-92.981432,32.450766],[-92.978954,32.450846],[-92.97881,32.4472],[-92.977489,32.447181],[-92.977582,32.439547],[-92.984901,32.439677],[-92.985692,32.437265],[-92.984582,32.435494],[-92.983447,32.435583],[-92.98246,32.432218],[-92.981033,32.431404],[-92.980306,32.42965],[-92.981044,32.428061],[-92.979832,32.428209],[-92.978203,32.425928],[-92.977108,32.426324],[-92.975934,32.425461],[-92.97537,32.426478],[-92.974041,32.426215],[-92.973872,32.42506],[-92.972335,32.424593],[-92.973001,32.420672],[-92.98164,32.4203],[-92.982863,32.419985],[-92.983511,32.421411],[-92.986066,32.422328],[-92.992196,32.426379],[-92.993046,32.42772],[-92.997282,32.430045],[-92.998554,32.431628],[-92.999131,32.430886],[-92.99885,32.425505],[-93.001523,32.425212],[-93.015869,32.42515],[-93.016138,32.427349],[-93.01349,32.42983],[-93.01124,32.43253],[-93.01057,32.43402],[-93.009774,32.43964],[-93.003341,32.439631],[-93.00647,32.44188],[-93.00865,32.44434],[-93.00713,32.44769],[-93.00467,32.44996],[-93.00319,32.45223],[-93.00147,32.45331],[-93.001332,32.456773],[-93.00753,32.46084],[-93.009015,32.46154],[-93.006173,32.463687],[-93.003279,32.466985],[-93.003441,32.46765],[-93.007657,32.468133],[-93.009738,32.467401],[-93.011549,32.46802],[-93.012874,32.465821],[-93.014172,32.464722],[-93.015901,32.466257],[-93.01371,32.469625],[-93.011926,32.470587],[-93.010114,32.472923],[-93.015517,32.478265],[-93.015651,32.479594],[-93.022488,32.48812],[-93.023974,32.489037],[-93.027948,32.489061],[-93.02911,32.490207],[-93.032893,32.490688],[-93.040233,32.490674],[-93.0398,32.4884],[-93.04096,32.48237],[-93.04026,32.47877],[-93.03976,32.47414],[-93.040924,32.471032],[-93.04078,32.46831],[-93.03888,32.4598],[-93.03879,32.45694],[-93.0343,32.45234],[-93.03258,32.44939],[-93.03239,32.4454],[-93.032416,32.435482],[-93.030971,32.434167],[-93.033008,32.433025],[-93.038093,32.431662],[-93.042432,32.427385],[-93.045063,32.423834],[-93.04454,32.418588],[-93.044154,32.417866],[-93.03876,32.41713],[-93.03533,32.41731],[-93.03088,32.4145],[-93.02917,32.4113],[-93.02779,32.40999],[-93.02892,32.40899],[-93.03178,32.4077],[-93.03688,32.40396],[-93.04119,32.40276],[-93.04294,32.40062],[-93.04487,32.39913],[-93.04647,32.39598],[-93.04822,32.39468],[-93.05356,32.39584],[-93.05481,32.39767],[-93.054524,32.398553],[-93.056349,32.398124],[-93.058384,32.395649],[-93.061029,32.396215],[-93.064386,32.396402],[-93.066506,32.39533],[-93.06834,32.396155],[-93.070285,32.397832],[-93.073558,32.396836],[-93.074673,32.396935],[-93.075562,32.399086],[-93.078848,32.397457],[-93.082445,32.395076],[-93.083339,32.394151],[-93.084679,32.387442],[-93.084886,32.385138],[-93.084327,32.378747],[-93.085681,32.375156],[-93.087372,32.372246],[-93.089172,32.370029],[-93.091654,32.36877]]]}},{"type":"Feature","properties":{"zcta5":"71055","AFFGEOID10":"8600000US71055","GEOID10":"71055","ALAND10":667719598,"AWATER10":6960570,"county_name":"Bienville","state_code":"LA","county_state":"Bienville County, LA","county_fips":"22013","risk_level_county":"Higher Risk (60–69% vaccinated)","mean_vaccination_rate_county":63.4,"risk_level_zcta":"Higher Risk (60–69% vaccinated)","mean_vaccination_rate_zips":62.93,"cases":3},"geometry":{"type":"Polygon","coordinates":[[[-93.336852,32.829324],[-93.335693,32.827246],[-93.333608,32.826746],[-93.333413,32.825239],[-93.329668,32.824672],[-93.331472,32.824199],[-93.331061,32.822501],[-93.329192,32.822111],[-93.328605,32.820054],[-93.330956,32.819735],[-93.33147,32.819059],[-93.329783,32.817507],[-93.330988,32.816408],[-93.329301,32.815512],[-93.329496,32.813054],[-93.330851,32.812922],[-93.330206,32.81119],[-93.328636,32.811047],[-93.329502,32.809238],[-93.330765,32.808737],[-93.331097,32.807268],[-93.328974,32.806883],[-93.330094,32.806328],[-93.332392,32.803068],[-93.331551,32.801484],[-93.332534,32.800632],[-93.332879,32.798855],[-93.334246,32.798558],[-93.33685,32.796633],[-93.338439,32.796363],[-93.339551,32.793795],[-93.339954,32.790781],[-93.33813,32.788494],[-93.337173,32.788587],[-93.336698,32.786794],[-93.339594,32.784573],[-93.338168,32.782572],[-93.34279,32.782549],[-93.344384,32.780997],[-93.34217,32.780547],[-93.341239,32.779673],[-93.342658,32.778843],[-93.343816,32.775982],[-93.343464,32.775399],[-93.34552,32.772018],[-93.343696,32.76858],[-93.345244,32.76438],[-93.344879,32.763588],[-93.34622,32.764],[-93.347091,32.76202],[-93.348984,32.760469],[-93.350794,32.761083],[-93.352564,32.76061],[-93.354599,32.757458],[-93.3597,32.755131],[-93.361444,32.753849],[-93.362398,32.750144],[-93.362093,32.749105],[-93.364038,32.748075],[-93.364993,32.745941],[-93.363053,32.744106],[-93.362551,32.742462],[-93.362392,32.738622],[-93.36016,32.737442],[-93.36109,32.735715],[-93.3601,32.735099],[-93.358745,32.731284],[-93.357573,32.730624],[-93.357312,32.728524],[-93.356082,32.726329],[-93.357258,32.724289],[-93.357543,32.722332],[-93.356678,32.721964],[-93.357022,32.720198],[-93.353704,32.719023],[-93.35462,32.717098],[-93.354235,32.714953],[-93.355561,32.714525],[-93.354241,32.713209],[-93.353811,32.71128],[-93.352152,32.71145],[-93.352059,32.707833],[-93.350848,32.705117],[-93.349807,32.704039],[-93.352174,32.701656],[-93.353038,32.700062],[-93.352061,32.69816],[-93.353173,32.697108],[-93.352555,32.69568],[-93.353198,32.694811],[-93.351857,32.692106],[-93.352558,32.689092],[-93.354806,32.684235],[-93.355677,32.683574],[-93.356917,32.68077],[-93.353864,32.676752],[-93.358961,32.677581],[-93.364293,32.681243],[-93.364851,32.682155],[-93.374991,32.710521],[-93.375174,32.713441],[-93.372775,32.725032],[-93.373201,32.727635],[-93.376864,32.733705],[-93.376444,32.728243],[-93.375857,32.725074],[-93.382906,32.725253],[-93.384176,32.728603],[-93.389948,32.740962],[-93.390921,32.738979],[-93.394102,32.737561],[-93.396845,32.737648],[-93.401924,32.752463],[-93.403514,32.758307],[-93.403378,32.761769],[-93.406602,32.761817],[-93.409944,32.762302],[-93.413157,32.763252],[-93.414675,32.764414],[-93.417214,32.76737],[-93.418377,32.766511],[-93.423485,32.767088],[-93.428941,32.770139],[-93.429136,32.77109],[-93.431958,32.770899],[-93.432898,32.768357],[-93.438849,32.768254],[-93.44198,32.771248],[-93.44396,32.77239],[-93.447448,32.77338],[-93.450737,32.776172],[-93.452598,32.772861],[-93.453234,32.770398],[-93.454131,32.762857],[-93.455263,32.761131],[-93.444743,32.761166],[-93.445317,32.644006],[-93.432067,32.637692],[-93.425655,32.630755],[-93.42203,32.627128],[-93.423109,32.625445],[-93.425312,32.625287],[-93.426626,32.621896],[-93.429785,32.620742],[-93.431045,32.618471],[-93.431032,32.617173],[-93.432267,32.616722],[-93.434632,32.61449],[-93.436009,32.613768],[-93.441227,32.610166],[-93.445657,32.607777],[-93.446156,32.582198],[-93.446147,32.535523],[-93.446141,32.535132],[-93.365081,32.539287],[-93.360559,32.539071],[-93.330258,32.536749],[-93.332548,32.542181],[-93.332036,32.546553],[-93.325804,32.552245],[-93.32202,32.558157],[-93.320182,32.560693],[-93.320267,32.562095],[-93.319507,32.563145],[-93.31954,32.563541],[-93.322605,32.564729],[-93.321975,32.566395],[-93.322845,32.567116],[-93.326021,32.567126],[-93.326638,32.568589],[-93.324456,32.570414],[-93.326561,32.571283],[-93.326327,32.572614],[-93.323281,32.574088],[-93.323022,32.575397],[-93.325412,32.57565],[-93.325737,32.576732],[-93.324224,32.577888],[-93.322801,32.578207],[-93.322132,32.579532],[-93.320437,32.580671],[-93.316761,32.581705],[-93.315917,32.582673],[-93.317235,32.584708],[-93.317138,32.586824],[-93.314709,32.587221],[-93.315086,32.588853],[-93.320594,32.592428],[-93.321748,32.594251],[-93.31645,32.594485],[-93.312506,32.594203],[-93.306137,32.592968],[-93.300524,32.59131],[-93.293454,32.589722],[-93.291555,32.589298],[-93.291232,32.588234],[-93.290802,32.586108],[-93.290719,32.585254],[-93.285025,32.585268],[-93.284182,32.585126],[-93.281274,32.584203],[-93.279568,32.582495],[-93.278821,32.582712],[-93.278288,32.581972],[-93.278752,32.581657],[-93.278311,32.581245],[-93.275783,32.579002],[-93.274884,32.576665],[-93.27268,32.574427],[-93.270556,32.569834],[-93.266081,32.569786],[-93.263542,32.569062],[-93.261458,32.5666],[-93.256056,32.562665],[-93.25501,32.559424],[-93.249578,32.559056],[-93.248975,32.561529],[-93.250071,32.56832],[-93.250595,32.570009],[-93.249362,32.574716],[-93.246521,32.574759],[-93.246474,32.575933],[-93.235121,32.574028],[-93.226091,32.571548],[-93.225537,32.567588],[-93.222237,32.564203],[-93.220973,32.564148],[-93.219824,32.564852],[-93.219448,32.567684],[-93.218527,32.569972],[-93.220612,32.572077],[-93.221373,32.574426],[-93.209843,32.572602],[-93.196625,32.569148],[-93.173854,32.565502],[-93.173909,32.565268],[-93.163035,32.563524],[-93.159291,32.562137],[-93.152593,32.562146],[-93.152092,32.564637],[-93.152708,32.567442],[-93.150004,32.571956],[-93.150237,32.57409],[-93.147784,32.584885],[-93.160209,32.584898],[-93.158753,32.585586],[-93.157078,32.588323],[-93.155638,32.588743],[-93.154711,32.590696],[-93.15118,32.591978],[-93.15064,32.596074],[-93.149204,32.596832],[-93.148083,32.595147],[-93.146476,32.595182],[-93.146128,32.597442],[-93.144081,32.599247],[-93.143526,32.604839],[-93.140882,32.604288],[-93.14081,32.606356],[-93.141758,32.607033],[-93.140451,32.609237],[-93.142029,32.610712],[-93.140527,32.612174],[-93.141196,32.614269],[-93.138901,32.615533],[-93.137836,32.615175],[-93.134813,32.618402],[-93.1327,32.6196],[-93.131224,32.621365],[-93.127291,32.623838],[-93.123314,32.628121],[-93.121189,32.629002],[-93.120865,32.63019],[-93.121873,32.63107],[-93.119729,32.631632],[-93.11934,32.633315],[-93.117975,32.63414],[-93.119295,32.634381],[-93.119271,32.637291],[-93.118453,32.639034],[-93.116854,32.639376],[-93.112672,32.646026],[-93.11346,32.647461],[-93.112583,32.649089],[-93.111491,32.649106],[-93.10983,32.650822],[-93.11221,32.65112],[-93.12109,32.64989],[-93.12273,32.64994],[-93.11771,32.65558],[-93.11376,32.66059],[-93.11131,32.66532],[-93.11873,32.6657],[-93.12123,32.66762],[-93.12198,32.6699],[-93.12397,32.67161],[-93.12815,32.67285],[-93.13292,32.67536],[-93.13469,32.67561],[-93.13572,32.67832],[-93.1389,32.68066],[-93.1393,32.68359],[-93.13362,32.68641],[-93.1307,32.68741],[-93.12545,32.68738],[-93.12402,32.68783],[-93.12365,32.68901],[-93.11575,32.69402],[-93.11358,32.69626],[-93.11259,32.69816],[-93.1099,32.70133],[-93.11064,32.70339],[-93.11371,32.7069],[-93.11525,32.70928],[-93.12499,32.70952],[-93.13306,32.70913],[-93.1335,32.70755],[-93.13559,32.70571],[-93.13974,32.7053],[-93.13871,32.71067],[-93.13917,32.7127],[-93.13886,32.71523],[-93.13928,32.72285],[-93.14073,32.72616],[-93.14469,32.72149],[-93.14827,32.71893],[-93.15273,32.71746],[-93.15525,32.71609],[-93.15868,32.71496],[-93.16286,32.71257],[-93.16379,32.71494],[-93.167936,32.71722],[-93.170329,32.71644],[-93.173239,32.712118],[-93.173389,32.71043],[-93.174241,32.710534],[-93.175535,32.708901],[-93.17604,32.706671],[-93.174222,32.70547],[-93.174495,32.703232],[-93.176187,32.702588],[-93.176649,32.701472],[-93.175971,32.699109],[-93.17897,32.69802],[-93.18245,32.69406],[-93.186497,32.69467],[-93.186571,32.716755],[-93.204013,32.716914],[-93.237381,32.71625],[-93.237528,32.749941],[-93.237988,32.752934],[-93.237942,32.805255],[-93.237462,32.813884],[-93.237808,32.825465],[-93.243541,32.825436],[-93.247397,32.825071],[-93.250741,32.83388],[-93.251909,32.839225],[-93.253384,32.839964],[-93.251754,32.849458],[-93.247787,32.850135],[-93.240208,32.849465],[-93.237853,32.849053],[-93.237934,32.856526],[-93.23829,32.856734],[-93.239916,32.854342],[-93.241884,32.854138],[-93.242613,32.853125],[-93.243688,32.853752],[-93.245237,32.851799],[-93.251912,32.853898],[-93.252223,32.855064],[-93.256354,32.85483],[-93.25769,32.855034],[-93.258693,32.854039],[-93.260713,32.85454],[-93.260791,32.853721],[-93.264094,32.85464],[-93.264896,32.853222],[-93.266825,32.851765],[-93.26846,32.851975],[-93.26874,32.85342],[-93.274004,32.852593],[-93.275124,32.853154],[-93.277782,32.853375],[-93.280226,32.852385],[-93.280577,32.854959],[-93.282198,32.856867],[-93.283847,32.855884],[-93.285137,32.857006],[-93.289163,32.855522],[-93.290668,32.855516],[-93.290863,32.856671],[-93.293802,32.855792],[-93.296043,32.856617],[-93.298558,32.85615],[-93.299939,32.857408],[-93.300284,32.855902],[-93.302734,32.855897],[-93.30263,32.854715],[-93.304702,32.855055],[-93.306747,32.854297],[-93.307256,32.855336],[-93.308611,32.855749],[-93.311927,32.854567],[-93.31478,32.855353],[-93.315855,32.855171],[-93.316109,32.85361],[-93.3142,32.850811],[-93.314878,32.849083],[-93.31764,32.847994],[-93.317933,32.84717],[-93.320578,32.846389],[-93.321288,32.845466],[-93.322265,32.846026],[-93.324714,32.845399],[-93.325984,32.843386],[-93.328818,32.842561],[-93.328368,32.841724],[-93.329899,32.841285],[-93.333624,32.836561],[-93.333467,32.835434],[-93.33488,32.833948],[-93.336678,32.832904],[-93.336852,32.829324]]]}},{"type":"Feature","properties":{"zcta5":"71070","AFFGEOID10":"8600000US71070","GEOID10":"71070","ALAND10":529555452,"AWATER10":14158055,"county_name":"Bienville","state_code":"LA","county_state":"Bienville County, LA","county_fips":"22013","risk_level_county":"Higher Risk (60–69% vaccinated)","mean_vaccination_rate_county":63.4,"risk_level_zcta":"Medium Risk (70–79% vaccinated)","mean_vaccination_rate_zips":70.92,"cases":3},"geometry":{"type":"Polygon","coordinates":[[[-93.187162,32.148412],[-93.18638,32.146867],[-93.18671,32.145443],[-93.185663,32.14294],[-93.181229,32.141208],[-93.176381,32.137048],[-93.177668,32.136153],[-93.175806,32.134734],[-93.173505,32.134645],[-93.174501,32.133397],[-93.174301,32.132116],[-93.172969,32.131867],[-93.173958,32.130681],[-93.17149,32.12981],[-93.171244,32.127952],[-93.169138,32.127567],[-93.168252,32.128348],[-93.168039,32.125157],[-93.166787,32.122664],[-93.16501,32.121026],[-93.163157,32.115702],[-93.160979,32.11376],[-93.157561,32.113214],[-93.15709,32.11234],[-93.157336,32.11113],[-93.155779,32.109596],[-93.154882,32.107197],[-93.152395,32.104512],[-93.152208,32.102621],[-93.152796,32.102506],[-93.157146,32.09913],[-93.159485,32.098706],[-93.159375,32.096727],[-93.161456,32.095809],[-93.162303,32.093411],[-93.164306,32.093317],[-93.164274,32.092537],[-93.163222,32.089364],[-93.162951,32.086894],[-93.161117,32.083897],[-93.161996,32.083605],[-93.16002,32.081592],[-93.156738,32.081359],[-93.157217,32.080084],[-93.153665,32.077075],[-93.149428,32.075775],[-93.147717,32.074373],[-93.147608,32.072712],[-93.145606,32.072699],[-93.144896,32.070532],[-93.143663,32.070208],[-93.143115,32.068492],[-93.144091,32.06665],[-93.142322,32.065522],[-93.142768,32.063526],[-93.141328,32.062821],[-93.13914,32.060467],[-93.137321,32.056336],[-93.136127,32.056224],[-93.137433,32.052656],[-93.135587,32.051406],[-93.138816,32.050825],[-93.137725,32.049208],[-93.139127,32.049411],[-93.138249,32.048206],[-93.139379,32.04735],[-93.141342,32.048098],[-93.141563,32.046141],[-93.143255,32.044673],[-93.14055,32.043638],[-93.14192,32.040619],[-93.143857,32.04189],[-93.145266,32.038893],[-93.148172,32.036942],[-93.148625,32.03528],[-93.152099,32.033934],[-93.151854,32.032663],[-93.154502,32.02926],[-93.15671,32.029474],[-93.156323,32.028139],[-93.157989,32.028458],[-93.158906,32.027749],[-93.156492,32.024751],[-93.157662,32.021413],[-93.157624,32.019844],[-93.156307,32.019278],[-93.155578,32.017552],[-93.155889,32.015631],[-93.15842,32.013339],[-93.157394,32.011491],[-93.158098,32.009407],[-93.154729,32.008125],[-93.154491,32.00598],[-93.151606,32.005951],[-93.151433,32.004268],[-93.153143,32.005105],[-93.154382,32.003824],[-93.153137,32.002817],[-93.149987,32.002992],[-93.148077,32.001835],[-93.145991,31.998816],[-93.146862,31.998031],[-93.146393,31.996679],[-93.144355,31.996264],[-93.143798,31.994326],[-93.141789,31.994068],[-93.140745,31.991015],[-93.139268,31.989708],[-93.13615,31.989685],[-93.134268,31.988151],[-93.135073,31.987095],[-93.1361,31.983242],[-93.135347,31.982378],[-93.131886,31.981623],[-93.129567,31.979944],[-93.128899,31.977656],[-93.126288,31.976023],[-93.124305,31.973615],[-93.121188,31.97261],[-93.120348,31.972534],[-93.120109,31.969156],[-93.116625,31.968487],[-93.115235,31.964258],[-93.113486,31.962515],[-93.110788,31.9614],[-93.109941,31.957204],[-93.108115,31.956302],[-93.105193,31.955814],[-93.102013,31.95647],[-93.100407,31.957174],[-93.098537,31.960881],[-93.095867,31.961174],[-93.086551,31.960835],[-93.081177,31.957492],[-93.077267,31.957047],[-93.06959,31.955425],[-93.064991,31.953808],[-93.058818,31.953275],[-93.055528,31.953747],[-93.051967,31.954792],[-93.048954,31.956552],[-93.045509,31.957932],[-93.044044,31.959345],[-93.039948,31.961385],[-93.038051,31.960637],[-93.032582,31.957099],[-93.03155,31.955801],[-93.030339,31.951637],[-93.028285,31.948561],[-93.02282,31.946069],[-93.018931,31.945336],[-93.015642,31.943339],[-93.013842,31.944389],[-93.010965,31.945036],[-93.009971,31.946141],[-93.010408,31.948732],[-93.012065,31.950751],[-93.013122,31.950818],[-93.014062,31.954057],[-93.013214,31.960024],[-93.009019,31.962828],[-93.007109,31.964878],[-93.006333,31.967562],[-93.006306,31.96958],[-93.007221,31.970087],[-92.992804,31.976786],[-92.990337,31.978959],[-92.988295,31.979711],[-92.985493,31.981958],[-92.983604,31.981944],[-92.983792,31.983978],[-92.985175,31.985729],[-92.98987,31.986898],[-92.990964,31.988249],[-92.992846,31.988974],[-92.995989,31.991774],[-92.999987,31.993837],[-93.000959,31.9951],[-93.000533,31.998264],[-93.001356,32.001396],[-92.999962,32.004793],[-93.001332,32.005215],[-93.003356,32.004603],[-93.005168,32.005003],[-93.008814,32.004779],[-93.011337,32.00539],[-93.014845,32.004723],[-93.016885,32.005052],[-93.01856,32.007685],[-93.019182,32.011104],[-93.018931,32.016917],[-93.016199,32.022661],[-93.014909,32.024147],[-93.013902,32.02778],[-93.012361,32.030318],[-93.009478,32.033766],[-93.013544,32.033749],[-93.015346,32.034785],[-93.016718,32.0366],[-93.016055,32.052684],[-93.016146,32.055041],[-93.015023,32.054658],[-93.006145,32.042481],[-92.999288,32.034014],[-92.997055,32.033695],[-92.993218,32.03607],[-92.99024,32.037466],[-92.986552,32.040258],[-92.982166,32.041832],[-92.976876,32.046258],[-92.97565,32.04831],[-92.973206,32.050694],[-92.976115,32.052],[-92.978658,32.054485],[-92.973899,32.054679],[-92.972394,32.053452],[-92.970076,32.053821],[-92.96797,32.053229],[-92.96498,32.053525],[-92.963669,32.051958],[-92.961557,32.050541],[-92.959555,32.050217],[-92.957334,32.05207],[-92.955307,32.052647],[-92.954577,32.053688],[-92.947158,32.057361],[-92.943457,32.057615],[-92.93884,32.055025],[-92.937368,32.0537],[-92.935895,32.054595],[-92.932014,32.053359],[-92.930458,32.050646],[-92.93049,32.0492],[-92.929315,32.048733],[-92.927229,32.049321],[-92.926803,32.048541],[-92.922729,32.049041],[-92.92063,32.048419],[-92.918596,32.049645],[-92.915735,32.049996],[-92.914948,32.049221],[-92.913112,32.049503],[-92.909833,32.051226],[-92.908276,32.054015],[-92.90854,32.05528],[-92.90679,32.055736],[-92.903148,32.054916],[-92.902076,32.055614],[-92.902631,32.056676],[-92.900506,32.056796],[-92.901106,32.057631],[-92.9017,32.05942],[-92.900627,32.059887],[-92.901847,32.061922],[-92.903184,32.062649],[-92.90195,32.06338],[-92.902395,32.064469],[-92.901761,32.06756],[-92.902232,32.068444],[-92.904919,32.069128],[-92.906753,32.070641],[-92.908437,32.073318],[-92.909794,32.072918],[-92.909613,32.074601],[-92.910937,32.07492],[-92.911756,32.076839],[-92.910858,32.0775],[-92.910128,32.080255],[-92.908325,32.080765],[-92.910185,32.082158],[-92.909552,32.082515],[-92.906452,32.082146],[-92.906239,32.081057],[-92.904863,32.081457],[-92.905656,32.085555],[-92.90495,32.090224],[-92.907792,32.092447],[-92.909,32.092134],[-92.908651,32.093421],[-92.91055,32.094043],[-92.909735,32.095643],[-92.911408,32.096925],[-92.910846,32.098025],[-92.912151,32.098031],[-92.911601,32.100378],[-92.912763,32.10342],[-92.916465,32.106017],[-92.916097,32.106853],[-92.91777,32.107095],[-92.919062,32.109851],[-92.919146,32.108938],[-92.920949,32.108629],[-92.921439,32.110951],[-92.922783,32.110554],[-92.924903,32.112288],[-92.925225,32.114477],[-92.926537,32.115873],[-92.925736,32.117297],[-92.926465,32.119157],[-92.928682,32.120399],[-92.930045,32.122386],[-92.931661,32.123337],[-92.931687,32.126824],[-92.931292,32.127975],[-92.932966,32.128404],[-92.93146,32.130063],[-92.933082,32.130136],[-92.931887,32.134541],[-92.932875,32.13458],[-92.93336,32.136373],[-92.932184,32.13651],[-92.93506,32.139062],[-92.935545,32.140397],[-92.93813,32.142983],[-92.937652,32.144852],[-92.93908,32.147942],[-92.814737,32.146907],[-92.817103,32.148246],[-92.817498,32.14923],[-92.821135,32.151128],[-92.819857,32.151729],[-92.819448,32.154048],[-92.817464,32.154302],[-92.819242,32.155889],[-92.819531,32.158161],[-92.821471,32.160704],[-92.82131,32.162057],[-92.8223,32.162784],[-92.822824,32.166209],[-92.823851,32.166986],[-92.824383,32.169325],[-92.823111,32.171901],[-92.823149,32.173912],[-92.820324,32.177007],[-92.817636,32.176869],[-92.815595,32.177315],[-92.81643,32.178084],[-92.81578,32.181036],[-92.812606,32.183852],[-92.812594,32.185492],[-92.816736,32.186101],[-92.819416,32.185543],[-92.82009,32.18711],[-92.82133,32.20257],[-92.82419,32.20365],[-92.82837,32.20421],[-92.83108,32.20532],[-92.83977,32.20547],[-92.842458,32.205249],[-92.8449,32.20693],[-92.846478,32.209216],[-92.85199,32.20933],[-92.86351,32.20923],[-92.86571,32.20901],[-92.86949,32.21258],[-92.87485,32.21496],[-92.8792,32.21662],[-92.88068,32.2181],[-92.88117,32.22008],[-92.88149,32.22433],[-92.88288,32.22268],[-92.88859,32.22326],[-92.88949,32.22259],[-92.894729,32.237355],[-92.90195,32.235],[-92.914,32.23511],[-92.91666,32.23249],[-92.936114,32.222181],[-92.940715,32.222771],[-92.94013,32.22488],[-92.94078,32.22686],[-92.93703,32.22985],[-92.93705,32.23681],[-92.9376,32.23883],[-92.93936,32.23921],[-92.9407,32.24177],[-92.94244,32.23982],[-92.942545,32.237799],[-92.944722,32.238247],[-92.945989,32.237628],[-92.949116,32.237811],[-92.951489,32.238682],[-92.95316,32.237925],[-92.953602,32.234361],[-92.95936,32.23956],[-92.95845,32.24239],[-92.956477,32.244895],[-92.958851,32.245303],[-92.958843,32.248123],[-92.959938,32.24999],[-92.96058,32.25312],[-92.96616,32.25036],[-92.97054,32.24932],[-92.97381,32.24926],[-92.976805,32.250154],[-92.977469,32.245639],[-92.979571,32.243659],[-92.978684,32.24213],[-92.977176,32.241327],[-92.977667,32.238814],[-92.97898,32.239281],[-92.979258,32.23679],[-92.98147,32.235705],[-92.981534,32.23328],[-92.982925,32.234083],[-92.983172,32.236211],[-92.985353,32.237596],[-92.989228,32.235835],[-92.993738,32.236251],[-92.997126,32.236964],[-92.997142,32.235422],[-93.001526,32.235753],[-93.001846,32.221353],[-93.013308,32.221439],[-93.01383,32.2192],[-93.0172,32.21377],[-93.0174,32.20464],[-93.01661,32.1995],[-93.01653,32.19704],[-93.01359,32.18177],[-93.01284,32.17959],[-93.014329,32.1776],[-93.01353,32.176446],[-93.01176,32.1759],[-93.01175,32.17393],[-93.010198,32.170625],[-93.012119,32.169185],[-93.014117,32.168608],[-93.014937,32.170599],[-93.015391,32.16829],[-93.016822,32.168583],[-93.019356,32.164507],[-93.021523,32.163771],[-93.02098,32.163045],[-93.023165,32.163326],[-93.023128,32.158277],[-93.022334,32.157166],[-93.023278,32.156001],[-93.023712,32.152816],[-93.024916,32.15005],[-93.026223,32.148431],[-93.117199,32.148307],[-93.125089,32.148021],[-93.167654,32.148258],[-93.187162,32.148412]]]}},{"type":"Feature","properties":{"zcta5":"71028","AFFGEOID10":"8600000US71028","GEOID10":"71028","ALAND10":334181924,"AWATER10":234962,"county_name":"Bienville","state_code":"LA","county_state":"Bienville County, LA","county_fips":"22013","risk_level_county":"Higher Risk (60–69% vaccinated)","mean_vaccination_rate_county":63.4,"risk_level_zcta":"Higher Risk (60–69% vaccinated)","mean_vaccination_rate_zips":68.4,"cases":3},"geometry":{"type":"Polygon","coordinates":[[[-93.173909,32.565268],[-93.173731,32.561337],[-93.172996,32.560616],[-93.172296,32.557921],[-93.171068,32.558079],[-93.171199,32.556725],[-93.16986,32.556298],[-93.168158,32.549719],[-93.169892,32.548113],[-93.170027,32.546373],[-93.170999,32.545206],[-93.172013,32.542512],[-93.170773,32.539746],[-93.170895,32.535421],[-93.16911,32.533886],[-93.169056,32.530976],[-93.167814,32.528596],[-93.171274,32.526369],[-93.16957,32.525407],[-93.169517,32.522771],[-93.16846,32.521946],[-93.168976,32.520571],[-93.167192,32.516013],[-93.165787,32.514913],[-93.165653,32.512186],[-93.167244,32.511151],[-93.164957,32.51072],[-93.164141,32.503227],[-93.161995,32.498908],[-93.160872,32.49877],[-93.160399,32.496488],[-93.158317,32.493617],[-93.157708,32.490554],[-93.156742,32.488525],[-93.156781,32.486269],[-93.151859,32.47974],[-93.150044,32.476985],[-93.14926,32.474922],[-93.146446,32.469962],[-93.1486,32.469467],[-93.149795,32.467382],[-93.151112,32.467703],[-93.152085,32.466394],[-93.149751,32.464011],[-93.150011,32.462363],[-93.151614,32.460251],[-93.151238,32.45926],[-93.149215,32.458661],[-93.148151,32.457631],[-93.147193,32.455173],[-93.147531,32.453277],[-93.148497,32.452854],[-93.14892,32.450088],[-93.149906,32.449835],[-93.150491,32.446981],[-93.149875,32.446651],[-93.150881,32.444325],[-93.151395,32.441581],[-93.149936,32.441003],[-93.149904,32.439062],[-93.152576,32.43876],[-93.152351,32.434745],[-93.154063,32.433173],[-93.153325,32.431198],[-93.15424,32.428944],[-93.153956,32.425633],[-93.155149,32.424501],[-93.153295,32.422828],[-93.154644,32.422158],[-93.154613,32.419788],[-93.155747,32.419436],[-93.154633,32.418088],[-93.154238,32.416499],[-93.156435,32.417099],[-93.158011,32.415757],[-93.160449,32.4154],[-93.160171,32.413179],[-93.158525,32.410923],[-93.159595,32.410253],[-93.157228,32.410995],[-93.156075,32.409751],[-93.156788,32.408641],[-93.156471,32.406804],[-93.157815,32.402564],[-93.158023,32.400172],[-93.157012,32.398676],[-93.157551,32.397505],[-93.157215,32.393655],[-93.157805,32.392874],[-93.157469,32.389871],[-93.156627,32.38887],[-93.156939,32.387754],[-93.156796,32.386319],[-93.157743,32.385362],[-93.15683,32.382815],[-93.157264,32.3822],[-93.156922,32.379175],[-93.157781,32.378744],[-93.156536,32.375703],[-93.158954,32.374223],[-93.159709,32.373021],[-93.161836,32.372254],[-93.162532,32.37064],[-93.1648,32.36828],[-93.164342,32.364736],[-93.162249,32.362944],[-93.162826,32.361261],[-93.165906,32.363244],[-93.167342,32.364853],[-93.168526,32.364344],[-93.166424,32.362561],[-93.161106,32.357032],[-93.159827,32.356375],[-93.15645,32.35608],[-93.1468,32.35391],[-93.1453,32.35387],[-93.14308,32.35447],[-93.14254,32.35535],[-93.14271,32.36541],[-93.14243,32.36679],[-93.13886,32.37244],[-93.13856,32.37568],[-93.13929,32.37893],[-93.13852,32.38501],[-93.135752,32.384675],[-93.13291,32.38259],[-93.12942,32.38145],[-93.12741,32.38128],[-93.126153,32.37996],[-93.126046,32.385342],[-93.124823,32.387282],[-93.124745,32.388815],[-93.11975,32.38862],[-93.11725,32.38696],[-93.11374,32.38553],[-93.113803,32.389823],[-93.109396,32.393864],[-93.104371,32.381966],[-93.10077,32.38134],[-93.09243,32.38121],[-93.09841,32.37406],[-93.09892,32.37247],[-93.09792,32.3669],[-93.09494,32.36806],[-93.091654,32.36877],[-93.089172,32.370029],[-93.087372,32.372246],[-93.085681,32.375156],[-93.084327,32.378747],[-93.084886,32.385138],[-93.084679,32.387442],[-93.083339,32.394151],[-93.082445,32.395076],[-93.078848,32.397457],[-93.075562,32.399086],[-93.074673,32.396935],[-93.073558,32.396836],[-93.070285,32.397832],[-93.06834,32.396155],[-93.066506,32.39533],[-93.064386,32.396402],[-93.061029,32.396215],[-93.058384,32.395649],[-93.056349,32.398124],[-93.054524,32.398553],[-93.05481,32.39767],[-93.05356,32.39584],[-93.04822,32.39468],[-93.04647,32.39598],[-93.04487,32.39913],[-93.04294,32.40062],[-93.04119,32.40276],[-93.03688,32.40396],[-93.03178,32.4077],[-93.02892,32.40899],[-93.02779,32.40999],[-93.02917,32.4113],[-93.03088,32.4145],[-93.03533,32.41731],[-93.03876,32.41713],[-93.044154,32.417866],[-93.04454,32.418588],[-93.045063,32.423834],[-93.042432,32.427385],[-93.038093,32.431662],[-93.033008,32.433025],[-93.030971,32.434167],[-93.032416,32.435482],[-93.03239,32.4454],[-93.03258,32.44939],[-93.0343,32.45234],[-93.03879,32.45694],[-93.03888,32.4598],[-93.04078,32.46831],[-93.040924,32.471032],[-93.03976,32.47414],[-93.04026,32.47877],[-93.04096,32.48237],[-93.0398,32.4884],[-93.040233,32.490674],[-93.032893,32.490688],[-93.02911,32.490207],[-93.027948,32.489061],[-93.023974,32.489037],[-93.022488,32.48812],[-93.015651,32.479594],[-93.015517,32.478265],[-93.010114,32.472923],[-93.011926,32.470587],[-93.01371,32.469625],[-93.015901,32.466257],[-93.014172,32.464722],[-93.012874,32.465821],[-93.011549,32.46802],[-93.009738,32.467401],[-93.007657,32.468133],[-93.003441,32.46765],[-93.003279,32.466985],[-93.006173,32.463687],[-93.009015,32.46154],[-93.00753,32.46084],[-93.001332,32.456773],[-93.00147,32.45331],[-93.00319,32.45223],[-93.00467,32.44996],[-93.00713,32.44769],[-93.00865,32.44434],[-93.00647,32.44188],[-93.003341,32.439631],[-93.009774,32.43964],[-93.01057,32.43402],[-93.01124,32.43253],[-93.01349,32.42983],[-93.016138,32.427349],[-93.015869,32.42515],[-93.001523,32.425212],[-92.99885,32.425505],[-92.999131,32.430886],[-92.998554,32.431628],[-92.997282,32.430045],[-92.993046,32.42772],[-92.992196,32.426379],[-92.986066,32.422328],[-92.983511,32.421411],[-92.982863,32.419985],[-92.98164,32.4203],[-92.973001,32.420672],[-92.972335,32.424593],[-92.973872,32.42506],[-92.974041,32.426215],[-92.97537,32.426478],[-92.975934,32.425461],[-92.977108,32.426324],[-92.978203,32.425928],[-92.979832,32.428209],[-92.981044,32.428061],[-92.980306,32.42965],[-92.981033,32.431404],[-92.98246,32.432218],[-92.983447,32.435583],[-92.984582,32.435494],[-92.985692,32.437265],[-92.984901,32.439677],[-92.977582,32.439547],[-92.977489,32.447181],[-92.97881,32.4472],[-92.978954,32.450846],[-92.981432,32.450766],[-92.981606,32.449106],[-92.983324,32.449076],[-92.984259,32.450983],[-92.986348,32.45875],[-92.977423,32.458608],[-92.97748,32.454888],[-92.974726,32.454893],[-92.974756,32.451764],[-92.96794,32.45327],[-92.96519,32.45481],[-92.96412,32.45635],[-92.96096,32.46361],[-92.95875,32.47042],[-92.956566,32.474068],[-92.95269,32.48256],[-92.95253,32.48349],[-92.95337,32.48855],[-92.953932,32.490254],[-92.953366,32.492671],[-92.9576,32.49442],[-92.95921,32.49568],[-92.96077,32.49799],[-92.96247,32.49957],[-92.964871,32.49901],[-92.964518,32.499815],[-92.966907,32.501446],[-92.966939,32.502606],[-92.968835,32.504261],[-92.971011,32.508737],[-92.973957,32.509937],[-92.974267,32.512977],[-92.974863,32.514292],[-92.976551,32.514911],[-92.976142,32.516834],[-92.974736,32.519102],[-92.974223,32.521371],[-92.97401,32.52962],[-92.97412,32.534318],[-92.97147,32.535316],[-92.965391,32.538349],[-92.964681,32.538915],[-92.963604,32.541655],[-92.96941,32.54179],[-92.96957,32.5446],[-92.97377,32.54475],[-92.973876,32.554804],[-92.979635,32.553255],[-93.00016,32.546536],[-93.004148,32.54557],[-93.006827,32.545392],[-93.01277,32.54547],[-93.01279,32.54591],[-93.01005,32.546],[-93.00813,32.54674],[-93.00798,32.55106],[-93.00839,32.5561],[-93.00887,32.5578],[-93.01121,32.5597],[-93.01423,32.56294],[-93.01688,32.56361],[-93.01778,32.56436],[-93.01693,32.56783],[-93.01613,32.56915],[-93.01147,32.57205],[-93.00785,32.57798],[-93.00561,32.58089],[-93.00412,32.582149],[-93.002742,32.584095],[-93.11837,32.584836],[-93.118644,32.583967],[-93.121884,32.583906],[-93.12258,32.584836],[-93.147784,32.584885],[-93.150237,32.57409],[-93.150004,32.571956],[-93.152708,32.567442],[-93.152092,32.564637],[-93.152593,32.562146],[-93.159291,32.562137],[-93.163035,32.563524],[-93.173909,32.565268]]]}},{"type":"Feature","properties":{"zcta5":"71251","AFFGEOID10":"8600000US71251","GEOID10":"71251","ALAND10":473910696,"AWATER10":6766399,"county_name":"Bienville","state_code":"LA","county_state":"Bienville County, LA","county_fips":"22013","risk_level_county":"Higher Risk (60–69% vaccinated)","mean_vaccination_rate_county":63.4,"risk_level_zcta":"Higher Risk (60–69% vaccinated)","mean_vaccination_rate_zips":69.39,"cases":3},"geometry":{"type":"Polygon","coordinates":[[[-92.867056,32.285102],[-92.865248,32.282188],[-92.860605,32.280759],[-92.860221,32.276547],[-92.858829,32.27597],[-92.859165,32.274914],[-92.855908,32.27205],[-92.855013,32.269636],[-92.854515,32.27018],[-92.852048,32.268548],[-92.850424,32.268141],[-92.849044,32.26669],[-92.847459,32.2668],[-92.848254,32.265513],[-92.84659,32.262934],[-92.844861,32.262313],[-92.845087,32.259261],[-92.844045,32.25908],[-92.84383,32.256215],[-92.844283,32.255225],[-92.843881,32.252546],[-92.842495,32.250319],[-92.841123,32.250281],[-92.840976,32.248934],[-92.839418,32.247363],[-92.838218,32.247668],[-92.835385,32.246915],[-92.835917,32.245825],[-92.833219,32.245315],[-92.833522,32.243665],[-92.832466,32.24102],[-92.832487,32.240664],[-92.837236,32.235652],[-92.841932,32.23253],[-92.84516,32.22742],[-92.84813,32.22867],[-92.84923,32.22767],[-92.85135,32.22743],[-92.85308,32.22602],[-92.85619,32.22429],[-92.86019,32.22108],[-92.86166,32.21916],[-92.86483,32.21648],[-92.8669,32.21759],[-92.86804,32.21725],[-92.87077,32.21788],[-92.87485,32.21496],[-92.86949,32.21258],[-92.86571,32.20901],[-92.86351,32.20923],[-92.85199,32.20933],[-92.846478,32.209216],[-92.8449,32.20693],[-92.842458,32.205249],[-92.83977,32.20547],[-92.83108,32.20532],[-92.82837,32.20421],[-92.82419,32.20365],[-92.82133,32.20257],[-92.82009,32.18711],[-92.819416,32.185543],[-92.816736,32.186101],[-92.812594,32.185492],[-92.812606,32.183852],[-92.81578,32.181036],[-92.81643,32.178084],[-92.815595,32.177315],[-92.817636,32.176869],[-92.820324,32.177007],[-92.823149,32.173912],[-92.823111,32.171901],[-92.824383,32.169325],[-92.823851,32.166986],[-92.822824,32.166209],[-92.8223,32.162784],[-92.82131,32.162057],[-92.821471,32.160704],[-92.819531,32.158161],[-92.819242,32.155889],[-92.817464,32.154302],[-92.819448,32.154048],[-92.819857,32.151729],[-92.821135,32.151128],[-92.817498,32.14923],[-92.817103,32.148246],[-92.814737,32.146907],[-92.791563,32.146597],[-92.750197,32.146697],[-92.748435,32.147181],[-92.700349,32.146956],[-92.699605,32.146878],[-92.522524,32.146495],[-92.481588,32.146521],[-92.481268,32.15094],[-92.485229,32.162528],[-92.485491,32.165072],[-92.48463,32.171993],[-92.482937,32.176166],[-92.474231,32.203794],[-92.473513,32.207918],[-92.474164,32.210513],[-92.477991,32.211222],[-92.481092,32.212984],[-92.48093,32.214336],[-92.482872,32.216261],[-92.483707,32.216169],[-92.489646,32.219101],[-92.491108,32.218325],[-92.490871,32.219496],[-92.492168,32.21913],[-92.492336,32.220301],[-92.495877,32.219572],[-92.496691,32.218451],[-92.498854,32.21933],[-92.500145,32.217818],[-92.502663,32.217044],[-92.502929,32.218235],[-92.504967,32.218701],[-92.504597,32.219918],[-92.505933,32.221686],[-92.506747,32.220492],[-92.50647,32.218733],[-92.507576,32.219364],[-92.508177,32.217999],[-92.509022,32.219122],[-92.509945,32.218021],[-92.509167,32.221458],[-92.510919,32.222307],[-92.512025,32.221322],[-92.511921,32.219591],[-92.513612,32.219661],[-92.51519,32.218477],[-92.513106,32.217641],[-92.515394,32.216755],[-92.513456,32.214582],[-92.514591,32.21397],[-92.515831,32.214264],[-92.515975,32.216034],[-92.516956,32.21672],[-92.517749,32.214613],[-92.518533,32.21618],[-92.520977,32.216065],[-92.52163,32.216669],[-92.519787,32.217556],[-92.520927,32.218314],[-92.518065,32.218792],[-92.518039,32.220182],[-92.519706,32.222997],[-92.521296,32.223525],[-92.52189,32.22231],[-92.522963,32.222462],[-92.52509,32.220118],[-92.524084,32.223008],[-92.525252,32.223463],[-92.521268,32.226252],[-92.522623,32.228053],[-92.52523,32.227421],[-92.525649,32.225941],[-92.527691,32.224145],[-92.52724,32.225282],[-92.529216,32.225019],[-92.529495,32.227922],[-92.531325,32.227494],[-92.532447,32.229166],[-92.531704,32.231482],[-92.532632,32.231744],[-92.534251,32.230797],[-92.536246,32.230873],[-92.535629,32.228462],[-92.534149,32.226062],[-92.537266,32.226594],[-92.538439,32.230496],[-92.540818,32.229191],[-92.540526,32.227328],[-92.541956,32.228198],[-92.544255,32.226669],[-92.544797,32.230176],[-92.543305,32.231102],[-92.540538,32.231572],[-92.539835,32.232897],[-92.54145,32.233611],[-92.5453,32.233646],[-92.544404,32.235709],[-92.541025,32.236545],[-92.541995,32.23847],[-92.542993,32.238536],[-92.545521,32.240343],[-92.546542,32.240074],[-92.548114,32.23814],[-92.548542,32.242583],[-92.550214,32.242657],[-92.553419,32.244735],[-92.553138,32.246803],[-92.55449,32.248811],[-92.55546,32.249097],[-92.555345,32.251349],[-92.551507,32.255583],[-92.55722,32.260312],[-92.558284,32.262124],[-92.560575,32.262372],[-92.560495,32.264843],[-92.561232,32.266002],[-92.561859,32.269785],[-92.562435,32.270929],[-92.565489,32.274104],[-92.567826,32.27782],[-92.570133,32.283237],[-92.570584,32.286816],[-92.570554,32.290632],[-92.571326,32.293703],[-92.573596,32.297158],[-92.573456,32.300485],[-92.573839,32.305295],[-92.572148,32.308387],[-92.572245,32.312809],[-92.578174,32.313333],[-92.580069,32.313265],[-92.582508,32.311777],[-92.581951,32.308797],[-92.58228,32.307583],[-92.585989,32.306137],[-92.593513,32.304828],[-92.600448,32.308563],[-92.604657,32.30856],[-92.606276,32.309477],[-92.610108,32.310896],[-92.613052,32.314493],[-92.612757,32.317495],[-92.613919,32.320862],[-92.614466,32.321067],[-92.615856,32.321182],[-92.620495,32.319763],[-92.625506,32.319023],[-92.626808,32.317861],[-92.628294,32.314618],[-92.627927,32.31174],[-92.628502,32.310378],[-92.628074,32.308573],[-92.626637,32.307056],[-92.624967,32.306599],[-92.623768,32.303792],[-92.624987,32.301491],[-92.627853,32.29999],[-92.630604,32.297893],[-92.631533,32.299045],[-92.635198,32.299449],[-92.637633,32.298668],[-92.639996,32.299556],[-92.641835,32.298637],[-92.642235,32.297539],[-92.646351,32.298299],[-92.649295,32.295335],[-92.651206,32.294114],[-92.654872,32.292837],[-92.655546,32.291215],[-92.665149,32.291144],[-92.666923,32.29055],[-92.694074,32.278337],[-92.696311,32.276691],[-92.696336,32.27422],[-92.697072,32.272858],[-92.695063,32.27232],[-92.696927,32.271093],[-92.698014,32.268707],[-92.699153,32.267871],[-92.698163,32.267448],[-92.699833,32.267128],[-92.702267,32.267673],[-92.704435,32.26627],[-92.708649,32.266484],[-92.711082,32.26502],[-92.712072,32.265714],[-92.713082,32.264487],[-92.714823,32.264426],[-92.715677,32.262694],[-92.717786,32.261643],[-92.718323,32.260108],[-92.720704,32.259538],[-92.720938,32.259386],[-92.721086,32.259382],[-92.722569,32.260888],[-92.72328,32.260903],[-92.732167,32.260942],[-92.732187,32.263238],[-92.740249,32.263413],[-92.740547,32.280203],[-92.740657,32.280386],[-92.740909,32.280586],[-92.74135,32.280911],[-92.758072,32.281909],[-92.756986,32.28367],[-92.75737,32.287413],[-92.754235,32.287281],[-92.755029,32.288679],[-92.755247,32.292464],[-92.756649,32.294334],[-92.758252,32.299765],[-92.76018,32.301352],[-92.773875,32.30776],[-92.773519,32.28239],[-92.790592,32.282917],[-92.79221,32.27986],[-92.79522,32.28075],[-92.799825,32.283195],[-92.800747,32.284901],[-92.802964,32.285988],[-92.803483,32.288174],[-92.808041,32.288747],[-92.80996,32.288201],[-92.811619,32.288495],[-92.81488,32.29085],[-92.81783,32.29137],[-92.8209,32.29033],[-92.821521,32.285889],[-92.82425,32.284975],[-92.826179,32.28553],[-92.828018,32.286536],[-92.827215,32.287691],[-92.829805,32.288098],[-92.828737,32.289083],[-92.829754,32.291931],[-92.832798,32.29627],[-92.83555,32.296759],[-92.83705,32.2962],[-92.8388,32.29378],[-92.83881,32.2902],[-92.83985,32.2883],[-92.84117,32.28758],[-92.84121,32.28433],[-92.867056,32.285102]]]}},{"type":"Feature","properties":{"zcta5":"71275","AFFGEOID10":"8600000US71275","GEOID10":"71275","ALAND10":263938305,"AWATER10":32065,"county_name":"Bienville","state_code":"LA","county_state":"Bienville County, LA","county_fips":"22013","risk_level_county":"Higher Risk (60–69% vaccinated)","mean_vaccination_rate_county":63.4,"risk_level_zcta":"Higher Risk (60–69% vaccinated)","mean_vaccination_rate_zips":61.26,"cases":3},"geometry":{"type":"Polygon","coordinates":[[[-92.908424,32.430416],[-92.90924,32.42889],[-92.911452,32.426942],[-92.908468,32.422912],[-92.902534,32.421016],[-92.901208,32.421395],[-92.896576,32.41879],[-92.89501,32.41435],[-92.89608,32.41315],[-92.89632,32.411],[-92.89531,32.40695],[-92.89664,32.40583],[-92.89701,32.40367],[-92.89661,32.402],[-92.89744,32.39997],[-92.89788,32.39505],[-92.90117,32.38934],[-92.90088,32.38688],[-92.902,32.38317],[-92.903726,32.380967],[-92.90385,32.37839],[-92.90061,32.368],[-92.90049,32.36525],[-92.898547,32.362475],[-92.894971,32.363006],[-92.893844,32.361378],[-92.894317,32.360629],[-92.892271,32.362405],[-92.875926,32.378598],[-92.875263,32.37866],[-92.87296,32.37527],[-92.86948,32.37295],[-92.86799,32.3741],[-92.86621,32.3742],[-92.86141,32.37567],[-92.86027,32.37541],[-92.85736,32.37982],[-92.85021,32.38453],[-92.84992,32.38791],[-92.84711,32.38798],[-92.84484,32.38862],[-92.84314,32.38796],[-92.84112,32.38805],[-92.83899,32.38885],[-92.83224,32.38995],[-92.830592,32.388889],[-92.82751,32.38835],[-92.82203,32.38822],[-92.82211,32.39279],[-92.82267,32.39556],[-92.824379,32.399183],[-92.821765,32.40024],[-92.820609,32.400062],[-92.821315,32.401631],[-92.819941,32.403671],[-92.8209,32.403688],[-92.821439,32.407246],[-92.824097,32.408725],[-92.823092,32.409825],[-92.82492,32.409621],[-92.825886,32.410721],[-92.826068,32.413575],[-92.830231,32.419058],[-92.82782,32.42032],[-92.82571,32.42034],[-92.81996,32.42121],[-92.81543,32.42255],[-92.81384,32.42221],[-92.811222,32.420758],[-92.810547,32.423141],[-92.811303,32.424172],[-92.811114,32.427013],[-92.811546,32.430083],[-92.811303,32.433451],[-92.812492,32.439363],[-92.81333,32.442044],[-92.814906,32.444266],[-92.805807,32.454011],[-92.80397,32.456182],[-92.792505,32.468489],[-92.784595,32.478031],[-92.783507,32.479719],[-92.781118,32.481516],[-92.777406,32.481881],[-92.776166,32.486268],[-92.77642,32.487671],[-92.767317,32.497293],[-92.750705,32.497116],[-92.748273,32.498809],[-92.745056,32.502366],[-92.749356,32.504587],[-92.753353,32.5078],[-92.754483,32.50907],[-92.755125,32.510241],[-92.752033,32.51349],[-92.75231,32.519258],[-92.759891,32.522045],[-92.759939,32.532497],[-92.756997,32.532419],[-92.759622,32.532699],[-92.759866,32.533498],[-92.759922,32.540948],[-92.768474,32.541047],[-92.766546,32.544421],[-92.766661,32.546881],[-92.739575,32.544231],[-92.72003,32.542364],[-92.720711,32.54453],[-92.719452,32.546026],[-92.719034,32.548718],[-92.723692,32.543139],[-92.726735,32.544546],[-92.729419,32.544829],[-92.731843,32.547269],[-92.734907,32.552377],[-92.738359,32.554223],[-92.748663,32.548539],[-92.750435,32.548287],[-92.756802,32.548483],[-92.754166,32.550876],[-92.751335,32.554741],[-92.748356,32.555774],[-92.747104,32.559395],[-92.747151,32.567373],[-92.749467,32.56745],[-92.752984,32.569177],[-92.753198,32.570241],[-92.751502,32.572593],[-92.749694,32.574474],[-92.746557,32.574498],[-92.74333,32.576006],[-92.742403,32.577997],[-92.740598,32.578955],[-92.738514,32.581468],[-92.738449,32.585325],[-92.739081,32.586201],[-92.736254,32.587715],[-92.734492,32.589227],[-92.733003,32.59175],[-92.731779,32.592324],[-92.726813,32.592877],[-92.721895,32.595236],[-92.722282,32.596855],[-92.7206,32.597906],[-92.721634,32.599429],[-92.720568,32.600447],[-92.721797,32.602365],[-92.720914,32.603108],[-92.723826,32.60743],[-92.722846,32.609212],[-92.721533,32.609943],[-92.723217,32.612088],[-92.722763,32.613281],[-92.723907,32.614947],[-92.722991,32.616773],[-92.72485,32.618334],[-92.723876,32.622217],[-92.724474,32.624597],[-92.723961,32.627075],[-92.724571,32.629499],[-92.724131,32.630711],[-92.724701,32.631278],[-92.725194,32.629284],[-92.726845,32.630103],[-92.726746,32.628459],[-92.728443,32.629091],[-92.729151,32.627991],[-92.732926,32.626923],[-92.734913,32.625377],[-92.736532,32.626493],[-92.738137,32.626437],[-92.741257,32.62819],[-92.743612,32.631043],[-92.745347,32.631257],[-92.74842,32.630298],[-92.748602,32.629199],[-92.752919,32.629446],[-92.753868,32.628594],[-92.759851,32.630363],[-92.759872,32.624323],[-92.763,32.623359],[-92.764913,32.622062],[-92.769029,32.621084],[-92.772504,32.619679],[-92.774589,32.618175],[-92.776701,32.620386],[-92.779566,32.621377],[-92.780924,32.621212],[-92.782659,32.622296],[-92.784413,32.625306],[-92.787317,32.626351],[-92.787791,32.627561],[-92.790066,32.628848],[-92.791241,32.630273],[-92.792833,32.630944],[-92.795351,32.631053],[-92.800646,32.634185],[-92.802187,32.632596],[-92.803621,32.629214],[-92.807576,32.63216],[-92.811241,32.632185],[-92.811779,32.639322],[-92.812019,32.640457],[-92.813665,32.641983],[-92.815818,32.640486],[-92.819156,32.639528],[-92.832097,32.637607],[-92.833623,32.637244],[-92.835863,32.635867],[-92.837154,32.63402],[-92.840561,32.627578],[-92.841253,32.626709],[-92.846649,32.621825],[-92.848162,32.619862],[-92.850798,32.614801],[-92.852187,32.612798],[-92.847721,32.610657],[-92.844066,32.60918],[-92.84225,32.607922],[-92.843861,32.606789],[-92.845406,32.606667],[-92.846301,32.592131],[-92.845199,32.591695],[-92.841634,32.588568],[-92.833593,32.588526],[-92.831854,32.589334],[-92.83031,32.592054],[-92.829172,32.593242],[-92.826772,32.591358],[-92.824912,32.58877],[-92.82474,32.58288],[-92.823971,32.580178],[-92.824971,32.575324],[-92.823888,32.571702],[-92.824958,32.571409],[-92.831039,32.568346],[-92.836973,32.5638],[-92.840201,32.562839],[-92.8419,32.560666],[-92.842074,32.558914],[-92.843422,32.556212],[-92.845375,32.553532],[-92.84816,32.551411],[-92.859549,32.553326],[-92.880242,32.55716],[-92.880034,32.500152],[-92.879093,32.476109],[-92.87938,32.468351],[-92.879838,32.463869],[-92.88229,32.45757],[-92.88205,32.45491],[-92.88331,32.45303],[-92.88442,32.45024],[-92.88316,32.44562],[-92.8847,32.44511],[-92.88935,32.44522],[-92.89299,32.44459],[-92.900439,32.441761],[-92.903117,32.442205],[-92.908424,32.430416]]]}},{"type":"Feature","properties":{"zcta5":"71045","AFFGEOID10":"8600000US71045","GEOID10":"71045","ALAND10":122290400,"AWATER10":2620555,"county_name":"Bienville","state_code":"LA","county_state":"Bienville County, LA","county_fips":"22013","risk_level_county":"Higher Risk (60–69% vaccinated)","mean_vaccination_rate_county":63.4,"risk_level_zcta":"Higher Risk (60–69% vaccinated)","mean_vaccination_rate_zips":66.8,"cases":3},"geometry":{"type":"Polygon","coordinates":[[[-93.236693,32.411506],[-93.236656,32.410071],[-93.25413,32.41004],[-93.25415,32.40518],[-93.24485,32.40556],[-93.24303,32.40634],[-93.239741,32.409563],[-93.239159,32.409228],[-93.238847,32.407732],[-93.239507,32.404955],[-93.239006,32.402359],[-93.244612,32.399222],[-93.246248,32.394068],[-93.247603,32.393589],[-93.248494,32.389767],[-93.249751,32.388798],[-93.248285,32.385939],[-93.251938,32.381513],[-93.252491,32.378109],[-93.253898,32.37729],[-93.25243,32.374439],[-93.253266,32.374231],[-93.253073,32.371651],[-93.252211,32.371728],[-93.25141,32.368769],[-93.25038,32.367267],[-93.251714,32.365459],[-93.250719,32.364347],[-93.251208,32.360553],[-93.249509,32.356428],[-93.249774,32.355053],[-93.251349,32.353502],[-93.250491,32.34748],[-93.249599,32.34577],[-93.248096,32.34522],[-93.247628,32.343136],[-93.244615,32.342082],[-93.244141,32.340636],[-93.242404,32.339218],[-93.24184,32.338052],[-93.242636,32.337051],[-93.240679,32.335061],[-93.240775,32.333152],[-93.239162,32.332449],[-93.238176,32.330052],[-93.236284,32.329107],[-93.234322,32.329729],[-93.230473,32.328064],[-93.229229,32.326876],[-93.226198,32.325733],[-93.225245,32.323611],[-93.221688,32.32084],[-93.218733,32.317602],[-93.219128,32.316441],[-93.216964,32.314693],[-93.216977,32.312603],[-93.215772,32.310646],[-93.217008,32.308814],[-93.216799,32.303897],[-93.217621,32.302973],[-93.216222,32.302044],[-93.214589,32.298013],[-93.212589,32.297684],[-93.211999,32.296892],[-93.209247,32.295996],[-93.209059,32.295347],[-93.210037,32.293692],[-93.207135,32.289452],[-93.204927,32.288974],[-93.203463,32.286659],[-93.205159,32.284943],[-93.203942,32.283805],[-93.202764,32.283029],[-93.199844,32.283629],[-93.200667,32.285543],[-93.199398,32.28601],[-93.199029,32.287638],[-93.200253,32.29058],[-93.196161,32.29151],[-93.194245,32.294408],[-93.191092,32.296509],[-93.189667,32.296119],[-93.188428,32.297082],[-93.18661,32.29471],[-93.18567,32.29066],[-93.18562,32.27749],[-93.18352,32.27504],[-93.18195,32.27702],[-93.18136,32.28085],[-93.177704,32.280664],[-93.17402,32.28213],[-93.17146,32.28157],[-93.16401,32.281397],[-93.16413,32.28207],[-93.16426,32.29787],[-93.15887,32.30738],[-93.158032,32.310504],[-93.156608,32.310766],[-93.155449,32.312283],[-93.154489,32.31572],[-93.15133,32.315896],[-93.151672,32.320888],[-93.149727,32.321686],[-93.149855,32.325321],[-93.149394,32.326608],[-93.146343,32.328801],[-93.146238,32.330088],[-93.144871,32.331006],[-93.144015,32.333855],[-93.144577,32.334607],[-93.142481,32.335483],[-93.141268,32.337516],[-93.139281,32.337242],[-93.141441,32.340057],[-93.140387,32.340893],[-93.139458,32.340029],[-93.137637,32.341458],[-93.13677,32.339885],[-93.13651,32.34231],[-93.13512,32.34345],[-93.13387,32.342],[-93.129201,32.338195],[-93.12305,32.33556],[-93.12153,32.3339],[-93.11477,32.33287],[-93.11104,32.32855],[-93.10934,32.325716],[-93.10594,32.3241],[-93.10352,32.3241],[-93.10134,32.32305],[-93.09996,32.32152],[-93.09813,32.32059],[-93.090918,32.319423],[-93.090619,32.32046],[-93.091701,32.326853],[-93.094696,32.327035],[-93.095479,32.326416],[-93.098096,32.326393],[-93.098825,32.327172],[-93.098908,32.331205],[-93.101202,32.331181],[-93.099855,32.336773],[-93.100503,32.338743],[-93.099533,32.342066],[-93.09562,32.344978],[-93.091761,32.348323],[-93.089514,32.348984],[-93.096338,32.362886],[-93.097074,32.364634],[-93.091654,32.36877],[-93.09494,32.36806],[-93.09792,32.3669],[-93.09892,32.37247],[-93.09841,32.37406],[-93.09243,32.38121],[-93.10077,32.38134],[-93.104371,32.381966],[-93.109396,32.393864],[-93.113803,32.389823],[-93.11374,32.38553],[-93.11725,32.38696],[-93.11975,32.38862],[-93.124745,32.388815],[-93.124823,32.387282],[-93.126046,32.385342],[-93.126153,32.37996],[-93.12741,32.38128],[-93.12942,32.38145],[-93.13291,32.38259],[-93.135752,32.384675],[-93.13852,32.38501],[-93.13929,32.37893],[-93.13856,32.37568],[-93.13886,32.37244],[-93.14243,32.36679],[-93.14271,32.36541],[-93.14254,32.35535],[-93.14308,32.35447],[-93.1453,32.35387],[-93.1468,32.35391],[-93.15645,32.35608],[-93.159827,32.356375],[-93.161106,32.357032],[-93.166424,32.362561],[-93.168526,32.364344],[-93.167342,32.364853],[-93.165906,32.363244],[-93.162826,32.361261],[-93.162249,32.362944],[-93.164342,32.364736],[-93.1648,32.36828],[-93.162532,32.37064],[-93.161836,32.372254],[-93.159709,32.373021],[-93.158954,32.374223],[-93.156536,32.375703],[-93.157781,32.378744],[-93.156922,32.379175],[-93.157264,32.3822],[-93.15683,32.382815],[-93.157743,32.385362],[-93.156796,32.386319],[-93.156939,32.387754],[-93.16528,32.383081],[-93.168469,32.385193],[-93.173265,32.384067],[-93.17497,32.384743],[-93.178735,32.384936],[-93.180154,32.385591],[-93.180543,32.386537],[-93.183084,32.387637],[-93.184075,32.38872],[-93.184134,32.391992],[-93.185415,32.392955],[-93.185595,32.396937],[-93.18482,32.401025],[-93.185694,32.402657],[-93.185632,32.409802],[-93.19726,32.41004],[-93.20524,32.41164],[-93.22045,32.41222],[-93.23214,32.41322],[-93.23568,32.41282],[-93.236693,32.411506]]]}},{"type":"Feature","properties":{"zcta5":"71024","AFFGEOID10":"8600000US71024","GEOID10":"71024","ALAND10":157604339,"AWATER10":257140,"county_name":"Bienville","state_code":"LA","county_state":"Bienville County, LA","county_fips":"22013","risk_level_county":"Higher Risk (60–69% vaccinated)","mean_vaccination_rate_county":63.4,"risk_level_zcta":"Medium Risk (70–79% vaccinated)","mean_vaccination_rate_zips":71.51,"cases":3},"geometry":{"type":"Polygon","coordinates":[[[-93.249578,32.559056],[-93.249984,32.556075],[-93.25345,32.555538],[-93.254945,32.554087],[-93.256666,32.553593],[-93.256886,32.554665],[-93.258438,32.555155],[-93.260523,32.553182],[-93.263231,32.553172],[-93.264121,32.551071],[-93.266699,32.550924],[-93.270056,32.5501],[-93.273238,32.54866],[-93.274823,32.548853],[-93.275459,32.54771],[-93.278628,32.547144],[-93.27883,32.545],[-93.277992,32.544406],[-93.274186,32.543402],[-93.272679,32.542389],[-93.268922,32.541648],[-93.264617,32.539608],[-93.257749,32.537867],[-93.254094,32.537639],[-93.254027,32.529592],[-93.258312,32.526777],[-93.262651,32.526604],[-93.262626,32.518428],[-93.260767,32.5146],[-93.262458,32.511356],[-93.274051,32.510247],[-93.276948,32.511249],[-93.284727,32.511156],[-93.28446,32.508346],[-93.283521,32.505903],[-93.28187,32.505648],[-93.280052,32.50474],[-93.275496,32.504585],[-93.273835,32.504061],[-93.269967,32.504781],[-93.264822,32.502442],[-93.264531,32.50099],[-93.26169,32.499274],[-93.260737,32.497602],[-93.259744,32.497641],[-93.259285,32.49554],[-93.256341,32.492382],[-93.252487,32.491946],[-93.252475,32.489845],[-93.249872,32.490322],[-93.247718,32.489685],[-93.2439,32.486206],[-93.242471,32.483814],[-93.242893,32.483252],[-93.241621,32.478864],[-93.240677,32.47923],[-93.237282,32.478883],[-93.238587,32.477809],[-93.242106,32.470138],[-93.245221,32.470593],[-93.244895,32.469081],[-93.246334,32.466611],[-93.24534,32.464174],[-93.242983,32.460732],[-93.240381,32.459173],[-93.239933,32.458106],[-93.238091,32.457095],[-93.237978,32.451967],[-93.238918,32.451593],[-93.238507,32.449635],[-93.239106,32.446633],[-93.238521,32.443913],[-93.236823,32.442571],[-93.23715,32.434939],[-93.236693,32.411506],[-93.23568,32.41282],[-93.23214,32.41322],[-93.22045,32.41222],[-93.20524,32.41164],[-93.19726,32.41004],[-93.185632,32.409802],[-93.185694,32.402657],[-93.18482,32.401025],[-93.185595,32.396937],[-93.185415,32.392955],[-93.184134,32.391992],[-93.184075,32.38872],[-93.183084,32.387637],[-93.180543,32.386537],[-93.180154,32.385591],[-93.178735,32.384936],[-93.17497,32.384743],[-93.173265,32.384067],[-93.168469,32.385193],[-93.16528,32.383081],[-93.156939,32.387754],[-93.156627,32.38887],[-93.157469,32.389871],[-93.157805,32.392874],[-93.157215,32.393655],[-93.157551,32.397505],[-93.157012,32.398676],[-93.158023,32.400172],[-93.157815,32.402564],[-93.156471,32.406804],[-93.156788,32.408641],[-93.156075,32.409751],[-93.157228,32.410995],[-93.159595,32.410253],[-93.158525,32.410923],[-93.160171,32.413179],[-93.160449,32.4154],[-93.158011,32.415757],[-93.156435,32.417099],[-93.154238,32.416499],[-93.154633,32.418088],[-93.155747,32.419436],[-93.154613,32.419788],[-93.154644,32.422158],[-93.153295,32.422828],[-93.155149,32.424501],[-93.153956,32.425633],[-93.15424,32.428944],[-93.153325,32.431198],[-93.154063,32.433173],[-93.152351,32.434745],[-93.152576,32.43876],[-93.149904,32.439062],[-93.149936,32.441003],[-93.151395,32.441581],[-93.150881,32.444325],[-93.149875,32.446651],[-93.150491,32.446981],[-93.149906,32.449835],[-93.14892,32.450088],[-93.148497,32.452854],[-93.147531,32.453277],[-93.147193,32.455173],[-93.148151,32.457631],[-93.149215,32.458661],[-93.151238,32.45926],[-93.151614,32.460251],[-93.150011,32.462363],[-93.149751,32.464011],[-93.152085,32.466394],[-93.151112,32.467703],[-93.149795,32.467382],[-93.1486,32.469467],[-93.146446,32.469962],[-93.14926,32.474922],[-93.150044,32.476985],[-93.151859,32.47974],[-93.156781,32.486269],[-93.156742,32.488525],[-93.157708,32.490554],[-93.158317,32.493617],[-93.160399,32.496488],[-93.160872,32.49877],[-93.161995,32.498908],[-93.164141,32.503227],[-93.164957,32.51072],[-93.167244,32.511151],[-93.165653,32.512186],[-93.165787,32.514913],[-93.167192,32.516013],[-93.168976,32.520571],[-93.16846,32.521946],[-93.169517,32.522771],[-93.16957,32.525407],[-93.171274,32.526369],[-93.167814,32.528596],[-93.169056,32.530976],[-93.16911,32.533886],[-93.170895,32.535421],[-93.170773,32.539746],[-93.172013,32.542512],[-93.170999,32.545206],[-93.170027,32.546373],[-93.169892,32.548113],[-93.168158,32.549719],[-93.16986,32.556298],[-93.171199,32.556725],[-93.171068,32.558079],[-93.172296,32.557921],[-93.172996,32.560616],[-93.173731,32.561337],[-93.173909,32.565268],[-93.173854,32.565502],[-93.196625,32.569148],[-93.209843,32.572602],[-93.221373,32.574426],[-93.220612,32.572077],[-93.218527,32.569972],[-93.219448,32.567684],[-93.219824,32.564852],[-93.220973,32.564148],[-93.222237,32.564203],[-93.225537,32.567588],[-93.226091,32.571548],[-93.235121,32.574028],[-93.246474,32.575933],[-93.246521,32.574759],[-93.249362,32.574716],[-93.250595,32.570009],[-93.250071,32.56832],[-93.248975,32.561529],[-93.249578,32.559056]]]}},{"type":"Feature","properties":{"zcta5":"71039","AFFGEOID10":"8600000US71039","GEOID10":"71039","ALAND10":119510272,"AWATER10":6882088,"county_name":"Bienville","state_code":"LA","county_state":"Bienville County, LA","county_fips":"22013","risk_level_county":"Higher Risk (60–69% vaccinated)","mean_vaccination_rate_county":63.4,"risk_level_zcta":"Very High Risk (<60% vaccinated)","mean_vaccination_rate_zips":55.17,"cases":3},"geometry":{"type":"Polygon","coordinates":[[[-93.353252,32.454123],[-93.356844,32.451454],[-93.362685,32.446244],[-93.365982,32.439072],[-93.364601,32.418219],[-93.364522,32.410963],[-93.364369,32.410095],[-93.352567,32.410014],[-93.352694,32.409146],[-93.351066,32.408098],[-93.348741,32.409454],[-93.346287,32.407097],[-93.345937,32.405517],[-93.344292,32.40346],[-93.346179,32.40314],[-93.346424,32.401952],[-93.344563,32.399756],[-93.34548,32.399961],[-93.345723,32.39836],[-93.344536,32.396301],[-93.34629,32.395504],[-93.34546,32.392615],[-93.345777,32.391262],[-93.347636,32.390074],[-93.348057,32.388143],[-93.344498,32.386654],[-93.343357,32.38578],[-93.342825,32.382552],[-93.342002,32.382085],[-93.339019,32.382202],[-93.34032,32.37903],[-93.338996,32.37738],[-93.339427,32.375555],[-93.335053,32.37559],[-93.332111,32.371925],[-93.328736,32.3711],[-93.324255,32.3689],[-93.321043,32.368808],[-93.317209,32.367387],[-93.315347,32.367089],[-93.312403,32.367615],[-93.31211,32.36653],[-93.29684,32.36642],[-93.29676,32.37711],[-93.292446,32.377724],[-93.29229,32.373665],[-93.290884,32.372301],[-93.284405,32.370419],[-93.283134,32.371029],[-93.285382,32.366405],[-93.26322,32.36644],[-93.2607,32.36669],[-93.251714,32.365459],[-93.25038,32.367267],[-93.25141,32.368769],[-93.252211,32.371728],[-93.253073,32.371651],[-93.253266,32.374231],[-93.25243,32.374439],[-93.253898,32.37729],[-93.252491,32.378109],[-93.251938,32.381513],[-93.248285,32.385939],[-93.249751,32.388798],[-93.248494,32.389767],[-93.247603,32.393589],[-93.246248,32.394068],[-93.244612,32.399222],[-93.239006,32.402359],[-93.239507,32.404955],[-93.238847,32.407732],[-93.239159,32.409228],[-93.239741,32.409563],[-93.24303,32.40634],[-93.24485,32.40556],[-93.25415,32.40518],[-93.25413,32.41004],[-93.236656,32.410071],[-93.236693,32.411506],[-93.23715,32.434939],[-93.236823,32.442571],[-93.238521,32.443913],[-93.239106,32.446633],[-93.238507,32.449635],[-93.238918,32.451593],[-93.237978,32.451967],[-93.238091,32.457095],[-93.239933,32.458106],[-93.240381,32.459173],[-93.242983,32.460732],[-93.24534,32.464174],[-93.246334,32.466611],[-93.244895,32.469081],[-93.245221,32.470593],[-93.242106,32.470138],[-93.238587,32.477809],[-93.237282,32.478883],[-93.240677,32.47923],[-93.241621,32.478864],[-93.242893,32.483252],[-93.242471,32.483814],[-93.2439,32.486206],[-93.247718,32.489685],[-93.249872,32.490322],[-93.252475,32.489845],[-93.252487,32.491946],[-93.256341,32.492382],[-93.259285,32.49554],[-93.259744,32.497641],[-93.260737,32.497602],[-93.26169,32.499274],[-93.264531,32.50099],[-93.264822,32.502442],[-93.269967,32.504781],[-93.273835,32.504061],[-93.275496,32.504585],[-93.280052,32.50474],[-93.28187,32.505648],[-93.280777,32.502927],[-93.281601,32.498542],[-93.280038,32.492676],[-93.277011,32.486265],[-93.275659,32.482697],[-93.281828,32.482505],[-93.283449,32.482844],[-93.282969,32.484144],[-93.288264,32.484924],[-93.289438,32.482943],[-93.292281,32.482616],[-93.29273,32.481338],[-93.2978,32.478579],[-93.29481,32.476512],[-93.292192,32.473213],[-93.289662,32.464937],[-93.295491,32.464655],[-93.300379,32.46694],[-93.302303,32.467425],[-93.299845,32.47269],[-93.300124,32.476305],[-93.299525,32.479796],[-93.300891,32.480746],[-93.302237,32.479217],[-93.305007,32.479695],[-93.304793,32.478717],[-93.307603,32.474285],[-93.308959,32.473784],[-93.309212,32.471502],[-93.313655,32.468637],[-93.315666,32.468296],[-93.31612,32.467427],[-93.320726,32.465029],[-93.320641,32.463698],[-93.322458,32.46223],[-93.32452,32.462372],[-93.324903,32.464385],[-93.328211,32.464121],[-93.329269,32.463081],[-93.330157,32.463586],[-93.333485,32.46275],[-93.334334,32.461931],[-93.336279,32.457872],[-93.340268,32.457107],[-93.347298,32.454955],[-93.353252,32.454123]]]}},{"type":"Feature","properties":{"zcta5":"71016","AFFGEOID10":"8600000US71016","GEOID10":"71016","ALAND10":322796996,"AWATER10":5075048,"county_name":"Bienville","state_code":"LA","county_state":"Bienville County, LA","county_fips":"22013","risk_level_county":"Higher Risk (60–69% vaccinated)","mean_vaccination_rate_county":63.4,"risk_level_zcta":"Lower Risk (80–84% vaccinated)","mean_vaccination_rate_zips":80.33,"cases":3},"geometry":{"type":"Polygon","coordinates":[[[-93.203942,32.283805],[-93.205632,32.282545],[-93.205961,32.281126],[-93.207185,32.281659],[-93.208059,32.27947],[-93.209515,32.27908],[-93.208984,32.277903],[-93.214331,32.276945],[-93.213877,32.275977],[-93.214479,32.274003],[-93.21451,32.270978],[-93.216166,32.267711],[-93.215622,32.265962],[-93.217026,32.264933],[-93.215841,32.262415],[-93.214598,32.261431],[-93.212274,32.258417],[-93.212811,32.256888],[-93.211309,32.256141],[-93.21147,32.255178],[-93.208305,32.253864],[-93.207681,32.251322],[-93.209353,32.250013],[-93.207806,32.249309],[-93.207684,32.247387],[-93.209122,32.244174],[-93.207503,32.241014],[-93.208772,32.240385],[-93.209264,32.241949],[-93.210641,32.242079],[-93.210477,32.240942],[-93.211666,32.240432],[-93.211151,32.238983],[-93.213491,32.238796],[-93.212796,32.237698],[-93.213988,32.236065],[-93.213143,32.235757],[-93.212467,32.233329],[-93.210701,32.231042],[-93.211887,32.22934],[-93.211094,32.225266],[-93.209563,32.222331],[-93.210168,32.220079],[-93.212774,32.216399],[-93.211851,32.215658],[-93.212972,32.210238],[-93.213952,32.209486],[-93.213941,32.207582],[-93.215526,32.207481],[-93.215412,32.206432],[-93.213378,32.204],[-93.212905,32.199281],[-93.212335,32.198583],[-93.212484,32.19789],[-93.2124,32.19745],[-93.212568,32.197285],[-93.212969,32.196768],[-93.212762,32.196488],[-93.212096,32.196488],[-93.211604,32.196119],[-93.211093,32.195053],[-93.211125,32.194816],[-93.211726,32.194068],[-93.211028,32.193744],[-93.211209,32.193436],[-93.2117,32.1931],[-93.21117,32.192946],[-93.211144,32.192231],[-93.207186,32.191369],[-93.207334,32.189239],[-93.205374,32.187711],[-93.204404,32.187893],[-93.200813,32.185683],[-93.198375,32.185326],[-93.196144,32.181487],[-93.191901,32.178362],[-93.192917,32.174964],[-93.192858,32.172286],[-93.191501,32.170653],[-93.190564,32.16848],[-93.191973,32.166401],[-93.193415,32.166264],[-93.194091,32.164872],[-93.192378,32.164386],[-93.193436,32.163531],[-93.191846,32.161579],[-93.190336,32.161434],[-93.190562,32.159633],[-93.189387,32.158465],[-93.189204,32.154045],[-93.187162,32.148412],[-93.167654,32.148258],[-93.125089,32.148021],[-93.117199,32.148307],[-93.026223,32.148431],[-93.024916,32.15005],[-93.023712,32.152816],[-93.023278,32.156001],[-93.022334,32.157166],[-93.023128,32.158277],[-93.023165,32.163326],[-93.02098,32.163045],[-93.021523,32.163771],[-93.019356,32.164507],[-93.016822,32.168583],[-93.015391,32.16829],[-93.014937,32.170599],[-93.014117,32.168608],[-93.012119,32.169185],[-93.010198,32.170625],[-93.01175,32.17393],[-93.01176,32.1759],[-93.01353,32.176446],[-93.014329,32.1776],[-93.01284,32.17959],[-93.01359,32.18177],[-93.01653,32.19704],[-93.01661,32.1995],[-93.0174,32.20464],[-93.0172,32.21377],[-93.01383,32.2192],[-93.013308,32.221439],[-93.001846,32.221353],[-93.001526,32.235753],[-92.997142,32.235422],[-92.997126,32.236964],[-93.000972,32.236001],[-93.002085,32.236282],[-93.006405,32.240419],[-93.00744,32.240876],[-93.00343,32.24657],[-92.999,32.25117],[-92.99714,32.25547],[-93.0077,32.26333],[-93.0092,32.26399],[-93.01637,32.2662],[-93.01879,32.26824],[-93.02081,32.26829],[-93.023062,32.269724],[-93.02683,32.26809],[-93.0295,32.26837],[-93.03601,32.26856],[-93.03647,32.26981],[-93.03656,32.27439],[-93.0376,32.27685],[-93.03716,32.28342],[-93.03596,32.28565],[-93.03485,32.28902],[-93.035735,32.293113],[-93.007289,32.291091],[-92.99938,32.29118],[-93.00086,32.29313],[-93.00134,32.29616],[-93.003495,32.297369],[-93.00486,32.298877],[-93.007948,32.299549],[-93.010175,32.301195],[-93.012285,32.301943],[-93.016267,32.302231],[-93.019898,32.304938],[-93.021401,32.304488],[-93.025059,32.305],[-93.025474,32.303966],[-93.027592,32.303879],[-93.032461,32.30476],[-93.034675,32.306922],[-93.038553,32.308204],[-93.039272,32.308727],[-93.038533,32.31003],[-93.038565,32.311757],[-93.040002,32.314452],[-93.041997,32.315316],[-93.043803,32.317406],[-93.045215,32.318247],[-93.046387,32.321223],[-93.047695,32.323131],[-93.05151,32.3228],[-93.06159,32.32285],[-93.06329,32.32209],[-93.06609,32.31883],[-93.06662,32.31644],[-93.07095,32.31336],[-93.07248,32.31025],[-93.07559,32.30931],[-93.08191,32.30915],[-93.08245,32.30956],[-93.08283,32.31306],[-93.08486,32.31658],[-93.08622,32.31733],[-93.08729,32.31875],[-93.090918,32.319423],[-93.09813,32.32059],[-93.09996,32.32152],[-93.10134,32.32305],[-93.10352,32.3241],[-93.10594,32.3241],[-93.10934,32.325716],[-93.11104,32.32855],[-93.11477,32.33287],[-93.12153,32.3339],[-93.12305,32.33556],[-93.129201,32.338195],[-93.13387,32.342],[-93.13512,32.34345],[-93.13651,32.34231],[-93.13677,32.339885],[-93.137637,32.341458],[-93.139458,32.340029],[-93.140387,32.340893],[-93.141441,32.340057],[-93.139281,32.337242],[-93.141268,32.337516],[-93.142481,32.335483],[-93.144577,32.334607],[-93.144015,32.333855],[-93.144871,32.331006],[-93.146238,32.330088],[-93.146343,32.328801],[-93.149394,32.326608],[-93.149855,32.325321],[-93.149727,32.321686],[-93.151672,32.320888],[-93.15133,32.315896],[-93.154489,32.31572],[-93.155449,32.312283],[-93.156608,32.310766],[-93.158032,32.310504],[-93.15887,32.30738],[-93.16426,32.29787],[-93.16413,32.28207],[-93.16401,32.281397],[-93.17146,32.28157],[-93.17402,32.28213],[-93.177704,32.280664],[-93.18136,32.28085],[-93.18195,32.27702],[-93.18352,32.27504],[-93.18562,32.27749],[-93.18567,32.29066],[-93.18661,32.29471],[-93.188428,32.297082],[-93.189667,32.296119],[-93.191092,32.296509],[-93.194245,32.294408],[-93.196161,32.29151],[-93.200253,32.29058],[-93.199029,32.287638],[-93.199398,32.28601],[-93.200667,32.285543],[-93.199844,32.283629],[-93.202764,32.283029],[-93.203942,32.283805]]]}},{"type":"Feature","properties":{"zcta5":"71068","AFFGEOID10":"8600000US71068","GEOID10":"71068","ALAND10":372596394,"AWATER10":17691583,"county_name":"Bienville","state_code":"LA","county_state":"Bienville County, LA","county_fips":"22013","risk_level_county":"Higher Risk (60–69% vaccinated)","mean_vaccination_rate_county":63.4,"risk_level_zcta":"Higher Risk (60–69% vaccinated)","mean_vaccination_rate_zips":63.22,"cases":3},"geometry":{"type":"Polygon","coordinates":[[[-93.42819,32.235897],[-93.427936,32.235902],[-93.429244,32.232143],[-93.429056,32.228228],[-93.4285,32.225197],[-93.427097,32.223047],[-93.423157,32.221012],[-93.421359,32.21622],[-93.420564,32.214934],[-93.41711,32.213955],[-93.415279,32.212773],[-93.407091,32.209268],[-93.406962,32.20749],[-93.405333,32.205945],[-93.402464,32.207042],[-93.39143,32.19006],[-93.390246,32.186588],[-93.390228,32.183495],[-93.383661,32.183822],[-93.380477,32.184365],[-93.378841,32.182744],[-93.379145,32.181424],[-93.377918,32.179114],[-93.377727,32.175638],[-93.374168,32.172184],[-93.374115,32.169918],[-93.373015,32.169005],[-93.371985,32.165371],[-93.371938,32.163176],[-93.372848,32.160663],[-93.370797,32.159129],[-93.369253,32.159526],[-93.369862,32.162017],[-93.368072,32.163491],[-93.367252,32.165714],[-93.365785,32.167183],[-93.363523,32.168239],[-93.3609,32.172288],[-93.359956,32.17248],[-93.359957,32.174619],[-93.359041,32.178184],[-93.360516,32.179581],[-93.360156,32.183892],[-93.359148,32.184866],[-93.364424,32.18479],[-93.364365,32.185682],[-93.362436,32.187879],[-93.362468,32.189779],[-93.360593,32.190547],[-93.356783,32.188854],[-93.355239,32.193035],[-93.355337,32.194684],[-93.353081,32.197952],[-93.335928,32.197966],[-93.332597,32.192921],[-93.332643,32.192045],[-93.327248,32.192019],[-93.326527,32.19415],[-93.326694,32.197786],[-93.327405,32.199253],[-93.311145,32.199295],[-93.305655,32.200723],[-93.305608,32.208244],[-93.299786,32.206268],[-93.297729,32.204805],[-93.298822,32.2048],[-93.297038,32.202813],[-93.29905,32.199767],[-93.301068,32.197711],[-93.300926,32.196198],[-93.296328,32.193938],[-93.296683,32.193112],[-93.293612,32.190857],[-93.292888,32.187793],[-93.291601,32.186709],[-93.293121,32.185924],[-93.29298,32.177565],[-93.289035,32.177627],[-93.286567,32.178072],[-93.277919,32.182543],[-93.277744,32.184911],[-93.27221,32.184911],[-93.270148,32.185183],[-93.268099,32.186396],[-93.268014,32.184941],[-93.26584,32.183506],[-93.263013,32.182693],[-93.260484,32.183704],[-93.254909,32.184758],[-93.252206,32.184679],[-93.246749,32.185443],[-93.245185,32.186231],[-93.242272,32.186089],[-93.242413,32.187917],[-93.232159,32.190835],[-93.226851,32.193379],[-93.223301,32.196512],[-93.216778,32.195838],[-93.215297,32.196823],[-93.214314,32.195045],[-93.21258,32.194788],[-93.212004,32.193298],[-93.211215,32.193534],[-93.211448,32.193759],[-93.211649,32.193776],[-93.21181,32.193975],[-93.211759,32.194283],[-93.211306,32.194701],[-93.211254,32.19502],[-93.21315,32.196675],[-93.212905,32.199281],[-93.213378,32.204],[-93.215412,32.206432],[-93.215526,32.207481],[-93.213941,32.207582],[-93.213952,32.209486],[-93.212972,32.210238],[-93.211851,32.215658],[-93.212774,32.216399],[-93.210168,32.220079],[-93.209563,32.222331],[-93.211094,32.225266],[-93.211887,32.22934],[-93.210701,32.231042],[-93.212467,32.233329],[-93.213143,32.235757],[-93.213988,32.236065],[-93.212796,32.237698],[-93.213491,32.238796],[-93.211151,32.238983],[-93.211666,32.240432],[-93.210477,32.240942],[-93.210641,32.242079],[-93.209264,32.241949],[-93.208772,32.240385],[-93.207503,32.241014],[-93.209122,32.244174],[-93.207684,32.247387],[-93.207806,32.249309],[-93.209353,32.250013],[-93.207681,32.251322],[-93.208305,32.253864],[-93.21147,32.255178],[-93.211309,32.256141],[-93.212811,32.256888],[-93.212274,32.258417],[-93.214598,32.261431],[-93.215841,32.262415],[-93.217026,32.264933],[-93.215622,32.265962],[-93.216166,32.267711],[-93.21451,32.270978],[-93.214479,32.274003],[-93.213877,32.275977],[-93.214331,32.276945],[-93.208984,32.277903],[-93.209515,32.27908],[-93.208059,32.27947],[-93.207185,32.281659],[-93.205961,32.281126],[-93.205632,32.282545],[-93.203942,32.283805],[-93.205159,32.284943],[-93.203463,32.286659],[-93.204927,32.288974],[-93.207135,32.289452],[-93.210037,32.293692],[-93.209059,32.295347],[-93.209247,32.295996],[-93.211999,32.296892],[-93.212589,32.297684],[-93.214589,32.298013],[-93.216222,32.302044],[-93.217621,32.302973],[-93.216799,32.303897],[-93.217008,32.308814],[-93.215772,32.310646],[-93.216977,32.312603],[-93.216964,32.314693],[-93.219128,32.316441],[-93.218733,32.317602],[-93.221688,32.32084],[-93.225245,32.323611],[-93.226198,32.325733],[-93.229229,32.326876],[-93.230473,32.328064],[-93.234322,32.329729],[-93.236284,32.329107],[-93.238176,32.330052],[-93.239162,32.332449],[-93.240775,32.333152],[-93.240679,32.335061],[-93.242636,32.337051],[-93.24184,32.338052],[-93.242404,32.339218],[-93.244141,32.340636],[-93.244615,32.342082],[-93.247628,32.343136],[-93.248096,32.34522],[-93.249599,32.34577],[-93.250491,32.34748],[-93.251349,32.353502],[-93.249774,32.355053],[-93.249509,32.356428],[-93.251208,32.360553],[-93.250719,32.364347],[-93.251714,32.365459],[-93.2607,32.36669],[-93.26322,32.36644],[-93.285382,32.366405],[-93.283134,32.371029],[-93.284405,32.370419],[-93.290884,32.372301],[-93.29229,32.373665],[-93.292446,32.377724],[-93.29676,32.37711],[-93.29684,32.36642],[-93.31211,32.36653],[-93.312403,32.367615],[-93.315347,32.367089],[-93.317209,32.367387],[-93.321043,32.368808],[-93.324255,32.3689],[-93.328736,32.3711],[-93.332111,32.371925],[-93.335053,32.37559],[-93.339427,32.375555],[-93.338996,32.37738],[-93.34032,32.37903],[-93.339019,32.382202],[-93.342002,32.382085],[-93.342825,32.382552],[-93.343357,32.38578],[-93.344498,32.386654],[-93.348057,32.388143],[-93.347636,32.390074],[-93.345777,32.391262],[-93.34546,32.392615],[-93.34629,32.395504],[-93.344536,32.396301],[-93.345723,32.39836],[-93.34548,32.399961],[-93.344563,32.399756],[-93.346424,32.401952],[-93.346179,32.40314],[-93.344292,32.40346],[-93.345937,32.405517],[-93.346287,32.407097],[-93.348741,32.409454],[-93.351066,32.408098],[-93.352694,32.409146],[-93.352567,32.410014],[-93.364369,32.410095],[-93.372781,32.410153],[-93.375201,32.407909],[-93.379771,32.405434],[-93.382949,32.402806],[-93.386352,32.39838],[-93.388612,32.396441],[-93.393003,32.394304],[-93.396138,32.394339],[-93.398222,32.395006],[-93.406904,32.3991],[-93.412466,32.400865],[-93.416047,32.401399],[-93.418338,32.401178],[-93.421461,32.399583],[-93.42338,32.39774],[-93.425524,32.395025],[-93.427224,32.392101],[-93.428296,32.388364],[-93.428745,32.385209],[-93.427913,32.381386],[-93.424582,32.377261],[-93.422333,32.375183],[-93.420446,32.37397],[-93.417422,32.372809],[-93.406727,32.370416],[-93.402923,32.368727],[-93.40172,32.367741],[-93.40036,32.365634],[-93.3998,32.362788],[-93.399874,32.361021],[-93.400691,32.357005],[-93.403955,32.353039],[-93.407565,32.350065],[-93.41003,32.345805],[-93.410842,32.343928],[-93.411494,32.340825],[-93.412572,32.337616],[-93.414265,32.334281],[-93.416438,32.324834],[-93.417369,32.321844],[-93.418931,32.320112],[-93.420751,32.319139],[-93.419689,32.318126],[-93.421567,32.31723],[-93.422494,32.311374],[-93.426237,32.309845],[-93.426619,32.308938],[-93.425953,32.306892],[-93.424625,32.305517],[-93.425927,32.30456],[-93.426355,32.303262],[-93.42493,32.30164],[-93.4237,32.301607],[-93.422191,32.302805],[-93.421641,32.30148],[-93.42405,32.299869],[-93.424413,32.298676],[-93.421597,32.297946],[-93.420812,32.296507],[-93.419276,32.29633],[-93.418357,32.295006],[-93.419727,32.293812],[-93.420499,32.291227],[-93.418689,32.289633],[-93.419327,32.286773],[-93.41843,32.284147],[-93.41746,32.283579],[-93.415688,32.285253],[-93.413967,32.285511],[-93.412383,32.286911],[-93.409596,32.285315],[-93.407172,32.284401],[-93.407226,32.28219],[-93.405388,32.278231],[-93.405832,32.27689],[-93.407668,32.276337],[-93.408384,32.275176],[-93.408705,32.27262],[-93.410598,32.270198],[-93.408658,32.268367],[-93.405557,32.268084],[-93.405547,32.266665],[-93.407774,32.264927],[-93.407094,32.262157],[-93.407581,32.260164],[-93.406907,32.25723],[-93.407758,32.25593],[-93.410073,32.255384],[-93.410006,32.252091],[-93.408126,32.250517],[-93.409789,32.247846],[-93.412149,32.247075],[-93.416335,32.244149],[-93.418853,32.240132],[-93.420484,32.238363],[-93.421497,32.238323],[-93.423288,32.239603],[-93.426256,32.238564],[-93.42819,32.235897]]]}}]}