{"type":"FeatureCollection","features":[{"type":"Feature","properties":{"zcta5":"62077","AFFGEOID10":"8600000US62077","GEOID10":"62077","ALAND10":1350573,"AWATER10":2470,"county_name":"Bond","state_code":"IL","county_state":"Bond County, IL","county_fips":"17005","risk_level_county":"Medium Risk (70–79% vaccinated)","mean_vaccination_rate_county":74.57,"risk_level_zcta":"Lowest Risk (85%+)","mean_vaccination_rate_zips":88.23,"cases":14},"geometry":{"type":"Polygon","coordinates":[[[-89.529397,39.028139],[-89.526988,39.028211],[-89.527031,39.027179],[-89.529408,39.027485],[-89.529441,39.024245],[-89.527328,39.024419],[-89.526955,39.022297],[-89.524853,39.022296],[-89.524839,39.023258],[-89.522543,39.023702],[-89.5203,39.02546],[-89.521286,39.023885],[-89.515781,39.02488],[-89.509382,39.026652],[-89.506476,39.028043],[-89.519027,39.02812],[-89.519376,39.02812],[-89.518121,39.033104],[-89.51895,39.035313],[-89.521325,39.036061],[-89.521359,39.037308],[-89.52618,39.037252],[-89.525314,39.035375],[-89.525337,39.032064],[-89.528839,39.030818],[-89.529397,39.028139]]]}},{"type":"Feature","properties":{"zcta5":"62246","AFFGEOID10":"8600000US62246","GEOID10":"62246","ALAND10":369930654,"AWATER10":3361013,"county_name":"Bond","state_code":"IL","county_state":"Bond County, IL","county_fips":"17005","risk_level_county":"Medium Risk (70–79% vaccinated)","mean_vaccination_rate_county":74.57,"risk_level_zcta":"Medium Risk (70–79% vaccinated)","mean_vaccination_rate_zips":76.67,"cases":14},"geometry":{"type":"Polygon","coordinates":[[[-89.504479,38.974597],[-89.522636,38.978843],[-89.523254,38.968044],[-89.532325,38.968329],[-89.542419,38.967158],[-89.547617,38.963233],[-89.548934,38.962812],[-89.554751,38.964111],[-89.557352,38.960854],[-89.554982,38.959078],[-89.552069,38.956115],[-89.552362,38.955269],[-89.555087,38.954491],[-89.557606,38.953164],[-89.560916,38.950465],[-89.563143,38.949824],[-89.563318,38.948726],[-89.560682,38.946599],[-89.559071,38.94438],[-89.559129,38.942779],[-89.560477,38.943007],[-89.562029,38.945341],[-89.562967,38.945272],[-89.563611,38.941795],[-89.561092,38.93921],[-89.560652,38.93754],[-89.561795,38.936373],[-89.560857,38.934726],[-89.566568,38.932073],[-89.566568,38.93054],[-89.564752,38.929945],[-89.564137,38.928527],[-89.566919,38.926308],[-89.567944,38.923471],[-89.565718,38.920154],[-89.562455,38.918075],[-89.557461,38.915717],[-89.556436,38.913612],[-89.555148,38.913292],[-89.553888,38.915511],[-89.55301,38.913703],[-89.554065,38.910821],[-89.55629,38.908602],[-89.555529,38.907138],[-89.551956,38.905742],[-89.551108,38.902654],[-89.552337,38.901099],[-89.548297,38.901579],[-89.539604,38.899747],[-89.536881,38.899678],[-89.531818,38.897298],[-89.529359,38.897503],[-89.527749,38.895101],[-89.524735,38.893841],[-89.521661,38.893818],[-89.522482,38.891027],[-89.521862,38.887428],[-89.508333,38.887106],[-89.501934,38.893102],[-89.500083,38.893251],[-89.497996,38.894246],[-89.494736,38.894828],[-89.491398,38.894675],[-89.487747,38.895067],[-89.485957,38.894492],[-89.486053,38.879346],[-89.491118,38.879363],[-89.493788,38.875939],[-89.494786,38.875382],[-89.497139,38.872144],[-89.485666,38.871882],[-89.485298,38.849289],[-89.486901,38.849634],[-89.488127,38.848718],[-89.486974,38.846934],[-89.490351,38.845971],[-89.49204,38.846542],[-89.495054,38.846151],[-89.495771,38.84407],[-89.497694,38.842032],[-89.499957,38.841691],[-89.499491,38.839429],[-89.498071,38.837504],[-89.498201,38.835579],[-89.518484,38.828561],[-89.503492,38.828352],[-89.500556,38.82568],[-89.503425,38.824035],[-89.503807,38.822022],[-89.500678,38.821929],[-89.50065,38.820716],[-89.502523,38.818247],[-89.502906,38.815273],[-89.5013,38.812664],[-89.49951,38.812843],[-89.498372,38.815314],[-89.496063,38.81575],[-89.494745,38.813395],[-89.495124,38.812411],[-89.498368,38.810487],[-89.499705,38.807604],[-89.498976,38.806439],[-89.496253,38.80745],[-89.495676,38.806416],[-89.498047,38.806461],[-89.499004,38.805801],[-89.501291,38.806478],[-89.507606,38.806353],[-89.507441,38.799806],[-89.484088,38.799538],[-89.483732,38.785576],[-89.483504,38.784319],[-89.48057,38.784363],[-89.483662,38.782559],[-89.483499,38.777036],[-89.460921,38.777214],[-89.460953,38.78455],[-89.428066,38.784754],[-89.428081,38.792023],[-89.412777,38.792197],[-89.409925,38.792886],[-89.410247,38.789723],[-89.408462,38.788964],[-89.407819,38.786374],[-89.409865,38.783141],[-89.409456,38.780871],[-89.408433,38.78016],[-89.408521,38.777593],[-89.407557,38.776011],[-89.408521,38.773878],[-89.406563,38.771402],[-89.404721,38.771536],[-89.402537,38.767768],[-89.403474,38.767116],[-89.40333,38.764837],[-89.405318,38.764082],[-89.406488,38.761108],[-89.4083,38.760285],[-89.408388,38.758615],[-89.411281,38.757929],[-89.413326,38.756626],[-89.414787,38.756535],[-89.417208,38.753257],[-89.415193,38.751719],[-89.414225,38.748285],[-89.41433,38.746892],[-89.412544,38.746508],[-89.410454,38.747473],[-89.409246,38.744825],[-89.406354,38.743475],[-89.40472,38.742102],[-89.404996,38.741015],[-89.372068,38.741176],[-89.372045,38.748386],[-89.371785,38.7513],[-89.371655,38.766629],[-89.348142,38.766925],[-89.348278,38.785167],[-89.358124,38.785049],[-89.358159,38.786509],[-89.368945,38.786568],[-89.368941,38.784947],[-89.371571,38.784914],[-89.371393,38.803207],[-89.348514,38.80346],[-89.348311,38.789644],[-89.3339,38.789586],[-89.333917,38.78532],[-89.328974,38.785383],[-89.328946,38.78955],[-89.321611,38.789515],[-89.324954,38.795421],[-89.324946,38.79311],[-89.329182,38.793119],[-89.329129,38.802799],[-89.339284,38.820804],[-89.339299,38.821735],[-89.339833,38.821732],[-89.343971,38.829021],[-89.320676,38.829276],[-89.320953,38.845386],[-89.330839,38.869162],[-89.331059,38.879134],[-89.331231,38.879781],[-89.332252,38.880194],[-89.339445,38.880197],[-89.340306,38.880831],[-89.340684,38.887576],[-89.349897,38.887446],[-89.349981,38.894081],[-89.349988,38.894804],[-89.345342,38.896449],[-89.343651,38.89709],[-89.346967,38.902399],[-89.348624,38.902387],[-89.348558,38.899616],[-89.350976,38.899589],[-89.351015,38.902375],[-89.358864,38.902328],[-89.358865,38.900117],[-89.36115,38.900035],[-89.361643,38.902224],[-89.37239,38.902201],[-89.372976,38.924164],[-89.354776,38.924386],[-89.35329,38.924294],[-89.353569,38.938901],[-89.354613,38.941616],[-89.353714,38.945204],[-89.353756,38.947034],[-89.355436,38.94659],[-89.356433,38.94787],[-89.358318,38.947602],[-89.357297,38.94873],[-89.350988,38.951286],[-89.3492,38.953485],[-89.345726,38.953492],[-89.345475,38.949672],[-89.341241,38.946371],[-89.339593,38.946236],[-89.326983,38.946302],[-89.327114,38.960764],[-89.336377,38.960748],[-89.339327,38.959584],[-89.346502,38.958778],[-89.345715,38.960697],[-89.348194,38.961305],[-89.348206,38.964099],[-89.350637,38.96487],[-89.350828,38.975241],[-89.353294,38.975219],[-89.352936,38.97751],[-89.353301,38.979873],[-89.352542,38.982459],[-89.360319,38.982387],[-89.360139,38.975163],[-89.373779,38.97502],[-89.374051,38.989483],[-89.369015,38.989542],[-89.369074,38.992966],[-89.332317,38.993424],[-89.332291,38.996755],[-89.333544,38.999077],[-89.333585,39.002265],[-89.334166,39.002731],[-89.334247,39.009777],[-89.342949,39.009672],[-89.343387,39.027853],[-89.38972,39.027826],[-89.389696,39.022631],[-89.393885,39.018539],[-89.39327,39.01735],[-89.394327,39.015428],[-89.394357,39.013324],[-89.393273,39.012614],[-89.395151,39.010167],[-89.394887,39.009503],[-89.398789,39.006714],[-89.398584,39.00557],[-89.401663,39.005273],[-89.405093,38.999393],[-89.405043,38.997634],[-89.406392,38.997337],[-89.407331,38.995621],[-89.40607,38.994958],[-89.406598,38.993814],[-89.411172,38.992213],[-89.412228,38.990154],[-89.410535,38.988152],[-89.411643,38.986023],[-89.413543,38.984508],[-89.413194,38.982633],[-89.411822,38.981619],[-89.418566,38.981346],[-89.432745,38.981532],[-89.432733,38.982664],[-89.442323,38.99846],[-89.451775,38.998477],[-89.452145,38.984485],[-89.457038,38.984398],[-89.457052,38.981646],[-89.470787,38.981553],[-89.470803,38.967137],[-89.485901,38.970517],[-89.485892,38.95959],[-89.495037,38.959873],[-89.495289,38.966964],[-89.504318,38.967392],[-89.504479,38.974597]]]}},{"type":"Feature","properties":{"zcta5":"62273","AFFGEOID10":"8600000US62273","GEOID10":"62273","ALAND10":3481638,"AWATER10":0,"county_name":"Bond","state_code":"IL","county_state":"Bond County, IL","county_fips":"17005","risk_level_county":"Medium Risk (70–79% vaccinated)","mean_vaccination_rate_county":74.57,"risk_level_zcta":"Higher Risk (60–69% vaccinated)","mean_vaccination_rate_zips":67.97,"cases":14},"geometry":{"type":"Polygon","coordinates":[[[-89.598156,38.781292],[-89.597986,38.773499],[-89.592062,38.773555],[-89.595307,38.773777],[-89.595319,38.775487],[-89.589794,38.775446],[-89.589826,38.77744],[-89.58716,38.777372],[-89.587234,38.779355],[-89.576615,38.77925],[-89.576897,38.786223],[-89.572654,38.786347],[-89.573098,38.803434],[-89.576521,38.801201],[-89.598156,38.781292]]]}},{"type":"Feature","properties":{"zcta5":"62284","AFFGEOID10":"8600000US62284","GEOID10":"62284","ALAND10":72387077,"AWATER10":203854,"county_name":"Bond","state_code":"IL","county_state":"Bond County, IL","county_fips":"17005","risk_level_county":"Medium Risk (70–79% vaccinated)","mean_vaccination_rate_county":74.57,"risk_level_zcta":"Medium Risk (70–79% vaccinated)","mean_vaccination_rate_zips":76.45,"cases":14},"geometry":{"type":"Polygon","coordinates":[[[-89.326983,38.946302],[-89.339593,38.946236],[-89.341241,38.946371],[-89.345475,38.949672],[-89.345726,38.953492],[-89.3492,38.953485],[-89.350988,38.951286],[-89.357297,38.94873],[-89.358318,38.947602],[-89.356433,38.94787],[-89.355436,38.94659],[-89.353756,38.947034],[-89.353714,38.945204],[-89.354613,38.941616],[-89.353569,38.938901],[-89.35329,38.924294],[-89.354776,38.924386],[-89.372976,38.924164],[-89.37239,38.902201],[-89.361643,38.902224],[-89.36115,38.900035],[-89.358865,38.900117],[-89.358864,38.902328],[-89.351015,38.902375],[-89.350976,38.899589],[-89.348558,38.899616],[-89.348624,38.902387],[-89.346967,38.902399],[-89.343651,38.89709],[-89.345342,38.896449],[-89.349988,38.894804],[-89.349981,38.894081],[-89.349897,38.887446],[-89.340684,38.887576],[-89.340306,38.880831],[-89.339445,38.880197],[-89.332252,38.880194],[-89.331231,38.879781],[-89.331059,38.879134],[-89.330839,38.869162],[-89.320953,38.845386],[-89.320676,38.829276],[-89.343971,38.829021],[-89.339833,38.821732],[-89.339299,38.821735],[-89.331704,38.821764],[-89.331655,38.823719],[-89.329039,38.823243],[-89.329048,38.821792],[-89.311318,38.821924],[-89.311148,38.807399],[-89.275841,38.807659],[-89.275311,38.807718],[-89.273615,38.808323],[-89.273909,38.829544],[-89.255311,38.829734],[-89.255691,38.851538],[-89.274319,38.851552],[-89.274758,38.870511],[-89.275314,38.871939],[-89.275285,38.874737],[-89.279535,38.873303],[-89.284188,38.874516],[-89.290017,38.874662],[-89.293467,38.877856],[-89.29362,38.887919],[-89.303144,38.887802],[-89.303247,38.895164],[-89.293831,38.895286],[-89.293976,38.904551],[-89.294532,38.908744],[-89.300226,38.908808],[-89.303645,38.911502],[-89.294357,38.914985],[-89.29433,38.917343],[-89.304961,38.917406],[-89.303243,38.917802],[-89.298553,38.919978],[-89.298686,38.931893],[-89.326652,38.931836],[-89.326983,38.946302]]]}},{"type":"Feature","properties":{"zcta5":"62074","AFFGEOID10":"8600000US62074","GEOID10":"62074","ALAND10":107379322,"AWATER10":547608,"county_name":"Bond","state_code":"IL","county_state":"Bond County, IL","county_fips":"17005","risk_level_county":"Medium Risk (70–79% vaccinated)","mean_vaccination_rate_county":74.57,"risk_level_zcta":"Medium Risk (70–79% vaccinated)","mean_vaccination_rate_zips":78.41,"cases":14},"geometry":{"type":"Polygon","coordinates":[[[-89.769927,38.955351],[-89.78597,38.943218],[-89.784948,38.943244],[-89.789463,38.939743],[-89.778036,38.939665],[-89.738946,38.939321],[-89.736856,38.938717],[-89.734544,38.940294],[-89.732714,38.940836],[-89.727985,38.943223],[-89.726515,38.943366],[-89.726546,38.95377],[-89.707837,38.953902],[-89.703905,38.954171],[-89.70362,38.947128],[-89.705696,38.947151],[-89.705759,38.932547],[-89.703186,38.932356],[-89.702927,38.925853],[-89.703672,38.924877],[-89.679172,38.924561],[-89.674598,38.92454],[-89.674039,38.91655],[-89.674441,38.90205],[-89.67424,38.888457],[-89.669585,38.888492],[-89.640961,38.888922],[-89.63717,38.888814],[-89.637615,38.90375],[-89.623342,38.903956],[-89.623398,38.911305],[-89.618297,38.911352],[-89.618328,38.91864],[-89.607265,38.918811],[-89.607352,38.922245],[-89.602764,38.922586],[-89.602513,38.924322],[-89.604833,38.925812],[-89.604841,38.928057],[-89.607202,38.928057],[-89.608331,38.929592],[-89.61422,38.934164],[-89.617679,38.937548],[-89.619233,38.938272],[-89.619248,38.940637],[-89.621474,38.940675],[-89.622853,38.944175],[-89.627155,38.948268],[-89.632203,38.951787],[-89.624664,38.953066],[-89.624429,38.955508],[-89.624558,38.962781],[-89.630244,38.963199],[-89.638709,38.963144],[-89.639265,38.999129],[-89.651169,38.999289],[-89.652405,38.999581],[-89.653446,38.999191],[-89.665676,38.99905],[-89.665715,39.00285],[-89.675084,39.002805],[-89.67511,39.006021],[-89.68451,39.005996],[-89.684603,39.013847],[-89.68442,39.016833],[-89.680135,39.020163],[-89.679961,39.021352],[-89.698736,39.020985],[-89.698801,39.028275],[-89.703196,39.028224],[-89.704523,39.027751],[-89.706127,39.025489],[-89.704768,39.023409],[-89.704268,39.021142],[-89.726774,39.020847],[-89.731422,39.020875],[-89.731241,38.99893],[-89.731656,38.99726],[-89.731382,38.990086],[-89.745532,38.98116],[-89.744538,38.97982],[-89.745494,38.979405],[-89.745318,38.971778],[-89.745963,38.968423],[-89.751336,38.967225],[-89.752511,38.965754],[-89.754801,38.965666],[-89.755933,38.965312],[-89.763554,38.959724],[-89.765349,38.95837],[-89.769927,38.955351]]]}},{"type":"Feature","properties":{"zcta5":"62086","AFFGEOID10":"8600000US62086","GEOID10":"62086","ALAND10":137401142,"AWATER10":57674,"county_name":"Bond","state_code":"IL","county_state":"Bond County, IL","county_fips":"17005","risk_level_county":"Medium Risk (70–79% vaccinated)","mean_vaccination_rate_county":74.57,"risk_level_zcta":"Medium Risk (70–79% vaccinated)","mean_vaccination_rate_zips":73.84,"cases":14},"geometry":{"type":"Polygon","coordinates":[[[-89.684603,39.013847],[-89.68451,39.005996],[-89.67511,39.006021],[-89.675084,39.002805],[-89.665715,39.00285],[-89.665676,38.99905],[-89.653446,38.999191],[-89.652405,38.999581],[-89.651169,38.999289],[-89.639265,38.999129],[-89.638709,38.963144],[-89.630244,38.963199],[-89.624558,38.962781],[-89.624429,38.955508],[-89.624664,38.953066],[-89.632203,38.951787],[-89.627155,38.948268],[-89.622853,38.944175],[-89.621474,38.940675],[-89.619248,38.940637],[-89.619233,38.938272],[-89.617679,38.937548],[-89.61422,38.934164],[-89.608331,38.929592],[-89.607202,38.928057],[-89.604841,38.928057],[-89.604833,38.925812],[-89.602513,38.924322],[-89.602764,38.922586],[-89.607352,38.922245],[-89.607265,38.918811],[-89.618328,38.91864],[-89.618297,38.911352],[-89.623398,38.911305],[-89.623342,38.903956],[-89.623258,38.893766],[-89.620475,38.893814],[-89.617796,38.893289],[-89.6178,38.888979],[-89.59976,38.889091],[-89.599748,38.896464],[-89.570227,38.896028],[-89.570716,38.910427],[-89.57289,38.913041],[-89.572248,38.915332],[-89.570468,38.918263],[-89.562455,38.918075],[-89.565718,38.920154],[-89.567944,38.923471],[-89.566919,38.926308],[-89.564137,38.928527],[-89.564752,38.929945],[-89.566568,38.93054],[-89.566568,38.932073],[-89.560857,38.934726],[-89.561795,38.936373],[-89.560652,38.93754],[-89.561092,38.93921],[-89.563611,38.941795],[-89.562967,38.945272],[-89.562029,38.945341],[-89.560477,38.943007],[-89.559129,38.942779],[-89.559071,38.94438],[-89.560682,38.946599],[-89.563318,38.948726],[-89.563143,38.949824],[-89.560916,38.950465],[-89.557606,38.953164],[-89.555087,38.954491],[-89.552362,38.955269],[-89.552069,38.956115],[-89.554982,38.959078],[-89.557352,38.960854],[-89.554751,38.964111],[-89.548934,38.962812],[-89.547617,38.963233],[-89.542419,38.967158],[-89.532325,38.968329],[-89.523254,38.968044],[-89.522636,38.978843],[-89.504479,38.974597],[-89.504192,38.987185],[-89.504959,38.988273],[-89.507713,38.989088],[-89.507241,38.990888],[-89.503641,38.992384],[-89.502731,38.994248],[-89.485774,38.994046],[-89.485745,38.998652],[-89.502473,38.998893],[-89.502218,39.005085],[-89.501639,39.006758],[-89.499787,39.007396],[-89.496315,39.006047],[-89.494189,39.006878],[-89.491819,39.00598],[-89.473698,39.005794],[-89.473429,39.023918],[-89.476033,39.023968],[-89.475919,39.02778],[-89.506476,39.028043],[-89.509382,39.026652],[-89.515781,39.02488],[-89.521286,39.023885],[-89.5203,39.02546],[-89.522543,39.023702],[-89.524839,39.023258],[-89.524853,39.022296],[-89.526955,39.022297],[-89.527328,39.024419],[-89.529441,39.024245],[-89.529408,39.027485],[-89.527031,39.027179],[-89.526988,39.028211],[-89.529397,39.028139],[-89.548489,39.028358],[-89.548505,39.035344],[-89.556543,39.035478],[-89.556502,39.031911],[-89.558921,39.031937],[-89.558952,39.030174],[-89.561536,39.030158],[-89.561557,39.028309],[-89.586093,39.028331],[-89.586086,39.032042],[-89.599931,39.032003],[-89.599962,39.035487],[-89.604553,39.035473],[-89.604792,39.03698],[-89.61147,39.037135],[-89.611824,39.039837],[-89.614382,39.047236],[-89.617342,39.047302],[-89.621645,39.045098],[-89.623888,39.045467],[-89.624425,39.043716],[-89.642869,39.034507],[-89.642795,39.02873],[-89.647579,39.028469],[-89.647133,39.014738],[-89.646473,39.013761],[-89.665877,39.013835],[-89.665988,39.021369],[-89.669776,39.021374],[-89.684603,39.013847]]]}},{"type":"Feature","properties":{"zcta5":"62275","AFFGEOID10":"8600000US62275","GEOID10":"62275","ALAND10":263589757,"AWATER10":452879,"county_name":"Bond","state_code":"IL","county_state":"Bond County, IL","county_fips":"17005","risk_level_county":"Medium Risk (70–79% vaccinated)","mean_vaccination_rate_county":74.57,"risk_level_zcta":"Medium Risk (70–79% vaccinated)","mean_vaccination_rate_zips":70.76,"cases":14},"geometry":{"type":"Polygon","coordinates":[[[-89.669585,38.888492],[-89.669427,38.873853],[-89.669266,38.8592],[-89.650734,38.859382],[-89.650568,38.838776],[-89.651932,38.833201],[-89.652913,38.831964],[-89.652392,38.830371],[-89.627306,38.830257],[-89.626803,38.801339],[-89.631513,38.801289],[-89.63099,38.783946],[-89.632066,38.780668],[-89.629769,38.779799],[-89.626226,38.779435],[-89.62597,38.773188],[-89.623912,38.771956],[-89.623797,38.769961],[-89.62588,38.766994],[-89.627697,38.765645],[-89.624994,38.765963],[-89.624942,38.767482],[-89.62234,38.767931],[-89.620176,38.769192],[-89.619668,38.77196],[-89.618882,38.773272],[-89.619233,38.774961],[-89.615525,38.779486],[-89.600418,38.779624],[-89.600381,38.77525],[-89.604683,38.775372],[-89.609956,38.771715],[-89.597937,38.771413],[-89.597321,38.743236],[-89.556508,38.742062],[-89.556289,38.735027],[-89.528425,38.734239],[-89.528308,38.727002],[-89.51878,38.726698],[-89.518474,38.7194],[-89.504499,38.719012],[-89.504253,38.711103],[-89.481195,38.711237],[-89.480771,38.696494],[-89.477048,38.696694],[-89.465139,38.696563],[-89.465121,38.729154],[-89.465891,38.730022],[-89.465902,38.733208],[-89.46525,38.734415],[-89.465334,38.740683],[-89.404996,38.741015],[-89.40472,38.742102],[-89.406354,38.743475],[-89.409246,38.744825],[-89.410454,38.747473],[-89.412544,38.746508],[-89.41433,38.746892],[-89.414225,38.748285],[-89.415193,38.751719],[-89.417208,38.753257],[-89.414787,38.756535],[-89.413326,38.756626],[-89.411281,38.757929],[-89.408388,38.758615],[-89.4083,38.760285],[-89.406488,38.761108],[-89.405318,38.764082],[-89.40333,38.764837],[-89.403474,38.767116],[-89.402537,38.767768],[-89.404721,38.771536],[-89.406563,38.771402],[-89.408521,38.773878],[-89.407557,38.776011],[-89.408521,38.777593],[-89.408433,38.78016],[-89.409456,38.780871],[-89.409865,38.783141],[-89.407819,38.786374],[-89.408462,38.788964],[-89.410247,38.789723],[-89.409925,38.792886],[-89.412777,38.792197],[-89.428081,38.792023],[-89.428066,38.784754],[-89.460953,38.78455],[-89.460921,38.777214],[-89.483499,38.777036],[-89.483662,38.782559],[-89.48057,38.784363],[-89.483504,38.784319],[-89.483732,38.785576],[-89.484088,38.799538],[-89.507441,38.799806],[-89.507606,38.806353],[-89.501291,38.806478],[-89.499004,38.805801],[-89.498047,38.806461],[-89.495676,38.806416],[-89.496253,38.80745],[-89.498976,38.806439],[-89.499705,38.807604],[-89.498368,38.810487],[-89.495124,38.812411],[-89.494745,38.813395],[-89.496063,38.81575],[-89.498372,38.815314],[-89.49951,38.812843],[-89.5013,38.812664],[-89.502906,38.815273],[-89.502523,38.818247],[-89.50065,38.820716],[-89.500678,38.821929],[-89.503807,38.822022],[-89.503425,38.824035],[-89.500556,38.82568],[-89.503492,38.828352],[-89.518484,38.828561],[-89.498201,38.835579],[-89.498071,38.837504],[-89.499491,38.839429],[-89.499957,38.841691],[-89.497694,38.842032],[-89.495771,38.84407],[-89.495054,38.846151],[-89.49204,38.846542],[-89.490351,38.845971],[-89.486974,38.846934],[-89.488127,38.848718],[-89.486901,38.849634],[-89.485298,38.849289],[-89.485666,38.871882],[-89.497139,38.872144],[-89.494786,38.875382],[-89.493788,38.875939],[-89.491118,38.879363],[-89.486053,38.879346],[-89.485957,38.894492],[-89.487747,38.895067],[-89.491398,38.894675],[-89.494736,38.894828],[-89.497996,38.894246],[-89.500083,38.893251],[-89.501934,38.893102],[-89.508333,38.887106],[-89.521862,38.887428],[-89.522482,38.891027],[-89.521661,38.893818],[-89.524735,38.893841],[-89.527749,38.895101],[-89.529359,38.897503],[-89.531818,38.897298],[-89.536881,38.899678],[-89.539604,38.899747],[-89.548297,38.901579],[-89.552337,38.901099],[-89.551108,38.902654],[-89.551956,38.905742],[-89.555529,38.907138],[-89.55629,38.908602],[-89.554065,38.910821],[-89.55301,38.913703],[-89.553888,38.915511],[-89.555148,38.913292],[-89.556436,38.913612],[-89.557461,38.915717],[-89.562455,38.918075],[-89.570468,38.918263],[-89.572248,38.915332],[-89.57289,38.913041],[-89.570716,38.910427],[-89.570227,38.896028],[-89.599748,38.896464],[-89.59976,38.889091],[-89.6178,38.888979],[-89.617796,38.893289],[-89.620475,38.893814],[-89.623258,38.893766],[-89.623342,38.903956],[-89.637615,38.90375],[-89.63717,38.888814],[-89.640961,38.888922],[-89.669585,38.888492]],[[-89.598156,38.781292],[-89.576521,38.801201],[-89.573098,38.803434],[-89.572654,38.786347],[-89.576897,38.786223],[-89.576615,38.77925],[-89.587234,38.779355],[-89.58716,38.777372],[-89.589826,38.77744],[-89.589794,38.775446],[-89.595319,38.775487],[-89.595307,38.773777],[-89.592062,38.773555],[-89.597986,38.773499],[-89.598156,38.781292]]]}},{"type":"Feature","properties":{"zcta5":"62253","AFFGEOID10":"8600000US62253","GEOID10":"62253","ALAND10":87218471,"AWATER10":7352445,"county_name":"Bond","state_code":"IL","county_state":"Bond County, IL","county_fips":"17005","risk_level_county":"Medium Risk (70–79% vaccinated)","mean_vaccination_rate_county":74.57,"risk_level_zcta":"Lower Risk (80–84% vaccinated)","mean_vaccination_rate_zips":82.62,"cases":14},"geometry":{"type":"Polygon","coordinates":[[[-89.339299,38.821735],[-89.339284,38.820804],[-89.329129,38.802799],[-89.329182,38.793119],[-89.324946,38.79311],[-89.324954,38.795421],[-89.321611,38.789515],[-89.328946,38.78955],[-89.328974,38.785383],[-89.333917,38.78532],[-89.3339,38.789586],[-89.348311,38.789644],[-89.348514,38.80346],[-89.371393,38.803207],[-89.371571,38.784914],[-89.368941,38.784947],[-89.368945,38.786568],[-89.358159,38.786509],[-89.358124,38.785049],[-89.348278,38.785167],[-89.348142,38.766925],[-89.371655,38.766629],[-89.371785,38.7513],[-89.372045,38.748386],[-89.372068,38.741176],[-89.371344,38.729384],[-89.329078,38.72998],[-89.329277,38.741535],[-89.291633,38.741892],[-89.291528,38.740533],[-89.286921,38.734716],[-89.278222,38.734771],[-89.276199,38.735451],[-89.276214,38.734716],[-89.273551,38.734667],[-89.272948,38.73462],[-89.273017,38.740737],[-89.272232,38.741998],[-89.254185,38.742018],[-89.250071,38.742015],[-89.250343,38.74821],[-89.249537,38.750047],[-89.240936,38.750047],[-89.240709,38.751414],[-89.238031,38.754293],[-89.239285,38.754861],[-89.242993,38.75422],[-89.243639,38.755805],[-89.239181,38.757754],[-89.239762,38.758905],[-89.245091,38.758581],[-89.245406,38.75966],[-89.244062,38.761091],[-89.241442,38.760221],[-89.238636,38.76073],[-89.238097,38.761514],[-89.238787,38.763679],[-89.237723,38.76565],[-89.238372,38.769202],[-89.241743,38.770399],[-89.24282,38.768864],[-89.242502,38.767358],[-89.243942,38.766386],[-89.24447,38.772026],[-89.243724,38.774084],[-89.244887,38.776377],[-89.244024,38.777605],[-89.242569,38.777859],[-89.241244,38.774165],[-89.239675,38.774122],[-89.239435,38.775218],[-89.241245,38.77643],[-89.239717,38.778014],[-89.23495,38.777089],[-89.232547,38.778142],[-89.23358,38.779125],[-89.237172,38.780468],[-89.237185,38.782579],[-89.236049,38.783908],[-89.232255,38.786167],[-89.230425,38.784943],[-89.226952,38.78855],[-89.224289,38.789793],[-89.225091,38.791194],[-89.222387,38.790906],[-89.223509,38.79289],[-89.221273,38.794419],[-89.218412,38.798877],[-89.218053,38.800899],[-89.220638,38.80359],[-89.2221,38.804047],[-89.220288,38.805443],[-89.220171,38.806427],[-89.222159,38.806037],[-89.224265,38.807158],[-89.225026,38.808507],[-89.226605,38.80766],[-89.2276,38.810154],[-89.227016,38.810909],[-89.22658,38.814707],[-89.224796,38.815783],[-89.225091,38.81965],[-89.223658,38.820268],[-89.223864,38.821892],[-89.226,38.823676],[-89.231076,38.82543],[-89.231099,38.823711],[-89.232962,38.824793],[-89.239973,38.825383],[-89.240349,38.824499],[-89.240329,38.814397],[-89.255017,38.814999],[-89.255311,38.829734],[-89.273909,38.829544],[-89.273615,38.808323],[-89.275311,38.807718],[-89.275841,38.807659],[-89.311148,38.807399],[-89.311318,38.821924],[-89.329048,38.821792],[-89.329039,38.823243],[-89.331655,38.823719],[-89.331704,38.821764],[-89.339299,38.821735]]]}},{"type":"Feature","properties":{"zcta5":"62017","AFFGEOID10":"8600000US62017","GEOID10":"62017","ALAND10":82062243,"AWATER10":2795371,"county_name":"Bond","state_code":"IL","county_state":"Bond County, IL","county_fips":"17005","risk_level_county":"Medium Risk (70–79% vaccinated)","mean_vaccination_rate_county":74.57,"risk_level_zcta":"Higher Risk (60–69% vaccinated)","mean_vaccination_rate_zips":68.88,"cases":14},"geometry":{"type":"Polygon","coordinates":[[[-89.363019,39.111501],[-89.381528,39.111294],[-89.381573,39.114961],[-89.40024,39.115012],[-89.400131,39.095059],[-89.405561,39.097854],[-89.405316,39.095707],[-89.418245,39.102604],[-89.435842,39.085887],[-89.437167,39.085898],[-89.437114,39.084684],[-89.440874,39.078786],[-89.455307,39.079132],[-89.464508,39.079072],[-89.464282,39.072554],[-89.465556,39.069391],[-89.465828,39.064815],[-89.466648,39.064001],[-89.466696,39.057274],[-89.462529,39.057168],[-89.445985,39.071708],[-89.436481,39.071389],[-89.436462,39.067747],[-89.413852,39.067459],[-89.412536,39.062617],[-89.399438,39.042501],[-89.399402,39.039118],[-89.39884,39.036244],[-89.39882,39.02785],[-89.38972,39.027826],[-89.343387,39.027853],[-89.299019,39.028218],[-89.298895,39.042715],[-89.306337,39.042718],[-89.30639,39.052745],[-89.311042,39.056202],[-89.312916,39.057262],[-89.306393,39.057465],[-89.30655,39.078971],[-89.311201,39.078993],[-89.31116,39.082451],[-89.318047,39.082473],[-89.318131,39.071802],[-89.32517,39.071807],[-89.325219,39.078613],[-89.329858,39.078903],[-89.330011,39.093364],[-89.320831,39.093437],[-89.320849,39.10081],[-89.344261,39.100513],[-89.34653,39.100342],[-89.325776,39.10503],[-89.325836,39.10803],[-89.33499,39.107888],[-89.335002,39.111671],[-89.353893,39.111537],[-89.35396,39.116672],[-89.362756,39.105548],[-89.363019,39.111501]]]}},{"type":"Feature","properties":{"zcta5":"62249","AFFGEOID10":"8600000US62249","GEOID10":"62249","ALAND10":220831957,"AWATER10":4224794,"county_name":"Bond","state_code":"IL","county_state":"Bond County, IL","county_fips":"17005","risk_level_county":"Medium Risk (70–79% vaccinated)","mean_vaccination_rate_county":74.57,"risk_level_zcta":"Lower Risk (80–84% vaccinated)","mean_vaccination_rate_zips":80.04,"cases":14},"geometry":{"type":"Polygon","coordinates":[[[-89.77817,38.742591],[-89.77618,38.740703],[-89.773352,38.734423],[-89.771967,38.73262],[-89.768889,38.731798],[-89.768403,38.720355],[-89.762216,38.721333],[-89.750349,38.72385],[-89.739433,38.726368],[-89.721575,38.731735],[-89.717396,38.731447],[-89.716806,38.687798],[-89.70787,38.687819],[-89.707482,38.678524],[-89.702517,38.67881],[-89.702282,38.67683],[-89.66041,38.67717],[-89.660283,38.673536],[-89.656154,38.673564],[-89.650764,38.6762],[-89.644011,38.676327],[-89.641792,38.673414],[-89.640295,38.673339],[-89.637055,38.671276],[-89.635136,38.670744],[-89.632303,38.671203],[-89.631057,38.669635],[-89.633201,38.668737],[-89.629822,38.66778],[-89.630332,38.66652],[-89.627554,38.665334],[-89.629414,38.664],[-89.626947,38.660857],[-89.627576,38.65998],[-89.624636,38.658717],[-89.624605,38.659693],[-89.622997,38.661179],[-89.623032,38.662687],[-89.62047,38.662698],[-89.620298,38.66467],[-89.621074,38.664943],[-89.620825,38.667142],[-89.618188,38.668401],[-89.615747,38.670969],[-89.614034,38.670974],[-89.613713,38.672344],[-89.612206,38.674001],[-89.607807,38.676539],[-89.607296,38.678278],[-89.603323,38.682038],[-89.602064,38.68394],[-89.601998,38.68652],[-89.600625,38.688655],[-89.597569,38.689873],[-89.596025,38.691277],[-89.59394,38.694052],[-89.593907,38.696179],[-89.592407,38.699034],[-89.589554,38.702492],[-89.587255,38.702518],[-89.588118,38.705745],[-89.58716,38.707475],[-89.583801,38.707731],[-89.581423,38.708625],[-89.57869,38.710393],[-89.576012,38.71038],[-89.575154,38.711017],[-89.571859,38.710912],[-89.569329,38.712218],[-89.569347,38.713114],[-89.536971,38.713115],[-89.537404,38.727222],[-89.528308,38.727002],[-89.528425,38.734239],[-89.556289,38.735027],[-89.556508,38.742062],[-89.597321,38.743236],[-89.597937,38.771413],[-89.609956,38.771715],[-89.604683,38.775372],[-89.600381,38.77525],[-89.600418,38.779624],[-89.615525,38.779486],[-89.619233,38.774961],[-89.618882,38.773272],[-89.619668,38.77196],[-89.620176,38.769192],[-89.62234,38.767931],[-89.624942,38.767482],[-89.624994,38.765963],[-89.627697,38.765645],[-89.62588,38.766994],[-89.623797,38.769961],[-89.623912,38.771956],[-89.62597,38.773188],[-89.626226,38.779435],[-89.629769,38.779799],[-89.632066,38.780668],[-89.63099,38.783946],[-89.631513,38.801289],[-89.626803,38.801339],[-89.627306,38.830257],[-89.652392,38.830371],[-89.652913,38.831964],[-89.651932,38.833201],[-89.650568,38.838776],[-89.650734,38.859382],[-89.669266,38.8592],[-89.669427,38.873853],[-89.692545,38.873601],[-89.692429,38.858995],[-89.707995,38.858876],[-89.707951,38.82224],[-89.719123,38.819619],[-89.719121,38.818905],[-89.721268,38.818896],[-89.72126,38.815587],[-89.71725,38.815576],[-89.717212,38.804174],[-89.731057,38.804262],[-89.731348,38.800565],[-89.740563,38.800574],[-89.740678,38.789836],[-89.721427,38.789641],[-89.707806,38.789563],[-89.70781,38.786025],[-89.712292,38.78546],[-89.729757,38.784206],[-89.732202,38.783821],[-89.734746,38.782985],[-89.736296,38.782208],[-89.738516,38.780559],[-89.746201,38.772965],[-89.749442,38.770479],[-89.751149,38.769458],[-89.751572,38.769233],[-89.752253,38.768889],[-89.752942,38.768561],[-89.753436,38.768339],[-89.754229,38.768002],[-89.754721,38.767805],[-89.754985,38.767706],[-89.755081,38.767784],[-89.755119,38.767827],[-89.755149,38.767879],[-89.755196,38.767998],[-89.755221,38.768099],[-89.755224,38.768159],[-89.75521,38.768218],[-89.755195,38.768243],[-89.754347,38.768604],[-89.75359,38.768785],[-89.753188,38.768753],[-89.752929,38.769015],[-89.753174,38.769299],[-89.753021,38.769034],[-89.75307,38.768879],[-89.75324,38.768818],[-89.753392,38.768821],[-89.753594,38.768887],[-89.753671,38.768892],[-89.753858,38.768851],[-89.754288,38.768706],[-89.754489,38.76862],[-89.754847,38.768413],[-89.754966,38.768371],[-89.755216,38.768309],[-89.755312,38.768254],[-89.755228,38.7678],[-89.754151,38.766887],[-89.755897,38.766151],[-89.762586,38.765254],[-89.763917,38.764858],[-89.763378,38.763324],[-89.763235,38.742484],[-89.769407,38.742464],[-89.771464,38.742584],[-89.77817,38.742591]]]}},{"type":"Feature","properties":{"zcta5":"62262","AFFGEOID10":"8600000US62262","GEOID10":"62262","ALAND10":174239474,"AWATER10":65876,"county_name":"Bond","state_code":"IL","county_state":"Bond County, IL","county_fips":"17005","risk_level_county":"Medium Risk (70–79% vaccinated)","mean_vaccination_rate_county":74.57,"risk_level_zcta":"Medium Risk (70–79% vaccinated)","mean_vaccination_rate_zips":78.14,"cases":14},"geometry":{"type":"Polygon","coordinates":[[[-89.343387,39.027853],[-89.342949,39.009672],[-89.334247,39.009777],[-89.334166,39.002731],[-89.333585,39.002265],[-89.333544,38.999077],[-89.332291,38.996755],[-89.332317,38.993424],[-89.369074,38.992966],[-89.369015,38.989542],[-89.374051,38.989483],[-89.373779,38.97502],[-89.360139,38.975163],[-89.360319,38.982387],[-89.352542,38.982459],[-89.353301,38.979873],[-89.352936,38.97751],[-89.353294,38.975219],[-89.350828,38.975241],[-89.350637,38.96487],[-89.348206,38.964099],[-89.348194,38.961305],[-89.345715,38.960697],[-89.346502,38.958778],[-89.339327,38.959584],[-89.336377,38.960748],[-89.327114,38.960764],[-89.326983,38.946302],[-89.326652,38.931836],[-89.298686,38.931893],[-89.298553,38.919978],[-89.303243,38.917802],[-89.304961,38.917406],[-89.29433,38.917343],[-89.294357,38.914985],[-89.303645,38.911502],[-89.300226,38.908808],[-89.294532,38.908744],[-89.293976,38.904551],[-89.293831,38.895286],[-89.303247,38.895164],[-89.303144,38.887802],[-89.29362,38.887919],[-89.293467,38.877856],[-89.290017,38.874662],[-89.284188,38.874516],[-89.279535,38.873303],[-89.275285,38.874737],[-89.275314,38.871939],[-89.274758,38.870511],[-89.274319,38.851552],[-89.255691,38.851538],[-89.255311,38.829734],[-89.255017,38.814999],[-89.240329,38.814397],[-89.240349,38.824499],[-89.239973,38.825383],[-89.232962,38.824793],[-89.231099,38.823711],[-89.231076,38.82543],[-89.231064,38.826761],[-89.195336,38.825813],[-89.194057,38.827186],[-89.194035,38.833749],[-89.193778,38.841451],[-89.212426,38.842342],[-89.212457,38.840055],[-89.213474,38.838124],[-89.21617,38.837079],[-89.218858,38.837095],[-89.222158,38.835866],[-89.221789,38.837194],[-89.221728,38.846435],[-89.213613,38.846132],[-89.212593,38.846512],[-89.21226,38.864259],[-89.230996,38.865068],[-89.230726,38.90514],[-89.221481,38.904709],[-89.221419,38.920779],[-89.216904,38.920851],[-89.216935,38.926093],[-89.193711,38.934951],[-89.193789,38.948107],[-89.220123,38.938836],[-89.218546,38.943699],[-89.217777,38.948562],[-89.216343,38.9514],[-89.215261,38.956548],[-89.21494,38.959865],[-89.213061,38.964642],[-89.212953,38.965761],[-89.214475,38.967965],[-89.217816,38.968238],[-89.218667,38.971075],[-89.219958,38.971509],[-89.219902,38.97565],[-89.22213,38.97716],[-89.224768,38.977937],[-89.225707,38.979057],[-89.228081,38.979148],[-89.230896,38.981023],[-89.231397,38.984615],[-89.230899,38.985736],[-89.231809,38.988736],[-89.235946,38.991659],[-89.237851,38.991635],[-89.238997,38.995158],[-89.242372,38.99836],[-89.245594,39.000045],[-89.245858,39.001071],[-89.24325,39.002354],[-89.24076,39.005512],[-89.242638,39.007708],[-89.243638,39.010796],[-89.246338,39.013403],[-89.245959,39.016079],[-89.24508,39.016995],[-89.244849,39.020747],[-89.242446,39.023128],[-89.24195,39.025736],[-89.245652,39.027562],[-89.245746,39.029948],[-89.250335,39.029942],[-89.250444,39.028187],[-89.299019,39.028218],[-89.343387,39.027853]]]}},{"type":"Feature","properties":{"zcta5":"62019","AFFGEOID10":"8600000US62019","GEOID10":"62019","ALAND10":70336821,"AWATER10":1470553,"county_name":"Bond","state_code":"IL","county_state":"Bond County, IL","county_fips":"17005","risk_level_county":"Medium Risk (70–79% vaccinated)","mean_vaccination_rate_county":74.57,"risk_level_zcta":"Medium Risk (70–79% vaccinated)","mean_vaccination_rate_zips":71.12,"cases":14},"geometry":{"type":"Polygon","coordinates":[[[-89.462529,39.057168],[-89.471339,39.045071],[-89.471333,39.042552],[-89.477019,39.042442],[-89.47869,39.0432],[-89.491991,39.045945],[-89.500048,39.046692],[-89.506642,39.04622],[-89.507441,39.039653],[-89.508177,39.035993],[-89.509615,39.034049],[-89.51378,39.034188],[-89.516861,39.032222],[-89.517269,39.029891],[-89.519027,39.02812],[-89.506476,39.028043],[-89.475919,39.02778],[-89.476033,39.023968],[-89.473429,39.023918],[-89.473698,39.005794],[-89.491819,39.00598],[-89.494189,39.006878],[-89.496315,39.006047],[-89.499787,39.007396],[-89.501639,39.006758],[-89.502218,39.005085],[-89.502473,38.998893],[-89.485745,38.998652],[-89.485774,38.994046],[-89.502731,38.994248],[-89.503641,38.992384],[-89.507241,38.990888],[-89.507713,38.989088],[-89.504959,38.988273],[-89.504192,38.987185],[-89.504479,38.974597],[-89.504318,38.967392],[-89.495289,38.966964],[-89.495037,38.959873],[-89.485892,38.95959],[-89.485901,38.970517],[-89.470803,38.967137],[-89.470787,38.981553],[-89.457052,38.981646],[-89.457038,38.984398],[-89.452145,38.984485],[-89.451775,38.998477],[-89.442323,38.99846],[-89.432733,38.982664],[-89.432745,38.981532],[-89.418566,38.981346],[-89.411822,38.981619],[-89.413194,38.982633],[-89.413543,38.984508],[-89.411643,38.986023],[-89.410535,38.988152],[-89.412228,38.990154],[-89.411172,38.992213],[-89.406598,38.993814],[-89.40607,38.994958],[-89.407331,38.995621],[-89.406392,38.997337],[-89.405043,38.997634],[-89.405093,38.999393],[-89.401663,39.005273],[-89.398584,39.00557],[-89.398789,39.006714],[-89.394887,39.009503],[-89.395151,39.010167],[-89.393273,39.012614],[-89.394357,39.013324],[-89.394327,39.015428],[-89.39327,39.01735],[-89.393885,39.018539],[-89.389696,39.022631],[-89.38972,39.027826],[-89.39882,39.02785],[-89.39884,39.036244],[-89.399402,39.039118],[-89.399438,39.042501],[-89.412536,39.062617],[-89.413852,39.067459],[-89.436462,39.067747],[-89.436481,39.071389],[-89.445985,39.071708],[-89.462529,39.057168]]]}}]}