{"type":"FeatureCollection","features":[{"type":"Feature","properties":{"zcta5":"46035","AFFGEOID10":"8600000US46035","GEOID10":"46035","ALAND10":62233976,"AWATER10":0,"county_name":"Boone","state_code":"IN","county_state":"Boone County, IN","county_fips":"18011","risk_level_county":"Higher Risk (60–69% vaccinated)","mean_vaccination_rate_county":62.57,"risk_level_zcta":"Medium Risk (70–79% vaccinated)","mean_vaccination_rate_zips":77.03,"cases":0},"geometry":{"type":"Polygon","coordinates":[[[-86.771104,40.187354],[-86.771082,40.186063],[-86.743256,40.186062],[-86.743144,40.1715],[-86.714817,40.171515],[-86.714781,40.156943],[-86.710106,40.156856],[-86.706763,40.15617],[-86.704615,40.156865],[-86.69578,40.15678],[-86.695701,40.143527],[-86.692554,40.144282],[-86.691097,40.145343],[-86.689143,40.145321],[-86.68751,40.14623],[-86.68571,40.14626],[-86.68576,40.1569],[-86.66674,40.15683],[-86.66674,40.17162],[-86.640288,40.171204],[-86.628297,40.160368],[-86.624466,40.162017],[-86.623615,40.163011],[-86.61973,40.165359],[-86.617564,40.168825],[-86.614572,40.170677],[-86.612123,40.173039],[-86.61835,40.178589],[-86.622562,40.182415],[-86.627947,40.188934],[-86.633775,40.194409],[-86.6288,40.199552],[-86.628369,40.200342],[-86.623174,40.200384],[-86.614248,40.200144],[-86.614171,40.213915],[-86.609452,40.213882],[-86.609378,40.221741],[-86.609911,40.222654],[-86.613583,40.224623],[-86.61955,40.230187],[-86.619298,40.228504],[-86.637614,40.228608],[-86.637639,40.22164],[-86.63895,40.221337],[-86.638621,40.218208],[-86.637657,40.217918],[-86.637752,40.209556],[-86.645225,40.205093],[-86.656834,40.215778],[-86.659616,40.217895],[-86.665726,40.221729],[-86.670722,40.226166],[-86.670744,40.221554],[-86.695544,40.221646],[-86.695637,40.214367],[-86.714511,40.214481],[-86.71482,40.200682],[-86.744001,40.20134],[-86.749248,40.197379],[-86.750425,40.196805],[-86.754796,40.192643],[-86.760676,40.191044],[-86.76193,40.190083],[-86.764853,40.189489],[-86.766912,40.187705],[-86.771104,40.187354]]]}},{"type":"Feature","properties":{"zcta5":"46268","AFFGEOID10":"8600000US46268","GEOID10":"46268","ALAND10":34364133,"AWATER10":75891,"county_name":"Boone","state_code":"IN","county_state":"Boone County, IN","county_fips":"18011","risk_level_county":"Higher Risk (60–69% vaccinated)","mean_vaccination_rate_county":62.57,"risk_level_zcta":"Medium Risk (70–79% vaccinated)","mean_vaccination_rate_zips":72.18,"cases":0},"geometry":{"type":"Polygon","coordinates":[[[-86.264901,39.925073],[-86.262072,39.923546],[-86.260261,39.921536],[-86.25987,39.903446],[-86.261955,39.903149],[-86.262752,39.902217],[-86.264599,39.902184],[-86.264728,39.892449],[-86.265538,39.889193],[-86.259849,39.892261],[-86.259892,39.867159],[-86.229612,39.867683],[-86.217082,39.867863],[-86.202967,39.868057],[-86.201749,39.868071],[-86.202299,39.86921],[-86.202975,39.870595],[-86.203028,39.878175],[-86.206586,39.878137],[-86.207002,39.878999],[-86.204298,39.879872],[-86.203027,39.881494],[-86.20262,39.886327],[-86.20303,39.903349],[-86.207789,39.903219],[-86.207783,39.904643],[-86.205048,39.904913],[-86.203104,39.904244],[-86.203085,39.925883],[-86.202864,39.926628],[-86.239739,39.926055],[-86.240355,39.933841],[-86.241821,39.93503],[-86.241835,39.937447],[-86.24346,39.93747],[-86.244476,39.938593],[-86.248129,39.938684],[-86.24962,39.93998],[-86.25368,39.93996],[-86.25499,39.94059],[-86.25792,39.94048],[-86.25976,39.94139],[-86.25985,39.932505],[-86.256583,39.927069],[-86.250658,39.925587],[-86.264901,39.925073]]]}},{"type":"Feature","properties":{"zcta5":"46071","AFFGEOID10":"8600000US46071","GEOID10":"46071","ALAND10":179649625,"AWATER10":422293,"county_name":"Boone","state_code":"IN","county_state":"Boone County, IN","county_fips":"18011","risk_level_county":"Higher Risk (60–69% vaccinated)","mean_vaccination_rate_county":62.57,"risk_level_zcta":"Medium Risk (70–79% vaccinated)","mean_vaccination_rate_zips":75.98,"cases":0},"geometry":{"type":"Polygon","coordinates":[[[-86.695738,40.058526],[-86.695832,40.047203],[-86.685907,40.054687],[-86.672591,40.05466],[-86.67236,40.05331],[-86.671774,40.05466],[-86.648098,40.0545],[-86.58983,40.05432],[-86.581928,40.054161],[-86.58181,40.06866],[-86.570963,40.06846],[-86.570724,40.070093],[-86.572061,40.070456],[-86.571854,40.073482],[-86.573463,40.076261],[-86.57149,40.076854],[-86.571426,40.077667],[-86.572884,40.07854],[-86.576202,40.078512],[-86.576195,40.080951],[-86.580299,40.079825],[-86.581719,40.080748],[-86.58173,40.08358],[-86.57996,40.08337],[-86.567631,40.08316],[-86.563026,40.080498],[-86.56283,40.09761],[-86.534701,40.09728],[-86.53082,40.09754],[-86.5315,40.0989],[-86.540339,40.107148],[-86.537676,40.108574],[-86.534505,40.107265],[-86.53456,40.1047],[-86.520272,40.104734],[-86.52028,40.121168],[-86.522118,40.122256],[-86.528814,40.121759],[-86.531217,40.1235],[-86.531863,40.126595],[-86.51068,40.12647],[-86.51048,40.14091],[-86.51327,40.140922],[-86.511845,40.142509],[-86.512251,40.144294],[-86.513825,40.144921],[-86.513438,40.146019],[-86.514618,40.146926],[-86.514953,40.149557],[-86.516634,40.150079],[-86.517685,40.152051],[-86.520447,40.153557],[-86.520918,40.155617],[-86.522034,40.157177],[-86.524285,40.158678],[-86.525088,40.160098],[-86.52422,40.162974],[-86.520931,40.162047],[-86.5199,40.160557],[-86.516286,40.159562],[-86.512922,40.159454],[-86.510825,40.160144],[-86.509197,40.16152],[-86.506426,40.161628],[-86.507492,40.160469],[-86.504215,40.158161],[-86.499943,40.156021],[-86.497487,40.158067],[-86.498258,40.160368],[-86.496745,40.161292],[-86.49355,40.15981],[-86.490009,40.160055],[-86.488198,40.161203],[-86.485629,40.161635],[-86.48592,40.16503],[-86.4812,40.16505],[-86.4806,40.1663],[-86.47296,40.16622],[-86.4725,40.16715],[-86.46802,40.16705],[-86.46779,40.17704],[-86.580879,40.177654],[-86.581844,40.177774],[-86.595129,40.177804],[-86.616208,40.178319],[-86.61835,40.178589],[-86.612123,40.173039],[-86.614572,40.170677],[-86.617564,40.168825],[-86.61973,40.165359],[-86.623615,40.163011],[-86.624466,40.162017],[-86.628297,40.160368],[-86.640288,40.171204],[-86.66674,40.17162],[-86.66674,40.15683],[-86.68576,40.1569],[-86.68571,40.14626],[-86.68751,40.14623],[-86.689143,40.145321],[-86.691097,40.145343],[-86.692554,40.144282],[-86.695701,40.143527],[-86.695636,40.080645],[-86.695738,40.058526]]]}},{"type":"Feature","properties":{"zcta5":"46075","AFFGEOID10":"8600000US46075","GEOID10":"46075","ALAND10":79980426,"AWATER10":64488,"county_name":"Boone","state_code":"IN","county_state":"Boone County, IN","county_fips":"18011","risk_level_county":"Higher Risk (60–69% vaccinated)","mean_vaccination_rate_county":62.57,"risk_level_zcta":"Medium Risk (70–79% vaccinated)","mean_vaccination_rate_zips":75.52,"cases":0},"geometry":{"type":"Polygon","coordinates":[[[-86.3138,40.098757],[-86.3275,40.09844],[-86.327389,40.084931],[-86.329034,40.083848],[-86.335054,40.08376],[-86.338536,40.081908],[-86.341124,40.081693],[-86.34153,40.07667],[-86.34076,40.07607],[-86.34044,40.0622],[-86.34603,40.06176],[-86.345875,40.051545],[-86.343376,40.050393],[-86.342233,40.050772],[-86.339996,40.049823],[-86.336844,40.050411],[-86.33626,40.04014],[-86.34618,40.03998],[-86.346103,40.03263],[-86.350519,40.029796],[-86.35409,40.028734],[-86.358285,40.025893],[-86.35631,40.02592],[-86.356,40.01138],[-86.37021,40.0115],[-86.37061,40.01228],[-86.37352,40.01381],[-86.37319,40.01511],[-86.37505,40.01438],[-86.37503,40.01164],[-86.3853,40.01136],[-86.38724,40.01211],[-86.39395,40.01126],[-86.39385,39.98269],[-86.39759,39.97952],[-86.39854,39.977891],[-86.395337,39.978053],[-86.395066,39.976961],[-86.396364,39.976531],[-86.39664,39.97333],[-86.398546,39.97331],[-86.398542,39.975265],[-86.412809,39.97489],[-86.412793,39.971706],[-86.411679,39.971706],[-86.4117,39.969644],[-86.41279,39.96733],[-86.400302,39.967432],[-86.400298,39.968499],[-86.39853,39.968503],[-86.3985,39.97042],[-86.39303,39.97031],[-86.38924,39.97262],[-86.37931,39.9639],[-86.37941,39.96045],[-86.37538,39.96058],[-86.3648,39.9516],[-86.36483,39.94586],[-86.358419,39.946025],[-86.35726,39.94459],[-86.35774,39.94279],[-86.35574,39.94251],[-86.35534,39.93142],[-86.355247,39.931414],[-86.34244,39.93137],[-86.33857,39.92839],[-86.33842,39.92849],[-86.33472,39.92545],[-86.34554,39.93831],[-86.351602,39.94548],[-86.351799,39.945814],[-86.35288,39.94767],[-86.35017,39.94871],[-86.349185,39.948673],[-86.348933,39.948054],[-86.346785,39.948287],[-86.346795,39.949228],[-86.34514,39.94926],[-86.34497,39.949271],[-86.3356,39.94951],[-86.3356,39.95362],[-86.33657,39.95605],[-86.33584,39.9561],[-86.33578,39.95634],[-86.33609,39.95666],[-86.33616,39.95696],[-86.33616,39.95843],[-86.33606,39.95861],[-86.33654,39.95886],[-86.33655,39.96107],[-86.325021,39.961241],[-86.324985,39.961932],[-86.326505,39.963228],[-86.327055,39.965892],[-86.328398,39.968836],[-86.330154,39.970236],[-86.331868,39.972855],[-86.334789,39.9762],[-86.335054,39.979193],[-86.333391,39.981094],[-86.334922,39.981061],[-86.327379,39.989596],[-86.32477,39.98899],[-86.32431,39.98799],[-86.3177,39.98549],[-86.31762,39.99763],[-86.32091,39.99759],[-86.32095,40.00482],[-86.317689,40.004876],[-86.317727,40.030827],[-86.319864,40.030639],[-86.321205,40.032141],[-86.324885,40.032854],[-86.325012,40.034132],[-86.326293,40.034711],[-86.328273,40.037264],[-86.32717,40.038481],[-86.328009,40.040054],[-86.31728,40.04045],[-86.31753,40.055],[-86.27946,40.05553],[-86.27965,40.07004],[-86.270338,40.069986],[-86.269937,40.074888],[-86.267956,40.076579],[-86.269212,40.07965],[-86.271956,40.083089],[-86.272369,40.084654],[-86.279763,40.084734],[-86.2799,40.09916],[-86.269139,40.099259],[-86.268039,40.101788],[-86.268753,40.104194],[-86.267333,40.109872],[-86.264163,40.1112],[-86.261151,40.11382],[-86.29908,40.11353],[-86.2989,40.09899],[-86.3138,40.098757]]]}},{"type":"Feature","properties":{"zcta5":"46077","AFFGEOID10":"8600000US46077","GEOID10":"46077","ALAND10":112918137,"AWATER10":465180,"county_name":"Boone","state_code":"IN","county_state":"Boone County, IN","county_fips":"18011","risk_level_county":"Higher Risk (60–69% vaccinated)","mean_vaccination_rate_county":62.57,"risk_level_zcta":"Lower Risk (80–84% vaccinated)","mean_vaccination_rate_zips":84.4,"cases":0},"geometry":{"type":"Polygon","coordinates":[[[-86.355247,39.931414],[-86.355214,39.927785],[-86.351906,39.927793],[-86.351833,39.924069],[-86.34432,39.92413],[-86.340545,39.92412],[-86.3402,39.92411],[-86.334089,39.924169],[-86.333261,39.924139],[-86.330763,39.924168],[-86.326293,39.924029],[-86.31803,39.92422],[-86.307246,39.924394],[-86.307176,39.914401],[-86.305842,39.914407],[-86.305842,39.915957],[-86.300677,39.915957],[-86.300677,39.91784],[-86.298763,39.91784],[-86.298763,39.915957],[-86.28827,39.915957],[-86.288276,39.924189],[-86.288914,39.924635],[-86.283757,39.924646],[-86.268246,39.924916],[-86.264901,39.925073],[-86.250658,39.925587],[-86.256583,39.927069],[-86.25985,39.932505],[-86.25976,39.94139],[-86.25792,39.94048],[-86.25499,39.94059],[-86.25368,39.93996],[-86.24962,39.93998],[-86.248129,39.938684],[-86.244476,39.938593],[-86.24346,39.93747],[-86.241835,39.937447],[-86.241821,39.93503],[-86.240355,39.933841],[-86.239057,39.932663],[-86.238263,39.930534],[-86.235245,39.930872],[-86.232758,39.93243],[-86.235584,39.938228],[-86.237199,39.935583],[-86.238008,39.936129],[-86.235697,39.938464],[-86.239462,39.946849],[-86.227917,39.951758],[-86.226458,39.952685],[-86.227367,39.955362],[-86.222475,39.955413],[-86.221453,39.958488],[-86.221503,39.964114],[-86.224,39.964368],[-86.229768,39.964419],[-86.229839,39.973341],[-86.231334,39.973353],[-86.23131,39.976483],[-86.235093,39.977093],[-86.241177,39.977094],[-86.241218,39.985351],[-86.241074,39.991517],[-86.240446,39.991505],[-86.221704,39.991647],[-86.22174,39.998727],[-86.221741,39.998862],[-86.238971,39.998728],[-86.238609,39.99962],[-86.235653,40.001073],[-86.233631,40.002792],[-86.231231,40.007887],[-86.229046,40.010537],[-86.227813,40.012793],[-86.228709,40.013276],[-86.24107,40.013275],[-86.24142,40.041545],[-86.241443,40.04669],[-86.251251,40.048677],[-86.26045,40.048545],[-86.26052,40.05582],[-86.27946,40.05553],[-86.31753,40.055],[-86.31728,40.04045],[-86.328009,40.040054],[-86.32717,40.038481],[-86.328273,40.037264],[-86.326293,40.034711],[-86.325012,40.034132],[-86.324885,40.032854],[-86.321205,40.032141],[-86.319864,40.030639],[-86.317727,40.030827],[-86.317689,40.004876],[-86.32095,40.00482],[-86.32091,39.99759],[-86.31762,39.99763],[-86.3177,39.98549],[-86.32431,39.98799],[-86.32477,39.98899],[-86.327379,39.989596],[-86.334922,39.981061],[-86.333391,39.981094],[-86.335054,39.979193],[-86.334789,39.9762],[-86.331868,39.972855],[-86.330154,39.970236],[-86.328398,39.968836],[-86.327055,39.965892],[-86.326505,39.963228],[-86.324985,39.961932],[-86.325021,39.961241],[-86.33655,39.96107],[-86.33654,39.95886],[-86.33606,39.95861],[-86.33616,39.95843],[-86.33616,39.95696],[-86.33609,39.95666],[-86.33578,39.95634],[-86.33584,39.9561],[-86.33657,39.95605],[-86.3356,39.95362],[-86.3356,39.94951],[-86.34497,39.949271],[-86.34514,39.94926],[-86.346795,39.949228],[-86.346785,39.948287],[-86.348933,39.948054],[-86.349185,39.948673],[-86.35017,39.94871],[-86.35288,39.94767],[-86.351799,39.945814],[-86.351602,39.94548],[-86.34554,39.93831],[-86.33472,39.92545],[-86.33842,39.92849],[-86.33857,39.92839],[-86.34244,39.93137],[-86.355247,39.931414]]]}},{"type":"Feature","properties":{"zcta5":"46050","AFFGEOID10":"8600000US46050","GEOID10":"46050","ALAND10":118537086,"AWATER10":0,"county_name":"Boone","state_code":"IN","county_state":"Boone County, IN","county_fips":"18011","risk_level_county":"Higher Risk (60–69% vaccinated)","mean_vaccination_rate_county":62.57,"risk_level_zcta":"Medium Risk (70–79% vaccinated)","mean_vaccination_rate_zips":71.64,"cases":0},"geometry":{"type":"Polygon","coordinates":[[[-86.46779,40.17704],[-86.46802,40.16705],[-86.4725,40.16715],[-86.47296,40.16622],[-86.4806,40.1663],[-86.4812,40.16505],[-86.48592,40.16503],[-86.485629,40.161635],[-86.48536,40.15916],[-86.4817,40.15911],[-86.48085,40.15975],[-86.47939,40.159],[-86.47301,40.15898],[-86.4722,40.15936],[-86.46489,40.15984],[-86.46421,40.16253],[-86.40202,40.16274],[-86.402858,40.162028],[-86.401623,40.160464],[-86.399111,40.159474],[-86.399615,40.15728],[-86.398618,40.156873],[-86.397756,40.155226],[-86.39663,40.155643],[-86.394842,40.154834],[-86.394206,40.152123],[-86.392726,40.150156],[-86.39093,40.150172],[-86.388683,40.149215],[-86.386651,40.149022],[-86.383907,40.1518],[-86.383149,40.150932],[-86.380717,40.150239],[-86.380036,40.150617],[-86.375443,40.149767],[-86.374497,40.148533],[-86.374653,40.147271],[-86.373658,40.146299],[-86.372334,40.146505],[-86.37181,40.1486],[-86.36602,40.14875],[-86.36601,40.16327],[-86.35746,40.16353],[-86.35594,40.16403],[-86.3459,40.16411],[-86.349432,40.171334],[-86.33741,40.17149],[-86.337482,40.178884],[-86.290013,40.179827],[-86.290171,40.201251],[-86.280686,40.201504],[-86.280621,40.219008],[-86.268778,40.219145],[-86.267924,40.221031],[-86.261158,40.222862],[-86.242692,40.223008],[-86.242743,40.215834],[-86.213832,40.216243],[-86.21291,40.23019],[-86.215769,40.23003],[-86.221237,40.228284],[-86.223547,40.228896],[-86.226859,40.228721],[-86.23416,40.228827],[-86.233915,40.232511],[-86.231564,40.236881],[-86.229935,40.23781],[-86.24264,40.237698],[-86.242446,40.244888],[-86.247301,40.244609],[-86.28875,40.244099],[-86.299404,40.244116],[-86.300012,40.251321],[-86.300018,40.258551],[-86.318372,40.258171],[-86.318381,40.268344],[-86.320925,40.2683],[-86.32686,40.267133],[-86.330349,40.265761],[-86.333444,40.261666],[-86.336871,40.259379],[-86.34001,40.25813],[-86.351534,40.258007],[-86.351224,40.229209],[-86.356551,40.228905],[-86.377379,40.228608],[-86.37362,40.219918],[-86.376693,40.218065],[-86.380366,40.217632],[-86.383114,40.216146],[-86.3837,40.213982],[-86.43026,40.213466],[-86.431971,40.213628],[-86.431707,40.191469],[-86.450242,40.191362],[-86.450264,40.176942],[-86.46779,40.17704]]]}},{"type":"Feature","properties":{"zcta5":"46052","AFFGEOID10":"8600000US46052","GEOID10":"46052","ALAND10":460881998,"AWATER10":40328,"county_name":"Boone","state_code":"IN","county_state":"Boone County, IN","county_fips":"18011","risk_level_county":"Higher Risk (60–69% vaccinated)","mean_vaccination_rate_county":62.57,"risk_level_zcta":"Lower Risk (80–84% vaccinated)","mean_vaccination_rate_zips":80.5,"cases":0},"geometry":{"type":"Polygon","coordinates":[[[-86.648098,40.0545],[-86.64817,40.03998],[-86.62921,40.03988],[-86.629226,40.038683],[-86.627061,40.03942],[-86.625154,40.039216],[-86.623438,40.037476],[-86.619589,40.03662],[-86.61959,40.03197],[-86.60065,40.03185],[-86.6007,40.01011],[-86.59126,40.01016],[-86.59133,39.99569],[-86.58813,39.99574],[-86.585689,39.997068],[-86.584976,39.998128],[-86.582269,39.998272],[-86.579662,39.99568],[-86.56356,39.99562],[-86.56368,39.96745],[-86.5523,39.96768],[-86.55229,39.96996],[-86.54931,39.9703],[-86.54356,39.97567],[-86.54218,39.9774],[-86.538479,39.977385],[-86.541472,39.972726],[-86.544729,39.97024],[-86.544744,39.959289],[-86.54224,39.95928],[-86.54222,39.95523],[-86.54442,39.95366],[-86.54886,39.95206],[-86.548402,39.947913],[-86.547168,39.945661],[-86.545092,39.944073],[-86.543901,39.944175],[-86.543829,39.93713],[-86.52971,39.93696],[-86.52862,39.93612],[-86.52505,39.94094],[-86.52502,39.9371],[-86.52031,39.93685],[-86.52029,39.9297],[-86.51558,39.92976],[-86.515566,39.922883],[-86.506028,39.922912],[-86.46867,39.92278],[-86.46834,39.92305],[-86.429053,39.923658],[-86.384694,39.92382],[-86.383456,39.925708],[-86.38351,39.93106],[-86.35534,39.93142],[-86.35574,39.94251],[-86.35774,39.94279],[-86.35726,39.94459],[-86.358419,39.946025],[-86.36483,39.94586],[-86.3648,39.9516],[-86.37538,39.96058],[-86.37941,39.96045],[-86.37931,39.9639],[-86.38924,39.97262],[-86.39303,39.97031],[-86.3985,39.97042],[-86.39853,39.968503],[-86.400298,39.968499],[-86.400302,39.967432],[-86.41279,39.96733],[-86.4117,39.969644],[-86.411679,39.971706],[-86.412793,39.971706],[-86.412809,39.97489],[-86.398542,39.975265],[-86.398546,39.97331],[-86.39664,39.97333],[-86.396364,39.976531],[-86.395066,39.976961],[-86.395337,39.978053],[-86.39854,39.977891],[-86.39759,39.97952],[-86.39385,39.98269],[-86.39395,40.01126],[-86.38724,40.01211],[-86.3853,40.01136],[-86.37503,40.01164],[-86.37505,40.01438],[-86.37319,40.01511],[-86.37352,40.01381],[-86.37061,40.01228],[-86.37021,40.0115],[-86.356,40.01138],[-86.35631,40.02592],[-86.358285,40.025893],[-86.35409,40.028734],[-86.350519,40.029796],[-86.346103,40.03263],[-86.34618,40.03998],[-86.33626,40.04014],[-86.336844,40.050411],[-86.339996,40.049823],[-86.342233,40.050772],[-86.343376,40.050393],[-86.345875,40.051545],[-86.34603,40.06176],[-86.34044,40.0622],[-86.34076,40.07607],[-86.34153,40.07667],[-86.341124,40.081693],[-86.338536,40.081908],[-86.335054,40.08376],[-86.329034,40.083848],[-86.327389,40.084931],[-86.3275,40.09844],[-86.3138,40.098757],[-86.32826,40.128],[-86.32954,40.129536],[-86.333389,40.130304],[-86.333898,40.132786],[-86.335801,40.132934],[-86.336811,40.135076],[-86.33991,40.136047],[-86.341556,40.137859],[-86.343847,40.138957],[-86.343583,40.140462],[-86.345859,40.141604],[-86.348163,40.141455],[-86.349451,40.140642],[-86.351826,40.140487],[-86.353444,40.141579],[-86.35637,40.140342],[-86.356419,40.143131],[-86.33889,40.14959],[-86.3459,40.16411],[-86.35594,40.16403],[-86.35746,40.16353],[-86.36601,40.16327],[-86.36602,40.14875],[-86.37181,40.1486],[-86.372334,40.146505],[-86.373658,40.146299],[-86.374653,40.147271],[-86.374497,40.148533],[-86.375443,40.149767],[-86.380036,40.150617],[-86.380717,40.150239],[-86.383149,40.150932],[-86.383907,40.1518],[-86.386651,40.149022],[-86.388683,40.149215],[-86.39093,40.150172],[-86.392726,40.150156],[-86.394206,40.152123],[-86.394842,40.154834],[-86.39663,40.155643],[-86.397756,40.155226],[-86.398618,40.156873],[-86.399615,40.15728],[-86.399111,40.159474],[-86.401623,40.160464],[-86.402858,40.162028],[-86.40202,40.16274],[-86.46421,40.16253],[-86.46489,40.15984],[-86.4722,40.15936],[-86.47301,40.15898],[-86.47939,40.159],[-86.48085,40.15975],[-86.4817,40.15911],[-86.48536,40.15916],[-86.485629,40.161635],[-86.488198,40.161203],[-86.490009,40.160055],[-86.49355,40.15981],[-86.496745,40.161292],[-86.498258,40.160368],[-86.497487,40.158067],[-86.499943,40.156021],[-86.504215,40.158161],[-86.507492,40.160469],[-86.506426,40.161628],[-86.509197,40.16152],[-86.510825,40.160144],[-86.512922,40.159454],[-86.516286,40.159562],[-86.5199,40.160557],[-86.520931,40.162047],[-86.52422,40.162974],[-86.525088,40.160098],[-86.524285,40.158678],[-86.522034,40.157177],[-86.520918,40.155617],[-86.520447,40.153557],[-86.517685,40.152051],[-86.516634,40.150079],[-86.514953,40.149557],[-86.514618,40.146926],[-86.513438,40.146019],[-86.513825,40.144921],[-86.512251,40.144294],[-86.511845,40.142509],[-86.51327,40.140922],[-86.51048,40.14091],[-86.51068,40.12647],[-86.531863,40.126595],[-86.531217,40.1235],[-86.528814,40.121759],[-86.522118,40.122256],[-86.52028,40.121168],[-86.520272,40.104734],[-86.53456,40.1047],[-86.534505,40.107265],[-86.537676,40.108574],[-86.540339,40.107148],[-86.5315,40.0989],[-86.53082,40.09754],[-86.534701,40.09728],[-86.56283,40.09761],[-86.563026,40.080498],[-86.567631,40.08316],[-86.57996,40.08337],[-86.58173,40.08358],[-86.581719,40.080748],[-86.580299,40.079825],[-86.576195,40.080951],[-86.576202,40.078512],[-86.572884,40.07854],[-86.571426,40.077667],[-86.57149,40.076854],[-86.573463,40.076261],[-86.571854,40.073482],[-86.572061,40.070456],[-86.570724,40.070093],[-86.570963,40.06846],[-86.58181,40.06866],[-86.581928,40.054161],[-86.58983,40.05432],[-86.648098,40.0545]]]}},{"type":"Feature","properties":{"zcta5":"46147","AFFGEOID10":"8600000US46147","GEOID10":"46147","ALAND10":152675838,"AWATER10":78742,"county_name":"Boone","state_code":"IN","county_state":"Boone County, IN","county_fips":"18011","risk_level_county":"Higher Risk (60–69% vaccinated)","mean_vaccination_rate_county":62.57,"risk_level_zcta":"Higher Risk (60–69% vaccinated)","mean_vaccination_rate_zips":69.08,"cases":0},"geometry":{"type":"Polygon","coordinates":[[[-86.695832,40.047203],[-86.695781,40.010581],[-86.69063,40.01033],[-86.67651,40.01023],[-86.676605,39.981227],[-86.682174,39.981311],[-86.69537,39.98615],[-86.695274,39.981264],[-86.69521,39.973967],[-86.66714,39.97372],[-86.66717,39.95945],[-86.66688,39.95645],[-86.66502,39.95474],[-86.664839,39.952218],[-86.695202,39.952354],[-86.695071,39.92277],[-86.695193,39.915707],[-86.685753,39.915526],[-86.685731,39.908281],[-86.657263,39.908598],[-86.657234,39.912204],[-86.633731,39.911829],[-86.633747,39.909374],[-86.635153,39.905073],[-86.634478,39.897245],[-86.634501,39.893762],[-86.610901,39.8937],[-86.609889,39.896219],[-86.609965,39.900887],[-86.614507,39.900901],[-86.622898,39.903905],[-86.623943,39.904007],[-86.623984,39.909634],[-86.618478,39.909309],[-86.616206,39.910541],[-86.61664,39.914195],[-86.619044,39.915826],[-86.619282,39.918732],[-86.615896,39.921295],[-86.618787,39.922679],[-86.581584,39.92282],[-86.581519,39.90734],[-86.576666,39.905358],[-86.576669,39.908116],[-86.564562,39.908127],[-86.562931,39.906851],[-86.562859,39.905833],[-86.562619,39.922732],[-86.515566,39.922883],[-86.51558,39.92976],[-86.52029,39.9297],[-86.52031,39.93685],[-86.52502,39.9371],[-86.52505,39.94094],[-86.52862,39.93612],[-86.52971,39.93696],[-86.543829,39.93713],[-86.543901,39.944175],[-86.545092,39.944073],[-86.547168,39.945661],[-86.548402,39.947913],[-86.54886,39.95206],[-86.54442,39.95366],[-86.54222,39.95523],[-86.54224,39.95928],[-86.544744,39.959289],[-86.544729,39.97024],[-86.541472,39.972726],[-86.538479,39.977385],[-86.54218,39.9774],[-86.54356,39.97567],[-86.54931,39.9703],[-86.55229,39.96996],[-86.5523,39.96768],[-86.56368,39.96745],[-86.56356,39.99562],[-86.579662,39.99568],[-86.582269,39.998272],[-86.584976,39.998128],[-86.585689,39.997068],[-86.58813,39.99574],[-86.59133,39.99569],[-86.59126,40.01016],[-86.6007,40.01011],[-86.60065,40.03185],[-86.61959,40.03197],[-86.619589,40.03662],[-86.623438,40.037476],[-86.625154,40.039216],[-86.627061,40.03942],[-86.629226,40.038683],[-86.62921,40.03988],[-86.64817,40.03998],[-86.648098,40.0545],[-86.671774,40.05466],[-86.67236,40.05331],[-86.672591,40.05466],[-86.685907,40.054687],[-86.695832,40.047203]]]}},{"type":"Feature","properties":{"zcta5":"46112","AFFGEOID10":"8600000US46112","GEOID10":"46112","ALAND10":103704134,"AWATER10":720950,"county_name":"Boone","state_code":"IN","county_state":"Boone County, IN","county_fips":"18011","risk_level_county":"Higher Risk (60–69% vaccinated)","mean_vaccination_rate_county":62.57,"risk_level_zcta":"Lower Risk (80–84% vaccinated)","mean_vaccination_rate_zips":80.66,"cases":0},"geometry":{"type":"Polygon","coordinates":[[[-86.429053,39.923658],[-86.428482,39.922153],[-86.427461,39.921723],[-86.4241,39.921815],[-86.420335,39.918925],[-86.419389,39.917183],[-86.419671,39.915668],[-86.416749,39.915091],[-86.415285,39.911293],[-86.411851,39.912567],[-86.411786,39.909142],[-86.409129,39.909152],[-86.409164,39.902908],[-86.407801,39.902398],[-86.407916,39.899277],[-86.406941,39.896019],[-86.411603,39.896013],[-86.411589,39.894547],[-86.430446,39.894242],[-86.430129,39.879668],[-86.43807,39.87961],[-86.439729,39.880044],[-86.439726,39.878979],[-86.437148,39.878313],[-86.434563,39.877434],[-86.432843,39.876727],[-86.43005,39.875312],[-86.430074,39.873754],[-86.428801,39.873457],[-86.42838,39.871047],[-86.426177,39.867934],[-86.429007,39.86626],[-86.429447,39.866362],[-86.43009,39.866453],[-86.430174,39.867407],[-86.430208,39.871202],[-86.431017,39.871825],[-86.439615,39.871787],[-86.439517,39.856066],[-86.430779,39.854933],[-86.427025,39.854002],[-86.427035,39.849893],[-86.43023,39.849143],[-86.430037,39.848479],[-86.427034,39.848526],[-86.427112,39.846928],[-86.429966,39.846938],[-86.429319,39.845036],[-86.427708,39.84493],[-86.427148,39.843921],[-86.428933,39.841757],[-86.433476,39.841685],[-86.433479,39.842727],[-86.439297,39.842628],[-86.439172,39.837167],[-86.434519,39.837213],[-86.434434,39.835382],[-86.427483,39.835574],[-86.427526,39.83895],[-86.425133,39.839213],[-86.425206,39.842872],[-86.423414,39.842904],[-86.423326,39.84009],[-86.421848,39.837926],[-86.420407,39.837401],[-86.420383,39.835631],[-86.425019,39.835558],[-86.424985,39.832743],[-86.426212,39.831862],[-86.434364,39.831656],[-86.434282,39.828079],[-86.438962,39.828004],[-86.438838,39.821973],[-86.424679,39.819116],[-86.424407,39.810148],[-86.422424,39.810656],[-86.419339,39.809927],[-86.419382,39.808104],[-86.421151,39.807269],[-86.419583,39.803012],[-86.417265,39.801858],[-86.416061,39.800235],[-86.414215,39.799136],[-86.400533,39.79942],[-86.381582,39.799835],[-86.374426,39.799917],[-86.362602,39.800125],[-86.362641,39.802239],[-86.362729,39.80628],[-86.34961,39.803591],[-86.350089,39.807634],[-86.345878,39.807703],[-86.346199,39.822367],[-86.346277,39.825461],[-86.341545,39.823234],[-86.341547,39.826844],[-86.332779,39.826971],[-86.332839,39.829946],[-86.341478,39.829737],[-86.346347,39.829302],[-86.346686,39.844151],[-86.345192,39.844169],[-86.351612,39.850566],[-86.351383,39.853568],[-86.351733,39.8546],[-86.351851,39.858937],[-86.351223,39.85893],[-86.328012,39.859269],[-86.328121,39.866125],[-86.325373,39.866176],[-86.325927,39.87236],[-86.325987,39.873492],[-86.361458,39.873046],[-86.361874,39.877289],[-86.360081,39.879193],[-86.356692,39.88454],[-86.355469,39.885878],[-86.349381,39.885949],[-86.345212,39.885194],[-86.340534,39.88508],[-86.339996,39.884195],[-86.336578,39.884221],[-86.330996,39.884056],[-86.330414,39.881993],[-86.326051,39.882051],[-86.325889,39.882329],[-86.325981,39.891222],[-86.326204,39.90962],[-86.326212,39.915319],[-86.326342,39.919153],[-86.328509,39.918792],[-86.33074,39.921798],[-86.330761,39.923783],[-86.330763,39.924168],[-86.333261,39.924139],[-86.334089,39.924169],[-86.3402,39.92411],[-86.340545,39.92412],[-86.34432,39.92413],[-86.351833,39.924069],[-86.351906,39.927793],[-86.355214,39.927785],[-86.355247,39.931414],[-86.35534,39.93142],[-86.38351,39.93106],[-86.383456,39.925708],[-86.384694,39.92382],[-86.429053,39.923658]]]}},{"type":"Feature","properties":{"zcta5":"47933","AFFGEOID10":"8600000US47933","GEOID10":"47933","ALAND10":607548108,"AWATER10":825545,"county_name":"Boone","state_code":"IN","county_state":"Boone County, IN","county_fips":"18011","risk_level_county":"Higher Risk (60–69% vaccinated)","mean_vaccination_rate_county":62.57,"risk_level_zcta":"Medium Risk (70–79% vaccinated)","mean_vaccination_rate_zips":76.69,"cases":0},"geometry":{"type":"Polygon","coordinates":[[[-87.091006,39.953009],[-87.091051,39.945655],[-87.089238,39.945406],[-87.086502,39.943713],[-87.084272,39.943072],[-87.079812,39.943028],[-87.078147,39.942205],[-87.074818,39.942571],[-87.071309,39.940672],[-87.069049,39.937651],[-87.066255,39.937308],[-87.064144,39.93875],[-87.061767,39.944768],[-87.059927,39.946274],[-87.053173,39.944837],[-87.052047,39.945112],[-87.051396,39.947315],[-87.051418,39.95255],[-87.050734,39.954151],[-87.048385,39.95406],[-87.046362,39.955135],[-87.040089,39.946711],[-87.039023,39.946706],[-87.039048,39.94324],[-87.034271,39.943212],[-87.03417,39.940374],[-87.033321,39.93914],[-87.035269,39.936881],[-87.032931,39.936305],[-87.025689,39.925689],[-87.025558,39.924923],[-87.021676,39.924897],[-87.021923,39.921427],[-87.020437,39.921176],[-87.020578,39.903061],[-87.015884,39.903011],[-87.015992,39.894888],[-87.004328,39.898409],[-86.998811,39.900657],[-86.993889,39.902984],[-86.9905,39.904205],[-86.989257,39.905149],[-86.989293,39.902831],[-86.963837,39.902656],[-86.945023,39.902538],[-86.944966,39.909802],[-86.902744,39.909607],[-86.902825,39.938611],[-86.841402,39.938102],[-86.841395,39.936332],[-86.827345,39.946528],[-86.827607,39.952333],[-86.819398,39.952423],[-86.808736,39.9605],[-86.808757,39.963293],[-86.807442,39.96331],[-86.800333,39.966892],[-86.799659,39.96689],[-86.799601,39.981385],[-86.808868,39.98139],[-86.808991,39.995977],[-86.757114,39.995929],[-86.757308,39.993632],[-86.755427,39.990627],[-86.751669,39.990276],[-86.750713,39.991348],[-86.748556,39.991073],[-86.747753,39.991279],[-86.746267,39.994094],[-86.746447,39.995946],[-86.733417,39.99592],[-86.733414,39.981401],[-86.695784,39.98149],[-86.695274,39.981264],[-86.69537,39.98615],[-86.682174,39.981311],[-86.676605,39.981227],[-86.67651,40.01023],[-86.69063,40.01033],[-86.695781,40.010581],[-86.695832,40.047203],[-86.695738,40.058526],[-86.697011,40.057926],[-86.698522,40.058566],[-86.699896,40.057335],[-86.699866,40.055983],[-86.701411,40.055697],[-86.705455,40.053889],[-86.708427,40.054369],[-86.709318,40.055719],[-86.714105,40.055581],[-86.717106,40.053522],[-86.719627,40.053996],[-86.719681,40.061985],[-86.807686,40.061664],[-86.809753,40.061787],[-86.809832,40.083577],[-86.786011,40.083635],[-86.786019,40.103852],[-86.781678,40.104388],[-86.781729,40.107773],[-86.780688,40.107895],[-86.779605,40.109785],[-86.774431,40.1098],[-86.774466,40.111157],[-86.783178,40.112053],[-86.782402,40.115005],[-86.780941,40.115324],[-86.779868,40.116743],[-86.77933,40.119168],[-86.777064,40.12141],[-86.772058,40.123893],[-86.771568,40.127625],[-86.790698,40.127496],[-86.790774,40.135038],[-86.791655,40.139105],[-86.79346,40.143025],[-86.794358,40.149108],[-86.794775,40.149928],[-86.794724,40.15696],[-86.800219,40.156988],[-86.7978,40.158765],[-86.799247,40.160163],[-86.801912,40.161011],[-86.801302,40.166302],[-86.802095,40.167493],[-86.800468,40.169164],[-86.799383,40.16919],[-86.800447,40.170147],[-86.803512,40.171267],[-86.852112,40.171512],[-86.852543,40.17333],[-86.861682,40.173335],[-86.861751,40.186089],[-86.885453,40.186126],[-86.885304,40.171476],[-86.904411,40.171459],[-86.904423,40.168354],[-86.903293,40.165802],[-86.903099,40.163711],[-86.904576,40.162283],[-86.904555,40.156933],[-86.92323,40.156975],[-86.923263,40.164174],[-86.950895,40.164352],[-86.950967,40.160787],[-86.94845,40.16056],[-86.94634,40.157031],[-86.943811,40.154413],[-86.94102,40.148697],[-86.9359,40.142311],[-86.956047,40.142291],[-86.955988,40.149672],[-86.976006,40.149717],[-86.976779,40.150377],[-86.979534,40.157517],[-86.979412,40.164433],[-87.017801,40.164178],[-87.017796,40.165165],[-87.024796,40.165104],[-87.025272,40.16416],[-87.035469,40.164084],[-87.035423,40.153058],[-87.027527,40.153132],[-87.027153,40.149455],[-87.017815,40.149476],[-87.01784,40.134852],[-87.017845,40.127608],[-87.016999,40.127608],[-87.016963,40.116265],[-87.015528,40.116855],[-87.014538,40.118732],[-87.011878,40.120037],[-87.006943,40.124298],[-87.003545,40.124678],[-86.998367,40.121211],[-86.998217,40.10413],[-87.021717,40.104019],[-87.021744,40.094064],[-87.023217,40.09103],[-87.024901,40.089623],[-87.026462,40.089641],[-87.026469,40.074101],[-87.020594,40.072907],[-87.016132,40.070238],[-87.012394,40.068688],[-87.006595,40.068073],[-87.006666,40.06549],[-87.007824,40.065254],[-87.007895,40.053594],[-86.998376,40.053602],[-86.998454,40.039845],[-86.997492,40.039119],[-87.000678,40.039566],[-87.003377,40.039184],[-87.017088,40.039119],[-87.016544,40.032904],[-87.016194,40.031778],[-87.016112,40.018155],[-87.042915,39.989029],[-87.053078,39.98899],[-87.05363,39.985325],[-87.052922,39.985323],[-87.052871,39.982181],[-87.053906,39.981994],[-87.05681,39.981895],[-87.057822,39.981738],[-87.057721,39.974519],[-87.0745,39.974651],[-87.074742,39.972952],[-87.081121,39.972555],[-87.081017,39.969599],[-87.086236,39.968993],[-87.090453,39.969002],[-87.090008,39.952995],[-87.091006,39.953009]],[[-86.929531,39.95253],[-86.926302,39.952841],[-86.926281,39.955253],[-86.922601,39.955266],[-86.921506,39.956694],[-86.92147,39.961953],[-86.920216,39.962608],[-86.918727,39.960664],[-86.912984,39.957233],[-86.913567,39.954398],[-86.915589,39.954268],[-86.915854,39.952435],[-86.917784,39.950714],[-86.917723,39.948618],[-86.921264,39.948519],[-86.92366,39.951518],[-86.927845,39.949148],[-86.929531,39.950599],[-86.929531,39.95253]]]}},{"type":"Feature","properties":{"zcta5":"46069","AFFGEOID10":"8600000US46069","GEOID10":"46069","ALAND10":235392537,"AWATER10":253756,"county_name":"Boone","state_code":"IN","county_state":"Boone County, IN","county_fips":"18011","risk_level_county":"Higher Risk (60–69% vaccinated)","mean_vaccination_rate_county":62.57,"risk_level_zcta":"Medium Risk (70–79% vaccinated)","mean_vaccination_rate_zips":73.85,"cases":0},"geometry":{"type":"Polygon","coordinates":[[[-86.3459,40.16411],[-86.33889,40.14959],[-86.356419,40.143131],[-86.35637,40.140342],[-86.353444,40.141579],[-86.351826,40.140487],[-86.349451,40.140642],[-86.348163,40.141455],[-86.345859,40.141604],[-86.343583,40.140462],[-86.343847,40.138957],[-86.341556,40.137859],[-86.33991,40.136047],[-86.336811,40.135076],[-86.335801,40.132934],[-86.333898,40.132786],[-86.333389,40.130304],[-86.32954,40.129536],[-86.32826,40.128],[-86.3138,40.098757],[-86.2989,40.09899],[-86.29908,40.11353],[-86.261151,40.11382],[-86.264163,40.1112],[-86.267333,40.109872],[-86.268753,40.104194],[-86.268039,40.101788],[-86.269139,40.099259],[-86.2799,40.09916],[-86.279763,40.084734],[-86.272369,40.084654],[-86.271956,40.083089],[-86.269212,40.07965],[-86.267956,40.076579],[-86.269937,40.074888],[-86.270338,40.069986],[-86.27965,40.07004],[-86.27946,40.05553],[-86.26052,40.05582],[-86.26045,40.048545],[-86.251251,40.048677],[-86.241443,40.04669],[-86.24142,40.041545],[-86.231653,40.041678],[-86.231666,40.044256],[-86.22215,40.041999],[-86.222182,40.049421],[-86.231685,40.049329],[-86.231842,40.072601],[-86.22719,40.07501],[-86.222453,40.076228],[-86.222485,40.085402],[-86.212996,40.08554],[-86.212881,40.067363],[-86.165851,40.067882],[-86.16556,40.064253],[-86.160832,40.064278],[-86.160881,40.075162],[-86.156283,40.075196],[-86.155903,40.076113],[-86.151446,40.076141],[-86.151492,40.086095],[-86.142586,40.086198],[-86.138747,40.083526],[-86.136819,40.08281],[-86.128032,40.08306],[-86.128083,40.094532],[-86.128098,40.101415],[-86.137247,40.101037],[-86.137365,40.115629],[-86.128192,40.116004],[-86.128254,40.131148],[-86.137469,40.130993],[-86.137651,40.189149],[-86.185315,40.188314],[-86.185333,40.19973],[-86.181068,40.200532],[-86.178425,40.199208],[-86.177014,40.200757],[-86.175983,40.200756],[-86.175948,40.216725],[-86.185352,40.216601],[-86.213832,40.216243],[-86.242743,40.215834],[-86.242692,40.223008],[-86.261158,40.222862],[-86.267924,40.221031],[-86.268778,40.219145],[-86.280621,40.219008],[-86.280686,40.201504],[-86.290171,40.201251],[-86.290013,40.179827],[-86.337482,40.178884],[-86.33741,40.17149],[-86.349432,40.171334],[-86.3459,40.16411]]]}},{"type":"Feature","properties":{"zcta5":"47968","AFFGEOID10":"8600000US47968","GEOID10":"47968","ALAND10":63223976,"AWATER10":2848,"county_name":"Boone","state_code":"IN","county_state":"Boone County, IN","county_fips":"18011","risk_level_county":"Higher Risk (60–69% vaccinated)","mean_vaccination_rate_county":62.57,"risk_level_zcta":"Very High Risk (<60% vaccinated)","mean_vaccination_rate_zips":50.63,"cases":0},"geometry":{"type":"Polygon","coordinates":[[[-86.695274,39.981264],[-86.695784,39.98149],[-86.733414,39.981401],[-86.733417,39.99592],[-86.746447,39.995946],[-86.746267,39.994094],[-86.747753,39.991279],[-86.748556,39.991073],[-86.750713,39.991348],[-86.751669,39.990276],[-86.755427,39.990627],[-86.757308,39.993632],[-86.757114,39.995929],[-86.808991,39.995977],[-86.808868,39.98139],[-86.799601,39.981385],[-86.799659,39.96689],[-86.800333,39.966892],[-86.807442,39.96331],[-86.808757,39.963293],[-86.808736,39.9605],[-86.819398,39.952423],[-86.827607,39.952333],[-86.827345,39.946528],[-86.827254,39.930628],[-86.819106,39.930656],[-86.816558,39.933579],[-86.816494,39.936874],[-86.814675,39.93815],[-86.808207,39.930316],[-86.803928,39.930291],[-86.803975,39.940046],[-86.80323,39.9413],[-86.799297,39.941234],[-86.79937,39.944815],[-86.785728,39.944796],[-86.785497,39.95225],[-86.733488,39.95225],[-86.733441,39.950431],[-86.727554,39.950283],[-86.723918,39.948668],[-86.723751,39.915739],[-86.709578,39.915815],[-86.709517,39.908503],[-86.695287,39.908498],[-86.695193,39.915707],[-86.695071,39.92277],[-86.695202,39.952354],[-86.664839,39.952218],[-86.66502,39.95474],[-86.66688,39.95645],[-86.66717,39.95945],[-86.66714,39.97372],[-86.69521,39.973967],[-86.695274,39.981264]]]}}]}