{"type":"FeatureCollection","features":[{"type":"Feature","properties":{"zcta5":"41004","AFFGEOID10":"8600000US41004","GEOID10":"41004","ALAND10":296075431,"AWATER10":682138,"county_name":"Bracken","state_code":"KY","county_state":"Bracken County, KY","county_fips":"21023","risk_level_county":"Medium Risk (70–79% vaccinated)","mean_vaccination_rate_county":75.21,"risk_level_zcta":"Medium Risk (70–79% vaccinated)","mean_vaccination_rate_zips":70.2,"cases":13},"geometry":{"type":"Polygon","coordinates":[[[-84.222562,38.684488],[-84.226728,38.682593],[-84.227997,38.684031],[-84.230736,38.685369],[-84.233023,38.680461],[-84.231363,38.679287],[-84.228162,38.679496],[-84.226676,38.676148],[-84.225219,38.675144],[-84.223419,38.674815],[-84.223166,38.672948],[-84.222164,38.672422],[-84.222227,38.670797],[-84.223102,38.668951],[-84.216815,38.674927],[-84.211864,38.634378],[-84.208127,38.635315],[-84.207255,38.636689],[-84.205418,38.636742],[-84.203707,38.638813],[-84.198179,38.640967],[-84.196453,38.642551],[-84.193964,38.638515],[-84.194681,38.63669],[-84.191646,38.636171],[-84.188962,38.636151],[-84.186276,38.633181],[-84.185056,38.633001],[-84.183448,38.630981],[-84.18195,38.63047],[-84.1811,38.62913],[-84.177647,38.626496],[-84.178467,38.624841],[-84.177397,38.623088],[-84.178067,38.620975],[-84.176537,38.619509],[-84.174722,38.616582],[-84.172262,38.61542],[-84.169108,38.614797],[-84.169044,38.611041],[-84.166566,38.609814],[-84.165871,38.608524],[-84.166395,38.605774],[-84.167404,38.606216],[-84.167781,38.608297],[-84.169131,38.607803],[-84.168986,38.603774],[-84.169924,38.601666],[-84.173757,38.603303],[-84.178976,38.600613],[-84.179263,38.599971],[-84.17827,38.59923],[-84.173884,38.599718],[-84.172513,38.598807],[-84.173045,38.598148],[-84.179005,38.595794],[-84.181649,38.595421],[-84.183461,38.594054],[-84.180384,38.591007],[-84.179014,38.587888],[-84.176615,38.588613],[-84.174754,38.587888],[-84.174642,38.587185],[-84.176345,38.585817],[-84.181628,38.584213],[-84.183987,38.58252],[-84.186802,38.582553],[-84.190188,38.585441],[-84.190763,38.587294],[-84.192208,38.588108],[-84.19546,38.588475],[-84.198363,38.587895],[-84.202067,38.589087],[-84.205265,38.587114],[-84.205346,38.582039],[-84.204286,38.581189],[-84.203357,38.576315],[-84.2016,38.569728],[-84.201834,38.567202],[-84.202726,38.565227],[-84.20401,38.563961],[-84.207947,38.563199],[-84.211554,38.563245],[-84.21444,38.562813],[-84.217198,38.560874],[-84.217814,38.559092],[-84.215625,38.554976],[-84.211319,38.550864],[-84.20895,38.549929],[-84.207149,38.551341],[-84.204555,38.55086],[-84.202358,38.551177],[-84.200794,38.55045],[-84.198575,38.550852],[-84.196331,38.551957],[-84.19573,38.552847],[-84.193317,38.553592],[-84.189875,38.552545],[-84.188161,38.554152],[-84.185396,38.555523],[-84.182333,38.55617],[-84.181159,38.557501],[-84.183523,38.560046],[-84.1857,38.560199],[-84.18722,38.560947],[-84.189569,38.562995],[-84.192448,38.562697],[-84.19272,38.563724],[-84.189147,38.563431],[-84.163435,38.564591],[-84.154861,38.564516],[-84.124842,38.562455],[-84.122315,38.564155],[-84.124813,38.568465],[-84.122596,38.570136],[-84.114422,38.571097],[-84.112038,38.573772],[-84.109625,38.575474],[-84.108932,38.57834],[-84.107855,38.579868],[-84.106079,38.577442],[-84.103863,38.578117],[-84.102394,38.5759],[-84.102575,38.574819],[-84.104763,38.574526],[-84.105356,38.572784],[-84.104978,38.571306],[-84.102781,38.569901],[-84.101221,38.569907],[-84.098588,38.570959],[-84.093392,38.571569],[-84.090515,38.570718],[-84.089204,38.571951],[-84.085146,38.572318],[-84.082292,38.570418],[-84.079718,38.570503],[-84.0789,38.572888],[-84.076932,38.574541],[-84.075791,38.577099],[-84.073355,38.577583],[-84.071703,38.579271],[-84.068639,38.57578],[-84.068499,38.57461],[-84.070506,38.571682],[-84.069037,38.570645],[-84.070072,38.569108],[-84.069359,38.567834],[-84.066395,38.565597],[-84.032765,38.566519],[-84.031955,38.568007],[-84.032341,38.569486],[-84.029061,38.575159],[-84.026679,38.57632],[-84.023961,38.581471],[-84.021806,38.581002],[-84.020065,38.579953],[-84.018191,38.57977],[-84.019141,38.581578],[-84.01888,38.584064],[-84.020461,38.585165],[-84.020055,38.586213],[-84.016826,38.587815],[-84.015784,38.590528],[-84.017986,38.594161],[-84.019778,38.594818],[-84.018436,38.595363],[-84.015104,38.594787],[-84.015175,38.597769],[-84.012445,38.600284],[-84.009234,38.603864],[-84.009687,38.606466],[-84.009914,38.610756],[-84.010511,38.611801],[-84.010128,38.614073],[-84.010506,38.615499],[-84.011924,38.616994],[-84.01135,38.620126],[-84.013021,38.620787],[-84.013608,38.622598],[-84.015348,38.623876],[-84.014878,38.625602],[-84.015489,38.627171],[-84.018785,38.629599],[-84.019054,38.630707],[-84.018321,38.632969],[-84.017549,38.633575],[-84.019034,38.63446],[-84.017421,38.636244],[-84.015566,38.639757],[-84.013258,38.642437],[-84.011452,38.643931],[-84.010596,38.645851],[-84.01066,38.649686],[-84.009113,38.652858],[-84.005876,38.654358],[-84.004178,38.657203],[-84.003155,38.662984],[-84.004207,38.66388],[-84.009219,38.663486],[-84.012743,38.66437],[-84.014831,38.670676],[-84.01744,38.676209],[-84.019986,38.6798],[-84.022541,38.681722],[-84.022834,38.683951],[-84.024465,38.684665],[-84.023967,38.685982],[-84.026402,38.690857],[-84.02495,38.694546],[-84.027588,38.697697],[-84.02784,38.699317],[-84.029793,38.701573],[-84.032286,38.70226],[-84.035628,38.701608],[-84.038808,38.702723],[-84.04088,38.704475],[-84.043802,38.70464],[-84.044622,38.701956],[-84.048643,38.703011],[-84.050681,38.704235],[-84.052299,38.703851],[-84.050302,38.707007],[-84.048866,38.707548],[-84.044166,38.707681],[-84.037942,38.711805],[-84.036553,38.713257],[-84.031576,38.714883],[-84.02861,38.71658],[-84.031034,38.719207],[-84.030387,38.720517],[-84.033565,38.722878],[-84.03823,38.722169],[-84.040202,38.724742],[-84.031545,38.726873],[-84.015414,38.721678],[-84.017546,38.724809],[-84.022019,38.732102],[-84.03152,38.731],[-84.036022,38.730997],[-84.055533,38.734106],[-84.055989,38.737073],[-84.054569,38.739055],[-84.053899,38.741624],[-84.051981,38.743608],[-84.050166,38.744032],[-84.049094,38.745144],[-84.04672,38.74613],[-84.045982,38.747182],[-84.048738,38.748932],[-84.049139,38.75059],[-84.051145,38.751327],[-84.052821,38.753718],[-84.052331,38.755926],[-84.059149,38.760322],[-84.061281,38.760545],[-84.062875,38.759481],[-84.066115,38.759093],[-84.069348,38.759422],[-84.071688,38.760572],[-84.072571,38.762951],[-84.070949,38.765919],[-84.076217,38.766806],[-84.081067,38.766372],[-84.08577,38.767322],[-84.092709,38.767729],[-84.096287,38.768476],[-84.10098,38.768949],[-84.104781,38.769835],[-84.106126,38.766725],[-84.104169,38.764651],[-84.103864,38.762091],[-84.10207,38.760474],[-84.101878,38.758606],[-84.102867,38.755908],[-84.101535,38.752489],[-84.10265,38.75069],[-84.103192,38.747887],[-84.102502,38.745857],[-84.102945,38.744226],[-84.103415,38.746358],[-84.10759,38.746842],[-84.112512,38.74785],[-84.122308,38.749328],[-84.126522,38.750422],[-84.134924,38.751938],[-84.135334,38.747864],[-84.136849,38.746899],[-84.138672,38.74718],[-84.140116,38.74656],[-84.140426,38.744913],[-84.144282,38.742873],[-84.146974,38.742254],[-84.14739,38.739795],[-84.148693,38.73934],[-84.148352,38.736117],[-84.149292,38.73463],[-84.152846,38.733572],[-84.155138,38.733419],[-84.158082,38.732009],[-84.161376,38.731406],[-84.164132,38.728975],[-84.165563,38.728594],[-84.163357,38.723215],[-84.163495,38.719969],[-84.162083,38.718055],[-84.16415,38.716605],[-84.16547,38.714634],[-84.165413,38.711207],[-84.167663,38.708599],[-84.170179,38.707095],[-84.170558,38.705335],[-84.169903,38.699302],[-84.169342,38.697912],[-84.171327,38.699149],[-84.176184,38.694515],[-84.181055,38.692368],[-84.193678,38.68791],[-84.202367,38.683539],[-84.205788,38.682083],[-84.209988,38.683359],[-84.214597,38.681794],[-84.217714,38.682288],[-84.221147,38.683187],[-84.222562,38.684488]]]}},{"type":"Feature","properties":{"zcta5":"41040","AFFGEOID10":"8600000US41040","GEOID10":"41040","ALAND10":378421632,"AWATER10":5953702,"county_name":"Bracken","state_code":"KY","county_state":"Bracken County, KY","county_fips":"21023","risk_level_county":"Medium Risk (70–79% vaccinated)","mean_vaccination_rate_county":75.21,"risk_level_zcta":"Medium Risk (70–79% vaccinated)","mean_vaccination_rate_zips":72.82,"cases":13},"geometry":{"type":"Polygon","coordinates":[[[-84.446972,38.701061],[-84.448289,38.700024],[-84.449957,38.699694],[-84.451267,38.698558],[-84.451252,38.694676],[-84.45093,38.694088],[-84.453291,38.693094],[-84.454159,38.690766],[-84.455777,38.689882],[-84.459742,38.689234],[-84.461261,38.687669],[-84.463685,38.68735],[-84.466227,38.685291],[-84.465996,38.683852],[-84.467074,38.682507],[-84.465848,38.681458],[-84.465279,38.679043],[-84.465608,38.677621],[-84.463941,38.676199],[-84.4638,38.674541],[-84.464738,38.673679],[-84.464996,38.670659],[-84.466985,38.669012],[-84.468721,38.666359],[-84.469112,38.664427],[-84.470071,38.66391],[-84.470413,38.662389],[-84.472142,38.660176],[-84.472541,38.658804],[-84.474143,38.657326],[-84.474745,38.655229],[-84.474576,38.653516],[-84.475428,38.650062],[-84.478886,38.649018],[-84.48829,38.637649],[-84.491446,38.637364],[-84.492525,38.635682],[-84.493757,38.635026],[-84.494117,38.632667],[-84.496383,38.631598],[-84.496127,38.630784],[-84.497263,38.629514],[-84.48715,38.587329],[-84.479835,38.588151],[-84.476401,38.590788],[-84.474058,38.591326],[-84.471412,38.588263],[-84.467628,38.587441],[-84.46478,38.585596],[-84.46343,38.586008],[-84.461542,38.58837],[-84.462599,38.591592],[-84.461109,38.59212],[-84.459115,38.591351],[-84.4561,38.589002],[-84.453337,38.588651],[-84.448671,38.593894],[-84.446761,38.59485],[-84.443809,38.595487],[-84.442606,38.596469],[-84.44164,38.598556],[-84.440549,38.598534],[-84.438569,38.596359],[-84.433042,38.594108],[-84.431307,38.594948],[-84.430271,38.596765],[-84.430719,38.597792],[-84.434371,38.598325],[-84.436568,38.600038],[-84.436197,38.60146],[-84.432999,38.602607],[-84.429151,38.602272],[-84.427234,38.603051],[-84.425372,38.605123],[-84.422398,38.60371],[-84.419622,38.603285],[-84.418553,38.603928],[-84.416134,38.603344],[-84.414809,38.603715],[-84.408667,38.60763],[-84.406991,38.606517],[-84.404849,38.606966],[-84.402304,38.604994],[-84.400252,38.602332],[-84.401583,38.597501],[-84.400824,38.595655],[-84.401918,38.592516],[-84.402355,38.588257],[-84.400745,38.586343],[-84.399386,38.585783],[-84.395753,38.582204],[-84.39542,38.580195],[-84.394183,38.577993],[-84.39494,38.575296],[-84.3966,38.574842],[-84.400012,38.575703],[-84.40623,38.57683],[-84.409292,38.576364],[-84.40993,38.575536],[-84.394686,38.574077],[-84.392992,38.577742],[-84.389911,38.581749],[-84.389137,38.584594],[-84.386983,38.582702],[-84.388144,38.580518],[-84.392866,38.5739],[-84.377568,38.57243],[-84.381861,38.569782],[-84.383842,38.566862],[-84.380515,38.562817],[-84.296462,38.571871],[-84.299397,38.576447],[-84.293794,38.576982],[-84.287401,38.581374],[-84.284741,38.577972],[-84.28519,38.575349],[-84.284472,38.573169],[-84.239725,38.578164],[-84.205346,38.582039],[-84.205265,38.587114],[-84.202067,38.589087],[-84.198363,38.587895],[-84.19546,38.588475],[-84.192208,38.588108],[-84.190763,38.587294],[-84.190188,38.585441],[-84.186802,38.582553],[-84.183987,38.58252],[-84.181628,38.584213],[-84.176345,38.585817],[-84.174642,38.587185],[-84.174754,38.587888],[-84.176615,38.588613],[-84.179014,38.587888],[-84.180384,38.591007],[-84.183461,38.594054],[-84.181649,38.595421],[-84.179005,38.595794],[-84.173045,38.598148],[-84.172513,38.598807],[-84.173884,38.599718],[-84.17827,38.59923],[-84.179263,38.599971],[-84.178976,38.600613],[-84.173757,38.603303],[-84.169924,38.601666],[-84.168986,38.603774],[-84.169131,38.607803],[-84.167781,38.608297],[-84.167404,38.606216],[-84.166395,38.605774],[-84.165871,38.608524],[-84.166566,38.609814],[-84.169044,38.611041],[-84.169108,38.614797],[-84.172262,38.61542],[-84.174722,38.616582],[-84.176537,38.619509],[-84.178067,38.620975],[-84.177397,38.623088],[-84.178467,38.624841],[-84.177647,38.626496],[-84.1811,38.62913],[-84.18195,38.63047],[-84.183448,38.630981],[-84.185056,38.633001],[-84.186276,38.633181],[-84.188962,38.636151],[-84.191646,38.636171],[-84.194681,38.63669],[-84.193964,38.638515],[-84.196453,38.642551],[-84.198179,38.640967],[-84.203707,38.638813],[-84.205418,38.636742],[-84.207255,38.636689],[-84.208127,38.635315],[-84.211864,38.634378],[-84.216815,38.674927],[-84.223102,38.668951],[-84.222227,38.670797],[-84.222164,38.672422],[-84.223166,38.672948],[-84.223419,38.674815],[-84.225219,38.675144],[-84.226676,38.676148],[-84.228162,38.679496],[-84.231363,38.679287],[-84.233023,38.680461],[-84.230736,38.685369],[-84.227997,38.684031],[-84.226728,38.682593],[-84.222562,38.684488],[-84.224188,38.687134],[-84.222726,38.6909],[-84.226397,38.691585],[-84.230676,38.691271],[-84.232105,38.690672],[-84.235707,38.6933],[-84.237983,38.69314],[-84.242002,38.690333],[-84.241532,38.688675],[-84.24277,38.687303],[-84.243835,38.687708],[-84.246731,38.692016],[-84.249058,38.693421],[-84.249381,38.694656],[-84.252501,38.695306],[-84.253754,38.696207],[-84.254431,38.698499],[-84.2564,38.698953],[-84.257975,38.700058],[-84.261892,38.699351],[-84.265605,38.699205],[-84.266375,38.699573],[-84.264847,38.701186],[-84.261414,38.701695],[-84.259878,38.703517],[-84.259771,38.705312],[-84.256618,38.70659],[-84.255181,38.706765],[-84.252898,38.705462],[-84.24941,38.704241],[-84.247946,38.704752],[-84.247052,38.708562],[-84.245287,38.709711],[-84.240551,38.70963],[-84.235682,38.709846],[-84.234721,38.70888],[-84.234902,38.706734],[-84.234355,38.706234],[-84.226004,38.706665],[-84.220495,38.705227],[-84.229488,38.774587],[-84.232143,38.774875],[-84.234154,38.773956],[-84.237156,38.771389],[-84.238404,38.768635],[-84.237964,38.7672],[-84.238127,38.764283],[-84.240523,38.759937],[-84.241442,38.756926],[-84.243814,38.755033],[-84.243752,38.753711],[-84.245162,38.751765],[-84.245105,38.748505],[-84.268619,38.742225],[-84.270605,38.744009],[-84.272434,38.744866],[-84.274494,38.746926],[-84.277536,38.747031],[-84.278617,38.744243],[-84.283357,38.741499],[-84.284227,38.740204],[-84.287298,38.738964],[-84.287921,38.741479],[-84.286454,38.744278],[-84.28297,38.745677],[-84.284721,38.747621],[-84.283024,38.749844],[-84.284929,38.751763],[-84.284332,38.753283],[-84.28464,38.75504],[-84.286694,38.756386],[-84.288468,38.755661],[-84.2917,38.75665],[-84.293348,38.756371],[-84.297318,38.754101],[-84.300839,38.753341],[-84.300532,38.752227],[-84.303424,38.751057],[-84.306394,38.756635],[-84.310616,38.75624],[-84.311345,38.756811],[-84.310357,38.758398],[-84.308898,38.759166],[-84.307947,38.760777],[-84.312811,38.761286],[-84.313568,38.759985],[-84.316926,38.759639],[-84.319633,38.757788],[-84.318251,38.755422],[-84.318076,38.753638],[-84.320418,38.75349],[-84.322773,38.751777],[-84.325472,38.751381],[-84.327134,38.749608],[-84.332392,38.749547],[-84.337867,38.747559],[-84.33238,38.749209],[-84.326745,38.749322],[-84.325058,38.750205],[-84.323127,38.749986],[-84.319597,38.748069],[-84.317314,38.744508],[-84.3177,38.741237],[-84.321613,38.738731],[-84.325666,38.737102],[-84.334926,38.734816],[-84.33838,38.733705],[-84.341545,38.731776],[-84.34381,38.726992],[-84.344223,38.723831],[-84.345613,38.721877],[-84.343684,38.719609],[-84.340801,38.718329],[-84.33928,38.718185],[-84.336623,38.719875],[-84.334848,38.722188],[-84.332679,38.723744],[-84.330128,38.724185],[-84.326158,38.723845],[-84.322296,38.722543],[-84.319589,38.722502],[-84.315267,38.721444],[-84.312656,38.720513],[-84.310712,38.719214],[-84.308575,38.715918],[-84.308289,38.713626],[-84.30943,38.710606],[-84.311322,38.709311],[-84.314322,38.708985],[-84.318442,38.709844],[-84.322941,38.710379],[-84.329758,38.7093],[-84.333549,38.70725],[-84.334392,38.705496],[-84.333686,38.703775],[-84.329398,38.699017],[-84.32693,38.697489],[-84.324437,38.691751],[-84.323075,38.690327],[-84.321705,38.6875],[-84.322242,38.685322],[-84.321854,38.683954],[-84.322327,38.68159],[-84.325685,38.679608],[-84.328585,38.68044],[-84.333328,38.680374],[-84.332139,38.681904],[-84.329291,38.683352],[-84.327426,38.685769],[-84.327725,38.689411],[-84.328634,38.690979],[-84.332438,38.694996],[-84.334369,38.697984],[-84.335806,38.703975],[-84.334933,38.70711],[-84.331929,38.709422],[-84.32974,38.710247],[-84.324573,38.711142],[-84.319902,38.711144],[-84.317743,38.712381],[-84.316898,38.714371],[-84.318331,38.717962],[-84.320025,38.719173],[-84.324621,38.720073],[-84.324956,38.7176],[-84.324258,38.714845],[-84.325534,38.714348],[-84.327873,38.715034],[-84.332236,38.714315],[-84.334015,38.71502],[-84.336143,38.714683],[-84.338993,38.715713],[-84.341596,38.7157],[-84.342765,38.7142],[-84.347114,38.711892],[-84.349455,38.709626],[-84.351094,38.709022],[-84.353568,38.710077],[-84.355521,38.709325],[-84.357892,38.709767],[-84.359362,38.709135],[-84.366137,38.708308],[-84.367419,38.710637],[-84.368609,38.711266],[-84.369372,38.706232],[-84.373595,38.707676],[-84.378487,38.710383],[-84.381675,38.710756],[-84.38381,38.710307],[-84.38904,38.711454],[-84.391623,38.71238],[-84.395229,38.711308],[-84.39797,38.708876],[-84.403334,38.707264],[-84.405314,38.707307],[-84.408858,38.708748],[-84.4148,38.712431],[-84.417698,38.713442],[-84.418591,38.715151],[-84.418531,38.716875],[-84.419583,38.717606],[-84.422267,38.71895],[-84.422214,38.720588],[-84.419003,38.721812],[-84.418155,38.725154],[-84.419136,38.726619],[-84.424391,38.727804],[-84.427618,38.729183],[-84.430559,38.728638],[-84.436308,38.729061],[-84.438763,38.728755],[-84.440857,38.730799],[-84.438802,38.728315],[-84.436075,38.728743],[-84.431589,38.72838],[-84.428632,38.727128],[-84.427142,38.727332],[-84.426327,38.725108],[-84.427056,38.72435],[-84.43121,38.722943],[-84.432523,38.721161],[-84.431453,38.719946],[-84.427073,38.719246],[-84.42477,38.717843],[-84.425505,38.715288],[-84.427624,38.713438],[-84.428773,38.714445],[-84.432326,38.715641],[-84.436071,38.716209],[-84.437717,38.715573],[-84.436777,38.712069],[-84.437463,38.710695],[-84.440935,38.708577],[-84.444366,38.709942],[-84.446262,38.711846],[-84.44876,38.710408],[-84.444707,38.70868],[-84.444684,38.707059],[-84.447064,38.705917],[-84.446264,38.704476],[-84.446727,38.703333],[-84.445662,38.701794],[-84.446972,38.701061]]]}},{"type":"Feature","properties":{"zcta5":"41064","AFFGEOID10":"8600000US41064","GEOID10":"41064","ALAND10":221611867,"AWATER10":413455,"county_name":"Bracken","state_code":"KY","county_state":"Bracken County, KY","county_fips":"21023","risk_level_county":"Medium Risk (70–79% vaccinated)","mean_vaccination_rate_county":75.21,"risk_level_zcta":"Medium Risk (70–79% vaccinated)","mean_vaccination_rate_zips":78.04,"cases":13},"geometry":{"type":"Polygon","coordinates":[[[-84.01888,38.584064],[-84.019141,38.581578],[-84.018191,38.57977],[-84.020065,38.579953],[-84.021806,38.581002],[-84.023961,38.581471],[-84.026679,38.57632],[-84.029061,38.575159],[-84.032341,38.569486],[-84.031955,38.568007],[-84.032765,38.566519],[-84.066395,38.565597],[-84.069359,38.567834],[-84.070072,38.569108],[-84.069037,38.570645],[-84.070506,38.571682],[-84.068499,38.57461],[-84.068639,38.57578],[-84.071703,38.579271],[-84.073355,38.577583],[-84.075791,38.577099],[-84.076932,38.574541],[-84.0789,38.572888],[-84.079718,38.570503],[-84.082292,38.570418],[-84.085146,38.572318],[-84.089204,38.571951],[-84.090515,38.570718],[-84.093392,38.571569],[-84.098588,38.570959],[-84.101221,38.569907],[-84.102781,38.569901],[-84.104978,38.571306],[-84.105356,38.572784],[-84.104763,38.574526],[-84.102575,38.574819],[-84.102394,38.5759],[-84.103863,38.578117],[-84.106079,38.577442],[-84.107855,38.579868],[-84.108932,38.57834],[-84.109625,38.575474],[-84.112038,38.573772],[-84.114422,38.571097],[-84.122596,38.570136],[-84.124813,38.568465],[-84.122315,38.564155],[-84.124842,38.562455],[-84.154861,38.564516],[-84.163435,38.564591],[-84.189147,38.563431],[-84.19272,38.563724],[-84.192448,38.562697],[-84.189569,38.562995],[-84.18722,38.560947],[-84.1857,38.560199],[-84.183523,38.560046],[-84.181159,38.557501],[-84.179633,38.558448],[-84.176516,38.557916],[-84.174458,38.558477],[-84.173102,38.557534],[-84.170214,38.558761],[-84.16735,38.558822],[-84.16252,38.55584],[-84.162031,38.554125],[-84.161857,38.552531],[-84.163898,38.548093],[-84.163749,38.546585],[-84.164429,38.545061],[-84.163394,38.542387],[-84.163577,38.539495],[-84.172755,38.534343],[-84.176587,38.534187],[-84.178484,38.532774],[-84.178511,38.527508],[-84.17927,38.52572],[-84.179631,38.522319],[-84.181752,38.519599],[-84.182528,38.519416],[-84.182975,38.515273],[-84.182192,38.50855],[-84.18263,38.503953],[-84.183673,38.50059],[-84.183689,38.49741],[-84.181323,38.49611],[-84.179084,38.496452],[-84.177715,38.497892],[-84.176664,38.501106],[-84.173679,38.502111],[-84.168377,38.501865],[-84.162181,38.501949],[-84.159033,38.500292],[-84.158244,38.499282],[-84.158065,38.497309],[-84.158567,38.496397],[-84.160659,38.4953],[-84.163379,38.494933],[-84.168595,38.494847],[-84.172086,38.493607],[-84.174076,38.491191],[-84.174258,38.488867],[-84.173823,38.48791],[-84.170899,38.485957],[-84.166211,38.485059],[-84.164871,38.485171],[-84.158088,38.487389],[-84.154273,38.489599],[-84.152209,38.490053],[-84.151135,38.489207],[-84.151975,38.485056],[-84.151992,38.482282],[-84.151501,38.48108],[-84.149307,38.478423],[-84.148411,38.476752],[-84.142189,38.476118],[-84.14114,38.476769],[-84.140231,38.478706],[-84.138513,38.480656],[-84.135086,38.482643],[-84.132184,38.483181],[-84.13095,38.482601],[-84.130478,38.481044],[-84.131862,38.477821],[-84.132163,38.476223],[-84.131519,38.474943],[-84.12893,38.475123],[-84.126415,38.476421],[-84.123542,38.476311],[-84.121206,38.475149],[-84.117416,38.472344],[-84.113864,38.470878],[-84.109061,38.469778],[-84.106226,38.468739],[-84.104501,38.464908],[-84.10422,38.461099],[-84.103753,38.460042],[-84.1021,38.459379],[-84.097088,38.460612],[-84.095798,38.460498],[-84.092752,38.458949],[-84.087516,38.454805],[-84.085097,38.454642],[-84.081698,38.456152],[-84.077042,38.456545],[-84.073362,38.457407],[-84.071162,38.456871],[-84.066998,38.454676],[-84.060518,38.453198],[-84.057299,38.452784],[-84.055708,38.452114],[-84.052624,38.449923],[-84.046247,38.448113],[-84.044878,38.447948],[-84.039162,38.445588],[-84.034145,38.443199],[-84.03153,38.441308],[-84.029755,38.440637],[-84.025873,38.441714],[-84.022261,38.444569],[-84.018996,38.445671],[-84.017289,38.445352],[-84.014935,38.442629],[-84.010146,38.432872],[-84.009222,38.431942],[-84.006397,38.431001],[-84.004119,38.431339],[-84.002954,38.432481],[-84.00289,38.435304],[-84.004013,38.438585],[-84.003644,38.440553],[-84.002767,38.441283],[-83.999642,38.441698],[-83.997812,38.442062],[-83.993526,38.441452],[-83.991485,38.444321],[-83.991833,38.440393],[-83.990705,38.438791],[-83.991254,38.43481],[-83.987032,38.434829],[-83.98145,38.436226],[-83.97993,38.437791],[-83.980068,38.439448],[-83.982642,38.441221],[-83.983999,38.443243],[-83.984282,38.445493],[-83.98246,38.450027],[-83.982823,38.451825],[-83.981394,38.453171],[-83.977069,38.45429],[-83.976096,38.454839],[-83.9731,38.459129],[-83.972026,38.461538],[-83.970263,38.463817],[-83.948473,38.479355],[-83.930348,38.492278],[-83.942271,38.50451],[-83.960936,38.532713],[-83.962185,38.540973],[-83.969798,38.537804],[-83.967546,38.534449],[-83.968436,38.533634],[-83.96832,38.531775],[-83.973239,38.530538],[-83.975693,38.530822],[-83.977055,38.532024],[-83.98049,38.533541],[-83.984067,38.532097],[-83.986215,38.53058],[-83.987821,38.530297],[-83.991267,38.527471],[-83.993102,38.527131],[-83.995088,38.529268],[-83.999063,38.531068],[-84.001911,38.530019],[-84.003528,38.530115],[-84.009013,38.528868],[-84.010999,38.529121],[-84.012205,38.530233],[-84.014148,38.530945],[-84.014067,38.532141],[-84.011793,38.53679],[-84.012571,38.537792],[-84.012245,38.539748],[-84.010999,38.540824],[-84.009424,38.543163],[-84.009721,38.544787],[-84.009116,38.547979],[-84.010218,38.550935],[-84.008173,38.552406],[-84.008415,38.553727],[-84.00751,38.554808],[-84.004573,38.556543],[-84.002367,38.55482],[-83.998831,38.553941],[-83.996108,38.551858],[-83.993628,38.554438],[-83.99277,38.556065],[-83.991214,38.55743],[-83.98987,38.559481],[-83.99045,38.561992],[-83.991831,38.563225],[-83.991908,38.564394],[-83.98943,38.567664],[-83.991811,38.567932],[-83.996766,38.572335],[-84.000072,38.573014],[-83.99981,38.575507],[-84.001251,38.576364],[-84.0015,38.578429],[-84.002724,38.57919],[-84.002372,38.581776],[-84.004454,38.58341],[-84.007236,38.584621],[-84.005541,38.587308],[-84.00683,38.589118],[-84.008132,38.585576],[-84.009052,38.584752],[-84.015032,38.583621],[-84.01888,38.584064]]]}},{"type":"Feature","properties":{"zcta5":"41002","AFFGEOID10":"8600000US41002","GEOID10":"41002","ALAND10":114383102,"AWATER10":5941054,"county_name":"Bracken","state_code":"KY","county_state":"Bracken County, KY","county_fips":"21023","risk_level_county":"Medium Risk (70–79% vaccinated)","mean_vaccination_rate_county":75.21,"risk_level_zcta":"Lower Risk (80–84% vaccinated)","mean_vaccination_rate_zips":84.35,"cases":13},"geometry":{"type":"Polygon","coordinates":[[[-84.070949,38.765919],[-84.072571,38.762951],[-84.071688,38.760572],[-84.069348,38.759422],[-84.066115,38.759093],[-84.062875,38.759481],[-84.061281,38.760545],[-84.059149,38.760322],[-84.052331,38.755926],[-84.052821,38.753718],[-84.051145,38.751327],[-84.049139,38.75059],[-84.048738,38.748932],[-84.045982,38.747182],[-84.04672,38.74613],[-84.049094,38.745144],[-84.050166,38.744032],[-84.051981,38.743608],[-84.053899,38.741624],[-84.054569,38.739055],[-84.055989,38.737073],[-84.055533,38.734106],[-84.036022,38.730997],[-84.03152,38.731],[-84.022019,38.732102],[-84.017546,38.724809],[-84.015414,38.721678],[-84.031545,38.726873],[-84.040202,38.724742],[-84.03823,38.722169],[-84.033565,38.722878],[-84.030387,38.720517],[-84.031034,38.719207],[-84.02861,38.71658],[-84.031576,38.714883],[-84.036553,38.713257],[-84.037942,38.711805],[-84.044166,38.707681],[-84.048866,38.707548],[-84.050302,38.707007],[-84.052299,38.703851],[-84.050681,38.704235],[-84.048643,38.703011],[-84.044622,38.701956],[-84.043802,38.70464],[-84.04088,38.704475],[-84.038808,38.702723],[-84.035628,38.701608],[-84.032286,38.70226],[-84.029793,38.701573],[-84.02784,38.699317],[-84.027588,38.697697],[-84.02495,38.694546],[-84.026402,38.690857],[-84.023967,38.685982],[-84.024465,38.684665],[-84.022834,38.683951],[-84.022541,38.681722],[-84.019986,38.6798],[-84.01744,38.676209],[-84.014831,38.670676],[-84.012743,38.66437],[-84.009219,38.663486],[-84.004207,38.66388],[-84.001915,38.664541],[-84.000202,38.6668],[-83.996595,38.669515],[-83.992284,38.668854],[-83.991442,38.668186],[-83.984357,38.665067],[-83.982036,38.663037],[-83.982849,38.665027],[-83.98019,38.663453],[-83.975191,38.661809],[-83.974365,38.662028],[-83.972973,38.665333],[-83.971763,38.666744],[-83.968676,38.668771],[-83.96542,38.668903],[-83.965536,38.662344],[-83.96443,38.660428],[-83.964539,38.65784],[-83.960746,38.657591],[-83.90391694448489,38.7681517942292],[-83.903971,38.76816],[-83.912922,38.769763],[-83.9158594022605,38.769695976619005],[-83.917217,38.769665],[-83.926986,38.771562],[-83.928591,38.772203],[-83.928454,38.774583],[-83.943978,38.783616],[-83.953546,38.786172],[-83.9590529004392,38.7869501699117],[-83.962123,38.787384],[-83.9751284574631,38.7871658268474],[-83.978814,38.787104],[-83.995447,38.781912],[-84.006104,38.780156],[-84.023113,38.775061],[-84.0358530163388,38.7723851971953],[-84.034848,38.769719],[-84.03348,38.768747],[-84.028654,38.768041],[-84.029036,38.767438],[-84.041457,38.766524],[-84.051385,38.766101],[-84.055266,38.766246],[-84.066192,38.766184],[-84.070949,38.765919]]]}},{"type":"Feature","properties":{"zcta5":"41034","AFFGEOID10":"8600000US41034","GEOID10":"41034","ALAND10":72457852,"AWATER10":3520684,"county_name":"Bracken","state_code":"KY","county_state":"Bracken County, KY","county_fips":"21023","risk_level_county":"Medium Risk (70–79% vaccinated)","mean_vaccination_rate_county":75.21,"risk_level_zcta":"Medium Risk (70–79% vaccinated)","mean_vaccination_rate_zips":75.58,"cases":13},"geometry":{"type":"Polygon","coordinates":[[[-83.960746,38.657591],[-83.962197,38.654731],[-83.961008,38.654844],[-83.960146,38.657533],[-83.958206,38.658831],[-83.950819,38.658976],[-83.945929,38.659466],[-83.943139,38.660321],[-83.940636,38.660324],[-83.934697,38.657858],[-83.931059,38.656066],[-83.92542,38.65447],[-83.923183,38.654182],[-83.920331,38.654218],[-83.91583,38.655946],[-83.913146,38.656423],[-83.912212,38.660075],[-83.912016,38.662469],[-83.910872,38.6653],[-83.903908,38.6604],[-83.900784,38.66208],[-83.89477,38.662693],[-83.891744,38.664059],[-83.889593,38.666677],[-83.890019,38.669306],[-83.887321,38.672116],[-83.886949,38.67346],[-83.884098,38.674612],[-83.880722,38.675429],[-83.878555,38.679918],[-83.877453,38.683337],[-83.874978,38.683496],[-83.872079,38.684546],[-83.870612,38.686902],[-83.8723,38.6881],[-83.871135,38.689449],[-83.866669,38.69029],[-83.86292,38.692408],[-83.856638,38.68899],[-83.851741,38.68572],[-83.849498,38.685235],[-83.844546,38.68512],[-83.84541,38.690153],[-83.844009,38.693747],[-83.840945,38.697025],[-83.840336,38.699937],[-83.842558,38.703654],[-83.842656,38.705286],[-83.845073,38.707479],[-83.848192,38.710997],[-83.848182,38.713973],[-83.847576,38.714552],[-83.84755,38.71706],[-83.848251,38.718455],[-83.845396,38.722462],[-83.848764,38.735357],[-83.850589,38.737909],[-83.849991,38.737489],[-83.847154,38.738219],[-83.845426,38.73409],[-83.843228,38.725859],[-83.8422293761913,38.72608619878459],[-83.8423708415668,38.7265632331905],[-83.842506,38.727019],[-83.84274,38.730365],[-83.844676,38.737439],[-83.8459288266171,38.7414086028214],[-83.846207,38.74229],[-83.848734,38.747178],[-83.852085,38.751433],[-83.853814741182,38.752768361189005],[-83.859028,38.756793],[-83.86653,38.7602],[-83.873168,38.762418],[-83.887107,38.7656],[-83.90391694448489,38.7681517942292],[-83.960746,38.657591]],[[-83.925138,38.704978],[-83.92373,38.707811],[-83.919062,38.705572],[-83.920188,38.702583],[-83.92221,38.70012],[-83.927619,38.703543],[-83.925138,38.704978]]]}},{"type":"Feature","properties":{"zcta5":"41044","AFFGEOID10":"8600000US41044","GEOID10":"41044","ALAND10":81294351,"AWATER10":89651,"county_name":"Bracken","state_code":"KY","county_state":"Bracken County, KY","county_fips":"21023","risk_level_county":"Medium Risk (70–79% vaccinated)","mean_vaccination_rate_county":75.21,"risk_level_zcta":"Lower Risk (80–84% vaccinated)","mean_vaccination_rate_zips":83.87,"cases":13},"geometry":{"type":"Polygon","coordinates":[[[-84.004207,38.66388],[-84.003155,38.662984],[-84.004178,38.657203],[-84.005876,38.654358],[-84.009113,38.652858],[-84.01066,38.649686],[-84.010596,38.645851],[-84.011452,38.643931],[-84.013258,38.642437],[-84.015566,38.639757],[-84.017421,38.636244],[-84.019034,38.63446],[-84.017549,38.633575],[-84.018321,38.632969],[-84.019054,38.630707],[-84.018785,38.629599],[-84.015489,38.627171],[-84.014878,38.625602],[-84.015348,38.623876],[-84.013608,38.622598],[-84.013021,38.620787],[-84.01135,38.620126],[-84.011924,38.616994],[-84.010506,38.615499],[-84.010128,38.614073],[-84.010511,38.611801],[-84.009914,38.610756],[-84.009687,38.606466],[-84.009234,38.603864],[-84.012445,38.600284],[-84.015175,38.597769],[-84.015104,38.594787],[-84.018436,38.595363],[-84.019778,38.594818],[-84.017986,38.594161],[-84.015784,38.590528],[-84.016826,38.587815],[-84.020055,38.586213],[-84.020461,38.585165],[-84.01888,38.584064],[-84.015032,38.583621],[-84.009052,38.584752],[-84.008132,38.585576],[-84.00683,38.589118],[-84.005541,38.587308],[-84.007236,38.584621],[-84.004454,38.58341],[-84.002372,38.581776],[-84.002724,38.57919],[-84.0015,38.578429],[-84.001251,38.576364],[-83.99981,38.575507],[-84.000072,38.573014],[-83.996766,38.572335],[-83.991811,38.567932],[-83.98943,38.567664],[-83.991908,38.564394],[-83.991831,38.563225],[-83.99045,38.561992],[-83.98987,38.559481],[-83.991214,38.55743],[-83.99277,38.556065],[-83.993628,38.554438],[-83.996108,38.551858],[-83.998831,38.553941],[-84.002367,38.55482],[-84.004573,38.556543],[-84.00751,38.554808],[-84.008415,38.553727],[-84.008173,38.552406],[-84.010218,38.550935],[-84.009116,38.547979],[-84.009721,38.544787],[-84.009424,38.543163],[-84.010999,38.540824],[-84.012245,38.539748],[-84.012571,38.537792],[-84.011793,38.53679],[-84.014067,38.532141],[-84.014148,38.530945],[-84.012205,38.530233],[-84.010999,38.529121],[-84.009013,38.528868],[-84.003528,38.530115],[-84.001911,38.530019],[-83.999063,38.531068],[-83.995088,38.529268],[-83.993102,38.527131],[-83.991267,38.527471],[-83.987821,38.530297],[-83.986215,38.53058],[-83.984067,38.532097],[-83.98049,38.533541],[-83.977055,38.532024],[-83.975693,38.530822],[-83.973239,38.530538],[-83.96832,38.531775],[-83.968436,38.533634],[-83.967546,38.534449],[-83.969798,38.537804],[-83.962185,38.540973],[-83.9683,38.58277],[-83.962686,38.587835],[-83.961834,38.590498],[-83.960582,38.591931],[-83.959624,38.591492],[-83.959595,38.58923],[-83.957965,38.588429],[-83.954433,38.588759],[-83.952706,38.590544],[-83.951406,38.590566],[-83.94951,38.58932],[-83.948719,38.587245],[-83.947845,38.587108],[-83.945558,38.588327],[-83.941166,38.587943],[-83.937676,38.588487],[-83.936501,38.5897],[-83.937383,38.592379],[-83.935739,38.592779],[-83.933151,38.592126],[-83.932102,38.590875],[-83.931752,38.589184],[-83.93085,38.588311],[-83.927234,38.590458],[-83.924793,38.593175],[-83.923743,38.593482],[-83.923623,38.594921],[-83.925987,38.592439],[-83.929919,38.590031],[-83.933099,38.59245],[-83.936225,38.593027],[-83.937229,38.593976],[-83.936515,38.595524],[-83.932466,38.597352],[-83.93206,38.599142],[-83.929779,38.600728],[-83.927709,38.601063],[-83.926233,38.602095],[-83.926135,38.605646],[-83.924763,38.607732],[-83.922245,38.609555],[-83.921629,38.61214],[-83.922573,38.615258],[-83.924301,38.61662],[-83.925689,38.618953],[-83.927375,38.61945],[-83.92712,38.622669],[-83.928814,38.623651],[-83.92838,38.626191],[-83.930633,38.628645],[-83.928393,38.630478],[-83.929268,38.631384],[-83.929246,38.636483],[-83.930261,38.6392],[-83.929652,38.642203],[-83.930764,38.646512],[-83.929546,38.647599],[-83.926837,38.647528],[-83.922998,38.652316],[-83.923183,38.654182],[-83.92542,38.65447],[-83.931059,38.656066],[-83.934697,38.657858],[-83.940636,38.660324],[-83.943139,38.660321],[-83.945929,38.659466],[-83.950819,38.658976],[-83.958206,38.658831],[-83.960146,38.657533],[-83.961008,38.654844],[-83.962197,38.654731],[-83.960746,38.657591],[-83.964539,38.65784],[-83.96443,38.660428],[-83.965536,38.662344],[-83.96542,38.668903],[-83.968676,38.668771],[-83.971763,38.666744],[-83.972973,38.665333],[-83.974365,38.662028],[-83.975191,38.661809],[-83.98019,38.663453],[-83.982849,38.665027],[-83.982036,38.663037],[-83.984357,38.665067],[-83.991442,38.668186],[-83.992284,38.668854],[-83.996595,38.669515],[-84.000202,38.6668],[-84.001915,38.664541],[-84.004207,38.66388]]]}},{"type":"Feature","properties":{"zcta5":"41043","AFFGEOID10":"8600000US41043","GEOID10":"41043","ALAND10":125273836,"AWATER10":9531873,"county_name":"Bracken","state_code":"KY","county_state":"Bracken County, KY","county_fips":"21023","risk_level_county":"Medium Risk (70–79% vaccinated)","mean_vaccination_rate_county":75.21,"risk_level_zcta":"Medium Risk (70–79% vaccinated)","mean_vaccination_rate_zips":75.38,"cases":13},"geometry":{"type":"Polygon","coordinates":[[[-84.241435,38.836348],[-84.241845,38.835272],[-84.241223,38.831133],[-84.242698,38.833983],[-84.244891,38.833312],[-84.264613,38.810562],[-84.261128,38.808035],[-84.26461,38.805539],[-84.26678,38.8019],[-84.266067,38.798936],[-84.266804,38.798338],[-84.270491,38.793091],[-84.271617,38.793437],[-84.271613,38.791054],[-84.27227,38.790024],[-84.271297,38.788704],[-84.273758,38.787083],[-84.278178,38.777609],[-84.276382,38.776403],[-84.278797,38.774857],[-84.280572,38.774517],[-84.283378,38.771866],[-84.285574,38.77078],[-84.286948,38.771378],[-84.288898,38.770264],[-84.290021,38.767075],[-84.289222,38.765088],[-84.285471,38.763654],[-84.284399,38.760936],[-84.283138,38.760338],[-84.283237,38.758262],[-84.281786,38.7565],[-84.28464,38.75504],[-84.284332,38.753283],[-84.284929,38.751763],[-84.283024,38.749844],[-84.284721,38.747621],[-84.28297,38.745677],[-84.286454,38.744278],[-84.287921,38.741479],[-84.287298,38.738964],[-84.284227,38.740204],[-84.283357,38.741499],[-84.278617,38.744243],[-84.277536,38.747031],[-84.274494,38.746926],[-84.272434,38.744866],[-84.270605,38.744009],[-84.268619,38.742225],[-84.245105,38.748505],[-84.245162,38.751765],[-84.243752,38.753711],[-84.243814,38.755033],[-84.241442,38.756926],[-84.240523,38.759937],[-84.238127,38.764283],[-84.237964,38.7672],[-84.238404,38.768635],[-84.237156,38.771389],[-84.234154,38.773956],[-84.232143,38.774875],[-84.229488,38.774587],[-84.220495,38.705227],[-84.226004,38.706665],[-84.234355,38.706234],[-84.234902,38.706734],[-84.234721,38.70888],[-84.235682,38.709846],[-84.240551,38.70963],[-84.245287,38.709711],[-84.247052,38.708562],[-84.247946,38.704752],[-84.24941,38.704241],[-84.252898,38.705462],[-84.255181,38.706765],[-84.256618,38.70659],[-84.259771,38.705312],[-84.259878,38.703517],[-84.261414,38.701695],[-84.264847,38.701186],[-84.266375,38.699573],[-84.265605,38.699205],[-84.261892,38.699351],[-84.257975,38.700058],[-84.2564,38.698953],[-84.254431,38.698499],[-84.253754,38.696207],[-84.252501,38.695306],[-84.249381,38.694656],[-84.249058,38.693421],[-84.246731,38.692016],[-84.243835,38.687708],[-84.24277,38.687303],[-84.241532,38.688675],[-84.242002,38.690333],[-84.237983,38.69314],[-84.235707,38.6933],[-84.232105,38.690672],[-84.230676,38.691271],[-84.226397,38.691585],[-84.222726,38.6909],[-84.224188,38.687134],[-84.222562,38.684488],[-84.221147,38.683187],[-84.217714,38.682288],[-84.214597,38.681794],[-84.209988,38.683359],[-84.205788,38.682083],[-84.202367,38.683539],[-84.193678,38.68791],[-84.181055,38.692368],[-84.176184,38.694515],[-84.171327,38.699149],[-84.169342,38.697912],[-84.169903,38.699302],[-84.170558,38.705335],[-84.170179,38.707095],[-84.167663,38.708599],[-84.165413,38.711207],[-84.16547,38.714634],[-84.16415,38.716605],[-84.162083,38.718055],[-84.163495,38.719969],[-84.163357,38.723215],[-84.165563,38.728594],[-84.164132,38.728975],[-84.161376,38.731406],[-84.158082,38.732009],[-84.155138,38.733419],[-84.152846,38.733572],[-84.149292,38.73463],[-84.148352,38.736117],[-84.148693,38.73934],[-84.14739,38.739795],[-84.146974,38.742254],[-84.144282,38.742873],[-84.140426,38.744913],[-84.140116,38.74656],[-84.138672,38.74718],[-84.136849,38.746899],[-84.135334,38.747864],[-84.134924,38.751938],[-84.126522,38.750422],[-84.122308,38.749328],[-84.112512,38.74785],[-84.10759,38.746842],[-84.103415,38.746358],[-84.102945,38.744226],[-84.102502,38.745857],[-84.103192,38.747887],[-84.10265,38.75069],[-84.101535,38.752489],[-84.102867,38.755908],[-84.101878,38.758606],[-84.10207,38.760474],[-84.103864,38.762091],[-84.104169,38.764651],[-84.106126,38.766725],[-84.104781,38.769835],[-84.10098,38.768949],[-84.096287,38.768476],[-84.092709,38.767729],[-84.08577,38.767322],[-84.081067,38.766372],[-84.076217,38.766806],[-84.070949,38.765919],[-84.066192,38.766184],[-84.055266,38.766246],[-84.051385,38.766101],[-84.041457,38.766524],[-84.029036,38.767438],[-84.028654,38.768041],[-84.03348,38.768747],[-84.034848,38.769719],[-84.0358530163388,38.7723851971953],[-84.044486,38.770572],[-84.051642,38.771397],[-84.052684882421,38.7713751994327],[-84.06341,38.771151],[-84.071491,38.770475],[-84.094334,38.775246],[-84.108836,38.779247],[-84.115655,38.782721],[-84.12189540309859,38.784893082877495],[-84.1315122843526,38.788240408807695],[-84.13178725251001,38.7883361163473],[-84.135088,38.789485],[-84.1518995647789,38.7938638862544],[-84.155912,38.794909],[-84.198358,38.80092],[-84.205592,38.802588],[-84.21104897212238,38.8049157210134],[-84.212904,38.805707],[-84.222059,38.813753],[-84.2253,38.817665],[-84.22732022752,38.821341226353795],[-84.230181,38.826547],[-84.23042691143739,38.8274224447174],[-84.234103,38.824062],[-84.238849,38.837298],[-84.241435,38.836348]]]}}]}