{"type":"FeatureCollection","features":[{"type":"Feature","properties":{"zcta5":"77859","AFFGEOID10":"8600000US77859","GEOID10":"77859","ALAND10":439037086,"AWATER10":4075071,"county_name":"Brazos","state_code":"TX","county_state":"Brazos County, TX","county_fips":"48041","risk_level_county":"Higher Risk (60–69% vaccinated)","mean_vaccination_rate_county":67.52,"risk_level_zcta":"Higher Risk (60–69% vaccinated)","mean_vaccination_rate_zips":66.37,"cases":803},"geometry":{"type":"Polygon","coordinates":[[[-96.619246,30.966053],[-96.620504,30.966732],[-96.622316,30.966484],[-96.622831,30.964615],[-96.625399,30.961851],[-96.627556,30.961027],[-96.62711,30.959977],[-96.630442,30.955938],[-96.633683,30.955517],[-96.636298,30.955754],[-96.637926,30.95316],[-96.64132,30.951441],[-96.646597,30.947738],[-96.648466,30.946095],[-96.648156,30.942159],[-96.650733,30.939411],[-96.651124,30.936679],[-96.653082,30.933964],[-96.655098,30.932541],[-96.656795,30.929886],[-96.656554,30.928929],[-96.657957,30.927303],[-96.657594,30.9265],[-96.658086,30.923514],[-96.660593,30.924054],[-96.661727,30.92371],[-96.682318,30.913295],[-96.683092,30.915847],[-96.689217,30.924883],[-96.690018,30.924365],[-96.704948,30.916319],[-96.703341,30.91446],[-96.700877,30.912415],[-96.696543,30.910873],[-96.696693,30.909038],[-96.692358,30.909266],[-96.689461,30.908657],[-96.687,30.907594],[-96.68497,30.906191],[-96.683875,30.904356],[-96.683236,30.901954],[-96.684194,30.898722],[-96.68589,30.897021],[-96.687021,30.89654],[-96.689935,30.896649],[-96.692862,30.897725],[-96.694478,30.898743],[-96.697221,30.898417],[-96.697034,30.896667],[-96.695712,30.892557],[-96.692466,30.88965],[-96.688833,30.887907],[-96.68693,30.88756],[-96.684522,30.885359],[-96.683776,30.884046],[-96.681372,30.881659],[-96.681225,30.87985],[-96.682902,30.878067],[-96.684563,30.878003],[-96.686255,30.879698],[-96.687416,30.879917],[-96.693482,30.879318],[-96.694481,30.878749],[-96.695877,30.87519],[-96.695758,30.871352],[-96.695343,30.869696],[-96.695605,30.867198],[-96.694853,30.864517],[-96.691516,30.859923],[-96.689504,30.85811],[-96.686778,30.856538],[-96.683738,30.853795],[-96.682218,30.851606],[-96.679176,30.844048],[-96.677071,30.842552],[-96.674703,30.842399],[-96.671885,30.842727],[-96.670274,30.842096],[-96.66911,30.840178],[-96.66926,30.838537],[-96.670441,30.835836],[-96.670192,30.833871],[-96.668117,30.83266],[-96.664098,30.831196],[-96.662182,30.830832],[-96.660471,30.829361],[-96.654461,30.827999],[-96.651681,30.827142],[-96.647997,30.825159],[-96.645478,30.823231],[-96.643788,30.82139],[-96.64128,30.818051],[-96.637918,30.811184],[-96.635945,30.804285],[-96.635818,30.800535],[-96.636244,30.79674],[-96.63794,30.794391],[-96.641132,30.792699],[-96.642955,30.792492],[-96.645906,30.791535],[-96.647545,30.790377],[-96.648968,30.787763],[-96.649506,30.784722],[-96.648322,30.780966],[-96.646804,30.779113],[-96.644641,30.777775],[-96.642288,30.776886],[-96.639056,30.778106],[-96.636236,30.780924],[-96.633202,30.783038],[-96.632196,30.783038],[-96.626876,30.781649],[-96.62445,30.779985],[-96.622972,30.776379],[-96.622082,30.772341],[-96.62058,30.76966],[-96.618487,30.767137],[-96.61601,30.763082],[-96.611401,30.758851],[-96.611097,30.757354],[-96.612126,30.752746],[-96.616126,30.748746],[-96.61912,30.747693],[-96.621927,30.747763],[-96.626442,30.749518],[-96.628547,30.747623],[-96.629439,30.745713],[-96.63182,30.743241],[-96.632729,30.741043],[-96.628949,30.737144],[-96.624663,30.734357],[-96.622888,30.732748],[-96.621281,30.730819],[-96.620456,30.729549],[-96.618234,30.728638],[-96.616345,30.728477],[-96.607327,30.72941],[-96.604042,30.729311],[-96.599467,30.728634],[-96.596157,30.726641],[-96.594632,30.724273],[-96.594436,30.721216],[-96.596977,30.717452],[-96.596467,30.71564],[-96.595776,30.715072],[-96.591914,30.713811],[-96.586945,30.71077],[-96.583667,30.709187],[-96.577609,30.706953],[-96.573363,30.704821],[-96.570369,30.702942],[-96.568795,30.701387],[-96.567405,30.698257],[-96.566983,30.69567],[-96.550549,30.702982],[-96.554508,30.711492],[-96.556321,30.71642],[-96.557799,30.727935],[-96.559503,30.728379],[-96.569319,30.723283],[-96.570805,30.725482],[-96.567304,30.727497],[-96.570245,30.731592],[-96.566159,30.73376],[-96.570208,30.741146],[-96.571095,30.744379],[-96.577432,30.756071],[-96.577686,30.758035],[-96.57522,30.768546],[-96.575428,30.770626],[-96.55,30.784792],[-96.549256,30.785468],[-96.548485,30.78552],[-96.550933,30.780197],[-96.55208,30.774371],[-96.551781,30.772897],[-96.550145,30.76972],[-96.548325,30.767142],[-96.546415,30.765509],[-96.545404,30.763084],[-96.543762,30.761732],[-96.541451,30.760814],[-96.53832,30.760851],[-96.532923,30.758564],[-96.526532,30.7581],[-96.527359,30.75915],[-96.525137,30.760084],[-96.523749,30.762266],[-96.523372,30.76602],[-96.523792,30.766856],[-96.522295,30.768318],[-96.522351,30.769023],[-96.534971,30.786781],[-96.534618,30.789674],[-96.537302,30.790098],[-96.538083,30.791224],[-96.536561,30.796387],[-96.536468,30.799703],[-96.535509,30.80184],[-96.53376,30.803241],[-96.531004,30.806314],[-96.527648,30.808221],[-96.528173,30.811315],[-96.534032,30.822007],[-96.531552,30.823249],[-96.534948,30.829287],[-96.531469,30.830372],[-96.558148,30.848326],[-96.558965,30.847986],[-96.561314,30.848999],[-96.56295,30.85039],[-96.561625,30.851022],[-96.560019,30.855892],[-96.55805,30.857294],[-96.557273,30.85615],[-96.554354,30.856392],[-96.552564,30.857788],[-96.550767,30.856655],[-96.548403,30.857051],[-96.546772,30.855989],[-96.545071,30.855835],[-96.542293,30.856665],[-96.538074,30.859137],[-96.535028,30.859307],[-96.535155,30.861434],[-96.535964,30.861863],[-96.534842,30.862775],[-96.533268,30.862709],[-96.531325,30.861785],[-96.528719,30.862785],[-96.527252,30.864032],[-96.522772,30.866015],[-96.519364,30.862864],[-96.519187,30.860253],[-96.517462,30.858179],[-96.515423,30.857574],[-96.514813,30.855315],[-96.51591,30.852984],[-96.506795,30.847062],[-96.506054,30.84856],[-96.505111,30.854767],[-96.488902,30.850332],[-96.486247,30.847281],[-96.485292,30.847809],[-96.484808,30.849243],[-96.482331,30.851806],[-96.483778,30.85518],[-96.483461,30.857456],[-96.479474,30.862135],[-96.476869,30.866011],[-96.473906,30.865874],[-96.472677,30.867281],[-96.473053,30.868461],[-96.430162,30.853522],[-96.398138,30.841176],[-96.391042,30.854538],[-96.388201,30.862029],[-96.378708,30.858468],[-96.375933,30.857238],[-96.374435,30.859358],[-96.373041,30.862733],[-96.381664,30.870026],[-96.382611,30.870342],[-96.374133,30.87692],[-96.365642,30.884547],[-96.364856,30.885641],[-96.363615,30.884896],[-96.359107,30.88152],[-96.353192,30.88623],[-96.345846,30.88013],[-96.340373,30.884124],[-96.335963,30.880662],[-96.329713,30.888889],[-96.327959,30.889545],[-96.326588,30.891116],[-96.324397,30.890778],[-96.31935,30.891295],[-96.318231,30.890974],[-96.315001,30.886232],[-96.312937,30.884737],[-96.309862,30.880685],[-96.307094,30.878688],[-96.304071,30.877155],[-96.302595,30.879684],[-96.297314,30.887525],[-96.296476,30.88851],[-96.278965,30.903538],[-96.275357,30.909798],[-96.269013,30.91283],[-96.263037,30.915218],[-96.265139,30.917405],[-96.264018,30.919654],[-96.262655,30.920668],[-96.260347,30.921309],[-96.258362,30.922587],[-96.248058,30.923096],[-96.245788,30.924503],[-96.243847,30.924863],[-96.241114,30.923977],[-96.24006,30.923035],[-96.237148,30.92284],[-96.23346,30.924158],[-96.225108,30.926666],[-96.22345,30.927305],[-96.220497,30.92677],[-96.215504,30.927291],[-96.212312,30.926154],[-96.205285,30.924684],[-96.204498,30.924248],[-96.201836,30.925572],[-96.204537,30.928231],[-96.203613,30.928592],[-96.202837,30.933193],[-96.199981,30.930717],[-96.198234,30.931861],[-96.200361,30.933265],[-96.201032,30.934599],[-96.201741,30.937683],[-96.202538,30.938752],[-96.205309,30.940015],[-96.207187,30.944104],[-96.206664,30.945663],[-96.207983,30.94753],[-96.209926,30.947181],[-96.211912,30.94896],[-96.213334,30.949535],[-96.218614,30.950653],[-96.219254,30.951861],[-96.220348,30.951995],[-96.225424,30.951344],[-96.227567,30.951873],[-96.229123,30.953298],[-96.231729,30.954802],[-96.234629,30.959308],[-96.23734,30.960358],[-96.238113,30.961084],[-96.237735,30.963088],[-96.239953,30.964224],[-96.240171,30.965672],[-96.238367,30.967295],[-96.23786,30.969978],[-96.239356,30.970934],[-96.24102,30.973737],[-96.248973,30.970915],[-96.262235,30.964668],[-96.268166,30.96062],[-96.274922,30.956582],[-96.280522,30.956758],[-96.342819,30.925488],[-96.389568,30.915456],[-96.395337,30.91393],[-96.396393,30.914008],[-96.421667,30.908706],[-96.485604,30.895008],[-96.497235,30.891623],[-96.499527,30.894753],[-96.500866,30.897683],[-96.502216,30.899691],[-96.521447,30.931894],[-96.529458,30.92821],[-96.541727,30.921928],[-96.544425,30.921182],[-96.543469,30.919071],[-96.545474,30.920782],[-96.548018,30.919665],[-96.550238,30.923816],[-96.550771,30.925495],[-96.551386,30.929677],[-96.555529,30.936294],[-96.558031,30.937347],[-96.55933,30.938588],[-96.560939,30.942395],[-96.561115,30.945523],[-96.562557,30.948738],[-96.569891,30.945234],[-96.572296,30.950817],[-96.574917,30.948355],[-96.577432,30.953736],[-96.597913,30.947522],[-96.600718,30.954017],[-96.603677,30.953906],[-96.607856,30.955941],[-96.611983,30.955877],[-96.617702,30.958621],[-96.619592,30.964009],[-96.619246,30.966053]]]}},{"type":"Feature","properties":{"zcta5":"77845","AFFGEOID10":"8600000US77845","GEOID10":"77845","ALAND10":382315642,"AWATER10":3746937,"county_name":"Brazos","state_code":"TX","county_state":"Brazos County, TX","county_fips":"48041","risk_level_county":"Higher Risk (60–69% vaccinated)","mean_vaccination_rate_county":67.52,"risk_level_zcta":"Medium Risk (70–79% vaccinated)","mean_vaccination_rate_zips":72.18,"cases":803},"geometry":{"type":"Polygon","coordinates":[[[-96.375803,30.626889],[-96.376468,30.623738],[-96.375792,30.619704],[-96.376344,30.619228],[-96.375087,30.614716],[-96.375951,30.604231],[-96.376706,30.603696],[-96.387556,30.593941],[-96.385718,30.592178],[-96.390015,30.59371],[-96.400763,30.598597],[-96.40506,30.601709],[-96.407108,30.600817],[-96.406428,30.598899],[-96.406823,30.596097],[-96.407407,30.595628],[-96.407809,30.598586],[-96.409304,30.600995],[-96.427015,30.615963],[-96.443732,30.601575],[-96.442911,30.59999],[-96.440471,30.598432],[-96.437995,30.598106],[-96.438428,30.597104],[-96.43671,30.596642],[-96.433937,30.597519],[-96.43359,30.599151],[-96.432275,30.600297],[-96.428917,30.599553],[-96.428204,30.59801],[-96.424591,30.5969],[-96.425017,30.595569],[-96.423729,30.595855],[-96.421655,30.594151],[-96.422183,30.590659],[-96.423096,30.587587],[-96.419873,30.583872],[-96.420498,30.581299],[-96.422859,30.579613],[-96.424087,30.578045],[-96.423734,30.575654],[-96.422499,30.572573],[-96.422173,30.570044],[-96.422654,30.566515],[-96.423527,30.562669],[-96.423429,30.559088],[-96.422238,30.55258],[-96.419261,30.545941],[-96.417875,30.543765],[-96.415824,30.54141],[-96.413057,30.539535],[-96.411258,30.539296],[-96.406212,30.540485],[-96.404662,30.540088],[-96.403021,30.538512],[-96.402361,30.537069],[-96.400299,30.535565],[-96.397116,30.534487],[-96.391023,30.532939],[-96.387955,30.532443],[-96.385309,30.532727],[-96.383562,30.533686],[-96.382885,30.536773],[-96.383685,30.537994],[-96.386446,30.53956],[-96.387082,30.542074],[-96.38595,30.543793],[-96.38522,30.544123],[-96.382205,30.543961],[-96.38021,30.542689],[-96.379222,30.537677],[-96.377698,30.536099],[-96.376618,30.535854],[-96.375581,30.536078],[-96.374415,30.537673],[-96.374547,30.540398],[-96.376975,30.544056],[-96.37722,30.54588],[-96.376288,30.546869],[-96.374819,30.546969],[-96.372026,30.545955],[-96.369201,30.543944],[-96.365357,30.542906],[-96.360519,30.542912],[-96.35941,30.542604],[-96.358817,30.541753],[-96.356635,30.533511],[-96.355226,30.529936],[-96.354669,30.527136],[-96.354904,30.52317],[-96.355744,30.52112],[-96.357292,30.519535],[-96.360926,30.518141],[-96.36548,30.517746],[-96.367964,30.518177],[-96.370433,30.516728],[-96.371327,30.514102],[-96.370443,30.512607],[-96.367086,30.510612],[-96.363335,30.51053],[-96.359295,30.513315],[-96.356971,30.514079],[-96.355793,30.51374],[-96.35478,30.511407],[-96.355628,30.50641],[-96.354602,30.504055],[-96.351966,30.501264],[-96.348297,30.50058],[-96.346878,30.499918],[-96.344894,30.499795],[-96.343105,30.498656],[-96.33978,30.494255],[-96.336348,30.488482],[-96.333901,30.483456],[-96.329935,30.477882],[-96.330021,30.476297],[-96.331597,30.474544],[-96.333193,30.474153],[-96.335813,30.474204],[-96.339781,30.475399],[-96.340875,30.474543],[-96.340007,30.47263],[-96.337323,30.469352],[-96.335636,30.468215],[-96.330828,30.463791],[-96.328504,30.462175],[-96.324879,30.460371],[-96.322466,30.45875],[-96.321648,30.456951],[-96.32147,30.454824],[-96.321884,30.451813],[-96.320946,30.449567],[-96.318082,30.449805],[-96.315954,30.450843],[-96.313984,30.4528],[-96.312979,30.454501],[-96.311541,30.455556],[-96.308921,30.455199],[-96.306458,30.453089],[-96.303543,30.449023],[-96.301772,30.447851],[-96.292865,30.444276],[-96.29121,30.443935],[-96.288964,30.445279],[-96.287683,30.446913],[-96.285516,30.448393],[-96.284259,30.446782],[-96.282312,30.449723],[-96.281688,30.452653],[-96.279484,30.452053],[-96.276399,30.453281],[-96.276065,30.454334],[-96.271001,30.455659],[-96.269959,30.455498],[-96.26734,30.456806],[-96.265434,30.459207],[-96.262766,30.460745],[-96.260897,30.464378],[-96.257075,30.464325],[-96.2569,30.46907],[-96.254521,30.474556],[-96.25294,30.475844],[-96.251726,30.478514],[-96.249042,30.478758],[-96.248417,30.479855],[-96.211271,30.469031],[-96.204541,30.467645],[-96.204035,30.469083],[-96.204347,30.470576],[-96.203569,30.47464],[-96.204132,30.477318],[-96.205939,30.481374],[-96.205173,30.485199],[-96.199121,30.492288],[-96.198202,30.495374],[-96.198267,30.498551],[-96.197452,30.502668],[-96.1974,30.513555],[-96.196297,30.513319],[-96.195192,30.511626],[-96.19309,30.510762],[-96.19027,30.510782],[-96.187432,30.510371],[-96.186525,30.510899],[-96.184622,30.510023],[-96.183493,30.508249],[-96.182819,30.508176],[-96.180083,30.510784],[-96.177693,30.510308],[-96.175316,30.510856],[-96.173312,30.511785],[-96.17214,30.514721],[-96.170853,30.515836],[-96.16908,30.514365],[-96.169226,30.512428],[-96.169876,30.511706],[-96.168794,30.51091],[-96.166993,30.511305],[-96.16575,30.507059],[-96.164765,30.507688],[-96.164591,30.509386],[-96.161895,30.509357],[-96.161412,30.507809],[-96.160197,30.508082],[-96.158635,30.506453],[-96.157536,30.506819],[-96.154092,30.506558],[-96.152763,30.507081],[-96.151783,30.508688],[-96.148691,30.511286],[-96.147571,30.511628],[-96.146787,30.51181],[-96.144808,30.510739],[-96.143606,30.51347],[-96.147294,30.515498],[-96.150315,30.519006],[-96.149033,30.519977],[-96.150011,30.520848],[-96.151372,30.519921],[-96.152643,30.520855],[-96.151455,30.523821],[-96.149298,30.523765],[-96.150286,30.524975],[-96.149279,30.526454],[-96.149549,30.527168],[-96.148262,30.528146],[-96.149091,30.52924],[-96.151382,30.53006],[-96.152119,30.531834],[-96.153587,30.532227],[-96.155032,30.531256],[-96.155479,30.53014],[-96.157207,30.530889],[-96.155845,30.533205],[-96.156713,30.534549],[-96.158149,30.53515],[-96.159713,30.533559],[-96.16098,30.533668],[-96.161171,30.535164],[-96.160504,30.536448],[-96.160297,30.540332],[-96.161536,30.541834],[-96.160962,30.545498],[-96.161847,30.547341],[-96.160843,30.548027],[-96.159634,30.552066],[-96.160531,30.555594],[-96.160368,30.556688],[-96.158604,30.55864],[-96.160285,30.559776],[-96.161433,30.562419],[-96.161097,30.563893],[-96.161302,30.56645],[-96.159764,30.567302],[-96.162612,30.568884],[-96.161752,30.570233],[-96.164107,30.570991],[-96.16504,30.570435],[-96.1676,30.571504],[-96.167763,30.572338],[-96.165517,30.573266],[-96.167806,30.575554],[-96.172175,30.578368],[-96.171629,30.579775],[-96.175422,30.581259],[-96.175171,30.583378],[-96.177206,30.585063],[-96.178862,30.585268],[-96.181236,30.586465],[-96.182286,30.586251],[-96.18462,30.587948],[-96.183582,30.588858],[-96.183573,30.590524],[-96.18244,30.593155],[-96.182693,30.595327],[-96.184121,30.596064],[-96.185468,30.598938],[-96.187765,30.598737],[-96.188314,30.599614],[-96.187361,30.601629],[-96.188232,30.602405],[-96.186111,30.603393],[-96.18678,30.605875],[-96.185079,30.606622],[-96.182448,30.606798],[-96.181776,30.607579],[-96.181232,30.611281],[-96.182596,30.612697],[-96.181168,30.615412],[-96.182458,30.617135],[-96.183215,30.618706],[-96.182591,30.619718],[-96.183011,30.622285],[-96.185723,30.624399],[-96.186542,30.625827],[-96.185543,30.626477],[-96.185501,30.629278],[-96.201747,30.640701],[-96.201946,30.641572],[-96.204454,30.641461],[-96.206229,30.643821],[-96.207304,30.64435],[-96.208246,30.64618],[-96.208715,30.648602],[-96.210626,30.648647],[-96.209881,30.650507],[-96.210619,30.651929],[-96.209411,30.653998],[-96.20695,30.655251],[-96.207728,30.655733],[-96.206827,30.656963],[-96.211316,30.660739],[-96.210661,30.66315],[-96.212311,30.665698],[-96.211793,30.671451],[-96.20918,30.676048],[-96.207211,30.676942],[-96.207241,30.680853],[-96.206587,30.682229],[-96.207825,30.683044],[-96.209016,30.682483],[-96.210437,30.683345],[-96.215552,30.679351],[-96.216262,30.682207],[-96.221972,30.684311],[-96.223285,30.685842],[-96.224622,30.685939],[-96.225182,30.687929],[-96.231583,30.687555],[-96.237319,30.685892],[-96.240453,30.686794],[-96.245245,30.682579],[-96.253977,30.685682],[-96.264657,30.685736],[-96.263113,30.684801],[-96.262336,30.682943],[-96.263293,30.682723],[-96.26237,30.68108],[-96.258978,30.679449],[-96.255805,30.676226],[-96.255227,30.67498],[-96.256003,30.672901],[-96.258322,30.670886],[-96.262418,30.672613],[-96.26375,30.679402],[-96.264891,30.680536],[-96.26628,30.680454],[-96.266276,30.681439],[-96.267936,30.681721],[-96.268329,30.684087],[-96.271086,30.687128],[-96.273339,30.685321],[-96.278141,30.684611],[-96.279172,30.686149],[-96.286511,30.692758],[-96.291042,30.695302],[-96.293069,30.695067],[-96.297323,30.691158],[-96.294571,30.688844],[-96.293217,30.69011],[-96.28793,30.685697],[-96.280559,30.678816],[-96.283935,30.675395],[-96.279799,30.669596],[-96.276086,30.666993],[-96.284033,30.660626],[-96.280019,30.659137],[-96.282294,30.657147],[-96.286825,30.658453],[-96.289163,30.656001],[-96.295338,30.650535],[-96.297073,30.649041],[-96.305167,30.643755],[-96.310646,30.648294],[-96.313743,30.645489],[-96.315426,30.647408],[-96.313108,30.644332],[-96.305443,30.635037],[-96.291732,30.613308],[-96.290919,30.611613],[-96.289902,30.607277],[-96.289957,30.603168],[-96.296295,30.604336],[-96.29775,30.60371],[-96.303781,30.598408],[-96.306748,30.595149],[-96.310152,30.593011],[-96.322253,30.587124],[-96.324401,30.586561],[-96.327961,30.586693],[-96.324524,30.583157],[-96.325722,30.582387],[-96.328803,30.585158],[-96.330699,30.585206],[-96.334986,30.581776],[-96.339527,30.578909],[-96.341437,30.580488],[-96.34228,30.581191],[-96.350581,30.573738],[-96.352134,30.574997],[-96.361886,30.5666],[-96.36115,30.569375],[-96.36425,30.569516],[-96.366446,30.568359],[-96.367658,30.569019],[-96.369501,30.5687],[-96.370102,30.571241],[-96.367263,30.570657],[-96.366134,30.571219],[-96.366161,30.572659],[-96.365103,30.573516],[-96.362818,30.57801],[-96.36206,30.580898],[-96.361126,30.577014],[-96.359308,30.574977],[-96.356835,30.575109],[-96.356548,30.577772],[-96.357546,30.582003],[-96.356229,30.584248],[-96.355548,30.587512],[-96.35579,30.588973],[-96.357568,30.591366],[-96.354925,30.59178],[-96.351761,30.593466],[-96.344862,30.599634],[-96.346259,30.602013],[-96.349662,30.605737],[-96.343429,30.610177],[-96.352587,30.619776],[-96.363125,30.631273],[-96.365768,30.628815],[-96.366324,30.628333],[-96.371162,30.632446],[-96.375717,30.628461],[-96.375803,30.626889]]]}},{"type":"Feature","properties":{"zcta5":"77808","AFFGEOID10":"8600000US77808","GEOID10":"77808","ALAND10":647604318,"AWATER10":4427200,"county_name":"Brazos","state_code":"TX","county_state":"Brazos County, TX","county_fips":"48041","risk_level_county":"Higher Risk (60–69% vaccinated)","mean_vaccination_rate_county":67.52,"risk_level_zcta":"Higher Risk (60–69% vaccinated)","mean_vaccination_rate_zips":62.45,"cases":803},"geometry":{"type":"Polygon","coordinates":[[[-96.204498,30.924248],[-96.205285,30.924684],[-96.212312,30.926154],[-96.215504,30.927291],[-96.220497,30.92677],[-96.22345,30.927305],[-96.225108,30.926666],[-96.23346,30.924158],[-96.237148,30.92284],[-96.24006,30.923035],[-96.241114,30.923977],[-96.243847,30.924863],[-96.245788,30.924503],[-96.248058,30.923096],[-96.258362,30.922587],[-96.260347,30.921309],[-96.262655,30.920668],[-96.264018,30.919654],[-96.265139,30.917405],[-96.263037,30.915218],[-96.269013,30.91283],[-96.275357,30.909798],[-96.278965,30.903538],[-96.296476,30.88851],[-96.297314,30.887525],[-96.302595,30.879684],[-96.304071,30.877155],[-96.307094,30.878688],[-96.309862,30.880685],[-96.312937,30.884737],[-96.315001,30.886232],[-96.318231,30.890974],[-96.31935,30.891295],[-96.324397,30.890778],[-96.326588,30.891116],[-96.327959,30.889545],[-96.329713,30.888889],[-96.335963,30.880662],[-96.340373,30.884124],[-96.345846,30.88013],[-96.353192,30.88623],[-96.359107,30.88152],[-96.363615,30.884896],[-96.364856,30.885641],[-96.365642,30.884547],[-96.374133,30.87692],[-96.382611,30.870342],[-96.381664,30.870026],[-96.373041,30.862733],[-96.374435,30.859358],[-96.375933,30.857238],[-96.378708,30.858468],[-96.388201,30.862029],[-96.391042,30.854538],[-96.398138,30.841176],[-96.430162,30.853522],[-96.473053,30.868461],[-96.472677,30.867281],[-96.473906,30.865874],[-96.476869,30.866011],[-96.479474,30.862135],[-96.483461,30.857456],[-96.483778,30.85518],[-96.482331,30.851806],[-96.484808,30.849243],[-96.485292,30.847809],[-96.486247,30.847281],[-96.488902,30.850332],[-96.505111,30.854767],[-96.506054,30.84856],[-96.506795,30.847062],[-96.51591,30.852984],[-96.514813,30.855315],[-96.515423,30.857574],[-96.517462,30.858179],[-96.519187,30.860253],[-96.519364,30.862864],[-96.522772,30.866015],[-96.527252,30.864032],[-96.528719,30.862785],[-96.531325,30.861785],[-96.533268,30.862709],[-96.534842,30.862775],[-96.535964,30.861863],[-96.535155,30.861434],[-96.535028,30.859307],[-96.538074,30.859137],[-96.542293,30.856665],[-96.545071,30.855835],[-96.546772,30.855989],[-96.548403,30.857051],[-96.550767,30.856655],[-96.552564,30.857788],[-96.554354,30.856392],[-96.557273,30.85615],[-96.55805,30.857294],[-96.560019,30.855892],[-96.561625,30.851022],[-96.56295,30.85039],[-96.561314,30.848999],[-96.558965,30.847986],[-96.558148,30.848326],[-96.531469,30.830372],[-96.534948,30.829287],[-96.531552,30.823249],[-96.524698,30.812775],[-96.524217,30.813002],[-96.521458,30.808764],[-96.520741,30.808212],[-96.493381,30.791453],[-96.492079,30.79013],[-96.484977,30.778477],[-96.481118,30.771304],[-96.479565,30.765959],[-96.479686,30.762874],[-96.456599,30.746302],[-96.454944,30.745343],[-96.442623,30.739833],[-96.440547,30.738712],[-96.422057,30.72548],[-96.417995,30.722369],[-96.416004,30.72092],[-96.412673,30.719838],[-96.39268,30.721177],[-96.388619,30.720455],[-96.386302,30.71944],[-96.379322,30.714252],[-96.37388,30.710089],[-96.369113,30.706371],[-96.358876,30.696568],[-96.35087,30.689694],[-96.346935,30.684444],[-96.337059,30.670916],[-96.334207,30.668789],[-96.333243,30.671962],[-96.33396,30.673665],[-96.331726,30.673179],[-96.331417,30.673886],[-96.333332,30.674468],[-96.332639,30.676848],[-96.332956,30.67811],[-96.334428,30.67886],[-96.337266,30.679914],[-96.336163,30.682213],[-96.336117,30.682249],[-96.336045,30.682434],[-96.335955,30.682705],[-96.3359,30.682953],[-96.334309,30.682881],[-96.331017,30.681942],[-96.330318,30.680772],[-96.330747,30.679615],[-96.329829,30.678518],[-96.328004,30.677856],[-96.327982,30.679058],[-96.326064,30.678974],[-96.325259,30.676868],[-96.323424,30.675987],[-96.323243,30.674238],[-96.322135,30.674523],[-96.321367,30.673149],[-96.322003,30.672074],[-96.32025,30.670921],[-96.320349,30.670606],[-96.320968,30.670651],[-96.321045,30.670158],[-96.320618,30.669815],[-96.320254,30.669164],[-96.320502,30.667914],[-96.319679,30.66882],[-96.319303,30.669415],[-96.319097,30.670179],[-96.319086,30.670924],[-96.318827,30.671917],[-96.318639,30.672131],[-96.317277,30.672862],[-96.316435,30.673458],[-96.313469,30.675781],[-96.304366,30.684008],[-96.301987,30.68675],[-96.297323,30.691158],[-96.293069,30.695067],[-96.291042,30.695302],[-96.286511,30.692758],[-96.279172,30.686149],[-96.278141,30.684611],[-96.273339,30.685321],[-96.271086,30.687128],[-96.268329,30.684087],[-96.267936,30.681721],[-96.266276,30.681439],[-96.26628,30.680454],[-96.264891,30.680536],[-96.26375,30.679402],[-96.262418,30.672613],[-96.258322,30.670886],[-96.256003,30.672901],[-96.255227,30.67498],[-96.255805,30.676226],[-96.258978,30.679449],[-96.26237,30.68108],[-96.263293,30.682723],[-96.262336,30.682943],[-96.263113,30.684801],[-96.264657,30.685736],[-96.253977,30.685682],[-96.245245,30.682579],[-96.240453,30.686794],[-96.237319,30.685892],[-96.231583,30.687555],[-96.225182,30.687929],[-96.224622,30.685939],[-96.223285,30.685842],[-96.221972,30.684311],[-96.216262,30.682207],[-96.215552,30.679351],[-96.210437,30.683345],[-96.209016,30.682483],[-96.207825,30.683044],[-96.206587,30.682229],[-96.207241,30.680853],[-96.207211,30.676942],[-96.20918,30.676048],[-96.211793,30.671451],[-96.212311,30.665698],[-96.210661,30.66315],[-96.211316,30.660739],[-96.206827,30.656963],[-96.207728,30.655733],[-96.20695,30.655251],[-96.209411,30.653998],[-96.210619,30.651929],[-96.209881,30.650507],[-96.210626,30.648647],[-96.208715,30.648602],[-96.208246,30.64618],[-96.207304,30.64435],[-96.206229,30.643821],[-96.204454,30.641461],[-96.201946,30.641572],[-96.201747,30.640701],[-96.185501,30.629278],[-96.185543,30.626477],[-96.186542,30.625827],[-96.185723,30.624399],[-96.183011,30.622285],[-96.182591,30.619718],[-96.183215,30.618706],[-96.182458,30.617135],[-96.180311,30.618597],[-96.180164,30.621705],[-96.178059,30.621942],[-96.177519,30.623205],[-96.17358,30.622846],[-96.173886,30.627622],[-96.172138,30.629657],[-96.169339,30.629992],[-96.170343,30.630717],[-96.169922,30.63229],[-96.171664,30.634163],[-96.170717,30.635635],[-96.172992,30.635747],[-96.171911,30.638199],[-96.168656,30.638596],[-96.169638,30.639734],[-96.169111,30.641539],[-96.166272,30.644414],[-96.165758,30.647063],[-96.16769,30.647732],[-96.167781,30.649986],[-96.169437,30.650007],[-96.167245,30.652281],[-96.167173,30.65499],[-96.165834,30.654683],[-96.165406,30.657601],[-96.164099,30.658813],[-96.165459,30.660689],[-96.16436,30.662061],[-96.165376,30.663164],[-96.167117,30.662703],[-96.169157,30.663525],[-96.167663,30.665737],[-96.168772,30.666356],[-96.168118,30.669284],[-96.168979,30.669837],[-96.168439,30.67112],[-96.169467,30.672691],[-96.171355,30.67214],[-96.170142,30.67368],[-96.171486,30.675341],[-96.171925,30.678191],[-96.172736,30.679843],[-96.170403,30.680417],[-96.169999,30.681358],[-96.171485,30.682109],[-96.170491,30.685337],[-96.170825,30.686909],[-96.169875,30.688264],[-96.170383,30.689544],[-96.173065,30.692104],[-96.172156,30.693618],[-96.174102,30.693978],[-96.175378,30.696055],[-96.176896,30.696838],[-96.174964,30.699195],[-96.176629,30.700362],[-96.176622,30.701854],[-96.175113,30.702033],[-96.1755,30.703456],[-96.176968,30.703081],[-96.177721,30.705873],[-96.176352,30.706167],[-96.177911,30.709688],[-96.175468,30.709243],[-96.174031,30.709867],[-96.175094,30.71084],[-96.174625,30.711844],[-96.172151,30.712185],[-96.172071,30.715059],[-96.170802,30.715991],[-96.171415,30.716969],[-96.170296,30.71801],[-96.168673,30.717297],[-96.169182,30.718377],[-96.167789,30.720761],[-96.164522,30.722083],[-96.164696,30.72383],[-96.163327,30.724739],[-96.162499,30.726309],[-96.161953,30.729863],[-96.162573,30.730825],[-96.161486,30.732358],[-96.162161,30.734136],[-96.160384,30.734955],[-96.162072,30.73583],[-96.16149,30.737216],[-96.162628,30.737496],[-96.162587,30.739797],[-96.165044,30.740715],[-96.166572,30.743431],[-96.165143,30.744264],[-96.168502,30.746832],[-96.170145,30.748855],[-96.170555,30.750226],[-96.170472,30.752868],[-96.168717,30.753086],[-96.168088,30.754347],[-96.169837,30.755391],[-96.16848,30.756402],[-96.169578,30.756663],[-96.168787,30.758464],[-96.16674,30.758564],[-96.16652,30.760319],[-96.164965,30.759911],[-96.164589,30.761745],[-96.162753,30.763558],[-96.164843,30.76484],[-96.163565,30.766424],[-96.162644,30.769509],[-96.164521,30.772245],[-96.16434,30.773141],[-96.165103,30.77431],[-96.166664,30.773995],[-96.165787,30.772115],[-96.167185,30.772509],[-96.168244,30.774601],[-96.165957,30.776097],[-96.167371,30.77694],[-96.169249,30.780202],[-96.170542,30.779507],[-96.171487,30.78171],[-96.171117,30.783265],[-96.172033,30.783551],[-96.172366,30.785329],[-96.173224,30.784126],[-96.177008,30.786491],[-96.17938,30.789198],[-96.180178,30.791785],[-96.182478,30.792243],[-96.181733,30.793114],[-96.183641,30.795136],[-96.182935,30.795987],[-96.183314,30.797587],[-96.180834,30.798066],[-96.179471,30.797756],[-96.179427,30.799611],[-96.177684,30.801078],[-96.176977,30.799204],[-96.176417,30.801001],[-96.173851,30.801121],[-96.173545,30.802665],[-96.172526,30.802935],[-96.17357,30.803831],[-96.173251,30.805815],[-96.17122,30.806139],[-96.172888,30.807469],[-96.172398,30.808584],[-96.175669,30.809648],[-96.175489,30.8111],[-96.173882,30.811594],[-96.174286,30.812895],[-96.17315,30.813527],[-96.172747,30.815436],[-96.174055,30.81592],[-96.172955,30.817404],[-96.17017,30.819359],[-96.16837,30.822997],[-96.168697,30.823799],[-96.169982,30.823457],[-96.169929,30.824907],[-96.171125,30.825202],[-96.170109,30.826332],[-96.171165,30.828092],[-96.172741,30.827823],[-96.174167,30.826608],[-96.174614,30.82753],[-96.173296,30.828544],[-96.17127,30.82924],[-96.173226,30.830133],[-96.174627,30.829838],[-96.175362,30.831344],[-96.17357,30.830687],[-96.173424,30.832367],[-96.175453,30.834894],[-96.176086,30.840983],[-96.174982,30.841611],[-96.174988,30.843373],[-96.173395,30.844649],[-96.174771,30.845172],[-96.174556,30.846426],[-96.17293,30.846038],[-96.172872,30.848015],[-96.176019,30.8486],[-96.176438,30.849669],[-96.175837,30.851223],[-96.173926,30.852239],[-96.175226,30.853735],[-96.177087,30.853673],[-96.17669,30.854907],[-96.177904,30.856464],[-96.17656,30.857058],[-96.17684,30.858018],[-96.178549,30.859184],[-96.18238,30.861059],[-96.184261,30.861664],[-96.182806,30.862901],[-96.183631,30.863739],[-96.18515,30.863535],[-96.184639,30.865099],[-96.18618,30.865978],[-96.185933,30.867326],[-96.186884,30.867487],[-96.188602,30.866135],[-96.190083,30.866695],[-96.190427,30.868104],[-96.189458,30.868809],[-96.190499,30.86921],[-96.192003,30.867963],[-96.193044,30.869953],[-96.193031,30.871027],[-96.194746,30.870046],[-96.195713,30.871005],[-96.195896,30.873574],[-96.196599,30.874729],[-96.196134,30.876599],[-96.194241,30.877111],[-96.193039,30.879088],[-96.19297,30.880821],[-96.193633,30.882402],[-96.195762,30.883365],[-96.195595,30.884424],[-96.198387,30.886591],[-96.19985,30.885281],[-96.200888,30.887087],[-96.200303,30.88845],[-96.19782,30.888388],[-96.200434,30.889352],[-96.199467,30.891215],[-96.201411,30.89092],[-96.200846,30.892636],[-96.202443,30.892179],[-96.203028,30.894612],[-96.204221,30.896663],[-96.203318,30.901068],[-96.206547,30.900661],[-96.206679,30.90228],[-96.210039,30.903093],[-96.210512,30.904323],[-96.21258,30.904927],[-96.211767,30.907383],[-96.212389,30.909251],[-96.211945,30.910231],[-96.213165,30.911345],[-96.212185,30.913227],[-96.210283,30.914894],[-96.210225,30.916847],[-96.208071,30.917134],[-96.206454,30.918772],[-96.208539,30.920542],[-96.206145,30.921284],[-96.206939,30.923539],[-96.204498,30.924248]]]}},{"type":"Feature","properties":{"zcta5":"77807","AFFGEOID10":"8600000US77807","GEOID10":"77807","ALAND10":249289911,"AWATER10":4285067,"county_name":"Brazos","state_code":"TX","county_state":"Brazos County, TX","county_fips":"48041","risk_level_county":"Higher Risk (60–69% vaccinated)","mean_vaccination_rate_county":67.52,"risk_level_zcta":"Higher Risk (60–69% vaccinated)","mean_vaccination_rate_zips":60.59,"cases":803},"geometry":{"type":"Polygon","coordinates":[[[-96.566983,30.69567],[-96.567333,30.692667],[-96.568581,30.691087],[-96.572064,30.688849],[-96.575761,30.688304],[-96.578993,30.689573],[-96.581519,30.68889],[-96.582676,30.687177],[-96.584171,30.683191],[-96.584308,30.68111],[-96.58352,30.674949],[-96.582804,30.663792],[-96.583688,30.660469],[-96.58617,30.656847],[-96.590999,30.653591],[-96.594308,30.652589],[-96.595496,30.650284],[-96.595222,30.649054],[-96.596616,30.646281],[-96.599906,30.643905],[-96.601831,30.641926],[-96.601723,30.640564],[-96.601047,30.639808],[-96.598909,30.639255],[-96.591201,30.640002],[-96.589063,30.639699],[-96.586395,30.638277],[-96.583675,30.637346],[-96.579018,30.636922],[-96.574762,30.637242],[-96.570253,30.636683],[-96.568744,30.63558],[-96.567999,30.633618],[-96.567768,30.631441],[-96.566632,30.629387],[-96.565498,30.629472],[-96.562251,30.631165],[-96.56,30.631903],[-96.554505,30.632264],[-96.550599,30.630802],[-96.548214,30.627883],[-96.547088,30.627739],[-96.539011,30.628388],[-96.529003,30.628072],[-96.525564,30.627615],[-96.518343,30.626224],[-96.5141,30.626692],[-96.510494,30.627828],[-96.50807,30.625228],[-96.507451,30.623005],[-96.508245,30.620579],[-96.507983,30.616989],[-96.506803,30.615307],[-96.502635,30.613366],[-96.499488,30.612853],[-96.49582,30.614627],[-96.493284,30.6171],[-96.492512,30.618955],[-96.492459,30.620603],[-96.491419,30.621745],[-96.489157,30.621733],[-96.487399,30.620478],[-96.486323,30.617436],[-96.48674,30.614891],[-96.489067,30.609421],[-96.489428,30.60685],[-96.487626,30.604881],[-96.48505,30.603844],[-96.482038,30.604357],[-96.478148,30.604644],[-96.473522,30.606644],[-96.471375,30.607222],[-96.469301,30.606863],[-96.465723,30.603639],[-96.46401,30.599923],[-96.461433,30.598209],[-96.458744,30.597595],[-96.455504,30.597636],[-96.452151,30.597001],[-96.450335,30.595846],[-96.449651,30.594069],[-96.450464,30.590479],[-96.449625,30.588978],[-96.442991,30.58351],[-96.439903,30.579369],[-96.438327,30.575143],[-96.43547,30.573187],[-96.432062,30.572703],[-96.430577,30.572879],[-96.429336,30.573389],[-96.427168,30.575589],[-96.42674,30.578902],[-96.428102,30.581754],[-96.430659,30.585855],[-96.431364,30.587702],[-96.43131,30.58994],[-96.429997,30.591066],[-96.427657,30.591307],[-96.425527,30.590272],[-96.423096,30.587587],[-96.422183,30.590659],[-96.421655,30.594151],[-96.423729,30.595855],[-96.425017,30.595569],[-96.424591,30.5969],[-96.428204,30.59801],[-96.428917,30.599553],[-96.432275,30.600297],[-96.43359,30.599151],[-96.433937,30.597519],[-96.43671,30.596642],[-96.438428,30.597104],[-96.437995,30.598106],[-96.440471,30.598432],[-96.442911,30.59999],[-96.443732,30.601575],[-96.427015,30.615963],[-96.409304,30.600995],[-96.407809,30.598586],[-96.407407,30.595628],[-96.406823,30.596097],[-96.406428,30.598899],[-96.407108,30.600817],[-96.40506,30.601709],[-96.400763,30.598597],[-96.390015,30.59371],[-96.385718,30.592178],[-96.387556,30.593941],[-96.376706,30.603696],[-96.375951,30.604231],[-96.375087,30.614716],[-96.376344,30.619228],[-96.375792,30.619704],[-96.376468,30.623738],[-96.375803,30.626889],[-96.376808,30.626262],[-96.376662,30.629677],[-96.377766,30.634388],[-96.37971,30.63725],[-96.383752,30.640635],[-96.381271,30.642624],[-96.380829,30.643727],[-96.381294,30.645632],[-96.382181,30.649539],[-96.388821,30.643637],[-96.394938,30.638173],[-96.39984,30.642821],[-96.402983,30.645468],[-96.402542,30.64733],[-96.405904,30.650184],[-96.407452,30.652173],[-96.409168,30.650663],[-96.412672,30.653616],[-96.418623,30.658412],[-96.421717,30.65743],[-96.426461,30.657365],[-96.426947,30.657376],[-96.423881,30.660096],[-96.411042,30.666646],[-96.412063,30.667595],[-96.413398,30.666672],[-96.414299,30.66745],[-96.415881,30.668814],[-96.412286,30.671928],[-96.41477,30.67407],[-96.416231,30.6728],[-96.424915,30.680122],[-96.421572,30.682833],[-96.411214,30.674197],[-96.409306,30.671928],[-96.408832,30.67375],[-96.404446,30.675108],[-96.402567,30.676863],[-96.403054,30.678029],[-96.40164,30.679222],[-96.397283,30.679177],[-96.395825,30.680018],[-96.390647,30.677908],[-96.389917,30.68263],[-96.392868,30.685205],[-96.391054,30.685421],[-96.39028,30.686959],[-96.390887,30.689303],[-96.389314,30.689827],[-96.389064,30.693519],[-96.38952,30.695121],[-96.386344,30.696614],[-96.399995,30.706376],[-96.408283,30.712024],[-96.415778,30.717143],[-96.41926,30.718605],[-96.4256,30.719739],[-96.427491,30.720317],[-96.427138,30.724615],[-96.425927,30.726811],[-96.424122,30.725491],[-96.422464,30.725056],[-96.417995,30.722369],[-96.422057,30.72548],[-96.440547,30.738712],[-96.442623,30.739833],[-96.454944,30.745343],[-96.456599,30.746302],[-96.479686,30.762874],[-96.479565,30.765959],[-96.481118,30.771304],[-96.484977,30.778477],[-96.492079,30.79013],[-96.493381,30.791453],[-96.520741,30.808212],[-96.521458,30.808764],[-96.524217,30.813002],[-96.524698,30.812775],[-96.531552,30.823249],[-96.534032,30.822007],[-96.528173,30.811315],[-96.527648,30.808221],[-96.531004,30.806314],[-96.53376,30.803241],[-96.535509,30.80184],[-96.536468,30.799703],[-96.536561,30.796387],[-96.538083,30.791224],[-96.537302,30.790098],[-96.534618,30.789674],[-96.534971,30.786781],[-96.522351,30.769023],[-96.522295,30.768318],[-96.523792,30.766856],[-96.523372,30.76602],[-96.523749,30.762266],[-96.525137,30.760084],[-96.527359,30.75915],[-96.526532,30.7581],[-96.523802,30.756307],[-96.522428,30.754235],[-96.521805,30.752041],[-96.521965,30.749996],[-96.523273,30.747116],[-96.519859,30.746953],[-96.511189,30.750876],[-96.505488,30.742462],[-96.523291,30.733317],[-96.521631,30.732181],[-96.519589,30.731603],[-96.518653,30.732098],[-96.512424,30.731947],[-96.509841,30.73116],[-96.506762,30.728772],[-96.504213,30.725555],[-96.503491,30.72395],[-96.550549,30.702982],[-96.566983,30.69567]]]}},{"type":"Feature","properties":{"zcta5":"77803","AFFGEOID10":"8600000US77803","GEOID10":"77803","ALAND10":33284424,"AWATER10":3553,"county_name":"Brazos","state_code":"TX","county_state":"Brazos County, TX","county_fips":"48041","risk_level_county":"Higher Risk (60–69% vaccinated)","mean_vaccination_rate_county":67.52,"risk_level_zcta":"Very High Risk (<60% vaccinated)","mean_vaccination_rate_zips":56.85,"cases":803},"geometry":{"type":"Polygon","coordinates":[[[-96.417995,30.722369],[-96.422464,30.725056],[-96.424122,30.725491],[-96.425927,30.726811],[-96.427138,30.724615],[-96.427491,30.720317],[-96.4256,30.719739],[-96.41926,30.718605],[-96.415778,30.717143],[-96.408283,30.712024],[-96.399995,30.706376],[-96.386344,30.696614],[-96.38952,30.695121],[-96.389064,30.693519],[-96.389314,30.689827],[-96.390887,30.689303],[-96.39028,30.686959],[-96.391054,30.685421],[-96.392868,30.685205],[-96.389917,30.68263],[-96.390647,30.677908],[-96.395825,30.680018],[-96.397283,30.679177],[-96.40164,30.679222],[-96.403054,30.678029],[-96.402567,30.676863],[-96.404446,30.675108],[-96.408832,30.67375],[-96.409306,30.671928],[-96.411214,30.674197],[-96.421572,30.682833],[-96.424915,30.680122],[-96.416231,30.6728],[-96.41477,30.67407],[-96.412286,30.671928],[-96.415881,30.668814],[-96.414299,30.66745],[-96.413398,30.666672],[-96.412063,30.667595],[-96.411042,30.666646],[-96.423881,30.660096],[-96.426947,30.657376],[-96.426461,30.657365],[-96.421717,30.65743],[-96.418623,30.658412],[-96.412672,30.653616],[-96.409168,30.650663],[-96.407452,30.652173],[-96.405904,30.650184],[-96.402542,30.64733],[-96.402983,30.645468],[-96.39984,30.642821],[-96.394938,30.638173],[-96.388821,30.643637],[-96.382181,30.649539],[-96.381294,30.645632],[-96.378361,30.647057],[-96.379909,30.651397],[-96.379557,30.653402],[-96.377145,30.653235],[-96.376838,30.655172],[-96.37771,30.65563],[-96.377025,30.657333],[-96.374895,30.658643],[-96.374356,30.657835],[-96.373494,30.659709],[-96.373267,30.657967],[-96.371395,30.658489],[-96.370894,30.657013],[-96.369605,30.658152],[-96.361329,30.66567],[-96.355945,30.672013],[-96.355401,30.671018],[-96.35405,30.671936],[-96.347681,30.671917],[-96.350298,30.674134],[-96.348828,30.675811],[-96.351279,30.677848],[-96.349353,30.679676],[-96.346607,30.683074],[-96.346935,30.684444],[-96.35087,30.689694],[-96.358876,30.696568],[-96.369113,30.706371],[-96.37388,30.710089],[-96.379322,30.714252],[-96.386302,30.71944],[-96.388619,30.720455],[-96.39268,30.721177],[-96.412673,30.719838],[-96.416004,30.72092],[-96.417995,30.722369]]]}},{"type":"Feature","properties":{"zcta5":"77840","AFFGEOID10":"8600000US77840","GEOID10":"77840","ALAND10":29014274,"AWATER10":0,"county_name":"Brazos","state_code":"TX","county_state":"Brazos County, TX","county_fips":"48041","risk_level_county":"Higher Risk (60–69% vaccinated)","mean_vaccination_rate_county":67.52,"risk_level_zcta":"Higher Risk (60–69% vaccinated)","mean_vaccination_rate_zips":62.66,"cases":803},"geometry":{"type":"Polygon","coordinates":[[[-96.352587,30.619776],[-96.343429,30.610177],[-96.349662,30.605737],[-96.346259,30.602013],[-96.344862,30.599634],[-96.351761,30.593466],[-96.354925,30.59178],[-96.357568,30.591366],[-96.35579,30.588973],[-96.355548,30.587512],[-96.356229,30.584248],[-96.357546,30.582003],[-96.356548,30.577772],[-96.356835,30.575109],[-96.359308,30.574977],[-96.361126,30.577014],[-96.36206,30.580898],[-96.362818,30.57801],[-96.365103,30.573516],[-96.366161,30.572659],[-96.366134,30.571219],[-96.367263,30.570657],[-96.370102,30.571241],[-96.369501,30.5687],[-96.367658,30.569019],[-96.366446,30.568359],[-96.36425,30.569516],[-96.36115,30.569375],[-96.361886,30.5666],[-96.352134,30.574997],[-96.350581,30.573738],[-96.34228,30.581191],[-96.341437,30.580488],[-96.339527,30.578909],[-96.334986,30.581776],[-96.330699,30.585206],[-96.328803,30.585158],[-96.325722,30.582387],[-96.324524,30.583157],[-96.327961,30.586693],[-96.324401,30.586561],[-96.322253,30.587124],[-96.310152,30.593011],[-96.306748,30.595149],[-96.303781,30.598408],[-96.29775,30.60371],[-96.296295,30.604336],[-96.289957,30.603168],[-96.289902,30.607277],[-96.290919,30.611613],[-96.291732,30.613308],[-96.305443,30.635037],[-96.313108,30.644332],[-96.315716,30.644474],[-96.319259,30.643444],[-96.321269,30.642493],[-96.323071,30.643779],[-96.324743,30.643073],[-96.326806,30.641479],[-96.33414,30.634817],[-96.332541,30.633473],[-96.336957,30.629544],[-96.338278,30.63065],[-96.339774,30.629279],[-96.341594,30.629407],[-96.344192,30.625682],[-96.345575,30.62682],[-96.348039,30.623798],[-96.352587,30.619776]]]}},{"type":"Feature","properties":{"zcta5":"77801","AFFGEOID10":"8600000US77801","GEOID10":"77801","ALAND10":8316904,"AWATER10":175945,"county_name":"Brazos","state_code":"TX","county_state":"Brazos County, TX","county_fips":"48041","risk_level_county":"Higher Risk (60–69% vaccinated)","mean_vaccination_rate_county":67.52,"risk_level_zcta":"Very High Risk (<60% vaccinated)","mean_vaccination_rate_zips":59.92,"cases":803},"geometry":{"type":"Polygon","coordinates":[[[-96.381294,30.645632],[-96.380829,30.643727],[-96.381271,30.642624],[-96.383752,30.640635],[-96.37971,30.63725],[-96.377766,30.634388],[-96.376662,30.629677],[-96.376808,30.626262],[-96.375803,30.626889],[-96.375717,30.628461],[-96.371162,30.632446],[-96.366324,30.628333],[-96.365768,30.628815],[-96.363125,30.631273],[-96.352587,30.619776],[-96.348039,30.623798],[-96.345575,30.62682],[-96.344192,30.625682],[-96.341594,30.629407],[-96.339774,30.629279],[-96.338278,30.63065],[-96.344785,30.636197],[-96.345808,30.635283],[-96.347894,30.636126],[-96.349283,30.637338],[-96.347753,30.63864],[-96.350273,30.640885],[-96.350983,30.640459],[-96.352945,30.641678],[-96.355967,30.644718],[-96.358842,30.646993],[-96.36003,30.646023],[-96.360742,30.646731],[-96.35896,30.648266],[-96.360192,30.649556],[-96.361178,30.649008],[-96.364139,30.652823],[-96.364935,30.652154],[-96.369605,30.658152],[-96.370894,30.657013],[-96.371395,30.658489],[-96.373267,30.657967],[-96.373494,30.659709],[-96.374356,30.657835],[-96.374895,30.658643],[-96.377025,30.657333],[-96.37771,30.65563],[-96.376838,30.655172],[-96.377145,30.653235],[-96.379557,30.653402],[-96.379909,30.651397],[-96.378361,30.647057],[-96.381294,30.645632]]]}},{"type":"Feature","properties":{"zcta5":"77802","AFFGEOID10":"8600000US77802","GEOID10":"77802","ALAND10":30418536,"AWATER10":0,"county_name":"Brazos","state_code":"TX","county_state":"Brazos County, TX","county_fips":"48041","risk_level_county":"Higher Risk (60–69% vaccinated)","mean_vaccination_rate_county":67.52,"risk_level_zcta":"Medium Risk (70–79% vaccinated)","mean_vaccination_rate_zips":72.17,"cases":803},"geometry":{"type":"Polygon","coordinates":[[[-96.369605,30.658152],[-96.364935,30.652154],[-96.364139,30.652823],[-96.361178,30.649008],[-96.360192,30.649556],[-96.35896,30.648266],[-96.360742,30.646731],[-96.36003,30.646023],[-96.358842,30.646993],[-96.355967,30.644718],[-96.352945,30.641678],[-96.350983,30.640459],[-96.350273,30.640885],[-96.347753,30.63864],[-96.349283,30.637338],[-96.347894,30.636126],[-96.345808,30.635283],[-96.344785,30.636197],[-96.338278,30.63065],[-96.336957,30.629544],[-96.332541,30.633473],[-96.33414,30.634817],[-96.326806,30.641479],[-96.324743,30.643073],[-96.323071,30.643779],[-96.321269,30.642493],[-96.319259,30.643444],[-96.315716,30.644474],[-96.313108,30.644332],[-96.315426,30.647408],[-96.313743,30.645489],[-96.310646,30.648294],[-96.305167,30.643755],[-96.297073,30.649041],[-96.295338,30.650535],[-96.289163,30.656001],[-96.286825,30.658453],[-96.282294,30.657147],[-96.280019,30.659137],[-96.284033,30.660626],[-96.276086,30.666993],[-96.279799,30.669596],[-96.283935,30.675395],[-96.280559,30.678816],[-96.28793,30.685697],[-96.293217,30.69011],[-96.294571,30.688844],[-96.297323,30.691158],[-96.301987,30.68675],[-96.304366,30.684008],[-96.313469,30.675781],[-96.316435,30.673458],[-96.317277,30.672862],[-96.318639,30.672131],[-96.318827,30.671917],[-96.319086,30.670924],[-96.319097,30.670179],[-96.319303,30.669415],[-96.319679,30.66882],[-96.320502,30.667914],[-96.320254,30.669164],[-96.320618,30.669815],[-96.321045,30.670158],[-96.320968,30.670651],[-96.320349,30.670606],[-96.32025,30.670921],[-96.322003,30.672074],[-96.321367,30.673149],[-96.322135,30.674523],[-96.323243,30.674238],[-96.323424,30.675987],[-96.325259,30.676868],[-96.326064,30.678974],[-96.327982,30.679058],[-96.328004,30.677856],[-96.329829,30.678518],[-96.330747,30.679615],[-96.330318,30.680772],[-96.331017,30.681942],[-96.334309,30.682881],[-96.3359,30.682953],[-96.335955,30.682705],[-96.336045,30.682434],[-96.336117,30.682249],[-96.336163,30.682213],[-96.337266,30.679914],[-96.334428,30.67886],[-96.332956,30.67811],[-96.332639,30.676848],[-96.333332,30.674468],[-96.331417,30.673886],[-96.331726,30.673179],[-96.33396,30.673665],[-96.333243,30.671962],[-96.334207,30.668789],[-96.337059,30.670916],[-96.346935,30.684444],[-96.346607,30.683074],[-96.349353,30.679676],[-96.351279,30.677848],[-96.348828,30.675811],[-96.350298,30.674134],[-96.347681,30.671917],[-96.35405,30.671936],[-96.355401,30.671018],[-96.355945,30.672013],[-96.361329,30.66567],[-96.369605,30.658152]]]}},{"type":"Feature","properties":{"zcta5":"77868","AFFGEOID10":"8600000US77868","GEOID10":"77868","ALAND10":702699501,"AWATER10":9366194,"county_name":"Brazos","state_code":"TX","county_state":"Brazos County, TX","county_fips":"48041","risk_level_county":"Higher Risk (60–69% vaccinated)","mean_vaccination_rate_county":67.52,"risk_level_zcta":"Higher Risk (60–69% vaccinated)","mean_vaccination_rate_zips":64.29,"cases":803},"geometry":{"type":"Polygon","coordinates":[[[-96.284259,30.446782],[-96.286052,30.44286],[-96.286883,30.438557],[-96.286449,30.433756],[-96.282564,30.426614],[-96.284889,30.423715],[-96.287988,30.421287],[-96.28688,30.418834],[-96.285907,30.416922],[-96.283537,30.415588],[-96.281109,30.414831],[-96.277283,30.41554],[-96.273547,30.418325],[-96.271816,30.416388],[-96.272898,30.413887],[-96.272323,30.410202],[-96.272837,30.409042],[-96.276916,30.407031],[-96.278998,30.407422],[-96.282817,30.40982],[-96.28659,30.411661],[-96.28936,30.412401],[-96.291324,30.411968],[-96.295201,30.412367],[-96.29749,30.411787],[-96.298866,30.410502],[-96.300253,30.407269],[-96.299701,30.405057],[-96.297633,30.401827],[-96.297599,30.400421],[-96.302498,30.399403],[-96.305193,30.397216],[-96.306931,30.394586],[-96.306356,30.391715],[-96.305209,30.390492],[-96.302421,30.389695],[-96.298014,30.386957],[-96.294939,30.385623],[-96.293617,30.383574],[-96.293471,30.38145],[-96.294068,30.380235],[-96.296325,30.379062],[-96.299173,30.379152],[-96.299634,30.378808],[-96.299635,30.377772],[-96.298632,30.377022],[-96.294546,30.376218],[-96.290575,30.373394],[-96.289191,30.371485],[-96.287654,30.366334],[-96.285753,30.364689],[-96.28336,30.364326],[-96.279437,30.364468],[-96.277792,30.362837],[-96.276579,30.360266],[-96.272455,30.358468],[-96.271232,30.35835],[-96.268675,30.358675],[-96.263648,30.362343],[-96.262302,30.364658],[-96.26354,30.368192],[-96.262915,30.370021],[-96.261458,30.36997],[-96.259539,30.368723],[-96.258944,30.36735],[-96.257222,30.366403],[-96.25175,30.365384],[-96.249556,30.366277],[-96.246606,30.368514],[-96.243205,30.369719],[-96.23869,30.369006],[-96.235086,30.36972],[-96.23058,30.372206],[-96.224011,30.375377],[-96.221552,30.376241],[-96.218036,30.376693],[-96.214732,30.375881],[-96.212171,30.373679],[-96.2096,30.374173],[-96.209217,30.375842],[-96.206507,30.379],[-96.204931,30.380108],[-96.201239,30.381145],[-96.199544,30.38291],[-96.199211,30.387383],[-96.198228,30.395118],[-96.196516,30.398729],[-96.1945,30.39989],[-96.190775,30.398706],[-96.189971,30.397841],[-96.187711,30.397013],[-96.184744,30.39459],[-96.183814,30.394281],[-96.180522,30.395099],[-96.178661,30.394718],[-96.177095,30.393587],[-96.174461,30.390878],[-96.173467,30.389221],[-96.17327,30.38645],[-96.174151,30.385084],[-96.17495,30.381977],[-96.176455,30.378345],[-96.176568,30.376103],[-96.174762,30.374525],[-96.171543,30.37379],[-96.167219,30.375246],[-96.164186,30.3775],[-96.160523,30.378709],[-96.15904,30.378621],[-96.158438,30.378368],[-96.157194,30.375741],[-96.153315,30.372403],[-96.151447,30.371485],[-96.156578,30.370186],[-96.156826,30.371376],[-96.15812,30.371963],[-96.16569,30.369686],[-96.170188,30.368928],[-96.173041,30.366002],[-96.176643,30.363986],[-96.175671,30.355211],[-96.175673,30.352734],[-96.181442,30.351169],[-96.179393,30.345024],[-96.17786,30.345914],[-96.174172,30.346156],[-96.17284,30.348178],[-96.171294,30.347749],[-96.168335,30.347946],[-96.166864,30.348979],[-96.165727,30.348503],[-96.165002,30.351659],[-96.163197,30.352242],[-96.161415,30.351963],[-96.160549,30.353201],[-96.15911,30.353518],[-96.156003,30.352915],[-96.154962,30.356687],[-96.15461,30.359755],[-96.153456,30.357466],[-96.152364,30.352879],[-96.15263,30.350311],[-96.155539,30.347521],[-96.16016,30.341739],[-96.160445,30.339364],[-96.15463,30.330288],[-96.152789,30.32801],[-96.149386,30.325187],[-96.147462,30.324168],[-96.145244,30.323592],[-96.138866,30.322453],[-96.137298,30.321058],[-96.137078,30.316669],[-96.136547,30.314752],[-96.135057,30.313508],[-96.131635,30.312434],[-96.125273,30.311563],[-96.122703,30.309368],[-96.120477,30.305689],[-96.119506,30.304821],[-96.117372,30.304195],[-96.115056,30.306001],[-96.112305,30.306601],[-96.10408,30.30882],[-96.099945,30.31061],[-96.097193,30.311112],[-96.094404,30.309371],[-96.093513,30.306532],[-96.093637,30.305195],[-96.095342,30.302824],[-96.097614,30.300984],[-96.098768,30.299555],[-96.100046,30.29669],[-96.10058,30.292805],[-96.099925,30.29099],[-96.098424,30.289585],[-96.096933,30.289],[-96.09393,30.289078],[-96.089809,30.289668],[-96.087691,30.289623],[-96.085893,30.288983],[-96.084382,30.28766],[-96.084068,30.286456],[-96.084382,30.28376],[-96.085089,30.282607],[-96.090602,30.279071],[-96.091737,30.278013],[-96.093798,30.274316],[-96.094683,30.271205],[-96.094859,30.268309],[-96.095514,30.265597],[-96.098039,30.261674],[-96.099253,30.258049],[-96.09874,30.254488],[-96.094873,30.252392],[-96.089438,30.253041],[-96.08605,30.252541],[-96.084578,30.251253],[-96.08304,30.248753],[-96.080839,30.244305],[-96.081144,30.242534],[-96.083327,30.238312],[-96.087671,30.23777],[-96.090396,30.238883],[-96.094423,30.242386],[-96.096936,30.243007],[-96.098571,30.242736],[-96.101346,30.24088],[-96.103145,30.238681],[-96.105379,30.23287],[-96.104367,30.231473],[-96.101477,30.23076],[-96.098248,30.230439],[-96.09557,30.22876],[-96.093165,30.225187],[-96.091453,30.225994],[-96.08991,30.227433],[-96.088941,30.228718],[-96.072849,30.229491],[-96.069319,30.229964],[-96.004798,30.233722],[-96.004125,30.211818],[-96.002767,30.213289],[-96.001705,30.213491],[-95.988369,30.213977],[-95.98722,30.214392],[-95.985283,30.217088],[-95.985539,30.227056],[-95.995106,30.227344],[-95.995419,30.234256],[-95.953773,30.236964],[-95.950301,30.236905],[-95.948958,30.236882],[-95.93859,30.237559],[-95.928931,30.237624],[-95.923283,30.237284],[-95.911538,30.238236],[-95.913394,30.242781],[-95.914007,30.24604],[-95.915026,30.246567],[-95.91576,30.249567],[-95.916964,30.249547],[-95.917099,30.253817],[-95.915225,30.253861],[-95.91635,30.259372],[-95.917509,30.26317],[-95.913703,30.263463],[-95.914092,30.273865],[-95.914428,30.275084],[-95.898362,30.275355],[-95.898512,30.280859],[-95.897614,30.283137],[-95.898249,30.289761],[-95.898905,30.291932],[-95.899033,30.300973],[-95.884896,30.30114],[-95.895338,30.337102],[-95.899392,30.338649],[-95.899626,30.340245],[-95.910124,30.343773],[-95.912955,30.345787],[-95.913136,30.353674],[-95.915634,30.354532],[-95.915821,30.362646],[-95.902968,30.362979],[-95.902086,30.363455],[-95.873109,30.360872],[-95.873721,30.382324],[-95.907404,30.382024],[-95.91494,30.409323],[-95.90662,30.409529],[-95.904524,30.40928],[-95.900769,30.407752],[-95.898395,30.407455],[-95.893051,30.408159],[-95.892762,30.404832],[-95.890936,30.406338],[-95.890571,30.408023],[-95.892716,30.414639],[-95.891729,30.414322],[-95.892046,30.416966],[-95.893362,30.420346],[-95.893375,30.421473],[-95.895016,30.421461],[-95.895648,30.422858],[-95.887793,30.423854],[-95.875218,30.423905],[-95.872965,30.42449],[-95.869328,30.424761],[-95.869397,30.429125],[-95.861046,30.429427],[-95.860055,30.42923],[-95.860542,30.425532],[-95.854919,30.421839],[-95.853342,30.419799],[-95.850343,30.419133],[-95.850376,30.415904],[-95.848903,30.411964],[-95.848864,30.40915],[-95.848197,30.406638],[-95.846433,30.403891],[-95.845519,30.400577],[-95.84472,30.400055],[-95.843339,30.402677],[-95.840727,30.406426],[-95.839669,30.409168],[-95.838262,30.411329],[-95.838678,30.413547],[-95.835682,30.414189],[-95.835641,30.415162],[-95.838385,30.417592],[-95.839282,30.41988],[-95.839714,30.426161],[-95.843656,30.426384],[-95.846364,30.428902],[-95.84244,30.430041],[-95.839169,30.42992],[-95.837346,30.430846],[-95.836117,30.434026],[-95.833527,30.43529],[-95.832158,30.437876],[-95.82956,30.439794],[-95.827842,30.442164],[-95.825783,30.44237],[-95.82872,30.444483],[-95.830026,30.443422],[-95.834263,30.443712],[-95.840068,30.445211],[-95.841171,30.444315],[-95.842909,30.444221],[-95.843791,30.442748],[-95.846055,30.443138],[-95.847266,30.441565],[-95.84934,30.441455],[-95.854764,30.442431],[-95.855532,30.44331],[-95.859972,30.443539],[-95.861335,30.442775],[-95.862687,30.443846],[-95.865567,30.443636],[-95.86712,30.44264],[-95.867424,30.441112],[-95.869148,30.439353],[-95.87029,30.439841],[-95.87282,30.439565],[-95.873473,30.438631],[-95.876878,30.438268],[-95.87727,30.439757],[-95.879763,30.439841],[-95.88098,30.440517],[-95.884704,30.439095],[-95.88752,30.439151],[-95.890241,30.440009],[-95.893177,30.442808],[-95.895661,30.442769],[-95.895639,30.43928],[-95.898637,30.439197],[-95.900791,30.439715],[-95.902479,30.440286],[-95.902727,30.444352],[-95.904237,30.44706],[-95.911893,30.451601],[-95.921488,30.459198],[-95.924819,30.455538],[-95.926713,30.454539],[-95.931662,30.45074],[-95.934356,30.449995],[-95.936596,30.45008],[-95.939695,30.449358],[-95.94174,30.446914],[-95.961753,30.440193],[-95.962711,30.440604],[-95.963524,30.442847],[-95.966208,30.448321],[-95.968308,30.447941],[-95.970458,30.448418],[-95.973166,30.447752],[-95.97413,30.446461],[-95.978228,30.447284],[-95.979572,30.446288],[-95.98164,30.446387],[-95.981995,30.445738],[-95.985229,30.444791],[-95.987069,30.445692],[-95.988299,30.445461],[-95.988571,30.444021],[-95.99069,30.444311],[-95.99138,30.44353],[-95.99525,30.444353],[-95.994255,30.445271],[-95.995682,30.446078],[-95.995519,30.44909],[-96.000618,30.448687],[-96.00274,30.449484],[-96.002149,30.447885],[-96.004633,30.446851],[-96.006205,30.443339],[-96.00407,30.439204],[-96.001877,30.439738],[-96.002423,30.441125],[-95.99669,30.442431],[-95.988297,30.424049],[-95.989099,30.423208],[-95.994782,30.419254],[-95.99608,30.422519],[-95.999114,30.428906],[-95.999885,30.429715],[-96.004404,30.439243],[-96.010095,30.437562],[-96.009676,30.439931],[-96.011583,30.442691],[-96.012432,30.441453],[-96.011801,30.436862],[-96.012639,30.436308],[-96.021121,30.433767],[-96.024692,30.432132],[-96.027522,30.430184],[-96.03653,30.427093],[-96.03839,30.426631],[-96.040867,30.426976],[-96.043683,30.426457],[-96.037318,30.433888],[-96.03664,30.435957],[-96.035751,30.435642],[-96.028239,30.444134],[-96.02721,30.446024],[-96.027188,30.450737],[-96.026807,30.452573],[-96.024913,30.456395],[-96.022847,30.459044],[-96.028135,30.469006],[-96.051457,30.460818],[-96.05352,30.459854],[-96.055944,30.460414],[-96.058873,30.459359],[-96.05815,30.454851],[-96.055916,30.448765],[-96.057012,30.446479],[-96.059748,30.442587],[-96.061968,30.441732],[-96.062738,30.440468],[-96.062728,30.438286],[-96.064447,30.437098],[-96.068754,30.436306],[-96.072071,30.437581],[-96.072591,30.436185],[-96.075096,30.435712],[-96.076853,30.435938],[-96.080938,30.438092],[-96.086,30.435559],[-96.090585,30.438024],[-96.092821,30.440101],[-96.094352,30.438887],[-96.095702,30.438749],[-96.097172,30.437464],[-96.099056,30.440058],[-96.100629,30.440693],[-96.103808,30.437507],[-96.105196,30.437023],[-96.106437,30.440178],[-96.104993,30.440548],[-96.104673,30.444007],[-96.109604,30.443675],[-96.111887,30.442693],[-96.113073,30.440607],[-96.114222,30.441275],[-96.115909,30.440427],[-96.120453,30.441921],[-96.122038,30.443782],[-96.1218,30.444834],[-96.123164,30.446118],[-96.123016,30.447038],[-96.126509,30.449508],[-96.125398,30.451479],[-96.123905,30.45157],[-96.122819,30.454816],[-96.124688,30.455383],[-96.12509,30.453858],[-96.128129,30.453441],[-96.129821,30.452384],[-96.129403,30.455314],[-96.126619,30.456492],[-96.12614,30.457276],[-96.12822,30.458409],[-96.129709,30.460115],[-96.128808,30.461745],[-96.130191,30.463636],[-96.129431,30.465829],[-96.133409,30.467531],[-96.135632,30.466084],[-96.136457,30.467084],[-96.135812,30.46893],[-96.137983,30.471037],[-96.139431,30.471383],[-96.139903,30.472482],[-96.13878,30.473921],[-96.140852,30.47497],[-96.139499,30.476014],[-96.139567,30.478764],[-96.137724,30.47916],[-96.137775,30.477463],[-96.13656,30.476459],[-96.136087,30.47743],[-96.136976,30.478499],[-96.135445,30.480363],[-96.136952,30.481078],[-96.135604,30.483317],[-96.133907,30.483344],[-96.133013,30.484253],[-96.133039,30.48594],[-96.1321,30.49054],[-96.133232,30.492395],[-96.134826,30.492069],[-96.134976,30.49331],[-96.136386,30.493034],[-96.136032,30.494975],[-96.138004,30.496038],[-96.136618,30.499628],[-96.138342,30.501417],[-96.139108,30.500448],[-96.142185,30.50038],[-96.142913,30.502442],[-96.144127,30.502645],[-96.144688,30.503893],[-96.142248,30.503928],[-96.142589,30.505807],[-96.141061,30.506389],[-96.141009,30.50785],[-96.140033,30.508615],[-96.141584,30.509175],[-96.143473,30.511118],[-96.144808,30.510739],[-96.146787,30.51181],[-96.147571,30.511628],[-96.148691,30.511286],[-96.151783,30.508688],[-96.152763,30.507081],[-96.154092,30.506558],[-96.157536,30.506819],[-96.158635,30.506453],[-96.160197,30.508082],[-96.161412,30.507809],[-96.161895,30.509357],[-96.164591,30.509386],[-96.164765,30.507688],[-96.16575,30.507059],[-96.166993,30.511305],[-96.168794,30.51091],[-96.169876,30.511706],[-96.169226,30.512428],[-96.16908,30.514365],[-96.170853,30.515836],[-96.17214,30.514721],[-96.173312,30.511785],[-96.175316,30.510856],[-96.177693,30.510308],[-96.180083,30.510784],[-96.182819,30.508176],[-96.183493,30.508249],[-96.184622,30.510023],[-96.186525,30.510899],[-96.187432,30.510371],[-96.19027,30.510782],[-96.19309,30.510762],[-96.195192,30.511626],[-96.196297,30.513319],[-96.1974,30.513555],[-96.197452,30.502668],[-96.198267,30.498551],[-96.198202,30.495374],[-96.199121,30.492288],[-96.205173,30.485199],[-96.205939,30.481374],[-96.204132,30.477318],[-96.203569,30.47464],[-96.204347,30.470576],[-96.204035,30.469083],[-96.204541,30.467645],[-96.211271,30.469031],[-96.248417,30.479855],[-96.249042,30.478758],[-96.251726,30.478514],[-96.25294,30.475844],[-96.254521,30.474556],[-96.2569,30.46907],[-96.257075,30.464325],[-96.260897,30.464378],[-96.262766,30.460745],[-96.265434,30.459207],[-96.26734,30.456806],[-96.269959,30.455498],[-96.271001,30.455659],[-96.276065,30.454334],[-96.276399,30.453281],[-96.279484,30.452053],[-96.281688,30.452653],[-96.282312,30.449723],[-96.284259,30.446782]]]}}]}