{"type":"FeatureCollection","features":[{"type":"Feature","properties":{"zcta5":"78355","AFFGEOID10":"8600000US78355","GEOID10":"78355","ALAND10":886876395,"AWATER10":568225,"county_name":"Brooks","state_code":"TX","county_state":"Brooks County, TX","county_fips":"48047","risk_level_county":"Very High Risk (<60% vaccinated)","mean_vaccination_rate_county":57.74,"risk_level_zcta":"Very High Risk (<60% vaccinated)","mean_vaccination_rate_zips":56.96,"cases":188},"geometry":{"type":"Polygon","coordinates":[[[-98.535784,27.265158],[-98.536646,27.265196],[-98.53411,27.261885],[-98.533661,27.260723],[-98.533612,27.258071],[-98.531575,27.254796],[-98.530048,27.253849],[-98.527277,27.253],[-98.522276,27.254089],[-98.520916,27.253032],[-98.519347,27.25023],[-98.518608,27.25018],[-98.514241,27.251505],[-98.512437,27.251196],[-98.510897,27.249997],[-98.510313,27.247845],[-98.509798,27.24375],[-98.505928,27.238608],[-98.496471,27.236913],[-98.492943,27.235012],[-98.492917,27.17466],[-98.489904,27.174616],[-98.486347,27.175525],[-98.481513,27.178054],[-98.479101,27.178535],[-98.472869,27.177613],[-98.470765,27.178093],[-98.468174,27.177679],[-98.461249,27.175176],[-98.456638,27.175114],[-98.453537,27.176481],[-98.450085,27.176604],[-98.444337,27.177217],[-98.441949,27.17648],[-98.439298,27.177027],[-98.433006,27.179905],[-98.42806,27.180954],[-98.423555,27.180689],[-98.418934,27.178669],[-98.416553,27.178019],[-98.415325,27.176889],[-98.416742,27.175543],[-98.418373,27.176065],[-98.426636,27.17357],[-98.428252,27.168824],[-98.427791,27.167081],[-98.428252,27.164742],[-98.429611,27.162701],[-98.432743,27.155018],[-98.432744,27.153763],[-98.4339,27.151733],[-98.435109,27.1479],[-98.435034,27.145001],[-98.439558,27.139861],[-98.435268,27.136916],[-98.434611,27.135528],[-98.434623,27.130019],[-98.417721,27.12494],[-98.415013,27.127951],[-98.412539,27.127745],[-98.406842,27.128133],[-98.397442,27.127885],[-98.397845,27.125007],[-98.392109,27.124978],[-98.383357,27.120828],[-98.38134,27.113871],[-98.379402,27.113859],[-98.37984,27.109818],[-98.378836,27.11039],[-98.376386,27.110273],[-98.374676,27.111823],[-98.37456,27.113119],[-98.373325,27.11183],[-98.371917,27.111548],[-98.368576,27.109885],[-98.366402,27.107827],[-98.363977,27.10752],[-98.36213,27.104845],[-98.360487,27.104739],[-98.360016,27.102726],[-98.357279,27.099368],[-98.342269,27.099577],[-98.342636,27.114055],[-98.340595,27.114067],[-98.340538,27.116036],[-98.311453,27.11613],[-98.31156,27.105994],[-98.309655,27.106532],[-98.309135,27.107413],[-98.306545,27.109238],[-98.304497,27.108732],[-98.302491,27.109433],[-98.303961,27.103548],[-98.308045,27.092157],[-98.307589,27.087901],[-98.308345,27.084858],[-98.306043,27.084862],[-98.30567,27.081655],[-98.304098,27.081216],[-98.302339,27.082208],[-98.298876,27.079462],[-98.299002,27.09274],[-98.292341,27.092808],[-98.292289,27.097623],[-98.282373,27.097507],[-98.282889,27.087898],[-98.282456,27.079161],[-98.275547,27.068596],[-98.274403,27.063387],[-98.268835,27.059799],[-98.260445,27.055046],[-98.259256,27.054044],[-98.257456,27.04817],[-98.255363,27.047474],[-98.251325,27.046984],[-98.242838,27.04692],[-98.229072,27.078449],[-98.222454,27.082035],[-98.219315,27.092158],[-98.218877,27.093126],[-98.219739,27.099425],[-98.219459,27.100058],[-98.217433,27.101658],[-98.209809,27.106254],[-98.208997,27.107099],[-98.193924,27.098769],[-98.193922,27.097711],[-98.191084,27.09752],[-98.184223,27.09463],[-98.18203,27.095253],[-98.18141,27.093428],[-98.166079,27.086782],[-98.165302,27.054726],[-98.159625,27.055186],[-98.158051,27.054066],[-98.156257,27.053712],[-98.154148,27.054105],[-98.150448,27.055567],[-98.143396,27.05753],[-98.142397,27.043601],[-98.140691,27.034632],[-98.139018,27.031845],[-98.138887,27.025817],[-98.136331,27.013403],[-98.136057,27.005504],[-98.131677,27.006013],[-98.127975,27.005673],[-98.12553,27.011078],[-98.122989,27.014657],[-98.120665,27.019983],[-98.115762,27.020203],[-98.114963,27.02197],[-98.11514,27.027103],[-98.116016,27.030036],[-98.118044,27.034001],[-98.119887,27.036751],[-98.119456,27.038966],[-98.118051,27.039835],[-98.116581,27.041997],[-98.113175,27.049976],[-98.113133,27.052494],[-98.111014,27.059968],[-98.093147,27.050536],[-98.083075,27.045734],[-98.080438,27.043982],[-98.072234,27.055473],[-98.065006,27.054653],[-98.060194,27.053027],[-98.059674,27.059973],[-98.060296,27.058514],[-98.06184,27.0585],[-98.060833,27.062304],[-98.061316,27.063438],[-98.063072,27.063357],[-98.063443,27.064315],[-98.064946,27.064077],[-98.06495,27.062846],[-98.066916,27.063114],[-98.069698,27.064337],[-98.071492,27.065621],[-98.074526,27.065476],[-98.077705,27.067197],[-98.076789,27.070124],[-98.075711,27.071493],[-98.074253,27.070976],[-98.072165,27.072245],[-98.075041,27.074768],[-98.077982,27.075357],[-98.081403,27.075495],[-98.085578,27.07694],[-98.089907,27.075564],[-98.098283,27.074438],[-98.09923,27.074094],[-98.107224,27.078059],[-98.106482,27.079802],[-98.106457,27.082026],[-98.104562,27.085306],[-98.096261,27.082258],[-98.084204,27.078258],[-98.080598,27.083418],[-98.076314,27.085795],[-98.07438,27.088079],[-98.069374,27.091814],[-98.068055,27.093314],[-98.065817,27.094686],[-98.064551,27.094648],[-98.064418,27.096142],[-98.058994,27.095812],[-98.038921,27.09219],[-98.033646,27.089793],[-98.040318,27.118405],[-98.040188,27.120656],[-98.04076,27.123605],[-98.04208,27.126962],[-98.045356,27.131201],[-98.045655,27.132295],[-98.03795,27.132215],[-98.037328,27.132866],[-98.037667,27.138271],[-98.03816,27.138864],[-98.036248,27.14417],[-98.035197,27.145755],[-98.040089,27.150901],[-98.03879,27.152418],[-98.037366,27.152982],[-98.034558,27.156892],[-98.035,27.158828],[-98.034082,27.159127],[-98.02999,27.163125],[-98.029981,27.164698],[-98.032622,27.164725],[-98.037669,27.166149],[-98.04028,27.166561],[-98.040481,27.167482],[-98.042916,27.167681],[-98.041319,27.173834],[-98.038502,27.174686],[-98.03781,27.181551],[-98.037142,27.185101],[-98.034525,27.184807],[-98.032217,27.186366],[-98.024883,27.187167],[-98.024704,27.191537],[-98.023485,27.193062],[-98.018743,27.197376],[-97.998513,27.197354],[-97.998092,27.197582],[-97.997945,27.200796],[-97.998558,27.203042],[-97.997444,27.203056],[-97.997558,27.210781],[-97.996742,27.212205],[-97.997089,27.241945],[-98.0041,27.248341],[-97.994981,27.253362],[-97.995493,27.257841],[-97.997677,27.256301],[-98.000178,27.256655],[-98.001806,27.25772],[-98.008747,27.257815],[-98.009952,27.260498],[-98.035588,27.26077],[-98.03625,27.261767],[-98.030806,27.266107],[-98.022275,27.276575],[-98.027492,27.281585],[-98.028291,27.282981],[-98.028119,27.284065],[-98.025479,27.286498],[-98.018529,27.291003],[-98.018499,27.314912],[-98.01309,27.314994],[-98.013235,27.33769],[-98.013557,27.339431],[-98.015874,27.341706],[-98.018117,27.34273],[-98.03046,27.342609],[-98.032033,27.342944],[-98.033105,27.345273],[-98.034327,27.346151],[-98.04095,27.346136],[-98.040328,27.349084],[-98.044342,27.34851],[-98.046364,27.348695],[-98.050151,27.346056],[-98.052947,27.346324],[-98.053907,27.347507],[-98.053845,27.340618],[-98.058354,27.342564],[-98.057996,27.346445],[-98.058523,27.346712],[-98.058423,27.327777],[-98.068179,27.328179],[-98.084283,27.327987],[-98.088723,27.32748],[-98.090889,27.325999],[-98.127874,27.32071],[-98.12742,27.324038],[-98.147345,27.323461],[-98.147824,27.334288],[-98.14958,27.334142],[-98.150168,27.33802],[-98.164275,27.337488],[-98.163423,27.319233],[-98.179747,27.318586],[-98.179163,27.307632],[-98.175031,27.307782],[-98.174415,27.293157],[-98.194713,27.292409],[-98.196762,27.336273],[-98.221141,27.335359],[-98.221841,27.34997],[-98.22581,27.349833],[-98.22703,27.350746],[-98.227126,27.349777],[-98.229921,27.349676],[-98.229266,27.335055],[-98.232719,27.33493],[-98.232464,27.262487],[-98.215328,27.262326],[-98.215364,27.25511],[-98.218261,27.257859],[-98.218751,27.25042],[-98.217412,27.249993],[-98.209023,27.249127],[-98.205311,27.245627],[-98.208853,27.245825],[-98.209972,27.244394],[-98.21172,27.246298],[-98.222945,27.249163],[-98.227221,27.249317],[-98.227032,27.242668],[-98.224104,27.239548],[-98.224167,27.23584],[-98.22317,27.235445],[-98.222243,27.233676],[-98.222048,27.23083],[-98.223871,27.230987],[-98.224929,27.232249],[-98.228578,27.231509],[-98.229894,27.230151],[-98.236421,27.229968],[-98.238274,27.229209],[-98.242775,27.229366],[-98.243041,27.227674],[-98.23668,27.224425],[-98.238276,27.22308],[-98.240651,27.222663],[-98.245896,27.22662],[-98.247672,27.226962],[-98.249058,27.225738],[-98.250374,27.226974],[-98.25234,27.226214],[-98.253251,27.225083],[-98.252713,27.223562],[-98.254531,27.22342],[-98.251506,27.213279],[-98.248656,27.211433],[-98.239395,27.21528],[-98.241333,27.213501],[-98.246663,27.209956],[-98.247812,27.208241],[-98.247385,27.205791],[-98.244949,27.202173],[-98.242572,27.203712],[-98.240281,27.203464],[-98.236632,27.203726],[-98.236041,27.200364],[-98.237729,27.197275],[-98.23943,27.195679],[-98.239844,27.194182],[-98.238816,27.193041],[-98.236385,27.19189],[-98.234065,27.191615],[-98.223699,27.186773],[-98.248058,27.17469],[-98.249705,27.173964],[-98.254095,27.173165],[-98.264451,27.173136],[-98.26727,27.172545],[-98.269606,27.17575],[-98.272736,27.178564],[-98.274916,27.178037],[-98.288456,27.17311],[-98.28925,27.173431],[-98.289352,27.17765],[-98.288608,27.180379],[-98.289684,27.18242],[-98.288862,27.186227],[-98.289015,27.187832],[-98.287553,27.19134],[-98.287476,27.194162],[-98.2895,27.194617],[-98.290458,27.196016],[-98.290569,27.202373],[-98.291882,27.206128],[-98.294214,27.207135],[-98.296579,27.198298],[-98.307462,27.204079],[-98.308206,27.212114],[-98.308246,27.216858],[-98.310709,27.214619],[-98.31288,27.211722],[-98.318223,27.207843],[-98.329187,27.203315],[-98.331335,27.192019],[-98.332216,27.18922],[-98.337389,27.190065],[-98.337093,27.192661],[-98.342753,27.19353],[-98.359463,27.207204],[-98.360025,27.20782],[-98.363238,27.207346],[-98.366019,27.207593],[-98.373984,27.205813],[-98.376527,27.205789],[-98.386028,27.207692],[-98.392701,27.209312],[-98.396908,27.209989],[-98.39737,27.208379],[-98.399985,27.20812],[-98.40132,27.206968],[-98.404552,27.207143],[-98.404487,27.209551],[-98.40524,27.210725],[-98.414658,27.230053],[-98.416573,27.228712],[-98.419537,27.228944],[-98.421446,27.229593],[-98.420801,27.231698],[-98.423488,27.232117],[-98.42619,27.233281],[-98.427714,27.235468],[-98.425972,27.238523],[-98.425285,27.241505],[-98.428127,27.242582],[-98.428096,27.244002],[-98.422453,27.245682],[-98.421324,27.24565],[-98.404456,27.24281],[-98.409686,27.246217],[-98.413444,27.24665],[-98.41392,27.263914],[-98.456237,27.264398],[-98.523284,27.26515],[-98.533625,27.265249],[-98.535784,27.265158]]]}},{"type":"Feature","properties":{"zcta5":"78353","AFFGEOID10":"8600000US78353","GEOID10":"78353","ALAND10":525822550,"AWATER10":83344,"county_name":"Brooks","state_code":"TX","county_state":"Brooks County, TX","county_fips":"48047","risk_level_county":"Very High Risk (<60% vaccinated)","mean_vaccination_rate_county":57.74,"risk_level_zcta":"Uninhabited","mean_vaccination_rate_zips":null,"cases":188},"geometry":{"type":"Polygon","coordinates":[[[-98.136057,27.005504],[-98.135984,26.961648],[-98.136249,26.982388],[-98.142554,26.983526],[-98.143648,26.983173],[-98.14572,26.983731],[-98.147434,26.983128],[-98.148908,26.980685],[-98.151113,26.981031],[-98.151188,26.972119],[-98.150428,26.970818],[-98.150856,26.969769],[-98.150945,26.962119],[-98.179929,26.96217],[-98.190474,26.962453],[-98.191581,26.995287],[-98.194157,26.99591],[-98.195393,26.997227],[-98.196898,27.000326],[-98.197237,27.001939],[-98.199842,27.003139],[-98.202575,27.002277],[-98.204411,27.00226],[-98.206644,27.002982],[-98.206789,27.007727],[-98.206346,27.008547],[-98.207713,27.009054],[-98.208346,27.021856],[-98.25093,26.975729],[-98.256487,26.978233],[-98.267049,26.987623],[-98.270341,26.990806],[-98.280696,26.997001],[-98.281123,26.996082],[-98.280904,26.98278],[-98.284098,26.98206],[-98.285009,26.980266],[-98.281759,26.976552],[-98.281534,26.965967],[-98.281872,26.965083],[-98.280945,26.963099],[-98.280094,26.959643],[-98.277912,26.955105],[-98.277435,26.953148],[-98.279752,26.948922],[-98.280688,26.936702],[-98.27728,26.936112],[-98.277401,26.932268],[-98.276881,26.929943],[-98.281656,26.929926],[-98.282149,26.91856],[-98.282139,26.913606],[-98.283992,26.913329],[-98.283549,26.90508],[-98.286425,26.902866],[-98.300584,26.903633],[-98.303796,26.903627],[-98.305059,26.907515],[-98.306435,26.907515],[-98.305984,26.861305],[-98.329804,26.880295],[-98.330767,26.884351],[-98.344137,26.8839],[-98.348341,26.882903],[-98.355292,26.882325],[-98.356187,26.875435],[-98.361772,26.874012],[-98.371584,26.868945],[-98.374499,26.868432],[-98.374812,26.868909],[-98.375449,26.880693],[-98.408516,26.878017],[-98.409437,26.846947],[-98.401932,26.846445],[-98.395395,26.846456],[-98.391356,26.845964],[-98.385807,26.844592],[-98.385116,26.842268],[-98.385411,26.829503],[-98.382159,26.82976],[-98.379387,26.832441],[-98.382583,26.834695],[-98.381731,26.834182],[-98.381713,26.836525],[-98.378201,26.836529],[-98.378304,26.840351],[-98.377689,26.840016],[-98.37769,26.836504],[-98.366726,26.836348],[-98.362009,26.837918],[-98.359421,26.842867],[-98.361178,26.844121],[-98.355834,26.857487],[-98.354558,26.857956],[-98.35082,26.841899],[-98.350961,26.833927],[-98.351642,26.832288],[-98.353214,26.826339],[-98.378218,26.832054],[-98.378214,26.826525],[-98.381514,26.82577],[-98.38169,26.816295],[-98.385577,26.816472],[-98.386012,26.812172],[-98.402604,26.812316],[-98.406622,26.811982],[-98.406653,26.809542],[-98.409446,26.809574],[-98.409511,26.804796],[-98.409073,26.802179],[-98.412417,26.802211],[-98.412976,26.804],[-98.412726,26.80741],[-98.418005,26.807522],[-98.420184,26.809427],[-98.420249,26.812661],[-98.422184,26.812711],[-98.422616,26.783535],[-98.40157,26.783404],[-98.32067,26.783081],[-98.193184,26.782415],[-98.182729,26.797343],[-98.183103,26.802168],[-98.183142,26.820735],[-98.185765,26.818894],[-98.18617,26.817816],[-98.189079,26.814282],[-98.195751,26.808644],[-98.203855,26.802995],[-98.205597,26.800812],[-98.20814,26.798773],[-98.209466,26.798227],[-98.209766,26.799143],[-98.209711,26.802609],[-98.208459,26.81085],[-98.211143,26.813715],[-98.214465,26.81443],[-98.213835,26.818064],[-98.214997,26.820839],[-98.220351,26.819008],[-98.221364,26.82557],[-98.223971,26.829993],[-98.223902,26.83176],[-98.221371,26.832357],[-98.218814,26.832472],[-98.2136,26.832267],[-98.209664,26.833024],[-98.206213,26.832795],[-98.203478,26.833277],[-98.200294,26.833427],[-98.198413,26.833095],[-98.192568,26.833826],[-98.187123,26.835277],[-98.184214,26.8349],[-98.181967,26.833999],[-98.179791,26.833762],[-98.176601,26.8346],[-98.174017,26.83482],[-98.173412,26.835607],[-98.168768,26.836086],[-98.166805,26.835018],[-98.164993,26.834624],[-98.161072,26.832963],[-98.159084,26.831465],[-98.155365,26.830279],[-98.154459,26.828963],[-98.151868,26.82681],[-98.15174,26.82621],[-98.148476,26.82419],[-98.146284,26.824481],[-98.143936,26.823293],[-98.140632,26.819726],[-98.135577,26.815538],[-98.134824,26.817538],[-98.13272,26.820327],[-98.131773,26.821015],[-98.131769,26.821954],[-98.13292,26.823367],[-98.13561,26.825324],[-98.135582,26.833799],[-98.133534,26.83707],[-98.130801,26.839211],[-98.12964,26.84162],[-98.126985,26.842172],[-98.121168,26.825901],[-98.120873,26.824745],[-98.117886,26.805179],[-98.116621,26.800929],[-98.114331,26.79995],[-98.101273,26.799998],[-98.094939,26.838047],[-98.084785,26.835176],[-98.084252,26.837873],[-98.080958,26.846056],[-98.080914,26.847133],[-98.08655,26.860045],[-98.088113,26.861773],[-98.088697,26.86366],[-98.090404,26.865171],[-98.089029,26.866015],[-98.090009,26.86818],[-98.086243,26.885923],[-98.077852,26.938784],[-98.065796,26.963133],[-98.080227,26.972124],[-98.080951,26.972447],[-98.082813,26.972147],[-98.08375,26.97141],[-98.084468,26.973778],[-98.083944,26.975267],[-98.085089,26.976688],[-98.08745,26.98227],[-98.087183,26.984932],[-98.088537,26.986936],[-98.08921,26.989344],[-98.090525,26.991908],[-98.090298,27.003858],[-98.092574,27.004642],[-98.108419,27.004672],[-98.110601,27.005595],[-98.112979,27.005671],[-98.127975,27.005673],[-98.131677,27.006013],[-98.136057,27.005504]]]}}]}