{"type":"FeatureCollection","features":[{"type":"Feature","properties":{"zcta5":"57325","AFFGEOID10":"8600000US57325","GEOID10":"57325","ALAND10":566597506,"AWATER10":68250866,"county_name":"Buffalo","state_code":"SD","county_state":"Buffalo County, SD","county_fips":"46017","risk_level_county":"Higher Risk (60–69% vaccinated)","mean_vaccination_rate_county":66.49,"risk_level_zcta":"Medium Risk (70–79% vaccinated)","mean_vaccination_rate_zips":79.03,"cases":11},"geometry":{"type":"Polygon","coordinates":[[[-99.44428,43.691673],[-99.450566,43.689797],[-99.456258,43.686923],[-99.468781,43.675662],[-99.469222,43.674928],[-99.469097,43.672803],[-99.465393,43.666588],[-99.464133,43.663849],[-99.462031,43.658955],[-99.460934,43.657264],[-99.458809,43.6558],[-99.455601,43.654539],[-99.449862,43.652982],[-99.442576,43.651958],[-99.434494,43.651724],[-99.429398,43.651979],[-99.421595,43.653097],[-99.417385,43.653986],[-99.404032,43.657145],[-99.391342,43.658432],[-99.383127,43.658206],[-99.377259,43.657303],[-99.375378,43.656869],[-99.366827,43.652879],[-99.360377,43.647646],[-99.355636,43.642347],[-99.351361,43.634961],[-99.348375,43.628756],[-99.347368,43.624997],[-99.345888,43.620874],[-99.343456,43.615965],[-99.342226,43.610652],[-99.341054,43.60201],[-99.341084,43.593168],[-99.339601,43.580929],[-99.336851,43.574909],[-99.33187,43.570744],[-99.329551,43.568052],[-99.3253,43.562489],[-99.323765,43.561131],[-99.3119,43.554121],[-99.309653,43.551307],[-99.295658,43.542121],[-99.287794,43.535609],[-99.283342,43.531147],[-99.282496,43.529664],[-99.281424,43.525799],[-99.281499,43.524234],[-99.282777,43.518315],[-99.285144,43.513919],[-99.291971,43.504585],[-99.297882,43.499856],[-99.190084,43.499714],[-99.19046,43.528652],[-99.170173,43.528556],[-99.170795,43.549047],[-99.170628,43.557421],[-99.160608,43.557384],[-99.151596,43.557038],[-99.151768,43.585837],[-99.171319,43.585857],[-99.171687,43.600376],[-99.191305,43.600432],[-99.191256,43.614879],[-99.211384,43.614916],[-99.211428,43.629379],[-99.271368,43.629506],[-99.271753,43.701777],[-99.272006,43.730641],[-99.271902,43.744995],[-99.272367,43.756686],[-99.265097,43.754066],[-99.260931,43.752995],[-99.255569,43.752538],[-99.232733,43.752264],[-99.232832,43.75932],[-99.252753,43.759464],[-99.252946,43.78824],[-99.232638,43.788416],[-99.213047,43.787769],[-99.213352,43.802241],[-99.183106,43.802208],[-99.183741,43.84512],[-99.185099,43.847329],[-99.20676,43.847314],[-99.206883,43.876424],[-99.207718,43.879038],[-99.209194,43.881674],[-99.209165,43.882952],[-99.231054,43.905786],[-99.239699,43.919272],[-99.246745,43.933038],[-99.248772,43.933352],[-99.261092,43.952425],[-99.258622,43.952225],[-99.259225,43.950327],[-99.256789,43.949046],[-99.254825,43.950828],[-99.256818,43.95211],[-99.256151,43.95426],[-99.25441,43.953893],[-99.253652,43.952177],[-99.252007,43.95181],[-99.251433,43.955218],[-99.248755,43.955927],[-99.249392,43.958693],[-99.248349,43.959654],[-99.242875,43.959473],[-99.243319,43.960274],[-99.241262,43.960435],[-99.238793,43.958949],[-99.236895,43.959728],[-99.234995,43.958492],[-99.232274,43.958951],[-99.226876,43.960616],[-99.226849,43.962118],[-99.262612,43.961909],[-99.265382,43.962734],[-99.266721,43.964451],[-99.266516,44.006086],[-99.275569,44.005922],[-99.277013,44.006248],[-99.282787,44.010451],[-99.28322,44.011352],[-99.282093,44.018348],[-99.284928,44.019569],[-99.286304,44.019579],[-99.285168,44.073927],[-99.289679,44.073874],[-99.30948,44.077442],[-99.31464,44.077808],[-99.346153,44.077101],[-99.381611,44.077357],[-99.381023,44.076004],[-99.379181,44.07482],[-99.379083,44.071122],[-99.374933,44.070357],[-99.374332,44.069025],[-99.374753,44.067565],[-99.374085,44.066729],[-99.374448,44.063999],[-99.375161,44.063022],[-99.372617,44.062714],[-99.373605,44.059405],[-99.372228,44.05856],[-99.36869,44.057501],[-99.360883,44.056787],[-99.360968,44.0551],[-99.359655,44.055075],[-99.355773,44.053728],[-99.354097,44.052407],[-99.349846,44.050928],[-99.346904,44.047464],[-99.330772,44.031054],[-99.327288,44.027913],[-99.325715,44.025878],[-99.286412,43.985823],[-99.286406,43.983658],[-99.289353,43.98401],[-99.309996,43.987679],[-99.311138,43.987769],[-99.312957,43.987641],[-99.317507,43.986242],[-99.320867,43.985641],[-99.325513,43.985588],[-99.324931,43.983578],[-99.322831,43.981963],[-99.317957,43.980322],[-99.31546,43.978254],[-99.318069,43.97804],[-99.321512,43.97509],[-99.322173,43.976447],[-99.320965,43.977648],[-99.32163,43.978715],[-99.323524,43.979346],[-99.328457,43.979414],[-99.332409,43.978249],[-99.333262,43.978449],[-99.3336,43.983288],[-99.333438,43.985809],[-99.332802,43.986539],[-99.33388,43.989603],[-99.33591,43.992599],[-99.336766,43.995343],[-99.339682,44.0006],[-99.34374,44.005379],[-99.3473,44.009075],[-99.347456,44.014124],[-99.350696,44.017117],[-99.355141,44.018887],[-99.356666,44.019894],[-99.364595,44.027142],[-99.366469,44.026346],[-99.366665,44.025331],[-99.364711,44.024771],[-99.366683,44.023573],[-99.368508,44.021781],[-99.378559,44.01309],[-99.370643,44.006693],[-99.367411,44.004546],[-99.365017,44.002308],[-99.360134,43.999991],[-99.35372,43.995329],[-99.350495,43.990483],[-99.347966,43.986015],[-99.345995,43.981446],[-99.345868,43.969561],[-99.346229,43.962309],[-99.347362,43.958281],[-99.350015,43.946466],[-99.355864,43.934371],[-99.357709,43.926798],[-99.361397,43.920926],[-99.36318,43.914776],[-99.363163,43.909748],[-99.361852,43.903099],[-99.35702,43.896782],[-99.352226,43.892312],[-99.345806,43.889384],[-99.329268,43.882751],[-99.321332,43.87784],[-99.317175,43.874994],[-99.31307,43.871058],[-99.309552,43.866985],[-99.308085,43.864045],[-99.307996,43.860373],[-99.308524,43.858868],[-99.310826,43.855216],[-99.334808,43.824499],[-99.335912,43.822898],[-99.366244,43.792432],[-99.368599,43.79109],[-99.375378,43.789113],[-99.380573,43.786132],[-99.388984,43.783652],[-99.393731,43.782624],[-99.401842,43.78019],[-99.404917,43.778905],[-99.407342,43.777253],[-99.41015,43.774619],[-99.412604,43.770314],[-99.414128,43.765933],[-99.415581,43.760712],[-99.415486,43.756735],[-99.416404,43.751891],[-99.419004,43.744826],[-99.418683,43.742785],[-99.41638,43.738573],[-99.41217,43.733465],[-99.407712,43.728466],[-99.406609,43.724313],[-99.40676,43.719552],[-99.407489,43.716845],[-99.409643,43.711857],[-99.409675,43.70973],[-99.406961,43.705277],[-99.407082,43.704157],[-99.409725,43.701682],[-99.411915,43.700376],[-99.417057,43.698011],[-99.42179,43.696316],[-99.42722,43.695168],[-99.433823,43.694179],[-99.44428,43.691673]]]}},{"type":"Feature","properties":{"zcta5":"57362","AFFGEOID10":"8600000US57362","GEOID10":"57362","ALAND10":1296874624,"AWATER10":3763784,"county_name":"Buffalo","state_code":"SD","county_state":"Buffalo County, SD","county_fips":"46017","risk_level_county":"Higher Risk (60–69% vaccinated)","mean_vaccination_rate_county":66.49,"risk_level_zcta":"Medium Risk (70–79% vaccinated)","mean_vaccination_rate_zips":75.71,"cases":11},"geometry":{"type":"Polygon","coordinates":[[[-99.311699,44.751009],[-99.312579,44.634207],[-99.293232,44.634678],[-99.191626,44.634547],[-99.191412,44.591051],[-99.151151,44.591005],[-99.150898,44.547398],[-99.145288,44.547374],[-99.145388,44.501083],[-99.125148,44.501065],[-99.12516,44.472146],[-99.165633,44.472132],[-99.165646,44.482687],[-99.174685,44.483096],[-99.17615,44.488749],[-99.177347,44.490843],[-99.180805,44.495172],[-99.185118,44.496721],[-99.186344,44.406274],[-99.188001,44.405229],[-99.185057,44.403655],[-99.186001,44.399475],[-99.188803,44.393368],[-99.188243,44.384682],[-99.186401,44.379174],[-99.185485,44.374983],[-99.185495,44.370609],[-99.165472,44.370627],[-99.165393,44.298431],[-99.185214,44.298027],[-99.185349,44.297046],[-99.185531,44.268996],[-99.165471,44.268996],[-99.165287,44.239991],[-99.185422,44.239955],[-99.185839,44.196477],[-99.165333,44.196568],[-99.088995,44.196573],[-99.085349,44.196786],[-99.084275,44.196744],[-98.94338,44.196487],[-98.943656,44.280123],[-98.9434,44.28274],[-98.943616,44.283734],[-98.925645,44.283534],[-98.924401,44.283417],[-98.904122,44.283421],[-98.904149,44.297972],[-98.904467,44.399431],[-98.9245,44.399697],[-98.924595,44.457366],[-98.94345,44.457388],[-98.943448,44.463481],[-98.944743,44.464172],[-98.943816,44.465753],[-98.945173,44.466307],[-98.944889,44.467679],[-98.945265,44.468415],[-98.947587,44.469111],[-98.944024,44.46977],[-98.944185,44.471982],[-98.943481,44.472615],[-98.943723,44.498037],[-98.943025,44.50525],[-98.943125,44.512092],[-98.942075,44.513352],[-98.943081,44.514677],[-98.963315,44.515009],[-98.963419,44.547436],[-98.968827,44.547413],[-98.96864,44.561949],[-98.928362,44.561963],[-98.927685,44.634663],[-98.943628,44.63462],[-98.948087,44.634728],[-98.947624,44.692666],[-98.98836,44.692599],[-98.98807,44.73618],[-98.985178,44.736184],[-98.978594,44.730528],[-98.961169,44.721815],[-98.947436,44.721749],[-98.947779,44.736268],[-98.927697,44.73631],[-98.927544,44.765229],[-98.977874,44.765168],[-98.98805,44.76511],[-98.98806,44.750673],[-99.00219,44.75063],[-99.03547,44.77954],[-99.099063,44.779633],[-99.099168,44.765198],[-99.109458,44.765329],[-99.109656,44.736109],[-99.293144,44.736357],[-99.293097,44.75092],[-99.311699,44.751009]]]}},{"type":"Feature","properties":{"zcta5":"57341","AFFGEOID10":"8600000US57341","GEOID10":"57341","ALAND10":654178903,"AWATER10":1565349,"county_name":"Buffalo","state_code":"SD","county_state":"Buffalo County, SD","county_fips":"46017","risk_level_county":"Higher Risk (60–69% vaccinated)","mean_vaccination_rate_county":66.49,"risk_level_zcta":"Lowest Risk (85%+)","mean_vaccination_rate_zips":98.98,"cases":11},"geometry":{"type":"Polygon","coordinates":[[[-99.288596,44.194811],[-99.288912,44.106911],[-99.250379,44.106788],[-99.245356,44.107312],[-99.245577,44.077594],[-99.266502,44.078058],[-99.271009,44.07799],[-99.273433,44.077508],[-99.285168,44.073927],[-99.286304,44.019579],[-99.284928,44.019569],[-99.136781,44.020074],[-99.136791,44.005799],[-99.106615,44.005924],[-99.106481,44.020424],[-99.089248,44.020482],[-99.086242,44.01777],[-99.086727,43.990123],[-99.084936,43.990084],[-99.080446,43.987733],[-99.076734,43.986249],[-99.075013,43.983819],[-99.075341,43.982513],[-99.072608,43.980383],[-99.070485,43.97726],[-99.071413,43.975977],[-99.070416,43.974269],[-99.064852,43.972169],[-99.065018,43.971135],[-99.063224,43.971108],[-99.060964,43.969884],[-99.06123,43.968623],[-99.058271,43.967811],[-99.057175,43.96662],[-99.057444,43.964887],[-99.056343,43.96408],[-99.0537,43.964291],[-99.052715,43.96352],[-99.053882,43.962382],[-99.051043,43.961265],[-99.050576,43.959696],[-99.04616,43.957576],[-99.045458,43.956008],[-99.043777,43.955769],[-99.043232,43.953993],[-99.037231,43.951504],[-99.038649,43.950573],[-99.038226,43.949159],[-98.967324,43.949471],[-98.967149,43.934882],[-98.926997,43.935143],[-98.927034,43.992744],[-98.926594,44.021413],[-98.926355,44.029443],[-98.926645,44.036126],[-98.925953,44.196575],[-98.94338,44.196487],[-99.084275,44.196744],[-99.085349,44.196786],[-99.088995,44.196573],[-99.165333,44.196568],[-99.185839,44.196477],[-99.199295,44.196428],[-99.2016,44.195756],[-99.203654,44.196431],[-99.236719,44.196428],[-99.236878,44.194922],[-99.288596,44.194811]]]}},{"type":"Feature","properties":{"zcta5":"57339","AFFGEOID10":"8600000US57339","GEOID10":"57339","ALAND10":330945656,"AWATER10":28062500,"county_name":"Buffalo","state_code":"SD","county_state":"Buffalo County, SD","county_fips":"46017","risk_level_county":"Higher Risk (60–69% vaccinated)","mean_vaccination_rate_county":66.49,"risk_level_zcta":"Lowest Risk (85%+)","mean_vaccination_rate_zips":96.47,"cases":11},"geometry":{"type":"Polygon","coordinates":[[[-99.576571,44.192421],[-99.575389,44.191619],[-99.551233,44.171215],[-99.540747,44.15851],[-99.540641,44.150137],[-99.554,44.127766],[-99.555206,44.124988],[-99.560891,44.109711],[-99.562325,44.103572],[-99.562221,44.099496],[-99.561728,44.097464],[-99.558435,44.091971],[-99.547535,44.082003],[-99.543051,44.076528],[-99.539514,44.07333],[-99.534366,44.069663],[-99.528631,44.066509],[-99.524155,44.06374],[-99.51817,44.059158],[-99.513996,44.056365],[-99.511334,44.05499],[-99.507919,44.054223],[-99.500385,44.05374],[-99.486579,44.051136],[-99.473534,44.050007],[-99.457313,44.049441],[-99.449914,44.048468],[-99.441508,44.047062],[-99.437288,44.046196],[-99.427668,44.042796],[-99.421362,44.039732],[-99.416504,44.036332],[-99.413461,44.033783],[-99.410465,44.031887],[-99.403722,44.026779],[-99.393665,44.02127],[-99.388889,44.019157],[-99.384704,44.01695],[-99.378559,44.01309],[-99.368508,44.021781],[-99.366683,44.023573],[-99.364711,44.024771],[-99.366665,44.025331],[-99.366469,44.026346],[-99.364595,44.027142],[-99.356666,44.019894],[-99.355141,44.018887],[-99.350696,44.017117],[-99.347456,44.014124],[-99.3473,44.009075],[-99.34374,44.005379],[-99.339682,44.0006],[-99.336766,43.995343],[-99.33591,43.992599],[-99.33388,43.989603],[-99.332802,43.986539],[-99.333438,43.985809],[-99.3336,43.983288],[-99.333262,43.978449],[-99.332409,43.978249],[-99.328457,43.979414],[-99.323524,43.979346],[-99.32163,43.978715],[-99.320965,43.977648],[-99.322173,43.976447],[-99.321512,43.97509],[-99.318069,43.97804],[-99.31546,43.978254],[-99.317957,43.980322],[-99.322831,43.981963],[-99.324931,43.983578],[-99.325513,43.985588],[-99.320867,43.985641],[-99.317507,43.986242],[-99.312957,43.987641],[-99.311138,43.987769],[-99.309996,43.987679],[-99.289353,43.98401],[-99.286406,43.983658],[-99.286412,43.985823],[-99.325715,44.025878],[-99.327288,44.027913],[-99.330772,44.031054],[-99.346904,44.047464],[-99.349846,44.050928],[-99.354097,44.052407],[-99.355773,44.053728],[-99.359655,44.055075],[-99.360968,44.0551],[-99.360883,44.056787],[-99.36869,44.057501],[-99.372228,44.05856],[-99.373605,44.059405],[-99.372617,44.062714],[-99.375161,44.063022],[-99.374448,44.063999],[-99.374085,44.066729],[-99.374753,44.067565],[-99.374332,44.069025],[-99.374933,44.070357],[-99.379083,44.071122],[-99.379181,44.07482],[-99.381023,44.076004],[-99.381611,44.077357],[-99.346153,44.077101],[-99.31464,44.077808],[-99.30948,44.077442],[-99.289679,44.073874],[-99.285168,44.073927],[-99.273433,44.077508],[-99.271009,44.07799],[-99.266502,44.078058],[-99.245577,44.077594],[-99.245356,44.107312],[-99.250379,44.106788],[-99.288912,44.106911],[-99.288596,44.194811],[-99.30018,44.19483],[-99.440421,44.193887],[-99.531079,44.193072],[-99.536735,44.192818],[-99.54075,44.192989],[-99.576571,44.192421]]]}},{"type":"Feature","properties":{"zcta5":"57370","AFFGEOID10":"8600000US57370","GEOID10":"57370","ALAND10":550349536,"AWATER10":14993703,"county_name":"Buffalo","state_code":"SD","county_state":"Buffalo County, SD","county_fips":"46017","risk_level_county":"Higher Risk (60–69% vaccinated)","mean_vaccination_rate_county":66.49,"risk_level_zcta":"Medium Risk (70–79% vaccinated)","mean_vaccination_rate_zips":75.3,"cases":11},"geometry":{"type":"Polygon","coordinates":[[[-99.284928,44.019569],[-99.282093,44.018348],[-99.28322,44.011352],[-99.282787,44.010451],[-99.277013,44.006248],[-99.275569,44.005922],[-99.266516,44.006086],[-99.266721,43.964451],[-99.265382,43.962734],[-99.262612,43.961909],[-99.226849,43.962118],[-99.226876,43.960616],[-99.232274,43.958951],[-99.234995,43.958492],[-99.236895,43.959728],[-99.238793,43.958949],[-99.241262,43.960435],[-99.243319,43.960274],[-99.242875,43.959473],[-99.248349,43.959654],[-99.249392,43.958693],[-99.248755,43.955927],[-99.251433,43.955218],[-99.252007,43.95181],[-99.253652,43.952177],[-99.25441,43.953893],[-99.256151,43.95426],[-99.256818,43.95211],[-99.254825,43.950828],[-99.256789,43.949046],[-99.259225,43.950327],[-99.258622,43.952225],[-99.261092,43.952425],[-99.248772,43.933352],[-99.246745,43.933038],[-99.239699,43.919272],[-99.231054,43.905786],[-99.209165,43.882952],[-99.209194,43.881674],[-99.207718,43.879038],[-99.206883,43.876424],[-99.20676,43.847314],[-99.185099,43.847329],[-99.183741,43.84512],[-99.183106,43.802208],[-99.213352,43.802241],[-99.213047,43.787769],[-99.232638,43.788416],[-99.252946,43.78824],[-99.252753,43.759464],[-99.232832,43.75932],[-99.232733,43.752264],[-99.255569,43.752538],[-99.260931,43.752995],[-99.265097,43.754066],[-99.272367,43.756686],[-99.271902,43.744995],[-99.272006,43.730641],[-99.271753,43.701777],[-99.271368,43.629506],[-99.211428,43.629379],[-99.211384,43.614916],[-99.191256,43.614879],[-99.191305,43.600432],[-99.171687,43.600376],[-99.171319,43.585857],[-99.151768,43.585837],[-99.131806,43.585761],[-99.131295,43.571942],[-99.111223,43.571615],[-99.112084,43.600208],[-99.112471,43.643547],[-99.092509,43.643548],[-99.092613,43.658022],[-99.112554,43.658104],[-99.112467,43.672191],[-99.072698,43.67238],[-99.072563,43.735327],[-99.087223,43.752455],[-99.072824,43.752551],[-99.072739,43.78821],[-99.073079,43.802694],[-99.10257,43.802548],[-99.102678,43.811729],[-99.107168,43.810815],[-99.113329,43.810307],[-99.113835,43.831427],[-99.112399,43.831438],[-99.111633,43.834172],[-99.113342,43.835728],[-99.112492,43.837124],[-99.110755,43.836531],[-99.107251,43.836489],[-99.105957,43.835598],[-99.103432,43.83647],[-99.101096,43.835808],[-99.09911,43.83899],[-99.097051,43.839403],[-99.097788,43.840061],[-99.074123,43.840224],[-99.074352,43.848137],[-99.046729,43.848309],[-99.046994,43.862789],[-99.106991,43.862363],[-99.107282,43.876715],[-99.087466,43.876728],[-99.088151,43.920071],[-99.108301,43.919884],[-99.108331,43.934057],[-99.107864,43.948475],[-99.106516,43.963523],[-99.106822,43.977423],[-99.106615,44.005924],[-99.136791,44.005799],[-99.136781,44.020074],[-99.284928,44.019569]]]}},{"type":"Feature","properties":{"zcta5":"57355","AFFGEOID10":"8600000US57355","GEOID10":"57355","ALAND10":1012575635,"AWATER10":6055000,"county_name":"Buffalo","state_code":"SD","county_state":"Buffalo County, SD","county_fips":"46017","risk_level_county":"Higher Risk (60–69% vaccinated)","mean_vaccination_rate_county":66.49,"risk_level_zcta":"Lower Risk (80–84% vaccinated)","mean_vaccination_rate_zips":83.17,"cases":11},"geometry":{"type":"Polygon","coordinates":[[[-99.106615,44.005924],[-99.106822,43.977423],[-99.106516,43.963523],[-99.107864,43.948475],[-99.108331,43.934057],[-99.108301,43.919884],[-99.088151,43.920071],[-99.087466,43.876728],[-99.107282,43.876715],[-99.106991,43.862363],[-99.046994,43.862789],[-99.046729,43.848309],[-99.074352,43.848137],[-99.074123,43.840224],[-99.097788,43.840061],[-99.097051,43.839403],[-99.09911,43.83899],[-99.101096,43.835808],[-99.103432,43.83647],[-99.105957,43.835598],[-99.107251,43.836489],[-99.110755,43.836531],[-99.112492,43.837124],[-99.113342,43.835728],[-99.111633,43.834172],[-99.112399,43.831438],[-99.113835,43.831427],[-99.113329,43.810307],[-99.107168,43.810815],[-99.102678,43.811729],[-99.10257,43.802548],[-99.073079,43.802694],[-99.072739,43.78821],[-99.072824,43.752551],[-99.087223,43.752455],[-99.072563,43.735327],[-99.072698,43.67238],[-99.112467,43.672191],[-99.112554,43.658104],[-99.092613,43.658022],[-99.092509,43.643548],[-99.112471,43.643547],[-99.112084,43.600208],[-99.052344,43.600013],[-99.052257,43.585571],[-99.03238,43.585613],[-99.032383,43.546346],[-99.027348,43.546324],[-99.027337,43.550665],[-99.023565,43.550657],[-99.023588,43.546316],[-99.011933,43.546296],[-99.011853,43.550629],[-98.992193,43.550586],[-98.992407,43.542688],[-98.972674,43.542732],[-98.972686,43.535301],[-98.96421,43.535225],[-98.96421,43.528295],[-98.95275,43.52828],[-98.953076,43.557297],[-98.933195,43.557379],[-98.933285,43.571647],[-98.91322,43.571637],[-98.913277,43.585947],[-98.853633,43.585908],[-98.853961,43.588306],[-98.854074,43.600345],[-98.814457,43.600427],[-98.814271,43.614894],[-98.833973,43.614845],[-98.833929,43.629123],[-98.814151,43.628818],[-98.814317,43.672946],[-98.814473,43.6753],[-98.814632,43.68749],[-98.814677,43.738098],[-98.795097,43.738005],[-98.796965,43.848575],[-98.806788,43.848487],[-98.807148,43.863054],[-98.807771,43.935223],[-98.807191,43.963778],[-98.847216,43.963741],[-98.847204,43.978092],[-98.867223,43.978221],[-98.867245,43.992501],[-98.847236,43.992449],[-98.847348,44.006943],[-98.827342,44.006877],[-98.8273,44.021278],[-98.926594,44.021413],[-98.927034,43.992744],[-98.926997,43.935143],[-98.967149,43.934882],[-98.967324,43.949471],[-99.038226,43.949159],[-99.038649,43.950573],[-99.037231,43.951504],[-99.043232,43.953993],[-99.043777,43.955769],[-99.045458,43.956008],[-99.04616,43.957576],[-99.050576,43.959696],[-99.051043,43.961265],[-99.053882,43.962382],[-99.052715,43.96352],[-99.0537,43.964291],[-99.056343,43.96408],[-99.057444,43.964887],[-99.057175,43.96662],[-99.058271,43.967811],[-99.06123,43.968623],[-99.060964,43.969884],[-99.063224,43.971108],[-99.065018,43.971135],[-99.064852,43.972169],[-99.070416,43.974269],[-99.071413,43.975977],[-99.070485,43.97726],[-99.072608,43.980383],[-99.075341,43.982513],[-99.075013,43.983819],[-99.076734,43.986249],[-99.080446,43.987733],[-99.084936,43.990084],[-99.086727,43.990123],[-99.086242,44.01777],[-99.089248,44.020482],[-99.106481,44.020424],[-99.106615,44.005924]]]}}]}