{"type":"FeatureCollection","features":[{"type":"Feature","properties":{"zcta5":"40071","AFFGEOID10":"8600000US40071","GEOID10":"40071","ALAND10":317585440,"AWATER10":5153763,"county_name":"Bullitt","state_code":"KY","county_state":"Bullitt County, KY","county_fips":"21029","risk_level_county":"Medium Risk (70–79% vaccinated)","mean_vaccination_rate_county":79.84,"risk_level_zcta":"Medium Risk (70–79% vaccinated)","mean_vaccination_rate_zips":72.8,"cases":4},"geometry":{"type":"Polygon","coordinates":[[[-85.528053,38.084379],[-85.528094,38.083745],[-85.526841,38.081539],[-85.524625,38.080011],[-85.522489,38.076158],[-85.522007,38.072568],[-85.519321,38.070828],[-85.509483,38.068562],[-85.506433,38.067424],[-85.501739,38.066957],[-85.503708,38.064521],[-85.50446,38.062295],[-85.49897,38.063924],[-85.499455,38.056893],[-85.496025,38.051342],[-85.49576,38.049106],[-85.494571,38.047193],[-85.494081,38.043784],[-85.492995,38.040774],[-85.491936,38.039119],[-85.492568,38.037193],[-85.494493,38.034084],[-85.495626,38.028163],[-85.492917,38.025612],[-85.488148,38.022283],[-85.485584,38.021055],[-85.484339,38.019393],[-85.482781,38.019719],[-85.48282,38.017449],[-85.480404,38.018389],[-85.478196,38.018203],[-85.476616,38.018773],[-85.473791,38.021689],[-85.472049,38.022221],[-85.470794,38.021287],[-85.470632,38.018544],[-85.469632,38.016483],[-85.464326,38.009597],[-85.460523,38.006108],[-85.457243,38.003814],[-85.452814,38.003072],[-85.449766,38.00464],[-85.446485,38.004931],[-85.445946,38.006751],[-85.447875,38.008462],[-85.449748,38.012179],[-85.449813,38.01398],[-85.446394,38.015552],[-85.445469,38.016513],[-85.442832,38.01747],[-85.438946,38.01778],[-85.433625,38.021305],[-85.431505,38.023491],[-85.42917,38.019999],[-85.431215,38.019202],[-85.432954,38.016951],[-85.43676,38.015555],[-85.437281,38.013868],[-85.43724,38.009809],[-85.438843,38.005512],[-85.441816,38.002228],[-85.446393,38.000703],[-85.449538,37.996206],[-85.460827,37.997503],[-85.461656,37.994145],[-85.461557,37.99154],[-85.462627,37.989717],[-85.458673,37.986766],[-85.45033,37.982306],[-85.446582,37.982719],[-85.445174,37.982296],[-85.439289,37.982812],[-85.434562,37.984932],[-85.427295,37.986129],[-85.424783,37.985728],[-85.422042,37.986139],[-85.420113,37.987072],[-85.417718,37.986854],[-85.414923,37.98205],[-85.411243,37.979063],[-85.412888,37.973939],[-85.412877,37.971511],[-85.410681,37.970997],[-85.408727,37.971823],[-85.403012,37.968647],[-85.399595,37.967257],[-85.394873,37.964585],[-85.395692,37.962158],[-85.403199,37.943315],[-85.401968,37.942377],[-85.39968,37.93994],[-85.383403,37.939839],[-85.379145,37.940353],[-85.352535,37.94496],[-85.353219,37.945512],[-85.353376,37.947903],[-85.351553,37.950397],[-85.351327,37.95314],[-85.349653,37.955113],[-85.349376,37.95787],[-85.345333,37.955112],[-85.342246,37.954442],[-85.338077,37.956069],[-85.330342,37.957339],[-85.325111,37.957774],[-85.321825,37.958969],[-85.318499,37.958081],[-85.305574,37.957193],[-85.301882,37.956689],[-85.300736,37.96069],[-85.303316,37.965786],[-85.288172,37.971654],[-85.286402,37.973239],[-85.289862,37.976985],[-85.289932,37.977836],[-85.287849,37.980264],[-85.287818,37.983023],[-85.287051,37.984787],[-85.289019,37.985571],[-85.289467,37.986939],[-85.288027,37.988249],[-85.288623,37.989559],[-85.29272,37.989703],[-85.293312,37.990401],[-85.292459,37.994349],[-85.293055,37.995658],[-85.296945,37.999448],[-85.297437,38.001208],[-85.30155,38.001569],[-85.303093,38.0021],[-85.297655,38.001622],[-85.295136,38.003341],[-85.294075,38.007127],[-85.290463,38.009683],[-85.287905,38.010715],[-85.286067,38.010625],[-85.282454,38.012858],[-85.281587,38.014362],[-85.277119,38.017381],[-85.274036,38.017254],[-85.271798,38.016411],[-85.269233,38.016221],[-85.267122,38.017364],[-85.268317,38.017487],[-85.267251,38.023375],[-85.266205,38.024884],[-85.260376,38.024733],[-85.258786,38.025697],[-85.258852,38.027313],[-85.255691,38.028874],[-85.256088,38.033317],[-85.255767,38.035057],[-85.257881,38.038352],[-85.259674,38.04005],[-85.262009,38.040633],[-85.261744,38.042385],[-85.258861,38.042856],[-85.256778,38.042487],[-85.25478,38.041276],[-85.255049,38.039755],[-85.251743,38.037668],[-85.251929,38.036715],[-85.249836,38.03566],[-85.248571,38.036527],[-85.250121,38.039572],[-85.250136,38.041369],[-85.246385,38.044488],[-85.245115,38.046208],[-85.245139,38.048257],[-85.246469,38.050242],[-85.245554,38.051742],[-85.243394,38.051947],[-85.241665,38.050465],[-85.241547,38.049377],[-85.242905,38.045797],[-85.242276,38.04409],[-85.239981,38.046474],[-85.236692,38.045537],[-85.232811,38.045158],[-85.231948,38.046304],[-85.232227,38.047873],[-85.231547,38.050614],[-85.228794,38.0517],[-85.224386,38.052065],[-85.22344,38.052812],[-85.225007,38.05494],[-85.228341,38.057623],[-85.235846,38.056669],[-85.23766,38.058517],[-85.234866,38.060982],[-85.231996,38.062076],[-85.22889,38.064927],[-85.228212,38.067022],[-85.233688,38.069481],[-85.234537,38.070956],[-85.233755,38.07218],[-85.231275,38.073614],[-85.230953,38.075489],[-85.233503,38.077689],[-85.234665,38.081455],[-85.233403,38.081524],[-85.227041,38.077838],[-85.220991,38.079279],[-85.219898,38.080727],[-85.219682,38.082827],[-85.221799,38.085159],[-85.22326,38.085747],[-85.232406,38.089431],[-85.275569,38.102367],[-85.27759,38.102404],[-85.279036,38.101789],[-85.282325,38.102852],[-85.286085,38.102796],[-85.287238,38.100084],[-85.2893,38.099873],[-85.2921,38.100218],[-85.294246,38.099256],[-85.295841,38.09754],[-85.298675,38.096282],[-85.300594,38.096571],[-85.304634,38.095774],[-85.304378,38.099694],[-85.302603,38.103886],[-85.300357,38.107043],[-85.296989,38.108699],[-85.309466,38.112366],[-85.313726,38.115085],[-85.314739,38.117042],[-85.314241,38.118866],[-85.313645,38.11946],[-85.310038,38.119396],[-85.307595,38.118033],[-85.302222,38.116736],[-85.297653,38.117234],[-85.294862,38.118569],[-85.29418,38.1207],[-85.294726,38.122041],[-85.294241,38.124405],[-85.29511,38.127113],[-85.297173,38.127904],[-85.299566,38.127072],[-85.305297,38.125922],[-85.306862,38.126957],[-85.309788,38.132636],[-85.309536,38.136277],[-85.306845,38.1401],[-85.305162,38.141785],[-85.302573,38.141706],[-85.303814,38.144923],[-85.304823,38.145595],[-85.307665,38.14668],[-85.317851,38.123165],[-85.319863,38.120724],[-85.322169,38.12016],[-85.32564,38.120498],[-85.330463,38.122651],[-85.333566,38.123284],[-85.335693,38.124199],[-85.338717,38.121028],[-85.373964,38.131948],[-85.376188,38.131195],[-85.37706,38.12969],[-85.375927,38.128888],[-85.376252,38.126871],[-85.375202,38.12603],[-85.373654,38.120258],[-85.372746,38.118732],[-85.371399,38.113736],[-85.369754,38.110983],[-85.368158,38.105931],[-85.370687,38.104084],[-85.371963,38.102453],[-85.375901,38.104294],[-85.378082,38.106264],[-85.382778,38.104171],[-85.392156,38.10467],[-85.398213,38.103807],[-85.398619,38.102783],[-85.401512,38.101334],[-85.403848,38.101164],[-85.407234,38.098518],[-85.409521,38.097206],[-85.412526,38.101295],[-85.411268,38.103886],[-85.413464,38.103921],[-85.418526,38.105955],[-85.422893,38.106811],[-85.430635,38.107096],[-85.42883,38.118383],[-85.479783,38.10017],[-85.477609,38.099832],[-85.477039,38.09738],[-85.477508,38.09652],[-85.482628,38.097136],[-85.485417,38.094271],[-85.488506,38.094521],[-85.49233,38.090745],[-85.49557,38.092375],[-85.503545,38.091938],[-85.504561,38.092349],[-85.515895,38.088766],[-85.527347,38.084634],[-85.528053,38.084379]]]}},{"type":"Feature","properties":{"zcta5":"40110","AFFGEOID10":"8600000US40110","GEOID10":"40110","ALAND10":1227285,"AWATER10":3407,"county_name":"Bullitt","state_code":"KY","county_state":"Bullitt County, KY","county_fips":"21029","risk_level_county":"Medium Risk (70–79% vaccinated)","mean_vaccination_rate_county":79.84,"risk_level_zcta":"Medium Risk (70–79% vaccinated)","mean_vaccination_rate_zips":79.64,"cases":4},"geometry":{"type":"Polygon","coordinates":[[[-85.662681,37.946286],[-85.665694,37.931922],[-85.661664,37.929645],[-85.656754,37.928992],[-85.654894,37.928165],[-85.650166,37.927967],[-85.647812,37.926269],[-85.648233,37.927163],[-85.649874,37.928028],[-85.653772,37.928335],[-85.653393,37.92982],[-85.657481,37.936043],[-85.659182,37.941048],[-85.65824,37.944617],[-85.658738,37.946692],[-85.660972,37.947965],[-85.662825,37.946776],[-85.662681,37.946286]]]}},{"type":"Feature","properties":{"zcta5":"40013","AFFGEOID10":"8600000US40013","GEOID10":"40013","ALAND10":205724088,"AWATER10":3119696,"county_name":"Bullitt","state_code":"KY","county_state":"Bullitt County, KY","county_fips":"21029","risk_level_county":"Medium Risk (70–79% vaccinated)","mean_vaccination_rate_county":79.84,"risk_level_zcta":"Medium Risk (70–79% vaccinated)","mean_vaccination_rate_zips":70.57,"cases":4},"geometry":{"type":"MultiPolygon","coordinates":[[[[-85.266558,38.010454],[-85.266142,38.00855],[-85.269501,38.004572],[-85.271392,38.003045],[-85.273356,38.002656],[-85.275873,38.003091],[-85.278875,38.000748],[-85.279652,38.001715],[-85.283882,38.002882],[-85.288875,38.00201],[-85.288918,38.000396],[-85.290399,37.997688],[-85.293236,37.996321],[-85.291048,37.994189],[-85.285108,37.993667],[-85.283425,37.994417],[-85.281192,37.993862],[-85.281452,37.991766],[-85.279629,37.989989],[-85.276377,37.989129],[-85.276272,37.986677],[-85.274498,37.985515],[-85.270893,37.985284],[-85.274995,37.985346],[-85.276434,37.984094],[-85.28022,37.982188],[-85.279838,37.980125],[-85.278631,37.978382],[-85.279975,37.976472],[-85.279563,37.974732],[-85.277635,37.970917],[-85.277751,37.96793],[-85.275454,37.965659],[-85.274405,37.963576],[-85.27363,37.959155],[-85.269265,37.960371],[-85.265237,37.96267],[-85.261543,37.965531],[-85.257764,37.966059],[-85.260885,37.967467],[-85.264951,37.967128],[-85.269022,37.970036],[-85.268576,37.972002],[-85.269471,37.972793],[-85.27301,37.972399],[-85.27455,37.972746],[-85.275313,37.974152],[-85.274694,37.975981],[-85.272556,37.977007],[-85.271132,37.980127],[-85.269048,37.982477],[-85.263227,37.98087],[-85.260806,37.979408],[-85.258232,37.979072],[-85.25556,37.979839],[-85.252777,37.979508],[-85.249996,37.978595],[-85.245702,37.976177],[-85.242766,37.974932],[-85.242201,37.974168],[-85.239258,37.973385],[-85.23655,37.973895],[-85.234545,37.976569],[-85.232558,37.976468],[-85.235864,37.978944],[-85.236587,37.980828],[-85.239996,37.983298],[-85.241518,37.986247],[-85.242091,37.988426],[-85.245554,37.991641],[-85.244547,37.993779],[-85.2483,37.996589],[-85.248855,37.997859],[-85.252458,38.000844],[-85.257871,38.006241],[-85.259879,38.007065],[-85.264006,38.007967],[-85.266558,38.010454]]],[[[-85.383403,37.939839],[-85.383202,37.935398],[-85.378334,37.935443],[-85.378211,37.932294],[-85.374001,37.931166],[-85.368756,37.928397],[-85.353676,37.922919],[-85.353489,37.924047],[-85.35546,37.927266],[-85.352161,37.929381],[-85.349824,37.930184],[-85.348237,37.932981],[-85.348071,37.934167],[-85.348953,37.936089],[-85.348864,37.938204],[-85.347493,37.940667],[-85.349382,37.942951],[-85.352535,37.94496],[-85.379145,37.940353],[-85.383403,37.939839]]],[[[-85.558714,37.994693],[-85.556542,37.994773],[-85.552273,37.996316],[-85.553023,37.994228],[-85.550267,37.993992],[-85.550073,37.992882],[-85.553225,37.991696],[-85.550872,37.990053],[-85.548478,37.989086],[-85.547715,37.987218],[-85.546146,37.987872],[-85.543808,37.985482],[-85.543766,37.984125],[-85.545263,37.982411],[-85.543621,37.980295],[-85.546929,37.978173],[-85.548023,37.976292],[-85.547544,37.97426],[-85.545308,37.972575],[-85.541527,37.972893],[-85.537063,37.974118],[-85.532677,37.97447],[-85.531714,37.974145],[-85.535596,37.969934],[-85.535895,37.968308],[-85.534225,37.965402],[-85.532468,37.965175],[-85.532359,37.963822],[-85.527883,37.962594],[-85.525989,37.960723],[-85.523962,37.957187],[-85.524933,37.955541],[-85.525244,37.952746],[-85.527418,37.9508],[-85.529946,37.947231],[-85.532942,37.94566],[-85.533997,37.944028],[-85.536347,37.943945],[-85.538086,37.94211],[-85.540015,37.941098],[-85.542917,37.940359],[-85.544123,37.938747],[-85.544877,37.936219],[-85.54714,37.933025],[-85.547966,37.930291],[-85.54901,37.929975],[-85.549074,37.928243],[-85.550333,37.926855],[-85.552413,37.925565],[-85.554225,37.925515],[-85.55573,37.923979],[-85.560775,37.923],[-85.562826,37.923476],[-85.565331,37.924899],[-85.566434,37.92389],[-85.565615,37.920131],[-85.568835,37.917579],[-85.572762,37.915995],[-85.575222,37.916922],[-85.578062,37.914514],[-85.579068,37.912949],[-85.582254,37.910865],[-85.583946,37.911048],[-85.583966,37.909705],[-85.585683,37.907729],[-85.585545,37.905844],[-85.584453,37.903695],[-85.584866,37.9011],[-85.584413,37.899702],[-85.584949,37.895404],[-85.584803,37.893551],[-85.58114,37.886646],[-85.576564,37.88456],[-85.577603,37.883081],[-85.579721,37.883481],[-85.581264,37.88103],[-85.58265,37.88022],[-85.586086,37.876841],[-85.588321,37.875757],[-85.592568,37.87609],[-85.597475,37.873347],[-85.598738,37.872178],[-85.599678,37.869442],[-85.59371,37.866165],[-85.589318,37.865337],[-85.584698,37.865129],[-85.574835,37.863193],[-85.572174,37.862134],[-85.568291,37.863312],[-85.566567,37.864436],[-85.563997,37.86524],[-85.56065,37.865356],[-85.556808,37.866175],[-85.554901,37.867874],[-85.550969,37.868609],[-85.5489,37.871353],[-85.547251,37.871599],[-85.545932,37.873782],[-85.54321,37.879598],[-85.542453,37.880383],[-85.533078,37.873142],[-85.526665,37.866936],[-85.525635,37.867828],[-85.521567,37.87014],[-85.523954,37.872711],[-85.530509,37.877816],[-85.532382,37.882884],[-85.516869,37.880925],[-85.515941,37.880004],[-85.513239,37.879525],[-85.509004,37.879699],[-85.507539,37.881602],[-85.504637,37.883239],[-85.501634,37.886661],[-85.499241,37.891188],[-85.496244,37.893788],[-85.491229,37.899266],[-85.490069,37.899801],[-85.489367,37.897071],[-85.488781,37.892562],[-85.487137,37.891173],[-85.48655,37.889002],[-85.482124,37.889526],[-85.477459,37.888844],[-85.475559,37.889804],[-85.471315,37.890168],[-85.470772,37.887882],[-85.465797,37.889168],[-85.463983,37.886364],[-85.462023,37.884709],[-85.455258,37.883991],[-85.452999,37.885095],[-85.449762,37.88587],[-85.447717,37.885503],[-85.442159,37.883509],[-85.438582,37.878977],[-85.435866,37.879735],[-85.43396,37.880966],[-85.432386,37.882932],[-85.431534,37.885129],[-85.427211,37.889338],[-85.422936,37.88842],[-85.42687,37.878268],[-85.421943,37.875559],[-85.418374,37.875839],[-85.416674,37.875047],[-85.412838,37.877234],[-85.411051,37.878873],[-85.40823,37.87958],[-85.405202,37.879511],[-85.400496,37.880561],[-85.397184,37.883035],[-85.396359,37.883772],[-85.392546,37.891761],[-85.392214,37.89477],[-85.391308,37.898163],[-85.389908,37.900761],[-85.383252,37.908581],[-85.381933,37.912111],[-85.378753,37.912604],[-85.37523,37.912077],[-85.371453,37.912501],[-85.372609,37.915252],[-85.375867,37.919711],[-85.376996,37.924212],[-85.376443,37.9258],[-85.378827,37.928638],[-85.378068,37.928645],[-85.378211,37.932294],[-85.380252,37.932792],[-85.382917,37.928601],[-85.389411,37.928543],[-85.389659,37.934385],[-85.394773,37.93602],[-85.397598,37.937692],[-85.39968,37.93994],[-85.401968,37.942377],[-85.403199,37.943315],[-85.395692,37.962158],[-85.394873,37.964585],[-85.399595,37.967257],[-85.403012,37.968647],[-85.408727,37.971823],[-85.410681,37.970997],[-85.412877,37.971511],[-85.412888,37.973939],[-85.411243,37.979063],[-85.414923,37.98205],[-85.417718,37.986854],[-85.420113,37.987072],[-85.422042,37.986139],[-85.424783,37.985728],[-85.427295,37.986129],[-85.434562,37.984932],[-85.439289,37.982812],[-85.445174,37.982296],[-85.446582,37.982719],[-85.45033,37.982306],[-85.458673,37.986766],[-85.462627,37.989717],[-85.461557,37.99154],[-85.461656,37.994145],[-85.460827,37.997503],[-85.449538,37.996206],[-85.446393,38.000703],[-85.441816,38.002228],[-85.438843,38.005512],[-85.43724,38.009809],[-85.437281,38.013868],[-85.43676,38.015555],[-85.432954,38.016951],[-85.431215,38.019202],[-85.42917,38.019999],[-85.431505,38.023491],[-85.433625,38.021305],[-85.438946,38.01778],[-85.442832,38.01747],[-85.445469,38.016513],[-85.446394,38.015552],[-85.449813,38.01398],[-85.449748,38.012179],[-85.447875,38.008462],[-85.445946,38.006751],[-85.446485,38.004931],[-85.449766,38.00464],[-85.452814,38.003072],[-85.457243,38.003814],[-85.460523,38.006108],[-85.464326,38.009597],[-85.469632,38.016483],[-85.470632,38.018544],[-85.470794,38.021287],[-85.472049,38.022221],[-85.473791,38.021689],[-85.476616,38.018773],[-85.476987,38.014568],[-85.47781,38.0127],[-85.480228,38.011005],[-85.484998,38.009693],[-85.491087,38.009177],[-85.493591,38.01011],[-85.495471,38.011529],[-85.495979,38.013153],[-85.495715,38.015967],[-85.49725,38.017535],[-85.499022,38.01776],[-85.501717,38.017068],[-85.505248,38.0173],[-85.50638,38.016823],[-85.508,38.014234],[-85.511551,38.013632],[-85.512058,38.012625],[-85.512795,38.010751],[-85.515006,38.010626],[-85.516882,38.011267],[-85.520006,38.010203],[-85.520477,38.006904],[-85.52334,38.00435],[-85.530925,38.009238],[-85.536422,38.011254],[-85.538363,38.011276],[-85.541013,38.009565],[-85.544314,38.010099],[-85.546128,38.004833],[-85.546648,38.000856],[-85.54848,37.998161],[-85.556963,37.994795],[-85.558714,37.994693]]]]}},{"type":"Feature","properties":{"zcta5":"40165","AFFGEOID10":"8600000US40165","GEOID10":"40165","ALAND10":374113822,"AWATER10":4400004,"county_name":"Bullitt","state_code":"KY","county_state":"Bullitt County, KY","county_fips":"21029","risk_level_county":"Medium Risk (70–79% vaccinated)","mean_vaccination_rate_county":79.84,"risk_level_zcta":"Medium Risk (70–79% vaccinated)","mean_vaccination_rate_zips":74.9,"cases":4},"geometry":{"type":"MultiPolygon","coordinates":[[[[-85.658607,38.082231],[-85.658002,38.080355],[-85.656812,38.080737],[-85.655994,38.080695],[-85.655695,38.081822],[-85.658607,38.082231]]],[[[-85.693743,38.072439],[-85.694544,38.070538],[-85.693375,38.067423],[-85.693145,38.065527],[-85.690681,38.071407],[-85.693743,38.072439]]],[[[-85.850225,38.04515],[-85.857377,38.043493],[-85.85639,38.035659],[-85.856665,38.03424],[-85.858238,38.034155],[-85.866063,38.008291],[-85.870771,38.007267],[-85.872994,38.007601],[-85.874693,38.008829],[-85.883096,38.002804],[-85.880071,37.998141],[-85.878791,37.996781],[-85.877778,37.99706],[-85.88007,38.001086],[-85.88007,38.002483],[-85.878336,38.005446],[-85.874523,38.00259],[-85.871826,38.00259],[-85.871133,38.001405],[-85.873155,37.999916],[-85.871711,37.998169],[-85.870208,37.998002],[-85.867377,37.999369],[-85.866838,37.998822],[-85.868571,37.997607],[-85.86547,37.994235],[-85.863313,37.996255],[-85.862465,37.995997],[-85.859802,37.997482],[-85.859396,37.99829],[-85.861013,38.000053],[-85.85912,38.000995],[-85.858851,38.004246],[-85.857114,38.003436],[-85.854385,38.004393],[-85.853588,38.002101],[-85.848068,38.003532],[-85.847532,38.002343],[-85.84911,38.001142],[-85.848569,38.000052],[-85.844093,37.999634],[-85.842614,37.998422],[-85.831672,37.997359],[-85.830041,37.998691],[-85.826014,37.996787],[-85.825167,37.995276],[-85.804539,37.989896],[-85.803439,37.990678],[-85.80353,37.992199],[-85.79733,37.991394],[-85.796414,37.990582],[-85.793576,37.990138],[-85.7935,37.989418],[-85.789946,37.988978],[-85.788438,37.990942],[-85.78651,37.989784],[-85.784883,37.990454],[-85.782455,37.989774],[-85.778783,37.989774],[-85.773743,37.989015],[-85.770862,37.989219],[-85.768225,37.974881],[-85.752538,37.965493],[-85.753678,37.964188],[-85.75571,37.96321],[-85.7589,37.963402],[-85.759174,37.947061],[-85.761812,37.943411],[-85.761218,37.943897],[-85.756501,37.943219],[-85.755448,37.942471],[-85.752627,37.942317],[-85.750459,37.941449],[-85.753956,37.936721],[-85.752189,37.935825],[-85.750289,37.935813],[-85.748477,37.937145],[-85.749047,37.938172],[-85.746751,37.939134],[-85.74467,37.938636],[-85.745897,37.937245],[-85.745561,37.934037],[-85.743833,37.932077],[-85.741786,37.931594],[-85.737628,37.931368],[-85.73552,37.932731],[-85.729551,37.939386],[-85.721286,37.938274],[-85.716968,37.937184],[-85.715602,37.93648],[-85.705243,37.927875],[-85.701941,37.927876],[-85.698925,37.923458],[-85.69318,37.925398],[-85.690184,37.925582],[-85.687791,37.925036],[-85.687428,37.915593],[-85.688078,37.912863],[-85.689339,37.910248],[-85.691482,37.907363],[-85.690469,37.905347],[-85.686059,37.90478],[-85.685329,37.902704],[-85.683875,37.901422],[-85.681242,37.901348],[-85.679738,37.891371],[-85.679938,37.890663],[-85.681723,37.887761],[-85.686549,37.889149],[-85.689233,37.889041],[-85.691404,37.890031],[-85.69673,37.890675],[-85.698722,37.891778],[-85.699884,37.893586],[-85.69931,37.888042],[-85.699457,37.885208],[-85.701475,37.88131],[-85.702455,37.8786],[-85.70378,37.871978],[-85.699872,37.870067],[-85.696345,37.867428],[-85.69353,37.862482],[-85.684567,37.856301],[-85.682484,37.854221],[-85.681088,37.851307],[-85.67778,37.847931],[-85.674779,37.843712],[-85.674034,37.84187],[-85.673445,37.837655],[-85.672731,37.836482],[-85.66404,37.828398],[-85.660964,37.831475],[-85.659004,37.832282],[-85.654622,37.832401],[-85.653833,37.833445],[-85.650659,37.83471],[-85.64903,37.837536],[-85.644851,37.838743],[-85.639948,37.84208],[-85.638097,37.843888],[-85.636952,37.843093],[-85.634279,37.843467],[-85.633308,37.846262],[-85.632132,37.844397],[-85.629821,37.845303],[-85.629294,37.847864],[-85.6267,37.850053],[-85.625304,37.849976],[-85.621777,37.850676],[-85.620396,37.850433],[-85.616824,37.852352],[-85.615117,37.854944],[-85.610269,37.858904],[-85.611742,37.863114],[-85.611027,37.864897],[-85.613586,37.867565],[-85.613309,37.870034],[-85.608008,37.869246],[-85.605407,37.870477],[-85.603989,37.870568],[-85.601614,37.869621],[-85.599678,37.869442],[-85.598738,37.872178],[-85.597475,37.873347],[-85.592568,37.87609],[-85.588321,37.875757],[-85.586086,37.876841],[-85.58265,37.88022],[-85.581264,37.88103],[-85.579721,37.883481],[-85.577603,37.883081],[-85.576564,37.88456],[-85.58114,37.886646],[-85.584803,37.893551],[-85.584949,37.895404],[-85.584413,37.899702],[-85.584866,37.9011],[-85.584453,37.903695],[-85.585545,37.905844],[-85.585683,37.907729],[-85.583966,37.909705],[-85.583946,37.911048],[-85.582254,37.910865],[-85.579068,37.912949],[-85.578062,37.914514],[-85.575222,37.916922],[-85.572762,37.915995],[-85.568835,37.917579],[-85.565615,37.920131],[-85.566434,37.92389],[-85.565331,37.924899],[-85.562826,37.923476],[-85.560775,37.923],[-85.55573,37.923979],[-85.554225,37.925515],[-85.552413,37.925565],[-85.550333,37.926855],[-85.549074,37.928243],[-85.54901,37.929975],[-85.547966,37.930291],[-85.54714,37.933025],[-85.544877,37.936219],[-85.544123,37.938747],[-85.542917,37.940359],[-85.540015,37.941098],[-85.538086,37.94211],[-85.536347,37.943945],[-85.533997,37.944028],[-85.532942,37.94566],[-85.529946,37.947231],[-85.527418,37.9508],[-85.525244,37.952746],[-85.524933,37.955541],[-85.523962,37.957187],[-85.525989,37.960723],[-85.527883,37.962594],[-85.532359,37.963822],[-85.532468,37.965175],[-85.534225,37.965402],[-85.535895,37.968308],[-85.535596,37.969934],[-85.531714,37.974145],[-85.532677,37.97447],[-85.537063,37.974118],[-85.541527,37.972893],[-85.545308,37.972575],[-85.547544,37.97426],[-85.548023,37.976292],[-85.546929,37.978173],[-85.543621,37.980295],[-85.545263,37.982411],[-85.543766,37.984125],[-85.543808,37.985482],[-85.546146,37.987872],[-85.547715,37.987218],[-85.548478,37.989086],[-85.550872,37.990053],[-85.553225,37.991696],[-85.550073,37.992882],[-85.550267,37.993992],[-85.553023,37.994228],[-85.552273,37.996316],[-85.556542,37.994773],[-85.558714,37.994693],[-85.560164,37.997008],[-85.558465,38.000073],[-85.554982,38.001462],[-85.554191,38.002472],[-85.55883,38.004664],[-85.559058,38.008597],[-85.559744,38.009302],[-85.563965,38.009879],[-85.571035,38.009299],[-85.575689,38.007147],[-85.579939,38.006218],[-85.584126,38.003775],[-85.585761,38.00334],[-85.593222,38.003905],[-85.598506,38.005469],[-85.602913,38.007676],[-85.608231,38.007698],[-85.607831,38.0099],[-85.606922,38.011104],[-85.606918,38.01491],[-85.608102,38.017455],[-85.611593,38.01723],[-85.613612,38.026157],[-85.614591,38.029781],[-85.617759,38.029715],[-85.619841,38.028899],[-85.619029,38.026067],[-85.619352,38.02516],[-85.621379,38.029186],[-85.62387,38.034625],[-85.622607,38.034988],[-85.616709,38.03533],[-85.61733,38.037849],[-85.623321,38.038286],[-85.623175,38.036703],[-85.627379,38.03551],[-85.631199,38.035801],[-85.635284,38.033993],[-85.637401,38.034995],[-85.641135,38.034589],[-85.644631,38.035894],[-85.650279,38.035589],[-85.654654,38.034218],[-85.659328,38.034525],[-85.659034,38.035163],[-85.657461,38.036143],[-85.655943,38.036732],[-85.646912,38.038084],[-85.639693,38.038405],[-85.639058,38.038638],[-85.632874,38.038508],[-85.627745,38.040083],[-85.625,38.040302],[-85.618772,38.039507],[-85.616602,38.041494],[-85.61623,38.044389],[-85.613506,38.050225],[-85.612081,38.051467],[-85.608865,38.052271],[-85.607652,38.053316],[-85.60715,38.056864],[-85.604063,38.059042],[-85.603113,38.065101],[-85.60128,38.066596],[-85.597791,38.068345],[-85.591845,38.073044],[-85.591913,38.073876],[-85.596213,38.077274],[-85.612805,38.078705],[-85.615866,38.078969],[-85.615404,38.077019],[-85.616397,38.075546],[-85.61668,38.073277],[-85.619815,38.074347],[-85.620315,38.073287],[-85.617416,38.071223],[-85.620999,38.068194],[-85.62181,38.065903],[-85.624276,38.064754],[-85.624864,38.062216],[-85.626901,38.060687],[-85.628909,38.060496],[-85.63043,38.061277],[-85.630936,38.063354],[-85.632277,38.063382],[-85.633709,38.061954],[-85.636557,38.062862],[-85.640383,38.066621],[-85.642641,38.066946],[-85.643698,38.066106],[-85.642379,38.063447],[-85.64254,38.062579],[-85.644172,38.062678],[-85.645359,38.064305],[-85.645157,38.065513],[-85.647311,38.065201],[-85.647283,38.063836],[-85.651292,38.062652],[-85.652609,38.063017],[-85.656254,38.06539],[-85.65453,38.067105],[-85.65521,38.067529],[-85.657427,38.065372],[-85.657043,38.066556],[-85.658904,38.067263],[-85.659045,38.065215],[-85.664701,38.064462],[-85.664952,38.066706],[-85.666065,38.067738],[-85.670112,38.067471],[-85.671628,38.066866],[-85.676794,38.067153],[-85.683418,38.054912],[-85.687745,38.058051],[-85.692047,38.062552],[-85.694821,38.063629],[-85.699118,38.063211],[-85.698961,38.061077],[-85.70047,38.061929],[-85.701854,38.062743],[-85.702434,38.062619],[-85.704131,38.061709],[-85.705145,38.061364],[-85.707119,38.061165],[-85.710182,38.06128],[-85.71,38.052823],[-85.710226,38.052818],[-85.710065,38.047506],[-85.709937,38.043057],[-85.716569,38.047546],[-85.719001,38.049129],[-85.730989,38.061568],[-85.733599,38.064039],[-85.734736,38.062568],[-85.737615,38.061562],[-85.741247,38.061963],[-85.743389,38.061269],[-85.745547,38.059803],[-85.749525,38.057827],[-85.754761,38.056415],[-85.757269,38.057499],[-85.75875,38.057137],[-85.760408,38.055136],[-85.760325,38.052413],[-85.761037,38.050238],[-85.763091,38.048952],[-85.767608,38.049398],[-85.77093,38.051121],[-85.772604,38.05153],[-85.780244,38.049038],[-85.783541,38.046864],[-85.785762,38.046716],[-85.786987,38.044274],[-85.786751,38.04314],[-85.790664,38.040976],[-85.793297,38.042718],[-85.794343,38.042371],[-85.794156,38.040256],[-85.795205,38.038816],[-85.798998,38.036197],[-85.799797,38.034917],[-85.802541,38.034263],[-85.807667,38.030643],[-85.809931,38.032676],[-85.811091,38.034972],[-85.8115,38.040834],[-85.81298,38.042559],[-85.813042,38.044405],[-85.817071,38.045877],[-85.820814,38.047808],[-85.839452,38.047647],[-85.850225,38.04515]],[[-85.719054,38.043552],[-85.719138,38.043651],[-85.718991,38.045746],[-85.714223,38.044431],[-85.714163,38.043553],[-85.719054,38.043552]],[[-85.706337,38.052554],[-85.704445,38.056675],[-85.703766,38.057526],[-85.70286,38.057227],[-85.703356,38.056303],[-85.700247,38.055446],[-85.699414,38.056156],[-85.699299,38.054403],[-85.69938,38.053854],[-85.700059,38.052063],[-85.706337,38.052554]],[[-85.662681,37.946286],[-85.662825,37.946776],[-85.660972,37.947965],[-85.658738,37.946692],[-85.65824,37.944617],[-85.659182,37.941048],[-85.657481,37.936043],[-85.653393,37.92982],[-85.653772,37.928335],[-85.649874,37.928028],[-85.648233,37.927163],[-85.647812,37.926269],[-85.650166,37.927967],[-85.654894,37.928165],[-85.656754,37.928992],[-85.661664,37.929645],[-85.665694,37.931922],[-85.662681,37.946286]]]]}},{"type":"Feature","properties":{"zcta5":"40299","AFFGEOID10":"8600000US40299","GEOID10":"40299","ALAND10":137572401,"AWATER10":2133991,"county_name":"Bullitt","state_code":"KY","county_state":"Bullitt County, KY","county_fips":"21029","risk_level_county":"Medium Risk (70–79% vaccinated)","mean_vaccination_rate_county":79.84,"risk_level_zcta":"Medium Risk (70–79% vaccinated)","mean_vaccination_rate_zips":74.04,"cases":4},"geometry":{"type":"Polygon","coordinates":[[[-85.615993,38.181313],[-85.615956,38.179824],[-85.614183,38.177094],[-85.612688,38.178497],[-85.609935,38.179869],[-85.609458,38.180931],[-85.605539,38.181215],[-85.606001,38.175396],[-85.600655,38.174802],[-85.597923,38.176409],[-85.592008,38.177718],[-85.589927,38.177348],[-85.583461,38.177306],[-85.58492,38.17588],[-85.584218,38.173995],[-85.572959,38.173208],[-85.572807,38.171496],[-85.573582,38.169725],[-85.572164,38.169605],[-85.570577,38.167489],[-85.570213,38.165843],[-85.573287,38.165708],[-85.573495,38.164819],[-85.576092,38.165057],[-85.576175,38.164291],[-85.573081,38.163949],[-85.573381,38.159085],[-85.572083,38.158314],[-85.572216,38.157189],[-85.569446,38.155928],[-85.565168,38.155993],[-85.560189,38.155004],[-85.559053,38.15358],[-85.555386,38.144663],[-85.545872,38.146826],[-85.545693,38.146616],[-85.53926,38.13944],[-85.538352,38.136628],[-85.535002,38.136428],[-85.53628,38.131919],[-85.537238,38.131268],[-85.535553,38.131006],[-85.53269,38.129231],[-85.531621,38.129805],[-85.529233,38.129228],[-85.527596,38.124691],[-85.528644,38.123774],[-85.528504,38.121905],[-85.529703,38.119655],[-85.532296,38.120257],[-85.53587,38.119876],[-85.53499,38.117613],[-85.533411,38.117259],[-85.533243,38.116316],[-85.536393,38.112753],[-85.536926,38.110766],[-85.532844,38.109897],[-85.529882,38.107266],[-85.527781,38.106075],[-85.527967,38.105097],[-85.528766,38.104661],[-85.534646,38.108834],[-85.536978,38.109558],[-85.53923,38.108961],[-85.542906,38.110419],[-85.544719,38.107046],[-85.544982,38.104981],[-85.547393,38.10182],[-85.54725,38.100017],[-85.547841,38.098933],[-85.5535,38.100651],[-85.557165,38.100903],[-85.559122,38.100312],[-85.560054,38.098424],[-85.559458,38.096727],[-85.555422,38.093924],[-85.552764,38.091684],[-85.5521,38.090575],[-85.551821,38.087993],[-85.552285,38.086521],[-85.551354,38.086655],[-85.547287,38.089198],[-85.543889,38.089763],[-85.542322,38.088649],[-85.535738,38.08771],[-85.533944,38.0867],[-85.531786,38.087106],[-85.528661,38.08468],[-85.527347,38.084634],[-85.515895,38.088766],[-85.504561,38.092349],[-85.503545,38.091938],[-85.49557,38.092375],[-85.49233,38.090745],[-85.488506,38.094521],[-85.485417,38.094271],[-85.482628,38.097136],[-85.477508,38.09652],[-85.477039,38.09738],[-85.477609,38.099832],[-85.479783,38.10017],[-85.42883,38.118383],[-85.425836,38.136806],[-85.436828,38.139735],[-85.438949,38.138825],[-85.441966,38.140256],[-85.443136,38.140108],[-85.443336,38.141535],[-85.452724,38.144065],[-85.454346,38.145238],[-85.456518,38.143923],[-85.4555,38.14608],[-85.46391,38.152161],[-85.468312,38.152148],[-85.469835,38.15504],[-85.470615,38.155397],[-85.466928,38.154943],[-85.46644,38.157118],[-85.465327,38.158725],[-85.464014,38.162852],[-85.467271,38.162969],[-85.469994,38.164126],[-85.472153,38.16438],[-85.4706,38.169401],[-85.467165,38.172082],[-85.465712,38.174526],[-85.471454,38.17699],[-85.475379,38.179189],[-85.479346,38.182725],[-85.481221,38.185309],[-85.48255,38.183819],[-85.485076,38.183163],[-85.487025,38.185642],[-85.487126,38.186358],[-85.485203,38.188082],[-85.483374,38.188575],[-85.47826,38.187337],[-85.475026,38.187546],[-85.47493,38.189329],[-85.471163,38.189941],[-85.471856,38.191428],[-85.467116,38.191863],[-85.462124,38.19177],[-85.456634,38.190712],[-85.456367,38.191454],[-85.456928,38.194559],[-85.458065,38.196121],[-85.461391,38.197637],[-85.464544,38.198427],[-85.46602,38.197837],[-85.4698,38.198646],[-85.47509,38.199157],[-85.476139,38.1998],[-85.475492,38.202798],[-85.472708,38.204019],[-85.471904,38.204919],[-85.472929,38.207055],[-85.474786,38.207329],[-85.476772,38.206434],[-85.47891,38.208115],[-85.479942,38.210959],[-85.477596,38.213253],[-85.478673,38.218676],[-85.493757,38.222256],[-85.488817,38.222311],[-85.486604,38.22364],[-85.488518,38.224358],[-85.489832,38.225731],[-85.491046,38.225596],[-85.495472,38.226682],[-85.497309,38.231323],[-85.497307,38.232502],[-85.499305,38.232727],[-85.50299,38.236129],[-85.503549,38.237584],[-85.503782,38.236933],[-85.505447,38.223108],[-85.505353,38.226715],[-85.50608,38.225287],[-85.511826,38.226715],[-85.51648,38.231378],[-85.520662,38.229436],[-85.521155,38.230997],[-85.521823,38.230853],[-85.522865,38.229608],[-85.5252,38.230074],[-85.529722,38.229254],[-85.527539,38.223346],[-85.539013,38.223728],[-85.542479,38.230762],[-85.548368,38.230922],[-85.550328,38.230433],[-85.552633,38.228476],[-85.553096,38.227178],[-85.555705,38.226315],[-85.555853,38.225302],[-85.552589,38.223381],[-85.552943,38.222768],[-85.569942,38.222159],[-85.577502,38.222307],[-85.580117,38.221158],[-85.58538,38.218236],[-85.589015,38.216743],[-85.590705,38.215274],[-85.586809,38.211567],[-85.586412,38.209389],[-85.587855,38.206069],[-85.588915,38.206723],[-85.589835,38.203161],[-85.59101,38.20069],[-85.592843,38.199475],[-85.592685,38.198502],[-85.600622,38.19885],[-85.602295,38.198561],[-85.60752,38.199128],[-85.606554,38.195181],[-85.606456,38.193069],[-85.608621,38.193562],[-85.615836,38.193686],[-85.615306,38.191596],[-85.609969,38.187697],[-85.612898,38.181704],[-85.615993,38.181313]]]}},{"type":"Feature","properties":{"zcta5":"40109","AFFGEOID10":"8600000US40109","GEOID10":"40109","ALAND10":24194207,"AWATER10":92342,"county_name":"Bullitt","state_code":"KY","county_state":"Bullitt County, KY","county_fips":"21029","risk_level_county":"Medium Risk (70–79% vaccinated)","mean_vaccination_rate_county":79.84,"risk_level_zcta":"Higher Risk (60–69% vaccinated)","mean_vaccination_rate_zips":62.91,"cases":4},"geometry":{"type":"MultiPolygon","coordinates":[[[[-85.706337,38.052554],[-85.700059,38.052063],[-85.69938,38.053854],[-85.699299,38.054403],[-85.699414,38.056156],[-85.700247,38.055446],[-85.703356,38.056303],[-85.70286,38.057227],[-85.703766,38.057526],[-85.704445,38.056675],[-85.706337,38.052554]]],[[[-85.719054,38.043552],[-85.714163,38.043553],[-85.714223,38.044431],[-85.718991,38.045746],[-85.719138,38.043651],[-85.719054,38.043552]]],[[[-85.820814,38.047808],[-85.817071,38.045877],[-85.813042,38.044405],[-85.81298,38.042559],[-85.8115,38.040834],[-85.811091,38.034972],[-85.809931,38.032676],[-85.807667,38.030643],[-85.802541,38.034263],[-85.799797,38.034917],[-85.798998,38.036197],[-85.795205,38.038816],[-85.794156,38.040256],[-85.794343,38.042371],[-85.793297,38.042718],[-85.790664,38.040976],[-85.786751,38.04314],[-85.786987,38.044274],[-85.785762,38.046716],[-85.783541,38.046864],[-85.780244,38.049038],[-85.772604,38.05153],[-85.77093,38.051121],[-85.767608,38.049398],[-85.763091,38.048952],[-85.761037,38.050238],[-85.760325,38.052413],[-85.760408,38.055136],[-85.75875,38.057137],[-85.757269,38.057499],[-85.754761,38.056415],[-85.749525,38.057827],[-85.745547,38.059803],[-85.743389,38.061269],[-85.741247,38.061963],[-85.737615,38.061562],[-85.734736,38.062568],[-85.733599,38.064039],[-85.730989,38.061568],[-85.719001,38.049129],[-85.716569,38.047546],[-85.709937,38.043057],[-85.710065,38.047506],[-85.710226,38.052818],[-85.71,38.052823],[-85.710182,38.06128],[-85.707119,38.061165],[-85.705145,38.061364],[-85.704131,38.061709],[-85.702434,38.062619],[-85.701854,38.062743],[-85.702404,38.065949],[-85.704142,38.069053],[-85.708291,38.070266],[-85.709271,38.07226],[-85.713902,38.075171],[-85.71529,38.077863],[-85.715751,38.077754],[-85.718547,38.08303],[-85.719976,38.085257],[-85.790154,38.065842],[-85.807354,38.061082],[-85.808507,38.055988],[-85.815409,38.05033],[-85.820814,38.047808]]]]}},{"type":"Feature","properties":{"zcta5":"40150","AFFGEOID10":"8600000US40150","GEOID10":"40150","ALAND10":89549739,"AWATER10":947512,"county_name":"Bullitt","state_code":"KY","county_state":"Bullitt County, KY","county_fips":"21029","risk_level_county":"Medium Risk (70–79% vaccinated)","mean_vaccination_rate_county":79.84,"risk_level_zcta":"Lower Risk (80–84% vaccinated)","mean_vaccination_rate_zips":81.37,"cases":4},"geometry":{"type":"MultiPolygon","coordinates":[[[[-85.747282,37.785781],[-85.747123,37.785732],[-85.746732,37.785752],[-85.746994,37.785789],[-85.747393,37.785921],[-85.747282,37.785781]]],[[[-85.760024,37.814218],[-85.757719,37.812262],[-85.757613,37.809967],[-85.755786,37.810496],[-85.752682,37.806798],[-85.754441,37.803093],[-85.75904,37.802497],[-85.761378,37.802542],[-85.769103,37.803769],[-85.774605,37.803126],[-85.77971,37.801674],[-85.77806,37.796729],[-85.774692,37.791231],[-85.772031,37.789882],[-85.772837,37.78805],[-85.769502,37.789378],[-85.772421,37.786296],[-85.77191,37.785054],[-85.770335,37.787192],[-85.768583,37.788207],[-85.766078,37.788814],[-85.759382,37.789938],[-85.756682,37.791181],[-85.755169,37.792785],[-85.747098,37.804653],[-85.744231,37.807935],[-85.738869,37.813224],[-85.737777,37.81179],[-85.735758,37.812254],[-85.735362,37.811099],[-85.734019,37.81099],[-85.73148,37.812245],[-85.730725,37.811083],[-85.728812,37.812417],[-85.729689,37.810488],[-85.728752,37.810027],[-85.726691,37.811061],[-85.720984,37.809929],[-85.720538,37.808404],[-85.722977,37.80861],[-85.724532,37.806394],[-85.723587,37.806139],[-85.723055,37.807784],[-85.721709,37.806303],[-85.720994,37.807767],[-85.714855,37.808227],[-85.715702,37.809782],[-85.714083,37.810717],[-85.711822,37.811256],[-85.710287,37.81107],[-85.71079,37.812428],[-85.708756,37.812653],[-85.706391,37.814132],[-85.704457,37.812903],[-85.70255,37.814214],[-85.698318,37.81117],[-85.696474,37.813002],[-85.69298,37.81524],[-85.693525,37.816227],[-85.692891,37.817505],[-85.691231,37.818509],[-85.687419,37.817923],[-85.682227,37.819713],[-85.683393,37.815434],[-85.682514,37.814766],[-85.680648,37.814878],[-85.68155,37.816342],[-85.679344,37.817207],[-85.678278,37.818576],[-85.676465,37.819195],[-85.67555,37.820506],[-85.676587,37.821662],[-85.675064,37.823299],[-85.671831,37.823738],[-85.671495,37.822533],[-85.670294,37.82247],[-85.668006,37.824668],[-85.662421,37.824782],[-85.659179,37.826343],[-85.657163,37.826865],[-85.655639,37.828315],[-85.654686,37.828038],[-85.652659,37.82904],[-85.65131,37.828989],[-85.654153,37.831667],[-85.653492,37.832727],[-85.649776,37.83274],[-85.649175,37.833382],[-85.646842,37.833853],[-85.646914,37.833192],[-85.643254,37.834033],[-85.641371,37.83503],[-85.640979,37.836434],[-85.63877,37.838487],[-85.637343,37.838687],[-85.638122,37.841087],[-85.637307,37.842022],[-85.635429,37.841141],[-85.634149,37.841917],[-85.633396,37.84359],[-85.632132,37.844397],[-85.633308,37.846262],[-85.634279,37.843467],[-85.636952,37.843093],[-85.638097,37.843888],[-85.639948,37.84208],[-85.644851,37.838743],[-85.64903,37.837536],[-85.650659,37.83471],[-85.653833,37.833445],[-85.654622,37.832401],[-85.659004,37.832282],[-85.660964,37.831475],[-85.66404,37.828398],[-85.672731,37.836482],[-85.673445,37.837655],[-85.674034,37.84187],[-85.674779,37.843712],[-85.67778,37.847931],[-85.681088,37.851307],[-85.682484,37.854221],[-85.684567,37.856301],[-85.69353,37.862482],[-85.696345,37.867428],[-85.699872,37.870067],[-85.70378,37.871978],[-85.702455,37.8786],[-85.701475,37.88131],[-85.699457,37.885208],[-85.69931,37.888042],[-85.699884,37.893586],[-85.698722,37.891778],[-85.69673,37.890675],[-85.691404,37.890031],[-85.689233,37.889041],[-85.686549,37.889149],[-85.681723,37.887761],[-85.679938,37.890663],[-85.679738,37.891371],[-85.681242,37.901348],[-85.683875,37.901422],[-85.685329,37.902704],[-85.686059,37.90478],[-85.690469,37.905347],[-85.691482,37.907363],[-85.689339,37.910248],[-85.688078,37.912863],[-85.687428,37.915593],[-85.687791,37.925036],[-85.690184,37.925582],[-85.69318,37.925398],[-85.698925,37.923458],[-85.701941,37.927876],[-85.705243,37.927875],[-85.715602,37.93648],[-85.716968,37.937184],[-85.721286,37.938274],[-85.729551,37.939386],[-85.73552,37.932731],[-85.737628,37.931368],[-85.741786,37.931594],[-85.743833,37.932077],[-85.745561,37.934037],[-85.745897,37.937245],[-85.74467,37.938636],[-85.746751,37.939134],[-85.749047,37.938172],[-85.748477,37.937145],[-85.750289,37.935813],[-85.752189,37.935825],[-85.753956,37.936721],[-85.750459,37.941449],[-85.752627,37.942317],[-85.755448,37.942471],[-85.756501,37.943219],[-85.761218,37.943897],[-85.761812,37.943411],[-85.764876,37.939101],[-85.765046,37.936178],[-85.765729,37.93512],[-85.765708,37.925778],[-85.766076,37.918199],[-85.764093,37.916175],[-85.764267,37.912981],[-85.763293,37.911874],[-85.763297,37.909823],[-85.760848,37.909124],[-85.758439,37.906935],[-85.758712,37.90503],[-85.757559,37.903825],[-85.758339,37.902188],[-85.759818,37.901918],[-85.76108,37.899126],[-85.760283,37.895711],[-85.761021,37.894789],[-85.759032,37.89317],[-85.756195,37.8919],[-85.753645,37.891444],[-85.756303,37.889666],[-85.751722,37.884293],[-85.753188,37.861],[-85.753099,37.859774],[-85.749727,37.850876],[-85.747896,37.841748],[-85.751636,37.84046],[-85.753231,37.839149],[-85.756961,37.834412],[-85.760574,37.83343],[-85.759517,37.831617],[-85.753702,37.829088],[-85.750152,37.826737],[-85.757801,37.821827],[-85.760348,37.819047],[-85.757991,37.815914],[-85.760024,37.814218]]]]}},{"type":"Feature","properties":{"zcta5":"40272","AFFGEOID10":"8600000US40272","GEOID10":"40272","ALAND10":88388253,"AWATER10":7035825,"county_name":"Bullitt","state_code":"KY","county_state":"Bullitt County, KY","county_fips":"21029","risk_level_county":"Medium Risk (70–79% vaccinated)","mean_vaccination_rate_county":79.84,"risk_level_zcta":"Higher Risk (60–69% vaccinated)","mean_vaccination_rate_zips":69.92,"cases":4},"geometry":{"type":"Polygon","coordinates":[[[-85.947114,38.005085],[-85.945044,38.002426],[-85.942399,38.001064],[-85.940403,38.003273],[-85.935699,38.006705],[-85.927114,38.013034],[-85.922107,38.017601],[-85.916429,38.024118],[-85.916444,38.026888],[-85.914349,38.03132],[-85.91321,38.033006],[-85.912172,38.034152],[-85.900518,38.045584],[-85.902309,38.041924],[-85.892283,38.05285],[-85.885465,38.049277],[-85.889055,38.044512],[-85.890517,38.043775],[-85.893112,38.039838],[-85.894613,38.038501],[-85.895533,38.036459],[-85.897067,38.034628],[-85.899776,38.032583],[-85.900452,38.029339],[-85.897345,38.029809],[-85.894267,38.032141],[-85.889183,38.034644],[-85.888817,38.035379],[-85.886423,38.036704],[-85.883492,38.037582],[-85.883776,38.038923],[-85.882578,38.040782],[-85.880208,38.040975],[-85.858644,38.046975],[-85.850592,38.048148],[-85.848575,38.047728],[-85.850402,38.046117],[-85.850225,38.04515],[-85.839452,38.047647],[-85.820814,38.047808],[-85.815409,38.05033],[-85.808507,38.055988],[-85.807354,38.061082],[-85.790154,38.065842],[-85.788977,38.066713],[-85.786043,38.070804],[-85.787883,38.072421],[-85.787322,38.073931],[-85.78803,38.076953],[-85.787261,38.079308],[-85.789321,38.080399],[-85.792229,38.0805],[-85.794016,38.079992],[-85.797283,38.080582],[-85.797229,38.081812],[-85.796381,38.081353],[-85.794785,38.084169],[-85.792586,38.08548],[-85.792723,38.087864],[-85.79306,38.088893],[-85.792505,38.092643],[-85.787202,38.095975],[-85.783342,38.100477],[-85.782203,38.105393],[-85.782567,38.105561],[-85.782816,38.106224],[-85.783443,38.106995],[-85.783408,38.107347],[-85.783751,38.108221],[-85.78404,38.110104],[-85.786755,38.113832],[-85.784439,38.115419],[-85.787861,38.117063],[-85.781314,38.120478],[-85.78616,38.124446],[-85.795676,38.119797],[-85.796197,38.120913],[-85.796206,38.125198],[-85.802749,38.120197],[-85.808946,38.127005],[-85.813404,38.127183],[-85.815621,38.126782],[-85.816427,38.127466],[-85.813273,38.130549],[-85.815482,38.132617],[-85.819022,38.129911],[-85.822614,38.132826],[-85.822952,38.135917],[-85.822191,38.137191],[-85.821293,38.13581],[-85.818706,38.136093],[-85.821433,38.139259],[-85.822431,38.143191],[-85.824978,38.142575],[-85.823781,38.144648],[-85.826839,38.145737],[-85.827008,38.148021],[-85.829296,38.147067],[-85.836339,38.143509],[-85.837477,38.143404],[-85.840349,38.13906],[-85.845193,38.132757],[-85.844226,38.13224],[-85.846248,38.129642],[-85.847497,38.130093],[-85.85224,38.12497],[-85.85502,38.120948],[-85.87676,38.121795],[-85.878354,38.121558],[-85.877477,38.119682],[-85.87654,38.115491],[-85.877162,38.113534],[-85.878914,38.112207],[-85.880924,38.116161],[-85.884733,38.118597],[-85.885242,38.117762],[-85.887776,38.116834],[-85.887951,38.11608],[-85.895429,38.116479],[-85.896056,38.116737],[-85.900794,38.116678],[-85.9060820346095,38.1168839633308],[-85.905164,38.11107],[-85.904226,38.099802],[-85.905266,38.088933],[-85.912006,38.0734],[-85.913839,38.071961],[-85.916315,38.060926],[-85.918912,38.041195],[-85.921275,38.03032],[-85.925654,38.021784],[-85.931221,38.016018],[-85.939609,38.009821],[-85.942216,38.007267],[-85.947114,38.005085]]]}},{"type":"Feature","properties":{"zcta5":"40177","AFFGEOID10":"8600000US40177","GEOID10":"40177","ALAND10":35528303,"AWATER10":2387906,"county_name":"Bullitt","state_code":"KY","county_state":"Bullitt County, KY","county_fips":"21029","risk_level_county":"Medium Risk (70–79% vaccinated)","mean_vaccination_rate_county":79.84,"risk_level_zcta":"Medium Risk (70–79% vaccinated)","mean_vaccination_rate_zips":75,"cases":4},"geometry":{"type":"Polygon","coordinates":[[[-85.99900395134121,37.9999832972867],[-85.996629,37.987442],[-85.991365,37.98626],[-85.98853,37.985991],[-85.965203,37.988466],[-85.961397,37.989085],[-85.962249,37.984115],[-85.962348,37.979383],[-85.961921,37.978361],[-85.964889,37.976446],[-85.966944,37.97567],[-85.977933,37.973254],[-85.98121,37.97219],[-85.98414,37.970547],[-85.987648,37.967001],[-85.991443,37.959439],[-85.990407,37.95383],[-85.988769,37.955192],[-85.984095,37.956007],[-85.979672,37.958274],[-85.976376,37.95823],[-85.975509,37.959809],[-85.976782,37.961251],[-85.972187,37.965281],[-85.971629,37.9665],[-85.969358,37.966221],[-85.965815,37.967086],[-85.965686,37.968163],[-85.962169,37.969037],[-85.961453,37.968228],[-85.956819,37.970091],[-85.953268,37.972593],[-85.950151,37.973023],[-85.948534,37.975507],[-85.947403,37.979073],[-85.940723,37.990027],[-85.93797,37.992111],[-85.932688,37.994418],[-85.931472,37.993632],[-85.92557,37.992253],[-85.923769,37.994511],[-85.926203,37.996942],[-85.924359,37.999449],[-85.915467,38.00758],[-85.914426,38.007729],[-85.893071,38.00262],[-85.89049,38.004914],[-85.887191,38.001676],[-85.889035,37.999591],[-85.888044,37.998974],[-85.88658,38.001253],[-85.880474,37.99627],[-85.878791,37.996781],[-85.880071,37.998141],[-85.883096,38.002804],[-85.874693,38.008829],[-85.872994,38.007601],[-85.870771,38.007267],[-85.866063,38.008291],[-85.858238,38.034155],[-85.856665,38.03424],[-85.85639,38.035659],[-85.857377,38.043493],[-85.850225,38.04515],[-85.850402,38.046117],[-85.848575,38.047728],[-85.850592,38.048148],[-85.858644,38.046975],[-85.880208,38.040975],[-85.882578,38.040782],[-85.883776,38.038923],[-85.883492,38.037582],[-85.886423,38.036704],[-85.888817,38.035379],[-85.889183,38.034644],[-85.894267,38.032141],[-85.897345,38.029809],[-85.900452,38.029339],[-85.899776,38.032583],[-85.897067,38.034628],[-85.895533,38.036459],[-85.894613,38.038501],[-85.893112,38.039838],[-85.890517,38.043775],[-85.889055,38.044512],[-85.885465,38.049277],[-85.892283,38.05285],[-85.902309,38.041924],[-85.900518,38.045584],[-85.912172,38.034152],[-85.91321,38.033006],[-85.914349,38.03132],[-85.916444,38.026888],[-85.916429,38.024118],[-85.922107,38.017601],[-85.927114,38.013034],[-85.935699,38.006705],[-85.940403,38.003273],[-85.942399,38.001064],[-85.945044,38.002426],[-85.947114,38.005085],[-85.954638,38.004657],[-85.972918,38.002574],[-85.977423,38.003388],[-85.99900395134121,37.9999832972867]]]}},{"type":"Feature","properties":{"zcta5":"40047","AFFGEOID10":"8600000US40047","GEOID10":"40047","ALAND10":76875314,"AWATER10":874994,"county_name":"Bullitt","state_code":"KY","county_state":"Bullitt County, KY","county_fips":"21029","risk_level_county":"Medium Risk (70–79% vaccinated)","mean_vaccination_rate_county":79.84,"risk_level_zcta":"Medium Risk (70–79% vaccinated)","mean_vaccination_rate_zips":75.49,"cases":4},"geometry":{"type":"Polygon","coordinates":[[[-85.596213,38.077274],[-85.591913,38.073876],[-85.591845,38.073044],[-85.597791,38.068345],[-85.60128,38.066596],[-85.603113,38.065101],[-85.604063,38.059042],[-85.60715,38.056864],[-85.607652,38.053316],[-85.608865,38.052271],[-85.612081,38.051467],[-85.613506,38.050225],[-85.61623,38.044389],[-85.616602,38.041494],[-85.618772,38.039507],[-85.625,38.040302],[-85.627745,38.040083],[-85.632874,38.038508],[-85.639058,38.038638],[-85.639693,38.038405],[-85.646912,38.038084],[-85.655943,38.036732],[-85.657461,38.036143],[-85.659034,38.035163],[-85.659328,38.034525],[-85.654654,38.034218],[-85.650279,38.035589],[-85.644631,38.035894],[-85.641135,38.034589],[-85.637401,38.034995],[-85.635284,38.033993],[-85.631199,38.035801],[-85.627379,38.03551],[-85.623175,38.036703],[-85.623321,38.038286],[-85.61733,38.037849],[-85.616709,38.03533],[-85.622607,38.034988],[-85.62387,38.034625],[-85.621379,38.029186],[-85.619352,38.02516],[-85.619029,38.026067],[-85.619841,38.028899],[-85.617759,38.029715],[-85.614591,38.029781],[-85.613612,38.026157],[-85.611593,38.01723],[-85.608102,38.017455],[-85.606918,38.01491],[-85.606922,38.011104],[-85.607831,38.0099],[-85.608231,38.007698],[-85.602913,38.007676],[-85.598506,38.005469],[-85.593222,38.003905],[-85.585761,38.00334],[-85.584126,38.003775],[-85.579939,38.006218],[-85.575689,38.007147],[-85.571035,38.009299],[-85.563965,38.009879],[-85.559744,38.009302],[-85.559058,38.008597],[-85.55883,38.004664],[-85.554191,38.002472],[-85.554982,38.001462],[-85.558465,38.000073],[-85.560164,37.997008],[-85.558714,37.994693],[-85.556963,37.994795],[-85.54848,37.998161],[-85.546648,38.000856],[-85.546128,38.004833],[-85.544314,38.010099],[-85.541013,38.009565],[-85.538363,38.011276],[-85.536422,38.011254],[-85.530925,38.009238],[-85.52334,38.00435],[-85.520477,38.006904],[-85.520006,38.010203],[-85.516882,38.011267],[-85.515006,38.010626],[-85.512795,38.010751],[-85.512058,38.012625],[-85.511551,38.013632],[-85.508,38.014234],[-85.50638,38.016823],[-85.505248,38.0173],[-85.501717,38.017068],[-85.499022,38.01776],[-85.49725,38.017535],[-85.495715,38.015967],[-85.495979,38.013153],[-85.495471,38.011529],[-85.493591,38.01011],[-85.491087,38.009177],[-85.484998,38.009693],[-85.480228,38.011005],[-85.47781,38.0127],[-85.476987,38.014568],[-85.476616,38.018773],[-85.478196,38.018203],[-85.480404,38.018389],[-85.48282,38.017449],[-85.482781,38.019719],[-85.484339,38.019393],[-85.485584,38.021055],[-85.488148,38.022283],[-85.492917,38.025612],[-85.495626,38.028163],[-85.494493,38.034084],[-85.492568,38.037193],[-85.491936,38.039119],[-85.492995,38.040774],[-85.494081,38.043784],[-85.494571,38.047193],[-85.49576,38.049106],[-85.496025,38.051342],[-85.499455,38.056893],[-85.49897,38.063924],[-85.50446,38.062295],[-85.503708,38.064521],[-85.501739,38.066957],[-85.506433,38.067424],[-85.509483,38.068562],[-85.519321,38.070828],[-85.522007,38.072568],[-85.522489,38.076158],[-85.524625,38.080011],[-85.526841,38.081539],[-85.528094,38.083745],[-85.528053,38.084379],[-85.544798,38.078342],[-85.550715,38.076205],[-85.55727,38.073841],[-85.567145,38.074743],[-85.582395,38.076119],[-85.596213,38.077274]]]}},{"type":"Feature","properties":{"zcta5":"40229","AFFGEOID10":"8600000US40229","GEOID10":"40229","ALAND10":51143035,"AWATER10":588193,"county_name":"Bullitt","state_code":"KY","county_state":"Bullitt County, KY","county_fips":"21029","risk_level_county":"Medium Risk (70–79% vaccinated)","mean_vaccination_rate_county":79.84,"risk_level_zcta":"Medium Risk (70–79% vaccinated)","mean_vaccination_rate_zips":73.81,"cases":4},"geometry":{"type":"Polygon","coordinates":[[[-85.719976,38.085257],[-85.718547,38.08303],[-85.715751,38.077754],[-85.71529,38.077863],[-85.713902,38.075171],[-85.709271,38.07226],[-85.708291,38.070266],[-85.704142,38.069053],[-85.702404,38.065949],[-85.701854,38.062743],[-85.70047,38.061929],[-85.698961,38.061077],[-85.699118,38.063211],[-85.694821,38.063629],[-85.692047,38.062552],[-85.687745,38.058051],[-85.683418,38.054912],[-85.676794,38.067153],[-85.671628,38.066866],[-85.670112,38.067471],[-85.666065,38.067738],[-85.664952,38.066706],[-85.664701,38.064462],[-85.659045,38.065215],[-85.658904,38.067263],[-85.657043,38.066556],[-85.657427,38.065372],[-85.65521,38.067529],[-85.65453,38.067105],[-85.656254,38.06539],[-85.652609,38.063017],[-85.651292,38.062652],[-85.647283,38.063836],[-85.647311,38.065201],[-85.645157,38.065513],[-85.645359,38.064305],[-85.644172,38.062678],[-85.64254,38.062579],[-85.642379,38.063447],[-85.643698,38.066106],[-85.642641,38.066946],[-85.640383,38.066621],[-85.636557,38.062862],[-85.633709,38.061954],[-85.632277,38.063382],[-85.630936,38.063354],[-85.63043,38.061277],[-85.628909,38.060496],[-85.626901,38.060687],[-85.624864,38.062216],[-85.624276,38.064754],[-85.62181,38.065903],[-85.620999,38.068194],[-85.617416,38.071223],[-85.620315,38.073287],[-85.619815,38.074347],[-85.61668,38.073277],[-85.616397,38.075546],[-85.615404,38.077019],[-85.615866,38.078969],[-85.612805,38.078705],[-85.596213,38.077274],[-85.582395,38.076119],[-85.583028,38.082979],[-85.584148,38.085841],[-85.580226,38.085942],[-85.578556,38.08444],[-85.577976,38.084486],[-85.578158,38.085292],[-85.575845,38.089629],[-85.578578,38.093223],[-85.579378,38.091443],[-85.582387,38.09057],[-85.58844,38.091057],[-85.59352,38.092386],[-85.59344,38.093971],[-85.596378,38.095518],[-85.593191,38.10102],[-85.602608,38.101493],[-85.603258,38.098441],[-85.602992,38.097799],[-85.606599,38.099085],[-85.607688,38.096605],[-85.61452,38.09686],[-85.614051,38.102468],[-85.61407,38.109101],[-85.621284,38.109382],[-85.621716,38.110568],[-85.626842,38.110791],[-85.627293,38.109635],[-85.633953,38.109998],[-85.635401,38.119549],[-85.643537,38.118292],[-85.646684,38.117874],[-85.645368,38.118564],[-85.647927,38.121787],[-85.649115,38.121568],[-85.649999,38.117338],[-85.656194,38.116398],[-85.656395,38.117968],[-85.658452,38.118885],[-85.65694,38.116284],[-85.661728,38.115167],[-85.671473,38.111804],[-85.675129,38.1108],[-85.676046,38.113934],[-85.674308,38.113446],[-85.673956,38.112263],[-85.671558,38.113192],[-85.669918,38.112827],[-85.667552,38.113905],[-85.668332,38.115495],[-85.670267,38.114886],[-85.670974,38.118369],[-85.674173,38.118544],[-85.679046,38.117602],[-85.680181,38.115429],[-85.696408,38.117049],[-85.699045,38.118793],[-85.70164,38.119238],[-85.701463,38.115038],[-85.701449,38.114717],[-85.701712,38.114769],[-85.701074,38.099999],[-85.70342,38.100034],[-85.703163,38.086499],[-85.712578,38.087311],[-85.719976,38.085257]],[[-85.693743,38.072439],[-85.690681,38.071407],[-85.693145,38.065527],[-85.693375,38.067423],[-85.694544,38.070538],[-85.693743,38.072439]],[[-85.658607,38.082231],[-85.655695,38.081822],[-85.655994,38.080695],[-85.656812,38.080737],[-85.658002,38.080355],[-85.658607,38.082231]]]}}]}