{"type":"FeatureCollection","features":[{"type":"Feature","properties":{"zcta5":"61315","AFFGEOID10":"8600000US61315","GEOID10":"61315","ALAND10":3727778,"AWATER10":171166,"county_name":"Bureau","state_code":"IL","county_state":"Bureau County, IL","county_fips":"17011","risk_level_county":"Higher Risk (60–69% vaccinated)","mean_vaccination_rate_county":60.03,"risk_level_zcta":"Very High Risk (<60% vaccinated)","mean_vaccination_rate_zips":52.29,"cases":14},"geometry":{"type":"Polygon","coordinates":[[[-89.375064,41.286708],[-89.373814,41.285725],[-89.373985,41.276839],[-89.35479,41.276909],[-89.35449,41.288777],[-89.354328,41.298482],[-89.373553,41.298645],[-89.373612,41.295765],[-89.373757,41.287961],[-89.375064,41.286708]]]}},{"type":"Feature","properties":{"zcta5":"61323","AFFGEOID10":"8600000US61323","GEOID10":"61323","ALAND10":456242,"AWATER10":0,"county_name":"Bureau","state_code":"IL","county_state":"Bureau County, IL","county_fips":"17011","risk_level_county":"Higher Risk (60–69% vaccinated)","mean_vaccination_rate_county":60.03,"risk_level_zcta":"Lowest Risk (85%+)","mean_vaccination_rate_zips":93.29,"cases":14},"geometry":{"type":"Polygon","coordinates":[[[-89.399878,41.432492],[-89.403022,41.42947],[-89.393555,41.429375],[-89.393559,41.433573],[-89.395143,41.434646],[-89.39358,41.434655],[-89.392109,41.436871],[-89.395194,41.43686],[-89.395195,41.438392],[-89.397023,41.438311],[-89.398224,41.43657],[-89.398177,41.434635],[-89.399619,41.433532],[-89.398097,41.432481],[-89.399878,41.432492]]]}},{"type":"Feature","properties":{"zcta5":"61322","AFFGEOID10":"8600000US61322","GEOID10":"61322","ALAND10":10218986,"AWATER10":2970648,"county_name":"Bureau","state_code":"IL","county_state":"Bureau County, IL","county_fips":"17011","risk_level_county":"Higher Risk (60–69% vaccinated)","mean_vaccination_rate_county":60.03,"risk_level_zcta":"Medium Risk (70–79% vaccinated)","mean_vaccination_rate_zips":77.39,"cases":14},"geometry":{"type":"Polygon","coordinates":[[[-89.28245,41.333259],[-89.289763,41.333696],[-89.299288,41.333031],[-89.307319,41.333924],[-89.314482,41.333552],[-89.315823,41.333843],[-89.31842,41.328866],[-89.322001,41.329366],[-89.323008,41.328002],[-89.324029,41.329184],[-89.324779,41.327677],[-89.3257,41.328503],[-89.329454,41.326766],[-89.33509,41.326427],[-89.335324,41.301916],[-89.332956,41.301167],[-89.32878,41.30182],[-89.322978,41.30303],[-89.319152,41.304216],[-89.314186,41.305042],[-89.304786,41.306961],[-89.294664,41.31041],[-89.292693,41.31095],[-89.287108,41.311522],[-89.283466,41.312385],[-89.281434,41.313413],[-89.275169,41.318445],[-89.271188,41.320816],[-89.274667,41.32357],[-89.275667,41.325949],[-89.27782,41.327482],[-89.278065,41.327969],[-89.281405,41.327873],[-89.282555,41.332372],[-89.28245,41.333259]]]}},{"type":"Feature","properties":{"zcta5":"61328","AFFGEOID10":"8600000US61328","GEOID10":"61328","ALAND10":1261054,"AWATER10":0,"county_name":"Bureau","state_code":"IL","county_state":"Bureau County, IL","county_fips":"17011","risk_level_county":"Higher Risk (60–69% vaccinated)","mean_vaccination_rate_county":60.03,"risk_level_zcta":"Uninhabited","mean_vaccination_rate_zips":null,"cases":14},"geometry":{"type":"Polygon","coordinates":[[[-89.466282,41.505357],[-89.466438,41.494851],[-89.45683,41.494832],[-89.451968,41.494847],[-89.451768,41.503899],[-89.463439,41.503962],[-89.463449,41.505349],[-89.466282,41.505357]]]}},{"type":"Feature","properties":{"zcta5":"61337","AFFGEOID10":"8600000US61337","GEOID10":"61337","ALAND10":17199792,"AWATER10":0,"county_name":"Bureau","state_code":"IL","county_state":"Bureau County, IL","county_fips":"17011","risk_level_county":"Higher Risk (60–69% vaccinated)","mean_vaccination_rate_county":60.03,"risk_level_zcta":"Very High Risk (<60% vaccinated)","mean_vaccination_rate_zips":51.76,"cases":14},"geometry":{"type":"MultiPolygon","coordinates":[[[[-89.310201,41.444314],[-89.310078,41.444213],[-89.302142,41.435944],[-89.296579,41.429658],[-89.29668,41.422351],[-89.27743,41.422371],[-89.277152,41.440729],[-89.271924,41.44072],[-89.272082,41.444274],[-89.309889,41.444312],[-89.310201,41.444314]]],[[[-89.315888,41.451628],[-89.364327,41.451543],[-89.364618,41.428309],[-89.370746,41.428267],[-89.370775,41.429508],[-89.374172,41.429519],[-89.374178,41.428084],[-89.375712,41.428205],[-89.375705,41.426774],[-89.374363,41.42589],[-89.374336,41.421559],[-89.374973,41.420722],[-89.370922,41.42227],[-89.370929,41.420149],[-89.36621,41.420233],[-89.366189,41.422415],[-89.325759,41.422471],[-89.325628,41.440178],[-89.315268,41.444317],[-89.310201,41.444314],[-89.315915,41.44851],[-89.315888,41.451628]]]]}},{"type":"Feature","properties":{"zcta5":"61346","AFFGEOID10":"8600000US61346","GEOID10":"61346","ALAND10":462232,"AWATER10":0,"county_name":"Bureau","state_code":"IL","county_state":"Bureau County, IL","county_fips":"17011","risk_level_county":"Higher Risk (60–69% vaccinated)","mean_vaccination_rate_county":60.03,"risk_level_zcta":"Uninhabited","mean_vaccination_rate_zips":null,"cases":14},"geometry":{"type":"Polygon","coordinates":[[[-89.72009,41.514842],[-89.722715,41.514843],[-89.722727,41.510972],[-89.720015,41.510933],[-89.720051,41.506658],[-89.715086,41.506743],[-89.71518,41.514274],[-89.715234,41.51477],[-89.72009,41.514842]]]}},{"type":"Feature","properties":{"zcta5":"61349","AFFGEOID10":"8600000US61349","GEOID10":"61349","ALAND10":171135536,"AWATER10":105347,"county_name":"Bureau","state_code":"IL","county_state":"Bureau County, IL","county_fips":"17011","risk_level_county":"Higher Risk (60–69% vaccinated)","mean_vaccination_rate_county":60.03,"risk_level_zcta":"Medium Risk (70–79% vaccinated)","mean_vaccination_rate_zips":70.74,"cases":14},"geometry":{"type":"Polygon","coordinates":[[[-89.516381,41.618781],[-89.516207,41.59944],[-89.49685,41.599412],[-89.496861,41.585003],[-89.512618,41.585065],[-89.512337,41.556423],[-89.505897,41.556351],[-89.502471,41.555814],[-89.498444,41.55365],[-89.512272,41.551387],[-89.511709,41.494814],[-89.50068,41.494746],[-89.500726,41.480443],[-89.432582,41.480251],[-89.432539,41.465724],[-89.418029,41.465906],[-89.417995,41.472948],[-89.413042,41.473233],[-89.412965,41.480238],[-89.408137,41.480279],[-89.40826,41.496435],[-89.40575,41.495907],[-89.405751,41.493896],[-89.404565,41.49433],[-89.403741,41.497439],[-89.402219,41.499038],[-89.397003,41.499386],[-89.393762,41.494941],[-89.367889,41.4953],[-89.367068,41.497178],[-89.367404,41.498618],[-89.365515,41.501617],[-89.363507,41.500954],[-89.360436,41.502556],[-89.357819,41.50178],[-89.358672,41.503609],[-89.357305,41.50624],[-89.355572,41.506698],[-89.353778,41.508459],[-89.354632,41.51118],[-89.352533,41.511707],[-89.35153,41.512896],[-89.3444,41.512288],[-89.344264,41.524605],[-89.362309,41.524491],[-89.373574,41.524543],[-89.373463,41.529366],[-89.371322,41.530062],[-89.368004,41.529149],[-89.367429,41.53322],[-89.371115,41.536465],[-89.371643,41.538451],[-89.373422,41.538455],[-89.373537,41.553753],[-89.391194,41.553551],[-89.394057,41.553075],[-89.394757,41.584951],[-89.39354,41.584921],[-89.391225,41.584927],[-89.391117,41.589248],[-89.400886,41.589026],[-89.400931,41.599163],[-89.397968,41.599279],[-89.381686,41.599328],[-89.381899,41.613813],[-89.411038,41.613883],[-89.411156,41.624388],[-89.415096,41.624479],[-89.415118,41.620915],[-89.434701,41.62093],[-89.434518,41.628384],[-89.477744,41.628415],[-89.477771,41.635679],[-89.481638,41.635703],[-89.482889,41.636526],[-89.487553,41.637987],[-89.49051,41.638557],[-89.491029,41.639197],[-89.496889,41.638512],[-89.496935,41.613467],[-89.500106,41.613608],[-89.504384,41.613205],[-89.50682,41.613619],[-89.509832,41.615934],[-89.513913,41.617015],[-89.516381,41.618781]],[[-89.466282,41.505357],[-89.463449,41.505349],[-89.463439,41.503962],[-89.451768,41.503899],[-89.451968,41.494847],[-89.45683,41.494832],[-89.466438,41.494851],[-89.466282,41.505357]]]}},{"type":"Feature","properties":{"zcta5":"61283","AFFGEOID10":"8600000US61283","GEOID10":"61283","ALAND10":214868207,"AWATER10":0,"county_name":"Bureau","state_code":"IL","county_state":"Bureau County, IL","county_fips":"17011","risk_level_county":"Higher Risk (60–69% vaccinated)","mean_vaccination_rate_county":60.03,"risk_level_zcta":"Medium Risk (70–79% vaccinated)","mean_vaccination_rate_zips":77.44,"cases":14},"geometry":{"type":"Polygon","coordinates":[[[-89.825248,41.693229],[-89.824973,41.671251],[-89.825018,41.656394],[-89.83928,41.656415],[-89.839182,41.652483],[-89.843989,41.651522],[-89.843618,41.623606],[-89.857296,41.620861],[-89.855962,41.620302],[-89.849249,41.615645],[-89.847062,41.613314],[-89.845604,41.610921],[-89.845953,41.608904],[-89.849808,41.606147],[-89.850844,41.599376],[-89.851934,41.598494],[-89.843306,41.598538],[-89.843136,41.584041],[-89.862351,41.584005],[-89.859197,41.518725],[-89.858685,41.518352],[-89.857406,41.518189],[-89.85746,41.511456],[-89.857349,41.486789],[-89.839788,41.484966],[-89.839851,41.488692],[-89.839335,41.490315],[-89.840038,41.496991],[-89.839942,41.501478],[-89.838148,41.502987],[-89.837966,41.504176],[-89.835047,41.506532],[-89.83447,41.50827],[-89.831642,41.509916],[-89.828532,41.513101],[-89.828082,41.516025],[-89.832025,41.518601],[-89.82032,41.518515],[-89.820131,41.51126],[-89.781772,41.511046],[-89.781691,41.498164],[-89.781456,41.496719],[-89.779385,41.496715],[-89.774099,41.500034],[-89.770933,41.502755],[-89.770537,41.504676],[-89.771449,41.506573],[-89.769654,41.507418],[-89.764848,41.506501],[-89.764241,41.504582],[-89.7626,41.501974],[-89.758371,41.496664],[-89.734797,41.496589],[-89.734102,41.500223],[-89.716665,41.500274],[-89.712574,41.501687],[-89.715086,41.506743],[-89.720051,41.506658],[-89.720015,41.510933],[-89.722727,41.510972],[-89.722715,41.514843],[-89.72009,41.514842],[-89.720219,41.521943],[-89.72306,41.52391],[-89.725075,41.524286],[-89.725468,41.539884],[-89.716652,41.54014],[-89.717266,41.541653],[-89.720795,41.547635],[-89.72114,41.552764],[-89.723658,41.557283],[-89.725964,41.559799],[-89.726031,41.56159],[-89.714811,41.561885],[-89.714877,41.563506],[-89.71619,41.569085],[-89.716649,41.573086],[-89.715371,41.575122],[-89.708979,41.580176],[-89.708431,41.580931],[-89.708431,41.584619],[-89.764706,41.584342],[-89.759918,41.59224],[-89.759033,41.594435],[-89.758994,41.598849],[-89.747221,41.598863],[-89.747394,41.613306],[-89.7281,41.613475],[-89.72832,41.638503],[-89.711114,41.638018],[-89.708973,41.638146],[-89.709213,41.656993],[-89.709332,41.67114],[-89.728634,41.671068],[-89.728509,41.685672],[-89.738131,41.685647],[-89.738124,41.69293],[-89.745854,41.692937],[-89.747919,41.689777],[-89.747964,41.68562],[-89.767202,41.685551],[-89.767103,41.694812],[-89.786361,41.694287],[-89.796177,41.694299],[-89.800593,41.69412],[-89.823519,41.694013],[-89.825248,41.693229]]]}},{"type":"Feature","properties":{"zcta5":"61344","AFFGEOID10":"8600000US61344","GEOID10":"61344","ALAND10":63377175,"AWATER10":107090,"county_name":"Bureau","state_code":"IL","county_state":"Bureau County, IL","county_fips":"17011","risk_level_county":"Higher Risk (60–69% vaccinated)","mean_vaccination_rate_county":60.03,"risk_level_zcta":"Lowest Risk (85%+)","mean_vaccination_rate_zips":85.63,"cases":14},"geometry":{"type":"Polygon","coordinates":[[[-89.857349,41.486789],[-89.856862,41.393465],[-89.876281,41.397876],[-89.876075,41.379683],[-89.856832,41.379381],[-89.857007,41.367422],[-89.856814,41.364874],[-89.852402,41.364721],[-89.838528,41.364672],[-89.838192,41.342596],[-89.837351,41.341599],[-89.823422,41.337554],[-89.821129,41.336714],[-89.818853,41.335025],[-89.813597,41.335522],[-89.809407,41.335488],[-89.809248,41.339529],[-89.799521,41.339529],[-89.799524,41.343195],[-89.789597,41.34318],[-89.789492,41.350319],[-89.804722,41.35034],[-89.812313,41.351569],[-89.818762,41.35157],[-89.818812,41.356055],[-89.817763,41.352608],[-89.816732,41.353134],[-89.815579,41.353546],[-89.814092,41.355925],[-89.814669,41.357273],[-89.818827,41.357395],[-89.818953,41.364771],[-89.799647,41.364747],[-89.799726,41.373192],[-89.819191,41.377593],[-89.819613,41.379431],[-89.819644,41.386473],[-89.828449,41.386655],[-89.828997,41.394978],[-89.825414,41.394109],[-89.816123,41.394316],[-89.813785,41.394659],[-89.809446,41.396592],[-89.809831,41.401592],[-89.809905,41.408637],[-89.79032,41.409027],[-89.790369,41.412423],[-89.800257,41.412446],[-89.799976,41.417613],[-89.795379,41.418414],[-89.790701,41.419602],[-89.791156,41.421226],[-89.791097,41.431995],[-89.790635,41.437916],[-89.799897,41.438151],[-89.800539,41.452618],[-89.815566,41.452284],[-89.815619,41.460069],[-89.81727,41.460071],[-89.818674,41.4619],[-89.822943,41.464711],[-89.829358,41.466821],[-89.829331,41.483884],[-89.839788,41.484966],[-89.857349,41.486789]]]}},{"type":"Feature","properties":{"zcta5":"61443","AFFGEOID10":"8600000US61443","GEOID10":"61443","ALAND10":252605059,"AWATER10":46643,"county_name":"Bureau","state_code":"IL","county_state":"Bureau County, IL","county_fips":"17011","risk_level_county":"Higher Risk (60–69% vaccinated)","mean_vaccination_rate_county":60.03,"risk_level_zcta":"Medium Risk (70–79% vaccinated)","mean_vaccination_rate_zips":76.43,"cases":14},"geometry":{"type":"Polygon","coordinates":[[[-90.050005,41.282684],[-90.050999,41.242264],[-90.055462,41.242325],[-90.055458,41.235081],[-90.031343,41.234866],[-90.031418,41.23217],[-90.033075,41.230312],[-90.029811,41.229806],[-90.02248,41.229776],[-90.022597,41.207885],[-90.003349,41.20789],[-90.003532,41.193252],[-89.991655,41.19311],[-89.988368,41.196994],[-89.984019,41.201273],[-89.98418,41.185616],[-89.9751,41.18564],[-89.975113,41.17141],[-89.964796,41.171205],[-89.964814,41.175638],[-89.961732,41.174065],[-89.958573,41.174059],[-89.957091,41.173277],[-89.946074,41.178429],[-89.945208,41.178428],[-89.945184,41.192936],[-89.92578,41.192766],[-89.925789,41.189868],[-89.935143,41.183488],[-89.935558,41.181869],[-89.931416,41.174739],[-89.932146,41.171347],[-89.933748,41.172102],[-89.936087,41.172212],[-89.94116,41.171331],[-89.945217,41.171341],[-89.945204,41.163905],[-89.941305,41.163936],[-89.937054,41.16532],[-89.92966,41.169743],[-89.92748,41.171395],[-89.925801,41.17507],[-89.925801,41.178258],[-89.906612,41.178717],[-89.868113,41.178478],[-89.867976,41.193091],[-89.866081,41.193067],[-89.864447,41.191612],[-89.861579,41.190129],[-89.858967,41.189537],[-89.858982,41.207342],[-89.845178,41.207186],[-89.845033,41.213637],[-89.848861,41.214671],[-89.858889,41.21495],[-89.858783,41.229037],[-89.830084,41.228687],[-89.830126,41.234217],[-89.830852,41.23427],[-89.849574,41.234358],[-89.857507,41.243601],[-89.857194,41.272871],[-89.838019,41.280002],[-89.837716,41.300576],[-89.856788,41.300157],[-89.856762,41.328538],[-89.856698,41.33545],[-89.876007,41.335621],[-89.876113,41.321087],[-89.904956,41.321261],[-89.904901,41.324459],[-89.901508,41.324329],[-89.901449,41.327338],[-89.900329,41.327317],[-89.900082,41.335792],[-89.904898,41.335822],[-89.905034,41.346745],[-89.922468,41.346765],[-89.924292,41.345588],[-89.924836,41.343722],[-89.926281,41.343178],[-89.948518,41.343336],[-89.948596,41.333173],[-89.948382,41.327224],[-89.948649,41.328929],[-89.951205,41.332832],[-89.958814,41.333381],[-89.960153,41.332524],[-89.965686,41.333079],[-89.969464,41.334452],[-89.97276,41.33509],[-89.972787,41.333044],[-89.982957,41.332929],[-89.982997,41.331795],[-89.985451,41.332974],[-89.989404,41.333108],[-89.995144,41.335372],[-89.99752,41.33707],[-90.001439,41.340657],[-90.001999,41.337484],[-90.011257,41.337519],[-90.010952,41.32282],[-90.03035,41.323057],[-90.030899,41.279107],[-90.045116,41.279097],[-90.045209,41.282692],[-90.050005,41.282684]]]}},{"type":"Feature","properties":{"zcta5":"61329","AFFGEOID10":"8600000US61329","GEOID10":"61329","ALAND10":4621642,"AWATER10":0,"county_name":"Bureau","state_code":"IL","county_state":"Bureau County, IL","county_fips":"17011","risk_level_county":"Higher Risk (60–69% vaccinated)","mean_vaccination_rate_county":60.03,"risk_level_zcta":"Very High Risk (<60% vaccinated)","mean_vaccination_rate_zips":52.85,"cases":14},"geometry":{"type":"Polygon","coordinates":[[[-89.227658,41.386066],[-89.228606,41.380498],[-89.224044,41.380529],[-89.223932,41.378907],[-89.219065,41.378938],[-89.21886,41.369738],[-89.215795,41.368859],[-89.215955,41.371384],[-89.210632,41.37144],[-89.210632,41.375461],[-89.214253,41.375458],[-89.214254,41.377811],[-89.213215,41.378345],[-89.209435,41.378488],[-89.202035,41.378718],[-89.199297,41.378081],[-89.199306,41.377719],[-89.193084,41.377349],[-89.192142,41.377212],[-89.191583,41.377013],[-89.183947,41.373502],[-89.182916,41.372404],[-89.180151,41.374987],[-89.179148,41.375193],[-89.174656,41.373406],[-89.164784,41.373675],[-89.164776,41.374038],[-89.164847,41.379424],[-89.165065,41.379299],[-89.171384,41.386449],[-89.179405,41.386407],[-89.180701,41.386397],[-89.180504,41.379099],[-89.192002,41.37895],[-89.192066,41.379866],[-89.194058,41.379834],[-89.194056,41.378928],[-89.199719,41.378874],[-89.202133,41.378868],[-89.204473,41.379323],[-89.204564,41.386099],[-89.214317,41.386032],[-89.214346,41.39356],[-89.219352,41.393556],[-89.219217,41.386004],[-89.221335,41.386248],[-89.222185,41.385973],[-89.227658,41.386066]]]}},{"type":"Feature","properties":{"zcta5":"61537","AFFGEOID10":"8600000US61537","GEOID10":"61537","ALAND10":152869878,"AWATER10":2909512,"county_name":"Bureau","state_code":"IL","county_state":"Bureau County, IL","county_fips":"17011","risk_level_county":"Higher Risk (60–69% vaccinated)","mean_vaccination_rate_county":60.03,"risk_level_zcta":"Lower Risk (80–84% vaccinated)","mean_vaccination_rate_zips":80.24,"cases":14},"geometry":{"type":"Polygon","coordinates":[[[-89.592,41.1122],[-89.59215,41.09022],[-89.588547,41.090277],[-89.582529,41.087173],[-89.579547,41.087168],[-89.577342,41.086477],[-89.574179,41.086972],[-89.572835,41.08427],[-89.57279,41.07568],[-89.54403,41.07504],[-89.544022,41.077062],[-89.54109,41.077169],[-89.536223,41.077877],[-89.53256,41.077772],[-89.529529,41.076563],[-89.528717,41.074972],[-89.524709,41.075127],[-89.52397,41.08996],[-89.48598,41.08978],[-89.485957,41.083603],[-89.429564,41.083032],[-89.42934,41.07842],[-89.42884,41.07667],[-89.42856,41.07121],[-89.42776,41.0699],[-89.42393,41.07021],[-89.42101,41.06856],[-89.41919,41.070006],[-89.416802,41.068512],[-89.411366,41.06438],[-89.410189,41.064562],[-89.408208,41.067355],[-89.410041,41.073146],[-89.405776,41.075022],[-89.403847,41.073929],[-89.401388,41.075081],[-89.39961,41.077194],[-89.390417,41.080819],[-89.385882,41.083265],[-89.387658,41.084929],[-89.385997,41.084727],[-89.383307,41.083342],[-89.380875,41.084664],[-89.381481,41.080164],[-89.379322,41.081901],[-89.372281,41.086216],[-89.369339,41.089694],[-89.368811,41.092057],[-89.367194,41.093748],[-89.362528,41.097786],[-89.361251,41.100362],[-89.358437,41.103849],[-89.355666,41.106494],[-89.349971,41.109142],[-89.346474,41.10996],[-89.342248,41.11138],[-89.339987,41.112751],[-89.337946,41.114735],[-89.335892,41.117269],[-89.334271,41.120578],[-89.333484,41.123673],[-89.333027,41.132961],[-89.333036,41.139416],[-89.32927,41.147931],[-89.34997,41.14797],[-89.35059,41.14806],[-89.466101,41.148524],[-89.477453,41.148589],[-89.481184,41.149445],[-89.478523,41.151413],[-89.479129,41.152853],[-89.47538,41.156513],[-89.476925,41.15912],[-89.478256,41.159531],[-89.482068,41.157906],[-89.481976,41.156648],[-89.485365,41.15699],[-89.486788,41.15795],[-89.486941,41.161015],[-89.483281,41.162022],[-89.482731,41.163092],[-89.494398,41.163093],[-89.494398,41.161629],[-89.50162,41.16195],[-89.50404,41.163346],[-89.508215,41.163897],[-89.509909,41.164515],[-89.511449,41.168129],[-89.508392,41.169889],[-89.508966,41.170529],[-89.513414,41.171789],[-89.519769,41.17314],[-89.520708,41.172318],[-89.51968,41.171037],[-89.520558,41.169253],[-89.519439,41.167469],[-89.522739,41.165686],[-89.522407,41.164337],[-89.519472,41.162895],[-89.517537,41.160882],[-89.519415,41.156858],[-89.520475,41.155898],[-89.527012,41.154871],[-89.528917,41.155558],[-89.529251,41.154552],[-89.540232,41.157687],[-89.542501,41.159471],[-89.543529,41.161392],[-89.5439,41.14864],[-89.56316,41.14868],[-89.56318,41.134281],[-89.5723,41.134373],[-89.572295,41.126717],[-89.58236,41.12712],[-89.58923,41.127],[-89.59133,41.12621],[-89.59194,41.12488],[-89.592,41.1122]]]}},{"type":"Feature","properties":{"zcta5":"61359","AFFGEOID10":"8600000US61359","GEOID10":"61359","ALAND10":2144848,"AWATER10":38138,"county_name":"Bureau","state_code":"IL","county_state":"Bureau County, IL","county_fips":"17011","risk_level_county":"Higher Risk (60–69% vaccinated)","mean_vaccination_rate_county":60.03,"risk_level_zcta":"Very High Risk (<60% vaccinated)","mean_vaccination_rate_zips":37.41,"cases":14},"geometry":{"type":"Polygon","coordinates":[[[-89.277763,41.371343],[-89.280661,41.37141],[-89.278509,41.365081],[-89.280868,41.364979],[-89.280835,41.363621],[-89.278527,41.36367],[-89.278496,41.361018],[-89.280381,41.359173],[-89.280386,41.355157],[-89.281686,41.351146],[-89.281518,41.349653],[-89.279169,41.349663],[-89.277796,41.352129],[-89.278286,41.355564],[-89.277748,41.358678],[-89.270828,41.358521],[-89.269299,41.357117],[-89.258067,41.357107],[-89.258023,41.36421],[-89.26122,41.364182],[-89.265318,41.36351],[-89.269516,41.363589],[-89.266018,41.365319],[-89.265932,41.367203],[-89.272682,41.367284],[-89.272713,41.371462],[-89.277763,41.371343]]]}},{"type":"Feature","properties":{"zcta5":"61368","AFFGEOID10":"8600000US61368","GEOID10":"61368","ALAND10":190474856,"AWATER10":288449,"county_name":"Bureau","state_code":"IL","county_state":"Bureau County, IL","county_fips":"17011","risk_level_county":"Higher Risk (60–69% vaccinated)","mean_vaccination_rate_county":60.03,"risk_level_zcta":"Medium Risk (70–79% vaccinated)","mean_vaccination_rate_zips":79.02,"cases":14},"geometry":{"type":"MultiPolygon","coordinates":[[[[-89.393131,41.304409],[-89.398646,41.306408],[-89.400597,41.30255],[-89.401008,41.298557],[-89.402046,41.298889],[-89.401703,41.296822],[-89.403625,41.295105],[-89.403065,41.292261],[-89.403263,41.277032],[-89.399848,41.276766],[-89.400125,41.280664],[-89.397389,41.280639],[-89.396851,41.282656],[-89.394007,41.283395],[-89.393379,41.284207],[-89.393473,41.27677],[-89.38536,41.2771],[-89.383198,41.277974],[-89.384022,41.280594],[-89.385779,41.283111],[-89.388628,41.284347],[-89.391446,41.286383],[-89.391779,41.287229],[-89.390928,41.290088],[-89.391563,41.292123],[-89.393252,41.294591],[-89.393131,41.304409]],[[-89.393379,41.284207],[-89.393372,41.284832],[-89.393331,41.288155],[-89.390778,41.284777],[-89.393126,41.2847],[-89.393314,41.284316],[-89.393379,41.284207]]],[[[-89.625635,41.321933],[-89.62567,41.307222],[-89.645051,41.307056],[-89.644979,41.292298],[-89.625654,41.292468],[-89.625617,41.27775],[-89.625769,41.26294],[-89.606699,41.263017],[-89.606626,41.255436],[-89.62571,41.255465],[-89.625656,41.241191],[-89.61611,41.241189],[-89.616103,41.233876],[-89.591929,41.233893],[-89.592092,41.227256],[-89.58252,41.227284],[-89.582508,41.232162],[-89.58474,41.233918],[-89.524548,41.233954],[-89.524567,41.214261],[-89.514577,41.214203],[-89.514469,41.192136],[-89.52416,41.192116],[-89.524482,41.175468],[-89.522432,41.174513],[-89.522856,41.173279],[-89.520708,41.172318],[-89.519769,41.17314],[-89.513414,41.171789],[-89.508966,41.170529],[-89.508392,41.169889],[-89.511449,41.168129],[-89.509909,41.164515],[-89.508215,41.163897],[-89.50404,41.163346],[-89.50162,41.16195],[-89.494398,41.161629],[-89.494398,41.163093],[-89.482731,41.163092],[-89.476396,41.163075],[-89.476363,41.177599],[-89.466457,41.177493],[-89.466389,41.233872],[-89.399657,41.233539],[-89.400258,41.23788],[-89.399294,41.242558],[-89.399604,41.2553],[-89.409297,41.255127],[-89.432406,41.255289],[-89.432201,41.277195],[-89.481754,41.277406],[-89.484447,41.278588],[-89.484623,41.281485],[-89.485522,41.283427],[-89.484944,41.285192],[-89.484842,41.289009],[-89.480035,41.289257],[-89.477013,41.2901],[-89.46759,41.294944],[-89.464138,41.296234],[-89.460869,41.296705],[-89.460597,41.309679],[-89.461443,41.310984],[-89.461874,41.313907],[-89.460123,41.317305],[-89.459981,41.328148],[-89.481295,41.328234],[-89.481331,41.330689],[-89.501441,41.330689],[-89.501477,41.334962],[-89.508804,41.334609],[-89.510079,41.333764],[-89.510014,41.320995],[-89.516072,41.321017],[-89.519704,41.32103],[-89.519917,41.319247],[-89.518401,41.317348],[-89.519221,41.315542],[-89.519044,41.313925],[-89.5207,41.314671],[-89.522464,41.317207],[-89.523516,41.317499],[-89.527854,41.321053],[-89.532486,41.321253],[-89.534422,41.321005],[-89.538802,41.32142],[-89.625635,41.321933]]]]}},{"type":"Feature","properties":{"zcta5":"61345","AFFGEOID10":"8600000US61345","GEOID10":"61345","ALAND10":127168922,"AWATER10":219551,"county_name":"Bureau","state_code":"IL","county_state":"Bureau County, IL","county_fips":"17011","risk_level_county":"Higher Risk (60–69% vaccinated)","mean_vaccination_rate_county":60.03,"risk_level_zcta":"Medium Risk (70–79% vaccinated)","mean_vaccination_rate_zips":71.84,"cases":14},"geometry":{"type":"Polygon","coordinates":[[[-89.856762,41.328538],[-89.856788,41.300157],[-89.837716,41.300576],[-89.838019,41.280002],[-89.857194,41.272871],[-89.857507,41.243601],[-89.849574,41.234358],[-89.830852,41.23427],[-89.830126,41.234217],[-89.830084,41.228687],[-89.823411,41.228648],[-89.820236,41.228245],[-89.815865,41.228203],[-89.811476,41.226287],[-89.80645,41.224676],[-89.806158,41.223961],[-89.806278,41.215349],[-89.805114,41.214157],[-89.80038,41.2139],[-89.784572,41.213568],[-89.780143,41.212694],[-89.779681,41.213531],[-89.763348,41.213531],[-89.756143,41.213217],[-89.754854,41.213443],[-89.753608,41.215143],[-89.753603,41.218662],[-89.752788,41.220151],[-89.753614,41.221012],[-89.753573,41.227468],[-89.751312,41.228079],[-89.74735,41.228365],[-89.747559,41.233922],[-89.747957,41.241338],[-89.741603,41.241265],[-89.741562,41.247991],[-89.740709,41.249012],[-89.738791,41.248425],[-89.733029,41.24846],[-89.733074,41.252636],[-89.731589,41.253209],[-89.731531,41.255641],[-89.702843,41.255646],[-89.702771,41.270193],[-89.731822,41.270229],[-89.732021,41.29987],[-89.741686,41.299949],[-89.741681,41.316383],[-89.74175,41.329136],[-89.7558,41.328939],[-89.755954,41.338939],[-89.755243,41.340626],[-89.752568,41.34255],[-89.751153,41.344707],[-89.751184,41.350711],[-89.789492,41.350319],[-89.789597,41.34318],[-89.799524,41.343195],[-89.799521,41.339529],[-89.809248,41.339529],[-89.809407,41.335488],[-89.813597,41.335522],[-89.818853,41.335025],[-89.821129,41.336714],[-89.823422,41.337554],[-89.82443,41.333558],[-89.827708,41.334839],[-89.831178,41.334609],[-89.831529,41.335979],[-89.838478,41.335958],[-89.838469,41.32107],[-89.852225,41.320984],[-89.852227,41.328541],[-89.856762,41.328538]]]}},{"type":"Feature","properties":{"zcta5":"61317","AFFGEOID10":"8600000US61317","GEOID10":"61317","ALAND10":8460304,"AWATER10":0,"county_name":"Bureau","state_code":"IL","county_state":"Bureau County, IL","county_fips":"17011","risk_level_county":"Higher Risk (60–69% vaccinated)","mean_vaccination_rate_county":60.03,"risk_level_zcta":"Medium Risk (70–79% vaccinated)","mean_vaccination_rate_zips":73.42,"cases":14},"geometry":{"type":"Polygon","coordinates":[[[-89.238804,41.425816],[-89.238775,41.422487],[-89.21953,41.422729],[-89.180748,41.423155],[-89.180965,41.437753],[-89.200291,41.437571],[-89.200306,41.4412],[-89.219665,41.44103],[-89.222877,41.44464],[-89.229715,41.444559],[-89.229588,41.433336],[-89.233668,41.433325],[-89.233523,41.425823],[-89.238804,41.425816]]]}},{"type":"Feature","properties":{"zcta5":"61330","AFFGEOID10":"8600000US61330","GEOID10":"61330","ALAND10":199624557,"AWATER10":30908,"county_name":"Bureau","state_code":"IL","county_state":"Bureau County, IL","county_fips":"17011","risk_level_county":"Higher Risk (60–69% vaccinated)","mean_vaccination_rate_county":60.03,"risk_level_zcta":"Medium Risk (70–79% vaccinated)","mean_vaccination_rate_zips":79.48,"cases":14},"geometry":{"type":"Polygon","coordinates":[[[-89.381686,41.599328],[-89.397968,41.599279],[-89.400931,41.599163],[-89.400886,41.589026],[-89.391117,41.589248],[-89.391225,41.584927],[-89.39354,41.584921],[-89.394757,41.584951],[-89.394057,41.553075],[-89.391194,41.553551],[-89.373537,41.553753],[-89.367199,41.553772],[-89.365776,41.555791],[-89.363006,41.556593],[-89.361119,41.55792],[-89.359934,41.559933],[-89.357012,41.561604],[-89.356922,41.563525],[-89.358263,41.564759],[-89.357168,41.567344],[-89.357839,41.567915],[-89.354033,41.568351],[-89.344365,41.568291],[-89.344257,41.544811],[-89.347166,41.542307],[-89.350209,41.540773],[-89.350634,41.539607],[-89.352429,41.538943],[-89.354683,41.541206],[-89.356326,41.540748],[-89.356445,41.536312],[-89.359243,41.533841],[-89.361617,41.53352],[-89.362496,41.52906],[-89.36015,41.526843],[-89.360392,41.525745],[-89.362309,41.524491],[-89.344264,41.524605],[-89.3444,41.512288],[-89.341946,41.51187],[-89.336774,41.512192],[-89.334796,41.510843],[-89.333973,41.507481],[-89.33189,41.506046],[-89.330025,41.506346],[-89.326241,41.51032],[-89.324983,41.510655],[-89.325525,41.46624],[-89.315694,41.4662],[-89.315888,41.451628],[-89.297331,41.451534],[-89.263658,41.464804],[-89.25808,41.467797],[-89.252258,41.471587],[-89.252659,41.475945],[-89.250565,41.476045],[-89.250548,41.478529],[-89.271886,41.478707],[-89.276554,41.479928],[-89.276338,41.495294],[-89.263926,41.495161],[-89.249401,41.47797],[-89.248915,41.473834],[-89.244324,41.47601],[-89.240479,41.478174],[-89.239444,41.481015],[-89.18126,41.481649],[-89.177547,41.481679],[-89.177705,41.488539],[-89.181997,41.488511],[-89.182281,41.52479],[-89.190751,41.524723],[-89.190817,41.542893],[-89.177016,41.542981],[-89.174905,41.543212],[-89.172956,41.543922],[-89.166504,41.547457],[-89.166561,41.585289],[-89.190331,41.58535],[-89.193222,41.585178],[-89.21961,41.585164],[-89.223577,41.585328],[-89.25201,41.585233],[-89.251957,41.588789],[-89.275036,41.588751],[-89.273688,41.591623],[-89.275306,41.595306],[-89.276166,41.599586],[-89.322655,41.59943],[-89.324627,41.598613],[-89.32752,41.598361],[-89.32953,41.597331],[-89.33195,41.59228],[-89.333715,41.59227],[-89.333676,41.595971],[-89.338485,41.596177],[-89.338496,41.592425],[-89.343222,41.592355],[-89.343235,41.599449],[-89.381686,41.599328]]]}},{"type":"Feature","properties":{"zcta5":"61314","AFFGEOID10":"8600000US61314","GEOID10":"61314","ALAND10":121029985,"AWATER10":27988,"county_name":"Bureau","state_code":"IL","county_state":"Bureau County, IL","county_fips":"17011","risk_level_county":"Higher Risk (60–69% vaccinated)","mean_vaccination_rate_county":60.03,"risk_level_zcta":"Medium Risk (70–79% vaccinated)","mean_vaccination_rate_zips":78.13,"cases":14},"geometry":{"type":"Polygon","coordinates":[[[-89.741681,41.316383],[-89.741686,41.299949],[-89.732021,41.29987],[-89.731822,41.270229],[-89.702771,41.270193],[-89.702843,41.255646],[-89.731531,41.255641],[-89.731589,41.253209],[-89.733074,41.252636],[-89.733029,41.24846],[-89.738791,41.248425],[-89.740709,41.249012],[-89.741562,41.247991],[-89.741603,41.241265],[-89.747957,41.241338],[-89.747559,41.233922],[-89.638864,41.233862],[-89.638673,41.221274],[-89.634946,41.221279],[-89.633754,41.222186],[-89.630482,41.223077],[-89.628058,41.22463],[-89.625555,41.224812],[-89.625936,41.226825],[-89.621055,41.226253],[-89.620697,41.233871],[-89.625575,41.233865],[-89.625656,41.241191],[-89.62571,41.255465],[-89.606626,41.255436],[-89.606699,41.263017],[-89.625769,41.26294],[-89.625617,41.27775],[-89.625654,41.292468],[-89.644979,41.292298],[-89.645051,41.307056],[-89.62567,41.307222],[-89.625635,41.321933],[-89.625799,41.343324],[-89.627312,41.345227],[-89.627627,41.347106],[-89.625916,41.34749],[-89.626357,41.373332],[-89.628445,41.373313],[-89.641278,41.376174],[-89.649682,41.375836],[-89.651363,41.376204],[-89.669174,41.37627],[-89.67031,41.375834],[-89.670062,41.357934],[-89.703851,41.358661],[-89.703991,41.344066],[-89.713434,41.346496],[-89.713484,41.340137],[-89.712141,41.33959],[-89.712168,41.338233],[-89.710346,41.337846],[-89.710355,41.336569],[-89.708584,41.336254],[-89.708381,41.329232],[-89.704219,41.328927],[-89.703541,41.32622],[-89.703251,41.321726],[-89.712936,41.321704],[-89.715319,41.324631],[-89.72114,41.322092],[-89.731362,41.318021],[-89.736146,41.316918],[-89.741681,41.316383]]]}},{"type":"Feature","properties":{"zcta5":"61374","AFFGEOID10":"8600000US61374","GEOID10":"61374","ALAND10":7320995,"AWATER10":0,"county_name":"Bureau","state_code":"IL","county_state":"Bureau County, IL","county_fips":"17011","risk_level_county":"Higher Risk (60–69% vaccinated)","mean_vaccination_rate_county":60.03,"risk_level_zcta":"Very High Risk (<60% vaccinated)","mean_vaccination_rate_zips":46.2,"cases":14},"geometry":{"type":"Polygon","coordinates":[[[-89.373537,41.553753],[-89.373422,41.538455],[-89.371643,41.538451],[-89.371115,41.536465],[-89.367429,41.53322],[-89.368004,41.529149],[-89.371322,41.530062],[-89.373463,41.529366],[-89.373574,41.524543],[-89.362309,41.524491],[-89.360392,41.525745],[-89.36015,41.526843],[-89.362496,41.52906],[-89.361617,41.53352],[-89.359243,41.533841],[-89.356445,41.536312],[-89.356326,41.540748],[-89.354683,41.541206],[-89.352429,41.538943],[-89.350634,41.539607],[-89.350209,41.540773],[-89.347166,41.542307],[-89.344257,41.544811],[-89.344365,41.568291],[-89.354033,41.568351],[-89.357839,41.567915],[-89.357168,41.567344],[-89.358263,41.564759],[-89.356922,41.563525],[-89.357012,41.561604],[-89.359934,41.559933],[-89.361119,41.55792],[-89.363006,41.556593],[-89.365776,41.555791],[-89.367199,41.553772],[-89.373537,41.553753]]]}},{"type":"Feature","properties":{"zcta5":"61560","AFFGEOID10":"8600000US61560","GEOID10":"61560","ALAND10":85744200,"AWATER10":21187689,"county_name":"Bureau","state_code":"IL","county_state":"Bureau County, IL","county_fips":"17011","risk_level_county":"Higher Risk (60–69% vaccinated)","mean_vaccination_rate_county":60.03,"risk_level_zcta":"Higher Risk (60–69% vaccinated)","mean_vaccination_rate_zips":68.36,"cases":14},"geometry":{"type":"Polygon","coordinates":[[[-89.482731,41.163092],[-89.483281,41.162022],[-89.486941,41.161015],[-89.486788,41.15795],[-89.485365,41.15699],[-89.481976,41.156648],[-89.482068,41.157906],[-89.478256,41.159531],[-89.476925,41.15912],[-89.47538,41.156513],[-89.479129,41.152853],[-89.478523,41.151413],[-89.481184,41.149445],[-89.477453,41.148589],[-89.466101,41.148524],[-89.35059,41.14806],[-89.34997,41.14797],[-89.32927,41.147931],[-89.327531,41.152303],[-89.325443,41.154509],[-89.320816,41.158733],[-89.319903,41.160573],[-89.319728,41.162695],[-89.320341,41.165297],[-89.323018,41.170373],[-89.325433,41.176016],[-89.327504,41.187371],[-89.328818,41.190269],[-89.333566,41.196256],[-89.336695,41.1988],[-89.342154,41.205595],[-89.344358,41.209219],[-89.34717,41.211265],[-89.35228,41.213886],[-89.353978,41.215221],[-89.356998,41.218988],[-89.358157,41.22119],[-89.358866,41.224032],[-89.358535,41.227189],[-89.356729,41.233039],[-89.395625,41.233452],[-89.399657,41.233539],[-89.466389,41.233872],[-89.466457,41.177493],[-89.476363,41.177599],[-89.476396,41.163075],[-89.482731,41.163092]]]}},{"type":"Feature","properties":{"zcta5":"61312","AFFGEOID10":"8600000US61312","GEOID10":"61312","ALAND10":90435414,"AWATER10":29449,"county_name":"Bureau","state_code":"IL","county_state":"Bureau County, IL","county_fips":"17011","risk_level_county":"Higher Risk (60–69% vaccinated)","mean_vaccination_rate_county":60.03,"risk_level_zcta":"Medium Risk (70–79% vaccinated)","mean_vaccination_rate_zips":79.86,"cases":14},"geometry":{"type":"Polygon","coordinates":[[[-89.325759,41.422471],[-89.325702,41.407825],[-89.296845,41.40774],[-89.296728,41.418741],[-89.287006,41.415011],[-89.277532,41.412003],[-89.277554,41.407807],[-89.238939,41.407849],[-89.238996,41.392902],[-89.237732,41.391946],[-89.229384,41.388628],[-89.2283,41.387907],[-89.227658,41.386066],[-89.222185,41.385973],[-89.221335,41.386248],[-89.219217,41.386004],[-89.219352,41.393556],[-89.214346,41.39356],[-89.214317,41.386032],[-89.204564,41.386099],[-89.204473,41.379323],[-89.202133,41.378868],[-89.199719,41.378874],[-89.194056,41.378928],[-89.194058,41.379834],[-89.192066,41.379866],[-89.192002,41.37895],[-89.180504,41.379099],[-89.180701,41.386397],[-89.179405,41.386407],[-89.179322,41.387419],[-89.175951,41.388677],[-89.174542,41.390046],[-89.177953,41.393862],[-89.171096,41.393913],[-89.175828,41.400652],[-89.180486,41.400635],[-89.1806,41.408508],[-89.165304,41.408427],[-89.166051,41.454254],[-89.166218,41.466975],[-89.172001,41.467095],[-89.181184,41.467043],[-89.18126,41.481649],[-89.239444,41.481015],[-89.240479,41.478174],[-89.244324,41.47601],[-89.248915,41.473834],[-89.249401,41.47797],[-89.263926,41.495161],[-89.276338,41.495294],[-89.276554,41.479928],[-89.271886,41.478707],[-89.250548,41.478529],[-89.250565,41.476045],[-89.252659,41.475945],[-89.252258,41.471587],[-89.25808,41.467797],[-89.263658,41.464804],[-89.297331,41.451534],[-89.315888,41.451628],[-89.315915,41.44851],[-89.310201,41.444314],[-89.315268,41.444317],[-89.325628,41.440178],[-89.325759,41.422471]],[[-89.238804,41.425816],[-89.233523,41.425823],[-89.233668,41.433325],[-89.229588,41.433336],[-89.229715,41.444559],[-89.222877,41.44464],[-89.219665,41.44103],[-89.200306,41.4412],[-89.200291,41.437571],[-89.180965,41.437753],[-89.180748,41.423155],[-89.21953,41.422729],[-89.238775,41.422487],[-89.238804,41.425816]],[[-89.310201,41.444314],[-89.309889,41.444312],[-89.272082,41.444274],[-89.271924,41.44072],[-89.277152,41.440729],[-89.27743,41.422371],[-89.29668,41.422351],[-89.296579,41.429658],[-89.302142,41.435944],[-89.310078,41.444213],[-89.310201,41.444314]]]}},{"type":"Feature","properties":{"zcta5":"61356","AFFGEOID10":"8600000US61356","GEOID10":"61356","ALAND10":460200223,"AWATER10":2139761,"county_name":"Bureau","state_code":"IL","county_state":"Bureau County, IL","county_fips":"17011","risk_level_county":"Higher Risk (60–69% vaccinated)","mean_vaccination_rate_county":60.03,"risk_level_zcta":"Medium Risk (70–79% vaccinated)","mean_vaccination_rate_zips":76.73,"cases":14},"geometry":{"type":"MultiPolygon","coordinates":[[[[-89.393379,41.284207],[-89.393314,41.284316],[-89.393126,41.2847],[-89.390778,41.284777],[-89.393331,41.288155],[-89.393372,41.284832],[-89.393379,41.284207]]],[[[-89.627058,41.467032],[-89.626951,41.432275],[-89.623983,41.430923],[-89.602623,41.430835],[-89.602635,41.423566],[-89.626877,41.423677],[-89.626739,41.408995],[-89.570659,41.40847],[-89.568194,41.409902],[-89.568198,41.408459],[-89.549329,41.408269],[-89.549001,41.386111],[-89.551482,41.386987],[-89.553662,41.386953],[-89.555746,41.38616],[-89.559043,41.386228],[-89.564004,41.386845],[-89.573238,41.38695],[-89.571704,41.384207],[-89.567301,41.383437],[-89.5673,41.381873],[-89.569059,41.3797],[-89.570881,41.379471],[-89.572338,41.378328],[-89.572325,41.375036],[-89.571402,41.372418],[-89.572433,41.371183],[-89.57153,41.368613],[-89.567749,41.365027],[-89.559213,41.365079],[-89.548712,41.364652],[-89.548571,41.350486],[-89.558247,41.350447],[-89.558094,41.344347],[-89.558305,41.342196],[-89.539873,41.329154],[-89.538205,41.329176],[-89.532928,41.325447],[-89.520067,41.32286],[-89.516072,41.321017],[-89.510014,41.320995],[-89.510079,41.333764],[-89.508804,41.334609],[-89.501477,41.334962],[-89.501441,41.330689],[-89.481331,41.330689],[-89.481295,41.328234],[-89.459981,41.328148],[-89.460123,41.317305],[-89.461874,41.313907],[-89.461443,41.310984],[-89.460597,41.309679],[-89.460869,41.296705],[-89.464138,41.296234],[-89.46759,41.294944],[-89.477013,41.2901],[-89.480035,41.289257],[-89.484842,41.289009],[-89.484944,41.285192],[-89.485522,41.283427],[-89.484623,41.281485],[-89.484447,41.278588],[-89.481754,41.277406],[-89.432201,41.277195],[-89.432406,41.255289],[-89.409297,41.255127],[-89.399604,41.2553],[-89.399294,41.242558],[-89.400258,41.23788],[-89.399657,41.233539],[-89.395625,41.233452],[-89.394939,41.235068],[-89.395089,41.238727],[-89.39372,41.239893],[-89.393321,41.250036],[-89.393529,41.268388],[-89.390895,41.273009],[-89.38536,41.2771],[-89.393473,41.27677],[-89.393379,41.284207],[-89.394007,41.283395],[-89.396851,41.282656],[-89.397389,41.280639],[-89.400125,41.280664],[-89.399848,41.276766],[-89.403263,41.277032],[-89.403065,41.292261],[-89.403625,41.295105],[-89.401703,41.296822],[-89.402046,41.298889],[-89.401008,41.298557],[-89.400597,41.30255],[-89.398646,41.306408],[-89.393131,41.304409],[-89.39101,41.30326],[-89.378405,41.289602],[-89.375064,41.286708],[-89.373757,41.287961],[-89.373612,41.295765],[-89.373553,41.298645],[-89.354328,41.298482],[-89.35449,41.288777],[-89.349548,41.29066],[-89.350125,41.291712],[-89.346154,41.293246],[-89.343758,41.293224],[-89.343335,41.295305],[-89.341426,41.298347],[-89.336362,41.302167],[-89.335324,41.301916],[-89.33509,41.326427],[-89.329454,41.326766],[-89.3257,41.328503],[-89.324779,41.327677],[-89.324029,41.329184],[-89.323008,41.328002],[-89.322001,41.329366],[-89.31842,41.328866],[-89.315823,41.333843],[-89.314482,41.333552],[-89.307319,41.333924],[-89.299288,41.333031],[-89.289763,41.333696],[-89.28245,41.333259],[-89.28222,41.335195],[-89.279442,41.339385],[-89.278524,41.344946],[-89.281518,41.349653],[-89.281686,41.351146],[-89.280386,41.355157],[-89.280381,41.359173],[-89.278496,41.361018],[-89.278527,41.36367],[-89.280835,41.363621],[-89.280868,41.364979],[-89.278509,41.365081],[-89.280661,41.37141],[-89.277763,41.371343],[-89.277554,41.407807],[-89.277532,41.412003],[-89.287006,41.415011],[-89.296728,41.418741],[-89.296845,41.40774],[-89.325702,41.407825],[-89.325759,41.422471],[-89.366189,41.422415],[-89.36621,41.420233],[-89.370929,41.420149],[-89.370922,41.42227],[-89.374973,41.420722],[-89.374336,41.421559],[-89.374363,41.42589],[-89.375705,41.426774],[-89.375712,41.428205],[-89.374178,41.428084],[-89.374172,41.429519],[-89.370775,41.429508],[-89.370746,41.428267],[-89.364618,41.428309],[-89.364327,41.451543],[-89.315888,41.451628],[-89.315694,41.4662],[-89.325525,41.46624],[-89.324983,41.510655],[-89.326241,41.51032],[-89.330025,41.506346],[-89.33189,41.506046],[-89.333973,41.507481],[-89.334796,41.510843],[-89.336774,41.512192],[-89.341946,41.51187],[-89.3444,41.512288],[-89.35153,41.512896],[-89.352533,41.511707],[-89.354632,41.51118],[-89.353778,41.508459],[-89.355572,41.506698],[-89.357305,41.50624],[-89.358672,41.503609],[-89.357819,41.50178],[-89.360436,41.502556],[-89.363507,41.500954],[-89.365515,41.501617],[-89.367404,41.498618],[-89.367068,41.497178],[-89.367889,41.4953],[-89.393762,41.494941],[-89.397003,41.499386],[-89.402219,41.499038],[-89.403741,41.497439],[-89.404565,41.49433],[-89.405751,41.493896],[-89.40575,41.495907],[-89.40826,41.496435],[-89.408137,41.480279],[-89.412965,41.480238],[-89.413042,41.473233],[-89.417995,41.472948],[-89.418029,41.465906],[-89.432539,41.465724],[-89.432582,41.480251],[-89.500726,41.480443],[-89.512088,41.480386],[-89.531201,41.481037],[-89.549538,41.480803],[-89.569033,41.481142],[-89.569007,41.471365],[-89.573541,41.471317],[-89.573387,41.466763],[-89.627058,41.467032]],[[-89.399878,41.432492],[-89.398097,41.432481],[-89.399619,41.433532],[-89.398177,41.434635],[-89.398224,41.43657],[-89.397023,41.438311],[-89.395195,41.438392],[-89.395194,41.43686],[-89.392109,41.436871],[-89.39358,41.434655],[-89.395143,41.434646],[-89.393559,41.433573],[-89.393555,41.429375],[-89.403022,41.42947],[-89.399878,41.432492]]]]}},{"type":"Feature","properties":{"zcta5":"61342","AFFGEOID10":"8600000US61342","GEOID10":"61342","ALAND10":272059807,"AWATER10":367549,"county_name":"Bureau","state_code":"IL","county_state":"Bureau County, IL","county_fips":"17011","risk_level_county":"Higher Risk (60–69% vaccinated)","mean_vaccination_rate_county":60.03,"risk_level_zcta":"Higher Risk (60–69% vaccinated)","mean_vaccination_rate_zips":64.42,"cases":14},"geometry":{"type":"Polygon","coordinates":[[[-89.1672,41.628707],[-89.167195,41.626196],[-89.169396,41.622924],[-89.172237,41.621568],[-89.173724,41.62217],[-89.17665,41.622239],[-89.177534,41.620158],[-89.176437,41.617894],[-89.177351,41.616979],[-89.179606,41.61627],[-89.180311,41.617874],[-89.188646,41.61785],[-89.188615,41.614316],[-89.192106,41.61425],[-89.194275,41.615188],[-89.189747,41.612334],[-89.184589,41.608135],[-89.179721,41.603619],[-89.174593,41.599736],[-89.168646,41.594442],[-89.182201,41.593721],[-89.188498,41.591566],[-89.189079,41.591087],[-89.188542,41.588056],[-89.1898,41.58621],[-89.193222,41.585178],[-89.190331,41.58535],[-89.166561,41.585289],[-89.166504,41.547457],[-89.172956,41.543922],[-89.174905,41.543212],[-89.177016,41.542981],[-89.190817,41.542893],[-89.190751,41.524723],[-89.182281,41.52479],[-89.181997,41.488511],[-89.177705,41.488539],[-89.177547,41.481679],[-89.18126,41.481649],[-89.181184,41.467043],[-89.172001,41.467095],[-89.166218,41.466975],[-89.166051,41.454254],[-89.126751,41.454802],[-89.088084,41.455354],[-89.08769,41.456187],[-89.086223,41.459897],[-89.085267,41.4623],[-89.084449,41.463988],[-89.08446,41.465802],[-89.081921,41.465804],[-89.081943,41.467733],[-89.083206,41.467726],[-89.083225,41.469598],[-89.070694,41.469762],[-89.065831,41.472467],[-89.053695,41.475041],[-89.049504,41.476494],[-89.044561,41.479754],[-89.039755,41.484241],[-89.031216,41.48429],[-89.031026,41.469813],[-88.973211,41.469083],[-88.973528,41.483532],[-88.973922,41.497966],[-88.964337,41.497935],[-88.965277,41.52688],[-88.974844,41.526945],[-88.975496,41.540675],[-88.978786,41.54062],[-88.993492,41.527031],[-88.994757,41.540364],[-89.014,41.540114],[-89.014381,41.554647],[-88.995071,41.5549],[-88.995448,41.567813],[-88.992546,41.567963],[-88.992564,41.569357],[-88.995543,41.569442],[-89.033999,41.568922],[-89.034754,41.598032],[-89.051427,41.597919],[-89.052011,41.626704],[-89.061446,41.626872],[-89.060949,41.633815],[-89.060549,41.657676],[-89.060242,41.659638],[-89.061602,41.659698],[-89.061688,41.66331],[-89.071574,41.663299],[-89.071351,41.62702],[-89.09066,41.62731],[-89.090769,41.641797],[-89.12238,41.64224],[-89.123169,41.641741],[-89.125092,41.641415],[-89.129476,41.639736],[-89.129243,41.627949],[-89.1672,41.628707]]]}},{"type":"Feature","properties":{"zcta5":"61379","AFFGEOID10":"8600000US61379","GEOID10":"61379","ALAND10":106990604,"AWATER10":68110,"county_name":"Bureau","state_code":"IL","county_state":"Bureau County, IL","county_fips":"17011","risk_level_county":"Higher Risk (60–69% vaccinated)","mean_vaccination_rate_county":60.03,"risk_level_zcta":"Medium Risk (70–79% vaccinated)","mean_vaccination_rate_zips":73.24,"cases":14},"geometry":{"type":"Polygon","coordinates":[[[-89.660915,41.453201],[-89.647311,41.446101],[-89.646498,41.445798],[-89.646478,41.438489],[-89.675515,41.437985],[-89.678539,41.427098],[-89.684776,41.42703],[-89.685115,41.408869],[-89.683405,41.408883],[-89.683987,41.406453],[-89.685116,41.40634],[-89.685124,41.4015],[-89.684261,41.40149],[-89.685115,41.394301],[-89.685402,41.387209],[-89.678546,41.387156],[-89.675103,41.3878],[-89.66838,41.389884],[-89.665345,41.390414],[-89.665281,41.382274],[-89.670463,41.381986],[-89.67031,41.375834],[-89.669174,41.37627],[-89.651363,41.376204],[-89.649682,41.375836],[-89.641278,41.376174],[-89.628445,41.373313],[-89.626357,41.373332],[-89.625916,41.34749],[-89.627627,41.347106],[-89.627312,41.345227],[-89.625799,41.343324],[-89.625635,41.321933],[-89.538802,41.32142],[-89.534422,41.321005],[-89.532486,41.321253],[-89.527854,41.321053],[-89.523516,41.317499],[-89.522464,41.317207],[-89.5207,41.314671],[-89.519044,41.313925],[-89.519221,41.315542],[-89.518401,41.317348],[-89.519917,41.319247],[-89.519704,41.32103],[-89.516072,41.321017],[-89.520067,41.32286],[-89.532928,41.325447],[-89.538205,41.329176],[-89.539873,41.329154],[-89.558305,41.342196],[-89.558094,41.344347],[-89.558247,41.350447],[-89.548571,41.350486],[-89.548712,41.364652],[-89.559213,41.365079],[-89.567749,41.365027],[-89.57153,41.368613],[-89.572433,41.371183],[-89.571402,41.372418],[-89.572325,41.375036],[-89.572338,41.378328],[-89.570881,41.379471],[-89.569059,41.3797],[-89.5673,41.381873],[-89.567301,41.383437],[-89.571704,41.384207],[-89.573238,41.38695],[-89.564004,41.386845],[-89.559043,41.386228],[-89.555746,41.38616],[-89.553662,41.386953],[-89.551482,41.386987],[-89.549001,41.386111],[-89.549329,41.408269],[-89.568198,41.408459],[-89.568194,41.409902],[-89.570659,41.40847],[-89.626739,41.408995],[-89.626877,41.423677],[-89.602635,41.423566],[-89.602623,41.430835],[-89.623983,41.430923],[-89.626951,41.432275],[-89.627058,41.467032],[-89.627073,41.478465],[-89.646644,41.478369],[-89.64671,41.49681],[-89.663469,41.496739],[-89.663748,41.48288],[-89.664023,41.480548],[-89.669351,41.460569],[-89.669218,41.458742],[-89.666423,41.456992],[-89.665836,41.455231],[-89.664873,41.455258],[-89.660915,41.453201]]]}},{"type":"Feature","properties":{"zcta5":"61376","AFFGEOID10":"8600000US61376","GEOID10":"61376","ALAND10":250133743,"AWATER10":176176,"county_name":"Bureau","state_code":"IL","county_state":"Bureau County, IL","county_fips":"17011","risk_level_county":"Higher Risk (60–69% vaccinated)","mean_vaccination_rate_county":60.03,"risk_level_zcta":"Medium Risk (70–79% vaccinated)","mean_vaccination_rate_zips":70.43,"cases":14},"geometry":{"type":"MultiPolygon","coordinates":[[[[-89.670489,41.45519],[-89.670541,41.453221],[-89.668419,41.453008],[-89.667419,41.453764],[-89.667463,41.455217],[-89.670489,41.45519]]],[[[-89.758371,41.496664],[-89.755679,41.493214],[-89.755254,41.49175],[-89.755625,41.484983],[-89.751442,41.485737],[-89.742745,41.486037],[-89.742643,41.481938],[-89.685343,41.481564],[-89.685109,41.470089],[-89.682206,41.466693],[-89.6706,41.459042],[-89.669351,41.460569],[-89.664023,41.480548],[-89.663748,41.48288],[-89.663469,41.496739],[-89.64671,41.49681],[-89.646644,41.478369],[-89.627073,41.478465],[-89.627058,41.467032],[-89.573387,41.466763],[-89.573541,41.471317],[-89.569007,41.471365],[-89.569033,41.481142],[-89.549538,41.480803],[-89.531201,41.481037],[-89.512088,41.480386],[-89.500726,41.480443],[-89.50068,41.494746],[-89.511709,41.494814],[-89.512272,41.551387],[-89.498444,41.55365],[-89.502471,41.555814],[-89.505897,41.556351],[-89.512337,41.556423],[-89.512618,41.585065],[-89.496861,41.585003],[-89.49685,41.599412],[-89.516207,41.59944],[-89.516381,41.618781],[-89.519742,41.620016],[-89.523227,41.620862],[-89.532447,41.620908],[-89.533538,41.621137],[-89.537797,41.623191],[-89.540323,41.625034],[-89.544433,41.626842],[-89.552295,41.627254],[-89.556776,41.626569],[-89.568966,41.626704],[-89.570459,41.625444],[-89.571013,41.622527],[-89.572871,41.619921],[-89.574102,41.61935],[-89.580365,41.613472],[-89.583716,41.61203],[-89.587644,41.609288],[-89.593134,41.607517],[-89.598275,41.606838],[-89.602053,41.606698],[-89.621002,41.606504],[-89.62625,41.605225],[-89.631652,41.603134],[-89.631494,41.584949],[-89.706461,41.584577],[-89.708431,41.584619],[-89.708431,41.580931],[-89.708979,41.580176],[-89.715371,41.575122],[-89.716649,41.573086],[-89.71619,41.569085],[-89.714877,41.563506],[-89.714811,41.561885],[-89.726031,41.56159],[-89.725964,41.559799],[-89.723658,41.557283],[-89.72114,41.552764],[-89.720795,41.547635],[-89.717266,41.541653],[-89.716652,41.54014],[-89.725468,41.539884],[-89.725075,41.524286],[-89.72306,41.52391],[-89.720219,41.521943],[-89.72009,41.514842],[-89.715234,41.51477],[-89.71518,41.514274],[-89.715086,41.506743],[-89.712574,41.501687],[-89.716665,41.500274],[-89.734102,41.500223],[-89.734797,41.496589],[-89.758371,41.496664]]]]}},{"type":"Feature","properties":{"zcta5":"61362","AFFGEOID10":"8600000US61362","GEOID10":"61362","ALAND10":64600282,"AWATER10":709170,"county_name":"Bureau","state_code":"IL","county_state":"Bureau County, IL","county_fips":"17011","risk_level_county":"Higher Risk (60–69% vaccinated)","mean_vaccination_rate_county":60.03,"risk_level_zcta":"Medium Risk (70–79% vaccinated)","mean_vaccination_rate_zips":72.05,"cases":14},"geometry":{"type":"Polygon","coordinates":[[[-89.28245,41.333259],[-89.282555,41.332372],[-89.281405,41.327873],[-89.278065,41.327969],[-89.275625,41.327686],[-89.273851,41.326081],[-89.269055,41.325633],[-89.259044,41.325486],[-89.248657,41.324859],[-89.224622,41.322477],[-89.221208,41.322337],[-89.2214,41.322771],[-89.220695,41.322777],[-89.220769,41.320488],[-89.215526,41.320354],[-89.206537,41.319207],[-89.206514,41.312222],[-89.200556,41.312072],[-89.193296,41.310601],[-89.185423,41.310161],[-89.180711,41.309168],[-89.166404,41.309121],[-89.163705,41.310187],[-89.163734,41.311534],[-89.163982,41.323231],[-89.165378,41.321287],[-89.168047,41.321265],[-89.168077,41.323163],[-89.169836,41.324124],[-89.170023,41.32802],[-89.17692,41.327918],[-89.176904,41.330021],[-89.179023,41.330021],[-89.179163,41.32892],[-89.181362,41.330299],[-89.181258,41.335664],[-89.180319,41.338574],[-89.177328,41.341048],[-89.178292,41.342473],[-89.176291,41.351236],[-89.177722,41.355459],[-89.177212,41.355805],[-89.179012,41.357628],[-89.179495,41.360578],[-89.182489,41.364398],[-89.182098,41.370071],[-89.182916,41.372404],[-89.183947,41.373502],[-89.191583,41.377013],[-89.192142,41.377212],[-89.193084,41.377349],[-89.199306,41.377719],[-89.199297,41.378081],[-89.202035,41.378718],[-89.209435,41.378488],[-89.213215,41.378345],[-89.214254,41.377811],[-89.214253,41.375458],[-89.210632,41.375461],[-89.210632,41.37144],[-89.215955,41.371384],[-89.215795,41.368859],[-89.21886,41.369738],[-89.219065,41.378938],[-89.223932,41.378907],[-89.224044,41.380529],[-89.228606,41.380498],[-89.227658,41.386066],[-89.2283,41.387907],[-89.229384,41.388628],[-89.237732,41.391946],[-89.238996,41.392902],[-89.238939,41.407849],[-89.277554,41.407807],[-89.277763,41.371343],[-89.272713,41.371462],[-89.272682,41.367284],[-89.265932,41.367203],[-89.266018,41.365319],[-89.269516,41.363589],[-89.265318,41.36351],[-89.26122,41.364182],[-89.258023,41.36421],[-89.258067,41.357107],[-89.269299,41.357117],[-89.270828,41.358521],[-89.277748,41.358678],[-89.278286,41.355564],[-89.277796,41.352129],[-89.279169,41.349663],[-89.281518,41.349653],[-89.278524,41.344946],[-89.279442,41.339385],[-89.28222,41.335195],[-89.28245,41.333259]]]}},{"type":"Feature","properties":{"zcta5":"61421","AFFGEOID10":"8600000US61421","GEOID10":"61421","ALAND10":245233965,"AWATER10":209610,"county_name":"Bureau","state_code":"IL","county_state":"Bureau County, IL","county_fips":"17011","risk_level_county":"Higher Risk (60–69% vaccinated)","mean_vaccination_rate_county":60.03,"risk_level_zcta":"Medium Risk (70–79% vaccinated)","mean_vaccination_rate_zips":78.99,"cases":14},"geometry":{"type":"Polygon","coordinates":[[[-89.780143,41.212694],[-89.781821,41.209642],[-89.782291,41.207821],[-89.782319,41.198965],[-89.796243,41.199281],[-89.798781,41.197164],[-89.800067,41.194621],[-89.800437,41.19242],[-89.80349,41.192105],[-89.803736,41.190859],[-89.805983,41.188106],[-89.805952,41.187258],[-89.801977,41.185677],[-89.801755,41.180675],[-89.788394,41.180684],[-89.786463,41.178143],[-89.786982,41.177268],[-89.782443,41.175386],[-89.782468,41.169953],[-89.779141,41.16984],[-89.779751,41.167421],[-89.777213,41.165819],[-89.775974,41.165651],[-89.773164,41.167407],[-89.771865,41.167535],[-89.770447,41.166169],[-89.767638,41.166259],[-89.768759,41.16443],[-89.770817,41.162945],[-89.770364,41.160795],[-89.767703,41.159354],[-89.768037,41.157799],[-89.771274,41.158166],[-89.77433,41.157595],[-89.777415,41.15527],[-89.777181,41.153401],[-89.772401,41.151847],[-89.77131,41.152488],[-89.770221,41.151415],[-89.771401,41.150502],[-89.770766,41.148972],[-89.769556,41.149269],[-89.769827,41.147707],[-89.759091,41.147612],[-89.758626,41.144948],[-89.758544,41.136254],[-89.756206,41.136023],[-89.750965,41.133993],[-89.735011,41.134006],[-89.735021,41.141283],[-89.705864,41.141579],[-89.705904,41.126932],[-89.676778,41.126931],[-89.677015,41.112366],[-89.638471,41.11228],[-89.60276,41.11206],[-89.592,41.1122],[-89.59194,41.12488],[-89.59133,41.12621],[-89.58923,41.127],[-89.58236,41.12712],[-89.572295,41.126717],[-89.5723,41.134373],[-89.56318,41.134281],[-89.56316,41.14868],[-89.5439,41.14864],[-89.543529,41.161392],[-89.542501,41.159471],[-89.540232,41.157687],[-89.529251,41.154552],[-89.528917,41.155558],[-89.527012,41.154871],[-89.520475,41.155898],[-89.519415,41.156858],[-89.517537,41.160882],[-89.519472,41.162895],[-89.522407,41.164337],[-89.522739,41.165686],[-89.519439,41.167469],[-89.520558,41.169253],[-89.51968,41.171037],[-89.520708,41.172318],[-89.522856,41.173279],[-89.522432,41.174513],[-89.524482,41.175468],[-89.52416,41.192116],[-89.514469,41.192136],[-89.514577,41.214203],[-89.524567,41.214261],[-89.524548,41.233954],[-89.58474,41.233918],[-89.582508,41.232162],[-89.58252,41.227284],[-89.592092,41.227256],[-89.591929,41.233893],[-89.616103,41.233876],[-89.61611,41.241189],[-89.625656,41.241191],[-89.625575,41.233865],[-89.620697,41.233871],[-89.621055,41.226253],[-89.625936,41.226825],[-89.625555,41.224812],[-89.628058,41.22463],[-89.630482,41.223077],[-89.633754,41.222186],[-89.634946,41.221279],[-89.638673,41.221274],[-89.638864,41.233862],[-89.747559,41.233922],[-89.74735,41.228365],[-89.751312,41.228079],[-89.753573,41.227468],[-89.753614,41.221012],[-89.752788,41.220151],[-89.753603,41.218662],[-89.753608,41.215143],[-89.754854,41.213443],[-89.756143,41.213217],[-89.763348,41.213531],[-89.779681,41.213531],[-89.780143,41.212694]]]}},{"type":"Feature","properties":{"zcta5":"61361","AFFGEOID10":"8600000US61361","GEOID10":"61361","ALAND10":220539646,"AWATER10":702635,"county_name":"Bureau","state_code":"IL","county_state":"Bureau County, IL","county_fips":"17011","risk_level_county":"Higher Risk (60–69% vaccinated)","mean_vaccination_rate_county":60.03,"risk_level_zcta":"Lower Risk (80–84% vaccinated)","mean_vaccination_rate_zips":80.29,"cases":14},"geometry":{"type":"MultiPolygon","coordinates":[[[[-89.758371,41.496664],[-89.7626,41.501974],[-89.764241,41.504582],[-89.764848,41.506501],[-89.769654,41.507418],[-89.771449,41.506573],[-89.770537,41.504676],[-89.770933,41.502755],[-89.774099,41.500034],[-89.779385,41.496715],[-89.781456,41.496719],[-89.781691,41.498164],[-89.781772,41.511046],[-89.820131,41.51126],[-89.82032,41.518515],[-89.832025,41.518601],[-89.828082,41.516025],[-89.828532,41.513101],[-89.831642,41.509916],[-89.83447,41.50827],[-89.835047,41.506532],[-89.837966,41.504176],[-89.838148,41.502987],[-89.839942,41.501478],[-89.840038,41.496991],[-89.839335,41.490315],[-89.839851,41.488692],[-89.839788,41.484966],[-89.829331,41.483884],[-89.829358,41.466821],[-89.822943,41.464711],[-89.818674,41.4619],[-89.81727,41.460071],[-89.815619,41.460069],[-89.815566,41.452284],[-89.800539,41.452618],[-89.799897,41.438151],[-89.790635,41.437916],[-89.791097,41.431995],[-89.791156,41.421226],[-89.790701,41.419602],[-89.795379,41.418414],[-89.799976,41.417613],[-89.800257,41.412446],[-89.790369,41.412423],[-89.79032,41.409027],[-89.809905,41.408637],[-89.809831,41.401592],[-89.809446,41.396592],[-89.813785,41.394659],[-89.816123,41.394316],[-89.825414,41.394109],[-89.828997,41.394978],[-89.828449,41.386655],[-89.819644,41.386473],[-89.819613,41.379431],[-89.819191,41.377593],[-89.799726,41.373192],[-89.799647,41.364747],[-89.818953,41.364771],[-89.818827,41.357395],[-89.814669,41.357273],[-89.814092,41.355925],[-89.815579,41.353546],[-89.816732,41.353134],[-89.817763,41.352608],[-89.818812,41.356055],[-89.818762,41.35157],[-89.812313,41.351569],[-89.804722,41.35034],[-89.789492,41.350319],[-89.751184,41.350711],[-89.751153,41.344707],[-89.752568,41.34255],[-89.755243,41.340626],[-89.755954,41.338939],[-89.7558,41.328939],[-89.74175,41.329136],[-89.741681,41.316383],[-89.736146,41.316918],[-89.731362,41.318021],[-89.72114,41.322092],[-89.715319,41.324631],[-89.712936,41.321704],[-89.703251,41.321726],[-89.703541,41.32622],[-89.704219,41.328927],[-89.708381,41.329232],[-89.708584,41.336254],[-89.710355,41.336569],[-89.710346,41.337846],[-89.712168,41.338233],[-89.712141,41.33959],[-89.713484,41.340137],[-89.713434,41.346496],[-89.703991,41.344066],[-89.703851,41.358661],[-89.670062,41.357934],[-89.67031,41.375834],[-89.670463,41.381986],[-89.665281,41.382274],[-89.665345,41.390414],[-89.66838,41.389884],[-89.675103,41.3878],[-89.678546,41.387156],[-89.685402,41.387209],[-89.685115,41.394301],[-89.684261,41.40149],[-89.685124,41.4015],[-89.685116,41.40634],[-89.683987,41.406453],[-89.683405,41.408883],[-89.685115,41.408869],[-89.684776,41.42703],[-89.678539,41.427098],[-89.675515,41.437985],[-89.646478,41.438489],[-89.646498,41.445798],[-89.647311,41.446101],[-89.660915,41.453201],[-89.66582,41.452665],[-89.665801,41.450574],[-89.670611,41.450547],[-89.670623,41.452481],[-89.673195,41.452514],[-89.673205,41.456173],[-89.68489,41.45605],[-89.685109,41.470089],[-89.685343,41.481564],[-89.742643,41.481938],[-89.742745,41.486037],[-89.751442,41.485737],[-89.755625,41.484983],[-89.755254,41.49175],[-89.755679,41.493214],[-89.758371,41.496664]]],[[[-89.876075,41.379683],[-89.876001,41.364985],[-89.905069,41.364825],[-89.905034,41.346745],[-89.904898,41.335822],[-89.900082,41.335792],[-89.900329,41.327317],[-89.901449,41.327338],[-89.901508,41.324329],[-89.904901,41.324459],[-89.904956,41.321261],[-89.876113,41.321087],[-89.876007,41.335621],[-89.856698,41.33545],[-89.856762,41.328538],[-89.852227,41.328541],[-89.852225,41.320984],[-89.838469,41.32107],[-89.838478,41.335958],[-89.831529,41.335979],[-89.831178,41.334609],[-89.827708,41.334839],[-89.82443,41.333558],[-89.823422,41.337554],[-89.837351,41.341599],[-89.838192,41.342596],[-89.838528,41.364672],[-89.852402,41.364721],[-89.856814,41.364874],[-89.857007,41.367422],[-89.856832,41.379381],[-89.876075,41.379683]]]]}},{"type":"Feature","properties":{"zcta5":"61338","AFFGEOID10":"8600000US61338","GEOID10":"61338","ALAND10":1466626,"AWATER10":0,"county_name":"Bureau","state_code":"IL","county_state":"Bureau County, IL","county_fips":"17011","risk_level_county":"Higher Risk (60–69% vaccinated)","mean_vaccination_rate_county":60.03,"risk_level_zcta":"Lower Risk (80–84% vaccinated)","mean_vaccination_rate_zips":80.32,"cases":14},"geometry":{"type":"Polygon","coordinates":[[[-89.685109,41.470089],[-89.68489,41.45605],[-89.673205,41.456173],[-89.673195,41.452514],[-89.670623,41.452481],[-89.670611,41.450547],[-89.665801,41.450574],[-89.66582,41.452665],[-89.660915,41.453201],[-89.664873,41.455258],[-89.665836,41.455231],[-89.666423,41.456992],[-89.669218,41.458742],[-89.669351,41.460569],[-89.6706,41.459042],[-89.682206,41.466693],[-89.685109,41.470089]],[[-89.670489,41.45519],[-89.667463,41.455217],[-89.667419,41.453764],[-89.668419,41.453008],[-89.670541,41.453221],[-89.670489,41.45519]]]}},{"type":"Feature","properties":{"zcta5":"61320","AFFGEOID10":"8600000US61320","GEOID10":"61320","ALAND10":2420332,"AWATER10":0,"county_name":"Bureau","state_code":"IL","county_state":"Bureau County, IL","county_fips":"17011","risk_level_county":"Higher Risk (60–69% vaccinated)","mean_vaccination_rate_county":60.03,"risk_level_zcta":"Medium Risk (70–79% vaccinated)","mean_vaccination_rate_zips":78.62,"cases":14},"geometry":{"type":"Polygon","coordinates":[[[-89.182489,41.364398],[-89.179495,41.360578],[-89.179012,41.357628],[-89.177212,41.355805],[-89.177722,41.355459],[-89.175171,41.353731],[-89.174051,41.351486],[-89.172014,41.352251],[-89.171568,41.349917],[-89.171491,41.340338],[-89.164214,41.340337],[-89.164393,41.353858],[-89.164426,41.35608],[-89.164457,41.357132],[-89.164466,41.357569],[-89.164629,41.364324],[-89.16462,41.364568],[-89.182489,41.364398]]]}},{"type":"Feature","properties":{"zcta5":"61354","AFFGEOID10":"8600000US61354","GEOID10":"61354","ALAND10":109688833,"AWATER10":898321,"county_name":"Bureau","state_code":"IL","county_state":"Bureau County, IL","county_fips":"17011","risk_level_county":"Higher Risk (60–69% vaccinated)","mean_vaccination_rate_county":60.03,"risk_level_zcta":"Medium Risk (70–79% vaccinated)","mean_vaccination_rate_zips":76.48,"cases":14},"geometry":{"type":"Polygon","coordinates":[[[-89.182916,41.372404],[-89.182098,41.370071],[-89.182489,41.364398],[-89.16462,41.364568],[-89.164629,41.364324],[-89.164466,41.357569],[-89.164457,41.357132],[-89.164426,41.35608],[-89.164393,41.353858],[-89.164214,41.340337],[-89.171491,41.340338],[-89.171568,41.349917],[-89.172014,41.352251],[-89.174051,41.351486],[-89.175171,41.353731],[-89.177722,41.355459],[-89.176291,41.351236],[-89.178292,41.342473],[-89.177328,41.341048],[-89.180319,41.338574],[-89.181258,41.335664],[-89.181362,41.330299],[-89.179163,41.32892],[-89.179023,41.330021],[-89.176904,41.330021],[-89.17692,41.327918],[-89.170023,41.32802],[-89.169836,41.324124],[-89.168077,41.323163],[-89.168047,41.321265],[-89.165378,41.321287],[-89.163982,41.323231],[-89.163734,41.311534],[-89.163705,41.310187],[-89.163022,41.258576],[-89.168531,41.258434],[-89.17004,41.257581],[-89.172747,41.258243],[-89.17269,41.250933],[-89.182405,41.250299],[-89.182337,41.243204],[-89.162906,41.243978],[-89.162686,41.207079],[-89.161651,41.206893],[-89.125699,41.206879],[-89.125766,41.235998],[-89.106318,41.235962],[-89.106407,41.257759],[-89.09657,41.257782],[-89.096558,41.264985],[-89.11122,41.265037],[-89.111176,41.250535],[-89.119066,41.250576],[-89.12166,41.253234],[-89.12217,41.255402],[-89.125748,41.25744],[-89.125827,41.250582],[-89.145296,41.250475],[-89.14532,41.257637],[-89.136018,41.257667],[-89.133315,41.258363],[-89.130074,41.261154],[-89.131941,41.263304],[-89.129433,41.265088],[-89.125896,41.265098],[-89.126068,41.272349],[-89.117021,41.272815],[-89.116118,41.273589],[-89.117302,41.275441],[-89.116607,41.27814],[-89.114697,41.278255],[-89.116306,41.280747],[-89.118936,41.280688],[-89.106875,41.288636],[-89.106841,41.291417],[-89.104122,41.29163],[-89.105644,41.293964],[-89.104886,41.295148],[-89.101308,41.294695],[-89.100665,41.294937],[-89.106944,41.301244],[-89.106983,41.30421],[-89.106919,41.312281],[-89.10665,41.312836],[-89.11,41.314348],[-89.114386,41.320591],[-89.115785,41.321802],[-89.11999,41.323018],[-89.119998,41.324211],[-89.116078,41.323996],[-89.113491,41.323059],[-89.111547,41.323273],[-89.108303,41.323771],[-89.105742,41.324301],[-89.106018,41.341158],[-89.107572,41.341121],[-89.107502,41.343124],[-89.105969,41.343458],[-89.106043,41.353221],[-89.109154,41.353171],[-89.110227,41.351691],[-89.106163,41.35169],[-89.106155,41.349098],[-89.109776,41.349079],[-89.110566,41.349881],[-89.11052,41.353149],[-89.111557,41.366296],[-89.114602,41.365554],[-89.12062,41.365307],[-89.115754,41.36574],[-89.115806,41.367592],[-89.122807,41.367494],[-89.144698,41.367173],[-89.144735,41.370249],[-89.136333,41.370381],[-89.134797,41.371483],[-89.125761,41.371666],[-89.12556,41.374855],[-89.125673,41.38197],[-89.135665,41.381827],[-89.135591,41.374435],[-89.139983,41.374392],[-89.14006,41.381756],[-89.144858,41.381772],[-89.144941,41.396209],[-89.125925,41.396505],[-89.126751,41.454802],[-89.166051,41.454254],[-89.165304,41.408427],[-89.1806,41.408508],[-89.180486,41.400635],[-89.175828,41.400652],[-89.171096,41.393913],[-89.177953,41.393862],[-89.174542,41.390046],[-89.175951,41.388677],[-89.179322,41.387419],[-89.179405,41.386407],[-89.171384,41.386449],[-89.165065,41.379299],[-89.164847,41.379424],[-89.164776,41.374038],[-89.164784,41.373675],[-89.174656,41.373406],[-89.179148,41.375193],[-89.180151,41.374987],[-89.182916,41.372404]]]}}]}