{"type":"FeatureCollection","features":[{"type":"Feature","properties":{"zcta5":"58755","AFFGEOID10":"8600000US58755","GEOID10":"58755","ALAND10":230343146,"AWATER10":1918286,"county_name":"Burke","state_code":"ND","county_state":"Burke County, ND","county_fips":"38013","risk_level_county":"Lower Risk (80–84% vaccinated)","mean_vaccination_rate_county":81.49,"risk_level_zcta":"Medium Risk (70–79% vaccinated)","mean_vaccination_rate_zips":75.73,"cases":38},"geometry":{"type":"Polygon","coordinates":[[[-103.005943,48.720568],[-103.006648,48.72048],[-103.037324,48.720493],[-103.037441,48.71364],[-103.0381,48.71295],[-103.037567,48.712247],[-103.037387,48.705702],[-103.059261,48.705701],[-103.059273,48.676766],[-102.996983,48.676794],[-102.995042,48.676939],[-102.994997,48.647751],[-102.973151,48.647785],[-102.9731,48.633307],[-102.994948,48.633301],[-102.994897,48.618826],[-103.037458,48.618872],[-103.037524,48.589956],[-103.03761,48.546425],[-103.015219,48.546292],[-102.994781,48.546405],[-102.994741,48.531882],[-102.976459,48.531874],[-102.975662,48.530842],[-102.975642,48.531874],[-102.972959,48.531873],[-102.972998,48.560896],[-102.929351,48.560889],[-102.929672,48.524104],[-102.929302,48.517396],[-102.885765,48.517402],[-102.885763,48.54639],[-102.842713,48.546404],[-102.84287,48.618805],[-102.885782,48.618783],[-102.885775,48.633298],[-102.885748,48.662254],[-102.885774,48.70015],[-102.886063,48.702711],[-102.885686,48.720488],[-102.939932,48.720469],[-103.005943,48.720568]]]}},{"type":"Feature","properties":{"zcta5":"58737","AFFGEOID10":"8600000US58737","GEOID10":"58737","ALAND10":354128641,"AWATER10":5502074,"county_name":"Burke","state_code":"ND","county_state":"Burke County, ND","county_fips":"38013","risk_level_county":"Lower Risk (80–84% vaccinated)","mean_vaccination_rate_county":81.49,"risk_level_zcta":"Lowest Risk (85%+)","mean_vaccination_rate_zips":85.16,"cases":38},"geometry":{"type":"Polygon","coordinates":[[[-102.568014,48.92321],[-102.568019,48.908752],[-102.545987,48.908697],[-102.546101,48.879767],[-102.50254,48.879795],[-102.502641,48.807382],[-102.436803,48.80729],[-102.436677,48.821822],[-102.414753,48.821835],[-102.414695,48.836309],[-102.396452,48.836321],[-102.394773,48.836725],[-102.393275,48.838413],[-102.393297,48.850795],[-102.36348,48.850795],[-102.364093,48.851887],[-102.361382,48.850792],[-102.34947,48.850773],[-102.349468,48.836329],[-102.305652,48.836261],[-102.305532,48.908672],[-102.261901,48.908679],[-102.261875,48.923144],[-102.239842,48.923162],[-102.23973,48.981121],[-102.195986,48.981072],[-102.195779,48.966607],[-102.173962,48.966615],[-102.167857,48.967204],[-102.15932,48.964243],[-102.155173,48.96319],[-102.151774,48.963046],[-102.151736,48.964923],[-102.14517,48.961514],[-102.133033,48.956257],[-102.130565,48.95493],[-102.127538,48.953087],[-102.107062,48.937562],[-102.098592,48.937603],[-102.104118,48.941373],[-102.104879,48.94397],[-102.10857,48.947795],[-102.111326,48.948654],[-102.120421,48.952032],[-102.13247,48.960097],[-102.140877,48.966092],[-102.14346,48.967049],[-102.147461,48.969779],[-102.15423,48.973649],[-102.168268,48.981015],[-102.173048,48.986373],[-102.179239,48.989818],[-102.184064,48.991634],[-102.190778,48.992063],[-102.196511,48.99492],[-102.19376,48.995575],[-102.173667,48.995572],[-102.17372524710801,48.9987082113854],[-102.211301,48.998554],[-102.216993,48.998553],[-102.55233096564,48.99901778989079],[-102.547496,48.997441],[-102.547865,48.996509],[-102.544562,48.995637],[-102.541453,48.993504],[-102.542726,48.99203],[-102.545917,48.991972],[-102.545956,48.966634],[-102.480476,48.966684],[-102.48049,48.954456],[-102.476802,48.952263],[-102.458456,48.952209],[-102.458492,48.937724],[-102.567994,48.937739],[-102.568014,48.92321]],[[-102.480476,48.966684],[-102.480468,48.967181],[-102.48043,48.995372],[-102.480119,48.995633],[-102.458429,48.995614],[-102.458468,48.966691],[-102.470842,48.966693],[-102.480476,48.966684]]]}},{"type":"Feature","properties":{"zcta5":"58784","AFFGEOID10":"8600000US58784","GEOID10":"58784","ALAND10":830812475,"AWATER10":29924620,"county_name":"Burke","state_code":"ND","county_state":"Burke County, ND","county_fips":"38013","risk_level_county":"Lower Risk (80–84% vaccinated)","mean_vaccination_rate_county":81.49,"risk_level_zcta":"Higher Risk (60–69% vaccinated)","mean_vaccination_rate_zips":68.13,"cases":38},"geometry":{"type":"MultiPolygon","coordinates":[[[[-102.364547,48.633304],[-102.364558,48.635127],[-102.364645,48.647707],[-102.374347,48.6477],[-102.37783,48.645968],[-102.379949,48.645893],[-102.382211,48.647724],[-102.386112,48.647746],[-102.386101,48.652199],[-102.392403,48.646424],[-102.396577,48.643343],[-102.397025,48.638439],[-102.397944,48.636349],[-102.399336,48.63568],[-102.400746,48.639324],[-102.404344,48.642299],[-102.406712,48.639225],[-102.410007,48.637119],[-102.411524,48.63455],[-102.41565,48.633337],[-102.364726,48.633306],[-102.364547,48.633304]]],[[[-102.624864,48.380059],[-102.624875,48.37502],[-102.62527,48.372655],[-102.612335,48.372573],[-102.612343,48.355229],[-102.590638,48.355019],[-102.590678,48.341751],[-102.548019,48.341713],[-102.547961,48.316508],[-102.537066,48.316274],[-102.537059,48.314618],[-102.502599,48.316437],[-102.482897,48.315005],[-102.482863,48.29825],[-102.492502,48.29812],[-102.504561,48.298228],[-102.504545,48.283782],[-102.482873,48.283748],[-102.482897,48.254819],[-102.461228,48.254842],[-102.461262,48.240304],[-102.482925,48.240332],[-102.482918,48.247534],[-102.493884,48.247454],[-102.502415,48.246846],[-102.502452,48.247743],[-102.504586,48.247633],[-102.504599,48.236606],[-102.502453,48.234574],[-102.501358,48.232578],[-102.501583,48.231103],[-102.504605,48.229231],[-102.504626,48.21135],[-102.496004,48.211326],[-102.494364,48.212333],[-102.49161,48.211346],[-102.482954,48.211376],[-102.482932,48.225835],[-102.440016,48.225964],[-102.439695,48.16824],[-102.461163,48.167906],[-102.461338,48.160847],[-102.482608,48.160596],[-102.482988,48.182379],[-102.547942,48.182386],[-102.547933,48.146178],[-102.547847,48.124635],[-102.508267,48.124488],[-102.507529,48.123123],[-102.5038,48.122353],[-102.502125,48.121274],[-102.499453,48.121935],[-102.498643,48.12127],[-102.496051,48.121843],[-102.493628,48.121295],[-102.488717,48.122074],[-102.485784,48.121937],[-102.485887,48.123331],[-102.48442,48.1234],[-102.484521,48.121915],[-102.482168,48.122007],[-102.482186,48.124632],[-102.440026,48.124652],[-102.440213,48.123192],[-102.439828,48.109405],[-102.439835,48.095596],[-102.418458,48.095605],[-102.417492,48.098317],[-102.415401,48.099355],[-102.415316,48.10197],[-102.411689,48.102824],[-102.407754,48.102926],[-102.407635,48.110045],[-102.403223,48.110051],[-102.396833,48.110049],[-102.396821,48.117278],[-102.387769,48.117262],[-102.386038,48.118326],[-102.385573,48.131808],[-102.375246,48.131814],[-102.375153,48.139001],[-102.353538,48.139003],[-102.35291,48.153461],[-102.246053,48.153463],[-102.22444,48.153462],[-102.224423,48.167937],[-102.246078,48.167978],[-102.245661,48.177087],[-102.24611,48.182407],[-102.29182,48.182396],[-102.297774,48.182241],[-102.300089,48.181613],[-102.302225,48.182276],[-102.309186,48.182471],[-102.31017,48.183092],[-102.310095,48.245867],[-102.313089,48.245729],[-102.315325,48.246338],[-102.317753,48.249628],[-102.317969,48.254811],[-102.353486,48.254778],[-102.352357,48.256766],[-102.353395,48.258487],[-102.353455,48.269248],[-102.33179,48.269261],[-102.333623,48.27119],[-102.333604,48.272206],[-102.33178,48.274607],[-102.331785,48.283741],[-102.304249,48.283699],[-102.296842,48.283859],[-102.289527,48.283776],[-102.289466,48.312682],[-102.309969,48.31273],[-102.309998,48.323367],[-102.297944,48.326466],[-102.293065,48.326882],[-102.274514,48.326824],[-102.267479,48.327353],[-102.257448,48.329091],[-102.253529,48.329295],[-102.246037,48.328653],[-102.245963,48.339353],[-102.246118,48.34162],[-102.252819,48.341646],[-102.256575,48.342021],[-102.26464,48.34369],[-102.269668,48.34392],[-102.27716,48.342205],[-102.282115,48.341645],[-102.310042,48.341682],[-102.309888,48.372458],[-102.34266,48.372464],[-102.342682,48.390577],[-102.320959,48.390637],[-102.320947,48.386992],[-102.315389,48.386966],[-102.315418,48.390485],[-102.310615,48.390509],[-102.310188,48.397328],[-102.313888,48.396387],[-102.316234,48.398413],[-102.318569,48.397978],[-102.319557,48.401614],[-102.320721,48.403346],[-102.319739,48.405362],[-102.319399,48.408821],[-102.321022,48.412625],[-102.321118,48.415672],[-102.323626,48.419532],[-102.322619,48.422813],[-102.321164,48.424829],[-102.321273,48.426481],[-102.322812,48.428834],[-102.321658,48.430311],[-102.299311,48.43038],[-102.299388,48.459431],[-102.31035,48.459478],[-102.313547,48.465999],[-102.31024,48.469942],[-102.311057,48.472177],[-102.310797,48.47389],[-102.321193,48.47391],[-102.321154,48.483099],[-102.320757,48.484637],[-102.321164,48.48799],[-102.321183,48.500218],[-102.31791,48.503798],[-102.318168,48.505425],[-102.311212,48.506822],[-102.309418,48.506658],[-102.307022,48.505379],[-102.305434,48.505304],[-102.302785,48.503903],[-102.299341,48.502901],[-102.277628,48.502849],[-102.277613,48.517359],[-102.299125,48.517416],[-102.298858,48.531702],[-102.320273,48.531755],[-102.320418,48.546302],[-102.343157,48.546395],[-102.353366,48.547082],[-102.358438,48.547059],[-102.364649,48.546238],[-102.364479,48.573378],[-102.357708,48.575167],[-102.352246,48.575246],[-102.35085,48.574574],[-102.349218,48.575513],[-102.343103,48.575174],[-102.343484,48.612109],[-102.34303,48.613751],[-102.34302,48.627564],[-102.34174,48.628743],[-102.343059,48.631456],[-102.343033,48.633286],[-102.364547,48.633304],[-102.364493,48.625028],[-102.364064,48.624137],[-102.364175,48.618695],[-102.407671,48.618772],[-102.407701,48.610061],[-102.413533,48.609958],[-102.420374,48.608803],[-102.423379,48.608948],[-102.427386,48.607637],[-102.429142,48.605706],[-102.435619,48.603296],[-102.440986,48.602185],[-102.444727,48.600879],[-102.447727,48.598397],[-102.448593,48.596979],[-102.448689,48.59462],[-102.451713,48.59006],[-102.451188,48.585932],[-102.4488,48.581695],[-102.449324,48.579382],[-102.451292,48.579165],[-102.451498,48.578177],[-102.451063,48.572052],[-102.447551,48.568808],[-102.446968,48.56699],[-102.445197,48.565677],[-102.444844,48.563737],[-102.445593,48.560916],[-102.458018,48.560944],[-102.458937,48.554572],[-102.460511,48.552836],[-102.460211,48.549343],[-102.462198,48.547733],[-102.461803,48.546485],[-102.494531,48.546568],[-102.49455,48.532044],[-102.559968,48.532001],[-102.55997,48.51748],[-102.57584,48.517505],[-102.57868,48.518669],[-102.581749,48.518938],[-102.580519,48.517458],[-102.581731,48.513826],[-102.581714,48.48853],[-102.559961,48.488509],[-102.559923,48.44507],[-102.540343,48.445095],[-102.542182,48.443724],[-102.543601,48.44367],[-102.546594,48.44161],[-102.551328,48.441602],[-102.557183,48.441222],[-102.559936,48.440219],[-102.559968,48.425905],[-102.560595,48.42402],[-102.559937,48.421987],[-102.559949,48.414457],[-102.560319,48.412773],[-102.559487,48.407963],[-102.559958,48.405021],[-102.60288,48.40499],[-102.603222,48.401121],[-102.624817,48.401168],[-102.624864,48.380059]]]]}},{"type":"Feature","properties":{"zcta5":"58772","AFFGEOID10":"8600000US58772","GEOID10":"58772","ALAND10":129469230,"AWATER10":1058424,"county_name":"Burke","state_code":"ND","county_state":"Burke County, ND","county_fips":"38013","risk_level_county":"Lower Risk (80–84% vaccinated)","mean_vaccination_rate_county":81.49,"risk_level_zcta":"Medium Risk (70–79% vaccinated)","mean_vaccination_rate_zips":73.66,"cases":38},"geometry":{"type":"MultiPolygon","coordinates":[[[[-102.480476,48.966684],[-102.470842,48.966693],[-102.458468,48.966691],[-102.458429,48.995614],[-102.480119,48.995633],[-102.48043,48.995372],[-102.480468,48.967181],[-102.480476,48.966684]]],[[[-102.805207949706,48.9993682860406],[-102.805217,48.997727],[-102.800999,48.995398],[-102.797557,48.994137],[-102.797521,48.988555],[-102.786468,48.988572],[-102.785062,48.990356],[-102.780637,48.990649],[-102.777763,48.989488],[-102.777207,48.987002],[-102.776115,48.985788],[-102.773155,48.984192],[-102.77064,48.984504],[-102.766796,48.984244],[-102.764591,48.981804],[-102.764462,48.979959],[-102.764624,48.937841],[-102.74267,48.937875],[-102.742729,48.923358],[-102.720753,48.92335],[-102.720749,48.924744],[-102.717317,48.9247],[-102.718558,48.927148],[-102.718142,48.928341],[-102.7136,48.930665],[-102.715023,48.934175],[-102.717102,48.934272],[-102.716825,48.935214],[-102.713252,48.93694],[-102.713148,48.938083],[-102.714538,48.93957],[-102.71794,48.940431],[-102.721134,48.942382],[-102.724012,48.941677],[-102.725018,48.942868],[-102.726925,48.942984],[-102.727655,48.944769],[-102.729145,48.944429],[-102.731016,48.941875],[-102.736079,48.944074],[-102.731885,48.945407],[-102.733414,48.949916],[-102.731959,48.95193],[-102.732897,48.953365],[-102.7364,48.953218],[-102.737999,48.956175],[-102.742021,48.955501],[-102.742609,48.96679],[-102.676589,48.966796],[-102.676759,48.93784],[-102.655804,48.937858],[-102.655772,48.952353],[-102.611878,48.952304],[-102.611877,48.937834],[-102.63389,48.937821],[-102.634825,48.937002],[-102.633929,48.935947],[-102.633982,48.908826],[-102.61191,48.908804],[-102.611893,48.923285],[-102.568014,48.92321],[-102.567994,48.937739],[-102.458492,48.937724],[-102.458456,48.952209],[-102.476802,48.952263],[-102.48049,48.954456],[-102.480476,48.966684],[-102.545956,48.966634],[-102.545917,48.991972],[-102.542726,48.99203],[-102.541453,48.993504],[-102.544562,48.995637],[-102.547865,48.996509],[-102.547496,48.997441],[-102.55233096564,48.99901778989079],[-102.805207949706,48.9993682860406]]]]}},{"type":"Feature","properties":{"zcta5":"58721","AFFGEOID10":"8600000US58721","GEOID10":"58721","ALAND10":618983989,"AWATER10":20833594,"county_name":"Burke","state_code":"ND","county_state":"Burke County, ND","county_fips":"38013","risk_level_county":"Lower Risk (80–84% vaccinated)","mean_vaccination_rate_county":81.49,"risk_level_zcta":"Medium Risk (70–79% vaccinated)","mean_vaccination_rate_zips":76.52,"cases":38},"geometry":{"type":"Polygon","coordinates":[[[-102.546301,48.764111],[-102.546288,48.735033],[-102.54659,48.720428],[-102.500451,48.720438],[-102.494102,48.720202],[-102.493962,48.705098],[-102.490061,48.70559],[-102.487511,48.70292],[-102.489938,48.700125],[-102.487157,48.699301],[-102.48733,48.69735],[-102.481747,48.695559],[-102.473315,48.695591],[-102.47339,48.676863],[-102.493911,48.676864],[-102.493825,48.649969],[-102.494315,48.6335],[-102.467334,48.633493],[-102.4608,48.633298],[-102.451692,48.633458],[-102.446221,48.632844],[-102.443763,48.633384],[-102.430831,48.633371],[-102.431206,48.638759],[-102.432052,48.641041],[-102.430745,48.647436],[-102.431093,48.64892],[-102.428462,48.651251],[-102.428848,48.655338],[-102.427935,48.656552],[-102.428694,48.660645],[-102.430311,48.66231],[-102.429731,48.663822],[-102.429656,48.676777],[-102.376935,48.676672],[-102.364037,48.687329],[-102.364184,48.691873],[-102.363511,48.720368],[-102.330829,48.72035],[-102.328213,48.721555],[-102.327598,48.722643],[-102.327577,48.749317],[-102.305695,48.749282],[-102.305712,48.720341],[-102.283853,48.72033],[-102.2838,48.734779],[-102.240027,48.734793],[-102.240047,48.720316],[-102.2336,48.72029],[-102.152545,48.720294],[-102.14728,48.720015],[-102.108973,48.720127],[-102.110997,48.721761],[-102.117552,48.725623],[-102.12218,48.72753],[-102.126858,48.72872],[-102.128387,48.729802],[-102.129786,48.734177],[-102.128923,48.737819],[-102.12739,48.739324],[-102.121652,48.742302],[-102.115817,48.742331],[-102.110771,48.742102],[-102.109542,48.742683],[-102.109987,48.744486],[-102.112424,48.746052],[-102.111742,48.7472],[-102.10812,48.749952],[-102.105604,48.751263],[-102.103678,48.750712],[-102.103458,48.749362],[-102.087207,48.749279],[-102.087299,48.778219],[-102.109258,48.77823],[-102.1093,48.807157],[-102.114368,48.807092],[-102.121123,48.807195],[-102.120069,48.811243],[-102.118167,48.815807],[-102.113682,48.822422],[-102.107613,48.827966],[-102.104369,48.830085],[-102.095697,48.834762],[-102.089211,48.839367],[-102.085018,48.844571],[-102.08412,48.847691],[-102.084498,48.851446],[-102.083513,48.856979],[-102.083479,48.859963],[-102.082735,48.863251],[-102.080464,48.866809],[-102.073419,48.872588],[-102.067834,48.87502],[-102.061892,48.879219],[-102.060627,48.880819],[-102.059666,48.88237],[-102.058973,48.887123],[-102.059887,48.891742],[-102.067555,48.906382],[-102.068732,48.910303],[-102.070577,48.91403],[-102.073608,48.918082],[-102.077768,48.921714],[-102.085054,48.926147],[-102.093151,48.929798],[-102.101095,48.933843],[-102.107062,48.937562],[-102.127538,48.953087],[-102.130565,48.95493],[-102.133033,48.956257],[-102.14517,48.961514],[-102.151736,48.964923],[-102.151774,48.963046],[-102.155173,48.96319],[-102.15932,48.964243],[-102.167857,48.967204],[-102.173962,48.966615],[-102.195779,48.966607],[-102.195986,48.981072],[-102.23973,48.981121],[-102.239842,48.923162],[-102.261875,48.923144],[-102.261901,48.908679],[-102.305532,48.908672],[-102.305652,48.836261],[-102.349468,48.836329],[-102.34947,48.850773],[-102.361382,48.850792],[-102.364093,48.851887],[-102.36348,48.850795],[-102.393297,48.850795],[-102.393275,48.838413],[-102.394773,48.836725],[-102.396452,48.836321],[-102.414695,48.836309],[-102.414753,48.821835],[-102.436677,48.821822],[-102.436803,48.80729],[-102.502641,48.807382],[-102.5026,48.763864],[-102.546301,48.764111]]]}},{"type":"Feature","properties":{"zcta5":"58752","AFFGEOID10":"8600000US58752","GEOID10":"58752","ALAND10":174845656,"AWATER10":1979546,"county_name":"Burke","state_code":"ND","county_state":"Burke County, ND","county_fips":"38013","risk_level_county":"Lower Risk (80–84% vaccinated)","mean_vaccination_rate_county":81.49,"risk_level_zcta":"Higher Risk (60–69% vaccinated)","mean_vaccination_rate_zips":63.43,"cases":38},"geometry":{"type":"Polygon","coordinates":[[[-102.655804,48.937858],[-102.655865,48.901543],[-102.676856,48.901561],[-102.676999,48.887297],[-102.655863,48.887298],[-102.655816,48.880174],[-102.653009,48.881041],[-102.650979,48.879865],[-102.611932,48.879837],[-102.611819,48.849243],[-102.609938,48.848298],[-102.61049,48.847619],[-102.611791,48.84746],[-102.611925,48.845237],[-102.608845,48.842541],[-102.609025,48.836379],[-102.603221,48.836383],[-102.601056,48.835727],[-102.601072,48.82192],[-102.611988,48.82191],[-102.612064,48.820667],[-102.612032,48.785666],[-102.633938,48.785658],[-102.633978,48.803642],[-102.63439,48.807393],[-102.673218,48.807496],[-102.677308,48.807427],[-102.677613,48.763903],[-102.635257,48.763994],[-102.633944,48.763756],[-102.634061,48.761489],[-102.632978,48.760167],[-102.633893,48.758267],[-102.633961,48.74743],[-102.633396,48.745394],[-102.634054,48.743151],[-102.633952,48.736641],[-102.635074,48.73494],[-102.635032,48.732641],[-102.633856,48.730336],[-102.633844,48.720467],[-102.611892,48.720455],[-102.612022,48.730234],[-102.611755,48.734362],[-102.6102,48.734928],[-102.590094,48.734922],[-102.590087,48.762012],[-102.589896,48.76558],[-102.585324,48.766859],[-102.571037,48.773075],[-102.568434,48.774952],[-102.568185,48.769417],[-102.566087,48.768133],[-102.563975,48.768328],[-102.557934,48.765584],[-102.55466,48.765218],[-102.546307,48.76516],[-102.546301,48.764111],[-102.5026,48.763864],[-102.502641,48.807382],[-102.50254,48.879795],[-102.546101,48.879767],[-102.545987,48.908697],[-102.568019,48.908752],[-102.568014,48.92321],[-102.611893,48.923285],[-102.61191,48.908804],[-102.633982,48.908826],[-102.633929,48.935947],[-102.634825,48.937002],[-102.63389,48.937821],[-102.611877,48.937834],[-102.611878,48.952304],[-102.655772,48.952353],[-102.655804,48.937858]]]}},{"type":"Feature","properties":{"zcta5":"58727","AFFGEOID10":"8600000US58727","GEOID10":"58727","ALAND10":644807598,"AWATER10":8337686,"county_name":"Burke","state_code":"ND","county_state":"Burke County, ND","county_fips":"38013","risk_level_county":"Lower Risk (80–84% vaccinated)","mean_vaccination_rate_county":81.49,"risk_level_zcta":"Lower Risk (80–84% vaccinated)","mean_vaccination_rate_zips":84.53,"cases":38},"geometry":{"type":"Polygon","coordinates":[[[-102.93877696099301,48.9994577570233],[-102.939758,48.750508],[-102.939891,48.748317],[-102.939932,48.720469],[-102.885686,48.720488],[-102.886063,48.702711],[-102.885774,48.70015],[-102.885748,48.662254],[-102.864789,48.662274],[-102.864837,48.676743],[-102.821072,48.67678],[-102.821176,48.680395],[-102.822086,48.683478],[-102.820477,48.686863],[-102.821001,48.689865],[-102.819636,48.690957],[-102.819635,48.693248],[-102.818817,48.695026],[-102.819384,48.698705],[-102.821663,48.703371],[-102.821084,48.706762],[-102.821076,48.720554],[-102.81846,48.720449],[-102.755678,48.720517],[-102.754856,48.714784],[-102.754052,48.718032],[-102.754035,48.720514],[-102.668595,48.7205],[-102.649463,48.720239],[-102.644311,48.720483],[-102.633844,48.720467],[-102.633856,48.730336],[-102.635032,48.732641],[-102.635074,48.73494],[-102.633952,48.736641],[-102.634054,48.743151],[-102.633396,48.745394],[-102.633961,48.74743],[-102.633893,48.758267],[-102.632978,48.760167],[-102.634061,48.761489],[-102.633944,48.763756],[-102.635257,48.763994],[-102.677613,48.763903],[-102.677308,48.807427],[-102.673218,48.807496],[-102.63439,48.807393],[-102.633978,48.803642],[-102.633938,48.785658],[-102.612032,48.785666],[-102.612064,48.820667],[-102.611988,48.82191],[-102.601072,48.82192],[-102.601056,48.835727],[-102.603221,48.836383],[-102.609025,48.836379],[-102.608845,48.842541],[-102.611925,48.845237],[-102.611791,48.84746],[-102.61049,48.847619],[-102.609938,48.848298],[-102.611819,48.849243],[-102.611932,48.879837],[-102.650979,48.879865],[-102.653009,48.881041],[-102.655816,48.880174],[-102.655863,48.887298],[-102.676999,48.887297],[-102.676856,48.901561],[-102.655865,48.901543],[-102.655804,48.937858],[-102.676759,48.93784],[-102.676589,48.966796],[-102.742609,48.96679],[-102.742021,48.955501],[-102.737999,48.956175],[-102.7364,48.953218],[-102.732897,48.953365],[-102.731959,48.95193],[-102.733414,48.949916],[-102.731885,48.945407],[-102.736079,48.944074],[-102.731016,48.941875],[-102.729145,48.944429],[-102.727655,48.944769],[-102.726925,48.942984],[-102.725018,48.942868],[-102.724012,48.941677],[-102.721134,48.942382],[-102.71794,48.940431],[-102.714538,48.93957],[-102.713148,48.938083],[-102.713252,48.93694],[-102.716825,48.935214],[-102.717102,48.934272],[-102.715023,48.934175],[-102.7136,48.930665],[-102.718142,48.928341],[-102.718558,48.927148],[-102.717317,48.9247],[-102.720749,48.924744],[-102.720753,48.92335],[-102.742729,48.923358],[-102.74267,48.937875],[-102.764624,48.937841],[-102.764462,48.979959],[-102.764591,48.981804],[-102.766796,48.984244],[-102.77064,48.984504],[-102.773155,48.984192],[-102.776115,48.985788],[-102.777207,48.987002],[-102.777763,48.989488],[-102.780637,48.990649],[-102.785062,48.990356],[-102.786468,48.988572],[-102.797521,48.988555],[-102.797557,48.994137],[-102.800999,48.995398],[-102.805217,48.997727],[-102.805207949706,48.9993682860406],[-102.850455,48.999431],[-102.93877696099301,48.9994577570233]]]}},{"type":"Feature","properties":{"zcta5":"58773","AFFGEOID10":"8600000US58773","GEOID10":"58773","ALAND10":808660797,"AWATER10":25503717,"county_name":"Burke","state_code":"ND","county_state":"Burke County, ND","county_fips":"38013","risk_level_county":"Lower Risk (80–84% vaccinated)","mean_vaccination_rate_county":81.49,"risk_level_zcta":"Higher Risk (60–69% vaccinated)","mean_vaccination_rate_zips":69.23,"cases":38},"geometry":{"type":"Polygon","coordinates":[[[-102.885748,48.662254],[-102.885775,48.633298],[-102.885782,48.618783],[-102.84287,48.618805],[-102.842713,48.546404],[-102.809941,48.546394],[-102.809646,48.546337],[-102.755309,48.546277],[-102.754971,48.515118],[-102.753375,48.515394],[-102.7479,48.513775],[-102.745791,48.514052],[-102.743278,48.51273],[-102.743894,48.510971],[-102.745785,48.510924],[-102.746127,48.509508],[-102.749909,48.50962],[-102.75078,48.508201],[-102.748531,48.506788],[-102.749765,48.504481],[-102.752326,48.503085],[-102.752671,48.502125],[-102.750854,48.500525],[-102.748867,48.500513],[-102.748825,48.499133],[-102.750939,48.498102],[-102.750061,48.496208],[-102.747341,48.493126],[-102.747443,48.491732],[-102.74547,48.490061],[-102.747491,48.489944],[-102.749696,48.488933],[-102.752406,48.489385],[-102.75201,48.491812],[-102.750293,48.492503],[-102.752652,48.493199],[-102.754256,48.495331],[-102.758554,48.498244],[-102.762478,48.499411],[-102.774153,48.499461],[-102.777254,48.49926],[-102.777261,48.488469],[-102.799,48.48834],[-102.799058,48.470383],[-102.793928,48.47052],[-102.792396,48.471044],[-102.788177,48.46902],[-102.786979,48.468917],[-102.784797,48.46721],[-102.777396,48.465528],[-102.774189,48.465537],[-102.772672,48.464509],[-102.771941,48.462673],[-102.773375,48.461488],[-102.773477,48.459545],[-102.760332,48.459658],[-102.751835,48.45954],[-102.751784,48.457436],[-102.750119,48.455825],[-102.751545,48.450254],[-102.755552,48.452098],[-102.758432,48.4517],[-102.758107,48.450196],[-102.762007,48.448406],[-102.763699,48.449027],[-102.764859,48.452265],[-102.766966,48.454078],[-102.770399,48.455749],[-102.777267,48.455844],[-102.777293,48.459475],[-102.793701,48.459488],[-102.798857,48.459377],[-102.79906,48.458367],[-102.798888,48.430486],[-102.788194,48.430295],[-102.777318,48.430492],[-102.772912,48.432233],[-102.770883,48.430828],[-102.766485,48.430533],[-102.765042,48.429247],[-102.763305,48.426245],[-102.761777,48.426619],[-102.760576,48.429133],[-102.75916,48.430466],[-102.755612,48.427512],[-102.752349,48.425117],[-102.748463,48.421716],[-102.748427,48.420414],[-102.749903,48.420184],[-102.749351,48.417923],[-102.75294,48.418858],[-102.7538,48.41726],[-102.751502,48.416687],[-102.752328,48.414677],[-102.751712,48.413397],[-102.753326,48.412461],[-102.751199,48.411958],[-102.749756,48.412462],[-102.749925,48.40995],[-102.747247,48.408306],[-102.746112,48.406319],[-102.743333,48.406389],[-102.743847,48.405247],[-102.741408,48.403634],[-102.712142,48.403986],[-102.712098,48.373451],[-102.712807,48.372626],[-102.699307,48.372589],[-102.635895,48.372654],[-102.635908,48.379882],[-102.632469,48.380287],[-102.629857,48.37991],[-102.624864,48.380059],[-102.624817,48.401168],[-102.603222,48.401121],[-102.60288,48.40499],[-102.559958,48.405021],[-102.559487,48.407963],[-102.560319,48.412773],[-102.559949,48.414457],[-102.559937,48.421987],[-102.560595,48.42402],[-102.559968,48.425905],[-102.559936,48.440219],[-102.557183,48.441222],[-102.551328,48.441602],[-102.546594,48.44161],[-102.543601,48.44367],[-102.542182,48.443724],[-102.540343,48.445095],[-102.559923,48.44507],[-102.559961,48.488509],[-102.581714,48.48853],[-102.581731,48.513826],[-102.580519,48.517458],[-102.581749,48.518938],[-102.57868,48.518669],[-102.57584,48.517505],[-102.55997,48.51748],[-102.559968,48.532001],[-102.49455,48.532044],[-102.494531,48.546568],[-102.461803,48.546485],[-102.462198,48.547733],[-102.460211,48.549343],[-102.460511,48.552836],[-102.458937,48.554572],[-102.458018,48.560944],[-102.445593,48.560916],[-102.444844,48.563737],[-102.445197,48.565677],[-102.446968,48.56699],[-102.447551,48.568808],[-102.451063,48.572052],[-102.451498,48.578177],[-102.451292,48.579165],[-102.449324,48.579382],[-102.4488,48.581695],[-102.451188,48.585932],[-102.451713,48.59006],[-102.448689,48.59462],[-102.448593,48.596979],[-102.447727,48.598397],[-102.444727,48.600879],[-102.440986,48.602185],[-102.435619,48.603296],[-102.435192,48.604153],[-102.435294,48.608772],[-102.436459,48.609979],[-102.435734,48.610805],[-102.435588,48.613161],[-102.436717,48.614668],[-102.436866,48.616674],[-102.434815,48.619482],[-102.43732,48.619806],[-102.440862,48.618832],[-102.450387,48.619044],[-102.451529,48.618746],[-102.451692,48.633458],[-102.4608,48.633298],[-102.467334,48.633493],[-102.494315,48.6335],[-102.493825,48.649969],[-102.493911,48.676864],[-102.47339,48.676863],[-102.473315,48.695591],[-102.481747,48.695559],[-102.48733,48.69735],[-102.487157,48.699301],[-102.489938,48.700125],[-102.487511,48.70292],[-102.490061,48.70559],[-102.493962,48.705098],[-102.494102,48.720202],[-102.500451,48.720438],[-102.54659,48.720428],[-102.546288,48.735033],[-102.546301,48.764111],[-102.546307,48.76516],[-102.55466,48.765218],[-102.557934,48.765584],[-102.563975,48.768328],[-102.566087,48.768133],[-102.568185,48.769417],[-102.568434,48.774952],[-102.571037,48.773075],[-102.585324,48.766859],[-102.589896,48.76558],[-102.590087,48.762012],[-102.590094,48.734922],[-102.6102,48.734928],[-102.611755,48.734362],[-102.612022,48.730234],[-102.611892,48.720455],[-102.633844,48.720467],[-102.644311,48.720483],[-102.649463,48.720239],[-102.668595,48.7205],[-102.754035,48.720514],[-102.754052,48.718032],[-102.754856,48.714784],[-102.755678,48.720517],[-102.81846,48.720449],[-102.821076,48.720554],[-102.821084,48.706762],[-102.821663,48.703371],[-102.819384,48.698705],[-102.818817,48.695026],[-102.819635,48.693248],[-102.819636,48.690957],[-102.821001,48.689865],[-102.820477,48.686863],[-102.822086,48.683478],[-102.821176,48.680395],[-102.821072,48.67678],[-102.864837,48.676743],[-102.864789,48.662274],[-102.885748,48.662254]]]}},{"type":"Feature","properties":{"zcta5":"58746","AFFGEOID10":"8600000US58746","GEOID10":"58746","ALAND10":1132220278,"AWATER10":23658690,"county_name":"Burke","state_code":"ND","county_state":"Burke County, ND","county_fips":"38013","risk_level_county":"Lower Risk (80–84% vaccinated)","mean_vaccination_rate_county":81.49,"risk_level_zcta":"Higher Risk (60–69% vaccinated)","mean_vaccination_rate_zips":69.67,"cases":38},"geometry":{"type":"Polygon","coordinates":[[[-102.451692,48.633458],[-102.451529,48.618746],[-102.450387,48.619044],[-102.440862,48.618832],[-102.43732,48.619806],[-102.434815,48.619482],[-102.436866,48.616674],[-102.436717,48.614668],[-102.435588,48.613161],[-102.435734,48.610805],[-102.436459,48.609979],[-102.435294,48.608772],[-102.435192,48.604153],[-102.435619,48.603296],[-102.429142,48.605706],[-102.427386,48.607637],[-102.423379,48.608948],[-102.420374,48.608803],[-102.413533,48.609958],[-102.407701,48.610061],[-102.407671,48.618772],[-102.364175,48.618695],[-102.364064,48.624137],[-102.364493,48.625028],[-102.364547,48.633304],[-102.343033,48.633286],[-102.343059,48.631456],[-102.34174,48.628743],[-102.34302,48.627564],[-102.34303,48.613751],[-102.343484,48.612109],[-102.343103,48.575174],[-102.349218,48.575513],[-102.35085,48.574574],[-102.352246,48.575246],[-102.357708,48.575167],[-102.364479,48.573378],[-102.364649,48.546238],[-102.358438,48.547059],[-102.353366,48.547082],[-102.343157,48.546395],[-102.320418,48.546302],[-102.233892,48.546339],[-102.018778,48.546471],[-102.007758,48.547448],[-101.983824,48.547123],[-101.983007,48.547228],[-101.981256,48.547856],[-101.976342,48.55217],[-101.965902,48.558309],[-101.964366,48.557294],[-101.959649,48.560711],[-101.957534,48.563953],[-101.955645,48.56445],[-101.951839,48.564229],[-101.951566,48.560882],[-101.930044,48.560978],[-101.930328,48.575431],[-101.951861,48.575389],[-101.95189,48.589859],[-101.886432,48.589926],[-101.886416,48.604397],[-101.842813,48.604448],[-101.842591,48.647846],[-101.842315,48.719039],[-101.842141,48.720143],[-101.912112,48.72019],[-101.912054,48.778037],[-101.890216,48.778079],[-101.890189,48.799994],[-101.880596,48.800035],[-101.880634,48.807031],[-101.890166,48.807026],[-101.890196,48.815055],[-101.880554,48.81509],[-101.879491,48.82148],[-101.879436,48.835963],[-101.890054,48.835936],[-101.88986,48.890175],[-101.895187,48.893744],[-101.911862,48.893907],[-101.908532,48.898951],[-101.906613,48.899309],[-101.905939,48.901048],[-101.911861,48.905639],[-101.914317,48.908253],[-101.933643,48.908579],[-101.934026,48.922737],[-101.941,48.922745],[-101.943344,48.920334],[-101.944672,48.920288],[-101.944799,48.922793],[-101.955824,48.922813],[-101.955865,48.951739],[-101.97771,48.95177],[-101.977674,48.980579],[-101.95715,48.980483],[-101.959042,48.982331],[-101.960623,48.98725],[-101.962547,48.991267],[-101.963694,48.992658],[-101.966840013918,48.999035996674],[-102.021144,48.999015],[-102.131614,48.998842],[-102.151847,48.998798],[-102.17372524710801,48.9987082113854],[-102.173667,48.995572],[-102.19376,48.995575],[-102.196511,48.99492],[-102.190778,48.992063],[-102.184064,48.991634],[-102.179239,48.989818],[-102.173048,48.986373],[-102.168268,48.981015],[-102.15423,48.973649],[-102.147461,48.969779],[-102.14346,48.967049],[-102.140877,48.966092],[-102.13247,48.960097],[-102.120421,48.952032],[-102.111326,48.948654],[-102.10857,48.947795],[-102.104879,48.94397],[-102.104118,48.941373],[-102.098592,48.937603],[-102.107062,48.937562],[-102.101095,48.933843],[-102.093151,48.929798],[-102.085054,48.926147],[-102.077768,48.921714],[-102.073608,48.918082],[-102.070577,48.91403],[-102.068732,48.910303],[-102.067555,48.906382],[-102.059887,48.891742],[-102.058973,48.887123],[-102.059666,48.88237],[-102.060627,48.880819],[-102.061892,48.879219],[-102.067834,48.87502],[-102.073419,48.872588],[-102.080464,48.866809],[-102.082735,48.863251],[-102.083479,48.859963],[-102.083513,48.856979],[-102.084498,48.851446],[-102.08412,48.847691],[-102.085018,48.844571],[-102.089211,48.839367],[-102.095697,48.834762],[-102.104369,48.830085],[-102.107613,48.827966],[-102.113682,48.822422],[-102.118167,48.815807],[-102.120069,48.811243],[-102.121123,48.807195],[-102.114368,48.807092],[-102.1093,48.807157],[-102.109258,48.77823],[-102.087299,48.778219],[-102.087207,48.749279],[-102.103458,48.749362],[-102.103678,48.750712],[-102.105604,48.751263],[-102.10812,48.749952],[-102.111742,48.7472],[-102.112424,48.746052],[-102.109987,48.744486],[-102.109542,48.742683],[-102.110771,48.742102],[-102.115817,48.742331],[-102.121652,48.742302],[-102.12739,48.739324],[-102.128923,48.737819],[-102.129786,48.734177],[-102.128387,48.729802],[-102.126858,48.72872],[-102.12218,48.72753],[-102.117552,48.725623],[-102.110997,48.721761],[-102.108973,48.720127],[-102.14728,48.720015],[-102.152545,48.720294],[-102.2336,48.72029],[-102.240047,48.720316],[-102.240027,48.734793],[-102.2838,48.734779],[-102.283853,48.72033],[-102.305712,48.720341],[-102.305695,48.749282],[-102.327577,48.749317],[-102.327598,48.722643],[-102.328213,48.721555],[-102.330829,48.72035],[-102.363511,48.720368],[-102.364184,48.691873],[-102.364037,48.687329],[-102.376935,48.676672],[-102.429656,48.676777],[-102.429731,48.663822],[-102.430311,48.66231],[-102.428694,48.660645],[-102.427935,48.656552],[-102.428848,48.655338],[-102.428462,48.651251],[-102.431093,48.64892],[-102.430745,48.647436],[-102.432052,48.641041],[-102.431206,48.638759],[-102.430831,48.633371],[-102.443763,48.633384],[-102.446221,48.632844],[-102.451692,48.633458]],[[-102.364547,48.633304],[-102.364726,48.633306],[-102.41565,48.633337],[-102.411524,48.63455],[-102.410007,48.637119],[-102.406712,48.639225],[-102.404344,48.642299],[-102.400746,48.639324],[-102.399336,48.63568],[-102.397944,48.636349],[-102.397025,48.638439],[-102.396577,48.643343],[-102.392403,48.646424],[-102.386101,48.652199],[-102.386112,48.647746],[-102.382211,48.647724],[-102.379949,48.645893],[-102.37783,48.645968],[-102.374347,48.6477],[-102.364645,48.647707],[-102.364558,48.635127],[-102.364547,48.633304]]]}}]}