{"type":"FeatureCollection","features":[{"type":"Feature","properties":{"zcta5":"28090","AFFGEOID10":"8600000US28090","GEOID10":"28090","ALAND10":242854391,"AWATER10":703018,"county_name":"Burke","state_code":"NC","county_state":"Burke County, NC","county_fips":"37023","risk_level_county":"Higher Risk (60–69% vaccinated)","mean_vaccination_rate_county":65.12,"risk_level_zcta":"Higher Risk (60–69% vaccinated)","mean_vaccination_rate_zips":67.4,"cases":22},"geometry":{"type":"Polygon","coordinates":[[[-81.695863,35.483901],[-81.696148,35.479536],[-81.69398,35.47746],[-81.692229,35.474615],[-81.691375,35.474016],[-81.689268,35.473948],[-81.688512,35.473095],[-81.689216,35.470186],[-81.690661,35.468652],[-81.689373,35.466421],[-81.689662,35.464238],[-81.691215,35.461612],[-81.69144,35.459385],[-81.690355,35.458435],[-81.690589,35.456165],[-81.692402,35.453724],[-81.694002,35.452759],[-81.69305,35.449977],[-81.693076,35.447951],[-81.693993,35.444827],[-81.693249,35.442515],[-81.691492,35.439907],[-81.688959,35.437928],[-81.683937,35.435164],[-81.681544,35.432635],[-81.67921,35.431511],[-81.676354,35.430974],[-81.675729,35.434249],[-81.674415,35.435286],[-81.671841,35.436187],[-81.667807,35.438883],[-81.668335,35.440328],[-81.667741,35.442857],[-81.665945,35.448017],[-81.66585,35.451552],[-81.662603,35.448936],[-81.660738,35.445267],[-81.657228,35.443016],[-81.652158,35.444962],[-81.650411,35.448093],[-81.648802,35.448321],[-81.649535,35.446845],[-81.649088,35.443109],[-81.651075,35.440887],[-81.649454,35.437909],[-81.650433,35.436649],[-81.652553,35.436604],[-81.64943,35.430783],[-81.648138,35.425809],[-81.645576,35.422491],[-81.642328,35.423429],[-81.638552,35.426363],[-81.635759,35.425005],[-81.631902,35.421285],[-81.63034,35.417576],[-81.628508,35.417898],[-81.628173,35.418713],[-81.628647,35.42192],[-81.625848,35.422857],[-81.625343,35.424987],[-81.623422,35.425925],[-81.621035,35.428116],[-81.617637,35.424775],[-81.616333,35.421756],[-81.616789,35.419836],[-81.621661,35.419092],[-81.621199,35.417375],[-81.623744,35.413843],[-81.626064,35.409308],[-81.629755,35.407939],[-81.623785,35.401646],[-81.623185,35.399954],[-81.627348,35.398511],[-81.628561,35.399862],[-81.633693,35.403211],[-81.635467,35.399249],[-81.636534,35.3952],[-81.639096,35.387248],[-81.636711,35.38696],[-81.634612,35.385221],[-81.633081,35.384704],[-81.62694,35.385078],[-81.62476,35.386541],[-81.620528,35.387696],[-81.615648,35.389754],[-81.604456,35.392114],[-81.600448,35.392298],[-81.597103,35.390386],[-81.597771,35.385221],[-81.596455,35.381762],[-81.596427,35.380344],[-81.594689,35.380628],[-81.591297,35.379731],[-81.588789,35.376981],[-81.585916,35.376435],[-81.586026,35.37322],[-81.585551,35.369229],[-81.586474,35.366666],[-81.583891,35.365943],[-81.576236,35.36455],[-81.577259,35.370371],[-81.576974,35.372469],[-81.575814,35.372393],[-81.575689,35.374013],[-81.573566,35.373914],[-81.572498,35.372647],[-81.569892,35.372294],[-81.56648,35.373201],[-81.569444,35.376014],[-81.573629,35.376831],[-81.572078,35.378786],[-81.569731,35.380004],[-81.567618,35.380095],[-81.555755,35.378184],[-81.552247,35.378856],[-81.548914,35.382146],[-81.549534,35.38322],[-81.54844,35.384802],[-81.547614,35.387852],[-81.547882,35.389045],[-81.545588,35.389319],[-81.548329,35.393349],[-81.547629,35.395501],[-81.546622,35.396372],[-81.54581,35.399073],[-81.543824,35.399805],[-81.542085,35.39567],[-81.53634,35.38964],[-81.53411,35.390192],[-81.531312,35.386718],[-81.533024,35.384896],[-81.530012,35.385106],[-81.529133,35.384015],[-81.525986,35.382588],[-81.524114,35.381191],[-81.520926,35.38126],[-81.515362,35.378879],[-81.510235,35.382531],[-81.510842,35.381019],[-81.508419,35.376075],[-81.50442,35.376731],[-81.504882,35.382391],[-81.51396,35.386087],[-81.514825,35.385405],[-81.520439,35.388738],[-81.522951,35.389345],[-81.522063,35.393546],[-81.524118,35.393652],[-81.521142,35.395178],[-81.52156,35.397629],[-81.521307,35.400835],[-81.521921,35.402667],[-81.519876,35.408118],[-81.519624,35.410866],[-81.518672,35.411965],[-81.516127,35.411895],[-81.512826,35.41359],[-81.510337,35.418043],[-81.510396,35.417388],[-81.502862,35.417137],[-81.502526,35.414],[-81.498446,35.413124],[-81.498238,35.411481],[-81.495996,35.408134],[-81.494368,35.404925],[-81.491288,35.402656],[-81.490698,35.399791],[-81.487811,35.396377],[-81.487417,35.394062],[-81.48506,35.390116],[-81.481253,35.390395],[-81.476919,35.388892],[-81.474568,35.389163],[-81.475932,35.390003],[-81.476884,35.39227],[-81.476998,35.39424],[-81.476438,35.39479],[-81.472159,35.394997],[-81.471236,35.395387],[-81.467882,35.399693],[-81.467476,35.403014],[-81.466325,35.403283],[-81.464669,35.402264],[-81.463771,35.402626],[-81.463632,35.405374],[-81.462598,35.408398],[-81.460024,35.408879],[-81.458887,35.410561],[-81.458396,35.413819],[-81.460513,35.415983],[-81.461222,35.420657],[-81.460784,35.422097],[-81.459061,35.424233],[-81.465148,35.438215],[-81.466612,35.4398],[-81.466917,35.442208],[-81.481383,35.471503],[-81.476537,35.472971],[-81.469087,35.473439],[-81.4658,35.47539],[-81.469415,35.476361],[-81.475226,35.47944],[-81.478871,35.481006],[-81.480127,35.482286],[-81.476806,35.483456],[-81.47505,35.484757],[-81.473597,35.484599],[-81.472569,35.485623],[-81.472125,35.487705],[-81.469014,35.488506],[-81.468298,35.490433],[-81.468893,35.492312],[-81.467842,35.494474],[-81.468163,35.497519],[-81.467524,35.498808],[-81.468609,35.50025],[-81.467865,35.502046],[-81.469051,35.50263],[-81.469262,35.504438],[-81.471408,35.50785],[-81.475135,35.509382],[-81.478656,35.509481],[-81.479735,35.499252],[-81.482327,35.494675],[-81.483709,35.493281],[-81.487145,35.490924],[-81.49167,35.486823],[-81.495244,35.494098],[-81.500993,35.502837],[-81.513004,35.523317],[-81.510619,35.529643],[-81.509628,35.535065],[-81.509111,35.540023],[-81.509218,35.550352],[-81.515421,35.558297],[-81.526078,35.561134],[-81.526619,35.563399],[-81.525926,35.567885],[-81.523538,35.567802],[-81.523376,35.568637],[-81.518114,35.57145],[-81.517257,35.572399],[-81.517755,35.573494],[-81.51644,35.574588],[-81.515611,35.576263],[-81.512173,35.57769],[-81.510654,35.580119],[-81.510313,35.581236],[-81.511313,35.584721],[-81.515299,35.582788],[-81.516434,35.585596],[-81.519104,35.586649],[-81.520295,35.588309],[-81.534359,35.568811],[-81.534947,35.568123],[-81.535632,35.567324],[-81.535559,35.571798],[-81.534771,35.574048],[-81.536132,35.576422],[-81.536735,35.579593],[-81.53779,35.581648],[-81.537489,35.582837],[-81.538429,35.583021],[-81.540515,35.582224],[-81.541404,35.579619],[-81.543106,35.578779],[-81.543766,35.577322],[-81.546343,35.5768],[-81.546754,35.574261],[-81.548234,35.572634],[-81.549626,35.573118],[-81.550602,35.571546],[-81.552218,35.571645],[-81.549674,35.570587],[-81.548451,35.569212],[-81.54805,35.567287],[-81.545926,35.566009],[-81.545299,35.564721],[-81.547403,35.564601],[-81.5492,35.563894],[-81.551564,35.563879],[-81.555574,35.562244],[-81.561061,35.562932],[-81.564572,35.561195],[-81.566574,35.559813],[-81.56678,35.558448],[-81.569799,35.558311],[-81.573187,35.558679],[-81.574188,35.559724],[-81.578859,35.557816],[-81.580219,35.554514],[-81.58153,35.553444],[-81.584776,35.554587],[-81.586183,35.5558],[-81.587457,35.555397],[-81.58871,35.55369],[-81.590156,35.548434],[-81.589784,35.547532],[-81.584372,35.543711],[-81.582444,35.545524],[-81.582133,35.546577],[-81.580267,35.54562],[-81.577001,35.54651],[-81.574921,35.549115],[-81.570843,35.550893],[-81.567724,35.553931],[-81.566056,35.553197],[-81.564169,35.551458],[-81.562024,35.551543],[-81.559484,35.548539],[-81.55968,35.545332],[-81.556654,35.537783],[-81.562688,35.531184],[-81.56422,35.532442],[-81.563252,35.527286],[-81.563705,35.524084],[-81.562909,35.520096],[-81.563101,35.516743],[-81.567343,35.515298],[-81.571777,35.514715],[-81.575402,35.5201],[-81.576064,35.516162],[-81.581326,35.512805],[-81.580369,35.511326],[-81.578107,35.511643],[-81.574867,35.511203],[-81.570916,35.50719],[-81.574043,35.507441],[-81.57525,35.502396],[-81.578788,35.499868],[-81.57978,35.501597],[-81.581784,35.499638],[-81.582235,35.496805],[-81.585111,35.4941],[-81.585871,35.492312],[-81.590508,35.492498],[-81.602006,35.494309],[-81.599903,35.49066],[-81.615181,35.487903],[-81.615099,35.484658],[-81.61504,35.479871],[-81.62224,35.479978],[-81.623372,35.481691],[-81.625971,35.484025],[-81.630504,35.484558],[-81.630125,35.480338],[-81.632805,35.48046],[-81.635437,35.478972],[-81.638171,35.478318],[-81.638769,35.480457],[-81.642007,35.479496],[-81.642745,35.481983],[-81.646674,35.484524],[-81.648688,35.485216],[-81.653455,35.488776],[-81.654007,35.484406],[-81.658172,35.481064],[-81.658424,35.479438],[-81.656325,35.478819],[-81.655749,35.477873],[-81.658332,35.477208],[-81.659489,35.476186],[-81.661449,35.47598],[-81.662345,35.474377],[-81.665705,35.472247],[-81.670935,35.473601],[-81.669928,35.47451],[-81.669613,35.477707],[-81.672343,35.479402],[-81.673817,35.476435],[-81.678107,35.47834],[-81.678722,35.479004],[-81.684113,35.479096],[-81.688914,35.477539],[-81.69051,35.478524],[-81.692694,35.481318],[-81.695863,35.483901]]]}},{"type":"Feature","properties":{"zcta5":"28645","AFFGEOID10":"8600000US28645","GEOID10":"28645","ALAND10":854491955,"AWATER10":1120147,"county_name":"Burke","state_code":"NC","county_state":"Burke County, NC","county_fips":"37023","risk_level_county":"Higher Risk (60–69% vaccinated)","mean_vaccination_rate_county":65.12,"risk_level_zcta":"Higher Risk (60–69% vaccinated)","mean_vaccination_rate_zips":69.92,"cases":22},"geometry":{"type":"Polygon","coordinates":[[[-81.755792,35.92534],[-81.752523,35.924426],[-81.750466,35.921716],[-81.74863,35.921128],[-81.747969,35.918727],[-81.74573,35.916378],[-81.746029,35.914878],[-81.745524,35.911808],[-81.744587,35.908683],[-81.742707,35.908335],[-81.740016,35.907183],[-81.734883,35.90261],[-81.733424,35.899722],[-81.730801,35.898021],[-81.728929,35.894313],[-81.72897,35.891184],[-81.726794,35.889872],[-81.724638,35.889651],[-81.72229,35.886277],[-81.719483,35.884263],[-81.719101,35.883309],[-81.717003,35.883247],[-81.714159,35.879651],[-81.713418,35.877915],[-81.710169,35.875178],[-81.639217,35.848346],[-81.632245,35.83579],[-81.626109,35.833482],[-81.626801,35.832177],[-81.630065,35.830377],[-81.610385,35.819612],[-81.603018,35.823832],[-81.602494,35.821143],[-81.600326,35.82029],[-81.598436,35.82049],[-81.595851,35.817444],[-81.597527,35.81461],[-81.597599,35.811382],[-81.598793,35.810734],[-81.598051,35.809669],[-81.598509,35.807848],[-81.599568,35.807101],[-81.601747,35.807633],[-81.601294,35.806193],[-81.601996,35.804945],[-81.601158,35.802724],[-81.603323,35.801778],[-81.602127,35.798899],[-81.603969,35.799697],[-81.604731,35.798552],[-81.607882,35.797754],[-81.606895,35.795144],[-81.60771,35.792891],[-81.605416,35.792088],[-81.604619,35.790472],[-81.603202,35.790247],[-81.600969,35.788457],[-81.600703,35.784577],[-81.603853,35.784547],[-81.607435,35.785388],[-81.6113,35.784677],[-81.614059,35.785379],[-81.617002,35.78827],[-81.616699,35.789213],[-81.617326,35.788329],[-81.620121,35.78946],[-81.620245,35.78867],[-81.617639,35.786993],[-81.61483,35.784027],[-81.611446,35.783537],[-81.592574,35.782857],[-81.574889,35.78153],[-81.565675,35.781277],[-81.564089,35.780976],[-81.556451,35.77747],[-81.555994,35.777538],[-81.575312,35.797772],[-81.578296,35.803195],[-81.579672,35.80731],[-81.579235,35.808503],[-81.573037,35.810888],[-81.568037,35.816849],[-81.567829,35.818603],[-81.566068,35.820294],[-81.560625,35.818906],[-81.559827,35.821792],[-81.556977,35.821666],[-81.551095,35.814995],[-81.549382,35.811371],[-81.548634,35.811251],[-81.547078,35.810797],[-81.546965,35.814512],[-81.543686,35.817622],[-81.543825,35.820026],[-81.545186,35.820025],[-81.546196,35.821379],[-81.546833,35.824153],[-81.545726,35.826609],[-81.54513,35.830013],[-81.545442,35.832154],[-81.543117,35.832701],[-81.541287,35.83106],[-81.533646,35.825321],[-81.534197,35.828096],[-81.530727,35.828498],[-81.531003,35.84141],[-81.528643,35.841321],[-81.52519,35.838149],[-81.523917,35.840574],[-81.520872,35.842244],[-81.517794,35.841937],[-81.517047,35.843169],[-81.516834,35.847378],[-81.515122,35.847665],[-81.515894,35.850948],[-81.512837,35.85133],[-81.513016,35.856329],[-81.511415,35.856261],[-81.511219,35.85424],[-81.508487,35.853868],[-81.510133,35.856377],[-81.507145,35.85627],[-81.505049,35.857973],[-81.502891,35.857979],[-81.504819,35.859375],[-81.504158,35.859931],[-81.506906,35.863219],[-81.505803,35.86382],[-81.504204,35.863302],[-81.50037,35.863096],[-81.497882,35.863697],[-81.496354,35.861949],[-81.494435,35.862569],[-81.494833,35.865533],[-81.493172,35.865461],[-81.495021,35.867308],[-81.4959,35.87118],[-81.495322,35.872277],[-81.495789,35.874479],[-81.494523,35.874949],[-81.491462,35.87776],[-81.488611,35.881074],[-81.488334,35.882037],[-81.482621,35.881687],[-81.481464,35.88232],[-81.477216,35.88326],[-81.476158,35.884236],[-81.473679,35.887994],[-81.472525,35.888803],[-81.468095,35.889572],[-81.467303,35.887048],[-81.463308,35.883975],[-81.457222,35.879768],[-81.449779,35.875754],[-81.443819,35.872861],[-81.431565,35.86834],[-81.428168,35.867199],[-81.427727,35.869894],[-81.428137,35.873078],[-81.425662,35.876687],[-81.424344,35.877734],[-81.42436,35.878927],[-81.427186,35.879663],[-81.427286,35.883051],[-81.425183,35.883811],[-81.424145,35.886765],[-81.422805,35.888929],[-81.423668,35.890808],[-81.425266,35.891796],[-81.424908,35.892354],[-81.422633,35.894115],[-81.416651,35.896172],[-81.412719,35.894333],[-81.408657,35.893068],[-81.407617,35.891222],[-81.404671,35.887986],[-81.405113,35.885874],[-81.406918,35.884737],[-81.405729,35.883],[-81.400118,35.881901],[-81.400039,35.881072],[-81.401419,35.880022],[-81.401153,35.878497],[-81.399499,35.878459],[-81.398575,35.879206],[-81.388385,35.880388],[-81.388031,35.884153],[-81.388994,35.885291],[-81.389884,35.888042],[-81.388982,35.8893],[-81.386527,35.889873],[-81.384456,35.891328],[-81.38432,35.893919],[-81.382474,35.896028],[-81.38058,35.895479],[-81.377832,35.896374],[-81.375569,35.895519],[-81.378017,35.898919],[-81.379144,35.901454],[-81.339015,35.905047],[-81.342878,35.923285],[-81.328324,35.996583],[-81.343232,36.022304],[-81.347333,36.01646],[-81.349698,36.010633],[-81.351313,36.009545],[-81.353858,36.010573],[-81.356187,36.010113],[-81.361175,36.00726],[-81.36491,36.010147],[-81.367042,36.010565],[-81.367685,36.012456],[-81.375958,36.008114],[-81.375378,36.007404],[-81.377369,36.006236],[-81.377731,36.007257],[-81.384899,36.003579],[-81.395586,36.010847],[-81.393818,36.012663],[-81.393729,36.015136],[-81.395237,36.016132],[-81.392828,36.017154],[-81.391982,36.018588],[-81.393337,36.019565],[-81.394121,36.021284],[-81.395743,36.021333],[-81.397895,36.019326],[-81.40041,36.019492],[-81.402036,36.022147],[-81.400755,36.023732],[-81.400987,36.02531],[-81.39958,36.02564],[-81.39676,36.025235],[-81.395186,36.027417],[-81.39804,36.025939],[-81.399433,36.02645],[-81.39969,36.028115],[-81.400785,36.029473],[-81.403498,36.030226],[-81.406112,36.028875],[-81.40733,36.031363],[-81.407198,36.032833],[-81.40862,36.035514],[-81.407499,36.036196],[-81.407645,36.040573],[-81.406304,36.041849],[-81.403727,36.042937],[-81.400091,36.045552],[-81.398886,36.045455],[-81.397744,36.044121],[-81.395836,36.043759],[-81.39478,36.045497],[-81.391605,36.047057],[-81.391562,36.048345],[-81.389463,36.050128],[-81.390689,36.051761],[-81.392525,36.052078],[-81.393271,36.054017],[-81.396768,36.056905],[-81.398488,36.05967],[-81.398148,36.060871],[-81.400088,36.062848],[-81.397773,36.066431],[-81.398966,36.066562],[-81.403127,36.065453],[-81.406009,36.067228],[-81.406975,36.069162],[-81.407527,36.071888],[-81.409449,36.07073],[-81.411463,36.072883],[-81.414929,36.07267],[-81.417469,36.070907],[-81.418175,36.072097],[-81.42121,36.074511],[-81.424844,36.077824],[-81.427484,36.076403],[-81.428892,36.076363],[-81.432654,36.075098],[-81.433766,36.075937],[-81.436441,36.075058],[-81.437847,36.075345],[-81.440666,36.073207],[-81.444964,36.072513],[-81.444442,36.075263],[-81.447253,36.078108],[-81.448094,36.080823],[-81.447373,36.083016],[-81.451201,36.08459],[-81.453393,36.086963],[-81.453986,36.090494],[-81.456489,36.091453],[-81.458782,36.091382],[-81.465295,36.088463],[-81.465676,36.086421],[-81.467802,36.085536],[-81.469175,36.085958],[-81.469721,36.087373],[-81.472557,36.088602],[-81.473767,36.089943],[-81.477824,36.093293],[-81.477449,36.096825],[-81.481557,36.095908],[-81.484839,36.09612],[-81.487144,36.097851],[-81.491055,36.098531],[-81.492534,36.097509],[-81.493973,36.097738],[-81.494587,36.099731],[-81.495659,36.100584],[-81.498699,36.100454],[-81.501714,36.09963],[-81.504826,36.097977],[-81.508413,36.096977],[-81.509637,36.097876],[-81.516465,36.097476],[-81.516699,36.099149],[-81.519475,36.100097],[-81.520011,36.102596],[-81.5219,36.10263],[-81.545488,36.117475],[-81.510787,36.136713],[-81.511366,36.137942],[-81.510998,36.13982],[-81.512127,36.140141],[-81.514045,36.142478],[-81.517179,36.142754],[-81.518365,36.144014],[-81.51763,36.145273],[-81.517346,36.148364],[-81.518898,36.149555],[-81.521694,36.149763],[-81.525221,36.154481],[-81.528044,36.153909],[-81.52892,36.152856],[-81.531743,36.154987],[-81.532984,36.157643],[-81.534848,36.157232],[-81.540665,36.158927],[-81.54219,36.158172],[-81.543291,36.16179],[-81.545603,36.16353],[-81.549263,36.161412],[-81.550762,36.161668],[-81.553949,36.157801],[-81.556964,36.156874],[-81.5571,36.155952],[-81.55998,36.156135],[-81.564357,36.15719],[-81.572489,36.158154],[-81.575369,36.158865],[-81.581157,36.156507],[-81.585986,36.155683],[-81.587368,36.154768],[-81.595132,36.153394],[-81.589388,36.152153],[-81.586883,36.152597],[-81.584518,36.152412],[-81.582762,36.151546],[-81.578794,36.150849],[-81.576056,36.149327],[-81.573526,36.148823],[-81.570856,36.147233],[-81.569051,36.144383],[-81.566952,36.141991],[-81.568866,36.14175],[-81.569727,36.140583],[-81.568722,36.139048],[-81.569023,36.136626],[-81.571069,36.13619],[-81.572317,36.13505],[-81.574571,36.136094],[-81.575195,36.13308],[-81.577874,36.131774],[-81.580512,36.132738],[-81.580666,36.131742],[-81.583741,36.132506],[-81.587519,36.131334],[-81.586968,36.133161],[-81.58973,36.134674],[-81.590441,36.131727],[-81.593139,36.132677],[-81.596505,36.1326],[-81.595701,36.131271],[-81.594681,36.126785],[-81.595481,36.12537],[-81.59467,36.123143],[-81.595069,36.11859],[-81.595845,36.117851],[-81.631596,36.118199],[-81.631171,36.119775],[-81.632234,36.120862],[-81.631686,36.125085],[-81.632402,36.126697],[-81.63141,36.131125],[-81.631607,36.133211],[-81.633956,36.134309],[-81.635227,36.133613],[-81.639354,36.137299],[-81.651502,36.125754],[-81.65219,36.124799],[-81.654679,36.118375],[-81.659067,36.118504],[-81.660632,36.118399],[-81.658483,36.116883],[-81.656003,36.117812],[-81.652917,36.115083],[-81.653274,36.114704],[-81.658065,36.1137],[-81.659716,36.114713],[-81.660887,36.112596],[-81.662185,36.113133],[-81.661403,36.114303],[-81.679276,36.11949],[-81.680436,36.121432],[-81.681952,36.121984],[-81.684297,36.121803],[-81.68548,36.119754],[-81.685073,36.119252],[-81.685812,36.116319],[-81.686679,36.116017],[-81.686638,36.113741],[-81.687492,36.11306],[-81.688595,36.110015],[-81.688757,36.106602],[-81.691988,36.106053],[-81.694725,36.106135],[-81.69683,36.103997],[-81.695692,36.101001],[-81.695603,36.09749],[-81.694689,36.096588],[-81.694072,36.093901],[-81.691479,36.092676],[-81.691614,36.092049],[-81.693727,36.090136],[-81.69649,36.089416],[-81.69745,36.087806],[-81.699637,36.086448],[-81.701527,36.087124],[-81.703964,36.085277],[-81.706814,36.085238],[-81.708147,36.082594],[-81.70812,36.081196],[-81.705253,36.07839],[-81.701996,36.076368],[-81.701429,36.074857],[-81.697935,36.070911],[-81.695506,36.069654],[-81.697093,36.068631],[-81.696901,36.065961],[-81.696126,36.064814],[-81.696617,36.062512],[-81.695989,36.05833],[-81.693656,36.057136],[-81.692797,36.055162],[-81.692837,36.052612],[-81.696837,36.051536],[-81.701384,36.051826],[-81.702625,36.047278],[-81.703733,36.046768],[-81.706207,36.042211],[-81.708283,36.045648],[-81.707765,36.041035],[-81.709529,36.038824],[-81.710467,36.036762],[-81.718609,36.036279],[-81.710001,36.035555],[-81.707909,36.032587],[-81.706621,36.031944],[-81.702437,36.033252],[-81.697406,36.032025],[-81.696405,36.030884],[-81.692683,36.029409],[-81.690703,36.030083],[-81.686916,36.030522],[-81.684749,36.029428],[-81.684554,36.027418],[-81.689004,36.025371],[-81.6879,36.02212],[-81.688779,36.018322],[-81.69029,36.016424],[-81.689729,36.013083],[-81.691987,36.006299],[-81.689167,36.005594],[-81.688605,36.004094],[-81.684931,36.001627],[-81.679228,36.002408],[-81.67762,36.001971],[-81.672757,36.001761],[-81.672371,36.00285],[-81.669617,36.005086],[-81.662695,35.999855],[-81.661801,35.994334],[-81.66005,35.973584],[-81.66165,35.971516],[-81.656371,35.971579],[-81.648408,35.956928],[-81.643005,35.951818],[-81.641291,35.949856],[-81.641496,35.944482],[-81.642985,35.943622],[-81.644882,35.943996],[-81.642883,35.940175],[-81.643793,35.93933],[-81.648882,35.937135],[-81.654263,35.935625],[-81.657877,35.937082],[-81.656805,35.934928],[-81.656744,35.932706],[-81.658642,35.930335],[-81.662112,35.928893],[-81.664998,35.926914],[-81.670659,35.925129],[-81.672659,35.924805],[-81.67463,35.925749],[-81.674687,35.922697],[-81.675884,35.91944],[-81.680188,35.91899],[-81.680033,35.920188],[-81.681925,35.919934],[-81.686202,35.915589],[-81.685271,35.9143],[-81.690359,35.912418],[-81.692485,35.910986],[-81.694429,35.908051],[-81.697284,35.906245],[-81.699204,35.906599],[-81.699314,35.908935],[-81.700372,35.910352],[-81.700393,35.91206],[-81.704662,35.912898],[-81.706808,35.91463],[-81.708128,35.916732],[-81.706542,35.918096],[-81.706267,35.920104],[-81.709632,35.922755],[-81.710295,35.924775],[-81.713209,35.926061],[-81.712774,35.927021],[-81.716524,35.929616],[-81.715928,35.931452],[-81.717397,35.932119],[-81.718592,35.934685],[-81.717326,35.936171],[-81.718659,35.936669],[-81.720604,35.938969],[-81.720441,35.939613],[-81.723823,35.940279],[-81.722684,35.941873],[-81.724323,35.942502],[-81.723443,35.943091],[-81.724474,35.944697],[-81.724127,35.945643],[-81.726113,35.946992],[-81.727377,35.946742],[-81.729098,35.947654],[-81.733248,35.946764],[-81.735275,35.9494],[-81.734379,35.950688],[-81.736299,35.951225],[-81.735491,35.952274],[-81.737949,35.954509],[-81.733566,35.952053],[-81.731253,35.949938],[-81.727812,35.948961],[-81.723838,35.95038],[-81.723047,35.949737],[-81.719708,35.949095],[-81.717261,35.949893],[-81.71689,35.951624],[-81.719919,35.953696],[-81.719893,35.95496],[-81.72556,35.960305],[-81.727414,35.962701],[-81.729125,35.963629],[-81.731561,35.967102],[-81.732447,35.967212],[-81.733766,35.969316],[-81.73487,35.972476],[-81.736717,35.97364],[-81.738375,35.97603],[-81.735827,35.976609],[-81.735974,35.975697],[-81.733924,35.976358],[-81.733968,35.974635],[-81.731533,35.973151],[-81.728752,35.973602],[-81.728363,35.971298],[-81.726711,35.969862],[-81.725167,35.969446],[-81.723235,35.967928],[-81.721327,35.967519],[-81.718953,35.968528],[-81.72004,35.970815],[-81.718572,35.971303],[-81.719633,35.974539],[-81.717164,35.974065],[-81.715441,35.973134],[-81.717732,35.975611],[-81.720321,35.976425],[-81.721576,35.97853],[-81.719234,35.977102],[-81.720128,35.979088],[-81.719014,35.980337],[-81.720403,35.980656],[-81.72033,35.981704],[-81.719278,35.982817],[-81.717787,35.982693],[-81.718412,35.981583],[-81.716622,35.980811],[-81.71612,35.983197],[-81.71455,35.983096],[-81.715778,35.984117],[-81.714298,35.984215],[-81.713368,35.98535],[-81.714521,35.987644],[-81.716515,35.98997],[-81.715116,35.988896],[-81.712257,35.988169],[-81.712095,35.987604],[-81.712236,35.989921],[-81.713469,35.991394],[-81.710221,35.992245],[-81.711134,35.993326],[-81.724013,35.991559],[-81.725335,35.99236],[-81.741158,35.98896],[-81.738756,35.983036],[-81.74013,35.98136],[-81.74407,35.977721],[-81.748503,35.971226],[-81.751168,35.964607],[-81.749615,35.956188],[-81.747107,35.953507],[-81.740641,35.945305],[-81.737449,35.941565],[-81.745947,35.929242],[-81.755792,35.92534]]]}},{"type":"Feature","properties":{"zcta5":"28655","AFFGEOID10":"8600000US28655","GEOID10":"28655","ALAND10":823744701,"AWATER10":6471357,"county_name":"Burke","state_code":"NC","county_state":"Burke County, NC","county_fips":"37023","risk_level_county":"Higher Risk (60–69% vaccinated)","mean_vaccination_rate_county":65.12,"risk_level_zcta":"Higher Risk (60–69% vaccinated)","mean_vaccination_rate_zips":68.57,"cases":22},"geometry":{"type":"Polygon","coordinates":[[[-81.912764,35.900063],[-81.911286,35.898589],[-81.909437,35.898085],[-81.909763,35.894568],[-81.907441,35.889796],[-81.908049,35.886675],[-81.906652,35.883376],[-81.909743,35.878612],[-81.909788,35.877186],[-81.912187,35.874696],[-81.911856,35.873752],[-81.91251,35.871029],[-81.913631,35.869554],[-81.914167,35.866689],[-81.916779,35.863244],[-81.918083,35.860017],[-81.916555,35.858912],[-81.918035,35.856642],[-81.91758,35.851674],[-81.919242,35.848759],[-81.874818,35.817119],[-81.87551,35.813398],[-81.873503,35.811869],[-81.871989,35.807896],[-81.871044,35.806995],[-81.870718,35.805099],[-81.868145,35.801072],[-81.864264,35.798446],[-81.864585,35.794132],[-81.86706,35.794076],[-81.869178,35.792893],[-81.871295,35.792754],[-81.874198,35.795259],[-81.876299,35.79475],[-81.879517,35.794905],[-81.87993,35.792608],[-81.882082,35.792614],[-81.880012,35.79191],[-81.883155,35.792104],[-81.880717,35.791725],[-81.878612,35.790425],[-81.872738,35.789664],[-81.870448,35.787186],[-81.868638,35.786969],[-81.862093,35.779971],[-81.86076,35.779378],[-81.858168,35.776827],[-81.85802,35.774967],[-81.855996,35.771798],[-81.856525,35.768971],[-81.848158,35.759911],[-81.844987,35.757326],[-81.840428,35.755406],[-81.835662,35.750498],[-81.83589,35.749088],[-81.838871,35.747387],[-81.840596,35.745896],[-81.838495,35.743492],[-81.840776,35.741489],[-81.843186,35.740891],[-81.84579,35.736534],[-81.847026,35.735682],[-81.848355,35.733359],[-81.851238,35.732066],[-81.853173,35.730694],[-81.854309,35.728918],[-81.855947,35.72835],[-81.875063,35.731799],[-81.883189,35.729828],[-81.869388,35.719624],[-81.860934,35.692386],[-81.857006,35.679721],[-81.857987,35.67855],[-81.857338,35.67628],[-81.858705,35.674415],[-81.858845,35.672701],[-81.856574,35.670321],[-81.855711,35.668898],[-81.855481,35.666612],[-81.856569,35.660924],[-81.85489,35.657345],[-81.854739,35.652378],[-81.854919,35.650206],[-81.853523,35.650051],[-81.852719,35.652653],[-81.851773,35.654229],[-81.852322,35.655588],[-81.849801,35.656488],[-81.846235,35.644981],[-81.845751,35.644133],[-81.84578,35.643517],[-81.829492,35.592119],[-81.824122,35.574983],[-81.823607,35.577824],[-81.822619,35.578581],[-81.822268,35.580434],[-81.819248,35.579149],[-81.818492,35.57798],[-81.816852,35.578225],[-81.814103,35.580391],[-81.81012,35.581319],[-81.805663,35.58016],[-81.804147,35.578434],[-81.802838,35.578165],[-81.798783,35.579968],[-81.797549,35.583018],[-81.795667,35.585619],[-81.796622,35.587525],[-81.795745,35.591537],[-81.794058,35.593239],[-81.787417,35.594235],[-81.78389,35.592299],[-81.78063,35.591752],[-81.778161,35.592392],[-81.776591,35.592032],[-81.772686,35.592499],[-81.771311,35.594811],[-81.768548,35.595967],[-81.768338,35.597933],[-81.770136,35.599272],[-81.771972,35.601978],[-81.771145,35.602751],[-81.768336,35.602947],[-81.768176,35.604006],[-81.766121,35.606994],[-81.762585,35.607508],[-81.757361,35.609417],[-81.755259,35.611218],[-81.753407,35.613588],[-81.750414,35.611764],[-81.750208,35.610452],[-81.746823,35.605689],[-81.743227,35.605408],[-81.74128,35.604845],[-81.740372,35.60319],[-81.738998,35.603282],[-81.738044,35.602137],[-81.736434,35.601823],[-81.733417,35.601635],[-81.727388,35.603482],[-81.724566,35.604834],[-81.723794,35.606463],[-81.719919,35.606997],[-81.715836,35.602948],[-81.716553,35.601772],[-81.715206,35.601143],[-81.717382,35.59919],[-81.716231,35.598116],[-81.716786,35.596087],[-81.716326,35.595012],[-81.711888,35.591377],[-81.712138,35.589267],[-81.70956,35.589521],[-81.707529,35.586665],[-81.706752,35.584633],[-81.706991,35.583109],[-81.705653,35.581214],[-81.703521,35.581505],[-81.702296,35.58317],[-81.701834,35.581673],[-81.697035,35.578823],[-81.695889,35.579822],[-81.692538,35.578895],[-81.691989,35.580041],[-81.692673,35.582981],[-81.691055,35.584576],[-81.690206,35.586554],[-81.688692,35.586645],[-81.688159,35.587836],[-81.688944,35.589119],[-81.68673,35.590333],[-81.68558,35.59292],[-81.682216,35.594959],[-81.681879,35.598234],[-81.680589,35.598348],[-81.678149,35.602539],[-81.676972,35.603638],[-81.673606,35.604302],[-81.673297,35.603363],[-81.670045,35.603431],[-81.669176,35.601805],[-81.667914,35.601301],[-81.666021,35.601886],[-81.631822,35.626105],[-81.631767,35.625441],[-81.627189,35.627612],[-81.622302,35.62879],[-81.62003,35.629643],[-81.617132,35.629913],[-81.61623,35.629454],[-81.585236,35.631622],[-81.583265,35.63298],[-81.581285,35.633558],[-81.574919,35.633223],[-81.572054,35.632341],[-81.56837,35.632471],[-81.564299,35.630496],[-81.562286,35.631204],[-81.561064,35.628627],[-81.556593,35.628865],[-81.553552,35.629371],[-81.551752,35.630073],[-81.550589,35.633257],[-81.549333,35.634222],[-81.547496,35.633079],[-81.545205,35.634603],[-81.543612,35.634557],[-81.542994,35.632737],[-81.542928,35.634363],[-81.540957,35.64064],[-81.543816,35.641013],[-81.546448,35.640189],[-81.550536,35.640194],[-81.553583,35.636886],[-81.555154,35.639077],[-81.557921,35.641754],[-81.553179,35.642452],[-81.551432,35.644107],[-81.549557,35.647235],[-81.550525,35.651146],[-81.549921,35.652249],[-81.546004,35.652683],[-81.544404,35.654221],[-81.544844,35.656386],[-81.54209,35.657922],[-81.539905,35.658446],[-81.539607,35.659721],[-81.541233,35.663139],[-81.538418,35.662879],[-81.537623,35.664302],[-81.540201,35.664753],[-81.542631,35.668958],[-81.542357,35.670082],[-81.539021,35.66943],[-81.538886,35.670768],[-81.536179,35.673492],[-81.538351,35.675014],[-81.541192,35.676133],[-81.542175,35.6781],[-81.544817,35.681395],[-81.548011,35.682006],[-81.550294,35.685519],[-81.549508,35.688206],[-81.550258,35.69002],[-81.570668,35.683931],[-81.571963,35.686364],[-81.573092,35.686537],[-81.575182,35.685499],[-81.576353,35.687403],[-81.577662,35.688206],[-81.575455,35.689099],[-81.573531,35.690745],[-81.575435,35.690717],[-81.575963,35.692086],[-81.578393,35.692124],[-81.578867,35.695731],[-81.578233,35.697489],[-81.579853,35.696819],[-81.581341,35.69914],[-81.584781,35.699777],[-81.586545,35.699259],[-81.587112,35.701195],[-81.589921,35.703121],[-81.5894,35.706249],[-81.589628,35.707778],[-81.59131,35.710761],[-81.592781,35.711747],[-81.59423,35.710435],[-81.59499,35.712048],[-81.596129,35.711889],[-81.597567,35.713126],[-81.597303,35.716103],[-81.610246,35.716569],[-81.615609,35.716904],[-81.618146,35.716298],[-81.618064,35.714922],[-81.615638,35.711937],[-81.619273,35.714379],[-81.619141,35.715516],[-81.622378,35.714297],[-81.621798,35.717141],[-81.625686,35.71718],[-81.625648,35.719577],[-81.628685,35.719576],[-81.626032,35.71639],[-81.627249,35.714632],[-81.628396,35.717377],[-81.631833,35.720289],[-81.633407,35.723153],[-81.632622,35.723228],[-81.629767,35.724124],[-81.628161,35.725783],[-81.625144,35.726658],[-81.625105,35.72713],[-81.632621,35.726007],[-81.633179,35.726291],[-81.629253,35.726818],[-81.629211,35.727445],[-81.633371,35.727265],[-81.636131,35.731295],[-81.637022,35.731601],[-81.631839,35.735007],[-81.63221,35.736145],[-81.631346,35.738739],[-81.629081,35.739056],[-81.628886,35.740297],[-81.630676,35.740656],[-81.629898,35.742033],[-81.631503,35.744971],[-81.633465,35.744868],[-81.632085,35.746114],[-81.626664,35.744331],[-81.618169,35.744266],[-81.617266,35.747609],[-81.61557,35.74711],[-81.617226,35.744277],[-81.613177,35.744267],[-81.607395,35.745559],[-81.600717,35.74751],[-81.601945,35.748623],[-81.603941,35.747421],[-81.606371,35.747385],[-81.608997,35.745837],[-81.609283,35.749127],[-81.610439,35.750214],[-81.613123,35.750237],[-81.613648,35.751487],[-81.613971,35.755516],[-81.611529,35.754777],[-81.611097,35.756168],[-81.609931,35.755433],[-81.60701,35.756009],[-81.60701,35.756907],[-81.608914,35.756914],[-81.608748,35.758025],[-81.60481,35.756918],[-81.604414,35.758063],[-81.607195,35.758615],[-81.613266,35.760451],[-81.611424,35.76314],[-81.611449,35.760244],[-81.607552,35.759288],[-81.605827,35.760854],[-81.604321,35.760691],[-81.604635,35.761681],[-81.60663,35.763236],[-81.60957,35.76433],[-81.610345,35.765383],[-81.608361,35.768243],[-81.605443,35.768948],[-81.604127,35.767636],[-81.603488,35.767994],[-81.602954,35.768196],[-81.598726,35.769275],[-81.597101,35.770349],[-81.593397,35.771197],[-81.591765,35.767997],[-81.592509,35.76591],[-81.59439,35.765215],[-81.59588,35.763684],[-81.596276,35.759879],[-81.596194,35.756083],[-81.593254,35.754776],[-81.594811,35.751357],[-81.595039,35.750442],[-81.592414,35.748802],[-81.590153,35.748321],[-81.58987,35.74905],[-81.584493,35.749818],[-81.583769,35.754728],[-81.58413,35.756001],[-81.586113,35.755099],[-81.588368,35.753303],[-81.589789,35.75451],[-81.592812,35.755884],[-81.589908,35.759824],[-81.58935,35.762698],[-81.589768,35.763508],[-81.587651,35.765326],[-81.588044,35.76718],[-81.58747,35.7683],[-81.585447,35.76918],[-81.585515,35.770208],[-81.586062,35.770654],[-81.586116,35.771269],[-81.585859,35.771531],[-81.586146,35.771902],[-81.586296,35.773017],[-81.583431,35.773137],[-81.58008,35.774864],[-81.581019,35.777882],[-81.577282,35.777573],[-81.576325,35.779021],[-81.575009,35.778833],[-81.573216,35.780372],[-81.57047,35.779713],[-81.566417,35.7804],[-81.564596,35.779367],[-81.564737,35.777967],[-81.563462,35.778707],[-81.561608,35.778042],[-81.561547,35.776927],[-81.559767,35.777109],[-81.556788,35.776224],[-81.554503,35.77504],[-81.55113,35.775087],[-81.548742,35.774173],[-81.550007,35.773118],[-81.552029,35.773393],[-81.553154,35.772728],[-81.550018,35.772861],[-81.548009,35.774172],[-81.547033,35.777207],[-81.548025,35.776783],[-81.554103,35.776948],[-81.555994,35.777538],[-81.556451,35.77747],[-81.564089,35.780976],[-81.565675,35.781277],[-81.574889,35.78153],[-81.592574,35.782857],[-81.611446,35.783537],[-81.61483,35.784027],[-81.617639,35.786993],[-81.620245,35.78867],[-81.620121,35.78946],[-81.617326,35.788329],[-81.616699,35.789213],[-81.617002,35.78827],[-81.614059,35.785379],[-81.6113,35.784677],[-81.607435,35.785388],[-81.603853,35.784547],[-81.600703,35.784577],[-81.600969,35.788457],[-81.603202,35.790247],[-81.604619,35.790472],[-81.605416,35.792088],[-81.60771,35.792891],[-81.606895,35.795144],[-81.607882,35.797754],[-81.604731,35.798552],[-81.603969,35.799697],[-81.602127,35.798899],[-81.603323,35.801778],[-81.601158,35.802724],[-81.601996,35.804945],[-81.601294,35.806193],[-81.601747,35.807633],[-81.599568,35.807101],[-81.598509,35.807848],[-81.598051,35.809669],[-81.598793,35.810734],[-81.597599,35.811382],[-81.597527,35.81461],[-81.595851,35.817444],[-81.598436,35.82049],[-81.600326,35.82029],[-81.602494,35.821143],[-81.603018,35.823832],[-81.610385,35.819612],[-81.630065,35.830377],[-81.626801,35.832177],[-81.626109,35.833482],[-81.632245,35.83579],[-81.639217,35.848346],[-81.710169,35.875178],[-81.713418,35.877915],[-81.714159,35.879651],[-81.717003,35.883247],[-81.719101,35.883309],[-81.719483,35.884263],[-81.72229,35.886277],[-81.724638,35.889651],[-81.726794,35.889872],[-81.72897,35.891184],[-81.728929,35.894313],[-81.730801,35.898021],[-81.733424,35.899722],[-81.734883,35.90261],[-81.740016,35.907183],[-81.742707,35.908335],[-81.744587,35.908683],[-81.745524,35.911808],[-81.746029,35.914878],[-81.74573,35.916378],[-81.747969,35.918727],[-81.74863,35.921128],[-81.750466,35.921716],[-81.752523,35.924426],[-81.755792,35.92534],[-81.756818,35.92554],[-81.757172,35.927146],[-81.758733,35.928466],[-81.760578,35.926612],[-81.763702,35.925757],[-81.766142,35.927324],[-81.766519,35.928518],[-81.76959,35.929119],[-81.7726,35.928502],[-81.774722,35.926996],[-81.775607,35.926949],[-81.777692,35.929917],[-81.777237,35.931922],[-81.775387,35.933624],[-81.776584,35.935227],[-81.77814,35.935861],[-81.779751,35.938704],[-81.779525,35.940047],[-81.776804,35.941151],[-81.776563,35.942775],[-81.777528,35.944004],[-81.777449,35.947048],[-81.779066,35.946722],[-81.788386,35.948067],[-81.789396,35.949313],[-81.791901,35.94949],[-81.794534,35.951225],[-81.795671,35.950666],[-81.794996,35.94933],[-81.796185,35.948478],[-81.798014,35.950459],[-81.80008,35.950626],[-81.800549,35.953069],[-81.803464,35.954098],[-81.804613,35.954067],[-81.805091,35.956163],[-81.808849,35.958346],[-81.808738,35.959668],[-81.807132,35.961572],[-81.863602,35.928719],[-81.863823,35.927704],[-81.865489,35.927647],[-81.870449,35.924741],[-81.872505,35.923537],[-81.912764,35.900063]],[[-81.796651,35.717769],[-81.799664,35.720567],[-81.795261,35.722815],[-81.793851,35.723288],[-81.790348,35.724572],[-81.790338,35.727767],[-81.789299,35.729609],[-81.786334,35.728784],[-81.786014,35.73287],[-81.784741,35.732863],[-81.784836,35.728032],[-81.782932,35.728074],[-81.782399,35.731287],[-81.782632,35.733551],[-81.779168,35.732861],[-81.779299,35.73515],[-81.777914,35.733374],[-81.775524,35.730305],[-81.775615,35.729829],[-81.776468,35.729593],[-81.777193,35.729542],[-81.778342,35.729265],[-81.779268,35.728783],[-81.776982,35.729319],[-81.771348,35.727693],[-81.772664,35.726575],[-81.773616,35.727057],[-81.775286,35.725477],[-81.772828,35.724259],[-81.773956,35.723329],[-81.778246,35.72567],[-81.779951,35.728041],[-81.780593,35.726665],[-81.78362,35.726006],[-81.794868,35.71817],[-81.796651,35.717769]]]}},{"type":"Feature","properties":{"zcta5":"28657","AFFGEOID10":"8600000US28657","GEOID10":"28657","ALAND10":414476728,"AWATER10":167336,"county_name":"Burke","state_code":"NC","county_state":"Burke County, NC","county_fips":"37023","risk_level_county":"Higher Risk (60–69% vaccinated)","mean_vaccination_rate_county":65.12,"risk_level_zcta":"Very High Risk (<60% vaccinated)","mean_vaccination_rate_zips":56.96,"cases":22},"geometry":{"type":"Polygon","coordinates":[[[-82.080944957901,36.1057614805811],[-82.081004,36.100939],[-82.079418,36.098634],[-82.075823,36.095728],[-82.077024,36.09267],[-82.076845,36.085073],[-82.075991,36.083722],[-82.073148,36.081814],[-82.071591,36.080216],[-82.069781,36.076897],[-82.069405,36.075202],[-82.070814,36.071666],[-82.071934,36.069874],[-82.070284,36.066727],[-82.068685,36.06527],[-82.039175,36.007774],[-82.043024,36.006042],[-82.044884,36.006397],[-82.048338,36.008372],[-82.049298,36.007927],[-82.049717,36.004941],[-82.048805,36.001776],[-82.051462,36.000558],[-82.053778,36.000369],[-82.055113,35.999476],[-82.056249,35.997349],[-82.058012,35.995337],[-82.057904,35.99376],[-82.059039,35.991001],[-82.059134,35.988346],[-82.058764,35.98716],[-82.048433,35.964046],[-82.037176,35.946761],[-82.034604,35.947676],[-82.035721,35.950677],[-82.038343,35.954063],[-82.039638,35.954874],[-82.039652,35.956117],[-82.040684,35.957244],[-82.03899,35.957423],[-82.039405,35.958293],[-82.034079,35.959502],[-82.034524,35.96054],[-82.032403,35.961081],[-82.031373,35.962521],[-82.032314,35.963425],[-82.029786,35.96385],[-82.029985,35.964458],[-82.027882,35.96561],[-82.023102,35.966288],[-82.021318,35.967012],[-82.017275,35.964693],[-82.00894,35.964693],[-82.008929,35.969656],[-82.006116,35.968762],[-82.003321,35.966698],[-82.0023,35.964181],[-82.002019,35.957455],[-82.001218,35.950237],[-81.997773,35.949995],[-81.996528,35.948268],[-81.995513,35.947981],[-81.989857,35.949201],[-81.986748,35.949286],[-81.984721,35.951307],[-81.982129,35.952402],[-81.981691,35.953793],[-81.980085,35.954516],[-81.977451,35.956555],[-81.975689,35.955652],[-81.9745,35.956709],[-81.971184,35.958619],[-81.965578,35.960113],[-81.96018,35.962953],[-81.955787,35.964024],[-81.95474,35.965704],[-81.951606,35.965643],[-81.948432,35.965195],[-81.945836,35.962395],[-81.942797,35.96041],[-81.944001,35.959302],[-81.957608,35.946777],[-81.957391,35.943534],[-81.9555,35.940981],[-81.9591,35.936294],[-81.953938,35.936542],[-81.951917,35.937301],[-81.949329,35.936604],[-81.944591,35.933768],[-81.941564,35.92996],[-81.9403,35.929553],[-81.938971,35.927473],[-81.939608,35.93045],[-81.937694,35.933699],[-81.937494,35.935424],[-81.938928,35.937528],[-81.94146,35.942602],[-81.940397,35.946505],[-81.942144,35.950638],[-81.943773,35.951253],[-81.944459,35.952743],[-81.942498,35.952276],[-81.939199,35.952905],[-81.936271,35.952167],[-81.934472,35.951487],[-81.93362,35.9501],[-81.933739,35.94827],[-81.931438,35.946876],[-81.930985,35.945502],[-81.932248,35.944479],[-81.932681,35.942963],[-81.932127,35.941155],[-81.92566,35.937418],[-81.92886,35.931666],[-81.926799,35.928433],[-81.924093,35.926101],[-81.922037,35.923034],[-81.920616,35.919086],[-81.916545,35.917709],[-81.914891,35.916438],[-81.913488,35.911331],[-81.912132,35.909525],[-81.911908,35.90782],[-81.910319,35.905524],[-81.911488,35.903581],[-81.914307,35.901395],[-81.912764,35.900063],[-81.872505,35.923537],[-81.870449,35.924741],[-81.865489,35.927647],[-81.863823,35.927704],[-81.863602,35.928719],[-81.807132,35.961572],[-81.807162,35.961955],[-81.779103,36.003889],[-81.779674,36.004945],[-81.779072,36.007106],[-81.780039,36.008199],[-81.780072,36.009634],[-81.781072,36.011327],[-81.780341,36.012332],[-81.78124,36.01369],[-81.78078,36.014718],[-81.781997,36.015911],[-81.782369,36.018225],[-81.781351,36.021617],[-81.781279,36.02389],[-81.78206,36.024739],[-81.782931,36.024093],[-81.784475,36.024671],[-81.786038,36.026317],[-81.787838,36.02641],[-81.788138,36.028769],[-81.790762,36.031358],[-81.793122,36.032573],[-81.795877,36.033472],[-81.795918,36.034053],[-81.797875,36.032345],[-81.800583,36.032261],[-81.800713,36.029923],[-81.802229,36.029701],[-81.803471,36.031936],[-81.803542,36.033204],[-81.805626,36.034743],[-81.808838,36.034903],[-81.812699,36.034378],[-81.815618,36.03504],[-81.818374,36.038374],[-81.821776,36.038874],[-81.823566,36.040044],[-81.825889,36.039811],[-81.825316,36.038755],[-81.826949,36.038231],[-81.828408,36.036869],[-81.831645,36.0376],[-81.831279,36.040308],[-81.835774,36.041681],[-81.836596,36.040329],[-81.838342,36.041315],[-81.83936,36.040209],[-81.841833,36.04206],[-81.842771,36.04419],[-81.845387,36.044213],[-81.847267,36.044711],[-81.849316,36.043963],[-81.850917,36.045682],[-81.847148,36.048113],[-81.847105,36.048748],[-81.849702,36.05082],[-81.853079,36.051874],[-81.854968,36.05093],[-81.857945,36.050314],[-81.859083,36.049047],[-81.863603,36.046068],[-81.870909,36.046816],[-81.878506,36.048265],[-81.884332,36.050459],[-81.881487,36.05423],[-81.880734,36.057296],[-81.881676,36.060936],[-81.881164,36.06769],[-81.881414,36.068983],[-81.879009,36.069899],[-81.879933,36.071912],[-81.877103,36.073285],[-81.875836,36.073363],[-81.875791,36.076126],[-81.877776,36.079191],[-81.877935,36.080848],[-81.876998,36.083616],[-81.87785,36.086007],[-81.877056,36.087334],[-81.878269,36.088163],[-81.878232,36.091488],[-81.880106,36.093561],[-81.879921,36.096803],[-81.880875,36.098941],[-81.880433,36.101002],[-81.877857,36.105436],[-81.880022,36.108877],[-81.879415,36.113865],[-81.883599,36.113512],[-81.885676,36.114012],[-81.886916,36.115014],[-81.887528,36.118225],[-81.885495,36.122006],[-81.883184,36.124221],[-81.883105,36.126758],[-81.885772,36.129198],[-81.888815,36.129539],[-81.89271,36.125589],[-81.894318,36.123334],[-81.894663,36.120438],[-81.902355,36.117026],[-81.909414,36.114145],[-81.906679,36.119577],[-81.905792,36.120719],[-81.906933,36.12442],[-81.908704,36.126143],[-81.910924,36.122483],[-81.910796,36.118792],[-81.911317,36.117979],[-81.916943,36.12337],[-81.91809,36.125444],[-81.921417,36.126799],[-81.922432,36.128517],[-81.924096,36.129501],[-81.926746,36.130072],[-81.927607,36.130996],[-81.932145,36.131798],[-81.932837,36.130475],[-81.934873,36.129539],[-81.935856,36.130172],[-81.937963,36.134884],[-81.940981,36.135096],[-81.945731,36.13609],[-81.949892,36.137387],[-81.949703,36.129279],[-81.956379,36.137494],[-81.966903,36.146342],[-81.966526,36.152044],[-81.969391,36.152051],[-81.970552,36.153276],[-81.976535,36.147712],[-81.97878,36.144742],[-81.982712,36.143492],[-81.989247,36.142322],[-81.998417,36.142639],[-82.005199,36.141805],[-82.01158,36.14003],[-82.013042,36.143861],[-82.0165204661661,36.145112416720096],[-82.02664,36.130222],[-82.02634,36.129222],[-82.02874,36.124322],[-82.033141,36.120422],[-82.037941,36.121122],[-82.043941,36.125421],[-82.054142,36.126821],[-82.056042,36.123921],[-82.056042,36.120721],[-82.061342,36.113121],[-82.067142,36.11202],[-82.079743,36.10652],[-82.080143,36.10572],[-82.080944957901,36.1057614805811]],[[-81.990328,36.097911],[-81.991954,36.098935],[-81.98959,36.102456],[-81.986431,36.102529],[-81.984736,36.099398],[-81.978465,36.099476],[-81.982078,36.098338],[-81.986946,36.09976],[-81.990328,36.097911]],[[-81.907131,36.010453],[-81.907529,36.008253],[-81.907025,36.006351],[-81.907521,36.004479],[-81.910117,36.004589],[-81.91188,36.003391],[-81.914692,36.004087],[-81.916149,36.006463],[-81.918942,36.007988],[-81.920678,36.009603],[-81.923398,36.010793],[-81.925156,36.012772],[-81.926119,36.015457],[-81.92781,36.016736],[-81.929722,36.015952],[-81.930713,36.01477],[-81.931115,36.012642],[-81.932036,36.012894],[-81.93109,36.016785],[-81.935067,36.018038],[-81.937428,36.021188],[-81.937144,36.024646],[-81.938742,36.025295],[-81.936621,36.025542],[-81.936652,36.027795],[-81.938187,36.029957],[-81.935931,36.030504],[-81.935823,36.032155],[-81.934211,36.03315],[-81.932132,36.031939],[-81.928553,36.03179],[-81.925482,36.029515],[-81.925591,36.027863],[-81.924604,36.027528],[-81.924926,36.02924],[-81.924457,36.031975],[-81.924974,36.03485],[-81.924301,36.038723],[-81.923298,36.039925],[-81.918315,36.038901],[-81.91526,36.037003],[-81.915363,36.03878],[-81.914117,36.042005],[-81.914195,36.045392],[-81.912988,36.04506],[-81.908212,36.041147],[-81.908882,36.039767],[-81.908094,36.036894],[-81.913934,36.033777],[-81.91314,36.033231],[-81.911967,36.034735],[-81.909165,36.034822],[-81.902136,36.031047],[-81.900239,36.030934],[-81.898258,36.03263],[-81.897091,36.032776],[-81.895719,36.03103],[-81.896064,36.028849],[-81.894166,36.028273],[-81.891619,36.028277],[-81.891894,36.026211],[-81.887285,36.026088],[-81.884934,36.024813],[-81.884449,36.023033],[-81.882632,36.019379],[-81.886763,36.017551],[-81.890073,36.012435],[-81.890059,36.009929],[-81.891658,36.007034],[-81.892458,36.006641],[-81.893375,36.008127],[-81.895356,36.013712],[-81.895284,36.015571],[-81.894175,36.019102],[-81.895213,36.019615],[-81.897246,36.019373],[-81.896375,36.016314],[-81.897602,36.01339],[-81.897691,36.010467],[-81.899166,36.008665],[-81.900931,36.008912],[-81.903717,36.011012],[-81.907131,36.010453]]]}},{"type":"Feature","properties":{"zcta5":"28666","AFFGEOID10":"8600000US28666","GEOID10":"28666","ALAND10":1204551,"AWATER10":0,"county_name":"Burke","state_code":"NC","county_state":"Burke County, NC","county_fips":"37023","risk_level_county":"Higher Risk (60–69% vaccinated)","mean_vaccination_rate_county":65.12,"risk_level_zcta":"Uninhabited","mean_vaccination_rate_zips":null,"cases":22},"geometry":{"type":"MultiPolygon","coordinates":[[[[-81.467815,35.71964],[-81.468392,35.720066],[-81.472414,35.721519],[-81.473421,35.719706],[-81.473189,35.717474],[-81.469093,35.715495],[-81.467395,35.718441],[-81.467815,35.71964]]],[[[-81.464417,35.719045],[-81.462328,35.722768],[-81.469167,35.725016],[-81.471002,35.726162],[-81.473177,35.726411],[-81.476242,35.722996],[-81.46819,35.720431],[-81.464417,35.719045]]],[[[-81.473498,35.72981],[-81.477861,35.730205],[-81.470362,35.72673],[-81.469256,35.729369],[-81.469351,35.733536],[-81.471314,35.736776],[-81.475186,35.733679],[-81.474179,35.73233],[-81.473498,35.72981]]]]}},{"type":"Feature","properties":{"zcta5":"28628","AFFGEOID10":"8600000US28628","GEOID10":"28628","ALAND10":1334708,"AWATER10":0,"county_name":"Burke","state_code":"NC","county_state":"Burke County, NC","county_fips":"37023","risk_level_county":"Higher Risk (60–69% vaccinated)","mean_vaccination_rate_county":65.12,"risk_level_zcta":"Uninhabited","mean_vaccination_rate_zips":null,"cases":22},"geometry":{"type":"Polygon","coordinates":[[[-81.796651,35.717769],[-81.794868,35.71817],[-81.78362,35.726006],[-81.780593,35.726665],[-81.779951,35.728041],[-81.778246,35.72567],[-81.773956,35.723329],[-81.772828,35.724259],[-81.775286,35.725477],[-81.773616,35.727057],[-81.772664,35.726575],[-81.771348,35.727693],[-81.776982,35.729319],[-81.779268,35.728783],[-81.778342,35.729265],[-81.777193,35.729542],[-81.776468,35.729593],[-81.775615,35.729829],[-81.775524,35.730305],[-81.777914,35.733374],[-81.779299,35.73515],[-81.779168,35.732861],[-81.782632,35.733551],[-81.782399,35.731287],[-81.782932,35.728074],[-81.784836,35.728032],[-81.784741,35.732863],[-81.786014,35.73287],[-81.786334,35.728784],[-81.789299,35.729609],[-81.790338,35.727767],[-81.790348,35.724572],[-81.793851,35.723288],[-81.795261,35.722815],[-81.799664,35.720567],[-81.796651,35.717769]]]}},{"type":"Feature","properties":{"zcta5":"28602","AFFGEOID10":"8600000US28602","GEOID10":"28602","ALAND10":180426589,"AWATER10":1124330,"county_name":"Burke","state_code":"NC","county_state":"Burke County, NC","county_fips":"37023","risk_level_county":"Higher Risk (60–69% vaccinated)","mean_vaccination_rate_county":65.12,"risk_level_zcta":"Higher Risk (60–69% vaccinated)","mean_vaccination_rate_zips":64.79,"cases":22},"geometry":{"type":"MultiPolygon","coordinates":[[[[-81.268611,35.722077],[-81.26757,35.721289],[-81.266329,35.72239],[-81.266076,35.722609],[-81.26704,35.723307],[-81.268611,35.722077]]],[[[-81.469093,35.715495],[-81.469279,35.714425],[-81.471641,35.709633],[-81.474025,35.708927],[-81.476078,35.707162],[-81.477209,35.705155],[-81.478277,35.704631],[-81.473785,35.701916],[-81.472538,35.699312],[-81.470438,35.699156],[-81.469373,35.697982],[-81.470356,35.696331],[-81.469952,35.695301],[-81.467511,35.695219],[-81.461625,35.693576],[-81.462729,35.692399],[-81.460919,35.689339],[-81.461972,35.687564],[-81.46373,35.686286],[-81.462454,35.686025],[-81.464404,35.684868],[-81.46853,35.685362],[-81.470282,35.68329],[-81.476143,35.682755],[-81.477385,35.682227],[-81.481252,35.682146],[-81.482812,35.68114],[-81.488105,35.680743],[-81.490075,35.680126],[-81.493388,35.680058],[-81.494857,35.679441],[-81.494331,35.678011],[-81.492774,35.676612],[-81.494366,35.676358],[-81.493213,35.673767],[-81.491253,35.672321],[-81.491325,35.671311],[-81.49469,35.671774],[-81.49797,35.670314],[-81.497866,35.66949],[-81.5017,35.669086],[-81.502691,35.665262],[-81.496572,35.661859],[-81.495145,35.660236],[-81.496267,35.65806],[-81.499795,35.655863],[-81.501599,35.653956],[-81.50215,35.652291],[-81.505734,35.64766],[-81.505577,35.644469],[-81.502262,35.643146],[-81.498723,35.641131],[-81.493568,35.641292],[-81.490321,35.640356],[-81.484984,35.637493],[-81.48597,35.636305],[-81.486227,35.632697],[-81.485373,35.630079],[-81.485542,35.625443],[-81.475362,35.635887],[-81.475051,35.636377],[-81.469185,35.633808],[-81.465,35.633359],[-81.466142,35.632053],[-81.466009,35.630332],[-81.463568,35.626314],[-81.461143,35.620015],[-81.459743,35.621765],[-81.458373,35.622127],[-81.455533,35.624033],[-81.454461,35.625167],[-81.452336,35.625328],[-81.447162,35.626607],[-81.445658,35.627625],[-81.448018,35.627134],[-81.454795,35.634257],[-81.451699,35.634011],[-81.451267,35.632371],[-81.447699,35.629916],[-81.446701,35.629701],[-81.441892,35.630278],[-81.441123,35.633068],[-81.439703,35.633351],[-81.438363,35.635378],[-81.433466,35.635744],[-81.431527,35.6351],[-81.430372,35.635692],[-81.429362,35.635709],[-81.429442,35.634522],[-81.42591,35.633455],[-81.423242,35.633059],[-81.421374,35.631404],[-81.420233,35.631065],[-81.418795,35.632379],[-81.417646,35.632116],[-81.415967,35.6299],[-81.414361,35.630727],[-81.411624,35.629358],[-81.410222,35.629105],[-81.4124,35.626841],[-81.409693,35.626151],[-81.408713,35.625309],[-81.405101,35.620477],[-81.403465,35.617507],[-81.40183,35.615934],[-81.397828,35.61386],[-81.396943,35.61234],[-81.394182,35.610397],[-81.391983,35.610414],[-81.390766,35.611359],[-81.384551,35.607616],[-81.386115,35.612315],[-81.386361,35.614164],[-81.383719,35.61505],[-81.381409,35.614218],[-81.38086,35.61663],[-81.381494,35.617944],[-81.379325,35.621213],[-81.379285,35.622299],[-81.375967,35.622992],[-81.377253,35.625715],[-81.37561,35.626639],[-81.374754,35.623509],[-81.367895,35.620015],[-81.36649,35.621753],[-81.365365,35.620422],[-81.366621,35.619375],[-81.362571,35.617315],[-81.360988,35.615581],[-81.359462,35.612291],[-81.357803,35.610945],[-81.356891,35.613017],[-81.355301,35.614161],[-81.354533,35.616605],[-81.35253,35.620045],[-81.351214,35.620189],[-81.352867,35.623288],[-81.34907,35.622734],[-81.344731,35.621135],[-81.344422,35.623774],[-81.341666,35.626548],[-81.339977,35.629462],[-81.340002,35.632276],[-81.340898,35.633827],[-81.338963,35.634649],[-81.336153,35.636746],[-81.333538,35.63752],[-81.331888,35.635926],[-81.320465,35.630859],[-81.320805,35.629141],[-81.32131,35.62798],[-81.318211,35.627632],[-81.316621,35.629098],[-81.318837,35.630117],[-81.316642,35.631253],[-81.315157,35.634834],[-81.314156,35.634163],[-81.311379,35.636325],[-81.308234,35.635762],[-81.307136,35.637868],[-81.304105,35.638227],[-81.301001,35.639794],[-81.303653,35.643145],[-81.302509,35.64473],[-81.304106,35.645573],[-81.307136,35.649163],[-81.307643,35.650779],[-81.312621,35.651978],[-81.314028,35.653352],[-81.311945,35.65186],[-81.312039,35.653741],[-81.309604,35.657148],[-81.306983,35.659726],[-81.307327,35.660659],[-81.309715,35.661537],[-81.309016,35.66226],[-81.311578,35.664759],[-81.31169,35.666015],[-81.3089,35.667511],[-81.309609,35.669165],[-81.311526,35.670026],[-81.313706,35.67226],[-81.315838,35.675496],[-81.31824,35.678137],[-81.320053,35.677728],[-81.320248,35.677642],[-81.320836,35.679044],[-81.318057,35.683619],[-81.320011,35.685351],[-81.31905,35.68595],[-81.319197,35.688303],[-81.317865,35.689042],[-81.31762,35.691401],[-81.318528,35.693093],[-81.320002,35.694053],[-81.320101,35.695937],[-81.321004,35.697485],[-81.31884,35.70101],[-81.319503,35.702832],[-81.314758,35.70403],[-81.312533,35.703983],[-81.313144,35.701315],[-81.312748,35.699754],[-81.310027,35.699348],[-81.308473,35.697665],[-81.306872,35.697593],[-81.306764,35.69893],[-81.305745,35.696681],[-81.306986,35.696004],[-81.30377,35.694787],[-81.298984,35.695416],[-81.298832,35.697602],[-81.296181,35.697511],[-81.298133,35.695759],[-81.298532,35.693357],[-81.295235,35.694105],[-81.294641,35.693234],[-81.291886,35.695237],[-81.289826,35.693208],[-81.28928,35.695205],[-81.286292,35.693383],[-81.282572,35.693272],[-81.282605,35.695189],[-81.284426,35.696441],[-81.284711,35.69973],[-81.28306,35.699591],[-81.279345,35.70436],[-81.27847,35.707714],[-81.272256,35.705849],[-81.266741,35.704264],[-81.266704,35.704587],[-81.262522,35.704262],[-81.264557,35.704852],[-81.264707,35.70615],[-81.266125,35.706046],[-81.266212,35.709035],[-81.264348,35.709179],[-81.265477,35.717253],[-81.270062,35.717533],[-81.273463,35.718393],[-81.273406,35.719237],[-81.270195,35.720995],[-81.266864,35.723573],[-81.270906,35.726766],[-81.27202,35.727196],[-81.283804,35.730122],[-81.286821,35.731287],[-81.291548,35.732209],[-81.301041,35.732473],[-81.302408,35.73279],[-81.304163,35.733627],[-81.30894,35.737447],[-81.311377,35.738649],[-81.313718,35.739156],[-81.318197,35.73878],[-81.33234,35.733113],[-81.335661,35.73211],[-81.338012,35.731832],[-81.342402,35.732127],[-81.350488,35.732202],[-81.390169,35.728999],[-81.393311,35.728528],[-81.393419,35.728319],[-81.397443,35.726972],[-81.402475,35.724135],[-81.401622,35.722835],[-81.39939,35.72022],[-81.410453,35.705486],[-81.417119,35.705272],[-81.423452,35.705315],[-81.423041,35.706081],[-81.424418,35.706368],[-81.427053,35.705874],[-81.433267,35.707658],[-81.443242,35.711324],[-81.464417,35.719045],[-81.46819,35.720431],[-81.467815,35.71964],[-81.467395,35.718441],[-81.469093,35.715495]],[[-81.27282,35.714983],[-81.271575,35.717086],[-81.268942,35.716831],[-81.268385,35.716842],[-81.268566,35.714941],[-81.27282,35.714983]]]]}},{"type":"Feature","properties":{"zcta5":"28761","AFFGEOID10":"8600000US28761","GEOID10":"28761","ALAND10":278773799,"AWATER10":17043669,"county_name":"Burke","state_code":"NC","county_state":"Burke County, NC","county_fips":"37023","risk_level_county":"Higher Risk (60–69% vaccinated)","mean_vaccination_rate_county":65.12,"risk_level_zcta":"Higher Risk (60–69% vaccinated)","mean_vaccination_rate_zips":69.67,"cases":22},"geometry":{"type":"Polygon","coordinates":[[[-81.919242,35.848759],[-81.920509,35.847079],[-81.924985,35.84307],[-81.927814,35.841362],[-81.931189,35.840076],[-81.931905,35.838993],[-81.935225,35.837433],[-81.937858,35.838021],[-81.939707,35.837712],[-81.941644,35.83608],[-81.942986,35.832738],[-81.945882,35.830144],[-81.947892,35.827626],[-81.947332,35.826401],[-81.948931,35.825764],[-81.95136,35.823141],[-81.954032,35.822294],[-81.957855,35.819922],[-81.962513,35.819297],[-81.964774,35.819682],[-81.968708,35.819642],[-81.970389,35.820576],[-81.973547,35.82118],[-81.974491,35.819585],[-81.976799,35.81898],[-81.978815,35.817073],[-81.980176,35.813763],[-81.981936,35.812257],[-81.983345,35.810124],[-81.986939,35.806923],[-81.984427,35.801984],[-81.984083,35.800047],[-81.984362,35.796983],[-81.986378,35.794277],[-81.9869,35.79078],[-81.988302,35.787214],[-81.989953,35.776843],[-81.980252,35.75938],[-81.97883,35.759829],[-81.9786,35.758191],[-81.973926,35.755565],[-81.972664,35.75317],[-81.968571,35.754017],[-81.967759,35.755466],[-81.963846,35.757817],[-81.962755,35.75986],[-81.958182,35.762516],[-81.95705,35.762094],[-81.956756,35.760036],[-81.955918,35.759736],[-81.953889,35.7616],[-81.951243,35.761505],[-81.948318,35.758545],[-81.945485,35.757867],[-81.944569,35.758777],[-81.942598,35.755253],[-81.944424,35.752193],[-81.942848,35.749211],[-81.944354,35.746163],[-81.949335,35.749118],[-81.951451,35.749518],[-81.95333,35.749071],[-81.958037,35.746291],[-81.962,35.744551],[-81.963239,35.741],[-81.968047,35.739669],[-81.969395,35.73667],[-81.969336,35.732709],[-81.965976,35.729887],[-81.966604,35.727788],[-81.970093,35.726412],[-81.970011,35.724803],[-81.96703,35.722029],[-81.967961,35.719653],[-81.964979,35.717085],[-81.961738,35.716597],[-81.959911,35.715053],[-81.955446,35.71042],[-81.955322,35.710452],[-81.955233,35.710369],[-81.955068,35.710248],[-81.952871,35.708163],[-81.951813,35.704429],[-81.947035,35.705299],[-81.944907,35.706288],[-81.944682,35.706415],[-81.943152,35.707611],[-81.942287,35.708457],[-81.942297,35.707764],[-81.941858,35.706342],[-81.940094,35.706126],[-81.939201,35.703713],[-81.937571,35.703729],[-81.935623,35.701833],[-81.934956,35.700415],[-81.933123,35.700382],[-81.928966,35.699024],[-81.927376,35.698909],[-81.925226,35.700711],[-81.9227,35.699298],[-81.921359,35.69743],[-81.919554,35.696539],[-81.921043,35.695605],[-81.923502,35.69522],[-81.924845,35.693215],[-81.925165,35.691466],[-81.924375,35.689247],[-81.923254,35.688128],[-81.926056,35.683836],[-81.928913,35.683438],[-81.925929,35.683195],[-81.924313,35.682244],[-81.92273,35.679677],[-81.920366,35.678506],[-81.918022,35.675335],[-81.915611,35.672839],[-81.915666,35.672086],[-81.916103,35.670399],[-81.917384,35.668893],[-81.919263,35.668641],[-81.920024,35.667552],[-81.919264,35.665019],[-81.917836,35.664101],[-81.920753,35.662826],[-81.922706,35.661359],[-81.921722,35.660342],[-81.924174,35.658616],[-81.924532,35.656132],[-81.927306,35.654775],[-81.929778,35.656341],[-81.931642,35.654793],[-81.930596,35.649349],[-81.928168,35.646861],[-81.929398,35.645699],[-81.930055,35.64365],[-81.928781,35.644317],[-81.927345,35.642526],[-81.926019,35.642594],[-81.92595,35.640783],[-81.920446,35.633918],[-81.921338,35.633887],[-81.922091,35.622878],[-81.939167,35.612306],[-81.942971,35.615999],[-81.94853,35.614326],[-81.950727,35.613251],[-81.951677,35.612542],[-81.954297,35.606934],[-81.955471,35.605904],[-81.955019,35.604713],[-81.957676,35.603501],[-81.957533,35.602448],[-81.960199,35.600715],[-81.959246,35.599501],[-81.957421,35.598929],[-81.957206,35.59771],[-81.955183,35.596268],[-81.953032,35.595502],[-81.950974,35.593336],[-81.951333,35.589174],[-81.965397,35.567935],[-81.965381,35.569095],[-81.967733,35.568791],[-81.966956,35.56803],[-81.963778,35.562552],[-81.962835,35.559378],[-81.962227,35.553459],[-81.961884,35.552687],[-81.955751,35.546494],[-81.955479,35.545132],[-81.955868,35.543734],[-81.958664,35.541669],[-81.962181,35.536555],[-81.965534,35.533298],[-81.969317,35.526739],[-81.967619,35.526007],[-81.957326,35.527774],[-81.945774,35.531738],[-81.942747,35.528861],[-81.926174,35.531056],[-81.921752,35.533752],[-81.912676,35.537977],[-81.912533,35.535625],[-81.911229,35.535394],[-81.910736,35.533224],[-81.884796,35.536847],[-81.879748,35.538193],[-81.877924,35.541421],[-81.877049,35.542076],[-81.855777,35.542192],[-81.854658,35.546976],[-81.854004,35.547611],[-81.853679,35.55119],[-81.854228,35.557546],[-81.852065,35.561926],[-81.853876,35.563212],[-81.851818,35.564326],[-81.851587,35.565887],[-81.852749,35.566301],[-81.854265,35.568437],[-81.85662,35.569609],[-81.858131,35.57117],[-81.861867,35.570307],[-81.864508,35.568206],[-81.866071,35.566057],[-81.865667,35.567809],[-81.863529,35.572055],[-81.862073,35.573368],[-81.858382,35.575274],[-81.856252,35.577475],[-81.856089,35.579711],[-81.857144,35.581896],[-81.856756,35.584719],[-81.854438,35.587165],[-81.852761,35.586608],[-81.850901,35.586892],[-81.850226,35.587938],[-81.856181,35.595477],[-81.852849,35.595381],[-81.850186,35.590608],[-81.847471,35.590784],[-81.84439,35.589912],[-81.841196,35.588457],[-81.841673,35.587607],[-81.836406,35.585419],[-81.829492,35.592119],[-81.84578,35.643517],[-81.845751,35.644133],[-81.846235,35.644981],[-81.849801,35.656488],[-81.852322,35.655588],[-81.851773,35.654229],[-81.852719,35.652653],[-81.853523,35.650051],[-81.854919,35.650206],[-81.854739,35.652378],[-81.85489,35.657345],[-81.856569,35.660924],[-81.855481,35.666612],[-81.855711,35.668898],[-81.856574,35.670321],[-81.858845,35.672701],[-81.858705,35.674415],[-81.857338,35.67628],[-81.857987,35.67855],[-81.857006,35.679721],[-81.860934,35.692386],[-81.869388,35.719624],[-81.883189,35.729828],[-81.875063,35.731799],[-81.855947,35.72835],[-81.854309,35.728918],[-81.853173,35.730694],[-81.851238,35.732066],[-81.848355,35.733359],[-81.847026,35.735682],[-81.84579,35.736534],[-81.843186,35.740891],[-81.840776,35.741489],[-81.838495,35.743492],[-81.840596,35.745896],[-81.838871,35.747387],[-81.83589,35.749088],[-81.835662,35.750498],[-81.840428,35.755406],[-81.844987,35.757326],[-81.848158,35.759911],[-81.856525,35.768971],[-81.855996,35.771798],[-81.85802,35.774967],[-81.858168,35.776827],[-81.86076,35.779378],[-81.862093,35.779971],[-81.868638,35.786969],[-81.870448,35.787186],[-81.872738,35.789664],[-81.878612,35.790425],[-81.880717,35.791725],[-81.883155,35.792104],[-81.880012,35.79191],[-81.882082,35.792614],[-81.87993,35.792608],[-81.879517,35.794905],[-81.876299,35.79475],[-81.874198,35.795259],[-81.871295,35.792754],[-81.869178,35.792893],[-81.86706,35.794076],[-81.864585,35.794132],[-81.864264,35.798446],[-81.868145,35.801072],[-81.870718,35.805099],[-81.871044,35.806995],[-81.871989,35.807896],[-81.873503,35.811869],[-81.87551,35.813398],[-81.874818,35.817119],[-81.919242,35.848759]]]}},{"type":"Feature","properties":{"zcta5":"28601","AFFGEOID10":"8600000US28601","GEOID10":"28601","ALAND10":119206344,"AWATER10":8448205,"county_name":"Burke","state_code":"NC","county_state":"Burke County, NC","county_fips":"37023","risk_level_county":"Higher Risk (60–69% vaccinated)","mean_vaccination_rate_county":65.12,"risk_level_zcta":"Medium Risk (70–79% vaccinated)","mean_vaccination_rate_zips":71.28,"cases":22},"geometry":{"type":"MultiPolygon","coordinates":[[[[-81.282802,35.737543],[-81.282563,35.735757],[-81.279127,35.736094],[-81.279232,35.737361],[-81.280088,35.737141],[-81.282802,35.737543]]],[[[-81.450224,35.78522],[-81.449653,35.783555],[-81.448071,35.782353],[-81.447811,35.783231],[-81.445915,35.783642],[-81.44468,35.7803],[-81.446105,35.779689],[-81.444848,35.778862],[-81.445374,35.776991],[-81.446701,35.777182],[-81.446856,35.77542],[-81.441641,35.760008],[-81.441311,35.759907],[-81.439942,35.758053],[-81.438307,35.754371],[-81.437237,35.755263],[-81.436833,35.753434],[-81.437399,35.751808],[-81.4399,35.749162],[-81.436928,35.747437],[-81.437068,35.746608],[-81.432445,35.744323],[-81.431176,35.741388],[-81.428133,35.740739],[-81.426714,35.741397],[-81.425655,35.7403],[-81.422382,35.73859],[-81.423275,35.736665],[-81.422733,35.733412],[-81.421986,35.732118],[-81.420537,35.731985],[-81.415572,35.732854],[-81.413984,35.732067],[-81.410514,35.731898],[-81.408884,35.733196],[-81.40889,35.731228],[-81.406469,35.731228],[-81.406466,35.729474],[-81.404483,35.728716],[-81.407455,35.728563],[-81.407754,35.725041],[-81.405152,35.724992],[-81.404233,35.723097],[-81.402475,35.724135],[-81.397443,35.726972],[-81.393419,35.728319],[-81.393311,35.728528],[-81.390169,35.728999],[-81.350488,35.732202],[-81.342402,35.732127],[-81.338012,35.731832],[-81.335661,35.73211],[-81.33234,35.733113],[-81.318197,35.73878],[-81.313718,35.739156],[-81.311377,35.738649],[-81.30894,35.737447],[-81.304163,35.733627],[-81.302408,35.73279],[-81.301041,35.732473],[-81.291548,35.732209],[-81.286821,35.731287],[-81.283804,35.730122],[-81.27202,35.727196],[-81.270906,35.726766],[-81.266864,35.723573],[-81.263382,35.721396],[-81.260633,35.720273],[-81.255999,35.719659],[-81.253476,35.720609],[-81.253616,35.719785],[-81.250221,35.719452],[-81.239906,35.719931],[-81.241481,35.730246],[-81.243014,35.734756],[-81.245155,35.734511],[-81.246298,35.737619],[-81.24839,35.737158],[-81.248961,35.738725],[-81.246953,35.739106],[-81.245081,35.741018],[-81.246292,35.741434],[-81.249003,35.745326],[-81.250066,35.745121],[-81.253843,35.749586],[-81.256463,35.754152],[-81.257109,35.756293],[-81.261215,35.756103],[-81.260673,35.759957],[-81.262047,35.76031],[-81.264317,35.763072],[-81.262995,35.765411],[-81.26416,35.766317],[-81.262893,35.766855],[-81.261398,35.768761],[-81.257587,35.76919],[-81.25297,35.774114],[-81.253044,35.776225],[-81.251991,35.778237],[-81.252526,35.780856],[-81.251718,35.783635],[-81.250586,35.783532],[-81.249985,35.782146],[-81.247147,35.784388],[-81.243623,35.786005],[-81.242372,35.78836],[-81.240337,35.789673],[-81.236564,35.788329],[-81.233583,35.787964],[-81.230584,35.786488],[-81.229704,35.788009],[-81.229766,35.788426],[-81.227927,35.788532],[-81.227504,35.789414],[-81.228493,35.791295],[-81.226806,35.791294],[-81.227116,35.79322],[-81.226385,35.794814],[-81.227142,35.797001],[-81.228592,35.798116],[-81.229501,35.800707],[-81.228044,35.803161],[-81.228889,35.806272],[-81.231376,35.806728],[-81.230761,35.808654],[-81.2281,35.810388],[-81.231803,35.812318],[-81.240954,35.812841],[-81.244077,35.814375],[-81.247655,35.815615],[-81.249642,35.815685],[-81.251695,35.814306],[-81.252074,35.811179],[-81.254113,35.808798],[-81.257164,35.807455],[-81.264724,35.805179],[-81.267281,35.804495],[-81.270028,35.804457],[-81.276056,35.806036],[-81.279047,35.806265],[-81.282342,35.805472],[-81.283685,35.804755],[-81.287851,35.800978],[-81.29014,35.799933],[-81.298074,35.798193],[-81.299539,35.798338],[-81.302011,35.801037],[-81.304399,35.802548],[-81.304091,35.80361],[-81.302343,35.802797],[-81.303817,35.805676],[-81.30526,35.809697],[-81.305958,35.815358],[-81.299505,35.814425],[-81.294908,35.81601],[-81.295098,35.819791],[-81.29783,35.81991],[-81.300214,35.82083],[-81.297022,35.824007],[-81.296485,35.827154],[-81.292935,35.824577],[-81.288586,35.823073],[-81.291398,35.827319],[-81.288205,35.827408],[-81.28744,35.829234],[-81.2866,35.82895],[-81.283915,35.830047],[-81.285047,35.831125],[-81.283668,35.832137],[-81.281377,35.83004],[-81.283016,35.833628],[-81.286489,35.833834],[-81.28758,35.835065],[-81.291322,35.834425],[-81.293818,35.831681],[-81.297822,35.833612],[-81.30513,35.831769],[-81.308508,35.830093],[-81.311274,35.834856],[-81.311217,35.838398],[-81.310057,35.840697],[-81.31007,35.843169],[-81.313036,35.843008],[-81.315618,35.845451],[-81.326632,35.841773],[-81.337777,35.84479],[-81.337755,35.837524],[-81.33965,35.837405],[-81.340077,35.837464],[-81.341422,35.838163],[-81.344034,35.824691],[-81.343993,35.824163],[-81.342358,35.82236],[-81.340977,35.823008],[-81.340521,35.82441],[-81.339308,35.823357],[-81.337397,35.817911],[-81.33973,35.816891],[-81.339979,35.816423],[-81.339613,35.815843],[-81.338537,35.815685],[-81.341059,35.815112],[-81.344519,35.812923],[-81.346597,35.812888],[-81.347621,35.81379],[-81.350575,35.819561],[-81.353134,35.820515],[-81.356741,35.820776],[-81.356585,35.819934],[-81.35092,35.819273],[-81.349788,35.812933],[-81.353782,35.812411],[-81.351259,35.811179],[-81.349743,35.809749],[-81.350445,35.808653],[-81.348927,35.805515],[-81.347076,35.803913],[-81.344843,35.802957],[-81.343761,35.801325],[-81.342055,35.800147],[-81.34006,35.800016],[-81.337533,35.80085],[-81.336957,35.802226],[-81.332248,35.802521],[-81.332351,35.80011],[-81.334064,35.799086],[-81.334397,35.79629],[-81.336794,35.796471],[-81.343159,35.795567],[-81.346119,35.793973],[-81.347526,35.79261],[-81.350506,35.785673],[-81.355777,35.784907],[-81.357559,35.7869],[-81.361009,35.784256],[-81.362561,35.783942],[-81.363436,35.78556],[-81.367388,35.785374],[-81.36887,35.784256],[-81.370142,35.78492],[-81.371086,35.786809],[-81.373061,35.787343],[-81.372143,35.790447],[-81.372715,35.791458],[-81.376298,35.791865],[-81.377922,35.791525],[-81.377817,35.789993],[-81.374244,35.790033],[-81.373013,35.790599],[-81.373732,35.78768],[-81.373476,35.784261],[-81.374964,35.78284],[-81.37522,35.781432],[-81.375879,35.781314],[-81.376975,35.784754],[-81.385349,35.78113],[-81.386827,35.775616],[-81.389016,35.773525],[-81.389912,35.771369],[-81.387969,35.769045],[-81.390343,35.768825],[-81.392586,35.767375],[-81.393505,35.765346],[-81.394288,35.760495],[-81.390585,35.7603],[-81.390722,35.759423],[-81.397349,35.758297],[-81.399218,35.75856],[-81.402598,35.76017],[-81.406848,35.764393],[-81.408416,35.765402],[-81.412434,35.766254],[-81.423047,35.770755],[-81.423404,35.7702],[-81.425102,35.767042],[-81.426115,35.767352],[-81.429342,35.762885],[-81.431712,35.763572],[-81.430236,35.767111],[-81.431414,35.767529],[-81.429367,35.768382],[-81.435699,35.769387],[-81.435982,35.769199],[-81.436879,35.770806],[-81.437378,35.770827],[-81.437839,35.769791],[-81.436796,35.768933],[-81.439714,35.767864],[-81.439893,35.767511],[-81.439874,35.767984],[-81.438591,35.768649],[-81.437926,35.772654],[-81.436376,35.772969],[-81.436287,35.773454],[-81.440562,35.773409],[-81.442152,35.774426],[-81.442809,35.776332],[-81.44397,35.783603],[-81.445003,35.784853],[-81.450224,35.78522]],[[-81.285924,35.74325],[-81.285922,35.744526],[-81.278653,35.743647],[-81.27815,35.748138],[-81.277124,35.747341],[-81.270359,35.746085],[-81.26475,35.743962],[-81.26295,35.741027],[-81.258471,35.738828],[-81.257489,35.737118],[-81.254099,35.737718],[-81.254019,35.735711],[-81.25037,35.730251],[-81.24703,35.727277],[-81.248726,35.725942],[-81.251741,35.726343],[-81.252856,35.724615],[-81.25644,35.72311],[-81.259819,35.726544],[-81.264809,35.728476],[-81.265531,35.730241],[-81.268028,35.731391],[-81.272599,35.730078],[-81.277104,35.73063],[-81.276417,35.733728],[-81.278421,35.735882],[-81.281356,35.735127],[-81.28309,35.735719],[-81.28408,35.739469],[-81.282434,35.73931],[-81.282875,35.742076],[-81.285924,35.74325]]]]}},{"type":"Feature","properties":{"zcta5":"28619","AFFGEOID10":"8600000US28619","GEOID10":"28619","ALAND10":3090896,"AWATER10":0,"county_name":"Burke","state_code":"NC","county_state":"Burke County, NC","county_fips":"37023","risk_level_county":"Higher Risk (60–69% vaccinated)","mean_vaccination_rate_county":65.12,"risk_level_zcta":"Medium Risk (70–79% vaccinated)","mean_vaccination_rate_zips":74.18,"cases":22},"geometry":{"type":"Polygon","coordinates":[[[-81.594811,35.751357],[-81.593254,35.754776],[-81.596194,35.756083],[-81.596276,35.759879],[-81.59588,35.763684],[-81.59439,35.765215],[-81.592509,35.76591],[-81.591765,35.767997],[-81.593397,35.771197],[-81.597101,35.770349],[-81.598726,35.769275],[-81.602954,35.768196],[-81.603488,35.767994],[-81.604127,35.767636],[-81.605443,35.768948],[-81.608361,35.768243],[-81.610345,35.765383],[-81.60957,35.76433],[-81.60663,35.763236],[-81.604635,35.761681],[-81.604321,35.760691],[-81.605827,35.760854],[-81.607552,35.759288],[-81.611449,35.760244],[-81.611424,35.76314],[-81.613266,35.760451],[-81.607195,35.758615],[-81.604414,35.758063],[-81.60481,35.756918],[-81.608748,35.758025],[-81.608914,35.756914],[-81.60701,35.756907],[-81.60701,35.756009],[-81.609931,35.755433],[-81.611097,35.756168],[-81.611529,35.754777],[-81.613971,35.755516],[-81.613648,35.751487],[-81.613123,35.750237],[-81.610439,35.750214],[-81.609283,35.749127],[-81.608997,35.745837],[-81.606371,35.747385],[-81.603941,35.747421],[-81.601945,35.748623],[-81.596622,35.750449],[-81.594811,35.751357]]]}},{"type":"Feature","properties":{"zcta5":"28612","AFFGEOID10":"8600000US28612","GEOID10":"28612","ALAND10":216551438,"AWATER10":2057455,"county_name":"Burke","state_code":"NC","county_state":"Burke County, NC","county_fips":"37023","risk_level_county":"Higher Risk (60–69% vaccinated)","mean_vaccination_rate_county":65.12,"risk_level_zcta":"Medium Risk (70–79% vaccinated)","mean_vaccination_rate_zips":70.68,"cases":22},"geometry":{"type":"Polygon","coordinates":[[[-81.550258,35.69002],[-81.549508,35.688206],[-81.550294,35.685519],[-81.548011,35.682006],[-81.544817,35.681395],[-81.542175,35.6781],[-81.541192,35.676133],[-81.538351,35.675014],[-81.536179,35.673492],[-81.538886,35.670768],[-81.539021,35.66943],[-81.542357,35.670082],[-81.542631,35.668958],[-81.540201,35.664753],[-81.537623,35.664302],[-81.538418,35.662879],[-81.541233,35.663139],[-81.539607,35.659721],[-81.539905,35.658446],[-81.54209,35.657922],[-81.544844,35.656386],[-81.544404,35.654221],[-81.546004,35.652683],[-81.549921,35.652249],[-81.550525,35.651146],[-81.549557,35.647235],[-81.551432,35.644107],[-81.553179,35.642452],[-81.557921,35.641754],[-81.555154,35.639077],[-81.553583,35.636886],[-81.550536,35.640194],[-81.546448,35.640189],[-81.543816,35.641013],[-81.540957,35.64064],[-81.542928,35.634363],[-81.542994,35.632737],[-81.543612,35.634557],[-81.545205,35.634603],[-81.547496,35.633079],[-81.549333,35.634222],[-81.550589,35.633257],[-81.551752,35.630073],[-81.553552,35.629371],[-81.556593,35.628865],[-81.561064,35.628627],[-81.562286,35.631204],[-81.564299,35.630496],[-81.56837,35.632471],[-81.572054,35.632341],[-81.574919,35.633223],[-81.581285,35.633558],[-81.583265,35.63298],[-81.585236,35.631622],[-81.61623,35.629454],[-81.617132,35.629913],[-81.62003,35.629643],[-81.622302,35.62879],[-81.627189,35.627612],[-81.631767,35.625441],[-81.631822,35.626105],[-81.666021,35.601886],[-81.667914,35.601301],[-81.669176,35.601805],[-81.670045,35.603431],[-81.673297,35.603363],[-81.673606,35.604302],[-81.676972,35.603638],[-81.678149,35.602539],[-81.680589,35.598348],[-81.681879,35.598234],[-81.682216,35.594959],[-81.68558,35.59292],[-81.68673,35.590333],[-81.688944,35.589119],[-81.688159,35.587836],[-81.688692,35.586645],[-81.690206,35.586554],[-81.691055,35.584576],[-81.690139,35.583215],[-81.688327,35.582523],[-81.688467,35.581309],[-81.686216,35.57878],[-81.685084,35.57888],[-81.6844,35.577153],[-81.680467,35.576586],[-81.679735,35.576009],[-81.677228,35.572239],[-81.6759,35.571998],[-81.67448,35.570041],[-81.674224,35.568804],[-81.672858,35.568633],[-81.67062,35.566605],[-81.668724,35.566755],[-81.667814,35.566178],[-81.662862,35.56752],[-81.660465,35.566472],[-81.660376,35.565373],[-81.65709,35.565391],[-81.653315,35.562994],[-81.648967,35.56161],[-81.645354,35.562132],[-81.638699,35.563809],[-81.634743,35.565402],[-81.633429,35.567293],[-81.633407,35.565647],[-81.632576,35.565391],[-81.625497,35.566365],[-81.620915,35.566289],[-81.619189,35.567156],[-81.617912,35.566792],[-81.61742,35.565456],[-81.611491,35.567536],[-81.609697,35.566763],[-81.607193,35.566831],[-81.60489,35.567963],[-81.601501,35.56892],[-81.597736,35.571254],[-81.596232,35.57126],[-81.594977,35.570004],[-81.595592,35.568265],[-81.594145,35.566654],[-81.592289,35.566405],[-81.590878,35.564985],[-81.582725,35.566512],[-81.580543,35.567518],[-81.577234,35.566399],[-81.577589,35.564303],[-81.579096,35.562154],[-81.577507,35.561293],[-81.576751,35.559925],[-81.574188,35.559724],[-81.573187,35.558679],[-81.569799,35.558311],[-81.56678,35.558448],[-81.566574,35.559813],[-81.564572,35.561195],[-81.561061,35.562932],[-81.555574,35.562244],[-81.551564,35.563879],[-81.5492,35.563894],[-81.547403,35.564601],[-81.545299,35.564721],[-81.545926,35.566009],[-81.54805,35.567287],[-81.548451,35.569212],[-81.549674,35.570587],[-81.552218,35.571645],[-81.550602,35.571546],[-81.549626,35.573118],[-81.548234,35.572634],[-81.546754,35.574261],[-81.546343,35.5768],[-81.543766,35.577322],[-81.543106,35.578779],[-81.541404,35.579619],[-81.540515,35.582224],[-81.538429,35.583021],[-81.537489,35.582837],[-81.53779,35.581648],[-81.536735,35.579593],[-81.536132,35.576422],[-81.534771,35.574048],[-81.535559,35.571798],[-81.535632,35.567324],[-81.534947,35.568123],[-81.534359,35.568811],[-81.520295,35.588309],[-81.519104,35.586649],[-81.516434,35.585596],[-81.515299,35.582788],[-81.511313,35.584721],[-81.512475,35.587131],[-81.512107,35.588688],[-81.513958,35.589959],[-81.513273,35.590817],[-81.516372,35.593834],[-81.509818,35.602938],[-81.508288,35.601467],[-81.508694,35.600384],[-81.505338,35.599672],[-81.503177,35.600621],[-81.499269,35.600883],[-81.496887,35.602724],[-81.49345,35.604535],[-81.489979,35.609059],[-81.487543,35.610337],[-81.485636,35.612103],[-81.482561,35.614111],[-81.483034,35.615631],[-81.484473,35.616787],[-81.48667,35.616451],[-81.490571,35.619386],[-81.49181,35.619211],[-81.485542,35.625443],[-81.485373,35.630079],[-81.486227,35.632697],[-81.48597,35.636305],[-81.484984,35.637493],[-81.490321,35.640356],[-81.493568,35.641292],[-81.498723,35.641131],[-81.502262,35.643146],[-81.505577,35.644469],[-81.505734,35.64766],[-81.50215,35.652291],[-81.501599,35.653956],[-81.499795,35.655863],[-81.496267,35.65806],[-81.495145,35.660236],[-81.496572,35.661859],[-81.502691,35.665262],[-81.5017,35.669086],[-81.497866,35.66949],[-81.49797,35.670314],[-81.49469,35.671774],[-81.491325,35.671311],[-81.491253,35.672321],[-81.493213,35.673767],[-81.494366,35.676358],[-81.492774,35.676612],[-81.494331,35.678011],[-81.494857,35.679441],[-81.493388,35.680058],[-81.490075,35.680126],[-81.488105,35.680743],[-81.482812,35.68114],[-81.481252,35.682146],[-81.477385,35.682227],[-81.476143,35.682755],[-81.470282,35.68329],[-81.46853,35.685362],[-81.464404,35.684868],[-81.462454,35.686025],[-81.46373,35.686286],[-81.461972,35.687564],[-81.460919,35.689339],[-81.462729,35.692399],[-81.461625,35.693576],[-81.467511,35.695219],[-81.469952,35.695301],[-81.470356,35.696331],[-81.469373,35.697982],[-81.470438,35.699156],[-81.472538,35.699312],[-81.473785,35.701916],[-81.478277,35.704631],[-81.477209,35.705155],[-81.476078,35.707162],[-81.474025,35.708927],[-81.471641,35.709633],[-81.469279,35.714425],[-81.469093,35.715495],[-81.473189,35.717474],[-81.473421,35.719706],[-81.472414,35.721519],[-81.468392,35.720066],[-81.467815,35.71964],[-81.46819,35.720431],[-81.476242,35.722996],[-81.473177,35.726411],[-81.471002,35.726162],[-81.469167,35.725016],[-81.462328,35.722768],[-81.464417,35.719045],[-81.443242,35.711324],[-81.440908,35.710882],[-81.44157,35.712639],[-81.442158,35.716512],[-81.439851,35.716154],[-81.433014,35.715801],[-81.431521,35.715936],[-81.431431,35.718091],[-81.428522,35.719219],[-81.427975,35.721065],[-81.431309,35.721079],[-81.43115,35.72497],[-81.433054,35.727378],[-81.428735,35.727105],[-81.42938,35.72936],[-81.427784,35.729635],[-81.426964,35.73076],[-81.423817,35.730698],[-81.422256,35.728346],[-81.420931,35.729044],[-81.421922,35.730223],[-81.421986,35.732118],[-81.422733,35.733412],[-81.423275,35.736665],[-81.422382,35.73859],[-81.425655,35.7403],[-81.426714,35.741397],[-81.428133,35.740739],[-81.431176,35.741388],[-81.432445,35.744323],[-81.437068,35.746608],[-81.436928,35.747437],[-81.4399,35.749162],[-81.437399,35.751808],[-81.436833,35.753434],[-81.437237,35.755263],[-81.438307,35.754371],[-81.439942,35.758053],[-81.441311,35.759907],[-81.441641,35.760008],[-81.446856,35.77542],[-81.446701,35.777182],[-81.445374,35.776991],[-81.444848,35.778862],[-81.446105,35.779689],[-81.44468,35.7803],[-81.445915,35.783642],[-81.447811,35.783231],[-81.448071,35.782353],[-81.449653,35.783555],[-81.450224,35.78522],[-81.474621,35.783542],[-81.483689,35.78202],[-81.490267,35.780547],[-81.51616,35.780859],[-81.521188,35.780483],[-81.525279,35.779901],[-81.533872,35.779705],[-81.535539,35.778419],[-81.535869,35.776957],[-81.539118,35.77273],[-81.540625,35.772878],[-81.542806,35.77429],[-81.542982,35.775468],[-81.544419,35.774549],[-81.545522,35.770169],[-81.549407,35.770304],[-81.549778,35.769121],[-81.547384,35.768983],[-81.546131,35.767637],[-81.547446,35.766384],[-81.547392,35.765032],[-81.54928,35.763236],[-81.549211,35.761713],[-81.54623,35.761413],[-81.542858,35.7618],[-81.542168,35.76099],[-81.542008,35.759739],[-81.54198,35.758525],[-81.542677,35.758319],[-81.542009,35.756602],[-81.542299,35.7565],[-81.545305,35.756503],[-81.545391,35.756122],[-81.53966,35.753862],[-81.535203,35.749959],[-81.532893,35.749153],[-81.53412,35.751766],[-81.534179,35.750786],[-81.535735,35.754308],[-81.528811,35.757628],[-81.527718,35.759707],[-81.527182,35.758204],[-81.528745,35.757162],[-81.528007,35.755645],[-81.52582,35.756555],[-81.524387,35.753725],[-81.521469,35.754351],[-81.523233,35.756904],[-81.519456,35.758744],[-81.517151,35.758424],[-81.514706,35.755466],[-81.517681,35.75445],[-81.519113,35.751978],[-81.518641,35.750317],[-81.522185,35.750048],[-81.520147,35.747106],[-81.522022,35.745756],[-81.524951,35.746207],[-81.526429,35.742753],[-81.527702,35.741551],[-81.527416,35.74034],[-81.526,35.740558],[-81.526314,35.738761],[-81.529462,35.73811],[-81.534899,35.737659],[-81.527531,35.736823],[-81.528993,35.735409],[-81.53029,35.735775],[-81.530268,35.733961],[-81.538342,35.732321],[-81.538432,35.73215],[-81.538863,35.731384],[-81.535542,35.728918],[-81.537297,35.726834],[-81.53959,35.72586],[-81.541059,35.724662],[-81.542733,35.722407],[-81.542,35.72128],[-81.540487,35.722208],[-81.540713,35.723316],[-81.538676,35.72257],[-81.538031,35.721167],[-81.538578,35.719179],[-81.540067,35.716909],[-81.543468,35.716854],[-81.544026,35.715367],[-81.54128,35.714447],[-81.541379,35.713693],[-81.539002,35.711802],[-81.53916,35.710877],[-81.537644,35.708304],[-81.538428,35.705597],[-81.53797,35.703906],[-81.539744,35.702065],[-81.539526,35.700347],[-81.543294,35.700379],[-81.543344,35.699125],[-81.546193,35.69422],[-81.54746,35.692772],[-81.550211,35.691439],[-81.550258,35.69002]],[[-81.541692,35.756715],[-81.541227,35.761458],[-81.538554,35.760643],[-81.537727,35.758003],[-81.540525,35.757148],[-81.54084,35.758565],[-81.541692,35.756715]],[[-81.473498,35.72981],[-81.474179,35.73233],[-81.475186,35.733679],[-81.471314,35.736776],[-81.469351,35.733536],[-81.469256,35.729369],[-81.470362,35.72673],[-81.477861,35.730205],[-81.473498,35.72981]]]}},{"type":"Feature","properties":{"zcta5":"28690","AFFGEOID10":"8600000US28690","GEOID10":"28690","ALAND10":55928282,"AWATER10":300068,"county_name":"Burke","state_code":"NC","county_state":"Burke County, NC","county_fips":"37023","risk_level_county":"Higher Risk (60–69% vaccinated)","mean_vaccination_rate_county":65.12,"risk_level_zcta":"Medium Risk (70–79% vaccinated)","mean_vaccination_rate_zips":73.56,"cases":22},"geometry":{"type":"Polygon","coordinates":[[[-81.601945,35.748623],[-81.600717,35.74751],[-81.607395,35.745559],[-81.613177,35.744267],[-81.617226,35.744277],[-81.61557,35.74711],[-81.617266,35.747609],[-81.618169,35.744266],[-81.626664,35.744331],[-81.632085,35.746114],[-81.633465,35.744868],[-81.631503,35.744971],[-81.629898,35.742033],[-81.630676,35.740656],[-81.628886,35.740297],[-81.629081,35.739056],[-81.631346,35.738739],[-81.63221,35.736145],[-81.631839,35.735007],[-81.637022,35.731601],[-81.636131,35.731295],[-81.633371,35.727265],[-81.629211,35.727445],[-81.629253,35.726818],[-81.633179,35.726291],[-81.632621,35.726007],[-81.625105,35.72713],[-81.625144,35.726658],[-81.628161,35.725783],[-81.629767,35.724124],[-81.632622,35.723228],[-81.633407,35.723153],[-81.631833,35.720289],[-81.628396,35.717377],[-81.627249,35.714632],[-81.626032,35.71639],[-81.628685,35.719576],[-81.625648,35.719577],[-81.625686,35.71718],[-81.621798,35.717141],[-81.622378,35.714297],[-81.619141,35.715516],[-81.619273,35.714379],[-81.615638,35.711937],[-81.618064,35.714922],[-81.618146,35.716298],[-81.615609,35.716904],[-81.610246,35.716569],[-81.597303,35.716103],[-81.597567,35.713126],[-81.596129,35.711889],[-81.59499,35.712048],[-81.59423,35.710435],[-81.592781,35.711747],[-81.59131,35.710761],[-81.589628,35.707778],[-81.5894,35.706249],[-81.589921,35.703121],[-81.587112,35.701195],[-81.586545,35.699259],[-81.584781,35.699777],[-81.581341,35.69914],[-81.579853,35.696819],[-81.578233,35.697489],[-81.578867,35.695731],[-81.578393,35.692124],[-81.575963,35.692086],[-81.575435,35.690717],[-81.573531,35.690745],[-81.575455,35.689099],[-81.577662,35.688206],[-81.576353,35.687403],[-81.575182,35.685499],[-81.573092,35.686537],[-81.571963,35.686364],[-81.570668,35.683931],[-81.550258,35.69002],[-81.550211,35.691439],[-81.54746,35.692772],[-81.546193,35.69422],[-81.543344,35.699125],[-81.543294,35.700379],[-81.539526,35.700347],[-81.539744,35.702065],[-81.53797,35.703906],[-81.538428,35.705597],[-81.537644,35.708304],[-81.53916,35.710877],[-81.539002,35.711802],[-81.541379,35.713693],[-81.54128,35.714447],[-81.544026,35.715367],[-81.543468,35.716854],[-81.540067,35.716909],[-81.538578,35.719179],[-81.538031,35.721167],[-81.538676,35.72257],[-81.540713,35.723316],[-81.540487,35.722208],[-81.542,35.72128],[-81.542733,35.722407],[-81.541059,35.724662],[-81.53959,35.72586],[-81.537297,35.726834],[-81.535542,35.728918],[-81.538863,35.731384],[-81.538432,35.73215],[-81.538342,35.732321],[-81.530268,35.733961],[-81.53029,35.735775],[-81.528993,35.735409],[-81.527531,35.736823],[-81.534899,35.737659],[-81.529462,35.73811],[-81.526314,35.738761],[-81.526,35.740558],[-81.527416,35.74034],[-81.527702,35.741551],[-81.527738,35.746294],[-81.532012,35.746529],[-81.532344,35.748819],[-81.532893,35.749153],[-81.535203,35.749959],[-81.53966,35.753862],[-81.545391,35.756122],[-81.545305,35.756503],[-81.544865,35.757634],[-81.545581,35.758685],[-81.546179,35.758882],[-81.544519,35.76036],[-81.543537,35.759997],[-81.542831,35.760146],[-81.542932,35.760738],[-81.542168,35.76099],[-81.542858,35.7618],[-81.54623,35.761413],[-81.549211,35.761713],[-81.54928,35.763236],[-81.547392,35.765032],[-81.547446,35.766384],[-81.546131,35.767637],[-81.547384,35.768983],[-81.549778,35.769121],[-81.549407,35.770304],[-81.545522,35.770169],[-81.544419,35.774549],[-81.542982,35.775468],[-81.542806,35.77429],[-81.540625,35.772878],[-81.539118,35.77273],[-81.535869,35.776957],[-81.535539,35.778419],[-81.533872,35.779705],[-81.542445,35.778911],[-81.547033,35.777207],[-81.548009,35.774172],[-81.550018,35.772861],[-81.553154,35.772728],[-81.552029,35.773393],[-81.550007,35.773118],[-81.548742,35.774173],[-81.55113,35.775087],[-81.554503,35.77504],[-81.556788,35.776224],[-81.559767,35.777109],[-81.561547,35.776927],[-81.561608,35.778042],[-81.563462,35.778707],[-81.564737,35.777967],[-81.564596,35.779367],[-81.566417,35.7804],[-81.57047,35.779713],[-81.573216,35.780372],[-81.575009,35.778833],[-81.576325,35.779021],[-81.577282,35.777573],[-81.581019,35.777882],[-81.58008,35.774864],[-81.583431,35.773137],[-81.586296,35.773017],[-81.586146,35.771902],[-81.585859,35.771531],[-81.586116,35.771269],[-81.586062,35.770654],[-81.585515,35.770208],[-81.585447,35.76918],[-81.58747,35.7683],[-81.588044,35.76718],[-81.587651,35.765326],[-81.589768,35.763508],[-81.58935,35.762698],[-81.589908,35.759824],[-81.592812,35.755884],[-81.589789,35.75451],[-81.588368,35.753303],[-81.586113,35.755099],[-81.58413,35.756001],[-81.583769,35.754728],[-81.584493,35.749818],[-81.58987,35.74905],[-81.590153,35.748321],[-81.592414,35.748802],[-81.595039,35.750442],[-81.594811,35.751357],[-81.596622,35.750449],[-81.601945,35.748623]]]}},{"type":"Feature","properties":{"zcta5":"28671","AFFGEOID10":"8600000US28671","GEOID10":"28671","ALAND10":1920042,"AWATER10":0,"county_name":"Burke","state_code":"NC","county_state":"Burke County, NC","county_fips":"37023","risk_level_county":"Higher Risk (60–69% vaccinated)","mean_vaccination_rate_county":65.12,"risk_level_zcta":"Medium Risk (70–79% vaccinated)","mean_vaccination_rate_zips":77.38,"cases":22},"geometry":{"type":"MultiPolygon","coordinates":[[[[-81.527702,35.741551],[-81.526429,35.742753],[-81.524951,35.746207],[-81.522022,35.745756],[-81.520147,35.747106],[-81.522185,35.750048],[-81.518641,35.750317],[-81.519113,35.751978],[-81.517681,35.75445],[-81.514706,35.755466],[-81.517151,35.758424],[-81.519456,35.758744],[-81.523233,35.756904],[-81.521469,35.754351],[-81.524387,35.753725],[-81.52582,35.756555],[-81.528007,35.755645],[-81.528745,35.757162],[-81.527182,35.758204],[-81.527718,35.759707],[-81.528811,35.757628],[-81.535735,35.754308],[-81.534179,35.750786],[-81.53412,35.751766],[-81.532893,35.749153],[-81.532344,35.748819],[-81.532012,35.746529],[-81.527738,35.746294],[-81.527702,35.741551]]],[[[-81.541692,35.756715],[-81.54084,35.758565],[-81.540525,35.757148],[-81.537727,35.758003],[-81.538554,35.760643],[-81.541227,35.761458],[-81.541692,35.756715]]],[[[-81.542168,35.76099],[-81.542932,35.760738],[-81.542831,35.760146],[-81.543537,35.759997],[-81.544519,35.76036],[-81.546179,35.758882],[-81.545581,35.758685],[-81.544865,35.757634],[-81.545305,35.756503],[-81.542299,35.7565],[-81.542009,35.756602],[-81.542677,35.758319],[-81.54198,35.758525],[-81.542008,35.759739],[-81.542168,35.76099]]]]}},{"type":"Feature","properties":{"zcta5":"28637","AFFGEOID10":"8600000US28637","GEOID10":"28637","ALAND10":7441260,"AWATER10":0,"county_name":"Burke","state_code":"NC","county_state":"Burke County, NC","county_fips":"37023","risk_level_county":"Higher Risk (60–69% vaccinated)","mean_vaccination_rate_county":65.12,"risk_level_zcta":"Higher Risk (60–69% vaccinated)","mean_vaccination_rate_zips":65.95,"cases":22},"geometry":{"type":"Polygon","coordinates":[[[-81.421986,35.732118],[-81.421922,35.730223],[-81.420931,35.729044],[-81.422256,35.728346],[-81.423817,35.730698],[-81.426964,35.73076],[-81.427784,35.729635],[-81.42938,35.72936],[-81.428735,35.727105],[-81.433054,35.727378],[-81.43115,35.72497],[-81.431309,35.721079],[-81.427975,35.721065],[-81.428522,35.719219],[-81.431431,35.718091],[-81.431521,35.715936],[-81.433014,35.715801],[-81.439851,35.716154],[-81.442158,35.716512],[-81.44157,35.712639],[-81.440908,35.710882],[-81.443242,35.711324],[-81.433267,35.707658],[-81.427053,35.705874],[-81.424418,35.706368],[-81.423041,35.706081],[-81.423452,35.705315],[-81.417119,35.705272],[-81.410453,35.705486],[-81.39939,35.72022],[-81.401622,35.722835],[-81.402475,35.724135],[-81.404233,35.723097],[-81.405152,35.724992],[-81.407754,35.725041],[-81.407455,35.728563],[-81.404483,35.728716],[-81.406466,35.729474],[-81.406469,35.731228],[-81.40889,35.731228],[-81.408884,35.733196],[-81.410514,35.731898],[-81.413984,35.732067],[-81.415572,35.732854],[-81.420537,35.731985],[-81.421986,35.732118]]]}},{"type":"Feature","properties":{"zcta5":"28667","AFFGEOID10":"8600000US28667","GEOID10":"28667","ALAND10":1556194,"AWATER10":272247,"county_name":"Burke","state_code":"NC","county_state":"Burke County, NC","county_fips":"37023","risk_level_county":"Higher Risk (60–69% vaccinated)","mean_vaccination_rate_county":65.12,"risk_level_zcta":"Uninhabited","mean_vaccination_rate_zips":null,"cases":22},"geometry":{"type":"Polygon","coordinates":[[[-81.436287,35.773454],[-81.436376,35.772969],[-81.437926,35.772654],[-81.438591,35.768649],[-81.439874,35.767984],[-81.439893,35.767511],[-81.439714,35.767864],[-81.436796,35.768933],[-81.437839,35.769791],[-81.437378,35.770827],[-81.436879,35.770806],[-81.435982,35.769199],[-81.435699,35.769387],[-81.429367,35.768382],[-81.431414,35.767529],[-81.430236,35.767111],[-81.431712,35.763572],[-81.429342,35.762885],[-81.426115,35.767352],[-81.425102,35.767042],[-81.423404,35.7702],[-81.423047,35.770755],[-81.412434,35.766254],[-81.408416,35.765402],[-81.408656,35.766945],[-81.409765,35.767661],[-81.413838,35.768188],[-81.420659,35.770632],[-81.42139,35.771512],[-81.422071,35.775675],[-81.425739,35.779001],[-81.426491,35.779796],[-81.428163,35.778456],[-81.428638,35.779861],[-81.432355,35.780109],[-81.432583,35.780637],[-81.436148,35.77414],[-81.436287,35.773454]]]}},{"type":"Feature","properties":{"zcta5":"28168","AFFGEOID10":"8600000US28168","GEOID10":"28168","ALAND10":224287940,"AWATER10":902336,"county_name":"Burke","state_code":"NC","county_state":"Burke County, NC","county_fips":"37023","risk_level_county":"Higher Risk (60–69% vaccinated)","mean_vaccination_rate_county":65.12,"risk_level_zcta":"Higher Risk (60–69% vaccinated)","mean_vaccination_rate_zips":66.18,"cases":22},"geometry":{"type":"Polygon","coordinates":[[[-81.511313,35.584721],[-81.510313,35.581236],[-81.510654,35.580119],[-81.512173,35.57769],[-81.515611,35.576263],[-81.51644,35.574588],[-81.517755,35.573494],[-81.517257,35.572399],[-81.518114,35.57145],[-81.523376,35.568637],[-81.523538,35.567802],[-81.525926,35.567885],[-81.526619,35.563399],[-81.526078,35.561134],[-81.515421,35.558297],[-81.509218,35.550352],[-81.509111,35.540023],[-81.509628,35.535065],[-81.510619,35.529643],[-81.513004,35.523317],[-81.500993,35.502837],[-81.495244,35.494098],[-81.49167,35.486823],[-81.487145,35.490924],[-81.483709,35.493281],[-81.482327,35.494675],[-81.479735,35.499252],[-81.478656,35.509481],[-81.475135,35.509382],[-81.471408,35.50785],[-81.469262,35.504438],[-81.469051,35.50263],[-81.467865,35.502046],[-81.468609,35.50025],[-81.467524,35.498808],[-81.468163,35.497519],[-81.467842,35.494474],[-81.468893,35.492312],[-81.468298,35.490433],[-81.469014,35.488506],[-81.472125,35.487705],[-81.472569,35.485623],[-81.473597,35.484599],[-81.47505,35.484757],[-81.473932,35.483929],[-81.44753,35.493851],[-81.430241,35.494703],[-81.430567,35.491197],[-81.432194,35.486343],[-81.432781,35.482835],[-81.437159,35.475407],[-81.439334,35.474266],[-81.439045,35.471952],[-81.425913,35.472857],[-81.425389,35.473594],[-81.422135,35.473285],[-81.421206,35.473721],[-81.419504,35.475226],[-81.419845,35.476526],[-81.419127,35.477391],[-81.416356,35.477416],[-81.414596,35.475925],[-81.413334,35.476333],[-81.409567,35.476047],[-81.409359,35.473659],[-81.407291,35.471631],[-81.404161,35.469281],[-81.401906,35.470396],[-81.398874,35.470764],[-81.397961,35.470444],[-81.395437,35.472348],[-81.395569,35.476271],[-81.396982,35.480078],[-81.398401,35.487383],[-81.402595,35.492676],[-81.403825,35.497531],[-81.404457,35.49864],[-81.407918,35.500636],[-81.408987,35.504145],[-81.406927,35.503997],[-81.403841,35.50455],[-81.401558,35.504328],[-81.397185,35.504959],[-81.396383,35.503793],[-81.392563,35.50689],[-81.389668,35.507766],[-81.374928,35.48845],[-81.374652,35.486296],[-81.372712,35.490409],[-81.37331,35.495059],[-81.372128,35.496875],[-81.371508,35.499863],[-81.3706,35.50048],[-81.368696,35.499618],[-81.364624,35.500459],[-81.363026,35.501397],[-81.363061,35.502675],[-81.359885,35.503323],[-81.357568,35.502074],[-81.35465,35.501215],[-81.353784,35.499339],[-81.349989,35.496733],[-81.347357,35.496919],[-81.347637,35.498927],[-81.34495,35.499218],[-81.338326,35.497539],[-81.335697,35.495425],[-81.326294,35.496031],[-81.327279,35.49801],[-81.327763,35.500823],[-81.332044,35.508088],[-81.334599,35.510816],[-81.336934,35.512228],[-81.339912,35.512666],[-81.337115,35.513565],[-81.337615,35.515899],[-81.339174,35.518385],[-81.339304,35.520179],[-81.34173,35.524323],[-81.336886,35.526821],[-81.332458,35.528595],[-81.328368,35.525698],[-81.325252,35.522497],[-81.320474,35.526967],[-81.31912,35.529864],[-81.319522,35.532159],[-81.32112,35.534448],[-81.321569,35.536282],[-81.32169,35.541576],[-81.324314,35.545214],[-81.3223,35.546521],[-81.31979,35.549269],[-81.317319,35.548565],[-81.318464,35.550764],[-81.318866,35.553887],[-81.31877,35.557652],[-81.318043,35.559396],[-81.318355,35.56087],[-81.318442,35.560873],[-81.319087,35.562674],[-81.32036,35.563411],[-81.322814,35.563912],[-81.3251,35.565133],[-81.327504,35.567745],[-81.328916,35.568379],[-81.329313,35.570618],[-81.32566,35.581426],[-81.323121,35.584214],[-81.328015,35.585677],[-81.330198,35.588079],[-81.331804,35.58896],[-81.335157,35.588828],[-81.338169,35.591152],[-81.339763,35.590749],[-81.341868,35.591289],[-81.343004,35.592641],[-81.347137,35.591887],[-81.347644,35.592509],[-81.349184,35.591639],[-81.351298,35.59158],[-81.353584,35.592965],[-81.355442,35.593308],[-81.357403,35.594356],[-81.361259,35.592364],[-81.368114,35.590996],[-81.369816,35.590224],[-81.372585,35.588231],[-81.37488,35.594806],[-81.374389,35.597656],[-81.373377,35.598146],[-81.373207,35.59982],[-81.373839,35.60235],[-81.373512,35.603877],[-81.372562,35.603928],[-81.369519,35.606579],[-81.369765,35.607203],[-81.371438,35.608051],[-81.373104,35.609644],[-81.376999,35.61212],[-81.379419,35.614738],[-81.381409,35.614218],[-81.383719,35.61505],[-81.386361,35.614164],[-81.386115,35.612315],[-81.384551,35.607616],[-81.390766,35.611359],[-81.391983,35.610414],[-81.394182,35.610397],[-81.396943,35.61234],[-81.397828,35.61386],[-81.40183,35.615934],[-81.403465,35.617507],[-81.405101,35.620477],[-81.408713,35.625309],[-81.409693,35.626151],[-81.4124,35.626841],[-81.410222,35.629105],[-81.411624,35.629358],[-81.414361,35.630727],[-81.415967,35.6299],[-81.417646,35.632116],[-81.418795,35.632379],[-81.420233,35.631065],[-81.421374,35.631404],[-81.423242,35.633059],[-81.42591,35.633455],[-81.429442,35.634522],[-81.429362,35.635709],[-81.430372,35.635692],[-81.431527,35.6351],[-81.433466,35.635744],[-81.438363,35.635378],[-81.439703,35.633351],[-81.441123,35.633068],[-81.441892,35.630278],[-81.446701,35.629701],[-81.447699,35.629916],[-81.451267,35.632371],[-81.451699,35.634011],[-81.454795,35.634257],[-81.448018,35.627134],[-81.445658,35.627625],[-81.447162,35.626607],[-81.452336,35.625328],[-81.454461,35.625167],[-81.455533,35.624033],[-81.458373,35.622127],[-81.459743,35.621765],[-81.461143,35.620015],[-81.463568,35.626314],[-81.466009,35.630332],[-81.466142,35.632053],[-81.465,35.633359],[-81.469185,35.633808],[-81.475051,35.636377],[-81.475362,35.635887],[-81.485542,35.625443],[-81.49181,35.619211],[-81.490571,35.619386],[-81.48667,35.616451],[-81.484473,35.616787],[-81.483034,35.615631],[-81.482561,35.614111],[-81.485636,35.612103],[-81.487543,35.610337],[-81.489979,35.609059],[-81.49345,35.604535],[-81.496887,35.602724],[-81.499269,35.600883],[-81.503177,35.600621],[-81.505338,35.599672],[-81.508694,35.600384],[-81.508288,35.601467],[-81.509818,35.602938],[-81.516372,35.593834],[-81.513273,35.590817],[-81.513958,35.589959],[-81.512107,35.588688],[-81.512475,35.587131],[-81.511313,35.584721]]]}}]}