{"type":"FeatureCollection","features":[{"type":"Feature","properties":{"zcta5":"73033","AFFGEOID10":"8600000US73033","GEOID10":"73033","ALAND10":16955915,"AWATER10":0,"county_name":"Caddo","state_code":"OK","county_state":"Caddo County, OK","county_fips":"40015","risk_level_county":"Medium Risk (70–79% vaccinated)","mean_vaccination_rate_county":71.68,"risk_level_zcta":"Medium Risk (70–79% vaccinated)","mean_vaccination_rate_zips":74.11,"cases":1},"geometry":{"type":"Polygon","coordinates":[[[-98.570445,35.334143],[-98.570625,35.305186],[-98.561437,35.305156],[-98.561569,35.302273],[-98.560477,35.300819],[-98.557216,35.30181],[-98.557086,35.30316],[-98.552986,35.30321],[-98.553071,35.290711],[-98.526446,35.290702],[-98.526196,35.315524],[-98.526624,35.319493],[-98.526444,35.334042],[-98.570445,35.334143]]]}},{"type":"Feature","properties":{"zcta5":"73006","AFFGEOID10":"8600000US73006","GEOID10":"73006","ALAND10":453941061,"AWATER10":2555081,"county_name":"Caddo","state_code":"OK","county_state":"Caddo County, OK","county_fips":"40015","risk_level_county":"Medium Risk (70–79% vaccinated)","mean_vaccination_rate_county":71.68,"risk_level_zcta":"Higher Risk (60–69% vaccinated)","mean_vaccination_rate_zips":69.35,"cases":1},"geometry":{"type":"Polygon","coordinates":[[[-98.497822,34.971023],[-98.501542,34.971024],[-98.501564,34.972864],[-98.505978,34.975497],[-98.505992,34.971041],[-98.53278,34.971096],[-98.534482,34.970554],[-98.533831,34.968107],[-98.534938,34.967356],[-98.534904,34.965752],[-98.53713,34.964533],[-98.537715,34.965153],[-98.542558,34.964441],[-98.544201,34.963525],[-98.5454,34.961898],[-98.54749,34.960364],[-98.548689,34.95759],[-98.550205,34.955761],[-98.550197,34.952819],[-98.552772,34.951852],[-98.553256,34.949339],[-98.554934,34.946454],[-98.55541,34.944072],[-98.556777,34.942182],[-98.550164,34.942169],[-98.54953,34.93268],[-98.549353,34.92037],[-98.558128,34.92034],[-98.558075,34.902264],[-98.553673,34.90226],[-98.553611,34.897981],[-98.550833,34.897773],[-98.551156,34.893682],[-98.550828,34.890273],[-98.549459,34.883494],[-98.549503,34.865846],[-98.548147,34.860129],[-98.545351,34.855104],[-98.509834,34.855087],[-98.509745,34.833312],[-98.500956,34.83329],[-98.500961,34.826056],[-98.488296,34.826034],[-98.488268,34.82241],[-98.483765,34.822402],[-98.483743,34.818748],[-98.479362,34.818723],[-98.479379,34.822392],[-98.474968,34.822381],[-98.474954,34.811578],[-98.432058,34.811533],[-98.422222,34.811684],[-98.369777,34.811441],[-98.369759,34.811558],[-98.369708,34.814493],[-98.37115,34.814656],[-98.37004,34.816487],[-98.371125,34.818777],[-98.369652,34.817587],[-98.368014,34.818458],[-98.366069,34.816558],[-98.362624,34.814795],[-98.361764,34.816353],[-98.359959,34.816308],[-98.360488,34.818003],[-98.364543,34.819811],[-98.369379,34.824138],[-98.370277,34.826153],[-98.370119,34.828741],[-98.370859,34.830252],[-98.370872,34.833358],[-98.37172,34.833416],[-98.370897,34.834201],[-98.370878,34.836064],[-98.368357,34.834812],[-98.368282,34.837136],[-98.367498,34.837767],[-98.36657,34.834812],[-98.365071,34.835304],[-98.365491,34.836898],[-98.365246,34.839791],[-98.368037,34.840075],[-98.369636,34.843714],[-98.371556,34.84301],[-98.371806,34.845442],[-98.36783,34.843352],[-98.365654,34.845758],[-98.366124,34.848092],[-98.367937,34.848486],[-98.369536,34.850784],[-98.371439,34.851714],[-98.371067,34.853958],[-98.370352,34.851935],[-98.36839,34.85296],[-98.367028,34.855195],[-98.355639,34.855177],[-98.354672,34.854227],[-98.352128,34.853246],[-98.351284,34.854194],[-98.350505,34.852293],[-98.350864,34.848697],[-98.350613,34.846659],[-98.34853,34.846637],[-98.346918,34.84863],[-98.347306,34.846774],[-98.348474,34.845675],[-98.348612,34.844254],[-98.346055,34.843957],[-98.346194,34.843201],[-98.342942,34.839882],[-98.344303,34.839263],[-98.344802,34.836973],[-98.344274,34.834751],[-98.342496,34.834477],[-98.340997,34.83647],[-98.341218,34.83466],[-98.339302,34.835233],[-98.340801,34.833515],[-98.344384,34.832781],[-98.344633,34.830308],[-98.343635,34.829939],[-98.341384,34.831591],[-98.342411,34.828934],[-98.343799,34.828178],[-98.342855,34.827651],[-98.338494,34.828408],[-98.3393,34.827652],[-98.341771,34.827331],[-98.342382,34.826575],[-98.340632,34.825224],[-98.340854,34.823185],[-98.339659,34.823712],[-98.338354,34.822865],[-98.337993,34.824171],[-98.335271,34.82385],[-98.334911,34.82692],[-98.332966,34.825111],[-98.32619,34.827631],[-98.324801,34.830632],[-98.322552,34.831662],[-98.318662,34.831731],[-98.318884,34.830701],[-98.317217,34.82912],[-98.318634,34.827402],[-98.317245,34.827586],[-98.316974,34.827659],[-98.313719,34.828663],[-98.310746,34.830588],[-98.309435,34.832353],[-98.307645,34.832851],[-98.305329,34.834434],[-98.304662,34.835946],[-98.302467,34.837068],[-98.301218,34.836357],[-98.301607,34.835166],[-98.300496,34.834731],[-98.299095,34.835845],[-98.299267,34.840365],[-98.283008,34.840546],[-98.282994,34.826106],[-98.265555,34.826154],[-98.265552,34.855135],[-98.268713,34.855136],[-98.268811,34.934816],[-98.268931,34.985532],[-98.286522,34.985595],[-98.286468,34.956575],[-98.303928,34.956633],[-98.30397,34.973836],[-98.300511,34.977825],[-98.295271,34.981548],[-98.296021,34.984253],[-98.300446,34.984807],[-98.299722,34.985379],[-98.29989,34.989203],[-98.303984,34.989217],[-98.303993,35.000096],[-98.306992,35.000104],[-98.309851,35.007826],[-98.308725,35.007401],[-98.303974,35.007378],[-98.303967,35.014572],[-98.332395,35.01465],[-98.335686,35.009125],[-98.334343,35.003911],[-98.334879,34.999453],[-98.330342,34.985727],[-98.339144,34.985701],[-98.33912,35.000249],[-98.35671,35.000261],[-98.356716,35.011015],[-98.355509,35.014432],[-98.391945,35.014775],[-98.427353,35.014905],[-98.427249,35.000317],[-98.444783,35.000243],[-98.444676,34.990525],[-98.444184,34.987596],[-98.444605,34.984575],[-98.444629,34.971167],[-98.462333,34.971176],[-98.462289,34.956601],[-98.444645,34.956643],[-98.444591,34.939002],[-98.448574,34.941883],[-98.462302,34.941922],[-98.462249,34.944431],[-98.463412,34.94589],[-98.466067,34.945158],[-98.468349,34.946921],[-98.46885,34.948753],[-98.470019,34.949554],[-98.472049,34.949393],[-98.473413,34.952165],[-98.475249,34.952164],[-98.475806,34.953538],[-98.477726,34.954385],[-98.477315,34.955282],[-98.479362,34.955933],[-98.478702,34.956854],[-98.482296,34.959737],[-98.486437,34.959638],[-98.488595,34.960884],[-98.490274,34.960891],[-98.494458,34.96435],[-98.495942,34.964791],[-98.495453,34.966196],[-98.497786,34.968124],[-98.497822,34.971023]]]}},{"type":"Feature","properties":{"zcta5":"73047","AFFGEOID10":"8600000US73047","GEOID10":"73047","ALAND10":391348164,"AWATER10":1839517,"county_name":"Caddo","state_code":"OK","county_state":"Caddo County, OK","county_fips":"40015","risk_level_county":"Medium Risk (70–79% vaccinated)","mean_vaccination_rate_county":71.68,"risk_level_zcta":"Higher Risk (60–69% vaccinated)","mean_vaccination_rate_zips":63.97,"cases":1},"geometry":{"type":"Polygon","coordinates":[[[-98.429619,35.55147],[-98.430108,35.550062],[-98.425039,35.546067],[-98.424901,35.542535],[-98.425798,35.541228],[-98.424566,35.539737],[-98.424493,35.536531],[-98.438438,35.536578],[-98.43844,35.529036],[-98.46489,35.529298],[-98.464956,35.485796],[-98.447428,35.485796],[-98.44732,35.464532],[-98.44839,35.461431],[-98.447268,35.459285],[-98.447334,35.449523],[-98.473913,35.44964],[-98.474085,35.42065],[-98.465285,35.420674],[-98.465124,35.419136],[-98.465212,35.406243],[-98.41206,35.406338],[-98.412033,35.413883],[-98.401142,35.413889],[-98.399487,35.40802],[-98.398621,35.406829],[-98.390723,35.406403],[-98.372567,35.406357],[-98.369238,35.412223],[-98.363873,35.418854],[-98.362544,35.420909],[-98.30628,35.420484],[-98.305204,35.377162],[-98.3041,35.377264],[-98.271672,35.377091],[-98.271748,35.370197],[-98.272588,35.369571],[-98.275029,35.369652],[-98.275237,35.36622],[-98.276526,35.3652],[-98.278448,35.365103],[-98.280024,35.363751],[-98.28142,35.364034],[-98.283495,35.363311],[-98.283518,35.360688],[-98.284088,35.359467],[-98.28379,35.357767],[-98.280958,35.359206],[-98.280645,35.35782],[-98.278954,35.357053],[-98.277579,35.357776],[-98.275405,35.358617],[-98.273969,35.360172],[-98.27299,35.362806],[-98.262802,35.362819],[-98.262775,35.353128],[-98.260675,35.352564],[-98.259617,35.353897],[-98.258177,35.353539],[-98.256246,35.354207],[-98.253908,35.354316],[-98.254047,35.36272],[-98.249157,35.362633],[-98.248021,35.3637],[-98.245643,35.363728],[-98.243882,35.365128],[-98.242238,35.365039],[-98.239596,35.362635],[-98.219164,35.362572],[-98.218829,35.36234],[-98.21891,35.376813],[-98.201253,35.376862],[-98.201396,35.391322],[-98.166639,35.391745],[-98.166832,35.406148],[-98.159916,35.406178],[-98.158029,35.40465],[-98.157777,35.399759],[-98.156616,35.398979],[-98.143103,35.398917],[-98.13956,35.397696],[-98.137013,35.394976],[-98.1344,35.398449],[-98.131681,35.405748],[-98.131921,35.42051],[-98.114056,35.420917],[-98.114619,35.422384],[-98.119141,35.425543],[-98.12074,35.425735],[-98.123423,35.428442],[-98.124806,35.429222],[-98.124947,35.430966],[-98.127776,35.434174],[-98.12981,35.435251],[-98.1319,35.437953],[-98.131903,35.439456],[-98.134395,35.44258],[-98.133942,35.443903],[-98.134446,35.446018],[-98.137378,35.448073],[-98.137566,35.449006],[-98.139686,35.451134],[-98.144407,35.452691],[-98.149226,35.455037],[-98.153859,35.456449],[-98.157625,35.458455],[-98.161184,35.46075],[-98.165199,35.459287],[-98.169307,35.456845],[-98.174329,35.452332],[-98.174994,35.451012],[-98.177374,35.44942],[-98.180741,35.450165],[-98.184481,35.452949],[-98.186186,35.452187],[-98.188731,35.452242],[-98.192886,35.452932],[-98.196149,35.454297],[-98.200399,35.455332],[-98.202561,35.457826],[-98.205481,35.458511],[-98.207003,35.460583],[-98.209698,35.46238],[-98.211813,35.463191],[-98.216485,35.463991],[-98.218459,35.465574],[-98.222998,35.467216],[-98.227835,35.468192],[-98.228655,35.469079],[-98.228037,35.47012],[-98.22906,35.471853],[-98.232068,35.472883],[-98.2327,35.474428],[-98.232433,35.476587],[-98.234731,35.477738],[-98.235861,35.4797],[-98.235701,35.480905],[-98.237085,35.481486],[-98.239557,35.485376],[-98.238753,35.486045],[-98.240554,35.489728],[-98.24096,35.492917],[-98.241637,35.494414],[-98.244602,35.497498],[-98.246352,35.49751],[-98.248058,35.496535],[-98.248932,35.496997],[-98.248356,35.499273],[-98.250255,35.5014],[-98.248789,35.500615],[-98.248995,35.503335],[-98.251326,35.506621],[-98.250777,35.509278],[-98.252134,35.511709],[-98.252435,35.514399],[-98.254079,35.516753],[-98.256974,35.518782],[-98.258856,35.518821],[-98.262542,35.520531],[-98.263773,35.521651],[-98.266914,35.522197],[-98.271561,35.524594],[-98.27523,35.525708],[-98.277042,35.527511],[-98.279684,35.528271],[-98.286141,35.528485],[-98.288816,35.530404],[-98.291671,35.530675],[-98.294717,35.530192],[-98.297368,35.532436],[-98.297967,35.533681],[-98.299526,35.534531],[-98.301478,35.537729],[-98.304037,35.538959],[-98.306711,35.540818],[-98.308297,35.551312],[-98.312833,35.551311],[-98.313251,35.551523],[-98.368856,35.551448],[-98.36941,35.551329],[-98.429619,35.55147]]]}},{"type":"Feature","properties":{"zcta5":"73079","AFFGEOID10":"8600000US73079","GEOID10":"73079","ALAND10":194280611,"AWATER10":293126,"county_name":"Caddo","state_code":"OK","county_state":"Caddo County, OK","county_fips":"40015","risk_level_county":"Medium Risk (70–79% vaccinated)","mean_vaccination_rate_county":71.68,"risk_level_zcta":"Higher Risk (60–69% vaccinated)","mean_vaccination_rate_zips":64.67,"cases":1},"geometry":{"type":"Polygon","coordinates":[[[-98.156321,35.24723],[-98.156271,35.218198],[-98.147924,35.21796],[-98.148474,35.215371],[-98.147706,35.214249],[-98.147911,35.209621],[-98.14784,35.203737],[-98.155792,35.203782],[-98.1532,35.189345],[-98.091312,35.189207],[-98.065407,35.189237],[-98.065534,35.182109],[-98.073829,35.182083],[-98.074036,35.174813],[-98.065276,35.174762],[-98.065315,35.160194],[-98.056682,35.160199],[-98.0567,35.174726],[-98.021279,35.174667],[-98.021293,35.160069],[-97.999852,35.16016],[-98.000094,35.145677],[-97.998708,35.145741],[-97.961308,35.145735],[-97.960645,35.1499],[-97.958278,35.152757],[-97.954042,35.156264],[-97.956114,35.159882],[-97.956563,35.162408],[-97.959214,35.166828],[-97.958935,35.167652],[-97.960804,35.169851],[-97.959745,35.170698],[-97.959996,35.172759],[-97.961251,35.171545],[-97.962339,35.172644],[-97.961921,35.176263],[-97.963344,35.177018],[-97.962089,35.178255],[-97.96301,35.179217],[-97.962146,35.181187],[-97.959273,35.183088],[-97.958772,35.184462],[-97.959832,35.184966],[-97.959079,35.187416],[-97.959969,35.189317],[-97.952453,35.189293],[-97.95245,35.178084],[-97.950752,35.177945],[-97.948834,35.160264],[-97.894743,35.160226],[-97.894703,35.167183],[-97.892196,35.17464],[-97.8828,35.189269],[-97.887117,35.189838],[-97.882548,35.203645],[-97.900605,35.203648],[-97.900633,35.232682],[-97.916614,35.232688],[-97.918225,35.23554],[-97.918337,35.247203],[-97.953654,35.247212],[-97.953667,35.232695],[-97.971386,35.232688],[-97.97138,35.247234],[-97.999713,35.247216],[-97.999712,35.232699],[-98.006709,35.232677],[-98.006757,35.247237],[-98.059783,35.247158],[-98.059762,35.232662],[-98.094974,35.23279],[-98.095001,35.24734],[-98.103846,35.247279],[-98.103657,35.278325],[-98.104108,35.276281],[-98.112821,35.276293],[-98.112815,35.261673],[-98.130451,35.261781],[-98.130342,35.247277],[-98.156321,35.24723]]]}},{"type":"Feature","properties":{"zcta5":"73021","AFFGEOID10":"8600000US73021","GEOID10":"73021","ALAND10":166517937,"AWATER10":605475,"county_name":"Caddo","state_code":"OK","county_state":"Caddo County, OK","county_fips":"40015","risk_level_county":"Medium Risk (70–79% vaccinated)","mean_vaccination_rate_county":71.68,"risk_level_zcta":"Lower Risk (80–84% vaccinated)","mean_vaccination_rate_zips":80.61,"cases":1},"geometry":{"type":"Polygon","coordinates":[[[-98.729217,35.377718],[-98.729253,35.348783],[-98.746931,35.348872],[-98.746938,35.334383],[-98.729264,35.334304],[-98.729336,35.276405],[-98.676659,35.276399],[-98.676525,35.269429],[-98.659046,35.269413],[-98.658744,35.290795],[-98.623511,35.290792],[-98.623386,35.334048],[-98.607231,35.333737],[-98.607256,35.325035],[-98.605916,35.322101],[-98.605579,35.319615],[-98.605955,35.31414],[-98.606139,35.305079],[-98.570625,35.305186],[-98.570445,35.334143],[-98.57051,35.363024],[-98.597277,35.363069],[-98.597511,35.384617],[-98.602769,35.384612],[-98.604408,35.388074],[-98.604124,35.391859],[-98.606152,35.391842],[-98.606175,35.398927],[-98.613386,35.398963],[-98.6149,35.400095],[-98.615154,35.401911],[-98.616666,35.402764],[-98.617605,35.406351],[-98.619993,35.40635],[-98.619996,35.404915],[-98.622147,35.404286],[-98.623247,35.405791],[-98.623322,35.392031],[-98.625933,35.391819],[-98.641087,35.391708],[-98.640981,35.406303],[-98.6589,35.406422],[-98.659864,35.403673],[-98.661576,35.401153],[-98.663457,35.395242],[-98.664436,35.394211],[-98.664605,35.392425],[-98.665892,35.389562],[-98.665009,35.38834],[-98.666777,35.388782],[-98.666069,35.391042],[-98.668154,35.391966],[-98.670439,35.391983],[-98.670898,35.395834],[-98.671135,35.402114],[-98.673766,35.403346],[-98.676383,35.403616],[-98.676458,35.421114],[-98.694135,35.42108],[-98.694024,35.406506],[-98.695522,35.406272],[-98.696829,35.404812],[-98.697005,35.402927],[-98.699587,35.401127],[-98.699568,35.398466],[-98.701261,35.398439],[-98.69914,35.395903],[-98.701925,35.392359],[-98.702684,35.3942],[-98.706868,35.396732],[-98.709077,35.395311],[-98.707288,35.3979],[-98.709441,35.39822],[-98.7107,35.398197],[-98.713552,35.395997],[-98.716609,35.394691],[-98.718451,35.394379],[-98.71992,35.393095],[-98.721655,35.39383],[-98.729176,35.393907],[-98.729217,35.377718]]]}},{"type":"Feature","properties":{"zcta5":"73059","AFFGEOID10":"8600000US73059","GEOID10":"73059","ALAND10":434687371,"AWATER10":1338127,"county_name":"Caddo","state_code":"OK","county_state":"Caddo County, OK","county_fips":"40015","risk_level_county":"Medium Risk (70–79% vaccinated)","mean_vaccination_rate_county":71.68,"risk_level_zcta":"Higher Risk (60–69% vaccinated)","mean_vaccination_rate_zips":62.81,"cases":1},"geometry":{"type":"Polygon","coordinates":[[[-98.114056,35.420917],[-98.131921,35.42051],[-98.131681,35.405748],[-98.1344,35.398449],[-98.137013,35.394976],[-98.13956,35.397696],[-98.143103,35.398917],[-98.156616,35.398979],[-98.157777,35.399759],[-98.158029,35.40465],[-98.159916,35.406178],[-98.166832,35.406148],[-98.166639,35.391745],[-98.201396,35.391322],[-98.201253,35.376862],[-98.21891,35.376813],[-98.218829,35.36234],[-98.218784,35.348153],[-98.202685,35.348006],[-98.201171,35.347458],[-98.201177,35.336564],[-98.196331,35.338106],[-98.192462,35.338091],[-98.19218,35.332247],[-98.192251,35.325121],[-98.194853,35.323843],[-98.195799,35.322754],[-98.1963,35.320566],[-98.195509,35.315425],[-98.196514,35.313807],[-98.196508,35.309235],[-98.195356,35.305277],[-98.191447,35.304987],[-98.192747,35.301773],[-98.192608,35.298418],[-98.190345,35.297279],[-98.190597,35.294997],[-98.190039,35.293695],[-98.190643,35.290704],[-98.183126,35.290705],[-98.183592,35.27638],[-98.165962,35.276212],[-98.165698,35.247211],[-98.156321,35.24723],[-98.130342,35.247277],[-98.130451,35.261781],[-98.112815,35.261673],[-98.112821,35.276293],[-98.104108,35.276281],[-98.103657,35.278325],[-98.103846,35.247279],[-98.095001,35.24734],[-98.094974,35.23279],[-98.059762,35.232662],[-98.059783,35.247158],[-98.006757,35.247237],[-98.006709,35.232677],[-97.999712,35.232699],[-97.999713,35.247216],[-97.97138,35.247234],[-97.971386,35.232688],[-97.953667,35.232695],[-97.953654,35.247212],[-97.918337,35.247203],[-97.88299,35.247189],[-97.882864,35.31974],[-97.864738,35.319751],[-97.865506,35.320843],[-97.865442,35.323419],[-97.86605,35.324555],[-97.86557,35.326651],[-97.866642,35.329387],[-97.86541,35.331995],[-97.86605,35.332699],[-97.864418,35.336139],[-97.865427,35.339275],[-97.864318,35.341541],[-97.862482,35.342805],[-97.859752,35.343135],[-97.856847,35.344955],[-97.857147,35.346158],[-97.856816,35.35127],[-97.857101,35.354256],[-97.857752,35.356264],[-97.85965,35.359518],[-97.861636,35.361193],[-97.862722,35.361806],[-97.865604,35.36234],[-97.87069,35.362444],[-97.873169,35.360868],[-97.873335,35.356844],[-97.873923,35.355984],[-97.876133,35.355528],[-97.879703,35.356186],[-97.881925,35.355977],[-97.883613,35.356445],[-97.88496,35.355821],[-97.884098,35.349012],[-97.88712,35.347391],[-97.890062,35.347056],[-97.894086,35.347026],[-97.897341,35.344868],[-97.899013,35.344224],[-97.901203,35.344323],[-97.903086,35.345404],[-97.903516,35.34914],[-97.902122,35.350948],[-97.901566,35.353442],[-97.902061,35.35463],[-97.904831,35.356076],[-97.907013,35.355871],[-97.911368,35.353145],[-97.914581,35.352403],[-97.919035,35.352742],[-97.921376,35.353952],[-97.921814,35.355041],[-97.9245,35.358637],[-97.926114,35.359173],[-97.927901,35.360492],[-97.930365,35.363591],[-97.930192,35.367353],[-97.932252,35.373383],[-97.934342,35.375137],[-97.940104,35.376839],[-97.943276,35.377285],[-97.943979,35.376406],[-97.947114,35.374917],[-97.947209,35.372958],[-97.946331,35.371029],[-97.946553,35.368088],[-97.945952,35.362465],[-97.94664,35.359876],[-97.946843,35.356412],[-97.948959,35.352711],[-97.952268,35.350592],[-97.952548,35.34775],[-97.954588,35.346193],[-97.960124,35.34594],[-97.963182,35.34939],[-97.964547,35.350204],[-97.969548,35.351485],[-97.972269,35.353614],[-97.972804,35.356299],[-97.973856,35.357104],[-97.978984,35.356198],[-97.981409,35.356339],[-97.983755,35.357242],[-97.985901,35.358574],[-97.990921,35.359755],[-97.99167,35.360396],[-97.995258,35.361699],[-97.998684,35.362188],[-98.001938,35.364513],[-98.003458,35.364069],[-98.003969,35.362149],[-98.006399,35.360381],[-98.010836,35.360769],[-98.011969,35.362058],[-98.012083,35.363716],[-98.010996,35.365518],[-98.008864,35.366797],[-98.009872,35.369354],[-98.011705,35.37141],[-98.016088,35.374425],[-98.01638,35.376563],[-98.017453,35.377911],[-98.020259,35.380516],[-98.023126,35.382662],[-98.025901,35.382946],[-98.027979,35.383897],[-98.029867,35.387901],[-98.031999,35.389678],[-98.035947,35.390597],[-98.038787,35.389797],[-98.039686,35.388397],[-98.04288,35.387745],[-98.045902,35.386542],[-98.04802,35.385094],[-98.050325,35.384411],[-98.053828,35.384652],[-98.05741,35.386123],[-98.058147,35.389962],[-98.055608,35.391498],[-98.053007,35.394007],[-98.052264,35.395375],[-98.052003,35.399501],[-98.052819,35.401777],[-98.05554,35.405117],[-98.05978,35.407848],[-98.062537,35.408124],[-98.066265,35.409598],[-98.067748,35.408524],[-98.070698,35.409563],[-98.074818,35.409946],[-98.076366,35.411199],[-98.078593,35.411386],[-98.081225,35.412357],[-98.084627,35.412978],[-98.087265,35.412896],[-98.090204,35.411719],[-98.09291,35.412606],[-98.095904,35.412219],[-98.097033,35.411662],[-98.099846,35.413114],[-98.103982,35.413202],[-98.112476,35.415994],[-98.114886,35.418038],[-98.114056,35.420917]]]}},{"type":"Feature","properties":{"zcta5":"73029","AFFGEOID10":"8600000US73029","GEOID10":"73029","ALAND10":128157121,"AWATER10":286648,"county_name":"Caddo","state_code":"OK","county_state":"Caddo County, OK","county_fips":"40015","risk_level_county":"Medium Risk (70–79% vaccinated)","mean_vaccination_rate_county":71.68,"risk_level_zcta":"Medium Risk (70–79% vaccinated)","mean_vaccination_rate_zips":74.36,"cases":1},"geometry":{"type":"Polygon","coordinates":[[[-98.268811,34.934816],[-98.268713,34.855136],[-98.265552,34.855135],[-98.180402,34.854895],[-98.17832,34.855107],[-98.148026,34.855138],[-98.147762,34.855182],[-98.145368,34.854879],[-98.145165,34.864489],[-98.142065,34.86603],[-98.142697,34.869321],[-98.142228,34.872312],[-98.142919,34.875897],[-98.143843,34.877531],[-98.142578,34.883133],[-98.141717,34.884073],[-98.128285,34.884079],[-98.128325,34.913051],[-98.144147,34.913041],[-98.145636,34.91385],[-98.145779,34.916273],[-98.147222,34.916203],[-98.147107,34.914128],[-98.149087,34.913604],[-98.150365,34.915454],[-98.148571,34.919942],[-98.149648,34.92022],[-98.149833,34.923165],[-98.150813,34.92365],[-98.153698,34.922574],[-98.157428,34.922535],[-98.160446,34.921682],[-98.15983,34.924079],[-98.157619,34.925199],[-98.155364,34.92563],[-98.157743,34.927548],[-98.166571,34.927517],[-98.166793,34.928977],[-98.165759,34.931288],[-98.168579,34.931769],[-98.168002,34.933452],[-98.166248,34.934306],[-98.16331,34.934609],[-98.163436,34.938409],[-98.166834,34.937679],[-98.168442,34.938137],[-98.171093,34.937079],[-98.171557,34.935748],[-98.173003,34.936547],[-98.172585,34.93743],[-98.172665,34.941921],[-98.175091,34.941956],[-98.1751,34.945544],[-98.176145,34.94564],[-98.175949,34.948352],[-98.17673,34.94745],[-98.178855,34.947719],[-98.179914,34.945966],[-98.181625,34.946217],[-98.180733,34.947749],[-98.180807,34.970849],[-98.233767,34.97102],[-98.233748,34.965673],[-98.234528,34.963593],[-98.23608,34.963745],[-98.236778,34.962502],[-98.239266,34.962718],[-98.239595,34.961209],[-98.242064,34.961236],[-98.243369,34.95911],[-98.245628,34.959112],[-98.248792,34.958401],[-98.251314,34.959166],[-98.251336,34.942066],[-98.260164,34.942076],[-98.260143,34.934872],[-98.268811,34.934816]]]}},{"type":"Feature","properties":{"zcta5":"73017","AFFGEOID10":"8600000US73017","GEOID10":"73017","ALAND10":197308899,"AWATER10":976167,"county_name":"Caddo","state_code":"OK","county_state":"Caddo County, OK","county_fips":"40015","risk_level_county":"Medium Risk (70–79% vaccinated)","mean_vaccination_rate_county":71.68,"risk_level_zcta":"Medium Risk (70–79% vaccinated)","mean_vaccination_rate_zips":79.59,"cases":1},"geometry":{"type":"Polygon","coordinates":[[[-98.180807,34.970849],[-98.180733,34.947749],[-98.181625,34.946217],[-98.179914,34.945966],[-98.178855,34.947719],[-98.17673,34.94745],[-98.175949,34.948352],[-98.176145,34.94564],[-98.1751,34.945544],[-98.175091,34.941956],[-98.172665,34.941921],[-98.172585,34.93743],[-98.173003,34.936547],[-98.171557,34.935748],[-98.171093,34.937079],[-98.168442,34.938137],[-98.166834,34.937679],[-98.163436,34.938409],[-98.16331,34.934609],[-98.166248,34.934306],[-98.168002,34.933452],[-98.168579,34.931769],[-98.165759,34.931288],[-98.166793,34.928977],[-98.166571,34.927517],[-98.157743,34.927548],[-98.155364,34.92563],[-98.157619,34.925199],[-98.15983,34.924079],[-98.160446,34.921682],[-98.157428,34.922535],[-98.153698,34.922574],[-98.150813,34.92365],[-98.149833,34.923165],[-98.149648,34.92022],[-98.148571,34.919942],[-98.150365,34.915454],[-98.149087,34.913604],[-98.147107,34.914128],[-98.147222,34.916203],[-98.145779,34.916273],[-98.145636,34.91385],[-98.144147,34.913041],[-98.128325,34.913051],[-98.128285,34.884079],[-98.141717,34.884073],[-98.142578,34.883133],[-98.143843,34.877531],[-98.142919,34.875897],[-98.142228,34.872312],[-98.142697,34.869321],[-98.142065,34.86603],[-98.145165,34.864489],[-98.145368,34.854879],[-98.138547,34.855108],[-98.124199,34.855093],[-98.124049,34.854941],[-98.124174,34.838028],[-98.121823,34.839025],[-98.120488,34.837125],[-98.118544,34.837447],[-98.118321,34.835981],[-98.116681,34.833943],[-98.115541,34.833257],[-98.114403,34.834265],[-98.110515,34.834427],[-98.106291,34.832436],[-98.103235,34.832001],[-98.100651,34.830284],[-98.096707,34.830469],[-98.096041,34.831454],[-98.093402,34.831913],[-98.092681,34.833195],[-98.090237,34.833516],[-98.090626,34.834524],[-98.08901,34.834806],[-98.086932,34.835716],[-98.084265,34.835533],[-98.084266,34.837205],[-98.07521,34.837687],[-98.073626,34.838077],[-98.073404,34.839451],[-98.07146,34.839703],[-98.069876,34.837985],[-98.066182,34.838237],[-98.065154,34.838924],[-98.062849,34.837367],[-98.05992,34.840743],[-98.058126,34.841787],[-98.058959,34.843253],[-98.05832,34.844696],[-98.056903,34.844581],[-98.055375,34.848795],[-98.055486,34.850009],[-98.054208,34.851704],[-98.054791,34.852735],[-98.052985,34.854773],[-98.051346,34.855277],[-98.049817,34.857361],[-98.047845,34.856971],[-98.047427,34.859216],[-98.049345,34.859628],[-98.048233,34.861162],[-98.045815,34.8613],[-98.043926,34.860543],[-98.04062,34.861276],[-98.037147,34.860863],[-98.032005,34.864388],[-98.032643,34.866976],[-98.030864,34.868739],[-98.027751,34.868623],[-98.024443,34.870821],[-98.02422,34.872539],[-98.022552,34.8735],[-98.021969,34.876243],[-98.020607,34.877479],[-98.014207,34.880723],[-98.013844,34.883443],[-98.012044,34.883817],[-98.031541,34.88384],[-98.031548,34.891266],[-98.023096,34.891276],[-98.022796,34.927277],[-98.032436,34.927347],[-98.02267,34.937011],[-98.022692,34.941953],[-98.024562,34.941949],[-98.005749,34.961385],[-98.005066,34.964001],[-98.005031,34.9709],[-98.022652,34.970963],[-98.02268,34.956445],[-98.048421,34.956399],[-98.048948,34.954888],[-98.048973,34.950227],[-98.049313,34.949212],[-98.057804,34.949079],[-98.057812,34.971762],[-98.059313,34.972219],[-98.062662,34.9718],[-98.063342,34.97229],[-98.063595,34.974718],[-98.065195,34.977578],[-98.065287,34.981334],[-98.057812,34.98165],[-98.057788,35.014359],[-98.093005,35.014147],[-98.128208,35.014133],[-98.128134,35.003281],[-98.127948,35.001157],[-98.12816,34.99872],[-98.128145,34.985234],[-98.180805,34.985301],[-98.180807,34.970849]]]}},{"type":"Feature","properties":{"zcta5":"73009","AFFGEOID10":"8600000US73009","GEOID10":"73009","ALAND10":206537752,"AWATER10":1246474,"county_name":"Caddo","state_code":"OK","county_state":"Caddo County, OK","county_fips":"40015","risk_level_county":"Medium Risk (70–79% vaccinated)","mean_vaccination_rate_county":71.68,"risk_level_zcta":"Medium Risk (70–79% vaccinated)","mean_vaccination_rate_zips":75.31,"cases":1},"geometry":{"type":"Polygon","coordinates":[[[-98.500266,35.290716],[-98.500124,35.262012],[-98.482499,35.261983],[-98.482613,35.247591],[-98.464488,35.247455],[-98.458916,35.247732],[-98.457667,35.248883],[-98.455816,35.252226],[-98.455713,35.254376],[-98.451263,35.261314],[-98.451245,35.262009],[-98.429671,35.261995],[-98.429697,35.247525],[-98.41507,35.247462],[-98.412046,35.24435],[-98.412022,35.234064],[-98.410819,35.233063],[-98.401503,35.233037],[-98.394458,35.225798],[-98.394471,35.218526],[-98.387471,35.218489],[-98.356234,35.186976],[-98.354616,35.188341],[-98.349841,35.192843],[-98.348444,35.192846],[-98.345865,35.191419],[-98.345864,35.196592],[-98.340529,35.201705],[-98.340483,35.204033],[-98.341614,35.204028],[-98.341545,35.218408],[-98.356285,35.218443],[-98.359224,35.218648],[-98.359178,35.232793],[-98.341578,35.232747],[-98.34165,35.261715],[-98.324006,35.261752],[-98.324027,35.247185],[-98.306411,35.247304],[-98.306409,35.254455],[-98.275439,35.254355],[-98.277561,35.250927],[-98.276962,35.249748],[-98.273728,35.248648],[-98.271378,35.247274],[-98.271386,35.232907],[-98.262309,35.232744],[-98.262606,35.261722],[-98.262698,35.268928],[-98.271392,35.269018],[-98.271548,35.262789],[-98.272116,35.261809],[-98.286913,35.261857],[-98.288904,35.262155],[-98.288961,35.279998],[-98.287116,35.279997],[-98.283764,35.283982],[-98.277815,35.292148],[-98.276407,35.294441],[-98.26903,35.294431],[-98.264945,35.294866],[-98.260256,35.296407],[-98.256851,35.298372],[-98.253752,35.300787],[-98.253988,35.328567],[-98.252241,35.33474],[-98.254051,35.338953],[-98.254578,35.345035],[-98.253953,35.346256],[-98.253908,35.354316],[-98.256246,35.354207],[-98.258177,35.353539],[-98.259617,35.353897],[-98.260675,35.352564],[-98.262775,35.353128],[-98.262802,35.362819],[-98.27299,35.362806],[-98.273969,35.360172],[-98.275405,35.358617],[-98.277579,35.357776],[-98.277682,35.354724],[-98.27723,35.353398],[-98.278023,35.347251],[-98.278782,35.345892],[-98.281228,35.345081],[-98.282304,35.343162],[-98.285121,35.34156],[-98.288888,35.342375],[-98.289175,35.348403],[-98.302235,35.3484],[-98.303017,35.350526],[-98.305259,35.348373],[-98.317179,35.348369],[-98.317895,35.346952],[-98.322111,35.342365],[-98.324052,35.341302],[-98.325036,35.337831],[-98.324909,35.334036],[-98.341646,35.334136],[-98.341735,35.348515],[-98.360903,35.348451],[-98.359434,35.345362],[-98.359357,35.334146],[-98.42983,35.334316],[-98.429835,35.325829],[-98.429646,35.32351],[-98.429874,35.317003],[-98.429768,35.305246],[-98.447392,35.305161],[-98.447415,35.290738],[-98.465052,35.290713],[-98.465102,35.305116],[-98.48266,35.305135],[-98.482614,35.290719],[-98.500266,35.290716]]]}},{"type":"Feature","properties":{"zcta5":"73092","AFFGEOID10":"8600000US73092","GEOID10":"73092","ALAND10":144909823,"AWATER10":4616710,"county_name":"Caddo","state_code":"OK","county_state":"Caddo County, OK","county_fips":"40015","risk_level_county":"Medium Risk (70–79% vaccinated)","mean_vaccination_rate_county":71.68,"risk_level_zcta":"Higher Risk (60–69% vaccinated)","mean_vaccination_rate_zips":66.9,"cases":1},"geometry":{"type":"Polygon","coordinates":[[[-98.1532,35.189345],[-98.179421,35.189262],[-98.179401,35.174843],[-98.170581,35.174805],[-98.170398,35.160316],[-98.162689,35.160314],[-98.161835,35.158611],[-98.161426,35.155258],[-98.160751,35.145701],[-98.161762,35.145747],[-98.161695,35.125109],[-98.144065,35.124667],[-98.144066,35.116804],[-98.161689,35.116906],[-98.161671,35.102428],[-98.144048,35.102311],[-98.144282,35.095898],[-98.14596,35.094719],[-98.146601,35.087824],[-98.169165,35.087885],[-98.170637,35.086869],[-98.168104,35.085624],[-98.170699,35.083551],[-98.16981,35.082126],[-98.17048,35.081012],[-98.169564,35.07878],[-98.167672,35.078111],[-98.162104,35.079324],[-98.160963,35.080621],[-98.159989,35.080255],[-98.159044,35.078384],[-98.159716,35.076869],[-98.156346,35.077713],[-98.152613,35.078124],[-98.1508,35.080482],[-98.149435,35.081169],[-98.145786,35.079839],[-98.14576,35.078034],[-98.139237,35.080153],[-98.135268,35.081122],[-98.128235,35.081862],[-98.128189,35.086958],[-98.110586,35.086882],[-98.110611,35.083182],[-98.106196,35.083523],[-98.106094,35.078863],[-98.110511,35.076824],[-98.110694,35.064887],[-98.092989,35.064887],[-98.09289,35.072317],[-98.075502,35.072386],[-98.075457,35.06498],[-98.066944,35.064992],[-98.05932,35.064268],[-98.040263,35.06428],[-98.04028,35.072462],[-98.031735,35.072477],[-98.03374,35.07427],[-98.025745,35.07411],[-98.022735,35.074507],[-98.022711,35.079901],[-97.999995,35.073466],[-97.99621,35.07311],[-97.996185,35.084579],[-97.99853,35.084162],[-97.998783,35.08707],[-98.001361,35.085992],[-98.002418,35.088671],[-98.005288,35.088949],[-98.008437,35.087003],[-98.00877,35.08879],[-98.01267,35.089639],[-98.013757,35.09051],[-98.015819,35.089205],[-98.015149,35.091129],[-98.012166,35.093807],[-98.010298,35.09628],[-98.007981,35.101477],[-98.010739,35.10386],[-98.013051,35.104251],[-98.013776,35.103198],[-98.015477,35.102946],[-98.015227,35.100977],[-98.016593,35.099992],[-98.019602,35.101436],[-98.021133,35.103017],[-98.019711,35.105536],[-98.017091,35.106818],[-98.017898,35.107734],[-98.017228,35.109543],[-98.017199,35.112085],[-98.018983,35.111216],[-98.020348,35.11172],[-98.020822,35.114445],[-98.021992,35.114629],[-98.022386,35.116545],[-98.032615,35.116751],[-98.034058,35.119739],[-98.036455,35.120908],[-98.03598,35.122305],[-98.032245,35.123105],[-98.029625,35.122375],[-98.029582,35.131021],[-98.038801,35.131306],[-98.038838,35.160159],[-98.056682,35.160199],[-98.065315,35.160194],[-98.065276,35.174762],[-98.074036,35.174813],[-98.073829,35.182083],[-98.065534,35.182109],[-98.065407,35.189237],[-98.091312,35.189207],[-98.1532,35.189345]]]}},{"type":"Feature","properties":{"zcta5":"73053","AFFGEOID10":"8600000US73053","GEOID10":"73053","ALAND10":194715810,"AWATER10":1194358,"county_name":"Caddo","state_code":"OK","county_state":"Caddo County, OK","county_fips":"40015","risk_level_county":"Medium Risk (70–79% vaccinated)","mean_vaccination_rate_county":71.68,"risk_level_zcta":"Lower Risk (80–84% vaccinated)","mean_vaccination_rate_zips":81.63,"cases":1},"geometry":{"type":"Polygon","coordinates":[[[-98.465212,35.406243],[-98.465016,35.391789],[-98.517743,35.391815],[-98.518318,35.38654],[-98.515803,35.383796],[-98.51656,35.381075],[-98.516952,35.377325],[-98.516647,35.370377],[-98.517206,35.369486],[-98.517152,35.36633],[-98.516705,35.364408],[-98.514744,35.3629],[-98.524731,35.362838],[-98.535372,35.372641],[-98.535216,35.348425],[-98.509466,35.348421],[-98.51335,35.344213],[-98.515305,35.34071],[-98.515249,35.338979],[-98.517271,35.334011],[-98.517726,35.332132],[-98.517686,35.306346],[-98.518262,35.305136],[-98.517715,35.302792],[-98.517712,35.290701],[-98.500266,35.290716],[-98.482614,35.290719],[-98.48266,35.305135],[-98.465102,35.305116],[-98.465052,35.290713],[-98.447415,35.290738],[-98.447392,35.305161],[-98.429768,35.305246],[-98.429874,35.317003],[-98.429646,35.32351],[-98.429835,35.325829],[-98.42983,35.334316],[-98.359357,35.334146],[-98.359434,35.345362],[-98.360903,35.348451],[-98.341735,35.348515],[-98.341646,35.334136],[-98.324909,35.334036],[-98.325036,35.337831],[-98.324052,35.341302],[-98.322111,35.342365],[-98.317895,35.346952],[-98.317179,35.348369],[-98.305259,35.348373],[-98.303017,35.350526],[-98.302235,35.3484],[-98.289175,35.348403],[-98.288888,35.342375],[-98.285121,35.34156],[-98.282304,35.343162],[-98.281228,35.345081],[-98.278782,35.345892],[-98.278023,35.347251],[-98.27723,35.353398],[-98.277682,35.354724],[-98.277579,35.357776],[-98.278954,35.357053],[-98.280645,35.35782],[-98.280958,35.359206],[-98.28379,35.357767],[-98.284088,35.359467],[-98.283518,35.360688],[-98.283495,35.363311],[-98.28142,35.364034],[-98.280024,35.363751],[-98.278448,35.365103],[-98.276526,35.3652],[-98.275237,35.36622],[-98.275029,35.369652],[-98.272588,35.369571],[-98.271748,35.370197],[-98.271672,35.377091],[-98.3041,35.377264],[-98.305204,35.377162],[-98.30628,35.420484],[-98.362544,35.420909],[-98.363873,35.418854],[-98.369238,35.412223],[-98.372567,35.406357],[-98.390723,35.406403],[-98.398621,35.406829],[-98.399487,35.40802],[-98.401142,35.413889],[-98.412033,35.413883],[-98.41206,35.406338],[-98.465212,35.406243]]]}},{"type":"Feature","properties":{"zcta5":"73042","AFFGEOID10":"8600000US73042","GEOID10":"73042","ALAND10":275681454,"AWATER10":686880,"county_name":"Caddo","state_code":"OK","county_state":"Caddo County, OK","county_fips":"40015","risk_level_county":"Medium Risk (70–79% vaccinated)","mean_vaccination_rate_county":71.68,"risk_level_zcta":"Lower Risk (80–84% vaccinated)","mean_vaccination_rate_zips":81.86,"cases":1},"geometry":{"type":"Polygon","coordinates":[[[-98.253908,35.354316],[-98.253953,35.346256],[-98.254578,35.345035],[-98.254051,35.338953],[-98.252241,35.33474],[-98.253988,35.328567],[-98.253752,35.300787],[-98.256851,35.298372],[-98.260256,35.296407],[-98.264945,35.294866],[-98.26903,35.294431],[-98.276407,35.294441],[-98.277815,35.292148],[-98.283764,35.283982],[-98.287116,35.279997],[-98.288961,35.279998],[-98.288904,35.262155],[-98.286913,35.261857],[-98.272116,35.261809],[-98.271548,35.262789],[-98.271392,35.269018],[-98.262698,35.268928],[-98.262606,35.261722],[-98.262309,35.232744],[-98.271386,35.232907],[-98.271378,35.247274],[-98.273728,35.248648],[-98.276962,35.249748],[-98.277561,35.250927],[-98.275439,35.254355],[-98.306409,35.254455],[-98.306411,35.247304],[-98.324027,35.247185],[-98.324006,35.261752],[-98.34165,35.261715],[-98.341578,35.232747],[-98.359178,35.232793],[-98.359224,35.218648],[-98.356285,35.218443],[-98.341545,35.218408],[-98.341614,35.204028],[-98.340483,35.204033],[-98.340529,35.201705],[-98.345864,35.196592],[-98.345865,35.191419],[-98.348444,35.192846],[-98.349841,35.192843],[-98.354616,35.188341],[-98.354675,35.175088],[-98.345869,35.175096],[-98.345857,35.153341],[-98.336955,35.153379],[-98.33692,35.146234],[-98.328286,35.146188],[-98.328272,35.140495],[-98.327693,35.14083],[-98.328266,35.139544],[-98.328195,35.131856],[-98.330127,35.131837],[-98.332387,35.129448],[-98.330259,35.129817],[-98.331833,35.127299],[-98.331595,35.124724],[-98.330441,35.12696],[-98.329648,35.125545],[-98.327015,35.125073],[-98.32995,35.124648],[-98.330288,35.120738],[-98.331845,35.123222],[-98.332992,35.121266],[-98.332714,35.120444],[-98.33009,35.119892],[-98.328874,35.117308],[-98.31956,35.117285],[-98.319505,35.144502],[-98.318452,35.146163],[-98.319505,35.146396],[-98.319616,35.153399],[-98.302047,35.153313],[-98.302055,35.146123],[-98.293413,35.146107],[-98.293413,35.131733],[-98.284634,35.131676],[-98.284628,35.117275],[-98.253128,35.117213],[-98.25403,35.120926],[-98.258064,35.12093],[-98.258056,35.122655],[-98.253842,35.122675],[-98.25013,35.137576],[-98.249685,35.142266],[-98.249689,35.146102],[-98.231803,35.146035],[-98.231785,35.160499],[-98.214122,35.160422],[-98.213999,35.165383],[-98.213401,35.166656],[-98.21402,35.168462],[-98.213992,35.173543],[-98.213532,35.175272],[-98.211094,35.174836],[-98.179401,35.174843],[-98.179421,35.189262],[-98.1532,35.189345],[-98.155792,35.203782],[-98.14784,35.203737],[-98.147911,35.209621],[-98.147706,35.214249],[-98.148474,35.215371],[-98.147924,35.21796],[-98.156271,35.218198],[-98.156321,35.24723],[-98.165698,35.247211],[-98.165962,35.276212],[-98.183592,35.27638],[-98.183126,35.290705],[-98.190643,35.290704],[-98.190039,35.293695],[-98.190597,35.294997],[-98.190345,35.297279],[-98.192608,35.298418],[-98.192747,35.301773],[-98.191447,35.304987],[-98.195356,35.305277],[-98.196508,35.309235],[-98.196514,35.313807],[-98.195509,35.315425],[-98.1963,35.320566],[-98.195799,35.322754],[-98.194853,35.323843],[-98.192251,35.325121],[-98.19218,35.332247],[-98.192462,35.338091],[-98.196331,35.338106],[-98.201177,35.336564],[-98.201171,35.347458],[-98.202685,35.348006],[-98.218784,35.348153],[-98.218829,35.36234],[-98.219164,35.362572],[-98.239596,35.362635],[-98.242238,35.365039],[-98.243882,35.365128],[-98.245643,35.363728],[-98.248021,35.3637],[-98.249157,35.362633],[-98.254047,35.36272],[-98.253908,35.354316]]]}},{"type":"Feature","properties":{"zcta5":"73048","AFFGEOID10":"8600000US73048","GEOID10":"73048","ALAND10":484572094,"AWATER10":787635,"county_name":"Caddo","state_code":"OK","county_state":"Caddo County, OK","county_fips":"40015","risk_level_county":"Medium Risk (70–79% vaccinated)","mean_vaccination_rate_county":71.68,"risk_level_zcta":"Very High Risk (<60% vaccinated)","mean_vaccination_rate_zips":57.52,"cases":1},"geometry":{"type":"Polygon","coordinates":[[[-98.594348,35.686361],[-98.595359,35.686804],[-98.597018,35.685999],[-98.601625,35.687361],[-98.609353,35.687633],[-98.610089,35.682261],[-98.610021,35.677838],[-98.6128,35.675966],[-98.613008,35.674985],[-98.616752,35.672421],[-98.618865,35.670224],[-98.62061,35.663875],[-98.62343,35.658431],[-98.623407,35.653012],[-98.63216,35.653008],[-98.632185,35.65977],[-98.634971,35.66019],[-98.640716,35.660192],[-98.64056,35.667546],[-98.703247,35.667571],[-98.703187,35.638487],[-98.685381,35.638492],[-98.685422,35.635601],[-98.685429,35.623995],[-98.632176,35.624017],[-98.63207,35.551617],[-98.624165,35.551651],[-98.623149,35.551597],[-98.623365,35.536923],[-98.623268,35.536472],[-98.639415,35.536452],[-98.640537,35.536264],[-98.641346,35.536258],[-98.641911,35.532673],[-98.644285,35.531529],[-98.645484,35.529421],[-98.65068,35.527547],[-98.651066,35.525574],[-98.650083,35.52472],[-98.649964,35.522434],[-98.649569,35.523305],[-98.647763,35.522441],[-98.623297,35.522386],[-98.623409,35.494364],[-98.62401,35.493485],[-98.623277,35.492064],[-98.623336,35.464225],[-98.623332,35.435381],[-98.623195,35.434796],[-98.623247,35.405791],[-98.622147,35.404286],[-98.619996,35.404915],[-98.619993,35.40635],[-98.617605,35.406351],[-98.616666,35.402764],[-98.615154,35.401911],[-98.6149,35.400095],[-98.613386,35.398963],[-98.606175,35.398927],[-98.606152,35.391842],[-98.604124,35.391859],[-98.604408,35.388074],[-98.602769,35.384612],[-98.597511,35.384617],[-98.597277,35.363069],[-98.57051,35.363024],[-98.570445,35.334143],[-98.526444,35.334042],[-98.526624,35.319493],[-98.526196,35.315524],[-98.526446,35.290702],[-98.553071,35.290711],[-98.552986,35.30321],[-98.557086,35.30316],[-98.557216,35.30181],[-98.560477,35.300819],[-98.561569,35.302273],[-98.561437,35.305156],[-98.570625,35.305186],[-98.570808,35.261965],[-98.572322,35.262137],[-98.570379,35.258176],[-98.566861,35.255863],[-98.563622,35.255131],[-98.563036,35.254398],[-98.563481,35.252061],[-98.562002,35.250664],[-98.562308,35.249092],[-98.5608,35.247145],[-98.560689,35.244946],[-98.55946,35.243792],[-98.558732,35.240688],[-98.556526,35.239541],[-98.554848,35.236264],[-98.553452,35.234548],[-98.553051,35.247578],[-98.530708,35.247476],[-98.528723,35.241421],[-98.526492,35.237359],[-98.524427,35.237107],[-98.523981,35.235228],[-98.520245,35.233095],[-98.513194,35.233079],[-98.509055,35.234078],[-98.509125,35.247522],[-98.482613,35.247591],[-98.482499,35.261983],[-98.500124,35.262012],[-98.500266,35.290716],[-98.517712,35.290701],[-98.517715,35.302792],[-98.518262,35.305136],[-98.517686,35.306346],[-98.517726,35.332132],[-98.517271,35.334011],[-98.515249,35.338979],[-98.515305,35.34071],[-98.51335,35.344213],[-98.509466,35.348421],[-98.535216,35.348425],[-98.535372,35.372641],[-98.524731,35.362838],[-98.514744,35.3629],[-98.516705,35.364408],[-98.517152,35.36633],[-98.517206,35.369486],[-98.516647,35.370377],[-98.516952,35.377325],[-98.51656,35.381075],[-98.515803,35.383796],[-98.518318,35.38654],[-98.517743,35.391815],[-98.465016,35.391789],[-98.465212,35.406243],[-98.465124,35.419136],[-98.465285,35.420674],[-98.474085,35.42065],[-98.473913,35.44964],[-98.447334,35.449523],[-98.447268,35.459285],[-98.44839,35.461431],[-98.44732,35.464532],[-98.447428,35.485796],[-98.464956,35.485796],[-98.46489,35.529298],[-98.43844,35.529036],[-98.438438,35.536578],[-98.424493,35.536531],[-98.424566,35.539737],[-98.425798,35.541228],[-98.424901,35.542535],[-98.425039,35.546067],[-98.430108,35.550062],[-98.429619,35.55147],[-98.453957,35.55145],[-98.453728,35.554188],[-98.455004,35.556614],[-98.456634,35.558093],[-98.459209,35.558378],[-98.465617,35.561021],[-98.466426,35.561923],[-98.468296,35.562203],[-98.470127,35.561185],[-98.470507,35.559152],[-98.472047,35.557358],[-98.473575,35.557292],[-98.476985,35.559412],[-98.480721,35.55852],[-98.485784,35.559086],[-98.486757,35.557842],[-98.491318,35.559181],[-98.498774,35.563162],[-98.499286,35.563833],[-98.501204,35.564659],[-98.50348,35.567642],[-98.505789,35.569873],[-98.507044,35.574916],[-98.50881,35.576462],[-98.508548,35.579796],[-98.511323,35.58351],[-98.5133,35.58702],[-98.517118,35.591473],[-98.51964,35.592604],[-98.525225,35.591247],[-98.525493,35.594716],[-98.531856,35.596786],[-98.534443,35.59829],[-98.538404,35.599684],[-98.541692,35.601221],[-98.54436,35.603185],[-98.544924,35.604352],[-98.549548,35.607951],[-98.553177,35.611824],[-98.554286,35.613647],[-98.553183,35.617352],[-98.55363,35.619892],[-98.555184,35.622463],[-98.557072,35.624034],[-98.559655,35.625273],[-98.566577,35.629409],[-98.568989,35.631559],[-98.568702,35.633573],[-98.568975,35.63759],[-98.568197,35.640643],[-98.568276,35.645584],[-98.572885,35.649351],[-98.577382,35.651494],[-98.583462,35.653418],[-98.586027,35.654875],[-98.587384,35.657932],[-98.588872,35.658833],[-98.588148,35.663152],[-98.588296,35.664362],[-98.589858,35.666165],[-98.583026,35.670536],[-98.585029,35.671409],[-98.588876,35.671353],[-98.589518,35.671801],[-98.590338,35.675557],[-98.589915,35.679959],[-98.593272,35.684105],[-98.594348,35.686361]]]}},{"type":"Feature","properties":{"zcta5":"73038","AFFGEOID10":"8600000US73038","GEOID10":"73038","ALAND10":387208139,"AWATER10":15980279,"county_name":"Caddo","state_code":"OK","county_state":"Caddo County, OK","county_fips":"40015","risk_level_county":"Medium Risk (70–79% vaccinated)","mean_vaccination_rate_county":71.68,"risk_level_zcta":"Higher Risk (60–69% vaccinated)","mean_vaccination_rate_zips":69.86,"cases":1},"geometry":{"type":"Polygon","coordinates":[[[-98.520245,35.233095],[-98.522944,35.229586],[-98.522931,35.227634],[-98.520972,35.225573],[-98.521235,35.224188],[-98.518939,35.225927],[-98.518115,35.227522],[-98.516535,35.227418],[-98.515208,35.226468],[-98.515755,35.223259],[-98.517842,35.223141],[-98.517884,35.218623],[-98.51325,35.218718],[-98.514574,35.217311],[-98.515197,35.214454],[-98.514578,35.213224],[-98.513577,35.216043],[-98.512167,35.216384],[-98.510957,35.215536],[-98.510977,35.213869],[-98.512151,35.211734],[-98.509029,35.211469],[-98.508082,35.204941],[-98.508209,35.203341],[-98.506817,35.202523],[-98.503612,35.20245],[-98.503344,35.204229],[-98.497967,35.204164],[-98.497346,35.203651],[-98.499541,35.203064],[-98.499557,35.200625],[-98.503979,35.200588],[-98.50398,35.196951],[-98.512492,35.196888],[-98.512508,35.189783],[-98.530201,35.189959],[-98.530205,35.20424],[-98.565475,35.204192],[-98.565422,35.189777],[-98.547967,35.18992],[-98.5479,35.175425],[-98.538492,35.17548],[-98.534839,35.179522],[-98.530197,35.179329],[-98.530166,35.117498],[-98.521279,35.117467],[-98.521263,35.106244],[-98.52301,35.106132],[-98.524071,35.105102],[-98.522928,35.104048],[-98.523598,35.101574],[-98.524463,35.100819],[-98.527054,35.102515],[-98.529702,35.101851],[-98.531652,35.102997],[-98.532933,35.10767],[-98.533629,35.108105],[-98.536556,35.1079],[-98.537643,35.105632],[-98.539483,35.104946],[-98.541294,35.107374],[-98.543189,35.107901],[-98.544973,35.106069],[-98.548569,35.103596],[-98.549404,35.105039],[-98.548094,35.107054],[-98.548345,35.108543],[-98.549571,35.109551],[-98.553668,35.11017],[-98.555953,35.110995],[-98.560107,35.11349],[-98.561278,35.115071],[-98.561688,35.11769],[-98.56697,35.117286],[-98.569047,35.114348],[-98.569585,35.11127],[-98.569586,35.108055],[-98.568492,35.107525],[-98.569476,35.10477],[-98.569171,35.103574],[-98.570965,35.104096],[-98.572022,35.101793],[-98.553372,35.101914],[-98.551676,35.101186],[-98.535518,35.100396],[-98.532712,35.099581],[-98.532931,35.087073],[-98.52224,35.087366],[-98.514946,35.087323],[-98.514656,35.073298],[-98.514462,35.05828],[-98.514591,35.053634],[-98.511935,35.054743],[-98.507675,35.055271],[-98.506768,35.056231],[-98.506722,35.058275],[-98.497875,35.058288],[-98.497822,34.971023],[-98.497786,34.968124],[-98.495453,34.966196],[-98.495942,34.964791],[-98.494458,34.96435],[-98.490274,34.960891],[-98.488595,34.960884],[-98.486437,34.959638],[-98.482296,34.959737],[-98.478702,34.956854],[-98.479362,34.955933],[-98.477315,34.955282],[-98.477726,34.954385],[-98.475806,34.953538],[-98.475249,34.952164],[-98.473413,34.952165],[-98.472049,34.949393],[-98.470019,34.949554],[-98.46885,34.948753],[-98.468349,34.946921],[-98.466067,34.945158],[-98.463412,34.94589],[-98.462249,34.944431],[-98.462302,34.941922],[-98.448574,34.941883],[-98.444591,34.939002],[-98.444645,34.956643],[-98.462289,34.956601],[-98.462333,34.971176],[-98.444629,34.971167],[-98.444605,34.984575],[-98.444184,34.987596],[-98.444676,34.990525],[-98.444783,35.000243],[-98.427249,35.000317],[-98.427353,35.014905],[-98.391945,35.014775],[-98.392141,35.031035],[-98.390791,35.030274],[-98.387887,35.029952],[-98.38435,35.030563],[-98.383416,35.031582],[-98.383327,35.058115],[-98.376083,35.058008],[-98.376896,35.059275],[-98.378164,35.063568],[-98.37774,35.06488],[-98.374654,35.065411],[-98.374693,35.068733],[-98.383303,35.068597],[-98.383316,35.072399],[-98.374493,35.072386],[-98.374051,35.07345],[-98.374451,35.078923],[-98.371347,35.078124],[-98.37028,35.0768],[-98.371536,35.075967],[-98.372316,35.074094],[-98.371446,35.073085],[-98.368591,35.073473],[-98.364621,35.072896],[-98.363256,35.074775],[-98.364874,35.076446],[-98.36493,35.077637],[-98.36128,35.078807],[-98.360221,35.078029],[-98.361029,35.076791],[-98.362505,35.076539],[-98.361417,35.074776],[-98.359021,35.074227],[-98.358829,35.078831],[-98.356043,35.079427],[-98.355903,35.077984],[-98.357073,35.077205],[-98.357127,35.075442],[-98.355289,35.075167],[-98.354064,35.076748],[-98.354956,35.079244],[-98.355486,35.082482],[-98.358441,35.083457],[-98.359695,35.084418],[-98.361479,35.084623],[-98.363263,35.084302],[-98.364041,35.081394],[-98.365212,35.084292],[-98.363149,35.087155],[-98.354861,35.090224],[-98.355287,35.091986],[-98.357777,35.092023],[-98.358223,35.093053],[-98.356859,35.095504],[-98.358393,35.096672],[-98.362099,35.095869],[-98.362128,35.097472],[-98.36121,35.099305],[-98.359232,35.100634],[-98.354514,35.099746],[-98.354552,35.102672],[-98.356772,35.102847],[-98.35669,35.106011],[-98.354976,35.106426],[-98.3502,35.105153],[-98.349324,35.105393],[-98.350982,35.106624],[-98.351081,35.112014],[-98.354778,35.116164],[-98.354763,35.117304],[-98.336916,35.117348],[-98.336903,35.121696],[-98.332714,35.120444],[-98.332992,35.121266],[-98.331845,35.123222],[-98.330288,35.120738],[-98.32995,35.124648],[-98.327015,35.125073],[-98.329648,35.125545],[-98.330441,35.12696],[-98.331595,35.124724],[-98.331833,35.127299],[-98.330259,35.129817],[-98.332387,35.129448],[-98.330127,35.131837],[-98.328195,35.131856],[-98.328266,35.139544],[-98.327693,35.14083],[-98.328272,35.140495],[-98.328286,35.146188],[-98.33692,35.146234],[-98.336955,35.153379],[-98.345857,35.153341],[-98.345869,35.175096],[-98.354675,35.175088],[-98.354616,35.188341],[-98.356234,35.186976],[-98.387471,35.218489],[-98.394471,35.218526],[-98.394458,35.225798],[-98.401503,35.233037],[-98.410819,35.233063],[-98.412022,35.234064],[-98.412046,35.24435],[-98.41507,35.247462],[-98.429697,35.247525],[-98.429671,35.261995],[-98.451245,35.262009],[-98.451263,35.261314],[-98.455713,35.254376],[-98.455816,35.252226],[-98.457667,35.248883],[-98.458916,35.247732],[-98.464488,35.247455],[-98.482613,35.247591],[-98.509125,35.247522],[-98.509055,35.234078],[-98.513194,35.233079],[-98.520245,35.233095]]]}},{"type":"Feature","properties":{"zcta5":"73005","AFFGEOID10":"8600000US73005","GEOID10":"73005","ALAND10":399764842,"AWATER10":1602212,"county_name":"Caddo","state_code":"OK","county_state":"Caddo County, OK","county_fips":"40015","risk_level_county":"Medium Risk (70–79% vaccinated)","mean_vaccination_rate_county":71.68,"risk_level_zcta":"Higher Risk (60–69% vaccinated)","mean_vaccination_rate_zips":64.9,"cases":1},"geometry":{"type":"Polygon","coordinates":[[[-98.332714,35.120444],[-98.336903,35.121696],[-98.336916,35.117348],[-98.354763,35.117304],[-98.354778,35.116164],[-98.351081,35.112014],[-98.350982,35.106624],[-98.349324,35.105393],[-98.3502,35.105153],[-98.354976,35.106426],[-98.35669,35.106011],[-98.356772,35.102847],[-98.354552,35.102672],[-98.354514,35.099746],[-98.359232,35.100634],[-98.36121,35.099305],[-98.362128,35.097472],[-98.362099,35.095869],[-98.358393,35.096672],[-98.356859,35.095504],[-98.358223,35.093053],[-98.357777,35.092023],[-98.355287,35.091986],[-98.354861,35.090224],[-98.363149,35.087155],[-98.365212,35.084292],[-98.364041,35.081394],[-98.363263,35.084302],[-98.361479,35.084623],[-98.359695,35.084418],[-98.358441,35.083457],[-98.355486,35.082482],[-98.354956,35.079244],[-98.354064,35.076748],[-98.355289,35.075167],[-98.357127,35.075442],[-98.357073,35.077205],[-98.355903,35.077984],[-98.356043,35.079427],[-98.358829,35.078831],[-98.359021,35.074227],[-98.361417,35.074776],[-98.362505,35.076539],[-98.361029,35.076791],[-98.360221,35.078029],[-98.36128,35.078807],[-98.36493,35.077637],[-98.364874,35.076446],[-98.363256,35.074775],[-98.364621,35.072896],[-98.368591,35.073473],[-98.371446,35.073085],[-98.372316,35.074094],[-98.371536,35.075967],[-98.37028,35.0768],[-98.371347,35.078124],[-98.374451,35.078923],[-98.374051,35.07345],[-98.374493,35.072386],[-98.383316,35.072399],[-98.383303,35.068597],[-98.374693,35.068733],[-98.374654,35.065411],[-98.37774,35.06488],[-98.378164,35.063568],[-98.376896,35.059275],[-98.376083,35.058008],[-98.383327,35.058115],[-98.383416,35.031582],[-98.38435,35.030563],[-98.387887,35.029952],[-98.390791,35.030274],[-98.392141,35.031035],[-98.391945,35.014775],[-98.355509,35.014432],[-98.356716,35.011015],[-98.35671,35.000261],[-98.33912,35.000249],[-98.339144,34.985701],[-98.330342,34.985727],[-98.334879,34.999453],[-98.334343,35.003911],[-98.335686,35.009125],[-98.332395,35.01465],[-98.303967,35.014572],[-98.303974,35.007378],[-98.308725,35.007401],[-98.309851,35.007826],[-98.306992,35.000104],[-98.303993,35.000096],[-98.303984,34.989217],[-98.29989,34.989203],[-98.299722,34.985379],[-98.300446,34.984807],[-98.296021,34.984253],[-98.295271,34.981548],[-98.300511,34.977825],[-98.30397,34.973836],[-98.303928,34.956633],[-98.286468,34.956575],[-98.286522,34.985595],[-98.268931,34.985532],[-98.268811,34.934816],[-98.260143,34.934872],[-98.260164,34.942076],[-98.251336,34.942066],[-98.251314,34.959166],[-98.248792,34.958401],[-98.245628,34.959112],[-98.243369,34.95911],[-98.242064,34.961236],[-98.239595,34.961209],[-98.239266,34.962718],[-98.236778,34.962502],[-98.23608,34.963745],[-98.234528,34.963593],[-98.233748,34.965673],[-98.233767,34.97102],[-98.180807,34.970849],[-98.180805,34.985301],[-98.128145,34.985234],[-98.12816,34.99872],[-98.127948,35.001157],[-98.128134,35.003281],[-98.128208,35.014133],[-98.093005,35.014147],[-98.092989,35.064887],[-98.110694,35.064887],[-98.110511,35.076824],[-98.106094,35.078863],[-98.106196,35.083523],[-98.110611,35.083182],[-98.110586,35.086882],[-98.128189,35.086958],[-98.128235,35.081862],[-98.135268,35.081122],[-98.139237,35.080153],[-98.14576,35.078034],[-98.145786,35.079839],[-98.149435,35.081169],[-98.1508,35.080482],[-98.152613,35.078124],[-98.156346,35.077713],[-98.159716,35.076869],[-98.159044,35.078384],[-98.159989,35.080255],[-98.160963,35.080621],[-98.162104,35.079324],[-98.167672,35.078111],[-98.169564,35.07878],[-98.17048,35.081012],[-98.16981,35.082126],[-98.170699,35.083551],[-98.168104,35.085624],[-98.170637,35.086869],[-98.169165,35.087885],[-98.146601,35.087824],[-98.14596,35.094719],[-98.144282,35.095898],[-98.144048,35.102311],[-98.161671,35.102428],[-98.161689,35.116906],[-98.144066,35.116804],[-98.144065,35.124667],[-98.161695,35.125109],[-98.161762,35.145747],[-98.160751,35.145701],[-98.161426,35.155258],[-98.161835,35.158611],[-98.162689,35.160314],[-98.170398,35.160316],[-98.170581,35.174805],[-98.179401,35.174843],[-98.211094,35.174836],[-98.213532,35.175272],[-98.213992,35.173543],[-98.21402,35.168462],[-98.213401,35.166656],[-98.213999,35.165383],[-98.214122,35.160422],[-98.231785,35.160499],[-98.231803,35.146035],[-98.249689,35.146102],[-98.249685,35.142266],[-98.25013,35.137576],[-98.253842,35.122675],[-98.258056,35.122655],[-98.258064,35.12093],[-98.25403,35.120926],[-98.253128,35.117213],[-98.284628,35.117275],[-98.284634,35.131676],[-98.293413,35.131733],[-98.293413,35.146107],[-98.302055,35.146123],[-98.302047,35.153313],[-98.319616,35.153399],[-98.319505,35.146396],[-98.318452,35.146163],[-98.319505,35.144502],[-98.31956,35.117285],[-98.328874,35.117308],[-98.33009,35.119892],[-98.332714,35.120444]]]}},{"type":"Feature","properties":{"zcta5":"73015","AFFGEOID10":"8600000US73015","GEOID10":"73015","ALAND10":567549994,"AWATER10":2946966,"county_name":"Caddo","state_code":"OK","county_state":"Caddo County, OK","county_fips":"40015","risk_level_county":"Medium Risk (70–79% vaccinated)","mean_vaccination_rate_county":71.68,"risk_level_zcta":"Medium Risk (70–79% vaccinated)","mean_vaccination_rate_zips":75.98,"cases":1},"geometry":{"type":"Polygon","coordinates":[[[-98.667812,35.233096],[-98.667794,35.218621],[-98.641358,35.218666],[-98.641477,35.204169],[-98.645534,35.20414],[-98.662002,35.204205],[-98.662111,35.146208],[-98.67093,35.146245],[-98.670886,35.131745],[-98.662147,35.131755],[-98.662203,35.118321],[-98.660775,35.119397],[-98.65924,35.12187],[-98.657344,35.122557],[-98.655477,35.121617],[-98.653303,35.121594],[-98.65227,35.123975],[-98.651267,35.124181],[-98.650013,35.122623],[-98.647338,35.12134],[-98.646084,35.119118],[-98.642795,35.120101],[-98.642461,35.119025],[-98.644469,35.11701],[-98.64575,35.118179],[-98.647785,35.117721],[-98.650685,35.115226],[-98.645642,35.111605],[-98.643803,35.111536],[-98.64121,35.113275],[-98.639422,35.119298],[-98.639894,35.122849],[-98.638918,35.123169],[-98.6351,35.121335],[-98.629975,35.116385],[-98.628974,35.112858],[-98.629338,35.110361],[-98.627498,35.109261],[-98.62591,35.109191],[-98.624929,35.106879],[-98.62534,35.102378],[-98.622308,35.097237],[-98.621054,35.097352],[-98.620707,35.091528],[-98.62355,35.090652],[-98.62594,35.090685],[-98.63644,35.093971],[-98.63846,35.094455],[-98.638552,35.080163],[-98.656325,35.080922],[-98.656319,35.094642],[-98.673951,35.094738],[-98.673912,35.05834],[-98.691386,35.058439],[-98.691353,35.054428],[-98.673905,35.055205],[-98.672896,35.015378],[-98.672723,35.008094],[-98.677433,35.008076],[-98.678683,35.00552],[-98.680882,35.005611],[-98.682107,35.004901],[-98.682079,35.003458],[-98.684111,35.002611],[-98.686783,35.00355],[-98.688565,35.00268],[-98.689517,35.004596],[-98.689145,35.005883],[-98.690458,35.006276],[-98.690473,35.000781],[-98.673186,34.986546],[-98.673174,34.971654],[-98.690588,34.971683],[-98.690565,34.95709],[-98.672992,34.956893],[-98.673075,34.943103],[-98.673274,34.940259],[-98.675924,34.940309],[-98.675856,34.938792],[-98.672932,34.938491],[-98.672673,34.920753],[-98.655184,34.920274],[-98.655143,34.913279],[-98.619947,34.913276],[-98.619816,34.854953],[-98.602816,34.854959],[-98.545351,34.855104],[-98.548147,34.860129],[-98.549503,34.865846],[-98.549459,34.883494],[-98.550828,34.890273],[-98.551156,34.893682],[-98.550833,34.897773],[-98.553611,34.897981],[-98.553673,34.90226],[-98.558075,34.902264],[-98.558128,34.92034],[-98.549353,34.92037],[-98.54953,34.93268],[-98.550164,34.942169],[-98.556777,34.942182],[-98.55541,34.944072],[-98.554934,34.946454],[-98.553256,34.949339],[-98.552772,34.951852],[-98.550197,34.952819],[-98.550205,34.955761],[-98.548689,34.95759],[-98.54749,34.960364],[-98.5454,34.961898],[-98.544201,34.963525],[-98.542558,34.964441],[-98.537715,34.965153],[-98.53713,34.964533],[-98.534904,34.965752],[-98.534938,34.967356],[-98.533831,34.968107],[-98.534482,34.970554],[-98.53278,34.971096],[-98.505992,34.971041],[-98.505978,34.975497],[-98.501564,34.972864],[-98.501542,34.971024],[-98.497822,34.971023],[-98.497875,35.058288],[-98.506722,35.058275],[-98.506768,35.056231],[-98.507675,35.055271],[-98.511935,35.054743],[-98.514591,35.053634],[-98.514462,35.05828],[-98.514656,35.073298],[-98.514946,35.087323],[-98.52224,35.087366],[-98.532931,35.087073],[-98.532712,35.099581],[-98.535518,35.100396],[-98.551676,35.101186],[-98.553372,35.101914],[-98.572022,35.101793],[-98.570965,35.104096],[-98.569171,35.103574],[-98.569476,35.10477],[-98.568492,35.107525],[-98.569586,35.108055],[-98.569585,35.11127],[-98.569047,35.114348],[-98.56697,35.117286],[-98.561688,35.11769],[-98.561278,35.115071],[-98.560107,35.11349],[-98.555953,35.110995],[-98.553668,35.11017],[-98.549571,35.109551],[-98.548345,35.108543],[-98.548094,35.107054],[-98.549404,35.105039],[-98.548569,35.103596],[-98.544973,35.106069],[-98.543189,35.107901],[-98.541294,35.107374],[-98.539483,35.104946],[-98.537643,35.105632],[-98.536556,35.1079],[-98.533629,35.108105],[-98.532933,35.10767],[-98.531652,35.102997],[-98.529702,35.101851],[-98.527054,35.102515],[-98.524463,35.100819],[-98.523598,35.101574],[-98.522928,35.104048],[-98.524071,35.105102],[-98.52301,35.106132],[-98.521263,35.106244],[-98.521279,35.117467],[-98.530166,35.117498],[-98.530197,35.179329],[-98.534839,35.179522],[-98.538492,35.17548],[-98.5479,35.175425],[-98.547967,35.18992],[-98.565422,35.189777],[-98.565475,35.204192],[-98.530205,35.20424],[-98.530201,35.189959],[-98.512508,35.189783],[-98.512492,35.196888],[-98.50398,35.196951],[-98.503979,35.200588],[-98.499557,35.200625],[-98.499541,35.203064],[-98.497346,35.203651],[-98.497967,35.204164],[-98.503344,35.204229],[-98.503612,35.20245],[-98.506817,35.202523],[-98.508209,35.203341],[-98.508082,35.204941],[-98.509029,35.211469],[-98.512151,35.211734],[-98.510977,35.213869],[-98.510957,35.215536],[-98.512167,35.216384],[-98.513577,35.216043],[-98.514578,35.213224],[-98.515197,35.214454],[-98.514574,35.217311],[-98.51325,35.218718],[-98.517884,35.218623],[-98.517842,35.223141],[-98.515755,35.223259],[-98.515208,35.226468],[-98.516535,35.227418],[-98.518115,35.227522],[-98.518939,35.225927],[-98.521235,35.224188],[-98.520972,35.225573],[-98.522931,35.227634],[-98.522944,35.229586],[-98.520245,35.233095],[-98.523981,35.235228],[-98.524427,35.237107],[-98.526492,35.237359],[-98.528723,35.241421],[-98.530708,35.247476],[-98.553051,35.247578],[-98.553452,35.234548],[-98.554848,35.236264],[-98.556526,35.239541],[-98.558732,35.240688],[-98.55946,35.243792],[-98.560689,35.244946],[-98.5608,35.247145],[-98.562308,35.249092],[-98.562002,35.250664],[-98.563481,35.252061],[-98.563036,35.254398],[-98.563622,35.255131],[-98.566861,35.255863],[-98.570379,35.258176],[-98.572322,35.262137],[-98.570808,35.261965],[-98.570625,35.305186],[-98.606139,35.305079],[-98.605955,35.31414],[-98.605579,35.319615],[-98.605916,35.322101],[-98.607256,35.325035],[-98.607231,35.333737],[-98.623386,35.334048],[-98.623511,35.290792],[-98.658744,35.290795],[-98.659046,35.269413],[-98.659096,35.254826],[-98.667882,35.254848],[-98.667812,35.233096]]]}}]}