{"type":"FeatureCollection","features":[{"type":"Feature","properties":{"zcta5":"21136","AFFGEOID10":"8600000US21136","GEOID10":"21136","ALAND10":145044943,"AWATER10":4265528,"county_name":"Carroll","state_code":"MD","county_state":"Carroll County, MD","county_fips":"24013","risk_level_county":"Medium Risk (70–79% vaccinated)","mean_vaccination_rate_county":75.07,"risk_level_zcta":"Medium Risk (70–79% vaccinated)","mean_vaccination_rate_zips":72.31,"cases":11},"geometry":{"type":"Polygon","coordinates":[[[-76.877816,39.52594],[-76.878439,39.525905],[-76.876553,39.523091],[-76.876788,39.521365],[-76.884766,39.514494],[-76.885649,39.513671],[-76.887203,39.508694],[-76.887116,39.508188],[-76.881243,39.500487],[-76.87928,39.499051],[-76.871034,39.494566],[-76.870573,39.494384],[-76.868387,39.494074],[-76.868704,39.489104],[-76.866532,39.487617],[-76.866966,39.484912],[-76.869309,39.482459],[-76.874798,39.481995],[-76.876612,39.482977],[-76.877338,39.480857],[-76.875443,39.47895],[-76.876901,39.476665],[-76.88074,39.476515],[-76.88176,39.477227],[-76.883294,39.474751],[-76.883,39.472102],[-76.884034,39.470026],[-76.888572,39.468523],[-76.887805,39.467067],[-76.8845,39.466902],[-76.88691,39.463242],[-76.892,39.461802],[-76.8879,39.459002],[-76.8857,39.456402],[-76.8931,39.457402],[-76.893,39.455302],[-76.887599,39.452502],[-76.886499,39.451402],[-76.883899,39.450602],[-76.879399,39.452902],[-76.877099,39.452802],[-76.876399,39.450802],[-76.877949,39.448958],[-76.8818,39.445902],[-76.8823,39.444202],[-76.8871,39.445202],[-76.8885,39.446102],[-76.8918,39.445402],[-76.8918,39.444402],[-76.8885,39.443002],[-76.8873,39.440502],[-76.891,39.439302],[-76.8943,39.439802],[-76.892451,39.438083],[-76.891141,39.435041],[-76.891899,39.433751],[-76.894494,39.434537],[-76.89468,39.431816],[-76.893228,39.431015],[-76.894969,39.430748],[-76.89556,39.429487],[-76.895091,39.428386],[-76.889386,39.430183],[-76.890655,39.428616],[-76.889222,39.427956],[-76.889788,39.426483],[-76.888369,39.425398],[-76.886281,39.425943],[-76.886827,39.424298],[-76.886492,39.421745],[-76.879529,39.420203],[-76.875329,39.420503],[-76.874529,39.419103],[-76.875929,39.417603],[-76.878629,39.418503],[-76.881429,39.417403],[-76.882228,39.412603],[-76.882528,39.408803],[-76.884428,39.407503],[-76.884428,39.404603],[-76.878928,39.403903],[-76.879352,39.402327],[-76.885517,39.397621],[-76.884117,39.396568],[-76.881247,39.397232],[-76.879105,39.397021],[-76.876811,39.397717],[-76.882092,39.398771],[-76.880162,39.401006],[-76.87841,39.401755],[-76.876755,39.401555],[-76.877174,39.404046],[-76.875933,39.406218],[-76.873972,39.406765],[-76.875141,39.408221],[-76.872949,39.408447],[-76.872016,39.40727],[-76.870759,39.407328],[-76.869421,39.405604],[-76.86719,39.40498],[-76.863099,39.405602],[-76.867663,39.406205],[-76.867798,39.407703],[-76.866947,39.409705],[-76.869299,39.408603],[-76.870649,39.410626],[-76.871693,39.409684],[-76.87583,39.409929],[-76.876199,39.411403],[-76.877899,39.411303],[-76.877699,39.409703],[-76.879368,39.409276],[-76.880221,39.410439],[-76.878999,39.413403],[-76.879118,39.414539],[-76.876911,39.414665],[-76.875401,39.412698],[-76.871998,39.412903],[-76.869498,39.414203],[-76.849388,39.415881],[-76.843192,39.41693],[-76.840303,39.420272],[-76.840325,39.42315],[-76.841,39.424343],[-76.840995,39.424492],[-76.838493,39.425598],[-76.829636,39.422159],[-76.824517,39.422],[-76.817732,39.417256],[-76.816237,39.417286],[-76.815959,39.419416],[-76.815198,39.419697],[-76.813749,39.423003],[-76.812268,39.42424],[-76.807082,39.423779],[-76.808637,39.424872],[-76.811844,39.429846],[-76.815821,39.433564],[-76.816844,39.434026],[-76.813501,39.434785],[-76.810784,39.434307],[-76.807967,39.437403],[-76.806284,39.440705],[-76.801765,39.441497],[-76.801424,39.44391],[-76.799459,39.443433],[-76.799166,39.446033],[-76.797544,39.4522],[-76.797966,39.455317],[-76.796945,39.457017],[-76.793285,39.458976],[-76.790499,39.465565],[-76.78984,39.467269],[-76.789841,39.467814],[-76.784607,39.468102],[-76.783522,39.471195],[-76.780478,39.470802],[-76.777829,39.472174],[-76.776618,39.475338],[-76.774086,39.474904],[-76.771694,39.478462],[-76.765142,39.47673],[-76.761938,39.484284],[-76.760583,39.48698],[-76.753372,39.491266],[-76.754352,39.489994],[-76.751677,39.486258],[-76.749361,39.485378],[-76.74712,39.483501],[-76.744889,39.480078],[-76.74509,39.479208],[-76.743683,39.476499],[-76.74458,39.475984],[-76.744411,39.472672],[-76.743093,39.468923],[-76.741284,39.468247],[-76.736383,39.469018],[-76.736677,39.464975],[-76.734796,39.464304],[-76.729011,39.464261],[-76.728871,39.463147],[-76.73122,39.46144],[-76.732423,39.459898],[-76.730645,39.459115],[-76.728794,39.457309],[-76.726065,39.458859],[-76.723844,39.456191],[-76.721813,39.455096],[-76.720844,39.453806],[-76.714991,39.457547],[-76.712838,39.460253],[-76.711722,39.459604],[-76.706716,39.458689],[-76.705078,39.456821],[-76.704028,39.457281],[-76.703158,39.459439],[-76.703588,39.459815],[-76.706081,39.460735],[-76.710791,39.46579],[-76.712159,39.466381],[-76.705962,39.468308],[-76.701337,39.468869],[-76.70351,39.47225],[-76.7042,39.473091],[-76.70508,39.472771],[-76.705643,39.472447],[-76.706245,39.473023],[-76.70699,39.473173],[-76.706685,39.47394],[-76.706331,39.474287],[-76.70563,39.474696],[-76.706047,39.475121],[-76.707498,39.476632],[-76.707716,39.476962],[-76.707799,39.477158],[-76.708158,39.481125],[-76.707783,39.489387],[-76.709906,39.491048],[-76.709968,39.492519],[-76.708455,39.494227],[-76.708569,39.49578],[-76.721044,39.495363],[-76.728086,39.494917],[-76.739723,39.495572],[-76.739373,39.497873],[-76.740457,39.500124],[-76.739136,39.500693],[-76.733776,39.500611],[-76.732217,39.499896],[-76.716436,39.504454],[-76.712395,39.504626],[-76.712519,39.506253],[-76.718686,39.509747],[-76.720837,39.511667],[-76.729671,39.509517],[-76.737812,39.510819],[-76.741986,39.513329],[-76.741321,39.517256],[-76.737992,39.520269],[-76.736318,39.520489],[-76.733559,39.522769],[-76.733904,39.523855],[-76.732674,39.524701],[-76.729724,39.524354],[-76.727219,39.526748],[-76.724441,39.528581],[-76.726968,39.533471],[-76.726748,39.533732],[-76.729085,39.537442],[-76.731234,39.538705],[-76.732697,39.541236],[-76.736014,39.542263],[-76.739773,39.544969],[-76.742292,39.548224],[-76.74464,39.554322],[-76.747322,39.553517],[-76.748517,39.55194],[-76.751169,39.550884],[-76.754084,39.551463],[-76.756699,39.553489],[-76.760756,39.549349],[-76.765795,39.551307],[-76.768494,39.552786],[-76.769703,39.554887],[-76.771342,39.55639],[-76.773299,39.559322],[-76.774075,39.562817],[-76.777366,39.565818],[-76.778848,39.565896],[-76.781751,39.568935],[-76.783827,39.567754],[-76.785682,39.569496],[-76.789696,39.566425],[-76.789693,39.565398],[-76.79405,39.561186],[-76.794307,39.559059],[-76.793514,39.557182],[-76.797766,39.556546],[-76.799384,39.555349],[-76.802224,39.551762],[-76.80426,39.551069],[-76.807722,39.547812],[-76.804908,39.544838],[-76.805435,39.542014],[-76.806836,39.54264],[-76.810803,39.541788],[-76.81299,39.540914],[-76.81598,39.53865],[-76.817482,39.538607],[-76.8181,39.541539],[-76.819857,39.5433],[-76.821756,39.543579],[-76.823595,39.542865],[-76.826157,39.543412],[-76.829377,39.544725],[-76.832486,39.542139],[-76.831329,39.541007],[-76.826298,39.536131],[-76.82481,39.534045],[-76.823964,39.533316],[-76.822648,39.530693],[-76.822749,39.529301],[-76.825232,39.528923],[-76.830982,39.527105],[-76.835197,39.528394],[-76.837685,39.527186],[-76.837686,39.528156],[-76.843811,39.526097],[-76.844163,39.524114],[-76.847043,39.524764],[-76.849486,39.523619],[-76.852202,39.525302],[-76.852867,39.527571],[-76.857272,39.529744],[-76.857545,39.529938],[-76.861635,39.531914],[-76.862323,39.532796],[-76.864366,39.529908],[-76.866273,39.529067],[-76.866633,39.527068],[-76.869575,39.526243],[-76.870445,39.524287],[-76.871884,39.523073],[-76.875115,39.52248],[-76.875387,39.524597],[-76.877816,39.52594]],[[-76.821278,39.477601],[-76.818999,39.480103],[-76.819299,39.483203],[-76.818399,39.486803],[-76.815999,39.487903],[-76.814946,39.489561],[-76.814699,39.492203],[-76.793758,39.485076],[-76.803737,39.482316],[-76.80656,39.478601],[-76.810775,39.47816],[-76.813158,39.477241],[-76.81104,39.474907],[-76.809955,39.475318],[-76.807251,39.474783],[-76.811657,39.473941],[-76.808431,39.471362],[-76.808866,39.469898],[-76.807259,39.468747],[-76.808434,39.466374],[-76.810063,39.468417],[-76.820348,39.475318],[-76.820663,39.4757],[-76.821278,39.477601]]]}},{"type":"Feature","properties":{"zcta5":"21157","AFFGEOID10":"8600000US21157","GEOID10":"21157","ALAND10":198568962,"AWATER10":404269,"county_name":"Carroll","state_code":"MD","county_state":"Carroll County, MD","county_fips":"24013","risk_level_county":"Medium Risk (70–79% vaccinated)","mean_vaccination_rate_county":75.07,"risk_level_zcta":"Lower Risk (80–84% vaccinated)","mean_vaccination_rate_zips":81.12,"cases":11},"geometry":{"type":"Polygon","coordinates":[[[-77.036618,39.55784],[-77.033491,39.557761],[-77.033461,39.556426],[-77.038033,39.556458],[-77.039437,39.555864],[-77.043978,39.552664],[-77.044135,39.550902],[-77.045672,39.551524],[-77.046324,39.550385],[-77.041809,39.54953],[-77.040049,39.547949],[-77.038771,39.544309],[-77.037018,39.54269],[-77.033752,39.541986],[-77.032387,39.542645],[-77.031903,39.542387],[-77.029318,39.542839],[-77.026972,39.542133],[-77.027558,39.541084],[-77.029514,39.538193],[-77.030219,39.536112],[-77.033932,39.530639],[-77.033208,39.529144],[-77.033174,39.526398],[-77.038482,39.529109],[-77.04245,39.524295],[-77.04466,39.520508],[-77.047007,39.521922],[-77.047415,39.522778],[-77.050093,39.524594],[-77.049488,39.521635],[-77.042477,39.514128],[-77.042527,39.511539],[-77.045038,39.511747],[-77.049362,39.505531],[-77.05341,39.501391],[-77.071832,39.492362],[-77.073367,39.492649],[-77.080091,39.492845],[-77.081546,39.490886],[-77.086858,39.488513],[-77.088417,39.485361],[-77.087908,39.481131],[-77.089231,39.479482],[-77.090112,39.47644],[-77.087565,39.475104],[-77.092616,39.459523],[-77.089571,39.458814],[-77.083762,39.456441],[-77.083255,39.454557],[-77.079744,39.453805],[-77.078808,39.452596],[-77.074955,39.449541],[-77.070178,39.442188],[-77.069758,39.443735],[-77.067002,39.445899],[-77.064003,39.44972],[-77.061081,39.448917],[-77.055661,39.44657],[-77.05546,39.447459],[-77.053556,39.447737],[-77.05062,39.449112],[-77.042336,39.447651],[-77.031454,39.456386],[-77.023311,39.45835],[-77.021537,39.459539],[-77.01948,39.45935],[-77.015839,39.462815],[-77.005048,39.460535],[-77.003843,39.457081],[-77.001163,39.456894],[-77.004563,39.465896],[-77.005176,39.470448],[-77.004656,39.473432],[-77.003126,39.476084],[-76.999561,39.479108],[-76.996947,39.478148],[-76.995316,39.475931],[-76.991681,39.476207],[-76.990782,39.47679],[-76.986529,39.47437],[-76.985288,39.473168],[-76.981171,39.472171],[-76.979272,39.470952],[-76.978229,39.46874],[-76.977322,39.468296],[-76.975728,39.469071],[-76.972838,39.46889],[-76.971251,39.469561],[-76.970252,39.468935],[-76.969778,39.467429],[-76.970774,39.465756],[-76.968562,39.462105],[-76.96694,39.46238],[-76.960957,39.467092],[-76.960744,39.46876],[-76.962132,39.470587],[-76.957562,39.471876],[-76.956237,39.471094],[-76.949427,39.474746],[-76.94913,39.474511],[-76.946456,39.472379],[-76.943066,39.474979],[-76.940704,39.478869],[-76.941859,39.481378],[-76.94181,39.482795],[-76.943744,39.483948],[-76.944992,39.485771],[-76.946983,39.487336],[-76.949039,39.487785],[-76.951512,39.487637],[-76.949906,39.489328],[-76.944738,39.492267],[-76.948509,39.49421],[-76.950968,39.496197],[-76.949843,39.497278],[-76.950333,39.501309],[-76.946923,39.506581],[-76.943014,39.517159],[-76.944985,39.518065],[-76.949858,39.518852],[-76.947819,39.522927],[-76.945254,39.524782],[-76.944775,39.526149],[-76.943182,39.527765],[-76.93882,39.525564],[-76.937631,39.531136],[-76.934383,39.531897],[-76.934359,39.530955],[-76.930033,39.531592],[-76.934454,39.539147],[-76.933457,39.539712],[-76.930961,39.538907],[-76.923609,39.551636],[-76.919284,39.552634],[-76.916165,39.554743],[-76.90749,39.556442],[-76.907699,39.558734],[-76.909295,39.560722],[-76.904585,39.565803],[-76.902491,39.56727],[-76.897418,39.564672],[-76.895628,39.564134],[-76.89377,39.564936],[-76.892194,39.566566],[-76.891717,39.568477],[-76.89698,39.571428],[-76.899396,39.573151],[-76.896913,39.575542],[-76.89637,39.578466],[-76.898113,39.581785],[-76.902489,39.583894],[-76.904955,39.586189],[-76.907148,39.589907],[-76.906274,39.590544],[-76.903578,39.590137],[-76.901945,39.591471],[-76.899204,39.594754],[-76.89934,39.595661],[-76.900949,39.596577],[-76.906632,39.598467],[-76.910581,39.60082],[-76.910393,39.601512],[-76.908393,39.605817],[-76.905963,39.610221],[-76.904284,39.610171],[-76.901462,39.613331],[-76.898811,39.615206],[-76.895477,39.618904],[-76.897765,39.619532],[-76.900667,39.621022],[-76.901264,39.62245],[-76.906228,39.626258],[-76.915181,39.626646],[-76.914369,39.630704],[-76.912626,39.632028],[-76.915024,39.63384],[-76.916873,39.634585],[-76.917637,39.636576],[-76.916039,39.640187],[-76.916328,39.641862],[-76.918795,39.642495],[-76.915731,39.643513],[-76.908469,39.648101],[-76.900352,39.652869],[-76.898654,39.65237],[-76.896352,39.653084],[-76.894639,39.654828],[-76.897036,39.657299],[-76.898031,39.656789],[-76.897712,39.656182],[-76.89912,39.655478],[-76.899836,39.656091],[-76.896015,39.658177],[-76.894829,39.658456],[-76.894216,39.659314],[-76.892839,39.660194],[-76.895584,39.65977],[-76.896569,39.663248],[-76.901175,39.661712],[-76.90587,39.666884],[-76.908412,39.669219],[-76.931018,39.669437],[-76.933702,39.671715],[-76.937186,39.669096],[-76.940309,39.667379],[-76.940972,39.665829],[-76.939264,39.657834],[-76.939186,39.654819],[-76.959413,39.644421],[-76.962727,39.645921],[-76.964415,39.642682],[-76.965321,39.642961],[-76.963039,39.645445],[-76.962685,39.646977],[-76.961073,39.6489],[-76.960622,39.650422],[-76.96226,39.65142],[-76.985279,39.62701],[-76.991173,39.619444],[-76.997026,39.62077],[-76.997637,39.612332],[-76.998833,39.612318],[-77.002617,39.61139],[-77.005936,39.608589],[-77.008497,39.60622],[-77.008437,39.605641],[-77.007943,39.605317],[-77.006325,39.602808],[-77.003908,39.599819],[-77.003202,39.59924],[-77.00235,39.598924],[-76.9991,39.598669],[-76.999214,39.597761],[-77.002412,39.595986],[-77.001975,39.595881],[-76.999199,39.594611],[-76.999192,39.593282],[-77.000317,39.592865],[-77.000587,39.591081],[-77.002453,39.59087],[-77.006264,39.589387],[-77.009055,39.583567],[-77.010658,39.578549],[-77.01158,39.576787],[-77.015619,39.573532],[-77.018648,39.569805],[-77.020581,39.567882],[-77.029293,39.560476],[-77.034037,39.55854],[-77.036618,39.55784]]]}},{"type":"Feature","properties":{"zcta5":"21155","AFFGEOID10":"8600000US21155","GEOID10":"21155","ALAND10":56681619,"AWATER10":174624,"county_name":"Carroll","state_code":"MD","county_state":"Carroll County, MD","county_fips":"24013","risk_level_county":"Medium Risk (70–79% vaccinated)","mean_vaccination_rate_county":75.07,"risk_level_zcta":"Medium Risk (70–79% vaccinated)","mean_vaccination_rate_zips":78.6,"cases":11},"geometry":{"type":"Polygon","coordinates":[[[-76.872754,39.554458],[-76.87247,39.55328],[-76.873498,39.552357],[-76.874574,39.550077],[-76.873977,39.548705],[-76.874444,39.547024],[-76.872223,39.546668],[-76.87498,39.544671],[-76.876046,39.54281],[-76.87453,39.540577],[-76.872777,39.53903],[-76.871357,39.536982],[-76.873447,39.535471],[-76.875173,39.535342],[-76.875352,39.532799],[-76.876919,39.533014],[-76.878842,39.531791],[-76.875426,39.529691],[-76.875768,39.527605],[-76.877816,39.52594],[-76.875387,39.524597],[-76.875115,39.52248],[-76.871884,39.523073],[-76.870445,39.524287],[-76.869575,39.526243],[-76.866633,39.527068],[-76.866273,39.529067],[-76.864366,39.529908],[-76.862323,39.532796],[-76.861635,39.531914],[-76.857545,39.529938],[-76.857272,39.529744],[-76.852867,39.527571],[-76.852202,39.525302],[-76.849486,39.523619],[-76.847043,39.524764],[-76.844163,39.524114],[-76.843811,39.526097],[-76.837686,39.528156],[-76.837685,39.527186],[-76.835197,39.528394],[-76.830982,39.527105],[-76.825232,39.528923],[-76.822749,39.529301],[-76.822648,39.530693],[-76.823964,39.533316],[-76.82481,39.534045],[-76.826298,39.536131],[-76.831329,39.541007],[-76.832486,39.542139],[-76.829377,39.544725],[-76.826157,39.543412],[-76.823595,39.542865],[-76.821756,39.543579],[-76.819857,39.5433],[-76.8181,39.541539],[-76.817482,39.538607],[-76.81598,39.53865],[-76.81299,39.540914],[-76.810803,39.541788],[-76.806836,39.54264],[-76.805435,39.542014],[-76.804908,39.544838],[-76.807722,39.547812],[-76.80426,39.551069],[-76.802224,39.551762],[-76.799384,39.555349],[-76.797766,39.556546],[-76.793514,39.557182],[-76.794307,39.559059],[-76.79405,39.561186],[-76.789693,39.565398],[-76.789696,39.566425],[-76.785682,39.569496],[-76.783827,39.567754],[-76.781751,39.568935],[-76.778848,39.565896],[-76.777366,39.565818],[-76.774075,39.562817],[-76.773299,39.559322],[-76.771342,39.55639],[-76.769703,39.554887],[-76.768494,39.552786],[-76.765795,39.551307],[-76.760756,39.549349],[-76.756699,39.553489],[-76.750839,39.559471],[-76.757671,39.561354],[-76.755904,39.564683],[-76.753516,39.566173],[-76.750134,39.567333],[-76.751991,39.568746],[-76.753741,39.572762],[-76.755902,39.575175],[-76.756785,39.577207],[-76.75304,39.577569],[-76.751877,39.5786],[-76.750043,39.578907],[-76.747549,39.583233],[-76.751,39.588733],[-76.746855,39.592876],[-76.746218,39.595128],[-76.738885,39.617219],[-76.741312,39.616328],[-76.7421,39.615187],[-76.744792,39.613833],[-76.746909,39.610984],[-76.747027,39.608389],[-76.751377,39.60796],[-76.754612,39.60678],[-76.776332,39.617017],[-76.775751,39.615385],[-76.77667,39.612883],[-76.77845,39.615982],[-76.780499,39.616863],[-76.780379,39.619368],[-76.781223,39.620807],[-76.780348,39.62125],[-76.785641,39.62161],[-76.786919,39.620833],[-76.78705,39.618105],[-76.788006,39.616295],[-76.79045,39.615391],[-76.791993,39.616829],[-76.795953,39.613153],[-76.79765,39.614639],[-76.799528,39.612832],[-76.797217,39.607671],[-76.797082,39.60592],[-76.795625,39.60322],[-76.795905,39.60034],[-76.79744,39.599205],[-76.797279,39.595638],[-76.797936,39.594708],[-76.80052,39.594393],[-76.805427,39.591645],[-76.810857,39.595125],[-76.81851,39.585627],[-76.819836,39.586695],[-76.823361,39.591123],[-76.825538,39.591372],[-76.82619,39.592564],[-76.82999,39.596003],[-76.833087,39.59665],[-76.833711,39.593838],[-76.834299,39.592902],[-76.839712,39.589547],[-76.839077,39.587844],[-76.84232,39.586915],[-76.839631,39.57852],[-76.840603,39.575598],[-76.842792,39.569625],[-76.8465,39.559595],[-76.848535,39.560278],[-76.853837,39.555419],[-76.854979,39.5551],[-76.860405,39.554312],[-76.862584,39.555992],[-76.865292,39.556918],[-76.869719,39.554602],[-76.872754,39.554458]]]}},{"type":"Feature","properties":{"zcta5":"21102","AFFGEOID10":"8600000US21102","GEOID10":"21102","ALAND10":104814333,"AWATER10":1625688,"county_name":"Carroll","state_code":"MD","county_state":"Carroll County, MD","county_fips":"24013","risk_level_county":"Medium Risk (70–79% vaccinated)","mean_vaccination_rate_county":75.07,"risk_level_zcta":"Medium Risk (70–79% vaccinated)","mean_vaccination_rate_zips":79,"cases":11},"geometry":{"type":"Polygon","coordinates":[[[-76.94572780580069,39.7205495644723],[-76.944987,39.717762],[-76.942296,39.713613],[-76.941769,39.71165],[-76.94006,39.709338],[-76.9399,39.70758],[-76.938379,39.704774],[-76.938986,39.702702],[-76.934707,39.698798],[-76.932839,39.698852],[-76.931759,39.697257],[-76.937095,39.695029],[-76.940813,39.693897],[-76.938731,39.68862],[-76.939874,39.686496],[-76.940286,39.682867],[-76.937596,39.679264],[-76.937352,39.677373],[-76.93459,39.67574],[-76.932003,39.673104],[-76.933702,39.671715],[-76.931018,39.669437],[-76.908412,39.669219],[-76.90587,39.666884],[-76.901175,39.661712],[-76.896569,39.663248],[-76.895584,39.65977],[-76.892839,39.660194],[-76.894216,39.659314],[-76.894829,39.658456],[-76.896015,39.658177],[-76.899836,39.656091],[-76.89912,39.655478],[-76.897712,39.656182],[-76.898031,39.656789],[-76.897036,39.657299],[-76.894639,39.654828],[-76.896352,39.653084],[-76.895538,39.651951],[-76.900455,39.649664],[-76.901524,39.648578],[-76.900106,39.645978],[-76.898213,39.644126],[-76.898584,39.642976],[-76.897289,39.642283],[-76.895427,39.64285],[-76.893262,39.641652],[-76.894207,39.640609],[-76.897617,39.642236],[-76.897618,39.640967],[-76.899603,39.639087],[-76.900078,39.637562],[-76.897423,39.636243],[-76.894978,39.635943],[-76.894723,39.637143],[-76.895908,39.639085],[-76.892833,39.636639],[-76.887802,39.642314],[-76.881984,39.642337],[-76.886211,39.647184],[-76.885443,39.647838],[-76.883611,39.646799],[-76.878287,39.649094],[-76.878725,39.649866],[-76.87929,39.650862],[-76.879126,39.650911],[-76.878574,39.649908],[-76.877758,39.648325],[-76.874974,39.648153],[-76.872242,39.648816],[-76.866606,39.64628],[-76.865714,39.648708],[-76.8648,39.649248],[-76.860571,39.648568],[-76.859869,39.65031],[-76.858554,39.650616],[-76.856999,39.652407],[-76.851223,39.652965],[-76.848454,39.651809],[-76.838659,39.657909],[-76.830298,39.662774],[-76.837,39.667139],[-76.834021,39.670569],[-76.832881,39.673034],[-76.831566,39.670041],[-76.830209,39.669382],[-76.825939,39.66845],[-76.82446,39.666649],[-76.819123,39.668991],[-76.820867,39.672545],[-76.816526,39.672552],[-76.814802,39.671535],[-76.811565,39.673274],[-76.806097,39.671342],[-76.804304,39.675882],[-76.803773,39.67473],[-76.800059,39.673531],[-76.798256,39.673363],[-76.797665,39.670828],[-76.795424,39.669827],[-76.796397,39.668619],[-76.790797,39.665802],[-76.801358,39.657062],[-76.802068,39.654425],[-76.800313,39.653646],[-76.79683,39.653347],[-76.793881,39.654394],[-76.791856,39.653369],[-76.789232,39.653306],[-76.78783,39.652683],[-76.785475,39.653291],[-76.784109,39.654505],[-76.782401,39.653678],[-76.780556,39.655008],[-76.778639,39.653382],[-76.780704,39.650256],[-76.780876,39.649078],[-76.779632,39.648122],[-76.780502,39.645421],[-76.778271,39.641988],[-76.771011,39.644496],[-76.766599,39.647035],[-76.763115,39.64781],[-76.760433,39.647003],[-76.755118,39.647926],[-76.752623,39.650659],[-76.753762,39.654084],[-76.753641,39.656821],[-76.751572,39.659731],[-76.748523,39.661908],[-76.736983,39.664594],[-76.73371,39.667845],[-76.734565,39.669932],[-76.732849,39.670638],[-76.733106,39.672756],[-76.7323,39.675467],[-76.734749,39.674831],[-76.741005,39.675436],[-76.741761,39.678922],[-76.743688,39.679324],[-76.744974,39.680702],[-76.74396,39.684118],[-76.746775,39.682402],[-76.749887,39.679861],[-76.753308,39.681946],[-76.757571,39.681839],[-76.760003,39.681073],[-76.763372,39.682246],[-76.765821,39.682191],[-76.770018,39.680947],[-76.771707,39.681023],[-76.771465,39.682062],[-76.769853,39.682294],[-76.769327,39.683982],[-76.772966,39.685545],[-76.77288,39.686798],[-76.775299,39.688468],[-76.776006,39.689808],[-76.778373,39.691943],[-76.775396,39.693302],[-76.775611,39.696137],[-76.774235,39.697765],[-76.772552,39.698047],[-76.773645,39.699484],[-76.771424,39.701463],[-76.772168,39.703837],[-76.770962,39.704862],[-76.772568,39.70554],[-76.776591,39.705936],[-76.775231,39.709188],[-76.777241,39.70838],[-76.780145,39.71001],[-76.78014,39.7119],[-76.781366,39.713106],[-76.779212,39.714799],[-76.772529,39.710861],[-76.77111,39.711072],[-76.768997,39.714182],[-76.771162,39.716315],[-76.772665,39.719355],[-76.771455272975,39.7208678456265],[-76.787097,39.720802],[-76.806397,39.720602],[-76.809197,39.720702],[-76.86665696962179,39.7204882199071],[-76.8901,39.720401],[-76.897566,39.720401],[-76.8979304549687,39.720403800986006],[-76.936601,39.720701],[-76.94572780580069,39.7205495644723]]]}},{"type":"Feature","properties":{"zcta5":"21158","AFFGEOID10":"8600000US21158","GEOID10":"21158","ALAND10":192751585,"AWATER10":586459,"county_name":"Carroll","state_code":"MD","county_state":"Carroll County, MD","county_fips":"24013","risk_level_county":"Medium Risk (70–79% vaccinated)","mean_vaccination_rate_county":75.07,"risk_level_zcta":"Medium Risk (70–79% vaccinated)","mean_vaccination_rate_zips":78.64,"cases":11},"geometry":{"type":"Polygon","coordinates":[[[-77.06695609805739,39.720094798583894],[-77.065942,39.714904],[-77.067022,39.712446],[-77.07632,39.700505],[-77.077486,39.701136],[-77.078772,39.700517],[-77.07815,39.699061],[-77.079436,39.698697],[-77.080879,39.700146],[-77.08474,39.69888],[-77.0854,39.695084],[-77.088955,39.693661],[-77.087739,39.692476],[-77.087206,39.690661],[-77.085768,39.690592],[-77.085099,39.687641],[-77.083679,39.687183],[-77.079092,39.688025],[-77.077622,39.685102],[-77.072869,39.685961],[-77.072429,39.6841],[-77.074938,39.683811],[-77.077105,39.681582],[-77.079123,39.680807],[-77.081332,39.680889],[-77.083698,39.678736],[-77.085787,39.677951],[-77.090128,39.678142],[-77.088165,39.676791],[-77.092804,39.666119],[-77.091803,39.664757],[-77.091218,39.663084],[-77.092277,39.66535],[-77.093576,39.666109],[-77.098167,39.665527],[-77.103415,39.667777],[-77.105376,39.666095],[-77.107183,39.66869],[-77.111333,39.669801],[-77.113788,39.667932],[-77.119515,39.664807],[-77.121824,39.661539],[-77.121203,39.656903],[-77.119159,39.658253],[-77.118171,39.662141],[-77.115651,39.664784],[-77.112339,39.666426],[-77.108235,39.667674],[-77.105557,39.665436],[-77.104758,39.660724],[-77.103512,39.659283],[-77.104028,39.656898],[-77.101468,39.652917],[-77.100196,39.651962],[-77.097855,39.648276],[-77.104885,39.643261],[-77.099718,39.640493],[-77.101884,39.638977],[-77.104102,39.640719],[-77.107645,39.639889],[-77.10954,39.638927],[-77.113624,39.639256],[-77.114013,39.636014],[-77.113047,39.634151],[-77.11399,39.63292],[-77.111048,39.631553],[-77.106729,39.630248],[-77.110004,39.626753],[-77.111285,39.624388],[-77.114044,39.622601],[-77.118542,39.620774],[-77.120166,39.619375],[-77.123602,39.617469],[-77.125973,39.617326],[-77.117499,39.611296],[-77.11463,39.611881],[-77.105886,39.604914],[-77.103438,39.604948],[-77.100609,39.608873],[-77.098838,39.608018],[-77.098675,39.606288],[-77.096766,39.604879],[-77.098617,39.603473],[-77.10218,39.60323],[-77.10343,39.604097],[-77.105403,39.604228],[-77.10765,39.60023],[-77.110637,39.598301],[-77.113014,39.597586],[-77.115114,39.595924],[-77.117551,39.596805],[-77.11924,39.595416],[-77.118957,39.593044],[-77.12049,39.593029],[-77.121006,39.591742],[-77.10929,39.580946],[-77.110566,39.580424],[-77.113266,39.575558],[-77.116308,39.571863],[-77.114919,39.571284],[-77.11057,39.571052],[-77.109421,39.569189],[-77.110801,39.568499],[-77.09287,39.56851],[-77.090881,39.569559],[-77.087713,39.570392],[-77.087079,39.568275],[-77.081279,39.56806],[-77.08244,39.56713],[-77.080004,39.561416],[-77.077382,39.557668],[-77.075042,39.557187],[-77.073318,39.558549],[-77.069907,39.562159],[-77.067494,39.564222],[-77.06622,39.567239],[-77.062904,39.567694],[-77.059846,39.567492],[-77.058714,39.566985],[-77.057797,39.565168],[-77.057633,39.563206],[-77.056572,39.56262],[-77.055223,39.557939],[-77.052725,39.550421],[-77.048864,39.55174],[-77.043285,39.555456],[-77.039619,39.557031],[-77.036618,39.55784],[-77.034037,39.55854],[-77.029293,39.560476],[-77.020581,39.567882],[-77.018648,39.569805],[-77.015619,39.573532],[-77.01158,39.576787],[-77.010658,39.578549],[-77.009055,39.583567],[-77.006264,39.589387],[-77.002453,39.59087],[-77.000587,39.591081],[-77.000317,39.592865],[-76.999192,39.593282],[-76.999199,39.594611],[-77.001975,39.595881],[-77.002412,39.595986],[-76.999214,39.597761],[-76.9991,39.598669],[-77.00235,39.598924],[-77.003202,39.59924],[-77.003908,39.599819],[-77.006325,39.602808],[-77.007943,39.605317],[-77.008437,39.605641],[-77.008497,39.60622],[-77.005936,39.608589],[-77.002617,39.61139],[-76.998833,39.612318],[-76.997637,39.612332],[-76.997026,39.62077],[-76.991173,39.619444],[-76.985279,39.62701],[-76.96226,39.65142],[-76.960622,39.650422],[-76.961073,39.6489],[-76.962685,39.646977],[-76.963039,39.645445],[-76.965321,39.642961],[-76.964415,39.642682],[-76.962727,39.645921],[-76.959413,39.644421],[-76.939186,39.654819],[-76.939264,39.657834],[-76.940972,39.665829],[-76.940309,39.667379],[-76.937186,39.669096],[-76.933702,39.671715],[-76.932003,39.673104],[-76.93459,39.67574],[-76.937352,39.677373],[-76.937596,39.679264],[-76.940286,39.682867],[-76.939874,39.686496],[-76.938731,39.68862],[-76.940813,39.693897],[-76.937095,39.695029],[-76.931759,39.697257],[-76.932839,39.698852],[-76.934707,39.698798],[-76.938986,39.702702],[-76.938379,39.704774],[-76.9399,39.70758],[-76.94006,39.709338],[-76.941769,39.71165],[-76.942296,39.713613],[-76.944987,39.717762],[-76.94572780580069,39.7205495644723],[-76.990903,39.7198],[-76.99931898236841,39.7198299495823],[-77.0386544027878,39.7199699307941],[-77.047104,39.72],[-77.058204,39.7202],[-77.058904,39.7201],[-77.06695609805739,39.720094798583894]]]}},{"type":"Feature","properties":{"zcta5":"21074","AFFGEOID10":"8600000US21074","GEOID10":"21074","ALAND10":97036363,"AWATER10":788221,"county_name":"Carroll","state_code":"MD","county_state":"Carroll County, MD","county_fips":"24013","risk_level_county":"Medium Risk (70–79% vaccinated)","mean_vaccination_rate_county":75.07,"risk_level_zcta":"Medium Risk (70–79% vaccinated)","mean_vaccination_rate_zips":78.41,"cases":11},"geometry":{"type":"Polygon","coordinates":[[[-76.896352,39.653084],[-76.898654,39.65237],[-76.900352,39.652869],[-76.908469,39.648101],[-76.915731,39.643513],[-76.918795,39.642495],[-76.916328,39.641862],[-76.916039,39.640187],[-76.917637,39.636576],[-76.916873,39.634585],[-76.915024,39.63384],[-76.912626,39.632028],[-76.914369,39.630704],[-76.915181,39.626646],[-76.906228,39.626258],[-76.901264,39.62245],[-76.900667,39.621022],[-76.897765,39.619532],[-76.895477,39.618904],[-76.898811,39.615206],[-76.901462,39.613331],[-76.904284,39.610171],[-76.905963,39.610221],[-76.908393,39.605817],[-76.910393,39.601512],[-76.910581,39.60082],[-76.906632,39.598467],[-76.900949,39.596577],[-76.89934,39.595661],[-76.899204,39.594754],[-76.901945,39.591471],[-76.903578,39.590137],[-76.906274,39.590544],[-76.907148,39.589907],[-76.904955,39.586189],[-76.902489,39.583894],[-76.898113,39.581785],[-76.89637,39.578466],[-76.896913,39.575542],[-76.899396,39.573151],[-76.89698,39.571428],[-76.891717,39.568477],[-76.892194,39.566566],[-76.89377,39.564936],[-76.895628,39.564134],[-76.894588,39.561394],[-76.893361,39.561136],[-76.893667,39.559159],[-76.892937,39.558086],[-76.889034,39.557776],[-76.886133,39.558075],[-76.884594,39.557722],[-76.879521,39.55481],[-76.879084,39.55546],[-76.872754,39.554458],[-76.869719,39.554602],[-76.865292,39.556918],[-76.862584,39.555992],[-76.860405,39.554312],[-76.854979,39.5551],[-76.853837,39.555419],[-76.848535,39.560278],[-76.8465,39.559595],[-76.842792,39.569625],[-76.840603,39.575598],[-76.839631,39.57852],[-76.84232,39.586915],[-76.839077,39.587844],[-76.839712,39.589547],[-76.834299,39.592902],[-76.833711,39.593838],[-76.833087,39.59665],[-76.82999,39.596003],[-76.82619,39.592564],[-76.825538,39.591372],[-76.823361,39.591123],[-76.819836,39.586695],[-76.81851,39.585627],[-76.810857,39.595125],[-76.805427,39.591645],[-76.80052,39.594393],[-76.797936,39.594708],[-76.797279,39.595638],[-76.79744,39.599205],[-76.795905,39.60034],[-76.795625,39.60322],[-76.797082,39.60592],[-76.797217,39.607671],[-76.799528,39.612832],[-76.79765,39.614639],[-76.795953,39.613153],[-76.791993,39.616829],[-76.79045,39.615391],[-76.788006,39.616295],[-76.78705,39.618105],[-76.786919,39.620833],[-76.785641,39.62161],[-76.780348,39.62125],[-76.778741,39.621802],[-76.777147,39.62387],[-76.773234,39.624878],[-76.772839,39.625613],[-76.772655,39.627198],[-76.773547,39.62824],[-76.776923,39.629856],[-76.777629,39.631992],[-76.774844,39.632769],[-76.772672,39.634636],[-76.772163,39.635683],[-76.774004,39.636435],[-76.776062,39.638379],[-76.774213,39.637956],[-76.774098,39.638883],[-76.77094,39.639639],[-76.765253,39.638947],[-76.764673,39.637755],[-76.765237,39.63386],[-76.760556,39.633962],[-76.758719,39.635056],[-76.756343,39.634863],[-76.753967,39.633533],[-76.750945,39.632639],[-76.750277,39.63351],[-76.748938,39.631598],[-76.746777,39.630212],[-76.74343,39.630324],[-76.741794,39.631145],[-76.74039,39.630776],[-76.740129,39.632097],[-76.737346,39.630963],[-76.736678,39.631709],[-76.734118,39.630651],[-76.735142,39.63326],[-76.733926,39.635107],[-76.734734,39.637116],[-76.736296,39.637721],[-76.739479,39.642069],[-76.747334,39.644906],[-76.750297,39.645804],[-76.755118,39.647926],[-76.760433,39.647003],[-76.763115,39.64781],[-76.766599,39.647035],[-76.771011,39.644496],[-76.778271,39.641988],[-76.780502,39.645421],[-76.779632,39.648122],[-76.780876,39.649078],[-76.780704,39.650256],[-76.778639,39.653382],[-76.780556,39.655008],[-76.782401,39.653678],[-76.784109,39.654505],[-76.785475,39.653291],[-76.78783,39.652683],[-76.789232,39.653306],[-76.791856,39.653369],[-76.793881,39.654394],[-76.79683,39.653347],[-76.800313,39.653646],[-76.802068,39.654425],[-76.801358,39.657062],[-76.790797,39.665802],[-76.796397,39.668619],[-76.795424,39.669827],[-76.797665,39.670828],[-76.798256,39.673363],[-76.800059,39.673531],[-76.803773,39.67473],[-76.804304,39.675882],[-76.806097,39.671342],[-76.811565,39.673274],[-76.814802,39.671535],[-76.816526,39.672552],[-76.820867,39.672545],[-76.819123,39.668991],[-76.82446,39.666649],[-76.825939,39.66845],[-76.830209,39.669382],[-76.831566,39.670041],[-76.832881,39.673034],[-76.834021,39.670569],[-76.837,39.667139],[-76.830298,39.662774],[-76.838659,39.657909],[-76.848454,39.651809],[-76.851223,39.652965],[-76.856999,39.652407],[-76.858554,39.650616],[-76.859869,39.65031],[-76.860571,39.648568],[-76.8648,39.649248],[-76.865714,39.648708],[-76.866606,39.64628],[-76.872242,39.648816],[-76.874974,39.648153],[-76.877758,39.648325],[-76.878574,39.649908],[-76.879126,39.650911],[-76.87929,39.650862],[-76.878725,39.649866],[-76.878287,39.649094],[-76.883611,39.646799],[-76.885443,39.647838],[-76.886211,39.647184],[-76.881984,39.642337],[-76.887802,39.642314],[-76.892833,39.636639],[-76.895908,39.639085],[-76.894723,39.637143],[-76.894978,39.635943],[-76.897423,39.636243],[-76.900078,39.637562],[-76.899603,39.639087],[-76.897618,39.640967],[-76.897617,39.642236],[-76.894207,39.640609],[-76.893262,39.641652],[-76.895427,39.64285],[-76.897289,39.642283],[-76.898584,39.642976],[-76.898213,39.644126],[-76.900106,39.645978],[-76.901524,39.648578],[-76.900455,39.649664],[-76.895538,39.651951],[-76.896352,39.653084]]]}},{"type":"Feature","properties":{"zcta5":"21797","AFFGEOID10":"8600000US21797","GEOID10":"21797","ALAND10":112103744,"AWATER10":602118,"county_name":"Carroll","state_code":"MD","county_state":"Carroll County, MD","county_fips":"24013","risk_level_county":"Medium Risk (70–79% vaccinated)","mean_vaccination_rate_county":75.07,"risk_level_zcta":"Medium Risk (70–79% vaccinated)","mean_vaccination_rate_zips":71.55,"cases":11},"geometry":{"type":"Polygon","coordinates":[[[-77.070676,39.439514],[-77.072442,39.436548],[-77.072873,39.434066],[-77.072171,39.43047],[-77.072794,39.428806],[-77.071881,39.427747],[-77.07103,39.423662],[-77.071802,39.42051],[-77.072218,39.419746],[-77.076704,39.421384],[-77.080518,39.424354],[-77.082571,39.424448],[-77.081278,39.423606],[-77.081512,39.420786],[-77.07666,39.415864],[-77.08491,39.415337],[-77.084991,39.414118],[-77.08707,39.412266],[-77.087435,39.410737],[-77.089004,39.411172],[-77.091676,39.408343],[-77.093069,39.40766],[-77.092744,39.405248],[-77.094913,39.402753],[-77.096446,39.402906],[-77.097845,39.400804],[-77.089712,39.393349],[-77.079145,39.393678],[-77.06868,39.390867],[-77.06972,39.390189],[-77.072152,39.384611],[-77.074416,39.384129],[-77.076577,39.38102],[-77.07587,39.378212],[-77.078478,39.378328],[-77.079786,39.373678],[-77.07779,39.370329],[-77.075901,39.369275],[-77.071854,39.369644],[-77.069895,39.368299],[-77.068416,39.365405],[-77.065338,39.362781],[-77.064961,39.361935],[-77.064015,39.361439],[-77.062674,39.360092],[-77.06575,39.355426],[-77.066715,39.354696],[-77.068226,39.351675],[-77.069718,39.346827],[-77.071446,39.34247],[-77.079062,39.344955],[-77.084776,39.346225],[-77.087982,39.341191],[-77.096337,39.343555],[-77.097062,39.341972],[-77.096068,39.340466],[-77.102426,39.338364],[-77.106646,39.338403],[-77.112477,39.33062],[-77.11804,39.334725],[-77.120162,39.330911],[-77.123948,39.326216],[-77.125322,39.325205],[-77.125757,39.323229],[-77.127773,39.320177],[-77.133945,39.313304],[-77.135234,39.312516],[-77.135326,39.307982],[-77.134326,39.306782],[-77.132301,39.306077],[-77.131292,39.302637],[-77.132719,39.3009],[-77.132882,39.299227],[-77.135823,39.296065],[-77.135285,39.29404],[-77.137703,39.292903],[-77.140103,39.293403],[-77.140059,39.292095],[-77.140195,39.289284],[-77.137875,39.288091],[-77.139792,39.285028],[-77.140014,39.283443],[-77.138354,39.280972],[-77.13647,39.279239],[-77.136463,39.278288],[-77.134256,39.27674],[-77.134127,39.273853],[-77.134627,39.272305],[-77.133789,39.270649],[-77.131435,39.270067],[-77.130587,39.268412],[-77.126183,39.268632],[-77.123496,39.268092],[-77.121391,39.267187],[-77.116994,39.267535],[-77.115393,39.266298],[-77.115016,39.265174],[-77.110809,39.264138],[-77.105239,39.264503],[-77.103454,39.265953],[-77.101812,39.265293],[-77.097489,39.264806],[-77.093198,39.262467],[-77.089177,39.262269],[-77.086161,39.260573],[-77.082104,39.260033],[-77.078809,39.2583],[-77.077782,39.256514],[-77.074327,39.256014],[-77.071609,39.255056],[-77.067305,39.251573],[-77.066416,39.251581],[-77.06513,39.250016],[-77.061942,39.2519],[-77.060186,39.252468],[-77.063202,39.256361],[-77.067175,39.260663],[-77.068463,39.263101],[-77.071324,39.264494],[-77.072027,39.26577],[-77.072048,39.269759],[-77.072784,39.272124],[-77.072945,39.274547],[-77.072395,39.27609],[-77.069002,39.274779],[-77.066665,39.275464],[-77.063869,39.274011],[-77.063067,39.274909],[-77.058417,39.273036],[-77.04538,39.287823],[-77.038015,39.28871],[-77.037773,39.290737],[-77.036684,39.292897],[-77.036561,39.29533],[-77.032537,39.294512],[-77.030017,39.294365],[-77.028384,39.295014],[-77.02459,39.294525],[-77.021962,39.298272],[-77.020641,39.300626],[-77.020581,39.302498],[-77.022153,39.302509],[-77.027587,39.304859],[-77.02881,39.304944],[-77.033951,39.303267],[-77.036779,39.303778],[-77.041228,39.306339],[-77.04432,39.306296],[-77.046661,39.307203],[-77.043995,39.308517],[-77.042081,39.308518],[-77.03768,39.309998],[-77.032323,39.310619],[-77.028589,39.310127],[-77.028299,39.312402],[-77.026624,39.312875],[-77.026774,39.315961],[-77.027685,39.31797],[-77.027881,39.322253],[-77.028282,39.324345],[-77.01954,39.320616],[-77.015918,39.328015],[-77.014449,39.331799],[-77.013791,39.335872],[-77.013519,39.337627],[-77.019197,39.336695],[-77.024263,39.346573],[-77.026515,39.350302],[-77.02269,39.350021],[-77.020791,39.352674],[-77.01839,39.351855],[-77.015777,39.352425],[-77.015735,39.352562],[-77.009138,39.354826],[-77.003056,39.35462],[-76.997626,39.354992],[-76.997551,39.355951],[-76.995189,39.357698],[-76.99476,39.358283],[-76.993917,39.35865],[-76.9937,39.358822],[-76.993391,39.359226],[-76.99289,39.359651],[-76.99245,39.359796],[-76.992153,39.359806],[-76.992302,39.3603],[-76.996949,39.357154],[-76.997622,39.359086],[-76.999706,39.359461],[-77.002725,39.361709],[-77.002816,39.362648],[-77.004903,39.362852],[-77.006719,39.364456],[-77.0071,39.367081],[-77.010161,39.37013],[-77.010831,39.372474],[-77.012104,39.373419],[-77.013264,39.377254],[-77.014636,39.377941],[-77.016183,39.380978],[-77.018759,39.38115],[-77.01918,39.38604],[-77.024927,39.385149],[-77.028168,39.384024],[-77.029101,39.384371],[-77.035383,39.387744],[-77.036607,39.389402],[-77.037208,39.391785],[-77.040621,39.393938],[-77.039188,39.394235],[-77.040347,39.395626],[-77.038581,39.395652],[-77.040744,39.39868],[-77.051171,39.404715],[-77.051391,39.409665],[-77.047656,39.413064],[-77.044541,39.413496],[-77.045658,39.416797],[-77.049991,39.420096],[-77.050464,39.423892],[-77.052342,39.426505],[-77.053134,39.429712],[-77.053664,39.43395],[-77.052533,39.434651],[-77.054293,39.435531],[-77.05476,39.438292],[-77.061578,39.440177],[-77.061674,39.438971],[-77.063078,39.437544],[-77.066518,39.439366],[-77.070676,39.439514]]]}},{"type":"Feature","properties":{"zcta5":"21784","AFFGEOID10":"8600000US21784","GEOID10":"21784","ALAND10":149010933,"AWATER10":5264202,"county_name":"Carroll","state_code":"MD","county_state":"Carroll County, MD","county_fips":"24013","risk_level_county":"Medium Risk (70–79% vaccinated)","mean_vaccination_rate_county":75.07,"risk_level_zcta":"Lower Risk (80–84% vaccinated)","mean_vaccination_rate_zips":81.24,"cases":11},"geometry":{"type":"Polygon","coordinates":[[[-77.070178,39.442188],[-77.071468,39.439448],[-77.070676,39.439514],[-77.066518,39.439366],[-77.063078,39.437544],[-77.061674,39.438971],[-77.061578,39.440177],[-77.05476,39.438292],[-77.054293,39.435531],[-77.052533,39.434651],[-77.053664,39.43395],[-77.053134,39.429712],[-77.052342,39.426505],[-77.050464,39.423892],[-77.049991,39.420096],[-77.045658,39.416797],[-77.044541,39.413496],[-77.047656,39.413064],[-77.051391,39.409665],[-77.051171,39.404715],[-77.040744,39.39868],[-77.038581,39.395652],[-77.040347,39.395626],[-77.039188,39.394235],[-77.040621,39.393938],[-77.037208,39.391785],[-77.036607,39.389402],[-77.035383,39.387744],[-77.029101,39.384371],[-77.028168,39.384024],[-77.024927,39.385149],[-77.01918,39.38604],[-77.018759,39.38115],[-77.016183,39.380978],[-77.014636,39.377941],[-77.013264,39.377254],[-77.012104,39.373419],[-77.010831,39.372474],[-77.010161,39.37013],[-77.0071,39.367081],[-77.006719,39.364456],[-77.004903,39.362852],[-77.002816,39.362648],[-77.002725,39.361709],[-76.999706,39.359461],[-76.997622,39.359086],[-76.996949,39.357154],[-76.992302,39.3603],[-76.992153,39.359806],[-76.99245,39.359796],[-76.99289,39.359651],[-76.993391,39.359226],[-76.9937,39.358822],[-76.993917,39.35865],[-76.99476,39.358283],[-76.995189,39.357698],[-76.997551,39.355951],[-76.997626,39.354992],[-77.003056,39.35462],[-77.009138,39.354826],[-77.015735,39.352562],[-77.015777,39.352425],[-77.016707,39.351317],[-77.017162,39.349882],[-77.01685,39.349116],[-77.015538,39.348601],[-77.012936,39.346051],[-77.012653,39.34297],[-77.013519,39.337627],[-77.013791,39.335872],[-77.011655,39.336267],[-77.008545,39.336216],[-77.007549,39.3368],[-77.002372,39.336492],[-76.998982,39.335513],[-76.993738,39.331039],[-76.991707,39.328463],[-76.988385,39.327839],[-76.9912,39.322803],[-76.991049,39.321241],[-76.985039,39.319527],[-76.975112,39.316334],[-76.962113,39.310922],[-76.958709,39.309855],[-76.952623,39.309039],[-76.951292,39.31348],[-76.950498,39.312743],[-76.947494,39.315165],[-76.946535,39.320469],[-76.936387,39.332654],[-76.936582,39.334022],[-76.934865,39.339992],[-76.93222,39.343385],[-76.93239,39.348854],[-76.933024,39.356518],[-76.933499,39.357602],[-76.928898,39.35383],[-76.926835,39.353756],[-76.923282,39.352068],[-76.916762,39.350643],[-76.91397,39.350893],[-76.913957,39.35612],[-76.919271,39.359875],[-76.92403,39.360789],[-76.924603,39.364306],[-76.927149,39.364544],[-76.928649,39.365133],[-76.932866,39.366747],[-76.933622,39.367617],[-76.936707,39.367993],[-76.936794,39.368759],[-76.942425,39.368866],[-76.942382,39.370112],[-76.941612,39.377447],[-76.943655,39.379063],[-76.944283,39.380768],[-76.939916,39.382325],[-76.936767,39.380744],[-76.936449,39.378882],[-76.93427,39.376225],[-76.931186,39.37457],[-76.929252,39.376315],[-76.931256,39.382846],[-76.929785,39.38601],[-76.932712,39.387715],[-76.929634,39.390691],[-76.9256,39.388146],[-76.920966,39.384212],[-76.919037,39.383439],[-76.917244,39.384692],[-76.915821,39.384136],[-76.912639,39.386544],[-76.910446,39.388775],[-76.909402,39.389955],[-76.908688,39.390585],[-76.907381,39.391147],[-76.905899,39.392268],[-76.904722,39.393374],[-76.90526,39.394203],[-76.905639,39.395277],[-76.905567,39.395588],[-76.904575,39.395731],[-76.904595,39.394846],[-76.90187,39.394912],[-76.90294,39.393902],[-76.90127,39.392204],[-76.901554,39.391501],[-76.897669,39.390512],[-76.897337,39.389155],[-76.89583,39.38927],[-76.895941,39.392801],[-76.894541,39.390659],[-76.892779,39.390768],[-76.894415,39.388166],[-76.891599,39.387248],[-76.891622,39.385408],[-76.890679,39.387692],[-76.8885,39.386286],[-76.887804,39.387313],[-76.884646,39.38701],[-76.884303,39.388386],[-76.882031,39.387606],[-76.880503,39.388296],[-76.879081,39.387983],[-76.878604,39.389114],[-76.879694,39.389938],[-76.878804,39.39049],[-76.874427,39.388543],[-76.873439,39.388865],[-76.87447,39.388834],[-76.877514,39.390888],[-76.877528,39.392557],[-76.879521,39.391733],[-76.879965,39.394874],[-76.884117,39.396568],[-76.885517,39.397621],[-76.879352,39.402327],[-76.878928,39.403903],[-76.884428,39.404603],[-76.884428,39.407503],[-76.882528,39.408803],[-76.882228,39.412603],[-76.881429,39.417403],[-76.878629,39.418503],[-76.875929,39.417603],[-76.874529,39.419103],[-76.875329,39.420503],[-76.879529,39.420203],[-76.886492,39.421745],[-76.886827,39.424298],[-76.892408,39.422388],[-76.895013,39.422383],[-76.900822,39.423768],[-76.901908,39.424585],[-76.903495,39.427962],[-76.903999,39.430701],[-76.904677,39.431317],[-76.912249,39.432068],[-76.916564,39.433441],[-76.921159,39.432914],[-76.927875,39.433121],[-76.930745,39.434741],[-76.933126,39.436527],[-76.936924,39.436288],[-76.937133,39.43675],[-76.934935,39.438549],[-76.933377,39.437763],[-76.932053,39.438203],[-76.92973,39.434507],[-76.926657,39.433392],[-76.923846,39.43404],[-76.925276,39.435188],[-76.923301,39.434913],[-76.922182,39.433661],[-76.921997,39.434714],[-76.926687,39.444202],[-76.92573,39.445445],[-76.930119,39.448407],[-76.932248,39.445442],[-76.935809,39.442687],[-76.936983,39.442382],[-76.938492,39.442357],[-76.94112,39.443891],[-76.94179,39.444693],[-76.945211,39.445862],[-76.945707,39.447427],[-76.947776,39.449327],[-76.948888,39.451171],[-76.951955,39.452275],[-76.946456,39.472379],[-76.94913,39.474511],[-76.949427,39.474746],[-76.956237,39.471094],[-76.957562,39.471876],[-76.962132,39.470587],[-76.960744,39.46876],[-76.960957,39.467092],[-76.96694,39.46238],[-76.968562,39.462105],[-76.970774,39.465756],[-76.969778,39.467429],[-76.970252,39.468935],[-76.971251,39.469561],[-76.972838,39.46889],[-76.975728,39.469071],[-76.977322,39.468296],[-76.978229,39.46874],[-76.979272,39.470952],[-76.981171,39.472171],[-76.985288,39.473168],[-76.986529,39.47437],[-76.990782,39.47679],[-76.991681,39.476207],[-76.995316,39.475931],[-76.996947,39.478148],[-76.999561,39.479108],[-77.003126,39.476084],[-77.004656,39.473432],[-77.005176,39.470448],[-77.004563,39.465896],[-77.001163,39.456894],[-77.003843,39.457081],[-77.005048,39.460535],[-77.015839,39.462815],[-77.01948,39.45935],[-77.021537,39.459539],[-77.023311,39.45835],[-77.031454,39.456386],[-77.042336,39.447651],[-77.05062,39.449112],[-77.053556,39.447737],[-77.05546,39.447459],[-77.055661,39.44657],[-77.061081,39.448917],[-77.064003,39.44972],[-77.067002,39.445899],[-77.069758,39.443735],[-77.070178,39.442188]]]}},{"type":"Feature","properties":{"zcta5":"21771","AFFGEOID10":"8600000US21771","GEOID10":"21771","ALAND10":220324674,"AWATER10":442882,"county_name":"Carroll","state_code":"MD","county_state":"Carroll County, MD","county_fips":"24013","risk_level_county":"Medium Risk (70–79% vaccinated)","mean_vaccination_rate_county":75.07,"risk_level_zcta":"Lower Risk (80–84% vaccinated)","mean_vaccination_rate_zips":80.34,"cases":11},"geometry":{"type":"Polygon","coordinates":[[[-77.244743,39.432521],[-77.242575,39.424829],[-77.219956,39.410114],[-77.220683,39.409058],[-77.222801,39.409667],[-77.230129,39.413148],[-77.236775,39.414155],[-77.2401,39.415599],[-77.240486,39.413429],[-77.242805,39.411422],[-77.246177,39.409683],[-77.242713,39.408527],[-77.238899,39.408733],[-77.236763,39.40649],[-77.240905,39.398639],[-77.238967,39.397605],[-77.239372,39.396511],[-77.237251,39.394925],[-77.23951,39.390549],[-77.241458,39.383278],[-77.242819,39.380255],[-77.245299,39.37896],[-77.245275,39.378403],[-77.231504,39.37534],[-77.231981,39.374386],[-77.232167,39.374217],[-77.227089,39.372672],[-77.225778,39.371633],[-77.227228,39.368675],[-77.232248,39.365161],[-77.233607,39.360046],[-77.241803,39.349716],[-77.236332,39.345441],[-77.234484,39.345227],[-77.231273,39.343131],[-77.230612,39.344567],[-77.220471,39.337618],[-77.219912,39.331735],[-77.21749,39.331409],[-77.215483,39.330622],[-77.213119,39.328643],[-77.206901,39.324695],[-77.20283,39.328067],[-77.197463,39.322441],[-77.196535,39.324377],[-77.194976,39.325454],[-77.190536,39.329341],[-77.189514,39.328968],[-77.189262,39.327011],[-77.186592,39.325973],[-77.185684,39.3241],[-77.183967,39.323299],[-77.181747,39.320518],[-77.18074,39.318557],[-77.179733,39.318367],[-77.17543,39.319541],[-77.174156,39.319274],[-77.172291,39.31678],[-77.171864,39.315417],[-77.170347,39.313109],[-77.166777,39.312136],[-77.165375,39.309439],[-77.167263,39.308808],[-77.168206,39.307615],[-77.168744,39.305023],[-77.168212,39.303691],[-77.165153,39.300273],[-77.163398,39.294536],[-77.161148,39.290191],[-77.16275,39.289745],[-77.164375,39.287841],[-77.165542,39.287296],[-77.162696,39.286178],[-77.161888,39.285282],[-77.158142,39.284824],[-77.155578,39.283584],[-77.154014,39.283538],[-77.152976,39.285064],[-77.150672,39.28622],[-77.150009,39.288322],[-77.145545,39.288967],[-77.144805,39.287757],[-77.141677,39.285438],[-77.139792,39.285028],[-77.137875,39.288091],[-77.140195,39.289284],[-77.140059,39.292095],[-77.140103,39.293403],[-77.137703,39.292903],[-77.135285,39.29404],[-77.135823,39.296065],[-77.132882,39.299227],[-77.132719,39.3009],[-77.131292,39.302637],[-77.132301,39.306077],[-77.134326,39.306782],[-77.135326,39.307982],[-77.135234,39.312516],[-77.133945,39.313304],[-77.127773,39.320177],[-77.125757,39.323229],[-77.125322,39.325205],[-77.123948,39.326216],[-77.120162,39.330911],[-77.11804,39.334725],[-77.112477,39.33062],[-77.106646,39.338403],[-77.102426,39.338364],[-77.096068,39.340466],[-77.097062,39.341972],[-77.096337,39.343555],[-77.087982,39.341191],[-77.084776,39.346225],[-77.079062,39.344955],[-77.071446,39.34247],[-77.069718,39.346827],[-77.068226,39.351675],[-77.066715,39.354696],[-77.06575,39.355426],[-77.062674,39.360092],[-77.064015,39.361439],[-77.064961,39.361935],[-77.065338,39.362781],[-77.068416,39.365405],[-77.069895,39.368299],[-77.071854,39.369644],[-77.075901,39.369275],[-77.07779,39.370329],[-77.079786,39.373678],[-77.078478,39.378328],[-77.07587,39.378212],[-77.076577,39.38102],[-77.074416,39.384129],[-77.072152,39.384611],[-77.06972,39.390189],[-77.06868,39.390867],[-77.079145,39.393678],[-77.089712,39.393349],[-77.097845,39.400804],[-77.096446,39.402906],[-77.094913,39.402753],[-77.092744,39.405248],[-77.093069,39.40766],[-77.091676,39.408343],[-77.089004,39.411172],[-77.087435,39.410737],[-77.08707,39.412266],[-77.084991,39.414118],[-77.08491,39.415337],[-77.07666,39.415864],[-77.081512,39.420786],[-77.081278,39.423606],[-77.082571,39.424448],[-77.080518,39.424354],[-77.076704,39.421384],[-77.072218,39.419746],[-77.071802,39.42051],[-77.07103,39.423662],[-77.071881,39.427747],[-77.072794,39.428806],[-77.072171,39.43047],[-77.072873,39.434066],[-77.072442,39.436548],[-77.070676,39.439514],[-77.071468,39.439448],[-77.070178,39.442188],[-77.074955,39.449541],[-77.078808,39.452596],[-77.079744,39.453805],[-77.083255,39.454557],[-77.083762,39.456441],[-77.089571,39.458814],[-77.092091,39.458788],[-77.09266,39.457939],[-77.09489,39.458945],[-77.099937,39.459394],[-77.105331,39.455882],[-77.104901,39.457337],[-77.107215,39.457218],[-77.112961,39.460249],[-77.114901,39.460537],[-77.115218,39.462968],[-77.118941,39.463105],[-77.12147,39.464403],[-77.122503,39.467577],[-77.126186,39.467194],[-77.141108,39.478019],[-77.146285,39.478304],[-77.148538,39.478019],[-77.151287,39.476625],[-77.161483,39.474607],[-77.163169,39.473445],[-77.171483,39.4769],[-77.176114,39.478124],[-77.178638,39.478388],[-77.185259,39.47804],[-77.186322,39.475185],[-77.190818,39.477441],[-77.194483,39.477757],[-77.198456,39.478654],[-77.20339,39.47878],[-77.206716,39.479401],[-77.208296,39.480226],[-77.208839,39.478969],[-77.21536,39.47714],[-77.215175,39.474677],[-77.209006,39.462402],[-77.209234,39.460319],[-77.211279,39.45933],[-77.215013,39.456262],[-77.213575,39.452834],[-77.209986,39.451694],[-77.21192,39.451633],[-77.217096,39.44915],[-77.21978,39.448837],[-77.222953,39.449319],[-77.226076,39.450284],[-77.229269,39.449119],[-77.229389,39.448163],[-77.232815,39.446559],[-77.237262,39.445739],[-77.238697,39.445853],[-77.23682,39.444741],[-77.234292,39.441547],[-77.228846,39.439787],[-77.226158,39.439357],[-77.229049,39.43563],[-77.228927,39.434959],[-77.226074,39.434226],[-77.227355,39.432411],[-77.226943,39.431545],[-77.228874,39.428108],[-77.233146,39.429851],[-77.235163,39.42858],[-77.238332,39.430882],[-77.242066,39.432489],[-77.244743,39.432521]]]}},{"type":"Feature","properties":{"zcta5":"21776","AFFGEOID10":"8600000US21776","GEOID10":"21776","ALAND10":91193861,"AWATER10":299381,"county_name":"Carroll","state_code":"MD","county_state":"Carroll County, MD","county_fips":"24013","risk_level_county":"Medium Risk (70–79% vaccinated)","mean_vaccination_rate_county":75.07,"risk_level_zcta":"Medium Risk (70–79% vaccinated)","mean_vaccination_rate_zips":79.51,"cases":11},"geometry":{"type":"Polygon","coordinates":[[[-77.110801,39.568499],[-77.118044,39.568719],[-77.119089,39.565255],[-77.120873,39.561976],[-77.125695,39.557618],[-77.128205,39.558022],[-77.125947,39.556995],[-77.122126,39.556373],[-77.118972,39.557702],[-77.115321,39.556605],[-77.114103,39.55291],[-77.116446,39.5521],[-77.117153,39.549486],[-77.115329,39.548082],[-77.115975,39.545844],[-77.127554,39.551245],[-77.128525,39.547411],[-77.132606,39.546737],[-77.134787,39.545681],[-77.135732,39.546722],[-77.13736,39.545913],[-77.136152,39.544972],[-77.159328,39.534125],[-77.158856,39.533042],[-77.156984,39.533136],[-77.155894,39.528691],[-77.156987,39.51294],[-77.158791,39.507661],[-77.161506,39.507272],[-77.162582,39.501685],[-77.162935,39.498391],[-77.162893,39.491999],[-77.16575,39.492251],[-77.170159,39.491931],[-77.174162,39.493242],[-77.178836,39.494282],[-77.180546,39.490697],[-77.182185,39.488364],[-77.184178,39.483962],[-77.185259,39.47804],[-77.178638,39.478388],[-77.176114,39.478124],[-77.171483,39.4769],[-77.163169,39.473445],[-77.161483,39.474607],[-77.151287,39.476625],[-77.148538,39.478019],[-77.146285,39.478304],[-77.141108,39.478019],[-77.126186,39.467194],[-77.122503,39.467577],[-77.12147,39.464403],[-77.118941,39.463105],[-77.115218,39.462968],[-77.114901,39.460537],[-77.112961,39.460249],[-77.107215,39.457218],[-77.104901,39.457337],[-77.105331,39.455882],[-77.099937,39.459394],[-77.09489,39.458945],[-77.09266,39.457939],[-77.092091,39.458788],[-77.089571,39.458814],[-77.092616,39.459523],[-77.087565,39.475104],[-77.090112,39.47644],[-77.089231,39.479482],[-77.087908,39.481131],[-77.088417,39.485361],[-77.086858,39.488513],[-77.081546,39.490886],[-77.080091,39.492845],[-77.073367,39.492649],[-77.071832,39.492362],[-77.05341,39.501391],[-77.049362,39.505531],[-77.045038,39.511747],[-77.042527,39.511539],[-77.042477,39.514128],[-77.049488,39.521635],[-77.050093,39.524594],[-77.047415,39.522778],[-77.047007,39.521922],[-77.04466,39.520508],[-77.04245,39.524295],[-77.038482,39.529109],[-77.033174,39.526398],[-77.033208,39.529144],[-77.033932,39.530639],[-77.030219,39.536112],[-77.029514,39.538193],[-77.027558,39.541084],[-77.026972,39.542133],[-77.029318,39.542839],[-77.031903,39.542387],[-77.032387,39.542645],[-77.033752,39.541986],[-77.037018,39.54269],[-77.038771,39.544309],[-77.040049,39.547949],[-77.041809,39.54953],[-77.046324,39.550385],[-77.045672,39.551524],[-77.044135,39.550902],[-77.043978,39.552664],[-77.039437,39.555864],[-77.038033,39.556458],[-77.033461,39.556426],[-77.033491,39.557761],[-77.036618,39.55784],[-77.039619,39.557031],[-77.043285,39.555456],[-77.048864,39.55174],[-77.052725,39.550421],[-77.055223,39.557939],[-77.056572,39.56262],[-77.057633,39.563206],[-77.057797,39.565168],[-77.058714,39.566985],[-77.059846,39.567492],[-77.062904,39.567694],[-77.06622,39.567239],[-77.067494,39.564222],[-77.069907,39.562159],[-77.073318,39.558549],[-77.075042,39.557187],[-77.077382,39.557668],[-77.080004,39.561416],[-77.08244,39.56713],[-77.081279,39.56806],[-77.087079,39.568275],[-77.087713,39.570392],[-77.090881,39.569559],[-77.09287,39.56851],[-77.110801,39.568499]]]}},{"type":"Feature","properties":{"zcta5":"21791","AFFGEOID10":"8600000US21791","GEOID10":"21791","ALAND10":127672410,"AWATER10":204242,"county_name":"Carroll","state_code":"MD","county_state":"Carroll County, MD","county_fips":"24013","risk_level_county":"Medium Risk (70–79% vaccinated)","mean_vaccination_rate_county":75.07,"risk_level_zcta":"Lower Risk (80–84% vaccinated)","mean_vaccination_rate_zips":82.62,"cases":11},"geometry":{"type":"Polygon","coordinates":[[[-77.234519,39.539743],[-77.243676,39.540562],[-77.24232,39.539082],[-77.241268,39.53558],[-77.24147,39.53216],[-77.240823,39.529788],[-77.241274,39.52789],[-77.250321,39.526668],[-77.249119,39.52449],[-77.251889,39.521446],[-77.254357,39.52409],[-77.255095,39.526189],[-77.258607,39.525778],[-77.259713,39.522633],[-77.259048,39.521969],[-77.262417,39.51934],[-77.261367,39.518454],[-77.260111,39.50842],[-77.257085,39.507231],[-77.258639,39.50414],[-77.259089,39.501907],[-77.253884,39.504242],[-77.250737,39.504659],[-77.244747,39.502255],[-77.249467,39.489158],[-77.248128,39.487907],[-77.240891,39.488161],[-77.240232,39.482615],[-77.241565,39.48398],[-77.246597,39.483675],[-77.24647,39.482708],[-77.243615,39.47887],[-77.24395,39.476839],[-77.247456,39.4734],[-77.249021,39.473229],[-77.252319,39.475709],[-77.25657,39.469406],[-77.256071,39.466822],[-77.254861,39.465284],[-77.25487,39.463285],[-77.253654,39.460111],[-77.251893,39.457815],[-77.252392,39.457277],[-77.247716,39.456614],[-77.248306,39.447349],[-77.246992,39.446788],[-77.243721,39.446729],[-77.238697,39.445853],[-77.237262,39.445739],[-77.232815,39.446559],[-77.229389,39.448163],[-77.229269,39.449119],[-77.226076,39.450284],[-77.222953,39.449319],[-77.21978,39.448837],[-77.217096,39.44915],[-77.21192,39.451633],[-77.209986,39.451694],[-77.213575,39.452834],[-77.215013,39.456262],[-77.211279,39.45933],[-77.209234,39.460319],[-77.209006,39.462402],[-77.215175,39.474677],[-77.21536,39.47714],[-77.208839,39.478969],[-77.208296,39.480226],[-77.206716,39.479401],[-77.20339,39.47878],[-77.198456,39.478654],[-77.194483,39.477757],[-77.190818,39.477441],[-77.186322,39.475185],[-77.185259,39.47804],[-77.184178,39.483962],[-77.182185,39.488364],[-77.180546,39.490697],[-77.178836,39.494282],[-77.174162,39.493242],[-77.170159,39.491931],[-77.16575,39.492251],[-77.162893,39.491999],[-77.162935,39.498391],[-77.162582,39.501685],[-77.161506,39.507272],[-77.158791,39.507661],[-77.156987,39.51294],[-77.155894,39.528691],[-77.156984,39.533136],[-77.158856,39.533042],[-77.159328,39.534125],[-77.136152,39.544972],[-77.13736,39.545913],[-77.135732,39.546722],[-77.134787,39.545681],[-77.132606,39.546737],[-77.128525,39.547411],[-77.127554,39.551245],[-77.115975,39.545844],[-77.115329,39.548082],[-77.117153,39.549486],[-77.116446,39.5521],[-77.114103,39.55291],[-77.115321,39.556605],[-77.118972,39.557702],[-77.122126,39.556373],[-77.125947,39.556995],[-77.128205,39.558022],[-77.125695,39.557618],[-77.120873,39.561976],[-77.119089,39.565255],[-77.118044,39.568719],[-77.110801,39.568499],[-77.109421,39.569189],[-77.11057,39.571052],[-77.114919,39.571284],[-77.116308,39.571863],[-77.113266,39.575558],[-77.110566,39.580424],[-77.10929,39.580946],[-77.121006,39.591742],[-77.12049,39.593029],[-77.118957,39.593044],[-77.11924,39.595416],[-77.117551,39.596805],[-77.115114,39.595924],[-77.113014,39.597586],[-77.110637,39.598301],[-77.10765,39.60023],[-77.105403,39.604228],[-77.10343,39.604097],[-77.10218,39.60323],[-77.098617,39.603473],[-77.096766,39.604879],[-77.098675,39.606288],[-77.098838,39.608018],[-77.100609,39.608873],[-77.103438,39.604948],[-77.105886,39.604914],[-77.11463,39.611881],[-77.117499,39.611296],[-77.125973,39.617326],[-77.127442,39.61545],[-77.13208,39.610965],[-77.133264,39.611993],[-77.13767,39.61834],[-77.139862,39.624511],[-77.141346,39.625463],[-77.142403,39.623907],[-77.145918,39.622645],[-77.149014,39.620971],[-77.147993,39.617924],[-77.150202,39.616996],[-77.153843,39.617069],[-77.15522,39.617645],[-77.158876,39.617707],[-77.163817,39.619508],[-77.16731,39.61689],[-77.169842,39.616201],[-77.171035,39.613641],[-77.169141,39.607944],[-77.165652,39.604816],[-77.164268,39.602664],[-77.159586,39.598086],[-77.164979,39.596571],[-77.168406,39.596026],[-77.177833,39.59549],[-77.180269,39.59483],[-77.185251,39.599116],[-77.185399,39.600162],[-77.196798,39.604742],[-77.19997,39.600292],[-77.206508,39.594863],[-77.209777,39.594806],[-77.213557,39.594146],[-77.209714,39.590225],[-77.208085,39.589438],[-77.211309,39.584267],[-77.211114,39.583059],[-77.203533,39.579828],[-77.199246,39.578644],[-77.19704,39.576864],[-77.198024,39.57543],[-77.200352,39.578654],[-77.206993,39.57946],[-77.211087,39.578871],[-77.215866,39.574434],[-77.217534,39.574549],[-77.216086,39.572847],[-77.213361,39.571157],[-77.214238,39.569117],[-77.22238,39.568658],[-77.223629,39.564501],[-77.22604,39.562586],[-77.228216,39.559654],[-77.226893,39.557138],[-77.226565,39.553606],[-77.229221,39.55506],[-77.232645,39.538047],[-77.234519,39.539743]]]}},{"type":"Feature","properties":{"zcta5":"21048","AFFGEOID10":"8600000US21048","GEOID10":"21048","ALAND10":70071950,"AWATER10":3602117,"county_name":"Carroll","state_code":"MD","county_state":"Carroll County, MD","county_fips":"24013","risk_level_county":"Medium Risk (70–79% vaccinated)","mean_vaccination_rate_county":75.07,"risk_level_zcta":"Medium Risk (70–79% vaccinated)","mean_vaccination_rate_zips":79,"cases":11},"geometry":{"type":"Polygon","coordinates":[[[-76.946456,39.472379],[-76.951955,39.452275],[-76.948888,39.451171],[-76.947776,39.449327],[-76.945707,39.447427],[-76.945211,39.445862],[-76.94179,39.444693],[-76.94112,39.443891],[-76.938492,39.442357],[-76.936983,39.442382],[-76.935809,39.442687],[-76.932248,39.445442],[-76.930119,39.448407],[-76.92573,39.445445],[-76.926687,39.444202],[-76.921997,39.434714],[-76.922182,39.433661],[-76.923301,39.434913],[-76.925276,39.435188],[-76.923846,39.43404],[-76.926657,39.433392],[-76.92973,39.434507],[-76.932053,39.438203],[-76.933377,39.437763],[-76.934935,39.438549],[-76.937133,39.43675],[-76.936924,39.436288],[-76.933126,39.436527],[-76.930745,39.434741],[-76.927875,39.433121],[-76.921159,39.432914],[-76.916564,39.433441],[-76.912249,39.432068],[-76.904677,39.431317],[-76.903999,39.430701],[-76.903495,39.427962],[-76.901908,39.424585],[-76.900822,39.423768],[-76.895013,39.422383],[-76.892408,39.422388],[-76.886827,39.424298],[-76.886281,39.425943],[-76.888369,39.425398],[-76.889788,39.426483],[-76.889222,39.427956],[-76.890655,39.428616],[-76.889386,39.430183],[-76.895091,39.428386],[-76.89556,39.429487],[-76.894969,39.430748],[-76.893228,39.431015],[-76.89468,39.431816],[-76.894494,39.434537],[-76.891899,39.433751],[-76.891141,39.435041],[-76.892451,39.438083],[-76.8943,39.439802],[-76.891,39.439302],[-76.8873,39.440502],[-76.8885,39.443002],[-76.8918,39.444402],[-76.8918,39.445402],[-76.8885,39.446102],[-76.8871,39.445202],[-76.8823,39.444202],[-76.8818,39.445902],[-76.877949,39.448958],[-76.876399,39.450802],[-76.877099,39.452802],[-76.879399,39.452902],[-76.883899,39.450602],[-76.886499,39.451402],[-76.887599,39.452502],[-76.893,39.455302],[-76.8931,39.457402],[-76.8857,39.456402],[-76.8879,39.459002],[-76.892,39.461802],[-76.88691,39.463242],[-76.8845,39.466902],[-76.887805,39.467067],[-76.888572,39.468523],[-76.884034,39.470026],[-76.883,39.472102],[-76.883294,39.474751],[-76.88176,39.477227],[-76.88074,39.476515],[-76.876901,39.476665],[-76.875443,39.47895],[-76.877338,39.480857],[-76.876612,39.482977],[-76.874798,39.481995],[-76.869309,39.482459],[-76.866966,39.484912],[-76.866532,39.487617],[-76.868704,39.489104],[-76.868387,39.494074],[-76.870573,39.494384],[-76.871034,39.494566],[-76.87928,39.499051],[-76.881243,39.500487],[-76.887116,39.508188],[-76.887203,39.508694],[-76.885649,39.513671],[-76.884766,39.514494],[-76.876788,39.521365],[-76.876553,39.523091],[-76.878439,39.525905],[-76.877816,39.52594],[-76.875768,39.527605],[-76.875426,39.529691],[-76.878842,39.531791],[-76.876919,39.533014],[-76.875352,39.532799],[-76.875173,39.535342],[-76.873447,39.535471],[-76.871357,39.536982],[-76.872777,39.53903],[-76.87453,39.540577],[-76.876046,39.54281],[-76.87498,39.544671],[-76.872223,39.546668],[-76.874444,39.547024],[-76.873977,39.548705],[-76.874574,39.550077],[-76.873498,39.552357],[-76.87247,39.55328],[-76.872754,39.554458],[-76.879084,39.55546],[-76.879521,39.55481],[-76.884594,39.557722],[-76.886133,39.558075],[-76.889034,39.557776],[-76.892937,39.558086],[-76.893667,39.559159],[-76.893361,39.561136],[-76.894588,39.561394],[-76.895628,39.564134],[-76.897418,39.564672],[-76.902491,39.56727],[-76.904585,39.565803],[-76.909295,39.560722],[-76.907699,39.558734],[-76.90749,39.556442],[-76.916165,39.554743],[-76.919284,39.552634],[-76.923609,39.551636],[-76.930961,39.538907],[-76.933457,39.539712],[-76.934454,39.539147],[-76.930033,39.531592],[-76.934359,39.530955],[-76.934383,39.531897],[-76.937631,39.531136],[-76.93882,39.525564],[-76.943182,39.527765],[-76.944775,39.526149],[-76.945254,39.524782],[-76.947819,39.522927],[-76.949858,39.518852],[-76.944985,39.518065],[-76.943014,39.517159],[-76.946923,39.506581],[-76.950333,39.501309],[-76.949843,39.497278],[-76.950968,39.496197],[-76.948509,39.49421],[-76.944738,39.492267],[-76.949906,39.489328],[-76.951512,39.487637],[-76.949039,39.487785],[-76.946983,39.487336],[-76.944992,39.485771],[-76.943744,39.483948],[-76.94181,39.482795],[-76.941859,39.481378],[-76.940704,39.478869],[-76.943066,39.474979],[-76.946456,39.472379]]]}},{"type":"Feature","properties":{"zcta5":"21757","AFFGEOID10":"8600000US21757","GEOID10":"21757","ALAND10":97513894,"AWATER10":199033,"county_name":"Carroll","state_code":"MD","county_state":"Carroll County, MD","county_fips":"24013","risk_level_county":"Medium Risk (70–79% vaccinated)","mean_vaccination_rate_county":75.07,"risk_level_zcta":"Medium Risk (70–79% vaccinated)","mean_vaccination_rate_zips":71.92,"cases":11},"geometry":{"type":"Polygon","coordinates":[[[-77.313652,39.580695],[-77.312151,39.580053],[-77.314337,39.57841],[-77.313267,39.567997],[-77.312646,39.564397],[-77.315559,39.564418],[-77.31556,39.563605],[-77.316565,39.561767],[-77.316402,39.560928],[-77.316857,39.560247],[-77.316433,39.559952],[-77.313532,39.558846],[-77.314115,39.553764],[-77.313636,39.551765],[-77.315988,39.544609],[-77.316126,39.543396],[-77.314807,39.543028],[-77.31368,39.542666],[-77.313728,39.541066],[-77.312662,39.53804],[-77.311085,39.537704],[-77.309326,39.537685],[-77.31007,39.539915],[-77.309496,39.54103],[-77.306078,39.543544],[-77.305582,39.543687],[-77.302796,39.541382],[-77.3002,39.541612],[-77.296896,39.541068],[-77.295052,39.539901],[-77.29367,39.540914],[-77.290245,39.540979],[-77.289259,39.540534],[-77.28511,39.542049],[-77.281686,39.540928],[-77.279715,39.541152],[-77.278793,39.539922],[-77.275092,39.539586],[-77.273721,39.539792],[-77.274695,39.547111],[-77.275356,39.550799],[-77.268838,39.55312],[-77.26725,39.551531],[-77.265663,39.548686],[-77.265479,39.54756],[-77.25856,39.549201],[-77.255758,39.547786],[-77.248676,39.550714],[-77.24491,39.550706],[-77.24208,39.550092],[-77.239783,39.550247],[-77.238052,39.546804],[-77.236181,39.545689],[-77.23501,39.544029],[-77.235082,39.540858],[-77.234519,39.539743],[-77.232645,39.538047],[-77.229221,39.55506],[-77.226565,39.553606],[-77.226893,39.557138],[-77.228216,39.559654],[-77.22604,39.562586],[-77.223629,39.564501],[-77.22238,39.568658],[-77.214238,39.569117],[-77.213361,39.571157],[-77.216086,39.572847],[-77.217534,39.574549],[-77.215866,39.574434],[-77.211087,39.578871],[-77.206993,39.57946],[-77.200352,39.578654],[-77.198024,39.57543],[-77.19704,39.576864],[-77.199246,39.578644],[-77.203533,39.579828],[-77.211114,39.583059],[-77.211309,39.584267],[-77.208085,39.589438],[-77.209714,39.590225],[-77.213557,39.594146],[-77.209777,39.594806],[-77.206508,39.594863],[-77.19997,39.600292],[-77.196798,39.604742],[-77.210426,39.606927],[-77.210531,39.610689],[-77.209477,39.614488],[-77.206811,39.616746],[-77.201456,39.619772],[-77.19934,39.622093],[-77.195199,39.631321],[-77.210227,39.634912],[-77.206944,39.638168],[-77.205146,39.63929],[-77.195344,39.641917],[-77.1881,39.644937],[-77.18683,39.645905],[-77.189597,39.646656],[-77.193408,39.649332],[-77.196888,39.647819],[-77.202548,39.643824],[-77.207637,39.648957],[-77.208754,39.651019],[-77.213865,39.658166],[-77.214433,39.659414],[-77.21637,39.660698],[-77.220956,39.660786],[-77.221981,39.659725],[-77.225986,39.657637],[-77.226091,39.654925],[-77.22722,39.653327],[-77.228825,39.653419],[-77.230119,39.656153],[-77.23228,39.658617],[-77.234149,39.659989],[-77.23761,39.658127],[-77.238456,39.65596],[-77.240778,39.655763],[-77.243418,39.654462],[-77.244009,39.65292],[-77.245927,39.655872],[-77.246227,39.65714],[-77.25057,39.661045],[-77.252232,39.660943],[-77.253419,39.662192],[-77.258053,39.65992],[-77.26516,39.659918],[-77.264664,39.657377],[-77.265357,39.656153],[-77.26623,39.654987],[-77.266942,39.654517],[-77.269878,39.653545],[-77.272471,39.651545],[-77.275617,39.647125],[-77.275472,39.646335],[-77.272366,39.643544],[-77.271267,39.642],[-77.272028,39.640938],[-77.276077,39.639628],[-77.277263,39.638888],[-77.279217,39.636281],[-77.275846,39.63266],[-77.2772,39.631289],[-77.279969,39.630783],[-77.283843,39.630916],[-77.291457,39.63058],[-77.294471,39.631723],[-77.295482,39.633605],[-77.297537,39.634943],[-77.298328,39.636186],[-77.298433,39.638136],[-77.299981,39.639289],[-77.3026,39.640213],[-77.307174,39.641114],[-77.309717,39.640523],[-77.31129,39.639641],[-77.311355,39.638029],[-77.309775,39.636143],[-77.309562,39.630764],[-77.30778,39.628181],[-77.305352,39.626419],[-77.301785,39.625739],[-77.300552,39.625156],[-77.299512,39.623473],[-77.301795,39.621203],[-77.305684,39.620475],[-77.307416,39.619101],[-77.305182,39.616854],[-77.303496,39.615814],[-77.30163,39.613548],[-77.29977,39.612284],[-77.295734,39.611401],[-77.294006,39.610328],[-77.290304,39.60664],[-77.290506,39.604508],[-77.291726,39.604643],[-77.294106,39.603055],[-77.302805,39.6037],[-77.306708,39.602591],[-77.308409,39.60096],[-77.309117,39.599345],[-77.308681,39.597858],[-77.306248,39.596745],[-77.301463,39.593418],[-77.298427,39.590507],[-77.298414,39.588779],[-77.299872,39.588023],[-77.308372,39.587885],[-77.310639,39.588481],[-77.311107,39.588011],[-77.311881,39.584551],[-77.311682,39.582244],[-77.313652,39.580695]]]}},{"type":"Feature","properties":{"zcta5":"21787","AFFGEOID10":"8600000US21787","GEOID10":"21787","ALAND10":148900406,"AWATER10":629899,"county_name":"Carroll","state_code":"MD","county_state":"Carroll County, MD","county_fips":"24013","risk_level_county":"Medium Risk (70–79% vaccinated)","mean_vaccination_rate_county":75.07,"risk_level_zcta":"Lower Risk (80–84% vaccinated)","mean_vaccination_rate_zips":82.4,"cases":11},"geometry":{"type":"Polygon","coordinates":[[[-77.25638199015602,39.7199991579088],[-77.256278,39.717047],[-77.258538,39.711329],[-77.260542,39.711797],[-77.258101,39.709007],[-77.251071,39.70347],[-77.249365,39.698951],[-77.248944,39.696437],[-77.24951,39.694136],[-77.252316,39.691752],[-77.254237,39.688734],[-77.255316,39.68912],[-77.255431,39.687668],[-77.258035,39.685016],[-77.260351,39.685905],[-77.260952,39.684935],[-77.263744,39.685011],[-77.272482,39.680031],[-77.273682,39.67975],[-77.276453,39.67673],[-77.277354,39.674859],[-77.280753,39.674296],[-77.284453,39.674565],[-77.283664,39.669769],[-77.284124,39.668084],[-77.283861,39.665262],[-77.277132,39.661086],[-77.275255,39.660335],[-77.27521,39.659374],[-77.269461,39.656276],[-77.266942,39.654517],[-77.26623,39.654987],[-77.265357,39.656153],[-77.264664,39.657377],[-77.26516,39.659918],[-77.258053,39.65992],[-77.253419,39.662192],[-77.252232,39.660943],[-77.25057,39.661045],[-77.246227,39.65714],[-77.245927,39.655872],[-77.244009,39.65292],[-77.243418,39.654462],[-77.240778,39.655763],[-77.238456,39.65596],[-77.23761,39.658127],[-77.234149,39.659989],[-77.23228,39.658617],[-77.230119,39.656153],[-77.228825,39.653419],[-77.22722,39.653327],[-77.226091,39.654925],[-77.225986,39.657637],[-77.221981,39.659725],[-77.220956,39.660786],[-77.21637,39.660698],[-77.214433,39.659414],[-77.213865,39.658166],[-77.208754,39.651019],[-77.207637,39.648957],[-77.202548,39.643824],[-77.196888,39.647819],[-77.193408,39.649332],[-77.189597,39.646656],[-77.18683,39.645905],[-77.1881,39.644937],[-77.195344,39.641917],[-77.205146,39.63929],[-77.206944,39.638168],[-77.210227,39.634912],[-77.195199,39.631321],[-77.19934,39.622093],[-77.201456,39.619772],[-77.206811,39.616746],[-77.209477,39.614488],[-77.210531,39.610689],[-77.210426,39.606927],[-77.196798,39.604742],[-77.185399,39.600162],[-77.185251,39.599116],[-77.180269,39.59483],[-77.177833,39.59549],[-77.168406,39.596026],[-77.164979,39.596571],[-77.159586,39.598086],[-77.164268,39.602664],[-77.165652,39.604816],[-77.169141,39.607944],[-77.171035,39.613641],[-77.169842,39.616201],[-77.16731,39.61689],[-77.163817,39.619508],[-77.158876,39.617707],[-77.15522,39.617645],[-77.153843,39.617069],[-77.150202,39.616996],[-77.147993,39.617924],[-77.149014,39.620971],[-77.145918,39.622645],[-77.142403,39.623907],[-77.141346,39.625463],[-77.139862,39.624511],[-77.13767,39.61834],[-77.133264,39.611993],[-77.13208,39.610965],[-77.127442,39.61545],[-77.125973,39.617326],[-77.123602,39.617469],[-77.120166,39.619375],[-77.118542,39.620774],[-77.114044,39.622601],[-77.111285,39.624388],[-77.110004,39.626753],[-77.106729,39.630248],[-77.111048,39.631553],[-77.11399,39.63292],[-77.113047,39.634151],[-77.114013,39.636014],[-77.113624,39.639256],[-77.10954,39.638927],[-77.107645,39.639889],[-77.104102,39.640719],[-77.101884,39.638977],[-77.099718,39.640493],[-77.104885,39.643261],[-77.097855,39.648276],[-77.100196,39.651962],[-77.101468,39.652917],[-77.104028,39.656898],[-77.103512,39.659283],[-77.104758,39.660724],[-77.105557,39.665436],[-77.108235,39.667674],[-77.112339,39.666426],[-77.115651,39.664784],[-77.118171,39.662141],[-77.119159,39.658253],[-77.121203,39.656903],[-77.121824,39.661539],[-77.119515,39.664807],[-77.113788,39.667932],[-77.111333,39.669801],[-77.107183,39.66869],[-77.105376,39.666095],[-77.103415,39.667777],[-77.098167,39.665527],[-77.093576,39.666109],[-77.092277,39.66535],[-77.091218,39.663084],[-77.091803,39.664757],[-77.092804,39.666119],[-77.088165,39.676791],[-77.090128,39.678142],[-77.085787,39.677951],[-77.083698,39.678736],[-77.081332,39.680889],[-77.079123,39.680807],[-77.077105,39.681582],[-77.074938,39.683811],[-77.072429,39.6841],[-77.072869,39.685961],[-77.077622,39.685102],[-77.079092,39.688025],[-77.083679,39.687183],[-77.085099,39.687641],[-77.085768,39.690592],[-77.087206,39.690661],[-77.087739,39.692476],[-77.088955,39.693661],[-77.0854,39.695084],[-77.08474,39.69888],[-77.080879,39.700146],[-77.079436,39.698697],[-77.07815,39.699061],[-77.078772,39.700517],[-77.077486,39.701136],[-77.07632,39.700505],[-77.067022,39.712446],[-77.065942,39.714904],[-77.06695609805739,39.720094798583894],[-77.2000367170002,39.7200088324585],[-77.216806,39.719998],[-77.217024,39.719998],[-77.239807,39.719998],[-77.243307,39.719998],[-77.25638199015602,39.7199991579088]]]}},{"type":"Feature","properties":{"zcta5":"21104","AFFGEOID10":"8600000US21104","GEOID10":"21104","ALAND10":43984996,"AWATER10":1909783,"county_name":"Carroll","state_code":"MD","county_state":"Carroll County, MD","county_fips":"24013","risk_level_county":"Medium Risk (70–79% vaccinated)","mean_vaccination_rate_county":75.07,"risk_level_zcta":"Medium Risk (70–79% vaccinated)","mean_vaccination_rate_zips":79.89,"cases":11},"geometry":{"type":"Polygon","coordinates":[[[-76.884646,39.38701],[-76.887804,39.387313],[-76.8885,39.386286],[-76.890679,39.387692],[-76.891622,39.385408],[-76.891599,39.387248],[-76.894415,39.388166],[-76.892779,39.390768],[-76.894541,39.390659],[-76.895941,39.392801],[-76.89583,39.38927],[-76.897337,39.389155],[-76.897669,39.390512],[-76.901554,39.391501],[-76.90127,39.392204],[-76.90294,39.393902],[-76.90187,39.394912],[-76.904595,39.394846],[-76.904575,39.395731],[-76.905567,39.395588],[-76.905639,39.395277],[-76.90526,39.394203],[-76.904722,39.393374],[-76.905899,39.392268],[-76.907381,39.391147],[-76.908688,39.390585],[-76.909402,39.389955],[-76.910446,39.388775],[-76.912639,39.386544],[-76.915821,39.384136],[-76.917244,39.384692],[-76.919037,39.383439],[-76.920966,39.384212],[-76.9256,39.388146],[-76.929634,39.390691],[-76.932712,39.387715],[-76.929785,39.38601],[-76.931256,39.382846],[-76.929252,39.376315],[-76.931186,39.37457],[-76.93427,39.376225],[-76.936449,39.378882],[-76.936767,39.380744],[-76.939916,39.382325],[-76.944283,39.380768],[-76.943655,39.379063],[-76.941612,39.377447],[-76.942382,39.370112],[-76.942425,39.368866],[-76.936794,39.368759],[-76.936707,39.367993],[-76.933622,39.367617],[-76.932866,39.366747],[-76.928649,39.365133],[-76.927149,39.364544],[-76.924603,39.364306],[-76.92403,39.360789],[-76.919271,39.359875],[-76.913957,39.35612],[-76.91397,39.350893],[-76.916762,39.350643],[-76.923282,39.352068],[-76.926835,39.353756],[-76.928898,39.35383],[-76.933499,39.357602],[-76.933024,39.356518],[-76.93239,39.348854],[-76.93222,39.343385],[-76.934865,39.339992],[-76.936582,39.334022],[-76.936387,39.332654],[-76.946535,39.320469],[-76.947494,39.315165],[-76.950498,39.312743],[-76.951292,39.31348],[-76.952623,39.309039],[-76.930549,39.306607],[-76.91755,39.305086],[-76.913819,39.303787],[-76.912057,39.303046],[-76.909909,39.302507],[-76.908714,39.300505],[-76.901606,39.295778],[-76.899172,39.304288],[-76.898711,39.306235],[-76.898525,39.313819],[-76.898889,39.316611],[-76.897292,39.316732],[-76.895429,39.317216],[-76.885102,39.33378],[-76.88592,39.334817],[-76.881242,39.331987],[-76.877762,39.331482],[-76.875327,39.332583],[-76.878119,39.336714],[-76.875602,39.337282],[-76.875297,39.340108],[-76.878105,39.342267],[-76.879224,39.345281],[-76.881906,39.34855],[-76.882274,39.350185],[-76.880193,39.349718],[-76.879688,39.353361],[-76.8804,39.355826],[-76.879738,39.356846],[-76.873923,39.356088],[-76.873378,39.35715],[-76.875923,39.358721],[-76.880701,39.360469],[-76.881769,39.362757],[-76.881008,39.363505],[-76.877953,39.364184],[-76.87374,39.364849],[-76.87335,39.366222],[-76.871282,39.36779],[-76.86866,39.369333],[-76.865326,39.372522],[-76.863794,39.377576],[-76.858347,39.379684],[-76.857488,39.380511],[-76.857842,39.382177],[-76.857662,39.385955],[-76.860201,39.388989],[-76.859671,39.390497],[-76.860727,39.392119],[-76.86088,39.395453],[-76.862565,39.39563],[-76.863813,39.393548],[-76.866655,39.390134],[-76.868156,39.390508],[-76.871213,39.389843],[-76.871922,39.388195],[-76.874559,39.38808],[-76.877153,39.388658],[-76.877862,39.387943],[-76.878043,39.385471],[-76.880107,39.386436],[-76.88056,39.387849],[-76.884646,39.38701]]]}}]}