{"type":"FeatureCollection","features":[{"type":"Feature","properties":{"zcta5":"55395","AFFGEOID10":"8600000US55395","GEOID10":"55395","ALAND10":53045279,"AWATER10":2620784,"county_name":"Carver","state_code":"MN","county_state":"Carver County, MN","county_fips":"27019","risk_level_county":"Medium Risk (70–79% vaccinated)","mean_vaccination_rate_county":79.67,"risk_level_zcta":"Lower Risk (80–84% vaccinated)","mean_vaccination_rate_zips":82.13,"cases":17},"geometry":{"type":"Polygon","coordinates":[[[-94.134286,44.978804],[-94.134327,44.960622],[-94.129222,44.960546],[-94.124341,44.958698],[-94.124302,44.95656],[-94.129119,44.956554],[-94.129086,44.949816],[-94.114082,44.949828],[-94.114163,44.920926],[-94.098285,44.918528],[-94.097917,44.923379],[-94.093964,44.923805],[-94.087871,44.923922],[-94.073661,44.926391],[-94.073694,44.927976],[-94.053185,44.92793],[-94.053179,44.926017],[-94.035244,44.926044],[-94.033959,44.925838],[-94.025214,44.925841],[-94.021244,44.926319],[-94.012318,44.9255],[-94.012309,44.947124],[-94.009792,44.946636],[-94.00334,44.943107],[-94.002175,44.939915],[-94.002198,44.949711],[-94.001658,44.960606],[-93.992146,44.961013],[-93.992348,44.971148],[-94.012303,44.971272],[-94.012236,44.978712],[-94.134286,44.978804]]]}},{"type":"Feature","properties":{"zcta5":"55339","AFFGEOID10":"8600000US55339","GEOID10":"55339","ALAND10":58014414,"AWATER10":687312,"county_name":"Carver","state_code":"MN","county_state":"Carver County, MN","county_fips":"27019","risk_level_county":"Medium Risk (70–79% vaccinated)","mean_vaccination_rate_county":79.67,"risk_level_zcta":"Very High Risk (<60% vaccinated)","mean_vaccination_rate_zips":50.95,"cases":17},"geometry":{"type":"Polygon","coordinates":[[[-94.010181,44.767963],[-94.010494,44.717464],[-93.990628,44.717409],[-93.99058,44.70236],[-93.97001,44.70228],[-93.97,44.68779],[-93.95006,44.68824],[-93.933092,44.688021],[-93.933636,44.690187],[-93.932033,44.693167],[-93.929389,44.696576],[-93.92932,44.68796],[-93.90899,44.68765],[-93.90907,44.70213],[-93.888712,44.702477],[-93.888636,44.717044],[-93.888685,44.724353],[-93.909065,44.724481],[-93.909054,44.731731],[-93.929387,44.731645],[-93.929495,44.74265],[-93.925948,44.746031],[-93.917066,44.746194],[-93.922661,44.750236],[-93.92473,44.753381],[-93.92983,44.7533],[-93.935004,44.752592],[-93.935868,44.753362],[-93.947263,44.751273],[-93.949844,44.751764],[-93.949808,44.767982],[-93.958303,44.768546],[-93.961808,44.768063],[-93.990377,44.768389],[-93.999746,44.768058],[-94.010181,44.767963]]]}},{"type":"Feature","properties":{"zcta5":"55387","AFFGEOID10":"8600000US55387","GEOID10":"55387","ALAND10":81272247,"AWATER10":19970210,"county_name":"Carver","state_code":"MN","county_state":"Carver County, MN","county_fips":"27019","risk_level_county":"Medium Risk (70–79% vaccinated)","mean_vaccination_rate_county":79.67,"risk_level_zcta":"Lowest Risk (85%+)","mean_vaccination_rate_zips":87.11,"cases":17},"geometry":{"type":"Polygon","coordinates":[[[-93.838909,44.90552],[-93.838973,44.893395],[-93.837273,44.891191],[-93.850131,44.891121],[-93.849005,44.890402],[-93.849049,44.884912],[-93.849756,44.882181],[-93.848919,44.881724],[-93.849022,44.877796],[-93.854926,44.878636],[-93.854544,44.877267],[-93.859284,44.877297],[-93.859363,44.873986],[-93.862095,44.8727],[-93.863525,44.869962],[-93.874785,44.87014],[-93.874864,44.864819],[-93.870687,44.863141],[-93.869477,44.861882],[-93.8702,44.860143],[-93.872957,44.859975],[-93.874694,44.859048],[-93.872634,44.857465],[-93.869436,44.857474],[-93.867019,44.856549],[-93.864047,44.856211],[-93.86007,44.856533],[-93.858595,44.857348],[-93.852862,44.857549],[-93.849444,44.856619],[-93.849459,44.848168],[-93.839474,44.848017],[-93.836379,44.848251],[-93.83339,44.847883],[-93.822977,44.847809],[-93.818975,44.847449],[-93.818839,44.842543],[-93.818189,44.841442],[-93.81794,44.841254],[-93.81897,44.840594],[-93.821201,44.83807],[-93.823979,44.837826],[-93.823942,44.834633],[-93.819179,44.834421],[-93.819152,44.833276],[-93.813993,44.833311],[-93.818135,44.831447],[-93.818058,44.826566],[-93.811312,44.826682],[-93.808527,44.827293],[-93.808498,44.818842],[-93.788276,44.818408],[-93.788158,44.803949],[-93.767414,44.803801],[-93.71907,44.804607],[-93.718727,44.819023],[-93.706915,44.819121],[-93.706744,44.8227],[-93.707443,44.826328],[-93.708637,44.828243],[-93.711612,44.830353],[-93.712156,44.832595],[-93.71387,44.834373],[-93.714252,44.837418],[-93.713549,44.839766],[-93.712734,44.848788],[-93.712782,44.851236],[-93.711942,44.85186],[-93.706548,44.852046],[-93.709952,44.855456],[-93.708119,44.855426],[-93.707608,44.856967],[-93.708643,44.859807],[-93.710045,44.86063],[-93.708552,44.863008],[-93.70233,44.863035],[-93.695998,44.86255],[-93.693214,44.861445],[-93.689279,44.859746],[-93.684338,44.859568],[-93.682786,44.861519],[-93.683839,44.861453],[-93.685092,44.861513],[-93.685046,44.864744],[-93.682427,44.863298],[-93.682615,44.872193],[-93.685096,44.872428],[-93.689577,44.874008],[-93.693425,44.876991],[-93.701544,44.880908],[-93.702356,44.881794],[-93.706078,44.890662],[-93.737853,44.890762],[-93.741471,44.895207],[-93.73731,44.898338],[-93.745975,44.898344],[-93.741474,44.901718],[-93.742752,44.901737],[-93.744401,44.90054],[-93.744206,44.900545],[-93.745066,44.899589],[-93.746587,44.897937],[-93.747334,44.897379],[-93.758016,44.890773],[-93.767041,44.890862],[-93.772597,44.890898],[-93.773425,44.89234],[-93.783006,44.903015],[-93.784494,44.905296],[-93.798507,44.905237],[-93.805434,44.905418],[-93.838909,44.90552]],[[-93.737853,44.890762],[-93.73584,44.888774],[-93.737659,44.887002],[-93.734214,44.887425],[-93.732983,44.883279],[-93.726302,44.877518],[-93.729774,44.875673],[-93.731253,44.876542],[-93.735792,44.877104],[-93.735762,44.875912],[-93.739279,44.874546],[-93.74119,44.871889],[-93.744412,44.870048],[-93.757067,44.869836],[-93.757971,44.87192],[-93.755998,44.875004],[-93.749489,44.890675],[-93.742541,44.890662],[-93.741941,44.890762],[-93.737853,44.890762]]]}},{"type":"Feature","properties":{"zcta5":"55388","AFFGEOID10":"8600000US55388","GEOID10":"55388","ALAND10":103913477,"AWATER10":4655358,"county_name":"Carver","state_code":"MN","county_state":"Carver County, MN","county_fips":"27019","risk_level_county":"Medium Risk (70–79% vaccinated)","mean_vaccination_rate_county":79.67,"risk_level_zcta":"Lower Risk (80–84% vaccinated)","mean_vaccination_rate_zips":81.86,"cases":17},"geometry":{"type":"Polygon","coordinates":[[[-93.930946,44.978262],[-93.93084,44.963723],[-93.942981,44.963875],[-93.941846,44.960632],[-93.930818,44.960336],[-93.930554,44.934752],[-93.910172,44.934652],[-93.910155,44.931917],[-93.903674,44.932286],[-93.90272,44.931529],[-93.901677,44.92741],[-93.889912,44.927416],[-93.889923,44.922381],[-93.888213,44.919892],[-93.886776,44.918789],[-93.884789,44.915935],[-93.884791,44.914435],[-93.886927,44.912926],[-93.889764,44.912908],[-93.889934,44.905479],[-93.869885,44.905719],[-93.868821,44.910134],[-93.870654,44.910482],[-93.868949,44.91121],[-93.869218,44.91283],[-93.849054,44.912738],[-93.848664,44.90916],[-93.839321,44.909144],[-93.838909,44.90552],[-93.805434,44.905418],[-93.798507,44.905237],[-93.784494,44.905296],[-93.767728,44.905437],[-93.767041,44.905422],[-93.75775,44.905471],[-93.757449,44.912858],[-93.747276,44.912995],[-93.747292,44.91663],[-93.747063,44.931229],[-93.746964,44.934845],[-93.767799,44.93428],[-93.767632,44.948765],[-93.766532,44.954759],[-93.766442,44.975321],[-93.769211,44.975585],[-93.771757,44.974162],[-93.771317,44.973144],[-93.773176,44.972838],[-93.773735,44.971356],[-93.777688,44.969394],[-93.784097,44.965421],[-93.786809,44.963329],[-93.789178,44.962441],[-93.803042,44.960449],[-93.803106,44.963261],[-93.80824,44.963277],[-93.808358,44.978168],[-93.825337,44.978262],[-93.823072,44.982326],[-93.820162,44.986078],[-93.818547,44.987282],[-93.81173,44.990961],[-93.807868,44.992436],[-93.807815,44.999216],[-93.815882,44.999224],[-93.818169,44.999972],[-93.820199,45.003209],[-93.821909,45.001424],[-93.822243,44.998656],[-93.824319,44.995465],[-93.827616,44.99245],[-93.828779,44.990758],[-93.831297,44.988522],[-93.833772,44.984874],[-93.83385,44.981778],[-93.836202,44.981427],[-93.838645,44.980308],[-93.839022,44.978266],[-93.849208,44.978463],[-93.848742,44.992406],[-93.869238,44.992384],[-93.869303,44.98968],[-93.872908,44.989747],[-93.875038,44.990292],[-93.876331,44.992653],[-93.87003,44.992658],[-93.869833,45.00078],[-93.869915,44.999998],[-93.878941,44.999743],[-93.878963,45.003773],[-93.883778,45.003775],[-93.883773,45.008937],[-93.889958,45.008937],[-93.889888,45.014086],[-93.895609,45.014083],[-93.895621,45.017768],[-93.909631,45.017616],[-93.900952,45.010124],[-93.900227,45.008678],[-93.900152,44.996144],[-93.915488,44.996372],[-93.915522,44.985592],[-93.911291,44.985484],[-93.910418,44.984826],[-93.910426,44.982514],[-93.909516,44.98185],[-93.901161,44.981845],[-93.900104,44.981318],[-93.900089,44.978192],[-93.930946,44.978262]]]}},{"type":"Feature","properties":{"zcta5":"55318","AFFGEOID10":"8600000US55318","GEOID10":"55318","ALAND10":106850973,"AWATER10":5407246,"county_name":"Carver","state_code":"MN","county_state":"Carver County, MN","county_fips":"27019","risk_level_county":"Medium Risk (70–79% vaccinated)","mean_vaccination_rate_county":79.67,"risk_level_zcta":"Lowest Risk (85%+)","mean_vaccination_rate_zips":85.43,"cases":17},"geometry":{"type":"Polygon","coordinates":[[[-93.71907,44.804607],[-93.699939,44.805017],[-93.701848,44.803165],[-93.702013,44.801413],[-93.704023,44.798502],[-93.70382,44.796061],[-93.68375,44.803799],[-93.683369,44.802898],[-93.683756,44.785613],[-93.692348,44.787577],[-93.692885,44.78869],[-93.691134,44.789673],[-93.692451,44.790998],[-93.704915,44.791153],[-93.708467,44.792868],[-93.712834,44.792581],[-93.725065,44.787856],[-93.724869,44.766534],[-93.722198,44.765796],[-93.718334,44.766689],[-93.709547,44.767602],[-93.704259,44.767074],[-93.700908,44.767431],[-93.697122,44.768964],[-93.687475,44.768987],[-93.683755,44.768029],[-93.683863,44.755016],[-93.682095,44.753975],[-93.681184,44.751748],[-93.679875,44.751099],[-93.677935,44.7521],[-93.677006,44.753632],[-93.67531,44.753691],[-93.672758,44.7553],[-93.672651,44.757398],[-93.671268,44.758275],[-93.667783,44.758187],[-93.666833,44.759489],[-93.665182,44.758864],[-93.661412,44.758886],[-93.659742,44.75854],[-93.656886,44.756121],[-93.654633,44.755202],[-93.652724,44.753814],[-93.650388,44.750558],[-93.648151,44.750606],[-93.644668,44.751265],[-93.643775,44.751655],[-93.642966,44.752353],[-93.642533,44.753386],[-93.64249,44.753889],[-93.642794,44.759879],[-93.642611,44.772804],[-93.642526,44.776521],[-93.638045,44.776517],[-93.620127,44.776566],[-93.618325,44.776453],[-93.616178,44.776395],[-93.612899,44.776586],[-93.601841,44.776163],[-93.594234,44.776215],[-93.595493,44.77804],[-93.599613,44.780713],[-93.599813,44.782347],[-93.596134,44.783262],[-93.589934,44.783662],[-93.588234,44.783462],[-93.585234,44.782262],[-93.582633,44.781864],[-93.581721,44.782503],[-93.58125,44.790819],[-93.580499,44.793034],[-93.577233,44.794862],[-93.573733,44.795762],[-93.566933,44.796262],[-93.563337,44.796942],[-93.557037,44.799268],[-93.554749,44.799671],[-93.553119,44.79903],[-93.551532,44.797562],[-93.547988,44.795607],[-93.543569,44.796963],[-93.541136,44.799105],[-93.54123,44.804561],[-93.520431,44.804263],[-93.520735,44.81676],[-93.52784,44.815328],[-93.528104,44.817163],[-93.527678,44.818839],[-93.530109,44.820696],[-93.534091,44.820338],[-93.53291,44.824231],[-93.533649,44.826273],[-93.53636,44.826256],[-93.547236,44.826195],[-93.550401,44.826539],[-93.554407,44.827688],[-93.553993,44.828536],[-93.554784,44.829631],[-93.556849,44.82974],[-93.556946,44.827771],[-93.559943,44.827801],[-93.562943,44.825123],[-93.566867,44.827357],[-93.569984,44.827872],[-93.571477,44.827487],[-93.572229,44.829005],[-93.572327,44.832023],[-93.573266,44.835166],[-93.573319,44.837286],[-93.572323,44.841119],[-93.574954,44.841458],[-93.576357,44.842338],[-93.57949,44.847138],[-93.587025,44.843734],[-93.586972,44.856086],[-93.593292,44.85628],[-93.59719,44.856106],[-93.597179,44.863459],[-93.60757,44.863661],[-93.612438,44.864865],[-93.612625,44.866261],[-93.614187,44.869937],[-93.620543,44.869936],[-93.620848,44.869287],[-93.622871,44.869139],[-93.622937,44.867271],[-93.637132,44.866964],[-93.637133,44.864561],[-93.63546,44.860525],[-93.635,44.856353],[-93.632299,44.856369],[-93.632042,44.84918],[-93.637432,44.849054],[-93.653065,44.848772],[-93.652917,44.843789],[-93.652296,44.835837],[-93.652858,44.833618],[-93.654117,44.833511],[-93.66781,44.834284],[-93.668255,44.835889],[-93.666672,44.838954],[-93.66872,44.838941],[-93.668322,44.841029],[-93.668984,44.841078],[-93.672201,44.841115],[-93.672067,44.844078],[-93.672309,44.844142],[-93.67347,44.844277],[-93.678863,44.8453],[-93.67866,44.845639],[-93.67995,44.846434],[-93.68207,44.845475],[-93.683608,44.841184],[-93.691797,44.841302],[-93.693725,44.842785],[-93.693397,44.860698],[-93.693214,44.861445],[-93.695998,44.86255],[-93.70233,44.863035],[-93.708552,44.863008],[-93.710045,44.86063],[-93.708643,44.859807],[-93.707608,44.856967],[-93.708119,44.855426],[-93.709952,44.855456],[-93.706548,44.852046],[-93.711942,44.85186],[-93.712782,44.851236],[-93.712734,44.848788],[-93.713549,44.839766],[-93.714252,44.837418],[-93.71387,44.834373],[-93.712156,44.832595],[-93.711612,44.830353],[-93.708637,44.828243],[-93.707443,44.826328],[-93.706744,44.8227],[-93.706915,44.819121],[-93.718727,44.819023],[-93.71907,44.804607]]]}},{"type":"Feature","properties":{"zcta5":"55360","AFFGEOID10":"8600000US55360","GEOID10":"55360","ALAND10":82954044,"AWATER10":993443,"county_name":"Carver","state_code":"MN","county_state":"Carver County, MN","county_fips":"27019","risk_level_county":"Medium Risk (70–79% vaccinated)","mean_vaccination_rate_county":79.67,"risk_level_zcta":"Lower Risk (80–84% vaccinated)","mean_vaccination_rate_zips":83.42,"cases":17},"geometry":{"type":"Polygon","coordinates":[[[-94.012236,44.978712],[-94.012303,44.971272],[-93.992348,44.971148],[-93.992146,44.961013],[-94.001658,44.960606],[-94.002198,44.949711],[-93.97147,44.949613],[-93.971398,44.935048],[-93.961056,44.934977],[-93.961032,44.91717],[-93.971133,44.916944],[-93.971088,44.908041],[-93.967179,44.909601],[-93.966025,44.911269],[-93.96433,44.911858],[-93.962187,44.91147],[-93.958264,44.91292],[-93.957155,44.912763],[-93.952764,44.914701],[-93.949111,44.914909],[-93.947125,44.917047],[-93.94205,44.920292],[-93.938091,44.92126],[-93.931871,44.920781],[-93.930431,44.921265],[-93.930274,44.905895],[-93.937831,44.905907],[-93.938087,44.904259],[-93.940522,44.904524],[-93.940796,44.891398],[-93.960109,44.891417],[-93.960124,44.885666],[-93.958778,44.885936],[-93.958779,44.884192],[-93.952334,44.88424],[-93.954392,44.88206],[-93.95088,44.879565],[-93.949838,44.87783],[-93.949776,44.869583],[-93.929303,44.869872],[-93.929283,44.876913],[-93.918905,44.877096],[-93.917397,44.874897],[-93.917623,44.873794],[-93.919504,44.871464],[-93.922744,44.870673],[-93.922268,44.868561],[-93.92305,44.868145],[-93.925421,44.869171],[-93.926221,44.86794],[-93.929012,44.868034],[-93.932354,44.86703],[-93.934764,44.865373],[-93.93805,44.862014],[-93.937721,44.860542],[-93.94004,44.858897],[-93.939832,44.857079],[-93.941711,44.856569],[-93.94289,44.855075],[-93.940855,44.854877],[-93.9396,44.853602],[-93.939543,44.84948],[-93.938784,44.848303],[-93.936873,44.847819],[-93.888398,44.848256],[-93.888373,44.850924],[-93.885464,44.850997],[-93.8801,44.85184],[-93.87843,44.849723],[-93.878062,44.848218],[-93.849459,44.848168],[-93.849444,44.856619],[-93.852862,44.857549],[-93.858595,44.857348],[-93.86007,44.856533],[-93.864047,44.856211],[-93.867019,44.856549],[-93.869436,44.857474],[-93.872634,44.857465],[-93.874694,44.859048],[-93.872957,44.859975],[-93.8702,44.860143],[-93.869477,44.861882],[-93.870687,44.863141],[-93.874864,44.864819],[-93.874785,44.87014],[-93.863525,44.869962],[-93.862095,44.8727],[-93.859363,44.873986],[-93.859284,44.877297],[-93.854544,44.877267],[-93.854926,44.878636],[-93.849022,44.877796],[-93.848919,44.881724],[-93.849756,44.882181],[-93.849049,44.884912],[-93.849005,44.890402],[-93.850131,44.891121],[-93.837273,44.891191],[-93.838973,44.893395],[-93.838909,44.90552],[-93.839321,44.909144],[-93.848664,44.90916],[-93.849054,44.912738],[-93.869218,44.91283],[-93.868949,44.91121],[-93.870654,44.910482],[-93.868821,44.910134],[-93.869885,44.905719],[-93.889934,44.905479],[-93.889764,44.912908],[-93.886927,44.912926],[-93.884791,44.914435],[-93.884789,44.915935],[-93.886776,44.918789],[-93.888213,44.919892],[-93.889923,44.922381],[-93.889912,44.927416],[-93.901677,44.92741],[-93.90272,44.931529],[-93.903674,44.932286],[-93.910155,44.931917],[-93.910172,44.934652],[-93.930554,44.934752],[-93.930818,44.960336],[-93.941846,44.960632],[-93.942981,44.963875],[-93.93084,44.963723],[-93.930946,44.978262],[-93.971827,44.978262],[-94.007272,44.97862],[-94.012236,44.978712]]]}},{"type":"Feature","properties":{"zcta5":"55368","AFFGEOID10":"8600000US55368","GEOID10":"55368","ALAND10":94871420,"AWATER10":2201580,"county_name":"Carver","state_code":"MN","county_state":"Carver County, MN","county_fips":"27019","risk_level_county":"Medium Risk (70–79% vaccinated)","mean_vaccination_rate_county":79.67,"risk_level_zcta":"Medium Risk (70–79% vaccinated)","mean_vaccination_rate_zips":75.85,"cases":17},"geometry":{"type":"Polygon","coordinates":[[[-94.010021,44.803989],[-94.010181,44.767963],[-93.999746,44.768058],[-93.990377,44.768389],[-93.961808,44.768063],[-93.958303,44.768546],[-93.949808,44.767982],[-93.949844,44.751764],[-93.947263,44.751273],[-93.935868,44.753362],[-93.935004,44.752592],[-93.92983,44.7533],[-93.92473,44.753381],[-93.922661,44.750236],[-93.917066,44.746194],[-93.925948,44.746031],[-93.929495,44.74265],[-93.929387,44.731645],[-93.909054,44.731731],[-93.909065,44.724481],[-93.888685,44.724353],[-93.888636,44.717044],[-93.888712,44.702477],[-93.88881,44.67702],[-93.888831,44.673409],[-93.850436,44.673711],[-93.819001,44.673412],[-93.81917,44.687971],[-93.808918,44.688018],[-93.808954,44.695358],[-93.808986,44.702451],[-93.819134,44.702484],[-93.818812,44.716889],[-93.829014,44.716905],[-93.829075,44.745964],[-93.849419,44.746044],[-93.848965,44.762168],[-93.828594,44.765741],[-93.828617,44.767714],[-93.848929,44.767731],[-93.848985,44.782209],[-93.888442,44.782615],[-93.888559,44.768077],[-93.909032,44.768167],[-93.924815,44.772431],[-93.919331,44.775186],[-93.921343,44.775875],[-93.923194,44.775155],[-93.927575,44.775105],[-93.929489,44.774653],[-93.929485,44.775255],[-93.920549,44.784535],[-93.923734,44.785442],[-93.929478,44.78634],[-93.929384,44.791087],[-93.929948,44.792699],[-93.934174,44.797438],[-93.93889,44.800947],[-93.94239,44.804289],[-93.972614,44.804016],[-93.972392,44.802915],[-93.969691,44.801735],[-93.966546,44.797948],[-93.965121,44.794903],[-93.966346,44.792678],[-93.967914,44.792886],[-93.981503,44.792707],[-93.984928,44.79367],[-93.990377,44.797884],[-93.990307,44.804079],[-94.010021,44.803989]]]}},{"type":"Feature","properties":{"zcta5":"55375","AFFGEOID10":"8600000US55375","GEOID10":"55375","ALAND10":13567668,"AWATER10":799920,"county_name":"Carver","state_code":"MN","county_state":"Carver County, MN","county_fips":"27019","risk_level_county":"Medium Risk (70–79% vaccinated)","mean_vaccination_rate_county":79.67,"risk_level_zcta":"Medium Risk (70–79% vaccinated)","mean_vaccination_rate_zips":78.42,"cases":17},"geometry":{"type":"MultiPolygon","coordinates":[[[[-93.737853,44.890762],[-93.741941,44.890762],[-93.742541,44.890662],[-93.749489,44.890675],[-93.755998,44.875004],[-93.757971,44.87192],[-93.757067,44.869836],[-93.744412,44.870048],[-93.74119,44.871889],[-93.739279,44.874546],[-93.735762,44.875912],[-93.735792,44.877104],[-93.731253,44.876542],[-93.729774,44.875673],[-93.726302,44.877518],[-93.732983,44.883279],[-93.734214,44.887425],[-93.737659,44.887002],[-93.73584,44.888774],[-93.737853,44.890762]]],[[[-93.784494,44.905296],[-93.783006,44.903015],[-93.773425,44.89234],[-93.772597,44.890898],[-93.767041,44.890862],[-93.758016,44.890773],[-93.747334,44.897379],[-93.746587,44.897937],[-93.745066,44.899589],[-93.744206,44.900545],[-93.744401,44.90054],[-93.742752,44.901737],[-93.741474,44.901718],[-93.745975,44.898344],[-93.73731,44.898338],[-93.741471,44.895207],[-93.737853,44.890762],[-93.706078,44.890662],[-93.714302,44.895557],[-93.721336,44.898235],[-93.721603,44.899498],[-93.72261,44.900681],[-93.719803,44.902145],[-93.719089,44.904064],[-93.716621,44.903529],[-93.714418,44.903334],[-93.705979,44.906929],[-93.705981,44.90741],[-93.708202,44.907898],[-93.70932,44.911999],[-93.711555,44.913441],[-93.728867,44.913166],[-93.737076,44.913133],[-93.737055,44.918085],[-93.739952,44.917],[-93.741158,44.916729],[-93.747292,44.91663],[-93.747276,44.912995],[-93.757449,44.912858],[-93.75775,44.905471],[-93.767041,44.905422],[-93.767728,44.905437],[-93.784494,44.905296]]]]}},{"type":"Feature","properties":{"zcta5":"55367","AFFGEOID10":"8600000US55367","GEOID10":"55367","ALAND10":53278018,"AWATER10":554612,"county_name":"Carver","state_code":"MN","county_state":"Carver County, MN","county_fips":"27019","risk_level_county":"Medium Risk (70–79% vaccinated)","mean_vaccination_rate_county":79.67,"risk_level_zcta":"Higher Risk (60–69% vaccinated)","mean_vaccination_rate_zips":68.05,"cases":17},"geometry":{"type":"Polygon","coordinates":[[[-94.002198,44.949711],[-94.002175,44.939915],[-94.00334,44.943107],[-94.009792,44.946636],[-94.012309,44.947124],[-94.012318,44.9255],[-94.011805,44.891931],[-94.009864,44.891898],[-94.009771,44.884078],[-94.009998,44.879186],[-94.00965,44.874962],[-94.010042,44.855137],[-94.005517,44.855065],[-94.003201,44.853825],[-94.001697,44.854899],[-93.999814,44.854076],[-93.997601,44.854115],[-93.996136,44.85497],[-93.994238,44.854919],[-93.992712,44.85395],[-93.992395,44.851472],[-93.991068,44.851678],[-93.990435,44.853857],[-93.987312,44.855059],[-93.984102,44.854124],[-93.980817,44.84969],[-93.976109,44.848742],[-93.974873,44.847771],[-93.974149,44.845131],[-93.971946,44.843865],[-93.968664,44.843857],[-93.965724,44.84449],[-93.963089,44.844206],[-93.956424,44.845666],[-93.955037,44.844504],[-93.955979,44.843623],[-93.954836,44.842728],[-93.952882,44.843081],[-93.951426,44.844534],[-93.950533,44.84275],[-93.947701,44.844214],[-93.94714,44.845879],[-93.947882,44.846643],[-93.947806,44.848913],[-93.94209,44.848811],[-93.9418,44.850055],[-93.943786,44.852258],[-93.942098,44.852974],[-93.94289,44.855075],[-93.941711,44.856569],[-93.939832,44.857079],[-93.94004,44.858897],[-93.937721,44.860542],[-93.93805,44.862014],[-93.934764,44.865373],[-93.932354,44.86703],[-93.929012,44.868034],[-93.926221,44.86794],[-93.925421,44.869171],[-93.92305,44.868145],[-93.922268,44.868561],[-93.922744,44.870673],[-93.919504,44.871464],[-93.917623,44.873794],[-93.917397,44.874897],[-93.918905,44.877096],[-93.929283,44.876913],[-93.929303,44.869872],[-93.949776,44.869583],[-93.949838,44.87783],[-93.95088,44.879565],[-93.954392,44.88206],[-93.952334,44.88424],[-93.958779,44.884192],[-93.958778,44.885936],[-93.960124,44.885666],[-93.960109,44.891417],[-93.940796,44.891398],[-93.940522,44.904524],[-93.938087,44.904259],[-93.937831,44.905907],[-93.930274,44.905895],[-93.930431,44.921265],[-93.931871,44.920781],[-93.938091,44.92126],[-93.94205,44.920292],[-93.947125,44.917047],[-93.949111,44.914909],[-93.952764,44.914701],[-93.957155,44.912763],[-93.958264,44.91292],[-93.962187,44.91147],[-93.96433,44.911858],[-93.966025,44.911269],[-93.967179,44.909601],[-93.971088,44.908041],[-93.971133,44.916944],[-93.961032,44.91717],[-93.961056,44.934977],[-93.971398,44.935048],[-93.97147,44.949613],[-94.002198,44.949711]]]}},{"type":"Feature","properties":{"zcta5":"55363","AFFGEOID10":"8600000US55363","GEOID10":"55363","ALAND10":70169339,"AWATER10":553968,"county_name":"Carver","state_code":"MN","county_state":"Carver County, MN","county_fips":"27019","risk_level_county":"Medium Risk (70–79% vaccinated)","mean_vaccination_rate_county":79.67,"risk_level_zcta":"Lower Risk (80–84% vaccinated)","mean_vaccination_rate_zips":81.83,"cases":17},"geometry":{"type":"Polygon","coordinates":[[[-93.913403,45.115384],[-93.921128,45.113991],[-93.92375,45.111146],[-93.925675,45.110383],[-93.925387,45.108228],[-93.926181,45.10786],[-93.926188,45.101581],[-93.931243,45.101312],[-93.931788,45.087314],[-93.921702,45.087136],[-93.921749,45.083384],[-93.931871,45.083581],[-93.93178,45.07918],[-93.92778,45.079169],[-93.927947,45.073362],[-93.928711,45.072674],[-93.931843,45.072778],[-93.931597,45.068398],[-93.94114,45.06809],[-93.941139,45.065248],[-93.941134,45.056104],[-93.941326,45.054268],[-93.944255,45.054007],[-93.961622,45.053694],[-93.961604,45.050943],[-93.951366,45.050629],[-93.941117,45.050599],[-93.941111,45.047238],[-93.945555,45.047238],[-93.945555,45.040214],[-93.9411,45.04022],[-93.941033,45.022357],[-93.951728,45.02206],[-93.951567,45.004688],[-93.959412,45.004672],[-93.959408,45.000168],[-93.971638,45.000047],[-93.971827,44.978262],[-93.930946,44.978262],[-93.900089,44.978192],[-93.900104,44.981318],[-93.901161,44.981845],[-93.909516,44.98185],[-93.910426,44.982514],[-93.910418,44.984826],[-93.911291,44.985484],[-93.915522,44.985592],[-93.915488,44.996372],[-93.900152,44.996144],[-93.900227,45.008678],[-93.900952,45.010124],[-93.909631,45.017616],[-93.895621,45.017768],[-93.895609,45.014083],[-93.889888,45.014086],[-93.889873,45.021331],[-93.880869,45.021563],[-93.878869,45.022989],[-93.878821,45.027173],[-93.878198,45.028179],[-93.881046,45.029024],[-93.882755,45.030537],[-93.886507,45.032533],[-93.890123,45.033093],[-93.890318,45.042556],[-93.889894,45.043919],[-93.887894,45.046116],[-93.888682,45.047824],[-93.885174,45.051407],[-93.882691,45.05153],[-93.880016,45.050435],[-93.858835,45.050313],[-93.859138,45.057468],[-93.858817,45.059714],[-93.858637,45.070502],[-93.856186,45.072532],[-93.855114,45.075986],[-93.85583,45.078669],[-93.855227,45.080898],[-93.85716,45.079954],[-93.859003,45.080982],[-93.857684,45.082882],[-93.856462,45.084601],[-93.85794,45.084269],[-93.862056,45.085843],[-93.862329,45.086653],[-93.874072,45.086563],[-93.890674,45.086948],[-93.890876,45.097344],[-93.890374,45.113758],[-93.896223,45.117754],[-93.899402,45.114629],[-93.899245,45.112838],[-93.900355,45.112613],[-93.900403,45.113806],[-93.903333,45.115345],[-93.903739,45.116743],[-93.909262,45.118408],[-93.91097,45.117765],[-93.911178,45.115659],[-93.913403,45.115384]]]}},{"type":"Feature","properties":{"zcta5":"55397","AFFGEOID10":"8600000US55397","GEOID10":"55397","ALAND10":70611900,"AWATER10":3181210,"county_name":"Carver","state_code":"MN","county_state":"Carver County, MN","county_fips":"27019","risk_level_county":"Medium Risk (70–79% vaccinated)","mean_vaccination_rate_county":79.67,"risk_level_zcta":"Medium Risk (70–79% vaccinated)","mean_vaccination_rate_zips":74.68,"cases":17},"geometry":{"type":"Polygon","coordinates":[[[-94.020245,44.841297],[-94.02024,44.840375],[-94.010027,44.840553],[-94.010021,44.803989],[-93.990307,44.804079],[-93.990377,44.797884],[-93.984928,44.79367],[-93.981503,44.792707],[-93.967914,44.792886],[-93.966346,44.792678],[-93.965121,44.794903],[-93.966546,44.797948],[-93.969691,44.801735],[-93.972392,44.802915],[-93.972614,44.804016],[-93.94239,44.804289],[-93.93889,44.800947],[-93.934174,44.797438],[-93.929948,44.792699],[-93.929384,44.791087],[-93.929478,44.78634],[-93.923734,44.785442],[-93.920549,44.784535],[-93.929485,44.775255],[-93.929489,44.774653],[-93.927575,44.775105],[-93.923194,44.775155],[-93.921343,44.775875],[-93.919331,44.775186],[-93.924815,44.772431],[-93.909032,44.768167],[-93.888559,44.768077],[-93.888442,44.782615],[-93.848985,44.782209],[-93.849517,44.818303],[-93.86519,44.811732],[-93.869051,44.811922],[-93.876888,44.811693],[-93.878782,44.81185],[-93.878602,44.806076],[-93.882032,44.804638],[-93.888244,44.804662],[-93.888398,44.848256],[-93.936873,44.847819],[-93.938784,44.848303],[-93.939543,44.84948],[-93.9396,44.853602],[-93.940855,44.854877],[-93.94289,44.855075],[-93.942098,44.852974],[-93.943786,44.852258],[-93.9418,44.850055],[-93.94209,44.848811],[-93.947806,44.848913],[-93.947882,44.846643],[-93.94714,44.845879],[-93.947701,44.844214],[-93.950533,44.84275],[-93.951426,44.844534],[-93.952882,44.843081],[-93.954836,44.842728],[-93.955979,44.843623],[-93.955037,44.844504],[-93.956424,44.845666],[-93.963089,44.844206],[-93.965724,44.84449],[-93.968664,44.843857],[-93.971946,44.843865],[-93.974149,44.845131],[-93.974873,44.847771],[-93.976109,44.848742],[-93.980817,44.84969],[-93.984102,44.854124],[-93.987312,44.855059],[-93.990435,44.853857],[-93.991068,44.851678],[-93.992395,44.851472],[-93.992712,44.85395],[-93.994238,44.854919],[-93.996136,44.85497],[-93.997601,44.854115],[-93.999814,44.854076],[-94.001697,44.854899],[-94.003201,44.853825],[-94.005517,44.855065],[-94.010042,44.855137],[-94.020191,44.854952],[-94.020245,44.841297]]]}},{"type":"Feature","properties":{"zcta5":"55386","AFFGEOID10":"8600000US55386","GEOID10":"55386","ALAND10":17510241,"AWATER10":2247954,"county_name":"Carver","state_code":"MN","county_state":"Carver County, MN","county_fips":"27019","risk_level_county":"Medium Risk (70–79% vaccinated)","mean_vaccination_rate_county":79.67,"risk_level_zcta":"Lowest Risk (85%+)","mean_vaccination_rate_zips":88.24,"cases":17},"geometry":{"type":"Polygon","coordinates":[[[-93.706078,44.890662],[-93.702356,44.881794],[-93.701544,44.880908],[-93.693425,44.876991],[-93.689577,44.874008],[-93.685096,44.872428],[-93.682615,44.872193],[-93.682427,44.863298],[-93.685046,44.864744],[-93.685092,44.861513],[-93.683839,44.861453],[-93.682786,44.861519],[-93.684338,44.859568],[-93.689279,44.859746],[-93.693214,44.861445],[-93.693397,44.860698],[-93.693725,44.842785],[-93.691797,44.841302],[-93.683608,44.841184],[-93.68207,44.845475],[-93.67995,44.846434],[-93.67866,44.845639],[-93.678863,44.8453],[-93.67347,44.844277],[-93.672309,44.844142],[-93.672067,44.844078],[-93.672201,44.841115],[-93.668984,44.841078],[-93.668322,44.841029],[-93.66872,44.838941],[-93.666672,44.838954],[-93.668255,44.835889],[-93.66781,44.834284],[-93.654117,44.833511],[-93.652858,44.833618],[-93.652296,44.835837],[-93.652917,44.843789],[-93.653065,44.848772],[-93.637432,44.849054],[-93.632042,44.84918],[-93.632299,44.856369],[-93.635,44.856353],[-93.63546,44.860525],[-93.637133,44.864561],[-93.637132,44.866964],[-93.637111,44.868159],[-93.635139,44.867778],[-93.635367,44.871705],[-93.637239,44.873437],[-93.637058,44.875068],[-93.633631,44.877154],[-93.641277,44.876157],[-93.639252,44.872199],[-93.642553,44.869165],[-93.642268,44.871136],[-93.64691,44.872105],[-93.649007,44.874613],[-93.65473,44.876756],[-93.654697,44.877831],[-93.661112,44.877856],[-93.661382,44.882626],[-93.666391,44.882763],[-93.666462,44.883442],[-93.671302,44.882376],[-93.671956,44.883816],[-93.673712,44.883441],[-93.672592,44.884732],[-93.679744,44.884692],[-93.680522,44.885835],[-93.683445,44.88689],[-93.683722,44.890934],[-93.699336,44.891072],[-93.706078,44.890662]]]}},{"type":"Feature","properties":{"zcta5":"55317","AFFGEOID10":"8600000US55317","GEOID10":"55317","ALAND10":32509286,"AWATER10":3180904,"county_name":"Carver","state_code":"MN","county_state":"Carver County, MN","county_fips":"27019","risk_level_county":"Medium Risk (70–79% vaccinated)","mean_vaccination_rate_county":79.67,"risk_level_zcta":"Lowest Risk (85%+)","mean_vaccination_rate_zips":88.84,"cases":17},"geometry":{"type":"Polygon","coordinates":[[[-93.523025,44.891466],[-93.524292,44.891162],[-93.548733,44.890963],[-93.553693,44.891159],[-93.553686,44.889231],[-93.55615,44.889171],[-93.55756,44.890166],[-93.558772,44.884468],[-93.563389,44.88454],[-93.566334,44.881704],[-93.571963,44.881788],[-93.571773,44.885619],[-93.579886,44.885224],[-93.582574,44.885796],[-93.587941,44.875875],[-93.589875,44.873723],[-93.596,44.868624],[-93.597211,44.865976],[-93.597179,44.863459],[-93.59719,44.856106],[-93.593292,44.85628],[-93.586972,44.856086],[-93.587025,44.843734],[-93.57949,44.847138],[-93.576357,44.842338],[-93.574954,44.841458],[-93.572323,44.841119],[-93.573319,44.837286],[-93.573266,44.835166],[-93.572327,44.832023],[-93.572229,44.829005],[-93.571477,44.827487],[-93.569984,44.827872],[-93.566867,44.827357],[-93.562943,44.825123],[-93.559943,44.827801],[-93.556946,44.827771],[-93.556849,44.82974],[-93.554784,44.829631],[-93.553993,44.828536],[-93.554407,44.827688],[-93.550401,44.826539],[-93.547236,44.826195],[-93.53636,44.826256],[-93.533649,44.826273],[-93.53291,44.824231],[-93.534091,44.820338],[-93.530109,44.820696],[-93.527678,44.818839],[-93.528104,44.817163],[-93.52784,44.815328],[-93.520735,44.81676],[-93.520931,44.826663],[-93.520831,44.827571],[-93.520632,44.858562],[-93.520706,44.891502],[-93.523025,44.891466]]]}},{"type":"Feature","properties":{"zcta5":"55328","AFFGEOID10":"8600000US55328","GEOID10":"55328","ALAND10":115060229,"AWATER10":3867217,"county_name":"Carver","state_code":"MN","county_state":"Carver County, MN","county_fips":"27019","risk_level_county":"Medium Risk (70–79% vaccinated)","mean_vaccination_rate_county":79.67,"risk_level_zcta":"Lower Risk (80–84% vaccinated)","mean_vaccination_rate_zips":83.96,"cases":17},"geometry":{"type":"Polygon","coordinates":[[[-93.857684,45.082882],[-93.859003,45.080982],[-93.85716,45.079954],[-93.855227,45.080898],[-93.85583,45.078669],[-93.855114,45.075986],[-93.856186,45.072532],[-93.858637,45.070502],[-93.858817,45.059714],[-93.859138,45.057468],[-93.858835,45.050313],[-93.880016,45.050435],[-93.882691,45.05153],[-93.885174,45.051407],[-93.888682,45.047824],[-93.887894,45.046116],[-93.889894,45.043919],[-93.890318,45.042556],[-93.890123,45.033093],[-93.886507,45.032533],[-93.882755,45.030537],[-93.881046,45.029024],[-93.878198,45.028179],[-93.878821,45.027173],[-93.878869,45.022989],[-93.880869,45.021563],[-93.889873,45.021331],[-93.889888,45.014086],[-93.889958,45.008937],[-93.883773,45.008937],[-93.883778,45.003775],[-93.878963,45.003773],[-93.878941,44.999743],[-93.869915,44.999998],[-93.869833,45.00078],[-93.87003,44.992658],[-93.876331,44.992653],[-93.875038,44.990292],[-93.872908,44.989747],[-93.869303,44.98968],[-93.869238,44.992384],[-93.848742,44.992406],[-93.849208,44.978463],[-93.839022,44.978266],[-93.838645,44.980308],[-93.836202,44.981427],[-93.83385,44.981778],[-93.833772,44.984874],[-93.831297,44.988522],[-93.828779,44.990758],[-93.827616,44.99245],[-93.824319,44.995465],[-93.822243,44.998656],[-93.821909,45.001424],[-93.820199,45.003209],[-93.818169,44.999972],[-93.815882,44.999224],[-93.807815,44.999216],[-93.807868,44.992436],[-93.81173,44.990961],[-93.818547,44.987282],[-93.820162,44.986078],[-93.823072,44.982326],[-93.825337,44.978262],[-93.808358,44.978168],[-93.80824,44.963277],[-93.803106,44.963261],[-93.803042,44.960449],[-93.789178,44.962441],[-93.786809,44.963329],[-93.784097,44.965421],[-93.777688,44.969394],[-93.773735,44.971356],[-93.773176,44.972838],[-93.771317,44.973144],[-93.771757,44.974162],[-93.769211,44.975585],[-93.766442,44.975321],[-93.766447,44.978124],[-93.767367,44.977964],[-93.76696,44.992126],[-93.757469,44.992222],[-93.75766,45.010376],[-93.754377,45.010405],[-93.753091,45.03125],[-93.747959,45.035848],[-93.746147,45.03587],[-93.744124,45.041032],[-93.74596,45.043277],[-93.746178,45.047825],[-93.747597,45.049076],[-93.747589,45.050282],[-93.766813,45.050023],[-93.766812,45.053408],[-93.755198,45.053699],[-93.755198,45.059966],[-93.755571,45.064303],[-93.748091,45.061151],[-93.748654,45.064605],[-93.751953,45.064636],[-93.765842,45.064424],[-93.765608,45.066419],[-93.762211,45.067748],[-93.761174,45.068764],[-93.761996,45.069739],[-93.764562,45.070162],[-93.764673,45.070993],[-93.761841,45.072835],[-93.758575,45.073334],[-93.760214,45.075431],[-93.760064,45.077297],[-93.758604,45.077464],[-93.761326,45.079996],[-93.761874,45.081244],[-93.762206,45.081734],[-93.762237,45.083716],[-93.765403,45.0836],[-93.765428,45.084421],[-93.762427,45.085243],[-93.763373,45.087685],[-93.765859,45.090503],[-93.767918,45.091695],[-93.769864,45.091653],[-93.771471,45.089953],[-93.773862,45.090416],[-93.776992,45.092675],[-93.780344,45.093679],[-93.787212,45.094646],[-93.788978,45.095634],[-93.788242,45.097065],[-93.792296,45.097887],[-93.792211,45.100658],[-93.796273,45.10105],[-93.796167,45.10747],[-93.798535,45.108638],[-93.805156,45.110167],[-93.807322,45.112132],[-93.809781,45.115688],[-93.813891,45.111785],[-93.815957,45.109123],[-93.817364,45.108639],[-93.817507,45.099778],[-93.824751,45.104803],[-93.827698,45.104956],[-93.831613,45.104422],[-93.836039,45.1014],[-93.837299,45.098212],[-93.835191,45.095858],[-93.835068,45.094901],[-93.836901,45.092824],[-93.842769,45.090033],[-93.845345,45.086782],[-93.847842,45.086759],[-93.847899,45.079263],[-93.853805,45.07926],[-93.85385,45.082879],[-93.857684,45.082882]]]}},{"type":"Feature","properties":{"zcta5":"55331","AFFGEOID10":"8600000US55331","GEOID10":"55331","ALAND10":38709795,"AWATER10":18344819,"county_name":"Carver","state_code":"MN","county_state":"Carver County, MN","county_fips":"27019","risk_level_county":"Medium Risk (70–79% vaccinated)","mean_vaccination_rate_county":79.67,"risk_level_zcta":"Lowest Risk (85%+)","mean_vaccination_rate_zips":85.83,"cases":17},"geometry":{"type":"MultiPolygon","coordinates":[[[[-93.663739,44.899143],[-93.660192,44.900953],[-93.660299,44.901205],[-93.662226,44.901832],[-93.663383,44.90147],[-93.663739,44.899143]]],[[[-93.705981,44.90741],[-93.705979,44.906929],[-93.714418,44.903334],[-93.716621,44.903529],[-93.719089,44.904064],[-93.719803,44.902145],[-93.72261,44.900681],[-93.721603,44.899498],[-93.721336,44.898235],[-93.714302,44.895557],[-93.706078,44.890662],[-93.699336,44.891072],[-93.683722,44.890934],[-93.683445,44.88689],[-93.680522,44.885835],[-93.679744,44.884692],[-93.672592,44.884732],[-93.673712,44.883441],[-93.671956,44.883816],[-93.671302,44.882376],[-93.666462,44.883442],[-93.666391,44.882763],[-93.661382,44.882626],[-93.661112,44.877856],[-93.654697,44.877831],[-93.65473,44.876756],[-93.649007,44.874613],[-93.64691,44.872105],[-93.642268,44.871136],[-93.642553,44.869165],[-93.639252,44.872199],[-93.641277,44.876157],[-93.633631,44.877154],[-93.637058,44.875068],[-93.637239,44.873437],[-93.635367,44.871705],[-93.635139,44.867778],[-93.637111,44.868159],[-93.637132,44.866964],[-93.622937,44.867271],[-93.622871,44.869139],[-93.620848,44.869287],[-93.620543,44.869936],[-93.614187,44.869937],[-93.612625,44.866261],[-93.612438,44.864865],[-93.60757,44.863661],[-93.597179,44.863459],[-93.597211,44.865976],[-93.596,44.868624],[-93.589875,44.873723],[-93.587941,44.875875],[-93.582574,44.885796],[-93.579886,44.885224],[-93.571773,44.885619],[-93.571963,44.881788],[-93.566334,44.881704],[-93.563389,44.88454],[-93.558772,44.884468],[-93.55756,44.890166],[-93.55615,44.889171],[-93.553686,44.889231],[-93.553693,44.891159],[-93.548733,44.890963],[-93.524292,44.891162],[-93.523025,44.891466],[-93.523343,44.891685],[-93.523125,44.911545],[-93.523391,44.916771],[-93.520823,44.916695],[-93.520664,44.920452],[-93.518323,44.920553],[-93.518227,44.923969],[-93.523102,44.923195],[-93.523143,44.924434],[-93.529726,44.923702],[-93.530246,44.925865],[-93.528148,44.925863],[-93.52611,44.926793],[-93.525028,44.928202],[-93.526474,44.931227],[-93.527146,44.93158],[-93.52932,44.930084],[-93.530466,44.930122],[-93.53388,44.928228],[-93.539022,44.92888],[-93.539302,44.93028],[-93.540571,44.930169],[-93.542914,44.927163],[-93.548116,44.925391],[-93.546845,44.923104],[-93.549334,44.919665],[-93.556195,44.925704],[-93.560703,44.922629],[-93.563173,44.921974],[-93.575436,44.921991],[-93.578272,44.922838],[-93.581691,44.925872],[-93.584867,44.928192],[-93.597527,44.934689],[-93.600201,44.934259],[-93.603565,44.934363],[-93.604322,44.935708],[-93.606621,44.934776],[-93.609428,44.934635],[-93.611038,44.932544],[-93.608806,44.930641],[-93.616542,44.930581],[-93.617862,44.930217],[-93.614584,44.926594],[-93.615062,44.924822],[-93.613953,44.924044],[-93.61328,44.926443],[-93.610824,44.924179],[-93.608867,44.921381],[-93.595392,44.925796],[-93.599698,44.922304],[-93.600308,44.921239],[-93.608656,44.916642],[-93.613033,44.914508],[-93.622433,44.911196],[-93.629188,44.912152],[-93.632368,44.910241],[-93.638608,44.905953],[-93.637414,44.905159],[-93.639962,44.901535],[-93.645379,44.903266],[-93.645317,44.891058],[-93.652526,44.890979],[-93.655321,44.893207],[-93.65789,44.89209],[-93.65971,44.893651],[-93.658718,44.895443],[-93.664442,44.894929],[-93.665865,44.895759],[-93.666749,44.892079],[-93.674316,44.892258],[-93.674408,44.893513],[-93.676888,44.896988],[-93.680191,44.895313],[-93.683594,44.894966],[-93.686499,44.895459],[-93.685521,44.902338],[-93.683895,44.903441],[-93.685053,44.907635],[-93.689155,44.918515],[-93.68957,44.920315],[-93.69893,44.917105],[-93.702684,44.916279],[-93.702202,44.913855],[-93.702414,44.908308],[-93.704911,44.907571],[-93.70494,44.908066],[-93.705981,44.90741]]]]}},{"type":"Feature","properties":{"zcta5":"55322","AFFGEOID10":"8600000US55322","GEOID10":"55322","ALAND10":141399321,"AWATER10":5614977,"county_name":"Carver","state_code":"MN","county_state":"Carver County, MN","county_fips":"27019","risk_level_county":"Medium Risk (70–79% vaccinated)","mean_vaccination_rate_county":79.67,"risk_level_zcta":"Medium Risk (70–79% vaccinated)","mean_vaccination_rate_zips":77.63,"cases":17},"geometry":{"type":"MultiPolygon","coordinates":[[[[-93.768091,44.71697],[-93.768119,44.702476],[-93.755011,44.703151],[-93.753255,44.703111],[-93.752461,44.701547],[-93.753441,44.700314],[-93.752044,44.697958],[-93.749936,44.699095],[-93.747911,44.697232],[-93.748363,44.694968],[-93.745546,44.693413],[-93.744523,44.693721],[-93.742898,44.691682],[-93.743529,44.690792],[-93.742343,44.689429],[-93.73985,44.690661],[-93.734995,44.690947],[-93.734433,44.689848],[-93.732164,44.691811],[-93.730517,44.69191],[-93.729179,44.693098],[-93.731519,44.696132],[-93.730665,44.697187],[-93.728926,44.696847],[-93.727326,44.69948],[-93.725487,44.700228],[-93.725518,44.701519],[-93.722875,44.701826],[-93.725833,44.701764],[-93.725768,44.709858],[-93.728056,44.709902],[-93.728031,44.713513],[-93.731561,44.713531],[-93.731595,44.717407],[-93.768091,44.71697]]],[[[-93.849459,44.848168],[-93.878062,44.848218],[-93.87843,44.849723],[-93.8801,44.85184],[-93.885464,44.850997],[-93.888373,44.850924],[-93.888398,44.848256],[-93.888244,44.804662],[-93.882032,44.804638],[-93.878602,44.806076],[-93.878782,44.81185],[-93.876888,44.811693],[-93.869051,44.811922],[-93.86519,44.811732],[-93.849517,44.818303],[-93.848985,44.782209],[-93.848929,44.767731],[-93.828617,44.767714],[-93.828594,44.765741],[-93.848965,44.762168],[-93.849419,44.746044],[-93.829075,44.745964],[-93.829014,44.716905],[-93.818812,44.716889],[-93.819134,44.702484],[-93.808986,44.702451],[-93.808954,44.695358],[-93.795301,44.695118],[-93.793108,44.695343],[-93.79156,44.694563],[-93.785049,44.692509],[-93.783394,44.692573],[-93.781521,44.691623],[-93.778451,44.69254],[-93.776337,44.692553],[-93.774486,44.691732],[-93.769533,44.695329],[-93.770666,44.700597],[-93.769699,44.700254],[-93.768119,44.702476],[-93.778841,44.702505],[-93.778817,44.706236],[-93.786146,44.706315],[-93.778761,44.71312],[-93.783314,44.713354],[-93.783298,44.716919],[-93.768091,44.71697],[-93.767819,44.726485],[-93.767999,44.731456],[-93.734964,44.731938],[-93.734846,44.738327],[-93.728693,44.738342],[-93.728608,44.733544],[-93.72591,44.733572],[-93.725854,44.730457],[-93.720369,44.730522],[-93.720167,44.717491],[-93.712679,44.717655],[-93.708804,44.718793],[-93.709155,44.721037],[-93.706508,44.72312],[-93.708598,44.724349],[-93.707025,44.724926],[-93.707548,44.726575],[-93.706433,44.727761],[-93.70792,44.728494],[-93.705619,44.730165],[-93.706633,44.732382],[-93.704288,44.733014],[-93.702513,44.732232],[-93.699529,44.732396],[-93.69225,44.735869],[-93.686836,44.736355],[-93.684184,44.737601],[-93.684138,44.740561],[-93.682137,44.740795],[-93.680351,44.742399],[-93.680572,44.744221],[-93.678103,44.743844],[-93.67612,44.744765],[-93.676462,44.747059],[-93.674055,44.748842],[-93.67194,44.754962],[-93.672758,44.7553],[-93.67531,44.753691],[-93.677006,44.753632],[-93.677935,44.7521],[-93.679875,44.751099],[-93.681184,44.751748],[-93.682095,44.753975],[-93.683863,44.755016],[-93.683755,44.768029],[-93.687475,44.768987],[-93.697122,44.768964],[-93.700908,44.767431],[-93.704259,44.767074],[-93.709547,44.767602],[-93.718334,44.766689],[-93.722198,44.765796],[-93.724869,44.766534],[-93.725065,44.787856],[-93.712834,44.792581],[-93.708467,44.792868],[-93.704915,44.791153],[-93.692451,44.790998],[-93.691134,44.789673],[-93.692885,44.78869],[-93.692348,44.787577],[-93.683756,44.785613],[-93.683369,44.802898],[-93.68375,44.803799],[-93.70382,44.796061],[-93.704023,44.798502],[-93.702013,44.801413],[-93.701848,44.803165],[-93.699939,44.805017],[-93.71907,44.804607],[-93.767414,44.803801],[-93.788158,44.803949],[-93.788276,44.818408],[-93.808498,44.818842],[-93.808527,44.827293],[-93.811312,44.826682],[-93.818058,44.826566],[-93.818135,44.831447],[-93.813993,44.833311],[-93.819152,44.833276],[-93.819179,44.834421],[-93.823942,44.834633],[-93.823979,44.837826],[-93.821201,44.83807],[-93.81897,44.840594],[-93.81794,44.841254],[-93.818189,44.841442],[-93.818839,44.842543],[-93.818975,44.847449],[-93.822977,44.847809],[-93.83339,44.847883],[-93.836379,44.848251],[-93.839474,44.848017],[-93.849459,44.848168]]]]}},{"type":"Feature","properties":{"zcta5":"55315","AFFGEOID10":"8600000US55315","GEOID10":"55315","ALAND10":68638216,"AWATER10":1920521,"county_name":"Carver","state_code":"MN","county_state":"Carver County, MN","county_fips":"27019","risk_level_county":"Medium Risk (70–79% vaccinated)","mean_vaccination_rate_county":79.67,"risk_level_zcta":"Medium Risk (70–79% vaccinated)","mean_vaccination_rate_zips":74.39,"cases":17},"geometry":{"type":"MultiPolygon","coordinates":[[[[-93.774486,44.691732],[-93.774274,44.689502],[-93.771953,44.688336],[-93.768187,44.687968],[-93.768176,44.67352],[-93.715152,44.673665],[-93.712503,44.673973],[-93.711073,44.6747],[-93.705921,44.679093],[-93.705296,44.686549],[-93.706645,44.688687],[-93.699465,44.688933],[-93.698126,44.689329],[-93.690838,44.694873],[-93.687855,44.696048],[-93.685229,44.698142],[-93.684435,44.700563],[-93.684341,44.686876],[-93.67894,44.68689],[-93.678081,44.688001],[-93.677636,44.691162],[-93.674949,44.69265],[-93.672004,44.69336],[-93.667961,44.695259],[-93.662162,44.696373],[-93.659904,44.695542],[-93.658256,44.693413],[-93.657339,44.690994],[-93.655835,44.689962],[-93.653372,44.690476],[-93.651541,44.691918],[-93.650656,44.694603],[-93.64913,44.695046],[-93.644724,44.692984],[-93.641099,44.692779],[-93.638426,44.694189],[-93.635936,44.697429],[-93.630994,44.69739],[-93.630096,44.69829],[-93.62962,44.701311],[-93.626913,44.702398],[-93.623128,44.705216],[-93.618141,44.707096],[-93.618708,44.708524],[-93.62264,44.711427],[-93.625234,44.714062],[-93.626517,44.716042],[-93.626735,44.718462],[-93.624654,44.723862],[-93.626151,44.724355],[-93.629162,44.723354],[-93.632132,44.723534],[-93.632824,44.724434],[-93.632403,44.726594],[-93.628943,44.730209],[-93.628455,44.731255],[-93.629263,44.733788],[-93.631369,44.736847],[-93.631542,44.738055],[-93.630334,44.73952],[-93.62403,44.744766],[-93.622535,44.746862],[-93.621535,44.749962],[-93.621518,44.753411],[-93.618952,44.753154],[-93.616671,44.751518],[-93.614321,44.748865],[-93.611834,44.749962],[-93.609834,44.752062],[-93.60862,44.754203],[-93.609534,44.755562],[-93.612834,44.757362],[-93.617097,44.758871],[-93.621967,44.760281],[-93.62226,44.761306],[-93.621735,44.762862],[-93.61573,44.766478],[-93.613734,44.767062],[-93.607034,44.767562],[-93.601034,44.769362],[-93.595634,44.773762],[-93.594234,44.776215],[-93.601841,44.776163],[-93.612899,44.776586],[-93.616178,44.776395],[-93.618325,44.776453],[-93.620127,44.776566],[-93.638045,44.776517],[-93.642526,44.776521],[-93.642611,44.772804],[-93.642794,44.759879],[-93.64249,44.753889],[-93.642533,44.753386],[-93.642966,44.752353],[-93.643775,44.751655],[-93.644668,44.751265],[-93.648151,44.750606],[-93.650388,44.750558],[-93.652724,44.753814],[-93.654633,44.755202],[-93.656886,44.756121],[-93.659742,44.75854],[-93.661412,44.758886],[-93.665182,44.758864],[-93.666833,44.759489],[-93.667783,44.758187],[-93.671268,44.758275],[-93.672651,44.757398],[-93.672758,44.7553],[-93.67194,44.754962],[-93.674055,44.748842],[-93.676462,44.747059],[-93.67612,44.744765],[-93.678103,44.743844],[-93.680572,44.744221],[-93.680351,44.742399],[-93.682137,44.740795],[-93.684138,44.740561],[-93.684184,44.737601],[-93.686836,44.736355],[-93.69225,44.735869],[-93.699529,44.732396],[-93.702513,44.732232],[-93.704288,44.733014],[-93.706633,44.732382],[-93.705619,44.730165],[-93.70792,44.728494],[-93.706433,44.727761],[-93.707548,44.726575],[-93.707025,44.724926],[-93.708598,44.724349],[-93.706508,44.72312],[-93.709155,44.721037],[-93.708804,44.718793],[-93.712679,44.717655],[-93.720167,44.717491],[-93.720369,44.730522],[-93.725854,44.730457],[-93.72591,44.733572],[-93.728608,44.733544],[-93.728693,44.738342],[-93.734846,44.738327],[-93.734964,44.731938],[-93.767999,44.731456],[-93.767819,44.726485],[-93.768091,44.71697],[-93.731595,44.717407],[-93.731561,44.713531],[-93.728031,44.713513],[-93.728056,44.709902],[-93.725768,44.709858],[-93.725833,44.701764],[-93.722875,44.701826],[-93.725518,44.701519],[-93.725487,44.700228],[-93.727326,44.69948],[-93.728926,44.696847],[-93.730665,44.697187],[-93.731519,44.696132],[-93.729179,44.693098],[-93.730517,44.69191],[-93.732164,44.691811],[-93.734433,44.689848],[-93.734995,44.690947],[-93.73985,44.690661],[-93.742343,44.689429],[-93.743529,44.690792],[-93.742898,44.691682],[-93.744523,44.693721],[-93.745546,44.693413],[-93.748363,44.694968],[-93.747911,44.697232],[-93.749936,44.699095],[-93.752044,44.697958],[-93.753441,44.700314],[-93.752461,44.701547],[-93.753255,44.703111],[-93.755011,44.703151],[-93.768119,44.702476],[-93.769699,44.700254],[-93.770666,44.700597],[-93.769533,44.695329],[-93.774486,44.691732]]],[[[-93.768091,44.71697],[-93.783298,44.716919],[-93.783314,44.713354],[-93.778761,44.71312],[-93.786146,44.706315],[-93.778817,44.706236],[-93.778841,44.702505],[-93.768119,44.702476],[-93.768091,44.71697]]]]}},{"type":"Feature","properties":{"zcta5":"56011","AFFGEOID10":"8600000US56011","GEOID10":"56011","ALAND10":269940668,"AWATER10":4652177,"county_name":"Carver","state_code":"MN","county_state":"Carver County, MN","county_fips":"27019","risk_level_county":"Medium Risk (70–79% vaccinated)","mean_vaccination_rate_county":79.67,"risk_level_zcta":"Lower Risk (80–84% vaccinated)","mean_vaccination_rate_zips":81.64,"cases":17},"geometry":{"type":"Polygon","coordinates":[[[-93.91937,44.66606],[-93.91938,44.659],[-93.9147,44.6588],[-93.91409,44.65469],[-93.90895,44.65373],[-93.90656,44.6518],[-93.90519,44.65155],[-93.88917,44.65167],[-93.8891,44.65399],[-93.88835,44.6546],[-93.88542,44.65234],[-93.8828,44.6517],[-93.85964,44.65156],[-93.85967,44.63283],[-93.85949,44.6321],[-93.85456,44.6243],[-93.85387,44.62377],[-93.86299,44.61877],[-93.856939,44.61358],[-93.857749,44.611757],[-93.860751,44.609039],[-93.8612,44.60629],[-93.862245,44.605439],[-93.870248,44.602843],[-93.871393,44.603399],[-93.872726,44.606971],[-93.874841,44.607002],[-93.877998,44.606198],[-93.878667,44.60468],[-93.876618,44.602372],[-93.877701,44.600582],[-93.880235,44.601235],[-93.882379,44.600935],[-93.882232,44.597906],[-93.882747,44.596571],[-93.88485,44.595437],[-93.889664,44.5967],[-93.891461,44.595979],[-93.891755,44.594378],[-93.894737,44.592025],[-93.897346,44.589269],[-93.900947,44.588615],[-93.902828,44.587065],[-93.901888,44.585551],[-93.900348,44.58558],[-93.897689,44.587289],[-93.895702,44.586979],[-93.892714,44.584985],[-93.892791,44.583627],[-93.894988,44.58143],[-93.895644,44.580079],[-93.894291,44.577901],[-93.895125,44.574542],[-93.898869,44.573342],[-93.901076,44.571931],[-93.901213,44.570153],[-93.90042,44.569421],[-93.897719,44.569207],[-93.895659,44.569627],[-93.892882,44.568628],[-93.891066,44.566591],[-93.891356,44.565652],[-93.894728,44.564454],[-93.897872,44.562051],[-93.899123,44.559594],[-93.900298,44.555413],[-93.899489,44.554475],[-93.895613,44.554368],[-93.893508,44.553682],[-93.891677,44.552217],[-93.891097,44.548875],[-93.891649,44.546191],[-93.892598,44.545626],[-93.896665,44.544695],[-93.898617,44.54469],[-93.899487,44.545474],[-93.898558,44.54841],[-93.898619,44.550035],[-93.900374,44.552018],[-93.902861,44.552331],[-93.906737,44.551088],[-93.91024,44.548005],[-93.911401,44.545644],[-93.910405,44.543163],[-93.890727,44.543163],[-93.768288,44.543233],[-93.768218,44.521525],[-93.768198,44.516096],[-93.766181,44.516254],[-93.752556,44.51494],[-93.752514,44.511195],[-93.748026,44.510862],[-93.742945,44.510886],[-93.742967,44.50002],[-93.715762,44.50016],[-93.707297,44.500418],[-93.707364,44.513679],[-93.707568,44.514813],[-93.708411,44.515807],[-93.716494,44.521249],[-93.716788,44.521961],[-93.70911,44.52214],[-93.693918,44.522021],[-93.694375,44.522997],[-93.693276,44.525175],[-93.694131,44.528225],[-93.692441,44.529525],[-93.691454,44.532399],[-93.688435,44.533529],[-93.687255,44.534645],[-93.687274,44.536572],[-93.717643,44.536228],[-93.717692,44.543364],[-93.711679,44.543437],[-93.711565,44.55193],[-93.696415,44.551997],[-93.696362,44.553601],[-93.694219,44.553522],[-93.691863,44.557857],[-93.686456,44.557972],[-93.674927,44.557263],[-93.665514,44.557643],[-93.664952,44.56445],[-93.664835,44.569615],[-93.662515,44.571472],[-93.660664,44.571397],[-93.660547,44.573436],[-93.657541,44.574846],[-93.661102,44.576709],[-93.66095,44.579709],[-93.659193,44.580695],[-93.657218,44.579617],[-93.655294,44.577517],[-93.652563,44.578271],[-93.651336,44.577261],[-93.648181,44.576554],[-93.64602,44.577521],[-93.644819,44.57577],[-93.644379,44.593014],[-93.635264,44.59297],[-93.635239,44.594465],[-93.623802,44.594438],[-93.623765,44.596254],[-93.633783,44.596275],[-93.633734,44.603552],[-93.623618,44.603526],[-93.623499,44.623412],[-93.643921,44.623532],[-93.644009,44.620587],[-93.645418,44.62314],[-93.652998,44.623043],[-93.655676,44.624909],[-93.654531,44.627018],[-93.655564,44.630073],[-93.656897,44.630712],[-93.69204,44.63042],[-93.692547,44.636237],[-93.707358,44.636368],[-93.711621,44.634386],[-93.713936,44.634078],[-93.724965,44.633981],[-93.725278,44.639694],[-93.724761,44.641815],[-93.729921,44.639791],[-93.737697,44.637208],[-93.746551,44.635017],[-93.747339,44.645263],[-93.746698,44.645517],[-93.738596,44.645883],[-93.737115,44.646638],[-93.730218,44.653085],[-93.728983,44.656137],[-93.727934,44.656364],[-93.722067,44.654741],[-93.720804,44.654885],[-93.715382,44.657418],[-93.715282,44.658688],[-93.719238,44.660685],[-93.72127,44.663358],[-93.71913,44.665217],[-93.715111,44.666924],[-93.710861,44.66821],[-93.70673,44.668607],[-93.701592,44.668595],[-93.698273,44.669446],[-93.688791,44.677657],[-93.684272,44.682788],[-93.679896,44.685815],[-93.67894,44.68689],[-93.684341,44.686876],[-93.684435,44.700563],[-93.685229,44.698142],[-93.687855,44.696048],[-93.690838,44.694873],[-93.698126,44.689329],[-93.699465,44.688933],[-93.706645,44.688687],[-93.705296,44.686549],[-93.705921,44.679093],[-93.711073,44.6747],[-93.712503,44.673973],[-93.715152,44.673665],[-93.768176,44.67352],[-93.768187,44.687968],[-93.771953,44.688336],[-93.774274,44.689502],[-93.774486,44.691732],[-93.776337,44.692553],[-93.778451,44.69254],[-93.781521,44.691623],[-93.783394,44.692573],[-93.785049,44.692509],[-93.79156,44.694563],[-93.793108,44.695343],[-93.795301,44.695118],[-93.808954,44.695358],[-93.808918,44.688018],[-93.81917,44.687971],[-93.819001,44.673412],[-93.850436,44.673711],[-93.888831,44.673409],[-93.88881,44.67702],[-93.91388,44.67684],[-93.91443,44.66602],[-93.91937,44.66606]]]}}]}