{"type":"FeatureCollection","features":[{"type":"Feature","properties":{"zcta5":"42464","AFFGEOID10":"8600000US42464","GEOID10":"42464","ALAND10":158082090,"AWATER10":4724356,"county_name":"Christian","state_code":"KY","county_state":"Christian County, KY","county_fips":"21047","risk_level_county":"Higher Risk (60–69% vaccinated)","mean_vaccination_rate_county":68.94,"risk_level_zcta":"Medium Risk (70–79% vaccinated)","mean_vaccination_rate_zips":74.48,"cases":13},"geometry":{"type":"Polygon","coordinates":[[[-87.4504,37.252434],[-87.449626,37.248737],[-87.452735,37.251385],[-87.457771,37.248474],[-87.457547,37.246489],[-87.457641,37.246163],[-87.455714,37.241544],[-87.452138,37.238958],[-87.449635,37.233997],[-87.451016,37.231119],[-87.447762,37.23274],[-87.446011,37.23291],[-87.441143,37.2122],[-87.439615,37.205341],[-87.43931,37.200941],[-87.440263,37.196275],[-87.441694,37.192327],[-87.437235,37.191741],[-87.428269,37.191561],[-87.421373,37.191109],[-87.421283,37.192445],[-87.419635,37.192807],[-87.417594,37.195598],[-87.416138,37.195768],[-87.416159,37.194653],[-87.413885,37.194455],[-87.414185,37.190564],[-87.393856,37.189538],[-87.394114,37.187298],[-87.393154,37.186727],[-87.393558,37.183403],[-87.398908,37.182454],[-87.400633,37.174417],[-87.406745,37.174994],[-87.413854,37.176644],[-87.415964,37.175389],[-87.418137,37.168816],[-87.417148,37.167832],[-87.417684,37.165704],[-87.419147,37.165923],[-87.422315,37.1565],[-87.410332,37.155176],[-87.405771,37.153737],[-87.39714,37.153222],[-87.396074,37.153406],[-87.394821,37.150273],[-87.395781,37.147965],[-87.396857,37.148552],[-87.4015,37.148853],[-87.40567,37.147663],[-87.409826,37.142342],[-87.411949,37.142091],[-87.410587,37.140574],[-87.412247,37.138834],[-87.412132,37.136032],[-87.413878,37.13437],[-87.416966,37.136454],[-87.419083,37.13405],[-87.419759,37.131086],[-87.39517,37.132531],[-87.394161,37.130136],[-87.394426,37.128872],[-87.395986,37.125937],[-87.395864,37.125264],[-87.393993,37.124058],[-87.388887,37.124281],[-87.389807,37.123505],[-87.390341,37.119258],[-87.389784,37.116335],[-87.38568,37.111645],[-87.38261,37.113267],[-87.380013,37.113249],[-87.378001,37.113854],[-87.375099,37.115597],[-87.374155,37.115573],[-87.371917,37.113747],[-87.369005,37.112665],[-87.366966,37.110354],[-87.365308,37.110254],[-87.357282,37.108049],[-87.355009,37.108218],[-87.352984,37.107309],[-87.349799,37.104556],[-87.348826,37.102609],[-87.348876,37.101079],[-87.346216,37.098525],[-87.34358,37.09755],[-87.341402,37.095356],[-87.340978,37.098623],[-87.340024,37.101915],[-87.336094,37.105453],[-87.334951,37.107134],[-87.333164,37.111428],[-87.329988,37.113643],[-87.327083,37.114364],[-87.324931,37.11597],[-87.32226,37.120083],[-87.319453,37.122171],[-87.316959,37.119976],[-87.314317,37.115448],[-87.312806,37.113704],[-87.31417,37.113175],[-87.316034,37.114481],[-87.317375,37.113788],[-87.317237,37.112367],[-87.315213,37.112926],[-87.313116,37.111296],[-87.311735,37.111304],[-87.310215,37.112495],[-87.308397,37.110848],[-87.307316,37.111074],[-87.305533,37.109535],[-87.3059,37.107389],[-87.304925,37.10633],[-87.303092,37.106652],[-87.303386,37.108173],[-87.301512,37.107783],[-87.300228,37.108221],[-87.300061,37.10993],[-87.301946,37.111582],[-87.300359,37.113046],[-87.299652,37.112863],[-87.30051,37.111008],[-87.297579,37.110061],[-87.296823,37.110592],[-87.297836,37.112187],[-87.293683,37.112715],[-87.294854,37.11006],[-87.293715,37.109459],[-87.291185,37.110666],[-87.288029,37.10973],[-87.284329,37.108024],[-87.285194,37.106108],[-87.285767,37.103049],[-87.283081,37.104038],[-87.282071,37.102425],[-87.28364,37.102198],[-87.282529,37.101186],[-87.283722,37.100228],[-87.282798,37.097156],[-87.284494,37.09594],[-87.282132,37.094801],[-87.282599,37.093812],[-87.281118,37.09192],[-87.279112,37.091261],[-87.279584,37.089008],[-87.281888,37.088676],[-87.279906,37.08854],[-87.276243,37.091343],[-87.27497,37.095162],[-87.272562,37.098724],[-87.270067,37.099384],[-87.268499,37.10136],[-87.268156,37.109478],[-87.270101,37.1145],[-87.26722,37.117852],[-87.269745,37.120022],[-87.268612,37.12176],[-87.2706,37.123059],[-87.272238,37.122483],[-87.273584,37.123206],[-87.273153,37.124556],[-87.275114,37.12446],[-87.277555,37.12563],[-87.277798,37.127205],[-87.276814,37.128355],[-87.27795,37.133368],[-87.270501,37.135395],[-87.266433,37.137472],[-87.26466,37.139113],[-87.262661,37.142741],[-87.262009,37.146136],[-87.272398,37.146292],[-87.2805,37.140679],[-87.279526,37.147303],[-87.280988,37.154031],[-87.282819,37.153357],[-87.284367,37.155766],[-87.289461,37.153437],[-87.302064,37.154724],[-87.30742,37.154112],[-87.310127,37.153265],[-87.313473,37.153757],[-87.3146,37.156455],[-87.317227,37.157451],[-87.312232,37.174812],[-87.312066,37.176083],[-87.311892,37.177048],[-87.312939,37.178377],[-87.312542,37.179886],[-87.314186,37.180521],[-87.315478,37.180121],[-87.315275,37.181335],[-87.313563,37.182581],[-87.314135,37.183929],[-87.315798,37.184321],[-87.316377,37.185426],[-87.317726,37.185134],[-87.317096,37.186235],[-87.315798,37.186214],[-87.314192,37.185236],[-87.312406,37.184961],[-87.311128,37.185512],[-87.311649,37.187785],[-87.314035,37.186857],[-87.314917,37.188003],[-87.31205,37.189881],[-87.310697,37.189932],[-87.311684,37.191638],[-87.308841,37.191051],[-87.308188,37.190207],[-87.306706,37.191836],[-87.308846,37.193282],[-87.307931,37.194708],[-87.309229,37.195259],[-87.311348,37.195141],[-87.311634,37.196824],[-87.31442,37.197303],[-87.315176,37.198288],[-87.316806,37.197365],[-87.315736,37.195783],[-87.317405,37.195772],[-87.318442,37.198737],[-87.320361,37.198365],[-87.320169,37.200186],[-87.321703,37.200116],[-87.322601,37.199102],[-87.323373,37.199067],[-87.324129,37.199635],[-87.324427,37.199354],[-87.324295,37.19889],[-87.324233,37.19855],[-87.324393,37.198144],[-87.324365,37.197822],[-87.324013,37.197467],[-87.323669,37.197033],[-87.323708,37.196789],[-87.323929,37.196581],[-87.32451,37.196566],[-87.330294,37.19973],[-87.330421,37.199961],[-87.330015,37.200398],[-87.329817,37.201268],[-87.330935,37.202085],[-87.331029,37.202408],[-87.330924,37.202705],[-87.33066,37.202985],[-87.330337,37.203124],[-87.32998,37.203127],[-87.329023,37.202859],[-87.328665,37.202901],[-87.328444,37.203063],[-87.328785,37.2037],[-87.331279,37.204775],[-87.333196,37.206115],[-87.33462,37.208399],[-87.334676,37.210988],[-87.335305,37.211297],[-87.336516,37.209881],[-87.338892,37.209853],[-87.337671,37.2083],[-87.338183,37.207602],[-87.340523,37.209346],[-87.343295,37.210102],[-87.345742,37.212333],[-87.344465,37.213583],[-87.344075,37.215094],[-87.342533,37.215182],[-87.343074,37.216161],[-87.345712,37.216313],[-87.345969,37.217087],[-87.346577,37.215358],[-87.348433,37.214457],[-87.349612,37.214724],[-87.350013,37.215953],[-87.346812,37.21903],[-87.349211,37.219181],[-87.34692,37.221968],[-87.34683,37.223474],[-87.348606,37.225085],[-87.349318,37.226955],[-87.352565,37.227558],[-87.354426,37.228484],[-87.356136,37.229991],[-87.358103,37.230954],[-87.35795,37.23156],[-87.355599,37.231448],[-87.355112,37.232439],[-87.356484,37.233122],[-87.355554,37.234748],[-87.354231,37.23467],[-87.354692,37.236474],[-87.355911,37.236581],[-87.358875,37.235425],[-87.359933,37.234489],[-87.361352,37.237252],[-87.36257,37.236475],[-87.364003,37.237588],[-87.364982,37.236948],[-87.36572,37.238135],[-87.369146,37.238607],[-87.367867,37.24086],[-87.365536,37.240739],[-87.3653,37.241641],[-87.367438,37.242425],[-87.369275,37.24196],[-87.368555,37.243434],[-87.369762,37.243662],[-87.370985,37.242631],[-87.372106,37.243127],[-87.371077,37.244264],[-87.36847,37.244702],[-87.368804,37.246439],[-87.367335,37.247868],[-87.365423,37.24734],[-87.364081,37.249],[-87.36507,37.249585],[-87.367679,37.249886],[-87.368586,37.248761],[-87.369461,37.249441],[-87.368674,37.250843],[-87.369708,37.251148],[-87.371557,37.2498],[-87.371588,37.247823],[-87.372507,37.247336],[-87.373871,37.249024],[-87.37302,37.25048],[-87.373378,37.252809],[-87.375655,37.251795],[-87.377477,37.25253],[-87.376383,37.253431],[-87.377472,37.254029],[-87.37858,37.25302],[-87.37979,37.253424],[-87.380649,37.25506],[-87.381793,37.253256],[-87.383916,37.252433],[-87.384269,37.254447],[-87.383704,37.255289],[-87.384665,37.256126],[-87.38557,37.25492],[-87.387304,37.255417],[-87.38526,37.257397],[-87.38818,37.257012],[-87.388034,37.258964],[-87.388604,37.260204],[-87.387624,37.260957],[-87.388826,37.261395],[-87.385981,37.264505],[-87.385164,37.266955],[-87.385878,37.268819],[-87.387156,37.270108],[-87.386439,37.272571],[-87.38703,37.273606],[-87.385708,37.277428],[-87.384328,37.279062],[-87.382999,37.278958],[-87.381997,37.277658],[-87.379854,37.278466],[-87.381442,37.280887],[-87.380242,37.28321],[-87.380243,37.284218],[-87.381821,37.286097],[-87.380645,37.286163],[-87.37823,37.284744],[-87.377484,37.285696],[-87.379322,37.287279],[-87.380724,37.286891],[-87.380917,37.288294],[-87.383,37.287873],[-87.383965,37.290831],[-87.38119,37.291421],[-87.380737,37.292011],[-87.383228,37.293984],[-87.385422,37.294184],[-87.385987,37.29569],[-87.384386,37.29606],[-87.383148,37.295424],[-87.381603,37.295391],[-87.381419,37.294344],[-87.381265,37.294159],[-87.380413,37.293799],[-87.379681,37.293713],[-87.379153,37.293866],[-87.378893,37.294176],[-87.378671,37.294708],[-87.378444,37.295002],[-87.37813,37.295073],[-87.377732,37.295025],[-87.377385,37.295107],[-87.377255,37.295294],[-87.37729,37.295521],[-87.377421,37.295138],[-87.37844,37.295106],[-87.37952,37.293831],[-87.380985,37.294288],[-87.381376,37.295475],[-87.384409,37.296164],[-87.386064,37.295807],[-87.386543,37.292961],[-87.388738,37.291731],[-87.388505,37.290896],[-87.390431,37.290539],[-87.392405,37.289265],[-87.393656,37.290826],[-87.398113,37.289168],[-87.399042,37.288328],[-87.402867,37.286911],[-87.406107,37.283154],[-87.405345,37.281588],[-87.403241,37.280411],[-87.400937,37.280548],[-87.398963,37.281756],[-87.395662,37.281821],[-87.394392,37.282853],[-87.390933,37.280902],[-87.391483,37.279199],[-87.393463,37.277793],[-87.397739,37.276745],[-87.398388,37.273362],[-87.401161,37.271248],[-87.40145,37.267355],[-87.405216,37.267495],[-87.411872,37.266871],[-87.417913,37.263727],[-87.419254,37.265704],[-87.419502,37.268372],[-87.421871,37.268669],[-87.432511,37.268877],[-87.43268,37.265283],[-87.434193,37.260651],[-87.436338,37.255074],[-87.447903,37.253092],[-87.4504,37.252434]]]}},{"type":"Feature","properties":{"zcta5":"42240","AFFGEOID10":"8600000US42240","GEOID10":"42240","ALAND10":696119724,"AWATER10":6295612,"county_name":"Christian","state_code":"KY","county_state":"Christian County, KY","county_fips":"21047","risk_level_county":"Higher Risk (60–69% vaccinated)","mean_vaccination_rate_county":68.94,"risk_level_zcta":"Higher Risk (60–69% vaccinated)","mean_vaccination_rate_zips":69.08,"cases":13},"geometry":{"type":"Polygon","coordinates":[[[-87.602666,36.936338],[-87.600887,36.935005],[-87.603715,36.934526],[-87.609099,36.934447],[-87.610666,36.934879],[-87.621113,36.934134],[-87.624836,36.932906],[-87.628171,36.928397],[-87.631229,36.925263],[-87.625193,36.92215],[-87.62177,36.921134],[-87.616252,36.920185],[-87.613928,36.920477],[-87.611106,36.918965],[-87.608686,36.920678],[-87.603537,36.91764],[-87.599402,36.915911],[-87.600919,36.912106],[-87.607882,36.913647],[-87.60851,36.912538],[-87.606494,36.911363],[-87.602607,36.910902],[-87.606325,36.906039],[-87.607942,36.90358],[-87.611591,36.900838],[-87.616685,36.898535],[-87.619488,36.895952],[-87.620657,36.893586],[-87.621554,36.888659],[-87.622593,36.886765],[-87.621659,36.884634],[-87.626929,36.885861],[-87.629155,36.886759],[-87.628653,36.887665],[-87.649197,36.880171],[-87.65448,36.881604],[-87.658173,36.882058],[-87.657618,36.876719],[-87.655764,36.877085],[-87.648986,36.8773],[-87.646833,36.879193],[-87.641072,36.877827],[-87.637526,36.877619],[-87.634556,36.877859],[-87.631835,36.878629],[-87.632477,36.877608],[-87.630856,36.870908],[-87.632355,36.868166],[-87.634102,36.868159],[-87.635046,36.865671],[-87.631846,36.864549],[-87.630493,36.862844],[-87.631096,36.860867],[-87.630406,36.859899],[-87.632464,36.860191],[-87.634774,36.862258],[-87.635637,36.860171],[-87.633819,36.85934],[-87.633718,36.85645],[-87.633165,36.855438],[-87.629965,36.85597],[-87.628851,36.85487],[-87.629139,36.853145],[-87.632252,36.850855],[-87.631788,36.849096],[-87.636049,36.847455],[-87.635086,36.845696],[-87.63713,36.846137],[-87.637508,36.844269],[-87.639547,36.840675],[-87.640381,36.840824],[-87.640038,36.842747],[-87.641166,36.843803],[-87.639995,36.838217],[-87.63999,36.835788],[-87.649769,36.822781],[-87.658762,36.828062],[-87.660534,36.829328],[-87.66599,36.827772],[-87.673872,36.825235],[-87.673674,36.793699],[-87.661768,36.792112],[-87.659532,36.79003],[-87.651519,36.790327],[-87.647162,36.791386],[-87.646225,36.791195],[-87.641792,36.788481],[-87.630185,36.798894],[-87.62857,36.796652],[-87.620256,36.789235],[-87.617373,36.787312],[-87.617336,36.785028],[-87.615087,36.785245],[-87.610628,36.779593],[-87.605575,36.780907],[-87.606191,36.775579],[-87.607122,36.774656],[-87.603181,36.770095],[-87.597581,36.770699],[-87.595542,36.771443],[-87.594035,36.773728],[-87.59079,36.774364],[-87.589677,36.77128],[-87.589516,36.769113],[-87.586716,36.767885],[-87.588214,36.757898],[-87.585512,36.756213],[-87.581661,36.752685],[-87.580873,36.751553],[-87.580645,36.748029],[-87.579822,36.745246],[-87.577869,36.743298],[-87.575859,36.742912],[-87.574917,36.747051],[-87.571359,36.748843],[-87.566901,36.751793],[-87.567574,36.754889],[-87.568673,36.756787],[-87.56615,36.756384],[-87.563787,36.754721],[-87.561532,36.751829],[-87.559148,36.754602],[-87.555175,36.754542],[-87.554342,36.756573],[-87.551086,36.760148],[-87.546192,36.757417],[-87.548589,36.752626],[-87.549921,36.748931],[-87.5428,36.746022],[-87.541219,36.744691],[-87.541559,36.742126],[-87.538204,36.741187],[-87.538163,36.736897],[-87.537495,36.737817],[-87.528593,36.736583],[-87.528345,36.738275],[-87.507511,36.730051],[-87.485852,36.727826],[-87.485325,36.727406],[-87.485815,36.72411],[-87.485202,36.723279],[-87.470165,36.721775],[-87.467148,36.722137],[-87.460233,36.721328],[-87.456835,36.709331],[-87.455932,36.707292],[-87.454545,36.707487],[-87.45121,36.708905],[-87.455539,36.720864],[-87.444772,36.719589],[-87.44333,36.726483],[-87.442568,36.731286],[-87.459763,36.73291],[-87.467564,36.753394],[-87.469772,36.761076],[-87.47094,36.76384],[-87.470376,36.765349],[-87.470612,36.767401],[-87.451548,36.765424],[-87.448222,36.766414],[-87.442478,36.766094],[-87.438894,36.769535],[-87.441238,36.774998],[-87.43872,36.773549],[-87.435827,36.769478],[-87.436755,36.765045],[-87.438681,36.764647],[-87.439548,36.759709],[-87.439809,36.756377],[-87.439017,36.75398],[-87.440242,36.748744],[-87.442509,36.746664],[-87.44338,36.74195],[-87.441463,36.7409],[-87.44148,36.738154],[-87.421371,36.73553],[-87.42105,36.73743],[-87.418589,36.737314],[-87.406673,36.736129],[-87.407205,36.737288],[-87.407205,36.743439],[-87.40856,36.752076],[-87.412068,36.760468],[-87.412494,36.770277],[-87.433945,36.800833],[-87.429167,36.806009],[-87.429502,36.80748],[-87.433416,36.809577],[-87.433624,36.810592],[-87.432795,36.813745],[-87.432958,36.816574],[-87.432718,36.817157],[-87.40979,36.802183],[-87.38262,36.789929],[-87.37991,36.788515],[-87.377431,36.791755],[-87.374354,36.789105],[-87.369144,36.793687],[-87.368775,36.794698],[-87.370322,36.798291],[-87.370316,36.799264],[-87.346751,36.827289],[-87.35072,36.832241],[-87.351416,36.836766],[-87.354009,36.840117],[-87.354419,36.841264],[-87.353814,36.844813],[-87.352678,36.848651],[-87.349522,36.849651],[-87.352203,36.850072],[-87.341256,36.849233],[-87.341451,36.853202],[-87.340577,36.863739],[-87.340902,36.86179],[-87.34813,36.860524],[-87.349696,36.85977],[-87.350231,36.862512],[-87.348351,36.863925],[-87.348214,36.864837],[-87.350588,36.865254],[-87.35221,36.867809],[-87.352992,36.87293],[-87.35296,36.875143],[-87.341817,36.875],[-87.335213,36.875277],[-87.324146,36.876529],[-87.319332,36.876681],[-87.294334,36.878839],[-87.261843,37.057462],[-87.259691,37.070467],[-87.265097,37.068275],[-87.280354,37.059885],[-87.28122,37.059512],[-87.304008,37.047207],[-87.31222,37.042299],[-87.32645,37.032794],[-87.341723,37.025108],[-87.341839,37.023355],[-87.341166,37.020377],[-87.340144,37.018553],[-87.337868,37.016668],[-87.334462,37.015377],[-87.332379,37.015092],[-87.329898,37.013263],[-87.329292,37.011931],[-87.333098,37.009205],[-87.33959,37.006406],[-87.348218,37.003333],[-87.364409,36.995714],[-87.358961,36.9856],[-87.357509,36.984478],[-87.36987,36.972879],[-87.372041,36.971565],[-87.394046,36.962942],[-87.402279,36.959201],[-87.403911,36.958259],[-87.406101,36.955984],[-87.408022,36.956124],[-87.419902,36.964278],[-87.420667,36.966755],[-87.420372,36.970772],[-87.429188,36.967624],[-87.429611,36.968646],[-87.424604,36.972542],[-87.424111,36.974504],[-87.422802,36.975509],[-87.423843,36.977993],[-87.421336,36.979878],[-87.420302,36.981446],[-87.420822,36.982975],[-87.419332,36.983657],[-87.417923,36.98529],[-87.419608,36.986378],[-87.420926,36.986479],[-87.421115,36.984197],[-87.422843,36.984387],[-87.424236,36.983433],[-87.426072,36.98369],[-87.426982,36.9859],[-87.432509,36.984326],[-87.435988,36.984674],[-87.437624,36.982955],[-87.435551,36.981226],[-87.432542,36.980333],[-87.430004,36.980379],[-87.430822,36.977093],[-87.434281,36.979945],[-87.435836,36.979895],[-87.440745,36.98163],[-87.44191,36.982994],[-87.446156,36.98584],[-87.448132,36.986571],[-87.452776,36.986581],[-87.454384,36.987031],[-87.457961,36.989293],[-87.458572,36.990378],[-87.454599,36.991719],[-87.450976,36.995017],[-87.449236,36.997369],[-87.449127,36.998479],[-87.447125,37.000081],[-87.446817,37.001213],[-87.446324,37.001752],[-87.448476,37.003092],[-87.449832,37.003323],[-87.452805,37.002048],[-87.455943,37.001399],[-87.457402,37.000459],[-87.46302,37.000601],[-87.465103,37.000166],[-87.466226,37.000067],[-87.467179,37.001507],[-87.468954,37.002226],[-87.469286,36.999476],[-87.47081,36.996172],[-87.473483,36.99344],[-87.474419,36.991304],[-87.477396,36.989087],[-87.480325,36.988197],[-87.480318,36.985886],[-87.481349,36.985476],[-87.48029,36.98079],[-87.489108,36.9798],[-87.493376,36.978798],[-87.49903,36.978324],[-87.502076,36.978872],[-87.505773,36.977608],[-87.508945,36.978306],[-87.511434,36.977667],[-87.515014,36.980584],[-87.519797,36.976634],[-87.523633,36.976136],[-87.526085,36.975015],[-87.528578,36.974637],[-87.533153,36.975875],[-87.535043,36.974551],[-87.535005,36.973409],[-87.541885,36.970929],[-87.543305,36.968715],[-87.545144,36.96819],[-87.549074,36.966074],[-87.551495,36.965437],[-87.549285,36.962536],[-87.546375,36.953655],[-87.549327,36.948182],[-87.551779,36.945143],[-87.554572,36.943017],[-87.556161,36.942407],[-87.557482,36.943715],[-87.560152,36.943748],[-87.566073,36.943078],[-87.568421,36.941369],[-87.569524,36.943088],[-87.569914,36.945116],[-87.569079,36.946122],[-87.567943,36.952062],[-87.580228,36.953925],[-87.581828,36.954795],[-87.585361,36.955576],[-87.586675,36.95834],[-87.588808,36.957881],[-87.594624,36.95536],[-87.597974,36.955294],[-87.597254,36.952551],[-87.595138,36.950612],[-87.593891,36.948387],[-87.599209,36.938032],[-87.602666,36.936338]]]}},{"type":"Feature","properties":{"zcta5":"42408","AFFGEOID10":"8600000US42408","GEOID10":"42408","ALAND10":333165654,"AWATER10":5374529,"county_name":"Christian","state_code":"KY","county_state":"Christian County, KY","county_fips":"21047","risk_level_county":"Higher Risk (60–69% vaccinated)","mean_vaccination_rate_county":68.94,"risk_level_zcta":"Lower Risk (80–84% vaccinated)","mean_vaccination_rate_zips":81.75,"cases":13},"geometry":{"type":"MultiPolygon","coordinates":[[[[-87.555402,37.183004],[-87.564685,37.183075],[-87.5627,37.179784],[-87.55568,37.180839],[-87.554373,37.180865],[-87.555238,37.182738],[-87.555402,37.183004]]],[[[-87.761209,37.302107],[-87.763313,37.297763],[-87.767134,37.29513],[-87.778187,37.284912],[-87.779139,37.283596],[-87.779407,37.282211],[-87.779628,37.274667],[-87.783399,37.276931],[-87.78466,37.277153],[-87.790424,37.276235],[-87.791075,37.27475],[-87.79468,37.274852],[-87.799448,37.275639],[-87.79708,37.274415],[-87.794775,37.274556],[-87.796225,37.273808],[-87.79634,37.272602],[-87.798528,37.271435],[-87.797679,37.270035],[-87.794903,37.271045],[-87.793622,37.270222],[-87.794204,37.269229],[-87.797622,37.268154],[-87.800946,37.269729],[-87.802368,37.268327],[-87.800415,37.266161],[-87.79765,37.264808],[-87.795991,37.263469],[-87.797444,37.263308],[-87.799795,37.261883],[-87.799323,37.260693],[-87.796989,37.261206],[-87.798057,37.258547],[-87.79759,37.25781],[-87.793998,37.257981],[-87.78907,37.258933],[-87.787829,37.258647],[-87.786142,37.256796],[-87.786091,37.255294],[-87.786977,37.254769],[-87.791983,37.254492],[-87.794352,37.255002],[-87.79771,37.253587],[-87.794977,37.252059],[-87.798369,37.248818],[-87.797203,37.247574],[-87.79704,37.246319],[-87.793404,37.245427],[-87.793286,37.243586],[-87.794858,37.243627],[-87.797554,37.245833],[-87.79926,37.244641],[-87.801232,37.245272],[-87.801652,37.243852],[-87.803909,37.243199],[-87.804857,37.240739],[-87.800643,37.240945],[-87.800461,37.238972],[-87.801714,37.237226],[-87.800038,37.236195],[-87.799041,37.236814],[-87.796314,37.233403],[-87.793607,37.235023],[-87.792433,37.234503],[-87.793034,37.232866],[-87.788947,37.232474],[-87.787958,37.231746],[-87.786306,37.229136],[-87.787393,37.227344],[-87.786345,37.22665],[-87.78413,37.226856],[-87.785339,37.225606],[-87.787119,37.225802],[-87.787913,37.224381],[-87.786636,37.220631],[-87.786015,37.220135],[-87.784596,37.221677],[-87.782656,37.222138],[-87.781465,37.223865],[-87.780511,37.224185],[-87.778513,37.223075],[-87.77835,37.221452],[-87.774592,37.218856],[-87.774113,37.215814],[-87.771544,37.214127],[-87.767541,37.217047],[-87.764314,37.2175],[-87.761031,37.216138],[-87.759993,37.214824],[-87.760097,37.213532],[-87.762599,37.212189],[-87.765904,37.211561],[-87.770997,37.21245],[-87.773564,37.210957],[-87.769494,37.208888],[-87.76971,37.207521],[-87.774856,37.207767],[-87.777722,37.206376],[-87.776537,37.205088],[-87.775016,37.205798],[-87.774634,37.204086],[-87.773303,37.202972],[-87.771054,37.203055],[-87.770853,37.201875],[-87.77394,37.200389],[-87.774962,37.199189],[-87.774694,37.198127],[-87.773076,37.197225],[-87.769167,37.195891],[-87.763961,37.194889],[-87.76271,37.197578],[-87.760246,37.199487],[-87.759865,37.200826],[-87.757157,37.204027],[-87.757529,37.207962],[-87.755666,37.20872],[-87.75219,37.208388],[-87.750837,37.208942],[-87.74797,37.209199],[-87.74703,37.207091],[-87.745613,37.205405],[-87.743718,37.207162],[-87.741634,37.206037],[-87.74358,37.205341],[-87.745725,37.203944],[-87.747509,37.203784],[-87.748951,37.201724],[-87.748684,37.201165],[-87.746222,37.201704],[-87.744915,37.199525],[-87.746753,37.198512],[-87.748809,37.195315],[-87.749039,37.190829],[-87.750191,37.188713],[-87.749871,37.186735],[-87.748632,37.18421],[-87.747679,37.180957],[-87.77795,37.168275],[-87.775383,37.166071],[-87.777071,37.163133],[-87.776567,37.162331],[-87.778586,37.160616],[-87.776438,37.157809],[-87.777946,37.156148],[-87.778207,37.154345],[-87.780522,37.150621],[-87.780231,37.148587],[-87.784415,37.146805],[-87.786259,37.145127],[-87.790746,37.144285],[-87.792657,37.141067],[-87.790631,37.137429],[-87.791822,37.133129],[-87.799553,37.130925],[-87.801989,37.13001],[-87.796785,37.125638],[-87.794598,37.125528],[-87.791619,37.120265],[-87.790264,37.118605],[-87.792541,37.118672],[-87.792658,37.117727],[-87.787967,37.115807],[-87.785614,37.116715],[-87.78354,37.115908],[-87.783664,37.112589],[-87.782826,37.111394],[-87.779876,37.10919],[-87.77649,37.107384],[-87.771495,37.105908],[-87.764014,37.104592],[-87.765008,37.10374],[-87.771592,37.102102],[-87.775596,37.100099],[-87.777332,37.097798],[-87.77817,37.094992],[-87.779874,37.092755],[-87.783672,37.090788],[-87.792421,37.088814],[-87.796274,37.086664],[-87.801027,37.081902],[-87.804218,37.080129],[-87.801501,37.078904],[-87.789395,37.075249],[-87.787072,37.07522],[-87.778149,37.078169],[-87.771831,37.08127],[-87.767719,37.081738],[-87.755359,37.080277],[-87.751896,37.07919],[-87.748471,37.077199],[-87.74647,37.077793],[-87.743984,37.08255],[-87.742729,37.086508],[-87.740872,37.090044],[-87.737991,37.09375],[-87.735257,37.0915],[-87.732115,37.091238],[-87.724862,37.091934],[-87.722406,37.090654],[-87.720977,37.089139],[-87.716506,37.079776],[-87.714465,37.077892],[-87.711277,37.079224],[-87.710646,37.080015],[-87.711031,37.08284],[-87.709064,37.084945],[-87.708797,37.087901],[-87.710423,37.089126],[-87.71054,37.090714],[-87.709457,37.092055],[-87.710267,37.093527],[-87.708381,37.094951],[-87.707956,37.096995],[-87.709466,37.098814],[-87.704884,37.101908],[-87.7059,37.102803],[-87.708822,37.102831],[-87.710565,37.105479],[-87.709618,37.10652],[-87.707702,37.106926],[-87.705611,37.108502],[-87.706319,37.110342],[-87.706014,37.112256],[-87.703881,37.114618],[-87.702934,37.117384],[-87.700472,37.119006],[-87.699932,37.122624],[-87.697602,37.124291],[-87.696976,37.130042],[-87.696447,37.132335],[-87.694824,37.135018],[-87.691343,37.137179],[-87.687368,37.140095],[-87.682698,37.141066],[-87.69254,37.100022],[-87.689687,37.097896],[-87.688254,37.094815],[-87.685374,37.093519],[-87.68257,37.093097],[-87.679265,37.091671],[-87.678755,37.08752],[-87.678977,37.084814],[-87.682898,37.085263],[-87.685372,37.085957],[-87.686401,37.085695],[-87.691344,37.080638],[-87.691495,37.077873],[-87.693651,37.074348],[-87.690913,37.071749],[-87.688973,37.06944],[-87.688456,37.068102],[-87.686508,37.066441],[-87.686376,37.064624],[-87.683613,37.060737],[-87.680916,37.060872],[-87.679764,37.05961],[-87.676018,37.058904],[-87.674447,37.058189],[-87.672942,37.058505],[-87.669971,37.057914],[-87.668839,37.058679],[-87.665665,37.059095],[-87.65962,37.05866],[-87.655798,37.057653],[-87.65017,37.058204],[-87.649321,37.05757],[-87.64353,37.055624],[-87.639247,37.056206],[-87.635656,37.055254],[-87.631801,37.055926],[-87.629653,37.057546],[-87.628568,37.061243],[-87.627618,37.06234],[-87.625539,37.062757],[-87.623772,37.063917],[-87.616038,37.067982],[-87.615191,37.068665],[-87.613466,37.072852],[-87.611354,37.07404],[-87.61111,37.077304],[-87.610288,37.07964],[-87.605207,37.081455],[-87.601922,37.081528],[-87.60121,37.082699],[-87.601355,37.084858],[-87.60368,37.084912],[-87.604113,37.087099],[-87.602385,37.088473],[-87.599731,37.089315],[-87.596193,37.092113],[-87.597209,37.092948],[-87.599198,37.092574],[-87.59793,37.094228],[-87.598568,37.095288],[-87.600887,37.095788],[-87.600559,37.097139],[-87.60202,37.097771],[-87.60289,37.09621],[-87.605333,37.097495],[-87.605416,37.099088],[-87.607542,37.098258],[-87.609506,37.10029],[-87.611543,37.100125],[-87.612559,37.101624],[-87.611181,37.102092],[-87.608899,37.105588],[-87.612995,37.106745],[-87.615144,37.108915],[-87.616598,37.108167],[-87.61688,37.108859],[-87.614822,37.109833],[-87.614679,37.110871],[-87.617217,37.110238],[-87.617677,37.111013],[-87.614606,37.113948],[-87.614791,37.114855],[-87.61674,37.114541],[-87.622335,37.116828],[-87.622822,37.119174],[-87.624602,37.120944],[-87.626166,37.121257],[-87.630654,37.120591],[-87.634183,37.120786],[-87.635731,37.120071],[-87.63814,37.121213],[-87.639238,37.12304],[-87.639356,37.124792],[-87.638022,37.125904],[-87.633695,37.123993],[-87.631431,37.12353],[-87.630998,37.124107],[-87.631205,37.129588],[-87.630269,37.132912],[-87.632994,37.13304],[-87.637971,37.130608],[-87.638595,37.131421],[-87.637153,37.132816],[-87.638223,37.13374],[-87.644516,37.134418],[-87.645141,37.133995],[-87.643365,37.130456],[-87.645082,37.128693],[-87.648664,37.128974],[-87.651306,37.12992],[-87.651957,37.131102],[-87.653638,37.131817],[-87.655594,37.13168],[-87.656822,37.133927],[-87.657796,37.134087],[-87.657679,37.134939],[-87.654975,37.135383],[-87.653114,37.136493],[-87.649811,37.140047],[-87.649193,37.142338],[-87.65035,37.146135],[-87.650087,37.147098],[-87.638275,37.142054],[-87.638313,37.142741],[-87.641379,37.144617],[-87.642171,37.145925],[-87.648115,37.147216],[-87.649055,37.146958],[-87.650583,37.148196],[-87.649456,37.151547],[-87.649421,37.153069],[-87.648205,37.154866],[-87.652111,37.154081],[-87.654499,37.156945],[-87.656359,37.156687],[-87.655905,37.158962],[-87.660588,37.158952],[-87.658211,37.162045],[-87.662804,37.161606],[-87.664925,37.163338],[-87.665907,37.162937],[-87.664246,37.160607],[-87.665489,37.160788],[-87.66634,37.162475],[-87.669127,37.161558],[-87.673432,37.163125],[-87.674242,37.162553],[-87.67716,37.16451],[-87.679475,37.164883],[-87.679048,37.166794],[-87.679907,37.168356],[-87.676733,37.168884],[-87.675683,37.170636],[-87.675119,37.173461],[-87.673886,37.174102],[-87.672186,37.167319],[-87.671472,37.166083],[-87.668356,37.16434],[-87.660358,37.163927],[-87.647384,37.165167],[-87.640137,37.167814],[-87.611295,37.171997],[-87.610659,37.174728],[-87.605201,37.177892],[-87.603978,37.179017],[-87.596229,37.183948],[-87.595829,37.186133],[-87.593281,37.186669],[-87.592174,37.180804],[-87.593189,37.179095],[-87.584813,37.181541],[-87.580921,37.181224],[-87.5774,37.184459],[-87.583212,37.186731],[-87.585764,37.187472],[-87.588625,37.187624],[-87.591243,37.187174],[-87.582882,37.192567],[-87.570889,37.194904],[-87.570812,37.193228],[-87.565082,37.183739],[-87.562971,37.18377],[-87.562267,37.185678],[-87.559732,37.186845],[-87.560205,37.188549],[-87.560777,37.19374],[-87.560258,37.195166],[-87.561834,37.19667],[-87.563139,37.197677],[-87.567554,37.19855],[-87.57004,37.200733],[-87.572788,37.206105],[-87.574453,37.211393],[-87.573438,37.216723],[-87.574052,37.219316],[-87.573683,37.220088],[-87.57036,37.223356],[-87.56896,37.227988],[-87.568139,37.229051],[-87.555995,37.238289],[-87.555287,37.241725],[-87.557131,37.241633],[-87.570267,37.239834],[-87.571945,37.239011],[-87.57278,37.23516],[-87.571724,37.232396],[-87.572097,37.230809],[-87.573399,37.231189],[-87.589036,37.237995],[-87.589931,37.23925],[-87.597099,37.24076],[-87.596368,37.242022],[-87.595814,37.245304],[-87.599413,37.247022],[-87.599612,37.250632],[-87.603401,37.253061],[-87.604246,37.251568],[-87.643706,37.240471],[-87.643036,37.250823],[-87.642666,37.269036],[-87.651594,37.27065],[-87.655283,37.272152],[-87.658394,37.271882],[-87.667047,37.273425],[-87.669622,37.273435],[-87.683253,37.271724],[-87.684609,37.271391],[-87.687221,37.277965],[-87.698562,37.274202],[-87.700027,37.272449],[-87.700075,37.271004],[-87.703932,37.266808],[-87.708946,37.26944],[-87.72014,37.287833],[-87.735077,37.291112],[-87.73413,37.298843],[-87.735055,37.298188],[-87.738671,37.298377],[-87.750749,37.299879],[-87.752946,37.300699],[-87.761209,37.302107]]]]}},{"type":"Feature","properties":{"zcta5":"42217","AFFGEOID10":"8600000US42217","GEOID10":"42217","ALAND10":412777308,"AWATER10":3978763,"county_name":"Christian","state_code":"KY","county_state":"Christian County, KY","county_fips":"21047","risk_level_county":"Higher Risk (60–69% vaccinated)","mean_vaccination_rate_county":68.94,"risk_level_zcta":"Medium Risk (70–79% vaccinated)","mean_vaccination_rate_zips":75.72,"cases":13},"geometry":{"type":"Polygon","coordinates":[[[-87.588549,37.124815],[-87.62232,37.135242],[-87.623495,37.12936],[-87.623295,37.125644],[-87.624602,37.120944],[-87.622822,37.119174],[-87.622335,37.116828],[-87.61674,37.114541],[-87.614791,37.114855],[-87.614606,37.113948],[-87.617677,37.111013],[-87.617217,37.110238],[-87.614679,37.110871],[-87.614822,37.109833],[-87.61688,37.108859],[-87.616598,37.108167],[-87.615144,37.108915],[-87.612995,37.106745],[-87.608899,37.105588],[-87.611181,37.102092],[-87.612559,37.101624],[-87.611543,37.100125],[-87.609506,37.10029],[-87.607542,37.098258],[-87.605416,37.099088],[-87.605333,37.097495],[-87.60289,37.09621],[-87.60202,37.097771],[-87.600559,37.097139],[-87.600887,37.095788],[-87.598568,37.095288],[-87.59793,37.094228],[-87.599198,37.092574],[-87.597209,37.092948],[-87.596193,37.092113],[-87.599731,37.089315],[-87.602385,37.088473],[-87.604113,37.087099],[-87.60368,37.084912],[-87.601355,37.084858],[-87.60121,37.082699],[-87.601922,37.081528],[-87.605207,37.081455],[-87.610288,37.07964],[-87.61111,37.077304],[-87.611354,37.07404],[-87.613466,37.072852],[-87.615191,37.068665],[-87.616038,37.067982],[-87.61505,37.06577],[-87.613179,37.064121],[-87.600875,37.058653],[-87.603925,37.056547],[-87.602868,37.055828],[-87.600536,37.052416],[-87.601412,37.050251],[-87.601158,37.049707],[-87.598087,37.049609],[-87.598381,37.047817],[-87.599641,37.045201],[-87.601443,37.043415],[-87.603033,37.043513],[-87.602757,37.040293],[-87.601029,37.037915],[-87.595661,37.03552],[-87.593802,37.033387],[-87.595108,37.031507],[-87.595075,37.028641],[-87.59676,37.027019],[-87.599831,37.028293],[-87.602955,37.026017],[-87.605277,37.023549],[-87.6064,37.020972],[-87.605966,37.018494],[-87.606589,37.017153],[-87.609178,37.015377],[-87.609246,37.014426],[-87.61222,37.013875],[-87.613582,37.012226],[-87.614624,37.012429],[-87.615321,37.010116],[-87.615026,37.008478],[-87.615794,37.006262],[-87.614954,37.004024],[-87.619011,37.002982],[-87.617644,36.999302],[-87.615423,36.997832],[-87.615084,36.994479],[-87.614041,36.992829],[-87.616515,36.989737],[-87.617492,36.987788],[-87.616983,36.985727],[-87.612666,36.98522],[-87.610357,36.983737],[-87.608879,36.980382],[-87.609228,36.978776],[-87.60811,36.976738],[-87.601756,36.976967],[-87.600776,36.974112],[-87.592026,36.971169],[-87.59188,36.969842],[-87.589898,36.967595],[-87.586675,36.95834],[-87.585361,36.955576],[-87.581828,36.954795],[-87.580228,36.953925],[-87.567943,36.952062],[-87.569079,36.946122],[-87.569914,36.945116],[-87.569524,36.943088],[-87.568421,36.941369],[-87.566073,36.943078],[-87.560152,36.943748],[-87.557482,36.943715],[-87.556161,36.942407],[-87.554572,36.943017],[-87.551779,36.945143],[-87.549327,36.948182],[-87.546375,36.953655],[-87.549285,36.962536],[-87.551495,36.965437],[-87.549074,36.966074],[-87.545144,36.96819],[-87.543305,36.968715],[-87.541885,36.970929],[-87.535005,36.973409],[-87.535043,36.974551],[-87.533153,36.975875],[-87.528578,36.974637],[-87.526085,36.975015],[-87.523633,36.976136],[-87.519797,36.976634],[-87.515014,36.980584],[-87.511434,36.977667],[-87.508945,36.978306],[-87.505773,36.977608],[-87.502076,36.978872],[-87.49903,36.978324],[-87.493376,36.978798],[-87.489108,36.9798],[-87.48029,36.98079],[-87.481349,36.985476],[-87.480318,36.985886],[-87.480325,36.988197],[-87.477396,36.989087],[-87.474419,36.991304],[-87.473483,36.99344],[-87.47081,36.996172],[-87.469286,36.999476],[-87.468954,37.002226],[-87.467179,37.001507],[-87.466226,37.000067],[-87.465103,37.000166],[-87.46302,37.000601],[-87.457402,37.000459],[-87.455943,37.001399],[-87.452805,37.002048],[-87.449832,37.003323],[-87.448476,37.003092],[-87.446324,37.001752],[-87.446817,37.001213],[-87.447125,37.000081],[-87.449127,36.998479],[-87.449236,36.997369],[-87.450976,36.995017],[-87.454599,36.991719],[-87.458572,36.990378],[-87.457961,36.989293],[-87.454384,36.987031],[-87.452776,36.986581],[-87.448132,36.986571],[-87.446156,36.98584],[-87.44191,36.982994],[-87.440745,36.98163],[-87.435836,36.979895],[-87.434281,36.979945],[-87.430822,36.977093],[-87.430004,36.980379],[-87.432542,36.980333],[-87.435551,36.981226],[-87.437624,36.982955],[-87.435988,36.984674],[-87.432509,36.984326],[-87.426982,36.9859],[-87.426072,36.98369],[-87.424236,36.983433],[-87.422843,36.984387],[-87.421115,36.984197],[-87.420926,36.986479],[-87.419608,36.986378],[-87.417923,36.98529],[-87.419332,36.983657],[-87.420822,36.982975],[-87.420302,36.981446],[-87.421336,36.979878],[-87.423843,36.977993],[-87.422802,36.975509],[-87.424111,36.974504],[-87.424604,36.972542],[-87.429611,36.968646],[-87.429188,36.967624],[-87.420372,36.970772],[-87.420667,36.966755],[-87.419902,36.964278],[-87.408022,36.956124],[-87.406101,36.955984],[-87.403911,36.958259],[-87.402279,36.959201],[-87.394046,36.962942],[-87.372041,36.971565],[-87.36987,36.972879],[-87.357509,36.984478],[-87.358961,36.9856],[-87.364409,36.995714],[-87.348218,37.003333],[-87.33959,37.006406],[-87.333098,37.009205],[-87.329292,37.011931],[-87.329898,37.013263],[-87.332379,37.015092],[-87.334462,37.015377],[-87.337868,37.016668],[-87.340144,37.018553],[-87.341166,37.020377],[-87.341839,37.023355],[-87.341723,37.025108],[-87.32645,37.032794],[-87.31222,37.042299],[-87.304008,37.047207],[-87.28122,37.059512],[-87.280354,37.059885],[-87.265097,37.068275],[-87.259691,37.070467],[-87.259371,37.072401],[-87.260553,37.071412],[-87.261746,37.071876],[-87.262003,37.073829],[-87.259578,37.076647],[-87.259874,37.077304],[-87.26151,37.077389],[-87.262596,37.076282],[-87.263221,37.073691],[-87.264504,37.070928],[-87.265438,37.070109],[-87.267303,37.069959],[-87.269142,37.07071],[-87.269221,37.071719],[-87.26688,37.072973],[-87.268384,37.074195],[-87.272117,37.07288],[-87.272805,37.070945],[-87.274102,37.070514],[-87.274747,37.071723],[-87.276971,37.07334],[-87.278503,37.073537],[-87.278763,37.074832],[-87.277079,37.075289],[-87.274991,37.074766],[-87.276392,37.076404],[-87.278281,37.077491],[-87.280587,37.076942],[-87.281005,37.077912],[-87.279612,37.078963],[-87.281516,37.079621],[-87.281583,37.08087],[-87.282908,37.082866],[-87.285534,37.08498],[-87.285887,37.087273],[-87.284772,37.087677],[-87.285338,37.088694],[-87.284035,37.088828],[-87.283319,37.087803],[-87.281888,37.088676],[-87.279584,37.089008],[-87.279112,37.091261],[-87.281118,37.09192],[-87.282599,37.093812],[-87.282132,37.094801],[-87.284494,37.09594],[-87.282798,37.097156],[-87.283722,37.100228],[-87.282529,37.101186],[-87.28364,37.102198],[-87.282071,37.102425],[-87.283081,37.104038],[-87.285767,37.103049],[-87.285194,37.106108],[-87.284329,37.108024],[-87.288029,37.10973],[-87.291185,37.110666],[-87.293715,37.109459],[-87.294854,37.11006],[-87.293683,37.112715],[-87.297836,37.112187],[-87.296823,37.110592],[-87.297579,37.110061],[-87.30051,37.111008],[-87.299652,37.112863],[-87.300359,37.113046],[-87.301946,37.111582],[-87.300061,37.10993],[-87.300228,37.108221],[-87.301512,37.107783],[-87.303386,37.108173],[-87.303092,37.106652],[-87.304925,37.10633],[-87.3059,37.107389],[-87.305533,37.109535],[-87.307316,37.111074],[-87.308397,37.110848],[-87.310215,37.112495],[-87.311735,37.111304],[-87.313116,37.111296],[-87.315213,37.112926],[-87.317237,37.112367],[-87.317375,37.113788],[-87.316034,37.114481],[-87.31417,37.113175],[-87.312806,37.113704],[-87.314317,37.115448],[-87.316959,37.119976],[-87.319453,37.122171],[-87.32226,37.120083],[-87.324931,37.11597],[-87.327083,37.114364],[-87.329988,37.113643],[-87.333164,37.111428],[-87.334951,37.107134],[-87.336094,37.105453],[-87.340024,37.101915],[-87.340978,37.098623],[-87.341402,37.095356],[-87.34358,37.09755],[-87.346216,37.098525],[-87.348876,37.101079],[-87.348826,37.102609],[-87.349799,37.104556],[-87.352984,37.107309],[-87.355009,37.108218],[-87.357282,37.108049],[-87.365308,37.110254],[-87.366966,37.110354],[-87.369005,37.112665],[-87.371917,37.113747],[-87.374155,37.115573],[-87.375099,37.115597],[-87.378001,37.113854],[-87.380013,37.113249],[-87.38261,37.113267],[-87.38568,37.111645],[-87.389784,37.116335],[-87.390341,37.119258],[-87.389807,37.123505],[-87.388887,37.124281],[-87.393993,37.124058],[-87.395864,37.125264],[-87.395986,37.125937],[-87.394426,37.128872],[-87.394161,37.130136],[-87.39517,37.132531],[-87.419759,37.131086],[-87.477018,37.127446],[-87.47797,37.125788],[-87.478488,37.123299],[-87.478504,37.119685],[-87.479603,37.11806],[-87.480977,37.120679],[-87.480977,37.122298],[-87.479047,37.12545],[-87.482186,37.126042],[-87.484292,37.125503],[-87.485131,37.124716],[-87.487267,37.120616],[-87.488719,37.1186],[-87.491734,37.115813],[-87.493092,37.113876],[-87.495341,37.111638],[-87.497223,37.107997],[-87.49802,37.104609],[-87.496348,37.09839],[-87.495894,37.093285],[-87.497191,37.086423],[-87.49937,37.08748],[-87.505004,37.088011],[-87.508719,37.087003],[-87.510863,37.085777],[-87.517514,37.084086],[-87.520876,37.083641],[-87.526502,37.083341],[-87.52927,37.084917],[-87.531585,37.088255],[-87.536419,37.088934],[-87.537481,37.091458],[-87.53977,37.0932],[-87.540434,37.097024],[-87.542745,37.098341],[-87.546164,37.103266],[-87.545501,37.107502],[-87.546987,37.11082],[-87.549969,37.11362],[-87.588549,37.124815]]]}},{"type":"Feature","properties":{"zcta5":"42215","AFFGEOID10":"8600000US42215","GEOID10":"42215","ALAND10":151687041,"AWATER10":790994,"county_name":"Christian","state_code":"KY","county_state":"Christian County, KY","county_fips":"21047","risk_level_county":"Higher Risk (60–69% vaccinated)","mean_vaccination_rate_county":68.94,"risk_level_zcta":"Medium Risk (70–79% vaccinated)","mean_vaccination_rate_zips":71.24,"cases":13},"geometry":{"type":"Polygon","coordinates":[[[-87.75453,36.983802],[-87.750415,36.981335],[-87.750551,36.979543],[-87.74921,36.978652],[-87.747694,36.975075],[-87.748398,36.974036],[-87.749946,36.973964],[-87.750426,36.972619],[-87.749499,36.972151],[-87.752973,36.965038],[-87.750877,36.965048],[-87.748637,36.964047],[-87.748478,36.962338],[-87.751696,36.960674],[-87.75158,36.959251],[-87.746149,36.96179],[-87.742842,36.961604],[-87.739362,36.96054],[-87.737931,36.959656],[-87.740017,36.956737],[-87.741735,36.955907],[-87.740707,36.953984],[-87.740015,36.953907],[-87.736279,36.956634],[-87.735176,36.95692],[-87.7331,36.954504],[-87.730827,36.954757],[-87.728615,36.952879],[-87.728518,36.951868],[-87.727177,36.953247],[-87.725136,36.951874],[-87.723238,36.948622],[-87.717349,36.944914],[-87.712474,36.94458],[-87.709326,36.946471],[-87.711827,36.943251],[-87.726593,36.931221],[-87.722346,36.929789],[-87.717304,36.929367],[-87.699769,36.929779],[-87.701842,36.936276],[-87.70315,36.945747],[-87.698864,36.945786],[-87.697981,36.943528],[-87.697016,36.94344],[-87.695906,36.939725],[-87.694366,36.937753],[-87.693058,36.93822],[-87.691381,36.936121],[-87.686699,36.935066],[-87.686281,36.934439],[-87.683844,36.934319],[-87.682667,36.935742],[-87.678498,36.934879],[-87.674733,36.936142],[-87.671571,36.935312],[-87.670147,36.934323],[-87.664036,36.935341],[-87.663185,36.941465],[-87.65486,36.940901],[-87.646825,36.93909],[-87.643923,36.938737],[-87.641312,36.939213],[-87.63947,36.93891],[-87.63826,36.939354],[-87.635392,36.942342],[-87.633156,36.943454],[-87.628113,36.941325],[-87.623758,36.942407],[-87.622809,36.943008],[-87.618833,36.947038],[-87.602666,36.936338],[-87.599209,36.938032],[-87.593891,36.948387],[-87.595138,36.950612],[-87.597254,36.952551],[-87.597974,36.955294],[-87.594624,36.95536],[-87.588808,36.957881],[-87.586675,36.95834],[-87.589898,36.967595],[-87.59188,36.969842],[-87.592026,36.971169],[-87.600776,36.974112],[-87.601756,36.976967],[-87.60811,36.976738],[-87.609228,36.978776],[-87.608879,36.980382],[-87.610357,36.983737],[-87.612666,36.98522],[-87.616983,36.985727],[-87.617492,36.987788],[-87.616515,36.989737],[-87.614041,36.992829],[-87.615084,36.994479],[-87.615423,36.997832],[-87.617644,36.999302],[-87.619011,37.002982],[-87.614954,37.004024],[-87.615794,37.006262],[-87.615026,37.008478],[-87.615321,37.010116],[-87.614624,37.012429],[-87.613582,37.012226],[-87.61222,37.013875],[-87.609246,37.014426],[-87.609178,37.015377],[-87.606589,37.017153],[-87.605966,37.018494],[-87.6064,37.020972],[-87.605277,37.023549],[-87.602955,37.026017],[-87.599831,37.028293],[-87.59676,37.027019],[-87.595075,37.028641],[-87.595108,37.031507],[-87.593802,37.033387],[-87.595661,37.03552],[-87.601029,37.037915],[-87.602757,37.040293],[-87.603033,37.043513],[-87.601443,37.043415],[-87.599641,37.045201],[-87.598381,37.047817],[-87.598087,37.049609],[-87.601158,37.049707],[-87.601412,37.050251],[-87.600536,37.052416],[-87.602868,37.055828],[-87.603925,37.056547],[-87.600875,37.058653],[-87.613179,37.064121],[-87.61505,37.06577],[-87.616038,37.067982],[-87.623772,37.063917],[-87.625539,37.062757],[-87.627618,37.06234],[-87.628568,37.061243],[-87.629653,37.057546],[-87.631801,37.055926],[-87.635656,37.055254],[-87.639247,37.056206],[-87.64353,37.055624],[-87.649321,37.05757],[-87.65017,37.058204],[-87.655798,37.057653],[-87.65962,37.05866],[-87.665665,37.059095],[-87.668839,37.058679],[-87.669971,37.057914],[-87.672942,37.058505],[-87.674447,37.058189],[-87.676018,37.058904],[-87.679764,37.05961],[-87.680916,37.060872],[-87.683613,37.060737],[-87.686376,37.064624],[-87.686508,37.066441],[-87.688456,37.068102],[-87.688973,37.06944],[-87.690913,37.071749],[-87.693651,37.074348],[-87.691495,37.077873],[-87.691344,37.080638],[-87.686401,37.085695],[-87.685372,37.085957],[-87.682898,37.085263],[-87.678977,37.084814],[-87.678755,37.08752],[-87.679265,37.091671],[-87.68257,37.093097],[-87.685374,37.093519],[-87.688254,37.094815],[-87.689687,37.097896],[-87.69254,37.100022],[-87.710912,37.021607],[-87.733368,37.002103],[-87.75453,36.983802]]]}},{"type":"Feature","properties":{"zcta5":"42442","AFFGEOID10":"8600000US42442","GEOID10":"42442","ALAND10":158276861,"AWATER10":2016978,"county_name":"Christian","state_code":"KY","county_state":"Christian County, KY","county_fips":"21047","risk_level_county":"Higher Risk (60–69% vaccinated)","mean_vaccination_rate_county":68.94,"risk_level_zcta":"Medium Risk (70–79% vaccinated)","mean_vaccination_rate_zips":71.58,"cases":13},"geometry":{"type":"Polygon","coordinates":[[[-87.5627,37.179784],[-87.563766,37.179656],[-87.563744,37.176341],[-87.561991,37.174383],[-87.562452,37.171687],[-87.561696,37.170685],[-87.562436,37.165733],[-87.567398,37.161949],[-87.566901,37.160199],[-87.57005,37.154152],[-87.570718,37.152202],[-87.573264,37.148613],[-87.574412,37.144233],[-87.572939,37.143883],[-87.571817,37.140549],[-87.569631,37.138477],[-87.565512,37.13603],[-87.570035,37.135832],[-87.571106,37.137343],[-87.572163,37.137623],[-87.572897,37.136463],[-87.574689,37.136491],[-87.5767,37.137738],[-87.576886,37.138606],[-87.578347,37.138452],[-87.579536,37.138546],[-87.580769,37.137219],[-87.581913,37.137212],[-87.585838,37.136007],[-87.586795,37.132158],[-87.586079,37.130151],[-87.586091,37.12739],[-87.588282,37.125655],[-87.588549,37.124815],[-87.549969,37.11362],[-87.546987,37.11082],[-87.545501,37.107502],[-87.546164,37.103266],[-87.542745,37.098341],[-87.540434,37.097024],[-87.53977,37.0932],[-87.537481,37.091458],[-87.536419,37.088934],[-87.531585,37.088255],[-87.52927,37.084917],[-87.526502,37.083341],[-87.520876,37.083641],[-87.517514,37.084086],[-87.510863,37.085777],[-87.508719,37.087003],[-87.505004,37.088011],[-87.49937,37.08748],[-87.497191,37.086423],[-87.495894,37.093285],[-87.496348,37.09839],[-87.49802,37.104609],[-87.497223,37.107997],[-87.495341,37.111638],[-87.493092,37.113876],[-87.491734,37.115813],[-87.488719,37.1186],[-87.487267,37.120616],[-87.485131,37.124716],[-87.484292,37.125503],[-87.482186,37.126042],[-87.479047,37.12545],[-87.480977,37.122298],[-87.480977,37.120679],[-87.479603,37.11806],[-87.478504,37.119685],[-87.478488,37.123299],[-87.47797,37.125788],[-87.477018,37.127446],[-87.419759,37.131086],[-87.419083,37.13405],[-87.416966,37.136454],[-87.413878,37.13437],[-87.412132,37.136032],[-87.412247,37.138834],[-87.410587,37.140574],[-87.411949,37.142091],[-87.409826,37.142342],[-87.40567,37.147663],[-87.4015,37.148853],[-87.396857,37.148552],[-87.395781,37.147965],[-87.394821,37.150273],[-87.396074,37.153406],[-87.39714,37.153222],[-87.405771,37.153737],[-87.410332,37.155176],[-87.422315,37.1565],[-87.419147,37.165923],[-87.417684,37.165704],[-87.417148,37.167832],[-87.418137,37.168816],[-87.415964,37.175389],[-87.413854,37.176644],[-87.406745,37.174994],[-87.400633,37.174417],[-87.398908,37.182454],[-87.393558,37.183403],[-87.393154,37.186727],[-87.394114,37.187298],[-87.393856,37.189538],[-87.414185,37.190564],[-87.413885,37.194455],[-87.416159,37.194653],[-87.416138,37.195768],[-87.417594,37.195598],[-87.419635,37.192807],[-87.421283,37.192445],[-87.421373,37.191109],[-87.428269,37.191561],[-87.437235,37.191741],[-87.441694,37.192327],[-87.440263,37.196275],[-87.43931,37.200941],[-87.439615,37.205341],[-87.441143,37.2122],[-87.446011,37.23291],[-87.447762,37.23274],[-87.451016,37.231119],[-87.449635,37.233997],[-87.459437,37.237103],[-87.466756,37.238712],[-87.467203,37.238777],[-87.470581,37.233559],[-87.473537,37.23421],[-87.474932,37.229451],[-87.474886,37.228602],[-87.475219,37.22954],[-87.475473,37.228365],[-87.472694,37.218115],[-87.471975,37.216972],[-87.467327,37.212774],[-87.466433,37.212768],[-87.466241,37.212601],[-87.467146,37.21261],[-87.471145,37.212442],[-87.489878,37.208866],[-87.489864,37.209046],[-87.488993,37.221335],[-87.499493,37.227907],[-87.502772,37.227236],[-87.506476,37.227248],[-87.50717,37.228062],[-87.510737,37.227146],[-87.514392,37.227994],[-87.51771,37.229374],[-87.518748,37.229105],[-87.520877,37.23037],[-87.525965,37.235218],[-87.529006,37.235324],[-87.53756,37.221378],[-87.545083,37.212647],[-87.553096,37.209829],[-87.554844,37.210606],[-87.57004,37.200733],[-87.567554,37.19855],[-87.563139,37.197677],[-87.561834,37.19667],[-87.555485,37.197924],[-87.544603,37.199578],[-87.544166,37.199143],[-87.542068,37.195446],[-87.541912,37.188757],[-87.541316,37.187028],[-87.552402,37.183208],[-87.555402,37.183004],[-87.555238,37.182738],[-87.554373,37.180865],[-87.55568,37.180839],[-87.5627,37.179784]],[[-87.554373,37.180865],[-87.55338,37.18087],[-87.551652,37.181104],[-87.54182,37.184556],[-87.541737,37.180964],[-87.548221,37.180145],[-87.54611,37.17928],[-87.547288,37.175717],[-87.549679,37.174942],[-87.551596,37.17738],[-87.5515,37.179775],[-87.554054,37.179508],[-87.554356,37.18081],[-87.554373,37.180865]]]}},{"type":"Feature","properties":{"zcta5":"42266","AFFGEOID10":"8600000US42266","GEOID10":"42266","ALAND10":195016762,"AWATER10":1268172,"county_name":"Christian","state_code":"KY","county_state":"Christian County, KY","county_fips":"21047","risk_level_county":"Higher Risk (60–69% vaccinated)","mean_vaccination_rate_county":68.94,"risk_level_zcta":"Higher Risk (60–69% vaccinated)","mean_vaccination_rate_zips":65.34,"cases":13},"geometry":{"type":"Polygon","coordinates":[[[-87.294334,36.878839],[-87.319332,36.876681],[-87.324146,36.876529],[-87.335213,36.875277],[-87.341817,36.875],[-87.35296,36.875143],[-87.352992,36.87293],[-87.35221,36.867809],[-87.350588,36.865254],[-87.348214,36.864837],[-87.348351,36.863925],[-87.350231,36.862512],[-87.349696,36.85977],[-87.34813,36.860524],[-87.340902,36.86179],[-87.340577,36.863739],[-87.341451,36.853202],[-87.341256,36.849233],[-87.352203,36.850072],[-87.349522,36.849651],[-87.352678,36.848651],[-87.353814,36.844813],[-87.354419,36.841264],[-87.354009,36.840117],[-87.351416,36.836766],[-87.35072,36.832241],[-87.346751,36.827289],[-87.370316,36.799264],[-87.370322,36.798291],[-87.368775,36.794698],[-87.369144,36.793687],[-87.374354,36.789105],[-87.377431,36.791755],[-87.37991,36.788515],[-87.38262,36.789929],[-87.40979,36.802183],[-87.432718,36.817157],[-87.432958,36.816574],[-87.432795,36.813745],[-87.433624,36.810592],[-87.433416,36.809577],[-87.429502,36.80748],[-87.429167,36.806009],[-87.433945,36.800833],[-87.412494,36.770277],[-87.412068,36.760468],[-87.40856,36.752076],[-87.407205,36.743439],[-87.407205,36.737288],[-87.406673,36.736129],[-87.418589,36.737314],[-87.42105,36.73743],[-87.421371,36.73553],[-87.44148,36.738154],[-87.441463,36.7409],[-87.44338,36.74195],[-87.442509,36.746664],[-87.440242,36.748744],[-87.439017,36.75398],[-87.439809,36.756377],[-87.439548,36.759709],[-87.438681,36.764647],[-87.436755,36.765045],[-87.435827,36.769478],[-87.43872,36.773549],[-87.441238,36.774998],[-87.438894,36.769535],[-87.442478,36.766094],[-87.448222,36.766414],[-87.451548,36.765424],[-87.470612,36.767401],[-87.470376,36.765349],[-87.47094,36.76384],[-87.469772,36.761076],[-87.467564,36.753394],[-87.459763,36.73291],[-87.442568,36.731286],[-87.44333,36.726483],[-87.444772,36.719589],[-87.455539,36.720864],[-87.45121,36.708905],[-87.454545,36.707487],[-87.455932,36.707292],[-87.456835,36.709331],[-87.454973,36.702946],[-87.425259,36.691477],[-87.40443,36.682005],[-87.401106,36.690341],[-87.398594,36.689213],[-87.393434,36.690627],[-87.388258,36.69037],[-87.385976,36.690926],[-87.385638,36.68904],[-87.382513,36.685142],[-87.376893,36.685003],[-87.37606,36.684316],[-87.375322,36.680638],[-87.376807,36.679143],[-87.372738,36.679002],[-87.372611,36.678002],[-87.374329,36.675776],[-87.363709,36.674602],[-87.360765,36.677386],[-87.357846,36.677361],[-87.356896,36.676694],[-87.353782,36.672526],[-87.350231,36.670279],[-87.34917,36.669056],[-87.346461,36.667832],[-87.34519,36.668806],[-87.343661,36.668766],[-87.335883,36.671761],[-87.334333,36.67333],[-87.330973,36.673892],[-87.329946,36.676699],[-87.317161,36.750169],[-87.315854,36.757545],[-87.312916,36.756296],[-87.307511,36.758836],[-87.30589,36.759989],[-87.300314,36.76006],[-87.299674,36.760553],[-87.29932,36.762772],[-87.29701,36.76529],[-87.29635,36.768715],[-87.290313,36.772844],[-87.288588,36.776106],[-87.289078,36.777363],[-87.291676,36.778226],[-87.292096,36.779027],[-87.291503,36.785133],[-87.290868,36.7888],[-87.28868,36.791748],[-87.287035,36.794759],[-87.289078,36.796354],[-87.288323,36.802239],[-87.287492,36.803388],[-87.288251,36.806605],[-87.286112,36.809403],[-87.285108,36.814304],[-87.278062,36.814756],[-87.276417,36.822935],[-87.272537,36.822534],[-87.273428,36.823732],[-87.273186,36.828886],[-87.271633,36.832293],[-87.270528,36.84003],[-87.271635,36.840888],[-87.272687,36.843334],[-87.272261,36.844284],[-87.275934,36.845214],[-87.279118,36.845608],[-87.28772,36.845746],[-87.288894,36.844556],[-87.291081,36.84419],[-87.298092,36.843906],[-87.300661,36.843536],[-87.300473,36.84438],[-87.294334,36.878839]]]}},{"type":"Feature","properties":{"zcta5":"42262","AFFGEOID10":"8600000US42262","GEOID10":"42262","ALAND10":93344356,"AWATER10":539554,"county_name":"Christian","state_code":"KY","county_state":"Christian County, KY","county_fips":"21047","risk_level_county":"Higher Risk (60–69% vaccinated)","mean_vaccination_rate_county":68.94,"risk_level_zcta":"Higher Risk (60–69% vaccinated)","mean_vaccination_rate_zips":66.92,"cases":13},"geometry":{"type":"Polygon","coordinates":[[[-87.538163,36.736897],[-87.53767,36.734186],[-87.538357,36.73011],[-87.53493,36.729805],[-87.545557,36.711965],[-87.548415,36.712156],[-87.547306,36.709807],[-87.544765,36.70873],[-87.536651,36.708187],[-87.534141,36.708266],[-87.543218,36.668563],[-87.546202,36.660258],[-87.548487,36.656287],[-87.540835,36.655483],[-87.541097,36.653882],[-87.524778,36.652092],[-87.523746,36.655731],[-87.522089,36.654868],[-87.518426,36.654828],[-87.516718,36.664812],[-87.521277,36.665259],[-87.520487,36.670558],[-87.518978,36.677193],[-87.519914,36.678117],[-87.518366,36.684816],[-87.516782,36.689782],[-87.510732,36.689291],[-87.511092,36.685711],[-87.505469,36.683799],[-87.501258,36.685333],[-87.493087,36.685557],[-87.492367,36.687527],[-87.491636,36.686712],[-87.479328,36.685757],[-87.475307,36.689014],[-87.471335,36.685986],[-87.473808,36.683951],[-87.468287,36.685375],[-87.466201,36.680265],[-87.466219,36.679991],[-87.465399,36.677756],[-87.467867,36.675393],[-87.461894,36.673897],[-87.462771,36.667588],[-87.452398,36.6666],[-87.452851,36.663462],[-87.444854,36.66239],[-87.44434,36.661391],[-87.442299,36.661017],[-87.44137,36.656589],[-87.436414,36.642596],[-87.4363215449599,36.640751890131504],[-87.425009,36.641047],[-87.414309,36.641047],[-87.38631539379669,36.6412124035638],[-87.347796,36.64144],[-87.344131,36.64151],[-87.3392306405624,36.6415296405623],[-87.33597953375501,36.6415426709465],[-87.329946,36.676699],[-87.330973,36.673892],[-87.334333,36.67333],[-87.335883,36.671761],[-87.343661,36.668766],[-87.34519,36.668806],[-87.346461,36.667832],[-87.34917,36.669056],[-87.350231,36.670279],[-87.353782,36.672526],[-87.356896,36.676694],[-87.357846,36.677361],[-87.360765,36.677386],[-87.363709,36.674602],[-87.374329,36.675776],[-87.372611,36.678002],[-87.372738,36.679002],[-87.376807,36.679143],[-87.375322,36.680638],[-87.37606,36.684316],[-87.376893,36.685003],[-87.382513,36.685142],[-87.385638,36.68904],[-87.385976,36.690926],[-87.388258,36.69037],[-87.393434,36.690627],[-87.398594,36.689213],[-87.401106,36.690341],[-87.40443,36.682005],[-87.425259,36.691477],[-87.454973,36.702946],[-87.456835,36.709331],[-87.460233,36.721328],[-87.467148,36.722137],[-87.470165,36.721775],[-87.485202,36.723279],[-87.485815,36.72411],[-87.485325,36.727406],[-87.485852,36.727826],[-87.507511,36.730051],[-87.528345,36.738275],[-87.528593,36.736583],[-87.537495,36.737817],[-87.538163,36.736897]]]}},{"type":"Feature","properties":{"zcta5":"42254","AFFGEOID10":"8600000US42254","GEOID10":"42254","ALAND10":13149615,"AWATER10":20680,"county_name":"Christian","state_code":"KY","county_state":"Christian County, KY","county_fips":"21047","risk_level_county":"Higher Risk (60–69% vaccinated)","mean_vaccination_rate_county":68.94,"risk_level_zcta":"Medium Risk (70–79% vaccinated)","mean_vaccination_rate_zips":74.79,"cases":13},"geometry":{"type":"Polygon","coordinates":[[[-87.682749,36.703366],[-87.678045,36.701451],[-87.680514,36.69762],[-87.676693,36.696033],[-87.677904,36.690891],[-87.674302,36.688219],[-87.676496,36.682669],[-87.679312,36.682984],[-87.680396,36.669484],[-87.683715,36.669686],[-87.683966,36.667267],[-87.677151,36.664859],[-87.674477,36.664292],[-87.675764,36.656612],[-87.672645,36.656462],[-87.66933,36.656835],[-87.667761,36.656319],[-87.667047,36.654045],[-87.671002,36.651727],[-87.667009,36.651857],[-87.666697,36.647],[-87.658107,36.647027],[-87.658043,36.64832],[-87.651283,36.647602],[-87.64929,36.645576],[-87.643848,36.645723],[-87.640902,36.644798],[-87.637513,36.645281],[-87.634347,36.647747],[-87.63134,36.647267],[-87.629109,36.647992],[-87.625747,36.647809],[-87.62508,36.646989],[-87.621827,36.646455],[-87.617702,36.646356],[-87.617889,36.64504],[-87.593564,36.645164],[-87.592979,36.648329],[-87.58582,36.648293],[-87.576944,36.645991],[-87.576027,36.647956],[-87.571087,36.646416],[-87.567461,36.653565],[-87.573209,36.660918],[-87.583252,36.661777],[-87.584435,36.656832],[-87.593703,36.657178],[-87.598644,36.657735],[-87.599587,36.655686],[-87.599151,36.653528],[-87.601191,36.653377],[-87.6019,36.648436],[-87.607353,36.648939],[-87.615877,36.65071],[-87.622302,36.65147],[-87.629404,36.65136],[-87.633395,36.650757],[-87.639998,36.651431],[-87.640847,36.651748],[-87.647938,36.656124],[-87.649404,36.656671],[-87.653474,36.657075],[-87.652768,36.657488],[-87.654582,36.660272],[-87.654394,36.661771],[-87.653093,36.662796],[-87.655802,36.664982],[-87.657255,36.663599],[-87.660628,36.661572],[-87.661869,36.662966],[-87.662429,36.665437],[-87.665269,36.669987],[-87.667865,36.674672],[-87.675815,36.705066],[-87.676733,36.706962],[-87.679612,36.709336],[-87.681609,36.709913],[-87.682749,36.703366]]]}},{"type":"Feature","properties":{"zcta5":"42220","AFFGEOID10":"8600000US42220","GEOID10":"42220","ALAND10":458541074,"AWATER10":2656218,"county_name":"Christian","state_code":"KY","county_state":"Christian County, KY","county_fips":"21047","risk_level_county":"Higher Risk (60–69% vaccinated)","mean_vaccination_rate_county":68.94,"risk_level_zcta":"Medium Risk (70–79% vaccinated)","mean_vaccination_rate_zips":70.78,"cases":13},"geometry":{"type":"MultiPolygon","coordinates":[[[[-87.126648,36.752143],[-87.128006,36.750135],[-87.127633,36.746408],[-87.128952,36.744721],[-87.130427,36.74526],[-87.131887,36.746827],[-87.133303,36.744168],[-87.133748,36.741531],[-87.130191,36.74065],[-87.12951,36.739309],[-87.131162,36.738859],[-87.134134,36.736871],[-87.132701,36.736084],[-87.133712,36.735189],[-87.135685,36.734953],[-87.131848,36.734617],[-87.130471,36.731857],[-87.129059,36.7304],[-87.126789,36.734499],[-87.124731,36.730634],[-87.122599,36.729163],[-87.12182,36.72791],[-87.119369,36.727746],[-87.117382,36.726934],[-87.114916,36.725149],[-87.113073,36.724903],[-87.111529,36.722897],[-87.110382,36.722849],[-87.109195,36.724437],[-87.107953,36.7248],[-87.106812,36.723861],[-87.106872,36.72113],[-87.107574,36.719332],[-87.105887,36.717146],[-87.105435,36.715201],[-87.100888,36.714087],[-87.099167,36.712654],[-87.086662,36.725166],[-87.090093,36.726916],[-87.094781,36.728667],[-87.103594,36.730432],[-87.106277,36.732239],[-87.110369,36.733407],[-87.112069,36.735343],[-87.115657,36.736318],[-87.117885,36.738351],[-87.121999,36.741396],[-87.125696,36.750926],[-87.126648,36.752143]]],[[[-87.294334,36.878839],[-87.300473,36.84438],[-87.300661,36.843536],[-87.298092,36.843906],[-87.291081,36.84419],[-87.288894,36.844556],[-87.28772,36.845746],[-87.279118,36.845608],[-87.275934,36.845214],[-87.272261,36.844284],[-87.272687,36.843334],[-87.271635,36.840888],[-87.270528,36.84003],[-87.271633,36.832293],[-87.273186,36.828886],[-87.273428,36.823732],[-87.272537,36.822534],[-87.263284,36.821611],[-87.260223,36.84151],[-87.247256,36.840027],[-87.242812,36.838735],[-87.23809,36.836408],[-87.239497,36.834657],[-87.247466,36.821602],[-87.243771,36.820724],[-87.236666,36.819883],[-87.233655,36.819297],[-87.235359,36.817245],[-87.231527,36.815711],[-87.230957,36.814704],[-87.228763,36.815255],[-87.224632,36.813425],[-87.223036,36.810289],[-87.221325,36.808779],[-87.219418,36.810061],[-87.21651,36.806606],[-87.215433,36.804725],[-87.217015,36.802646],[-87.218447,36.797867],[-87.220838,36.795861],[-87.224418,36.79492],[-87.226652,36.793886],[-87.228969,36.794007],[-87.231729,36.793323],[-87.232303,36.790848],[-87.233936,36.790483],[-87.228326,36.78951],[-87.226928,36.788235],[-87.225437,36.783594],[-87.222309,36.784387],[-87.220249,36.786825],[-87.219066,36.78726],[-87.213095,36.787786],[-87.213046,36.786301],[-87.169178,36.789126],[-87.169318,36.787436],[-87.164027,36.787436],[-87.163547,36.781696],[-87.164012,36.779522],[-87.167723,36.77929],[-87.167435,36.778526],[-87.164282,36.778479],[-87.166404,36.772194],[-87.166995,36.765691],[-87.158629,36.767288],[-87.154435,36.773025],[-87.152267,36.775846],[-87.150151,36.779791],[-87.149449,36.779179],[-87.145148,36.777353],[-87.143931,36.774904],[-87.142077,36.774194],[-87.14114,36.772812],[-87.141395,36.771109],[-87.140263,36.76795],[-87.13893,36.766168],[-87.12921,36.757822],[-87.125,36.761139],[-87.113918,36.769142],[-87.104775,36.761851],[-87.102358,36.760739],[-87.097593,36.759275],[-87.09653,36.758346],[-87.096179,36.757517],[-87.096631,36.753664],[-87.09578,36.748585],[-87.080285,36.746957],[-87.078976,36.748619],[-87.068864,36.746122],[-87.067266,36.749963],[-87.067238,36.752535],[-87.066419,36.753974],[-87.06378,36.755457],[-87.062364,36.75844],[-87.06464,36.767059],[-87.072443,36.764883],[-87.074813,36.764052],[-87.078704,36.765119],[-87.080904,36.765042],[-87.082751,36.76736],[-87.082017,36.7692],[-87.084705,36.770315],[-87.087797,36.773105],[-87.089553,36.775697],[-87.091354,36.776446],[-87.090544,36.780278],[-87.089525,36.782213],[-87.08667,36.781561],[-87.083255,36.785191],[-87.083789,36.78841],[-87.081605,36.790571],[-87.079499,36.790697],[-87.07541,36.794808],[-87.074352,36.796628],[-87.074018,36.798345],[-87.072567,36.802212],[-87.067015,36.802396],[-87.056281,36.795877],[-87.058188,36.804718],[-87.056485,36.866093],[-87.056084,36.907919],[-87.058428,36.907122],[-87.061843,36.907375],[-87.079467,36.92092],[-87.082621,36.919793],[-87.085277,36.918774],[-87.09132,36.915592],[-87.10313,36.91129],[-87.104784,36.910097],[-87.111133,36.909553],[-87.120316,36.907624],[-87.123247,36.907561],[-87.126045,36.906831],[-87.129253,36.906773],[-87.131372,36.9087],[-87.152365,36.904916],[-87.155987,36.90724],[-87.158022,36.909963],[-87.144442,36.924241],[-87.145206,36.926991],[-87.143597,36.928013],[-87.142014,36.930639],[-87.138379,36.931682],[-87.134693,36.937269],[-87.133638,36.937549],[-87.131511,36.939576],[-87.131649,36.941495],[-87.130427,36.947598],[-87.129591,36.948719],[-87.127331,36.949674],[-87.126714,36.950586],[-87.127812,36.955257],[-87.126689,36.955855],[-87.127023,36.957971],[-87.126084,36.958976],[-87.127787,36.96211],[-87.126812,36.964884],[-87.12516,36.96729],[-87.126008,36.967934],[-87.125479,36.970186],[-87.125989,36.974522],[-87.123267,36.978248],[-87.12813,36.977947],[-87.128279,36.980272],[-87.12934,36.981888],[-87.131574,36.980625],[-87.133963,36.982544],[-87.137716,36.983524],[-87.139865,36.985761],[-87.143277,36.985933],[-87.151749,36.990528],[-87.14917,36.992218],[-87.148562,36.995216],[-87.144004,36.99621],[-87.146282,37.01452],[-87.146116,37.015944],[-87.147034,37.017691],[-87.148602,37.018945],[-87.1479,37.024918],[-87.148468,37.026187],[-87.147646,37.027138],[-87.148268,37.029941],[-87.147766,37.03188],[-87.14797,37.034881],[-87.146996,37.036985],[-87.148269,37.040222],[-87.147726,37.042247],[-87.146207,37.043801],[-87.250256,37.040557],[-87.251064,37.043084],[-87.249987,37.043431],[-87.249917,37.044819],[-87.25101,37.047654],[-87.250802,37.049067],[-87.252646,37.050531],[-87.255207,37.050562],[-87.259379,37.049775],[-87.260407,37.050052],[-87.261913,37.051633],[-87.262111,37.052719],[-87.260415,37.053901],[-87.258098,37.053632],[-87.255286,37.054818],[-87.254021,37.054463],[-87.253379,37.053304],[-87.253929,37.056728],[-87.252494,37.057743],[-87.248689,37.059346],[-87.248643,37.060503],[-87.249798,37.061061],[-87.251976,37.060674],[-87.254295,37.061566],[-87.256306,37.06031],[-87.257139,37.058284],[-87.259804,37.056906],[-87.261843,37.057462],[-87.294334,36.878839]]]]}},{"type":"Feature","properties":{"zcta5":"42232","AFFGEOID10":"8600000US42232","GEOID10":"42232","ALAND10":70235735,"AWATER10":335059,"county_name":"Christian","state_code":"KY","county_state":"Christian County, KY","county_fips":"21047","risk_level_county":"Higher Risk (60–69% vaccinated)","mean_vaccination_rate_county":68.94,"risk_level_zcta":"Medium Risk (70–79% vaccinated)","mean_vaccination_rate_zips":71.07,"cases":13},"geometry":{"type":"Polygon","coordinates":[[[-87.699769,36.929779],[-87.694873,36.927724],[-87.691702,36.925081],[-87.685937,36.919073],[-87.676487,36.915212],[-87.673203,36.913066],[-87.667213,36.912449],[-87.671871,36.878892],[-87.673761,36.827916],[-87.676406,36.828353],[-87.677896,36.829936],[-87.68143,36.831662],[-87.682202,36.830997],[-87.681833,36.828694],[-87.68223,36.827837],[-87.684779,36.82881],[-87.685832,36.828409],[-87.688976,36.829101],[-87.692661,36.829205],[-87.691854,36.823183],[-87.693337,36.821688],[-87.699783,36.822896],[-87.701635,36.822704],[-87.707137,36.823589],[-87.705407,36.820409],[-87.709436,36.821504],[-87.71211,36.789607],[-87.706405,36.785226],[-87.704204,36.781366],[-87.703681,36.778926],[-87.702487,36.778426],[-87.69776,36.779028],[-87.690379,36.78027],[-87.685684,36.780272],[-87.686736,36.783245],[-87.688006,36.789757],[-87.688008,36.790994],[-87.685261,36.792501],[-87.678843,36.794045],[-87.673674,36.793699],[-87.673872,36.825235],[-87.66599,36.827772],[-87.660534,36.829328],[-87.658762,36.828062],[-87.649769,36.822781],[-87.63999,36.835788],[-87.639995,36.838217],[-87.641166,36.843803],[-87.640038,36.842747],[-87.640381,36.840824],[-87.639547,36.840675],[-87.637508,36.844269],[-87.63713,36.846137],[-87.635086,36.845696],[-87.636049,36.847455],[-87.631788,36.849096],[-87.632252,36.850855],[-87.629139,36.853145],[-87.628851,36.85487],[-87.629965,36.85597],[-87.633165,36.855438],[-87.633718,36.85645],[-87.633819,36.85934],[-87.635637,36.860171],[-87.634774,36.862258],[-87.632464,36.860191],[-87.630406,36.859899],[-87.631096,36.860867],[-87.630493,36.862844],[-87.631846,36.864549],[-87.635046,36.865671],[-87.634102,36.868159],[-87.632355,36.868166],[-87.630856,36.870908],[-87.632477,36.877608],[-87.631835,36.878629],[-87.634556,36.877859],[-87.637526,36.877619],[-87.641072,36.877827],[-87.646833,36.879193],[-87.648986,36.8773],[-87.655764,36.877085],[-87.657618,36.876719],[-87.658173,36.882058],[-87.65448,36.881604],[-87.649197,36.880171],[-87.628653,36.887665],[-87.629155,36.886759],[-87.626929,36.885861],[-87.621659,36.884634],[-87.622593,36.886765],[-87.621554,36.888659],[-87.620657,36.893586],[-87.619488,36.895952],[-87.616685,36.898535],[-87.611591,36.900838],[-87.607942,36.90358],[-87.606325,36.906039],[-87.602607,36.910902],[-87.606494,36.911363],[-87.60851,36.912538],[-87.607882,36.913647],[-87.600919,36.912106],[-87.599402,36.915911],[-87.603537,36.91764],[-87.608686,36.920678],[-87.611106,36.918965],[-87.613928,36.920477],[-87.616252,36.920185],[-87.62177,36.921134],[-87.625193,36.92215],[-87.631229,36.925263],[-87.628171,36.928397],[-87.624836,36.932906],[-87.621113,36.934134],[-87.610666,36.934879],[-87.609099,36.934447],[-87.603715,36.934526],[-87.600887,36.935005],[-87.602666,36.936338],[-87.618833,36.947038],[-87.622809,36.943008],[-87.623758,36.942407],[-87.628113,36.941325],[-87.633156,36.943454],[-87.635392,36.942342],[-87.63826,36.939354],[-87.63947,36.93891],[-87.641312,36.939213],[-87.643923,36.938737],[-87.646825,36.93909],[-87.65486,36.940901],[-87.663185,36.941465],[-87.664036,36.935341],[-87.670147,36.934323],[-87.671571,36.935312],[-87.674733,36.936142],[-87.678498,36.934879],[-87.682667,36.935742],[-87.683844,36.934319],[-87.686281,36.934439],[-87.686699,36.935066],[-87.691381,36.936121],[-87.693058,36.93822],[-87.694366,36.937753],[-87.695906,36.939725],[-87.697016,36.94344],[-87.697981,36.943528],[-87.698864,36.945786],[-87.70315,36.945747],[-87.701842,36.936276],[-87.699769,36.929779]]]}},{"type":"Feature","properties":{"zcta5":"42453","AFFGEOID10":"8600000US42453","GEOID10":"42453","ALAND10":42396017,"AWATER10":600180,"county_name":"Christian","state_code":"KY","county_state":"Christian County, KY","county_fips":"21047","risk_level_county":"Higher Risk (60–69% vaccinated)","mean_vaccination_rate_county":68.94,"risk_level_zcta":"Higher Risk (60–69% vaccinated)","mean_vaccination_rate_zips":68.78,"cases":13},"geometry":{"type":"MultiPolygon","coordinates":[[[[-87.554373,37.180865],[-87.554356,37.18081],[-87.554054,37.179508],[-87.5515,37.179775],[-87.551596,37.17738],[-87.549679,37.174942],[-87.547288,37.175717],[-87.54611,37.17928],[-87.548221,37.180145],[-87.541737,37.180964],[-87.54182,37.184556],[-87.551652,37.181104],[-87.55338,37.18087],[-87.554373,37.180865]]],[[[-87.561834,37.19667],[-87.560258,37.195166],[-87.560777,37.19374],[-87.560205,37.188549],[-87.559732,37.186845],[-87.562267,37.185678],[-87.562971,37.18377],[-87.565082,37.183739],[-87.570812,37.193228],[-87.570889,37.194904],[-87.582882,37.192567],[-87.591243,37.187174],[-87.588625,37.187624],[-87.585764,37.187472],[-87.583212,37.186731],[-87.5774,37.184459],[-87.580921,37.181224],[-87.584813,37.181541],[-87.593189,37.179095],[-87.592174,37.180804],[-87.593281,37.186669],[-87.595829,37.186133],[-87.596229,37.183948],[-87.603978,37.179017],[-87.605201,37.177892],[-87.610659,37.174728],[-87.611295,37.171997],[-87.640137,37.167814],[-87.647384,37.165167],[-87.660358,37.163927],[-87.668356,37.16434],[-87.671472,37.166083],[-87.672186,37.167319],[-87.673886,37.174102],[-87.675119,37.173461],[-87.675683,37.170636],[-87.676733,37.168884],[-87.679907,37.168356],[-87.679048,37.166794],[-87.679475,37.164883],[-87.67716,37.16451],[-87.674242,37.162553],[-87.673432,37.163125],[-87.669127,37.161558],[-87.66634,37.162475],[-87.665489,37.160788],[-87.664246,37.160607],[-87.665907,37.162937],[-87.664925,37.163338],[-87.662804,37.161606],[-87.658211,37.162045],[-87.660588,37.158952],[-87.655905,37.158962],[-87.656359,37.156687],[-87.654499,37.156945],[-87.652111,37.154081],[-87.648205,37.154866],[-87.649421,37.153069],[-87.649456,37.151547],[-87.650583,37.148196],[-87.649055,37.146958],[-87.648115,37.147216],[-87.642171,37.145925],[-87.641379,37.144617],[-87.638313,37.142741],[-87.638275,37.142054],[-87.650087,37.147098],[-87.65035,37.146135],[-87.649193,37.142338],[-87.649811,37.140047],[-87.653114,37.136493],[-87.654975,37.135383],[-87.657679,37.134939],[-87.657796,37.134087],[-87.656822,37.133927],[-87.655594,37.13168],[-87.653638,37.131817],[-87.651957,37.131102],[-87.651306,37.12992],[-87.648664,37.128974],[-87.645082,37.128693],[-87.643365,37.130456],[-87.645141,37.133995],[-87.644516,37.134418],[-87.638223,37.13374],[-87.637153,37.132816],[-87.638595,37.131421],[-87.637971,37.130608],[-87.632994,37.13304],[-87.630269,37.132912],[-87.631205,37.129588],[-87.630998,37.124107],[-87.631431,37.12353],[-87.633695,37.123993],[-87.638022,37.125904],[-87.639356,37.124792],[-87.639238,37.12304],[-87.63814,37.121213],[-87.635731,37.120071],[-87.634183,37.120786],[-87.630654,37.120591],[-87.626166,37.121257],[-87.624602,37.120944],[-87.623295,37.125644],[-87.623495,37.12936],[-87.62232,37.135242],[-87.588549,37.124815],[-87.588282,37.125655],[-87.586091,37.12739],[-87.586079,37.130151],[-87.586795,37.132158],[-87.585838,37.136007],[-87.581913,37.137212],[-87.580769,37.137219],[-87.579536,37.138546],[-87.578347,37.138452],[-87.576886,37.138606],[-87.5767,37.137738],[-87.574689,37.136491],[-87.572897,37.136463],[-87.572163,37.137623],[-87.571106,37.137343],[-87.570035,37.135832],[-87.565512,37.13603],[-87.569631,37.138477],[-87.571817,37.140549],[-87.572939,37.143883],[-87.574412,37.144233],[-87.573264,37.148613],[-87.570718,37.152202],[-87.57005,37.154152],[-87.566901,37.160199],[-87.567398,37.161949],[-87.562436,37.165733],[-87.561696,37.170685],[-87.562452,37.171687],[-87.561991,37.174383],[-87.563744,37.176341],[-87.563766,37.179656],[-87.5627,37.179784],[-87.564685,37.183075],[-87.555402,37.183004],[-87.552402,37.183208],[-87.541316,37.187028],[-87.541912,37.188757],[-87.542068,37.195446],[-87.544166,37.199143],[-87.544603,37.199578],[-87.555485,37.197924],[-87.561834,37.19667]]]]}},{"type":"Feature","properties":{"zcta5":"42236","AFFGEOID10":"8600000US42236","GEOID10":"42236","ALAND10":172025625,"AWATER10":1828023,"county_name":"Christian","state_code":"KY","county_state":"Christian County, KY","county_fips":"21047","risk_level_county":"Higher Risk (60–69% vaccinated)","mean_vaccination_rate_county":68.94,"risk_level_zcta":"Medium Risk (70–79% vaccinated)","mean_vaccination_rate_zips":79.37,"cases":13},"geometry":{"type":"Polygon","coordinates":[[[-87.706405,36.785226],[-87.709593,36.784599],[-87.711472,36.78356],[-87.713452,36.781038],[-87.716471,36.779196],[-87.713554,36.779873],[-87.712304,36.778604],[-87.707615,36.770153],[-87.706112,36.76979],[-87.703217,36.771604],[-87.698511,36.773803],[-87.696864,36.774215],[-87.695204,36.773094],[-87.694671,36.771764],[-87.695436,36.768028],[-87.695463,36.763192],[-87.693776,36.760818],[-87.692806,36.760736],[-87.69075,36.762198],[-87.688346,36.766429],[-87.687411,36.767011],[-87.68642,36.766539],[-87.685252,36.763093],[-87.680363,36.759856],[-87.678034,36.758911],[-87.675473,36.756762],[-87.673771,36.756003],[-87.673949,36.754498],[-87.675151,36.753563],[-87.676286,36.754442],[-87.678347,36.75378],[-87.681424,36.753761],[-87.685858,36.755115],[-87.687005,36.754346],[-87.688188,36.752124],[-87.688082,36.750874],[-87.686589,36.749477],[-87.683904,36.748031],[-87.684311,36.746735],[-87.683837,36.743831],[-87.688229,36.738936],[-87.689927,36.737662],[-87.698324,36.732857],[-87.702769,36.731927],[-87.704134,36.731037],[-87.70583,36.72694],[-87.706951,36.725712],[-87.709484,36.725546],[-87.709593,36.722978],[-87.71244,36.720022],[-87.710918,36.719867],[-87.712962,36.71842],[-87.711051,36.716514],[-87.713152,36.715976],[-87.713289,36.71407],[-87.707263,36.713532],[-87.706988,36.714968],[-87.703785,36.714733],[-87.698826,36.715023],[-87.698844,36.71057],[-87.697816,36.709294],[-87.695298,36.711713],[-87.690757,36.711288],[-87.69089,36.709799],[-87.689896,36.709533],[-87.690525,36.704083],[-87.684096,36.701903],[-87.682749,36.703366],[-87.681609,36.709913],[-87.679612,36.709336],[-87.676733,36.706962],[-87.675815,36.705066],[-87.667865,36.674672],[-87.665269,36.669987],[-87.662429,36.665437],[-87.661869,36.662966],[-87.660628,36.661572],[-87.657255,36.663599],[-87.655802,36.664982],[-87.653093,36.662796],[-87.654394,36.661771],[-87.654582,36.660272],[-87.652768,36.657488],[-87.653474,36.657075],[-87.649404,36.656671],[-87.647938,36.656124],[-87.640847,36.651748],[-87.639998,36.651431],[-87.633395,36.650757],[-87.629404,36.65136],[-87.622302,36.65147],[-87.615877,36.65071],[-87.607353,36.648939],[-87.6019,36.648436],[-87.601191,36.653377],[-87.599151,36.653528],[-87.599587,36.655686],[-87.598644,36.657735],[-87.593703,36.657178],[-87.584435,36.656832],[-87.583252,36.661777],[-87.573209,36.660918],[-87.567461,36.653565],[-87.564687,36.650146],[-87.557354,36.652395],[-87.550677,36.651793],[-87.548487,36.656287],[-87.546202,36.660258],[-87.543218,36.668563],[-87.534141,36.708266],[-87.536651,36.708187],[-87.544765,36.70873],[-87.547306,36.709807],[-87.548415,36.712156],[-87.545557,36.711965],[-87.53493,36.729805],[-87.538357,36.73011],[-87.53767,36.734186],[-87.538163,36.736897],[-87.538204,36.741187],[-87.541559,36.742126],[-87.541219,36.744691],[-87.5428,36.746022],[-87.549921,36.748931],[-87.548589,36.752626],[-87.546192,36.757417],[-87.551086,36.760148],[-87.554342,36.756573],[-87.555175,36.754542],[-87.559148,36.754602],[-87.561532,36.751829],[-87.563787,36.754721],[-87.56615,36.756384],[-87.568673,36.756787],[-87.567574,36.754889],[-87.566901,36.751793],[-87.571359,36.748843],[-87.574917,36.747051],[-87.575859,36.742912],[-87.577869,36.743298],[-87.579822,36.745246],[-87.580645,36.748029],[-87.580873,36.751553],[-87.581661,36.752685],[-87.585512,36.756213],[-87.588214,36.757898],[-87.586716,36.767885],[-87.589516,36.769113],[-87.589677,36.77128],[-87.59079,36.774364],[-87.594035,36.773728],[-87.595542,36.771443],[-87.597581,36.770699],[-87.603181,36.770095],[-87.607122,36.774656],[-87.606191,36.775579],[-87.605575,36.780907],[-87.610628,36.779593],[-87.615087,36.785245],[-87.617336,36.785028],[-87.617373,36.787312],[-87.620256,36.789235],[-87.62857,36.796652],[-87.630185,36.798894],[-87.641792,36.788481],[-87.646225,36.791195],[-87.647162,36.791386],[-87.651519,36.790327],[-87.659532,36.79003],[-87.661768,36.792112],[-87.673674,36.793699],[-87.678843,36.794045],[-87.685261,36.792501],[-87.688008,36.790994],[-87.688006,36.789757],[-87.686736,36.783245],[-87.685684,36.780272],[-87.690379,36.78027],[-87.69776,36.779028],[-87.702487,36.778426],[-87.703681,36.778926],[-87.704204,36.781366],[-87.706405,36.785226]]]}},{"type":"Feature","properties":{"zcta5":"42223","AFFGEOID10":"8600000US42223","GEOID10":"42223","ALAND10":39235200,"AWATER10":0,"county_name":"Christian","state_code":"KY","county_state":"Christian County, KY","county_fips":"21047","risk_level_county":"Higher Risk (60–69% vaccinated)","mean_vaccination_rate_county":68.94,"risk_level_zcta":"Lowest Risk (85%+)","mean_vaccination_rate_zips":93.44,"cases":13},"geometry":{"type":"Polygon","coordinates":[[[-87.465399,36.677756],[-87.468808,36.675574],[-87.472095,36.671278],[-87.473289,36.670093],[-87.475788,36.670375],[-87.480146,36.669269],[-87.484654,36.669179],[-87.489973,36.664778],[-87.49431,36.660864],[-87.502149,36.656536],[-87.501715,36.654159],[-87.486191,36.651781],[-87.482372,36.651969],[-87.480196,36.652654],[-87.477976,36.653346],[-87.477271,36.650384],[-87.47748,36.648106],[-87.478245,36.642832],[-87.477431,36.641284],[-87.47567600179869,36.640241251907],[-87.47546370472129,36.6402439932157],[-87.474768,36.639337],[-87.474785,36.638179],[-87.477333,36.630047],[-87.479192,36.624203],[-87.481331,36.621801],[-87.482243,36.619044],[-87.496101,36.620791],[-87.497189,36.611871],[-87.497051,36.608938],[-87.498176,36.594142],[-87.497212,36.593655],[-87.465204,36.594118],[-87.461465,36.594138],[-87.465846,36.588613],[-87.463243,36.58971],[-87.461103,36.589321],[-87.458535,36.592464],[-87.452594,36.592546],[-87.45231,36.593948],[-87.451894,36.595711],[-87.438309,36.594298],[-87.437495,36.599876],[-87.435595,36.600039],[-87.429416,36.598723],[-87.424476,36.59813],[-87.423163,36.60047],[-87.427712,36.601971],[-87.428312,36.603206],[-87.426991,36.606932],[-87.430909,36.612997],[-87.431994,36.620118],[-87.434155,36.629448],[-87.435824,36.633197],[-87.436608,36.63651],[-87.4363256493118,36.6407517830615],[-87.4363215449599,36.640751890131504],[-87.436414,36.642596],[-87.44137,36.656589],[-87.442299,36.661017],[-87.44434,36.661391],[-87.444854,36.66239],[-87.452851,36.663462],[-87.452398,36.6666],[-87.462771,36.667588],[-87.461894,36.673897],[-87.467867,36.675393],[-87.465399,36.677756]]]}},{"type":"Feature","properties":{"zcta5":"42286","AFFGEOID10":"8600000US42286","GEOID10":"42286","ALAND10":148791954,"AWATER10":1014073,"county_name":"Christian","state_code":"KY","county_state":"Christian County, KY","county_fips":"21047","risk_level_county":"Higher Risk (60–69% vaccinated)","mean_vaccination_rate_county":68.94,"risk_level_zcta":"Higher Risk (60–69% vaccinated)","mean_vaccination_rate_zips":61.18,"cases":13},"geometry":{"type":"Polygon","coordinates":[[[-87.329946,36.676699],[-87.33597953375501,36.6415426709465],[-87.28558699894849,36.6417446434214],[-87.281506,36.641761],[-87.278398,36.641718],[-87.2493314837479,36.64183429253809],[-87.248841,36.647039],[-87.247221,36.655295],[-87.245971,36.657644],[-87.246874,36.662017],[-87.238938,36.662433],[-87.238685,36.665298],[-87.239337,36.669863],[-87.23821,36.672096],[-87.226753,36.670749],[-87.227009,36.66698],[-87.2229,36.666693],[-87.217121,36.664138],[-87.213814,36.665393],[-87.230023,36.686295],[-87.228469,36.689598],[-87.226375,36.690802],[-87.225277,36.69261],[-87.222384,36.694535],[-87.222761,36.696387],[-87.219916,36.698509],[-87.217235,36.701252],[-87.216103,36.703065],[-87.215196,36.706215],[-87.221883,36.708494],[-87.228513,36.711611],[-87.235043,36.71443],[-87.255459,36.721798],[-87.253945,36.723296],[-87.261359,36.726663],[-87.257202,36.733497],[-87.256244,36.734226],[-87.25129,36.73619],[-87.241918,36.738882],[-87.234817,36.740026],[-87.233498,36.740604],[-87.226326,36.746102],[-87.223749,36.751424],[-87.222472,36.752478],[-87.218322,36.753091],[-87.21727,36.754688],[-87.220035,36.75392],[-87.221647,36.755393],[-87.225327,36.754188],[-87.226874,36.757105],[-87.22819,36.761084],[-87.22972,36.766986],[-87.225728,36.768554],[-87.224032,36.771479],[-87.220722,36.774382],[-87.220112,36.776737],[-87.216909,36.778402],[-87.213193,36.782186],[-87.213046,36.786301],[-87.213095,36.787786],[-87.219066,36.78726],[-87.220249,36.786825],[-87.222309,36.784387],[-87.225437,36.783594],[-87.226928,36.788235],[-87.228326,36.78951],[-87.233936,36.790483],[-87.232303,36.790848],[-87.231729,36.793323],[-87.228969,36.794007],[-87.226652,36.793886],[-87.224418,36.79492],[-87.220838,36.795861],[-87.218447,36.797867],[-87.217015,36.802646],[-87.215433,36.804725],[-87.21651,36.806606],[-87.219418,36.810061],[-87.221325,36.808779],[-87.223036,36.810289],[-87.224632,36.813425],[-87.228763,36.815255],[-87.230957,36.814704],[-87.231527,36.815711],[-87.235359,36.817245],[-87.233655,36.819297],[-87.236666,36.819883],[-87.243771,36.820724],[-87.247466,36.821602],[-87.239497,36.834657],[-87.23809,36.836408],[-87.242812,36.838735],[-87.247256,36.840027],[-87.260223,36.84151],[-87.263284,36.821611],[-87.272537,36.822534],[-87.276417,36.822935],[-87.278062,36.814756],[-87.285108,36.814304],[-87.286112,36.809403],[-87.288251,36.806605],[-87.287492,36.803388],[-87.288323,36.802239],[-87.289078,36.796354],[-87.287035,36.794759],[-87.28868,36.791748],[-87.290868,36.7888],[-87.291503,36.785133],[-87.292096,36.779027],[-87.291676,36.778226],[-87.289078,36.777363],[-87.288588,36.776106],[-87.290313,36.772844],[-87.29635,36.768715],[-87.29701,36.76529],[-87.29932,36.762772],[-87.299674,36.760553],[-87.300314,36.76006],[-87.30589,36.759989],[-87.307511,36.758836],[-87.312916,36.756296],[-87.315854,36.757545],[-87.317161,36.750169],[-87.329946,36.676699]]]}}]}