{"type":"FeatureCollection","features":[{"type":"Feature","properties":{"zcta5":"62448","AFFGEOID10":"8600000US62448","GEOID10":"62448","ALAND10":528393452,"AWATER10":8854036,"county_name":"Clay","state_code":"IL","county_state":"Clay County, IL","county_fips":"17025","risk_level_county":"Medium Risk (70–79% vaccinated)","mean_vaccination_rate_county":74.06,"risk_level_zcta":"Medium Risk (70–79% vaccinated)","mean_vaccination_rate_zips":76.76,"cases":4},"geometry":{"type":"MultiPolygon","coordinates":[[[[-88.108695,38.848018],[-88.108329,38.84066],[-88.094573,38.841093],[-88.094607,38.848487],[-88.108695,38.848018]]],[[[-88.323893,38.945357],[-88.322682,38.942229],[-88.323502,38.939528],[-88.325436,38.937583],[-88.328102,38.93701],[-88.330592,38.934904],[-88.33528,38.933439],[-88.337184,38.932065],[-88.338082,38.928808],[-88.339655,38.927129],[-88.33959,38.925844],[-88.338204,38.924349],[-88.337033,38.921491],[-88.338297,38.918817],[-88.341319,38.91477],[-88.338919,38.913813],[-88.338451,38.912579],[-88.336755,38.911414],[-88.334445,38.907826],[-88.328967,38.904665],[-88.328572,38.90167],[-88.329972,38.900883],[-88.330313,38.898671],[-88.329863,38.896275],[-88.32877,38.894591],[-88.32861,38.891456],[-88.330477,38.88815],[-88.334034,38.887485],[-88.333916,38.883892],[-88.33497,38.882753],[-88.33629,38.879873],[-88.338072,38.877492],[-88.336578,38.877452],[-88.333532,38.876094],[-88.332393,38.873183],[-88.330548,38.872025],[-88.330695,38.870407],[-88.33207,38.868519],[-88.3355,38.867066],[-88.333086,38.866968],[-88.332925,38.858007],[-88.324474,38.857695],[-88.32369,38.858395],[-88.323828,38.87209],[-88.320396,38.871977],[-88.314584,38.87797],[-88.314593,38.879036],[-88.312869,38.87982],[-88.312659,38.896596],[-88.310784,38.896526],[-88.310755,38.894786],[-88.308939,38.895907],[-88.307298,38.895198],[-88.306125,38.891606],[-88.308116,38.891835],[-88.310577,38.891011],[-88.309025,38.890461],[-88.308997,38.887212],[-88.311663,38.88696],[-88.308032,38.885815],[-88.306657,38.884419],[-88.303249,38.885001],[-88.301767,38.881857],[-88.304727,38.87986],[-88.308845,38.878609],[-88.311013,38.875797],[-88.313608,38.875569],[-88.314093,38.873327],[-88.312491,38.872819],[-88.310755,38.870174],[-88.309191,38.869963],[-88.309248,38.866974],[-88.304978,38.864805],[-88.30107,38.862454],[-88.29972,38.859704],[-88.297904,38.858231],[-88.297091,38.856368],[-88.295847,38.856307],[-88.296126,38.885396],[-88.286849,38.884917],[-88.286758,38.877649],[-88.259046,38.876465],[-88.259772,38.854728],[-88.260681,38.852608],[-88.265016,38.847731],[-88.286539,38.848626],[-88.286362,38.833982],[-88.272392,38.833405],[-88.272427,38.827246],[-88.268844,38.829563],[-88.267919,38.833586],[-88.266223,38.836082],[-88.263418,38.836835],[-88.261109,38.836399],[-88.258533,38.836959],[-88.258454,38.821873],[-88.251749,38.821915],[-88.251749,38.825509],[-88.244333,38.825393],[-88.244146,38.818054],[-88.227974,38.81797],[-88.224403,38.819462],[-88.224338,38.822383],[-88.220541,38.82217],[-88.218142,38.822858],[-88.215773,38.824666],[-88.215481,38.825535],[-88.213052,38.826898],[-88.212937,38.829858],[-88.21162,38.830676],[-88.210572,38.832557],[-88.212428,38.832567],[-88.212428,38.830764],[-88.214444,38.830764],[-88.214444,38.829032],[-88.216242,38.829035],[-88.216114,38.84324],[-88.215131,38.847243],[-88.240361,38.847397],[-88.240016,38.848515],[-88.236388,38.850886],[-88.233844,38.854011],[-88.233759,38.856227],[-88.231916,38.858079],[-88.229107,38.859386],[-88.22848,38.861954],[-88.206071,38.861916],[-88.20584,38.872742],[-88.18656,38.872316],[-88.186504,38.861443],[-88.184501,38.86146],[-88.18554,38.858727],[-88.183616,38.856458],[-88.186036,38.852095],[-88.184643,38.851044],[-88.184345,38.848551],[-88.185497,38.846888],[-88.150265,38.846953],[-88.114494,38.847895],[-88.113695,38.849011],[-88.114338,38.850139],[-88.11343,38.851089],[-88.114492,38.854708],[-88.113909,38.856334],[-88.113738,38.859425],[-88.114325,38.860486],[-88.11222,38.862379],[-88.111483,38.863933],[-88.111894,38.865169],[-88.10888,38.866818],[-88.110002,38.867805],[-88.108868,38.868681],[-88.110008,38.869954],[-88.109866,38.871125],[-88.111303,38.87154],[-88.108217,38.876541],[-88.109249,38.87789],[-88.108429,38.878568],[-88.10916,38.880384],[-88.108398,38.883632],[-88.109891,38.886627],[-88.108982,38.888466],[-88.108806,38.891531],[-88.114813,38.896421],[-88.114872,38.897473],[-88.117159,38.900425],[-88.117716,38.901866],[-88.11971,38.903651],[-88.119025,38.906814],[-88.118677,38.907157],[-88.095791,38.907646],[-88.086512,38.892826],[-88.075775,38.893177],[-88.075632,38.908026],[-88.075491,38.922507],[-88.042597,38.923103],[-88.042447,38.935156],[-88.05639,38.937309],[-88.05633,38.948177],[-88.051754,38.948341],[-88.051599,38.955042],[-88.056692,38.955468],[-88.061234,38.962677],[-88.062494,38.963852],[-88.066891,38.965251],[-88.069564,38.965366],[-88.072675,38.96737],[-88.074868,38.965713],[-88.074594,38.97309],[-88.056016,38.973579],[-88.056064,38.96994],[-88.046594,38.970209],[-88.046686,38.966589],[-88.037283,38.966726],[-88.037154,38.973176],[-88.040488,38.97285],[-88.042365,38.973194],[-88.046469,38.975735],[-88.045325,38.977611],[-88.047905,38.977474],[-88.051513,38.980878],[-88.067013,38.980355],[-88.074743,38.980344],[-88.074699,38.98441],[-88.075457,38.985106],[-88.074663,38.987713],[-88.074574,38.995942],[-88.064875,38.995891],[-88.064963,38.999321],[-88.055576,38.999406],[-88.056359,39.024954],[-88.037573,39.024843],[-88.038024,39.03938],[-88.047409,39.039422],[-88.047883,39.05396],[-88.038431,39.053907],[-88.038728,39.068442],[-88.048191,39.068529],[-88.048336,39.08279],[-88.085133,39.082123],[-88.085501,39.089522],[-88.094824,39.08934],[-88.095249,39.103995],[-88.113988,39.10363],[-88.113717,39.096301],[-88.123154,39.096118],[-88.12311,39.095327],[-88.125653,39.094961],[-88.12304,39.093458],[-88.125825,39.093434],[-88.126845,39.094218],[-88.13075,39.094939],[-88.130777,39.095992],[-88.135335,39.096208],[-88.135521,39.088888],[-88.153037,39.090429],[-88.196279,39.090367],[-88.198787,39.090913],[-88.19867,39.093453],[-88.199639,39.094437],[-88.203751,39.096313],[-88.205514,39.09803],[-88.210479,39.100432],[-88.209833,39.101599],[-88.205867,39.101302],[-88.205985,39.103797],[-88.209717,39.104849],[-88.20942,39.107993],[-88.212919,39.109045],[-88.215172,39.112079],[-88.227224,39.101793],[-88.227296,39.112739],[-88.241487,39.112449],[-88.24623,39.112339],[-88.246095,39.097744],[-88.246022,39.08315],[-88.260258,39.083274],[-88.260565,39.078912],[-88.260561,39.06091],[-88.260027,39.060649],[-88.255591,39.066482],[-88.254711,39.066207],[-88.254918,39.064582],[-88.253362,39.064307],[-88.252747,39.062934],[-88.250398,39.060644],[-88.249359,39.061077],[-88.247156,39.059202],[-88.245982,39.059179],[-88.243299,39.057258],[-88.241268,39.057099],[-88.237025,39.055613],[-88.23355,39.055434],[-88.23425,39.05388],[-88.234174,39.04939],[-88.236904,39.049417],[-88.236894,39.038467],[-88.260518,39.0386],[-88.260354,39.023686],[-88.269142,39.024123],[-88.269005,39.021116],[-88.269797,39.019766],[-88.269211,38.995128],[-88.278961,38.995495],[-88.292893,38.996395],[-88.292755,38.979676],[-88.320235,38.980916],[-88.318751,38.977802],[-88.318836,38.975751],[-88.316782,38.972951],[-88.315549,38.972157],[-88.31584,38.968739],[-88.313639,38.96619],[-88.31355,38.9643],[-88.312434,38.961384],[-88.315246,38.959977],[-88.316124,38.957585],[-88.316487,38.953403],[-88.320251,38.950995],[-88.322611,38.948478],[-88.315469,38.948162],[-88.31544,38.944665],[-88.323893,38.945357]]],[[[-88.352384,38.945705],[-88.35234,38.9393],[-88.344203,38.938848],[-88.340207,38.938386],[-88.333985,38.938172],[-88.334007,38.945365],[-88.352384,38.945705]]]]}},{"type":"Feature","properties":{"zcta5":"62879","AFFGEOID10":"8600000US62879","GEOID10":"62879","ALAND10":530426,"AWATER10":0,"county_name":"Clay","state_code":"IL","county_state":"Clay County, IL","county_fips":"17025","risk_level_county":"Medium Risk (70–79% vaccinated)","mean_vaccination_rate_county":74.06,"risk_level_zcta":"Medium Risk (70–79% vaccinated)","mean_vaccination_rate_zips":76.89,"cases":4},"geometry":{"type":"Polygon","coordinates":[[[-88.366734,38.767983],[-88.366747,38.764342],[-88.363354,38.764279],[-88.362041,38.765588],[-88.362117,38.760508],[-88.359766,38.761454],[-88.359086,38.760401],[-88.356705,38.76217],[-88.356937,38.765471],[-88.355338,38.765403],[-88.355333,38.76759],[-88.366734,38.767983]]]}},{"type":"Feature","properties":{"zcta5":"62824","AFFGEOID10":"8600000US62824","GEOID10":"62824","ALAND10":274360882,"AWATER10":1448586,"county_name":"Clay","state_code":"IL","county_state":"Clay County, IL","county_fips":"17025","risk_level_county":"Medium Risk (70–79% vaccinated)","mean_vaccination_rate_county":74.06,"risk_level_zcta":"Lower Risk (80–84% vaccinated)","mean_vaccination_rate_zips":80.19,"cases":4},"geometry":{"type":"Polygon","coordinates":[[[-88.455681,38.603708],[-88.454957,38.602565],[-88.450403,38.600492],[-88.448276,38.598883],[-88.447163,38.599546],[-88.444008,38.599929],[-88.445443,38.597914],[-88.444509,38.59734],[-88.442988,38.598642],[-88.44179,38.597791],[-88.443548,38.596261],[-88.441884,38.596349],[-88.43538,38.594728],[-88.434503,38.591982],[-88.43185,38.59267],[-88.430946,38.593517],[-88.429632,38.591092],[-88.428466,38.591527],[-88.426661,38.594824],[-88.424153,38.594711],[-88.422081,38.593567],[-88.421499,38.594918],[-88.420128,38.594415],[-88.420188,38.59723],[-88.417534,38.596796],[-88.416135,38.598216],[-88.413773,38.597713],[-88.413803,38.599429],[-88.411994,38.598766],[-88.409807,38.599271],[-88.408904,38.598356],[-88.40897,38.595565],[-88.405113,38.595453],[-88.401154,38.594441],[-88.399985,38.596364],[-88.40097,38.597831],[-88.398257,38.595703],[-88.397179,38.597466],[-88.396011,38.594972],[-88.394087,38.595018],[-88.394553,38.593667],[-88.393561,38.59147],[-88.390732,38.591585],[-88.391227,38.588907],[-88.388428,38.589755],[-88.38799,38.588473],[-88.38522,38.588359],[-88.382304,38.588954],[-88.383,38.587848],[-88.364571,38.588282],[-88.364771,38.573532],[-88.368172,38.573646],[-88.36344,38.571995],[-88.363061,38.570714],[-88.36,38.57156],[-88.358513,38.570278],[-88.36035,38.568745],[-88.359796,38.568081],[-88.357814,38.568859],[-88.357206,38.570406],[-88.354932,38.570224],[-88.353678,38.569377],[-88.353801,38.58011],[-88.349244,38.579897],[-88.349223,38.58699],[-88.330934,38.586692],[-88.330916,38.57574],[-88.335501,38.575711],[-88.335572,38.573884],[-88.349222,38.573991],[-88.349239,38.573407],[-88.346377,38.572533],[-88.349002,38.572585],[-88.349114,38.560892],[-88.347388,38.560854],[-88.347422,38.558102],[-88.337525,38.557846],[-88.335703,38.560081],[-88.335622,38.557771],[-88.312373,38.557223],[-88.312427,38.564498],[-88.293796,38.563809],[-88.293631,38.556472],[-88.275744,38.556012],[-88.275786,38.569867],[-88.257086,38.569729],[-88.257465,38.599137],[-88.253978,38.599502],[-88.253387,38.600529],[-88.251444,38.599778],[-88.249131,38.601508],[-88.249432,38.602484],[-88.251991,38.603742],[-88.251985,38.605182],[-88.257791,38.607155],[-88.259046,38.606351],[-88.260638,38.607465],[-88.259325,38.609],[-88.261109,38.609609],[-88.262798,38.608497],[-88.263447,38.609145],[-88.263107,38.61069],[-88.265136,38.611048],[-88.267097,38.612711],[-88.270075,38.611886],[-88.271751,38.612715],[-88.27205,38.613672],[-88.271269,38.616677],[-88.269449,38.617444],[-88.2693,38.618415],[-88.270978,38.619288],[-88.272579,38.619682],[-88.274304,38.618601],[-88.275107,38.616853],[-88.276636,38.615871],[-88.278265,38.616378],[-88.277727,38.617993],[-88.276495,38.618742],[-88.278812,38.620804],[-88.278604,38.61795],[-88.280952,38.616865],[-88.282464,38.616984],[-88.283104,38.618329],[-88.286439,38.619752],[-88.286409,38.620588],[-88.28305,38.622366],[-88.283263,38.623946],[-88.280931,38.624605],[-88.283092,38.625317],[-88.284392,38.626522],[-88.286368,38.625053],[-88.290386,38.625436],[-88.292421,38.626487],[-88.292295,38.627548],[-88.289418,38.628139],[-88.288711,38.629047],[-88.289263,38.630105],[-88.294373,38.633112],[-88.297444,38.634357],[-88.297204,38.635329],[-88.29532,38.636707],[-88.296005,38.638467],[-88.293707,38.639992],[-88.294135,38.641139],[-88.293356,38.642009],[-88.291466,38.641905],[-88.289043,38.642645],[-88.287222,38.642693],[-88.287831,38.643555],[-88.290305,38.642975],[-88.290896,38.643976],[-88.287964,38.645379],[-88.286967,38.647127],[-88.284222,38.648734],[-88.284472,38.650052],[-88.282931,38.650399],[-88.280256,38.652349],[-88.279799,38.653227],[-88.276745,38.653675],[-88.275443,38.654478],[-88.276774,38.655195],[-88.27435,38.656104],[-88.273135,38.657919],[-88.276615,38.659298],[-88.274591,38.660382],[-88.27594,38.661409],[-88.27519,38.662239],[-88.272803,38.662512],[-88.272297,38.663558],[-88.273115,38.665226],[-88.274823,38.665529],[-88.274374,38.666897],[-88.276155,38.668032],[-88.276401,38.669377],[-88.279407,38.6697],[-88.279822,38.672444],[-88.278103,38.674615],[-88.279006,38.676811],[-88.281324,38.678525],[-88.281689,38.679702],[-88.284479,38.681432],[-88.283465,38.682768],[-88.28165,38.683816],[-88.283078,38.684679],[-88.284322,38.687629],[-88.283558,38.68827],[-88.285198,38.688743],[-88.284307,38.689957],[-88.282268,38.690037],[-88.281931,38.690735],[-88.283753,38.6916],[-88.284815,38.692904],[-88.284926,38.694885],[-88.282074,38.694905],[-88.28149,38.695688],[-88.282989,38.696248],[-88.283325,38.699278],[-88.285377,38.698985],[-88.284832,38.699996],[-88.286272,38.702076],[-88.284122,38.702684],[-88.285859,38.703622],[-88.286207,38.704969],[-88.284105,38.705796],[-88.285799,38.706506],[-88.285384,38.708075],[-88.282941,38.707574],[-88.282406,38.708242],[-88.284451,38.7087],[-88.284109,38.709616],[-88.286286,38.711022],[-88.284275,38.711127],[-88.283425,38.712515],[-88.284925,38.713503],[-88.283045,38.714427],[-88.282294,38.716227],[-88.282813,38.716773],[-88.284559,38.715884],[-88.28625,38.716042],[-88.286393,38.718138],[-88.28164,38.720354],[-88.284322,38.719756],[-88.286012,38.720653],[-88.283585,38.723087],[-88.284649,38.724432],[-88.28297,38.724983],[-88.282679,38.725957],[-88.286518,38.727017],[-88.287079,38.727936],[-88.285264,38.727426],[-88.282739,38.729769],[-88.282239,38.731279],[-88.28351,38.731807],[-88.290338,38.732121],[-88.290864,38.733977],[-88.295947,38.739036],[-88.297557,38.747509],[-88.300114,38.752268],[-88.304221,38.755504],[-88.306311,38.759129],[-88.30807,38.759673],[-88.307134,38.762168],[-88.310723,38.762281],[-88.310712,38.766247],[-88.308713,38.766201],[-88.310237,38.767132],[-88.309366,38.769113],[-88.310725,38.769184],[-88.31061,38.778557],[-88.305174,38.778281],[-88.305098,38.779758],[-88.29973,38.77962],[-88.299695,38.777342],[-88.294459,38.778963],[-88.296555,38.779413],[-88.296187,38.790418],[-88.299762,38.790548],[-88.340439,38.792603],[-88.340056,38.793549],[-88.338119,38.794066],[-88.33834,38.796048],[-88.349388,38.796575],[-88.350642,38.795467],[-88.350657,38.793006],[-88.361014,38.793509],[-88.36185,38.793579],[-88.361963,38.786215],[-88.376,38.786455],[-88.37607,38.771773],[-88.371403,38.771707],[-88.371474,38.764435],[-88.377942,38.764908],[-88.383261,38.767009],[-88.386448,38.76598],[-88.390661,38.766512],[-88.396882,38.771779],[-88.404251,38.771582],[-88.404002,38.762379],[-88.399539,38.762299],[-88.39972,38.754002],[-88.409107,38.754146],[-88.409125,38.739698],[-88.413873,38.739581],[-88.413855,38.735691],[-88.41856,38.735769],[-88.418627,38.726483],[-88.416308,38.726515],[-88.41864,38.724713],[-88.41869,38.721091],[-88.433371,38.721077],[-88.433241,38.718847],[-88.430473,38.717765],[-88.430799,38.715864],[-88.430139,38.713478],[-88.428808,38.712185],[-88.428815,38.703036],[-88.438213,38.703161],[-88.437858,38.691993],[-88.42883,38.691894],[-88.428856,38.674078],[-88.41924,38.675002],[-88.419503,38.661794],[-88.416434,38.659825],[-88.416138,38.657658],[-88.414417,38.657442],[-88.415032,38.656082],[-88.412436,38.655861],[-88.412644,38.653303],[-88.411245,38.651985],[-88.413058,38.649813],[-88.412331,38.64836],[-88.413044,38.647415],[-88.415014,38.647437],[-88.415014,38.643317],[-88.418136,38.643316],[-88.419451,38.642596],[-88.419446,38.632934],[-88.415982,38.632739],[-88.416424,38.631478],[-88.414968,38.63107],[-88.415904,38.629849],[-88.415509,38.628429],[-88.410196,38.628414],[-88.410599,38.617356],[-88.419439,38.617487],[-88.419813,38.602879],[-88.455681,38.603708]],[[-88.366734,38.767983],[-88.355333,38.76759],[-88.355338,38.765403],[-88.356937,38.765471],[-88.356705,38.76217],[-88.359086,38.760401],[-88.359766,38.761454],[-88.362117,38.760508],[-88.362041,38.765588],[-88.363354,38.764279],[-88.366747,38.764342],[-88.366734,38.767983]]]}},{"type":"Feature","properties":{"zcta5":"62839","AFFGEOID10":"8600000US62839","GEOID10":"62839","ALAND10":189923391,"AWATER10":419278,"county_name":"Clay","state_code":"IL","county_state":"Clay County, IL","county_fips":"17025","risk_level_county":"Medium Risk (70–79% vaccinated)","mean_vaccination_rate_county":74.06,"risk_level_zcta":"Lower Risk (80–84% vaccinated)","mean_vaccination_rate_zips":82.21,"cases":4},"geometry":{"type":"Polygon","coordinates":[[[-88.583341,38.70966],[-88.583953,38.653322],[-88.580849,38.65446],[-88.58081,38.650964],[-88.583967,38.65091],[-88.584531,38.607309],[-88.470183,38.60431],[-88.455681,38.603708],[-88.419813,38.602879],[-88.419439,38.617487],[-88.410599,38.617356],[-88.410196,38.628414],[-88.415509,38.628429],[-88.415904,38.629849],[-88.414968,38.63107],[-88.416424,38.631478],[-88.415982,38.632739],[-88.419446,38.632934],[-88.419451,38.642596],[-88.418136,38.643316],[-88.415014,38.643317],[-88.415014,38.647437],[-88.413044,38.647415],[-88.412331,38.64836],[-88.413058,38.649813],[-88.411245,38.651985],[-88.412644,38.653303],[-88.412436,38.655861],[-88.415032,38.656082],[-88.414417,38.657442],[-88.416138,38.657658],[-88.416434,38.659825],[-88.419503,38.661794],[-88.41924,38.675002],[-88.428856,38.674078],[-88.42883,38.691894],[-88.437858,38.691993],[-88.438213,38.703161],[-88.428815,38.703036],[-88.428808,38.712185],[-88.430139,38.713478],[-88.430799,38.715864],[-88.430473,38.717765],[-88.433241,38.718847],[-88.433371,38.721077],[-88.41869,38.721091],[-88.41864,38.724713],[-88.416308,38.726515],[-88.418627,38.726483],[-88.41856,38.735769],[-88.470401,38.737011],[-88.484667,38.737146],[-88.489432,38.737137],[-88.489477,38.722423],[-88.554727,38.724072],[-88.554692,38.72042],[-88.559887,38.720294],[-88.563924,38.715663],[-88.563986,38.709529],[-88.583341,38.70966]]]}},{"type":"Feature","properties":{"zcta5":"62434","AFFGEOID10":"8600000US62434","GEOID10":"62434","ALAND10":69027481,"AWATER10":111291,"county_name":"Clay","state_code":"IL","county_state":"Clay County, IL","county_fips":"17025","risk_level_county":"Medium Risk (70–79% vaccinated)","mean_vaccination_rate_county":74.06,"risk_level_zcta":"Uninhabited","mean_vaccination_rate_zips":null,"cases":4},"geometry":{"type":"Polygon","coordinates":[[[-88.361777,38.898538],[-88.366525,38.898563],[-88.366434,38.896386],[-88.38032,38.896565],[-88.380244,38.882012],[-88.370405,38.881765],[-88.370219,38.874419],[-88.361913,38.874126],[-88.361758,38.852124],[-88.361745,38.848445],[-88.380518,38.848987],[-88.380109,38.84273],[-88.380162,38.837969],[-88.361672,38.83739],[-88.361833,38.795046],[-88.361014,38.793509],[-88.350657,38.793006],[-88.350642,38.795467],[-88.349388,38.796575],[-88.33834,38.796048],[-88.338119,38.794066],[-88.340056,38.793549],[-88.340439,38.792603],[-88.299762,38.790548],[-88.299924,38.819546],[-88.300153,38.823489],[-88.29549,38.823482],[-88.295632,38.834377],[-88.286362,38.833982],[-88.286539,38.848626],[-88.265016,38.847731],[-88.260681,38.852608],[-88.259772,38.854728],[-88.259046,38.876465],[-88.286758,38.877649],[-88.286849,38.884917],[-88.296126,38.885396],[-88.295847,38.856307],[-88.297091,38.856368],[-88.297904,38.858231],[-88.29972,38.859704],[-88.30107,38.862454],[-88.304978,38.864805],[-88.309248,38.866974],[-88.309191,38.869963],[-88.310755,38.870174],[-88.312491,38.872819],[-88.314093,38.873327],[-88.313608,38.875569],[-88.311013,38.875797],[-88.308845,38.878609],[-88.304727,38.87986],[-88.301767,38.881857],[-88.303249,38.885001],[-88.306657,38.884419],[-88.308032,38.885815],[-88.311663,38.88696],[-88.308997,38.887212],[-88.309025,38.890461],[-88.310577,38.891011],[-88.308116,38.891835],[-88.306125,38.891606],[-88.307298,38.895198],[-88.308939,38.895907],[-88.310755,38.894786],[-88.310784,38.896526],[-88.312659,38.896596],[-88.312869,38.87982],[-88.314593,38.879036],[-88.314584,38.87797],[-88.320396,38.871977],[-88.323828,38.87209],[-88.32369,38.858395],[-88.324474,38.857695],[-88.332925,38.858007],[-88.333086,38.866968],[-88.3355,38.867066],[-88.33207,38.868519],[-88.330695,38.870407],[-88.330548,38.872025],[-88.332393,38.873183],[-88.333532,38.876094],[-88.336578,38.877452],[-88.338072,38.877492],[-88.33629,38.879873],[-88.351672,38.880774],[-88.351614,38.895321],[-88.361212,38.895829],[-88.361812,38.89607],[-88.361777,38.898538]]]}},{"type":"Feature","properties":{"zcta5":"62858","AFFGEOID10":"8600000US62858","GEOID10":"62858","ALAND10":399135475,"AWATER10":794691,"county_name":"Clay","state_code":"IL","county_state":"Clay County, IL","county_fips":"17025","risk_level_county":"Medium Risk (70–79% vaccinated)","mean_vaccination_rate_county":74.06,"risk_level_zcta":"Medium Risk (70–79% vaccinated)","mean_vaccination_rate_zips":73.27,"cases":4},"geometry":{"type":"Polygon","coordinates":[[[-88.580692,38.875958],[-88.581447,38.838457],[-88.589251,38.838149],[-88.590586,38.836676],[-88.585902,38.834615],[-88.587434,38.833207],[-88.585779,38.831623],[-88.587885,38.831843],[-88.590109,38.830873],[-88.594732,38.830809],[-88.59798,38.831321],[-88.603245,38.830797],[-88.605702,38.830145],[-88.609155,38.830291],[-88.612167,38.827171],[-88.619132,38.827136],[-88.619287,38.81212],[-88.633002,38.811936],[-88.635909,38.8138],[-88.636249,38.813038],[-88.632419,38.810148],[-88.62929,38.809735],[-88.628063,38.808704],[-88.629029,38.806737],[-88.626486,38.805591],[-88.628798,38.803029],[-88.628243,38.802114],[-88.629356,38.800421],[-88.629676,38.798384],[-88.628765,38.796484],[-88.630075,38.793831],[-88.631884,38.792757],[-88.630006,38.790559],[-88.630058,38.78747],[-88.629296,38.786875],[-88.626805,38.787171],[-88.625404,38.785912],[-88.624215,38.786368],[-88.621837,38.785226],[-88.619776,38.785702],[-88.619876,38.782744],[-88.638557,38.782525],[-88.638425,38.798138],[-88.641086,38.797192],[-88.645824,38.796622],[-88.646234,38.797515],[-88.64793,38.796738],[-88.64866,38.797994],[-88.650298,38.798542],[-88.654713,38.798738],[-88.654988,38.797005],[-88.657008,38.796991],[-88.657268,38.782275],[-88.676627,38.782123],[-88.677835,38.785628],[-88.680501,38.786868],[-88.681059,38.788788],[-88.685233,38.790245],[-88.685286,38.785253],[-88.681753,38.783206],[-88.683618,38.767519],[-88.667065,38.767507],[-88.666298,38.765422],[-88.667324,38.762857],[-88.666682,38.760843],[-88.667237,38.760088],[-88.664783,38.75757],[-88.665368,38.75654],[-88.674181,38.752772],[-88.664819,38.754212],[-88.664793,38.756304],[-88.659892,38.757504],[-88.653202,38.757543],[-88.653047,38.759531],[-88.651741,38.761214],[-88.654766,38.763021],[-88.652976,38.764679],[-88.650673,38.765904],[-88.649816,38.76767],[-88.63875,38.767816],[-88.63898,38.755088],[-88.634763,38.75318],[-88.61567,38.753431],[-88.615982,38.74243],[-88.601677,38.742628],[-88.60168,38.738967],[-88.583015,38.739239],[-88.583341,38.70966],[-88.563986,38.709529],[-88.563924,38.715663],[-88.559887,38.720294],[-88.554692,38.72042],[-88.554727,38.724072],[-88.489477,38.722423],[-88.489432,38.737137],[-88.484667,38.737146],[-88.470401,38.737011],[-88.41856,38.735769],[-88.413855,38.735691],[-88.413873,38.739581],[-88.409125,38.739698],[-88.409107,38.754146],[-88.39972,38.754002],[-88.399539,38.762299],[-88.404002,38.762379],[-88.404251,38.771582],[-88.396882,38.771779],[-88.390661,38.766512],[-88.386448,38.76598],[-88.383261,38.767009],[-88.377942,38.764908],[-88.371474,38.764435],[-88.371403,38.771707],[-88.37607,38.771773],[-88.376,38.786455],[-88.361963,38.786215],[-88.36185,38.793579],[-88.361014,38.793509],[-88.361833,38.795046],[-88.361672,38.83739],[-88.380162,38.837969],[-88.380109,38.84273],[-88.380518,38.848987],[-88.361745,38.848445],[-88.361758,38.852124],[-88.361913,38.874126],[-88.370219,38.874419],[-88.370405,38.881765],[-88.380244,38.882012],[-88.38032,38.896565],[-88.366434,38.896386],[-88.366525,38.898563],[-88.361777,38.898538],[-88.361745,38.910847],[-88.417955,38.911951],[-88.418888,38.911895],[-88.437676,38.912252],[-88.437549,38.92707],[-88.469935,38.92753],[-88.48857,38.927933],[-88.488662,38.913263],[-88.488456,38.913259],[-88.488607,38.898489],[-88.507225,38.898821],[-88.507263,38.895071],[-88.521163,38.895345],[-88.521328,38.884363],[-88.525976,38.884122],[-88.526084,38.877343],[-88.52638,38.877126],[-88.546228,38.877684],[-88.547188,38.878324],[-88.550607,38.877827],[-88.565505,38.878278],[-88.568841,38.878069],[-88.573012,38.877271],[-88.573119,38.876021],[-88.575923,38.874221],[-88.578154,38.874235],[-88.580692,38.875958]]]}},{"type":"Feature","properties":{"zcta5":"62899","AFFGEOID10":"8600000US62899","GEOID10":"62899","ALAND10":266009453,"AWATER10":349003,"county_name":"Clay","state_code":"IL","county_state":"Clay County, IL","county_fips":"17025","risk_level_county":"Medium Risk (70–79% vaccinated)","mean_vaccination_rate_county":74.06,"risk_level_zcta":"Medium Risk (70–79% vaccinated)","mean_vaccination_rate_zips":71.04,"cases":4},"geometry":{"type":"Polygon","coordinates":[[[-88.697518,38.693366],[-88.698459,38.606062],[-88.699045,38.489264],[-88.699038,38.488308],[-88.699121,38.487664],[-88.697201,38.488434],[-88.69516,38.488084],[-88.693896,38.489703],[-88.692703,38.489978],[-88.691041,38.48824],[-88.692204,38.48666],[-88.690047,38.484099],[-88.687892,38.483734],[-88.6867,38.485474],[-88.683525,38.484263],[-88.683786,38.48321],[-88.685561,38.482065],[-88.681715,38.478565],[-88.677871,38.477606],[-88.676437,38.475168],[-88.659736,38.475193],[-88.651204,38.47543],[-88.65034,38.476536],[-88.650358,38.486428],[-88.657095,38.486299],[-88.657188,38.487933],[-88.658673,38.488848],[-88.658439,38.490061],[-88.65544,38.491022],[-88.654912,38.493683],[-88.65038,38.493749],[-88.650427,38.504579],[-88.627317,38.505163],[-88.627075,38.508802],[-88.622949,38.508894],[-88.622752,38.511682],[-88.636654,38.511468],[-88.636693,38.508925],[-88.641334,38.508925],[-88.641391,38.512073],[-88.636825,38.512157],[-88.636599,38.51601],[-88.636214,38.51945],[-88.621966,38.519812],[-88.620993,38.522261],[-88.620118,38.526374],[-88.641197,38.526622],[-88.641021,38.548394],[-88.622547,38.548794],[-88.622667,38.534329],[-88.612367,38.534474],[-88.61281,38.536114],[-88.610946,38.537258],[-88.611208,38.538517],[-88.610187,38.540416],[-88.609953,38.544261],[-88.608962,38.545245],[-88.607389,38.544558],[-88.605523,38.547144],[-88.602667,38.54918],[-88.587357,38.549197],[-88.582886,38.54891],[-88.574734,38.548877],[-88.574562,38.563453],[-88.564496,38.563121],[-88.5643,38.585042],[-88.584769,38.585181],[-88.584566,38.603671],[-88.603081,38.603443],[-88.603426,38.578062],[-88.591318,38.578247],[-88.590736,38.576091],[-88.590999,38.573642],[-88.592486,38.572384],[-88.592458,38.569889],[-88.594295,38.569249],[-88.595345,38.567899],[-88.595258,38.565977],[-88.597153,38.565565],[-88.597066,38.563849],[-88.598784,38.563595],[-88.608207,38.563429],[-88.60804,38.578018],[-88.621793,38.577903],[-88.621591,38.594822],[-88.624945,38.596329],[-88.614974,38.606999],[-88.584531,38.607309],[-88.583967,38.65091],[-88.58081,38.650964],[-88.580849,38.65446],[-88.583953,38.653322],[-88.583341,38.70966],[-88.583015,38.739239],[-88.60168,38.738967],[-88.601677,38.742628],[-88.615982,38.74243],[-88.61567,38.753431],[-88.634763,38.75318],[-88.63898,38.755088],[-88.63875,38.767816],[-88.649816,38.76767],[-88.650673,38.765904],[-88.652976,38.764679],[-88.654766,38.763021],[-88.651741,38.761214],[-88.653047,38.759531],[-88.653202,38.757543],[-88.659892,38.757504],[-88.664793,38.756304],[-88.664819,38.754212],[-88.674181,38.752772],[-88.665368,38.75654],[-88.664783,38.75757],[-88.667237,38.760088],[-88.666682,38.760843],[-88.667324,38.762857],[-88.666298,38.765422],[-88.667065,38.767507],[-88.683618,38.767519],[-88.692036,38.767576],[-88.696427,38.767283],[-88.697489,38.708561],[-88.697338,38.708392],[-88.697518,38.693366]]]}},{"type":"Feature","properties":{"zcta5":"62443","AFFGEOID10":"8600000US62443","GEOID10":"62443","ALAND10":190115087,"AWATER10":160820,"county_name":"Clay","state_code":"IL","county_state":"Clay County, IL","county_fips":"17025","risk_level_county":"Medium Risk (70–79% vaccinated)","mean_vaccination_rate_county":74.06,"risk_level_zcta":"Medium Risk (70–79% vaccinated)","mean_vaccination_rate_zips":76.75,"cases":4},"geometry":{"type":"Polygon","coordinates":[[[-88.786497,38.999559],[-88.786813,38.956063],[-88.773455,38.956336],[-88.76799,38.956619],[-88.768066,38.950686],[-88.77854,38.947414],[-88.779388,38.94785],[-88.786952,38.947504],[-88.78705,38.941442],[-88.768217,38.941949],[-88.768507,38.919959],[-88.777928,38.91968],[-88.778062,38.912409],[-88.765394,38.912538],[-88.754162,38.913127],[-88.750135,38.916776],[-88.749522,38.918837],[-88.749311,38.93518],[-88.730529,38.935598],[-88.73064,38.931942],[-88.711895,38.932429],[-88.711791,38.937945],[-88.715801,38.936229],[-88.718486,38.935955],[-88.721467,38.934993],[-88.722431,38.936207],[-88.725294,38.935383],[-88.726025,38.936115],[-88.73054,38.937014],[-88.730191,38.957611],[-88.711534,38.958076],[-88.711627,38.950731],[-88.693002,38.951225],[-88.692877,38.958768],[-88.653471,38.959012],[-88.653526,38.956024],[-88.656201,38.95413],[-88.656849,38.9516],[-88.653541,38.951624],[-88.65356,38.944373],[-88.633543,38.944437],[-88.633015,38.940952],[-88.629435,38.938469],[-88.627047,38.935818],[-88.627173,38.933762],[-88.625521,38.932916],[-88.620325,38.933541],[-88.612186,38.933792],[-88.613349,38.928624],[-88.611859,38.923614],[-88.612297,38.92251],[-88.616334,38.921798],[-88.61624,38.915331],[-88.571282,38.915209],[-88.573327,38.91415],[-88.572331,38.912846],[-88.577339,38.909138],[-88.57889,38.907239],[-88.579241,38.905705],[-88.576459,38.904905],[-88.575551,38.903509],[-88.573501,38.902548],[-88.568376,38.902045],[-88.570513,38.900214],[-88.570162,38.898086],[-88.572416,38.897994],[-88.572197,38.894623],[-88.573218,38.894384],[-88.574963,38.895823],[-88.575068,38.893532],[-88.572538,38.893097],[-88.571067,38.893746],[-88.570123,38.892747],[-88.572043,38.890567],[-88.575099,38.890528],[-88.573596,38.889159],[-88.57085,38.885035],[-88.569497,38.884543],[-88.567469,38.88496],[-88.564468,38.883854],[-88.564696,38.882465],[-88.565919,38.881767],[-88.569972,38.881501],[-88.571458,38.882241],[-88.572379,38.879623],[-88.568841,38.878069],[-88.565505,38.878278],[-88.550607,38.877827],[-88.547188,38.878324],[-88.546228,38.877684],[-88.52638,38.877126],[-88.526084,38.877343],[-88.525976,38.884122],[-88.521328,38.884363],[-88.521163,38.895345],[-88.507263,38.895071],[-88.507225,38.898821],[-88.488607,38.898489],[-88.488456,38.913259],[-88.488662,38.913263],[-88.48857,38.927933],[-88.469935,38.92753],[-88.469579,38.942368],[-88.47089,38.942286],[-88.504934,38.942915],[-88.506567,38.944053],[-88.507497,38.943239],[-88.511193,38.941965],[-88.515676,38.939786],[-88.517094,38.93841],[-88.518863,38.939713],[-88.521929,38.940392],[-88.52308,38.942269],[-88.526261,38.943049],[-88.526794,38.943897],[-88.531658,38.946738],[-88.539636,38.946308],[-88.539381,38.958417],[-88.543824,38.958288],[-88.543654,38.973036],[-88.539157,38.973052],[-88.539548,38.974101],[-88.544654,38.97932],[-88.545066,38.978365],[-88.543329,38.975975],[-88.545253,38.975411],[-88.547627,38.977173],[-88.549914,38.977242],[-88.551086,38.978272],[-88.550295,38.979187],[-88.551995,38.979187],[-88.554223,38.977929],[-88.55695,38.9777],[-88.559178,38.979188],[-88.558855,38.98484],[-88.559647,38.985389],[-88.562989,38.984176],[-88.565981,38.984268],[-88.568796,38.986304],[-88.570848,38.983375],[-88.573046,38.982551],[-88.573985,38.983237],[-88.57378,38.985411],[-88.577005,38.985617],[-88.58082,38.987609],[-88.582522,38.98777],[-88.587841,38.990704],[-88.587255,38.992977],[-88.585875,38.993608],[-88.580973,38.994495],[-88.57818,38.99622],[-88.577873,39.018216],[-88.587428,39.018111],[-88.587639,39.005671],[-88.587873,39.002842],[-88.605482,39.003008],[-88.606568,39.004266],[-88.607333,39.006623],[-88.610149,39.007789],[-88.611412,39.010099],[-88.613346,39.00781],[-88.616455,39.007626],[-88.616809,39.010097],[-88.61763,39.010852],[-88.618979,39.010416],[-88.620037,39.012224],[-88.622503,39.0149],[-88.62397,39.015769],[-88.625473,39.015564],[-88.628692,39.013052],[-88.630336,39.013398],[-88.632763,39.012304],[-88.635973,39.012419],[-88.640274,39.013747],[-88.643487,39.015601],[-88.648494,39.015646],[-88.65012,39.013792],[-88.652303,39.014226],[-88.6514,39.015439],[-88.653055,39.017567],[-88.653352,39.006593],[-88.657847,39.006552],[-88.657902,39.003106],[-88.692337,39.002551],[-88.692467,38.988302],[-88.711059,38.987319],[-88.711044,39.000044],[-88.710899,39.001797],[-88.729778,39.001427],[-88.729858,38.986912],[-88.735274,38.986739],[-88.735044,38.98847],[-88.736011,38.988291],[-88.740081,38.989638],[-88.743299,38.991403],[-88.747075,38.991906],[-88.748666,38.994095],[-88.748571,39.000816],[-88.767575,39.000179],[-88.767675,38.992718],[-88.768375,38.992427],[-88.769369,38.993435],[-88.773524,38.993646],[-88.777034,38.994896],[-88.777012,38.999878],[-88.786497,38.999559]]]}},{"type":"Feature","properties":{"zcta5":"62426","AFFGEOID10":"8600000US62426","GEOID10":"62426","ALAND10":122795346,"AWATER10":258645,"county_name":"Clay","state_code":"IL","county_state":"Clay County, IL","county_fips":"17025","risk_level_county":"Medium Risk (70–79% vaccinated)","mean_vaccination_rate_county":74.06,"risk_level_zcta":"Lower Risk (80–84% vaccinated)","mean_vaccination_rate_zips":82.2,"cases":4},"geometry":{"type":"Polygon","coordinates":[[[-88.568841,38.878069],[-88.572379,38.879623],[-88.571458,38.882241],[-88.569972,38.881501],[-88.565919,38.881767],[-88.564696,38.882465],[-88.564468,38.883854],[-88.567469,38.88496],[-88.569497,38.884543],[-88.57085,38.885035],[-88.573596,38.889159],[-88.575099,38.890528],[-88.572043,38.890567],[-88.570123,38.892747],[-88.571067,38.893746],[-88.572538,38.893097],[-88.575068,38.893532],[-88.574963,38.895823],[-88.573218,38.894384],[-88.572197,38.894623],[-88.572416,38.897994],[-88.570162,38.898086],[-88.570513,38.900214],[-88.568376,38.902045],[-88.573501,38.902548],[-88.575551,38.903509],[-88.576459,38.904905],[-88.579241,38.905705],[-88.57889,38.907239],[-88.577339,38.909138],[-88.572331,38.912846],[-88.573327,38.91415],[-88.571282,38.915209],[-88.61624,38.915331],[-88.616334,38.921798],[-88.612297,38.92251],[-88.611859,38.923614],[-88.613349,38.928624],[-88.612186,38.933792],[-88.620325,38.933541],[-88.625521,38.932916],[-88.627173,38.933762],[-88.627047,38.935818],[-88.629435,38.938469],[-88.633015,38.940952],[-88.633543,38.944437],[-88.65356,38.944373],[-88.653541,38.951624],[-88.656849,38.9516],[-88.656201,38.95413],[-88.653526,38.956024],[-88.653471,38.959012],[-88.692877,38.958768],[-88.693002,38.951225],[-88.711627,38.950731],[-88.711534,38.958076],[-88.730191,38.957611],[-88.73054,38.937014],[-88.726025,38.936115],[-88.725294,38.935383],[-88.722431,38.936207],[-88.721467,38.934993],[-88.718486,38.935955],[-88.715801,38.936229],[-88.711791,38.937945],[-88.711895,38.932429],[-88.73064,38.931942],[-88.730529,38.935598],[-88.749311,38.93518],[-88.749522,38.918837],[-88.750135,38.916776],[-88.754162,38.913127],[-88.735998,38.913626],[-88.736028,38.910168],[-88.732683,38.910184],[-88.731833,38.908765],[-88.730368,38.908171],[-88.730132,38.905562],[-88.728522,38.906182],[-88.725769,38.904696],[-88.725799,38.903735],[-88.728377,38.903552],[-88.727029,38.90234],[-88.725155,38.901747],[-88.723809,38.902388],[-88.72302,38.904952],[-88.720708,38.906052],[-88.719041,38.908388],[-88.717636,38.909076],[-88.716699,38.907657],[-88.715,38.908002],[-88.715588,38.909329],[-88.714211,38.91004],[-88.712454,38.907844],[-88.712425,38.906746],[-88.710581,38.906358],[-88.708824,38.903934],[-88.722617,38.892959],[-88.722109,38.888634],[-88.715483,38.889069],[-88.714165,38.889687],[-88.712607,38.88903],[-88.712726,38.884981],[-88.714836,38.882043],[-88.716504,38.881768],[-88.717906,38.879421],[-88.716888,38.878116],[-88.727108,38.870048],[-88.731779,38.865185],[-88.731915,38.858596],[-88.694624,38.858618],[-88.694616,38.858893],[-88.689851,38.858893],[-88.68991,38.856207],[-88.685184,38.856391],[-88.679283,38.856021],[-88.67329,38.854834],[-88.672423,38.852998],[-88.667741,38.849753],[-88.663469,38.847677],[-88.661774,38.842662],[-88.660662,38.842005],[-88.660926,38.839264],[-88.658996,38.83825],[-88.658616,38.835071],[-88.659159,38.833985],[-88.652337,38.834106],[-88.651531,38.845266],[-88.643614,38.845272],[-88.639377,38.844555],[-88.637928,38.843786],[-88.637551,38.84169],[-88.633977,38.840588],[-88.632936,38.841913],[-88.632859,38.843514],[-88.631191,38.844176],[-88.627809,38.84692],[-88.624614,38.847672],[-88.622885,38.849435],[-88.621506,38.849893],[-88.618651,38.849052],[-88.618386,38.861656],[-88.623042,38.861278],[-88.623147,38.865076],[-88.626364,38.864891],[-88.626436,38.866408],[-88.624373,38.868199],[-88.622618,38.86891],[-88.618277,38.868573],[-88.618088,38.878595],[-88.608677,38.87848],[-88.608468,38.871329],[-88.599888,38.871341],[-88.594804,38.871097],[-88.594463,38.885882],[-88.59681,38.886244],[-88.596632,38.893364],[-88.589963,38.893394],[-88.5846,38.889828],[-88.580462,38.889835],[-88.580692,38.875958],[-88.578154,38.874235],[-88.575923,38.874221],[-88.573119,38.876021],[-88.573012,38.877271],[-88.568841,38.878069]]]}},{"type":"Feature","properties":{"zcta5":"62854","AFFGEOID10":"8600000US62854","GEOID10":"62854","ALAND10":235258612,"AWATER10":3262577,"county_name":"Clay","state_code":"IL","county_state":"Clay County, IL","county_fips":"17025","risk_level_county":"Medium Risk (70–79% vaccinated)","mean_vaccination_rate_county":74.06,"risk_level_zcta":"Higher Risk (60–69% vaccinated)","mean_vaccination_rate_zips":66.64,"cases":4},"geometry":{"type":"Polygon","coordinates":[[[-88.976817,38.823599],[-88.976528,38.813259],[-88.975696,38.811818],[-88.975779,38.805883],[-88.976596,38.804772],[-88.97661,38.801675],[-88.960654,38.80189],[-88.95917,38.803707],[-88.955664,38.804191],[-88.955564,38.796082],[-88.955344,38.795508],[-88.953537,38.793757],[-88.951108,38.794017],[-88.951532,38.792754],[-88.949767,38.791514],[-88.945071,38.789948],[-88.943689,38.788455],[-88.942736,38.789276],[-88.939279,38.789018],[-88.937803,38.788445],[-88.936116,38.789498],[-88.93104,38.789679],[-88.930382,38.790265],[-88.930535,38.780438],[-88.921574,38.78063],[-88.921879,38.762988],[-88.890451,38.763006],[-88.893599,38.758854],[-88.868853,38.758829],[-88.868821,38.753321],[-88.864391,38.753335],[-88.863877,38.751552],[-88.854955,38.751573],[-88.854936,38.736978],[-88.827072,38.736946],[-88.827084,38.715149],[-88.822421,38.714842],[-88.822425,38.702733],[-88.830931,38.702743],[-88.835558,38.700646],[-88.845877,38.700648],[-88.845814,38.686132],[-88.822443,38.685972],[-88.822411,38.6787],[-88.81312,38.678705],[-88.808395,38.678987],[-88.799335,38.678778],[-88.799373,38.693457],[-88.794131,38.69333],[-88.781879,38.69337],[-88.78095,38.69353],[-88.780633,38.715522],[-88.772425,38.715299],[-88.764336,38.715357],[-88.764294,38.711753],[-88.763134,38.71176],[-88.761563,38.709591],[-88.763171,38.707898],[-88.763245,38.704514],[-88.743456,38.704521],[-88.743507,38.700811],[-88.734335,38.700559],[-88.734276,38.693461],[-88.717419,38.693397],[-88.707342,38.693626],[-88.705937,38.69327],[-88.697518,38.693366],[-88.697338,38.708392],[-88.697489,38.708561],[-88.696427,38.767283],[-88.692036,38.767576],[-88.683618,38.767519],[-88.681753,38.783206],[-88.685286,38.785253],[-88.695848,38.791255],[-88.741259,38.816242],[-88.744031,38.814653],[-88.745931,38.814561],[-88.751557,38.810963],[-88.751354,38.821442],[-88.75504,38.822591],[-88.758376,38.825299],[-88.779243,38.824912],[-88.781516,38.824777],[-88.782968,38.824859],[-88.826373,38.824434],[-88.829257,38.8243],[-88.93962,38.824109],[-88.976817,38.823599]]]}},{"type":"Feature","properties":{"zcta5":"62424","AFFGEOID10":"8600000US62424","GEOID10":"62424","ALAND10":223420922,"AWATER10":93524,"county_name":"Clay","state_code":"IL","county_state":"Clay County, IL","county_fips":"17025","risk_level_county":"Medium Risk (70–79% vaccinated)","mean_vaccination_rate_county":74.06,"risk_level_zcta":"Medium Risk (70–79% vaccinated)","mean_vaccination_rate_zips":78.53,"cases":4},"geometry":{"type":"Polygon","coordinates":[[[-88.539157,38.973052],[-88.543654,38.973036],[-88.543824,38.958288],[-88.539381,38.958417],[-88.539636,38.946308],[-88.531658,38.946738],[-88.526794,38.943897],[-88.526261,38.943049],[-88.52308,38.942269],[-88.521929,38.940392],[-88.518863,38.939713],[-88.517094,38.93841],[-88.515676,38.939786],[-88.511193,38.941965],[-88.507497,38.943239],[-88.506567,38.944053],[-88.504934,38.942915],[-88.47089,38.942286],[-88.469579,38.942368],[-88.469935,38.92753],[-88.437549,38.92707],[-88.437676,38.912252],[-88.418888,38.911895],[-88.417955,38.911951],[-88.361745,38.910847],[-88.361777,38.898538],[-88.361812,38.89607],[-88.361212,38.895829],[-88.351614,38.895321],[-88.351672,38.880774],[-88.33629,38.879873],[-88.33497,38.882753],[-88.333916,38.883892],[-88.334034,38.887485],[-88.330477,38.88815],[-88.32861,38.891456],[-88.32877,38.894591],[-88.329863,38.896275],[-88.330313,38.898671],[-88.329972,38.900883],[-88.328572,38.90167],[-88.328967,38.904665],[-88.334445,38.907826],[-88.336755,38.911414],[-88.338451,38.912579],[-88.338919,38.913813],[-88.341319,38.91477],[-88.338297,38.918817],[-88.337033,38.921491],[-88.338204,38.924349],[-88.33959,38.925844],[-88.339655,38.927129],[-88.338082,38.928808],[-88.337184,38.932065],[-88.33528,38.933439],[-88.330592,38.934904],[-88.328102,38.93701],[-88.325436,38.937583],[-88.323502,38.939528],[-88.322682,38.942229],[-88.323893,38.945357],[-88.334007,38.945365],[-88.333985,38.938172],[-88.340207,38.938386],[-88.344203,38.938848],[-88.35234,38.9393],[-88.352384,38.945705],[-88.362164,38.946303],[-88.360504,39.089872],[-88.442043,39.089204],[-88.442244,39.086679],[-88.442626,39.086015],[-88.445181,39.085695],[-88.447794,39.084734],[-88.447823,39.083223],[-88.449408,39.083704],[-88.452579,39.083474],[-88.454836,39.081389],[-88.459217,39.081275],[-88.464568,39.082533],[-88.469233,39.077172],[-88.467959,39.074235],[-88.467725,39.071439],[-88.467889,39.060185],[-88.451062,39.060376],[-88.451278,39.048208],[-88.453304,39.046836],[-88.455475,39.044044],[-88.4548,39.04322],[-88.457499,39.042029],[-88.4592,39.039147],[-88.458642,39.037636],[-88.4538,39.033655],[-88.449751,39.032649],[-88.448987,39.029491],[-88.452955,39.028063],[-88.451864,39.025362],[-88.451543,39.022798],[-88.451679,39.015679],[-88.467377,39.015624],[-88.487329,39.016066],[-88.487539,39.00254],[-88.494316,39.005391],[-88.503846,39.009037],[-88.506262,39.008792],[-88.506176,39.001722],[-88.50983,39.001879],[-88.511698,38.999738],[-88.514866,38.998584],[-88.514428,38.996799],[-88.51528,38.994076],[-88.518478,38.990553],[-88.519244,38.985795],[-88.517984,38.982407],[-88.521446,38.980001],[-88.525846,38.979887],[-88.526082,38.978228],[-88.528459,38.97569],[-88.527678,38.972694],[-88.539157,38.973052]]]}},{"type":"Feature","properties":{"zcta5":"62838","AFFGEOID10":"8600000US62838","GEOID10":"62838","ALAND10":221510818,"AWATER10":163036,"county_name":"Clay","state_code":"IL","county_state":"Clay County, IL","county_fips":"17025","risk_level_county":"Medium Risk (70–79% vaccinated)","mean_vaccination_rate_county":74.06,"risk_level_zcta":"Medium Risk (70–79% vaccinated)","mean_vaccination_rate_zips":74.15,"cases":4},"geometry":{"type":"Polygon","coordinates":[[[-88.860495,38.976782],[-88.857544,38.973096],[-88.857627,38.955194],[-88.880916,38.95518],[-88.881143,38.951551],[-88.899282,38.951535],[-88.899848,38.955209],[-88.908524,38.955245],[-88.909206,38.953036],[-88.911051,38.95267],[-88.911561,38.951742],[-88.914315,38.951839],[-88.914309,38.946315],[-88.917664,38.946164],[-88.919481,38.945615],[-88.926161,38.944952],[-88.926953,38.944083],[-88.932227,38.943282],[-88.929123,38.941665],[-88.929124,38.936913],[-88.927979,38.936852],[-88.926133,38.935388],[-88.922501,38.934312],[-88.924083,38.933374],[-88.924142,38.930766],[-88.929232,38.931143],[-88.929411,38.918913],[-88.923968,38.918981],[-88.924964,38.915435],[-88.924895,38.911599],[-88.919906,38.91168],[-88.919166,38.914793],[-88.910349,38.914723],[-88.91028,38.911664],[-88.904568,38.911635],[-88.904407,38.907105],[-88.903646,38.907585],[-88.897437,38.908635],[-88.89357,38.909938],[-88.888416,38.910141],[-88.885926,38.909293],[-88.885253,38.908422],[-88.881405,38.907464],[-88.881475,38.897195],[-88.806988,38.897102],[-88.807561,38.853581],[-88.807485,38.83905],[-88.826079,38.839013],[-88.826373,38.824434],[-88.782968,38.824859],[-88.781516,38.824777],[-88.779243,38.824912],[-88.758376,38.825299],[-88.75504,38.822591],[-88.751354,38.821442],[-88.751557,38.810963],[-88.745931,38.814561],[-88.744031,38.814653],[-88.741259,38.816242],[-88.695848,38.791255],[-88.685286,38.785253],[-88.685233,38.790245],[-88.681059,38.788788],[-88.680501,38.786868],[-88.677835,38.785628],[-88.676627,38.782123],[-88.657268,38.782275],[-88.657008,38.796991],[-88.654988,38.797005],[-88.654713,38.798738],[-88.650298,38.798542],[-88.64866,38.797994],[-88.64793,38.796738],[-88.646234,38.797515],[-88.645824,38.796622],[-88.641086,38.797192],[-88.638425,38.798138],[-88.638557,38.782525],[-88.619876,38.782744],[-88.619776,38.785702],[-88.621837,38.785226],[-88.624215,38.786368],[-88.625404,38.785912],[-88.626805,38.787171],[-88.629296,38.786875],[-88.630058,38.78747],[-88.630006,38.790559],[-88.631884,38.792757],[-88.630075,38.793831],[-88.628765,38.796484],[-88.629676,38.798384],[-88.629356,38.800421],[-88.628243,38.802114],[-88.628798,38.803029],[-88.626486,38.805591],[-88.629029,38.806737],[-88.628063,38.808704],[-88.62929,38.809735],[-88.632419,38.810148],[-88.636249,38.813038],[-88.635909,38.8138],[-88.633002,38.811936],[-88.619287,38.81212],[-88.619132,38.827136],[-88.612167,38.827171],[-88.609155,38.830291],[-88.605702,38.830145],[-88.603245,38.830797],[-88.59798,38.831321],[-88.594732,38.830809],[-88.590109,38.830873],[-88.587885,38.831843],[-88.585779,38.831623],[-88.587434,38.833207],[-88.585902,38.834615],[-88.590586,38.836676],[-88.589251,38.838149],[-88.581447,38.838457],[-88.580692,38.875958],[-88.580462,38.889835],[-88.5846,38.889828],[-88.589963,38.893394],[-88.596632,38.893364],[-88.59681,38.886244],[-88.594463,38.885882],[-88.594804,38.871097],[-88.599888,38.871341],[-88.608468,38.871329],[-88.608677,38.87848],[-88.618088,38.878595],[-88.618277,38.868573],[-88.622618,38.86891],[-88.624373,38.868199],[-88.626436,38.866408],[-88.626364,38.864891],[-88.623147,38.865076],[-88.623042,38.861278],[-88.618386,38.861656],[-88.618651,38.849052],[-88.621506,38.849893],[-88.622885,38.849435],[-88.624614,38.847672],[-88.627809,38.84692],[-88.631191,38.844176],[-88.632859,38.843514],[-88.632936,38.841913],[-88.633977,38.840588],[-88.637551,38.84169],[-88.637928,38.843786],[-88.639377,38.844555],[-88.643614,38.845272],[-88.651531,38.845266],[-88.652337,38.834106],[-88.659159,38.833985],[-88.658616,38.835071],[-88.658996,38.83825],[-88.660926,38.839264],[-88.660662,38.842005],[-88.661774,38.842662],[-88.663469,38.847677],[-88.667741,38.849753],[-88.672423,38.852998],[-88.67329,38.854834],[-88.679283,38.856021],[-88.685184,38.856391],[-88.68991,38.856207],[-88.689851,38.858893],[-88.694616,38.858893],[-88.694624,38.858618],[-88.731915,38.858596],[-88.731779,38.865185],[-88.727108,38.870048],[-88.716888,38.878116],[-88.717906,38.879421],[-88.716504,38.881768],[-88.714836,38.882043],[-88.712726,38.884981],[-88.712607,38.88903],[-88.714165,38.889687],[-88.715483,38.889069],[-88.722109,38.888634],[-88.722617,38.892959],[-88.708824,38.903934],[-88.710581,38.906358],[-88.712425,38.906746],[-88.712454,38.907844],[-88.714211,38.91004],[-88.715588,38.909329],[-88.715,38.908002],[-88.716699,38.907657],[-88.717636,38.909076],[-88.719041,38.908388],[-88.720708,38.906052],[-88.72302,38.904952],[-88.723809,38.902388],[-88.725155,38.901747],[-88.727029,38.90234],[-88.728377,38.903552],[-88.725799,38.903735],[-88.725769,38.904696],[-88.728522,38.906182],[-88.730132,38.905562],[-88.730368,38.908171],[-88.731833,38.908765],[-88.732683,38.910184],[-88.736028,38.910168],[-88.735998,38.913626],[-88.754162,38.913127],[-88.765394,38.912538],[-88.778062,38.912409],[-88.777928,38.91968],[-88.787371,38.919405],[-88.787248,38.926741],[-88.806667,38.927038],[-88.806359,38.955254],[-88.834369,38.955205],[-88.83457,38.971973],[-88.836651,38.971927],[-88.838028,38.970211],[-88.840373,38.969432],[-88.84439,38.972177],[-88.845006,38.973458],[-88.84495,38.976593],[-88.845918,38.977485],[-88.849582,38.977896],[-88.851107,38.979314],[-88.85354,38.978489],[-88.856559,38.97803],[-88.860495,38.976782]]]}},{"type":"Feature","properties":{"zcta5":"62868","AFFGEOID10":"8600000US62868","GEOID10":"62868","ALAND10":261168553,"AWATER10":326281,"county_name":"Clay","state_code":"IL","county_state":"Clay County, IL","county_fips":"17025","risk_level_county":"Medium Risk (70–79% vaccinated)","mean_vaccination_rate_county":74.06,"risk_level_zcta":"Medium Risk (70–79% vaccinated)","mean_vaccination_rate_zips":73.36,"cases":4},"geometry":{"type":"Polygon","coordinates":[[[-88.299762,38.790548],[-88.296187,38.790418],[-88.296555,38.779413],[-88.294459,38.778963],[-88.299695,38.777342],[-88.29973,38.77962],[-88.305098,38.779758],[-88.305174,38.778281],[-88.31061,38.778557],[-88.310725,38.769184],[-88.309366,38.769113],[-88.310237,38.767132],[-88.308713,38.766201],[-88.310712,38.766247],[-88.310723,38.762281],[-88.307134,38.762168],[-88.30807,38.759673],[-88.306311,38.759129],[-88.304221,38.755504],[-88.300114,38.752268],[-88.297557,38.747509],[-88.295947,38.739036],[-88.290864,38.733977],[-88.290338,38.732121],[-88.28351,38.731807],[-88.282239,38.731279],[-88.282739,38.729769],[-88.285264,38.727426],[-88.287079,38.727936],[-88.286518,38.727017],[-88.282679,38.725957],[-88.28297,38.724983],[-88.284649,38.724432],[-88.283585,38.723087],[-88.286012,38.720653],[-88.284322,38.719756],[-88.28164,38.720354],[-88.286393,38.718138],[-88.28625,38.716042],[-88.284559,38.715884],[-88.282813,38.716773],[-88.282294,38.716227],[-88.283045,38.714427],[-88.284925,38.713503],[-88.283425,38.712515],[-88.284275,38.711127],[-88.286286,38.711022],[-88.284109,38.709616],[-88.284451,38.7087],[-88.282406,38.708242],[-88.282941,38.707574],[-88.285384,38.708075],[-88.285799,38.706506],[-88.284105,38.705796],[-88.286207,38.704969],[-88.285859,38.703622],[-88.284122,38.702684],[-88.286272,38.702076],[-88.284832,38.699996],[-88.285377,38.698985],[-88.283325,38.699278],[-88.282989,38.696248],[-88.28149,38.695688],[-88.282074,38.694905],[-88.284926,38.694885],[-88.284815,38.692904],[-88.283753,38.6916],[-88.281931,38.690735],[-88.282268,38.690037],[-88.284307,38.689957],[-88.285198,38.688743],[-88.283558,38.68827],[-88.284322,38.687629],[-88.283078,38.684679],[-88.28165,38.683816],[-88.283465,38.682768],[-88.284479,38.681432],[-88.281689,38.679702],[-88.281324,38.678525],[-88.279006,38.676811],[-88.278103,38.674615],[-88.279822,38.672444],[-88.279407,38.6697],[-88.276401,38.669377],[-88.276155,38.668032],[-88.274374,38.666897],[-88.274823,38.665529],[-88.273115,38.665226],[-88.272297,38.663558],[-88.272803,38.662512],[-88.27519,38.662239],[-88.27594,38.661409],[-88.274591,38.660382],[-88.276615,38.659298],[-88.273135,38.657919],[-88.27435,38.656104],[-88.276774,38.655195],[-88.275443,38.654478],[-88.276745,38.653675],[-88.279799,38.653227],[-88.280256,38.652349],[-88.282931,38.650399],[-88.284472,38.650052],[-88.284222,38.648734],[-88.286967,38.647127],[-88.287964,38.645379],[-88.290896,38.643976],[-88.290305,38.642975],[-88.287831,38.643555],[-88.287222,38.642693],[-88.289043,38.642645],[-88.291466,38.641905],[-88.293356,38.642009],[-88.294135,38.641139],[-88.293707,38.639992],[-88.296005,38.638467],[-88.29532,38.636707],[-88.297204,38.635329],[-88.297444,38.634357],[-88.294373,38.633112],[-88.289263,38.630105],[-88.288711,38.629047],[-88.289418,38.628139],[-88.292295,38.627548],[-88.292421,38.626487],[-88.290386,38.625436],[-88.286368,38.625053],[-88.284392,38.626522],[-88.283092,38.625317],[-88.280931,38.624605],[-88.283263,38.623946],[-88.28305,38.622366],[-88.286409,38.620588],[-88.286439,38.619752],[-88.283104,38.618329],[-88.282464,38.616984],[-88.280952,38.616865],[-88.278604,38.61795],[-88.278812,38.620804],[-88.276495,38.618742],[-88.277727,38.617993],[-88.278265,38.616378],[-88.276636,38.615871],[-88.275107,38.616853],[-88.274304,38.618601],[-88.272579,38.619682],[-88.270978,38.619288],[-88.2693,38.618415],[-88.269449,38.617444],[-88.271269,38.616677],[-88.27205,38.613672],[-88.271751,38.612715],[-88.270075,38.611886],[-88.267097,38.612711],[-88.265136,38.611048],[-88.263107,38.61069],[-88.263447,38.609145],[-88.262798,38.608497],[-88.261109,38.609609],[-88.259325,38.609],[-88.260638,38.607465],[-88.259046,38.606351],[-88.257791,38.607155],[-88.251985,38.605182],[-88.251991,38.603742],[-88.249432,38.602484],[-88.249131,38.601508],[-88.251444,38.599778],[-88.253387,38.600529],[-88.253978,38.599502],[-88.240882,38.599516],[-88.240851,38.591025],[-88.224713,38.590534],[-88.223215,38.587701],[-88.224214,38.586311],[-88.224517,38.582744],[-88.225333,38.581471],[-88.232341,38.574014],[-88.230577,38.572768],[-88.230047,38.569289],[-88.227945,38.567071],[-88.223976,38.563962],[-88.221351,38.563186],[-88.220012,38.564057],[-88.217592,38.564036],[-88.212779,38.561865],[-88.211904,38.560882],[-88.211784,38.558158],[-88.210587,38.5569],[-88.206583,38.547588],[-88.20591,38.545094],[-88.201334,38.544639],[-88.200109,38.54361],[-88.198158,38.545053],[-88.196175,38.543864],[-88.195418,38.544734],[-88.196875,38.54526],[-88.197256,38.546907],[-88.194573,38.545124],[-88.192736,38.544576],[-88.186122,38.546204],[-88.187082,38.54364],[-88.184692,38.543916],[-88.184723,38.545953],[-88.183674,38.546412],[-88.183235,38.544123],[-88.182273,38.543803],[-88.18105,38.5452],[-88.179768,38.54488],[-88.177582,38.545522],[-88.173501,38.543075],[-88.169185,38.539689],[-88.168048,38.539209],[-88.166038,38.539942],[-88.163356,38.537723],[-88.161111,38.536511],[-88.159509,38.536694],[-88.161113,38.539189],[-88.160298,38.541203],[-88.157849,38.539006],[-88.155371,38.538114],[-88.154788,38.536261],[-88.149891,38.534683],[-88.147909,38.534536],[-88.148162,38.554553],[-88.147814,38.569086],[-88.153351,38.568912],[-88.153941,38.571708],[-88.152909,38.573548],[-88.153544,38.575881],[-88.157025,38.576092],[-88.157366,38.58316],[-88.156886,38.598002],[-88.148194,38.597987],[-88.148631,38.641792],[-88.1672,38.641962],[-88.167127,38.634617],[-88.185508,38.635222],[-88.185593,38.642166],[-88.16733,38.641962],[-88.167408,38.649253],[-88.185981,38.649405],[-88.185949,38.671399],[-88.167514,38.671175],[-88.16752,38.693148],[-88.186153,38.693256],[-88.186173,38.703814],[-88.167546,38.707161],[-88.167526,38.728979],[-88.168061,38.730391],[-88.168343,38.737083],[-88.205717,38.737534],[-88.205898,38.759784],[-88.224755,38.759898],[-88.224865,38.785573],[-88.223852,38.786038],[-88.223785,38.789494],[-88.22482,38.789496],[-88.224798,38.804099],[-88.224943,38.817996],[-88.227974,38.81797],[-88.244146,38.818054],[-88.244333,38.825393],[-88.251749,38.825509],[-88.251749,38.821915],[-88.258454,38.821873],[-88.258533,38.836959],[-88.261109,38.836399],[-88.263418,38.836835],[-88.266223,38.836082],[-88.267919,38.833586],[-88.268844,38.829563],[-88.272427,38.827246],[-88.272392,38.833405],[-88.286362,38.833982],[-88.295632,38.834377],[-88.29549,38.823482],[-88.300153,38.823489],[-88.299924,38.819546],[-88.299762,38.790548]]]}}]}