{"type":"FeatureCollection","features":[{"type":"Feature","properties":{"zcta5":"39759","AFFGEOID10":"8600000US39759","GEOID10":"39759","ALAND10":840470490,"AWATER10":7547574,"county_name":"Clay","state_code":"MS","county_state":"Clay County, MS","county_fips":"28025","risk_level_county":"Very High Risk (<60% vaccinated)","mean_vaccination_rate_county":59.39,"risk_level_zcta":"Medium Risk (70–79% vaccinated)","mean_vaccination_rate_zips":73.43,"cases":0},"geometry":{"type":"Polygon","coordinates":[[[-89.03637,33.541546],[-89.036509,33.530508],[-89.036264,33.526956],[-89.036908,33.524241],[-89.032893,33.520607],[-89.032628,33.517991],[-89.034558,33.515697],[-89.036013,33.512673],[-89.032085,33.510655],[-89.027739,33.509377],[-89.027771,33.491789],[-89.023647,33.490267],[-89.015721,33.488947],[-89.01116,33.487132],[-89.007436,33.485336],[-89.003246,33.484345],[-89.005263,33.483206],[-89.007218,33.47877],[-89.011697,33.474315],[-89.015039,33.470303],[-89.016203,33.469733],[-89.013759,33.466076],[-89.013494,33.461816],[-89.013797,33.458086],[-89.014456,33.457069],[-89.014672,33.449379],[-89.015265,33.446959],[-89.016914,33.444496],[-89.010152,33.442313],[-89.007521,33.44213],[-89.003251,33.443067],[-89.00107,33.446014],[-88.994543,33.446349],[-88.992959,33.446798],[-88.988836,33.446695],[-88.984674,33.447097],[-88.979949,33.447966],[-88.979808,33.447218],[-88.97489,33.447006],[-88.97492,33.448336],[-88.966499,33.448063],[-88.961775,33.446776],[-88.959492,33.446493],[-88.955272,33.446813],[-88.950931,33.445823],[-88.946942,33.44454],[-88.944867,33.442711],[-88.99361,33.403391],[-88.991396,33.40262],[-88.990642,33.399724],[-88.988714,33.398891],[-88.989098,33.395383],[-88.984576,33.392343],[-88.983225,33.39273],[-88.980785,33.391001],[-88.98092,33.389935],[-88.978618,33.387516],[-88.979175,33.385874],[-88.977057,33.386],[-88.975218,33.384142],[-88.976588,33.383718],[-88.973185,33.382727],[-88.973476,33.380962],[-88.971973,33.381511],[-88.970697,33.379886],[-88.970683,33.378117],[-88.976689,33.375503],[-88.97893,33.374852],[-88.988494,33.372803],[-88.993607,33.369566],[-88.992571,33.367978],[-88.997118,33.363359],[-89.011113,33.359487],[-89.01189,33.358643],[-89.000721,33.358552],[-89.000817,33.343978],[-88.967282,33.343887],[-88.967024,33.33571],[-88.967126,33.330073],[-88.942548,33.329897],[-88.940726,33.328344],[-88.940156,33.331232],[-88.940314,33.340938],[-88.939542,33.341198],[-88.933051,33.337431],[-88.931753,33.337719],[-88.931504,33.352468],[-88.92925,33.348997],[-88.926846,33.348745],[-88.925397,33.349458],[-88.923978,33.348016],[-88.921979,33.347208],[-88.919529,33.348829],[-88.918232,33.348726],[-88.917698,33.346803],[-88.916096,33.3453],[-88.915173,33.343256],[-88.912762,33.340021],[-88.910778,33.338483],[-88.909687,33.339346],[-88.909107,33.338495],[-88.909954,33.335897],[-88.90918,33.332795],[-88.907589,33.331972],[-88.909002,33.32966],[-88.90694,33.329785],[-88.905825,33.328025],[-88.904233,33.327812],[-88.902126,33.328506],[-88.902004,33.326982],[-88.903951,33.322758],[-88.906222,33.319704],[-88.908827,33.314958],[-88.909556,33.311423],[-88.90949,33.310084],[-88.908076,33.304163],[-88.907385,33.297112],[-88.906028,33.293525],[-88.903598,33.290876],[-88.900283,33.286356],[-88.871214,33.286377],[-88.813053,33.286424],[-88.72392,33.286539],[-88.724114,33.295694],[-88.724626,33.301376],[-88.721793,33.301417],[-88.721176,33.304832],[-88.721736,33.306622],[-88.723041,33.308104],[-88.72305,33.312506],[-88.721282,33.316738],[-88.721552,33.319814],[-88.720352,33.321274],[-88.720064,33.325838],[-88.718407,33.328848],[-88.717401,33.333021],[-88.719495,33.335447],[-88.718876,33.338643],[-88.717355,33.342869],[-88.716927,33.345467],[-88.714541,33.347607],[-88.71507,33.352024],[-88.713696,33.354437],[-88.711625,33.357194],[-88.710034,33.358588],[-88.703757,33.36029],[-88.70041,33.360877],[-88.695229,33.362181],[-88.691772,33.363933],[-88.680605,33.368124],[-88.671323,33.370672],[-88.669937,33.371341],[-88.669971,33.374683],[-88.670169,33.37512],[-88.670538,33.426022],[-88.670645,33.440691],[-88.66917,33.4408],[-88.65757,33.44067],[-88.654367,33.440791],[-88.654646,33.446603],[-88.653239,33.44774],[-88.649583,33.448315],[-88.64705,33.449929],[-88.64419,33.453876],[-88.642788,33.453997],[-88.641676,33.456028],[-88.640415,33.456455],[-88.639186,33.463056],[-88.63855,33.463558],[-88.63578,33.47947],[-88.63505,33.48069],[-88.62857,33.481335],[-88.625047,33.484577],[-88.622343,33.491068],[-88.624173,33.491651],[-88.62627,33.490493],[-88.627871,33.49168],[-88.630338,33.492604],[-88.6332,33.49279],[-88.63238,33.50385],[-88.632499,33.506519],[-88.67125,33.506168],[-88.671526,33.565135],[-88.694726,33.565163],[-88.696129,33.563072],[-88.699659,33.561156],[-88.707368,33.55944],[-88.707141,33.560752],[-88.710111,33.559016],[-88.712313,33.559678],[-88.715326,33.559239],[-88.71673,33.560647],[-88.718896,33.560311],[-88.721214,33.56079],[-88.721778,33.562027],[-88.723938,33.561582],[-88.725369,33.561934],[-88.724341,33.562924],[-88.72464,33.563759],[-88.727128,33.562319],[-88.730279,33.562324],[-88.730003,33.56299],[-88.727764,33.563551],[-88.728381,33.564254],[-88.731312,33.564356],[-88.732756,33.565189],[-88.770596,33.565212],[-88.80393,33.564836],[-88.871503,33.564644],[-88.947959,33.564282],[-88.949824,33.564343],[-88.949455,33.555254],[-88.94791,33.552223],[-88.949356,33.550962],[-88.949974,33.548708],[-88.951401,33.549047],[-88.954636,33.54654],[-88.957071,33.528633],[-88.956324,33.528771],[-88.953591,33.526285],[-88.953094,33.525153],[-88.948662,33.522077],[-88.946446,33.521389],[-88.946506,33.520564],[-88.944705,33.518213],[-88.94241,33.516757],[-88.94001,33.516569],[-88.937318,33.514027],[-88.935709,33.515312],[-88.936222,33.51395],[-88.935024,33.512448],[-88.933208,33.512292],[-88.932485,33.512864],[-88.932459,33.506004],[-88.952903,33.506099],[-88.954015,33.506477],[-88.953181,33.508862],[-88.954971,33.509286],[-88.955054,33.510468],[-88.957304,33.510021],[-88.95773,33.511717],[-88.95883,33.512806],[-88.960437,33.512071],[-88.962409,33.514762],[-88.963524,33.515596],[-88.964063,33.51789],[-88.968101,33.520181],[-88.971412,33.520446],[-88.984097,33.520437],[-88.988215,33.522038],[-88.990312,33.524223],[-88.992215,33.524502],[-88.995811,33.524191],[-88.999261,33.52338],[-89.002176,33.523735],[-89.008603,33.525602],[-89.009958,33.525671],[-89.014729,33.524987],[-89.016106,33.527926],[-89.018111,33.529932],[-89.019687,33.530755],[-89.023478,33.531113],[-89.025445,33.531851],[-89.027379,33.533967],[-89.035648,33.540639],[-89.03637,33.541546]],[[-88.8054,33.452097],[-88.805827,33.454429],[-88.803031,33.454333],[-88.801333,33.455099],[-88.799434,33.454818],[-88.799853,33.456256],[-88.798682,33.457567],[-88.796659,33.456682],[-88.795873,33.458598],[-88.792521,33.457319],[-88.792236,33.458532],[-88.790461,33.458387],[-88.789853,33.456938],[-88.784998,33.455944],[-88.787143,33.4549],[-88.788654,33.451251],[-88.790088,33.447043],[-88.793034,33.446907],[-88.793253,33.447052],[-88.793801,33.447127],[-88.795651,33.447481],[-88.796628,33.447732],[-88.798758,33.448343],[-88.801441,33.449702],[-88.8054,33.452097]],[[-88.706258,33.462607],[-88.706385,33.46589],[-88.704643,33.466364],[-88.703932,33.464978],[-88.703721,33.462579],[-88.706258,33.462607]]]}},{"type":"Feature","properties":{"zcta5":"39773","AFFGEOID10":"8600000US39773","GEOID10":"39773","ALAND10":598085698,"AWATER10":14010562,"county_name":"Clay","state_code":"MS","county_state":"Clay County, MS","county_fips":"28025","risk_level_county":"Very High Risk (<60% vaccinated)","mean_vaccination_rate_county":59.39,"risk_level_zcta":"Higher Risk (60–69% vaccinated)","mean_vaccination_rate_zips":68.21,"cases":0},"geometry":{"type":"Polygon","coordinates":[[[-88.931525,33.76478],[-88.931359,33.760854],[-88.929468,33.758358],[-88.930626,33.754303],[-88.915676,33.754175],[-88.909526,33.753904],[-88.898296,33.753982],[-88.898537,33.752341],[-88.896675,33.749689],[-88.896698,33.740693],[-88.89422,33.741866],[-88.892294,33.740175],[-88.891806,33.737377],[-88.890029,33.736469],[-88.887563,33.737134],[-88.886083,33.73631],[-88.88337,33.735875],[-88.880958,33.734707],[-88.878054,33.732507],[-88.874524,33.732823],[-88.872581,33.731782],[-88.87452,33.724753],[-88.874595,33.722008],[-88.876446,33.716716],[-88.871225,33.716689],[-88.870652,33.714643],[-88.868793,33.711151],[-88.869281,33.707737],[-88.867519,33.705741],[-88.867316,33.704392],[-88.864624,33.700203],[-88.865654,33.697864],[-88.865602,33.69481],[-88.863368,33.694106],[-88.8624,33.692113],[-88.859639,33.690428],[-88.859634,33.687514],[-88.856809,33.686083],[-88.853401,33.683159],[-88.853148,33.681446],[-88.851694,33.680395],[-88.844655,33.680714],[-88.841983,33.680553],[-88.802641,33.680121],[-88.801571,33.676547],[-88.801442,33.674178],[-88.800259,33.672902],[-88.800287,33.669407],[-88.799808,33.668203],[-88.800481,33.665258],[-88.799645,33.660632],[-88.796712,33.651572],[-88.797074,33.650435],[-88.796627,33.647007],[-88.793262,33.645572],[-88.790794,33.641343],[-88.786334,33.636982],[-88.782769,33.63195],[-88.779288,33.630832],[-88.772906,33.626903],[-88.768096,33.623661],[-88.766677,33.622334],[-88.763331,33.620676],[-88.76023,33.616802],[-88.764425,33.6151],[-88.767409,33.614571],[-88.766438,33.612754],[-88.767017,33.610148],[-88.781792,33.610189],[-88.786523,33.609811],[-88.791976,33.608379],[-88.795244,33.606874],[-88.795798,33.604978],[-88.797225,33.603507],[-88.797406,33.601584],[-88.795913,33.598697],[-88.801094,33.593201],[-88.801734,33.591075],[-88.803657,33.591967],[-88.80633,33.590359],[-88.806464,33.588936],[-88.803624,33.586933],[-88.801427,33.585662],[-88.800221,33.583759],[-88.801261,33.582859],[-88.800736,33.581841],[-88.797651,33.582162],[-88.798845,33.580321],[-88.79811,33.577976],[-88.795859,33.577369],[-88.796002,33.576371],[-88.793622,33.576987],[-88.791871,33.575715],[-88.793625,33.57458],[-88.792629,33.57348],[-88.788595,33.572112],[-88.786634,33.572635],[-88.78419,33.572382],[-88.78143,33.57394],[-88.782234,33.571792],[-88.781573,33.570753],[-88.780017,33.571355],[-88.779101,33.569007],[-88.7774,33.56928],[-88.77607,33.567976],[-88.777161,33.567323],[-88.77451,33.566737],[-88.773642,33.567571],[-88.771133,33.567099],[-88.768708,33.568228],[-88.766561,33.567409],[-88.770596,33.565212],[-88.732756,33.565189],[-88.731312,33.564356],[-88.728381,33.564254],[-88.727764,33.563551],[-88.730003,33.56299],[-88.730279,33.562324],[-88.727128,33.562319],[-88.72464,33.563759],[-88.724341,33.562924],[-88.725369,33.561934],[-88.723938,33.561582],[-88.721778,33.562027],[-88.721214,33.56079],[-88.718896,33.560311],[-88.71673,33.560647],[-88.715326,33.559239],[-88.712313,33.559678],[-88.710111,33.559016],[-88.707141,33.560752],[-88.707368,33.55944],[-88.699659,33.561156],[-88.696129,33.563072],[-88.694726,33.565163],[-88.671526,33.565135],[-88.67125,33.506168],[-88.632499,33.506519],[-88.609389,33.506751],[-88.608715,33.50771],[-88.60625,33.507278],[-88.606792,33.509284],[-88.604615,33.508584],[-88.603953,33.507737],[-88.600686,33.507987],[-88.598147,33.509561],[-88.59798,33.51123],[-88.59642,33.51063],[-88.595459,33.512169],[-88.593534,33.51277],[-88.591788,33.512439],[-88.590974,33.514174],[-88.589365,33.51493],[-88.588248,33.514731],[-88.584981,33.515531],[-88.582306,33.517649],[-88.580362,33.517419],[-88.580178,33.518144],[-88.582132,33.519563],[-88.580165,33.52058],[-88.579686,33.521631],[-88.57795,33.522105],[-88.575567,33.52115],[-88.572626,33.519015],[-88.571575,33.519067],[-88.570784,33.521224],[-88.570706,33.523727],[-88.567883,33.523609],[-88.565902,33.524447],[-88.566,33.52585],[-88.563752,33.527014],[-88.55984,33.525228],[-88.558722,33.522482],[-88.556293,33.52143],[-88.55396,33.52155],[-88.553079,33.522282],[-88.551514,33.525336],[-88.551103,33.528267],[-88.550349,33.528496],[-88.546394,33.526435],[-88.54386,33.526806],[-88.54283,33.527453],[-88.541245,33.528936],[-88.541141,33.529857],[-88.542107,33.533232],[-88.541174,33.534591],[-88.537933,33.536259],[-88.533893,33.536646],[-88.531445,33.53738],[-88.530071,33.539276],[-88.527705,33.541386],[-88.527047,33.542913],[-88.527403,33.548359],[-88.526395,33.549718],[-88.524183,33.550949],[-88.520549,33.549977],[-88.518222,33.548337],[-88.516853,33.545695],[-88.517135,33.544188],[-88.516084,33.543347],[-88.514698,33.545061],[-88.51086,33.545198],[-88.507379,33.543682],[-88.505882,33.541793],[-88.505224,33.537016],[-88.503774,33.535902],[-88.497192,33.534805],[-88.495715,33.533124],[-88.494389,33.529556],[-88.493288,33.528485],[-88.491553,33.528141],[-88.488602,33.529121],[-88.486087,33.528233],[-88.484335,33.526353],[-88.48082,33.523841],[-88.480299,33.522741],[-88.475918,33.523175],[-88.47369,33.523843],[-88.472037,33.525562],[-88.471886,33.527114],[-88.479036,33.530945],[-88.484735,33.534416],[-88.487384,33.53677],[-88.492504,33.543154],[-88.493137,33.546891],[-88.494184,33.54892],[-88.494443,33.55443],[-88.495653,33.557925],[-88.496075,33.56021],[-88.497536,33.564072],[-88.496384,33.566022],[-88.494426,33.565772],[-88.491376,33.562785],[-88.489022,33.563579],[-88.486266,33.56603],[-88.486065,33.568296],[-88.486741,33.569408],[-88.48942,33.571992],[-88.492317,33.576381],[-88.494319,33.57848],[-88.49478,33.580035],[-88.494446,33.580749],[-88.489938,33.581629],[-88.488365,33.582858],[-88.487333,33.584752],[-88.485483,33.587029],[-88.480245,33.594323],[-88.478816,33.595475],[-88.47468,33.598092],[-88.475174,33.604151],[-88.47563,33.604896],[-88.483621,33.61044],[-88.489128,33.61315],[-88.493238,33.614793],[-88.496422,33.614587],[-88.500042,33.613034],[-88.504543,33.613353],[-88.506171,33.614341],[-88.50707,33.615831],[-88.506126,33.619389],[-88.50403,33.622045],[-88.501486,33.624487],[-88.49935,33.626083],[-88.499048,33.628577],[-88.500042,33.62967],[-88.501581,33.633323],[-88.501697,33.636015],[-88.501051,33.637595],[-88.49933,33.639909],[-88.498572,33.641712],[-88.498883,33.642905],[-88.499641,33.643782],[-88.501443,33.643885],[-88.504582,33.643182],[-88.507963,33.642814],[-88.512468,33.644264],[-88.514042,33.648891],[-88.513917,33.650209],[-88.514421,33.653632],[-88.513938,33.654485],[-88.513104,33.660697],[-88.512655,33.661235],[-88.508841,33.662196],[-88.505731,33.664641],[-88.501928,33.666188],[-88.502407,33.668947],[-88.502121,33.671301],[-88.501191,33.674059],[-88.49922,33.675234],[-88.496161,33.674525],[-88.492906,33.671248],[-88.490978,33.673726],[-88.49166,33.677285],[-88.492692,33.678204],[-88.495147,33.677821],[-88.496193,33.678491],[-88.496414,33.680075],[-88.498265,33.680137],[-88.500041,33.679944],[-88.616543,33.680406],[-88.61561,33.682529],[-88.613703,33.684224],[-88.613742,33.686078],[-88.612,33.68645],[-88.613816,33.686821],[-88.613974,33.694306],[-88.614843,33.694903],[-88.616252,33.694957],[-88.658813,33.694749],[-88.656984,33.680239],[-88.667437,33.680245],[-88.667399,33.695531],[-88.667964,33.702037],[-88.669182,33.707929],[-88.672975,33.720021],[-88.673675,33.720819],[-88.67688,33.719751],[-88.678746,33.7206],[-88.681315,33.721037],[-88.683895,33.722293],[-88.685864,33.722531],[-88.687122,33.721659],[-88.690798,33.721124],[-88.693501,33.721826],[-88.696121,33.720678],[-88.699179,33.718126],[-88.701559,33.718265],[-88.703973,33.717655],[-88.710658,33.71353],[-88.712803,33.711702],[-88.713575,33.709818],[-88.71326,33.708548],[-88.714886,33.706005],[-88.716828,33.704407],[-88.718202,33.703935],[-88.719474,33.704168],[-88.719567,33.723771],[-88.728876,33.723759],[-88.726599,33.719495],[-88.728299,33.719655],[-88.730263,33.721152],[-88.729966,33.722107],[-88.731991,33.722554],[-88.732507,33.723729],[-88.737418,33.723728],[-88.737981,33.72408],[-88.737783,33.7258],[-88.739724,33.727244],[-88.73949,33.728235],[-88.74108,33.730297],[-88.740626,33.731039],[-88.741074,33.733801],[-88.741773,33.735491],[-88.742602,33.736129],[-88.792037,33.747531],[-88.795116,33.749384],[-88.810337,33.764396],[-88.813437,33.767068],[-88.816353,33.767526],[-88.823051,33.767795],[-88.826367,33.766951],[-88.831478,33.764114],[-88.836362,33.76222],[-88.837286,33.761459],[-88.841319,33.760113],[-88.842856,33.760935],[-88.844751,33.760474],[-88.845427,33.760944],[-88.852968,33.763905],[-88.859672,33.770688],[-88.861006,33.773968],[-88.861164,33.778217],[-88.860556,33.780099],[-88.859586,33.781197],[-88.854654,33.78539],[-88.85573,33.786768],[-88.855512,33.789184],[-88.861979,33.797473],[-88.860513,33.798661],[-88.859247,33.803888],[-88.858546,33.80956],[-88.856833,33.811798],[-88.857887,33.811818],[-88.866651,33.811666],[-88.875049,33.811943],[-88.931176,33.812374],[-88.93123,33.804922],[-88.931525,33.76478]]]}},{"type":"Feature","properties":{"zcta5":"39755","AFFGEOID10":"8600000US39755","GEOID10":"39755","ALAND10":177479773,"AWATER10":1932914,"county_name":"Clay","state_code":"MS","county_state":"Clay County, MS","county_fips":"28025","risk_level_county":"Very High Risk (<60% vaccinated)","mean_vaccination_rate_county":59.39,"risk_level_zcta":"Higher Risk (60–69% vaccinated)","mean_vaccination_rate_zips":65.09,"cases":0},"geometry":{"type":"Polygon","coordinates":[[[-89.017148,33.639927],[-89.017252,33.6357],[-89.016337,33.632014],[-89.01629,33.629528],[-89.015391,33.627844],[-89.012791,33.624347],[-89.011447,33.623018],[-89.010774,33.620474],[-89.001957,33.620343],[-89.000267,33.619328],[-88.996874,33.616602],[-88.993415,33.614283],[-88.989381,33.614161],[-88.99043,33.612838],[-88.986476,33.609962],[-88.982815,33.606791],[-88.980127,33.602311],[-88.977619,33.599858],[-88.974166,33.598991],[-88.97287,33.59814],[-88.973128,33.59351],[-88.979688,33.596079],[-88.983273,33.596545],[-88.986057,33.596071],[-88.990351,33.59444],[-88.994287,33.593361],[-88.999442,33.592725],[-89.010474,33.592335],[-89.01452,33.592481],[-89.018625,33.593037],[-89.018613,33.562114],[-89.035677,33.562154],[-89.035749,33.554316],[-89.036263,33.553773],[-89.03587,33.550476],[-89.039774,33.549871],[-89.036876,33.545366],[-89.03637,33.541546],[-89.035648,33.540639],[-89.027379,33.533967],[-89.025445,33.531851],[-89.023478,33.531113],[-89.019687,33.530755],[-89.018111,33.529932],[-89.016106,33.527926],[-89.014729,33.524987],[-89.009958,33.525671],[-89.008603,33.525602],[-89.002176,33.523735],[-88.999261,33.52338],[-88.995811,33.524191],[-88.992215,33.524502],[-88.990312,33.524223],[-88.988215,33.522038],[-88.984097,33.520437],[-88.971412,33.520446],[-88.968101,33.520181],[-88.964063,33.51789],[-88.963524,33.515596],[-88.962409,33.514762],[-88.960437,33.512071],[-88.95883,33.512806],[-88.95773,33.511717],[-88.957304,33.510021],[-88.955054,33.510468],[-88.954971,33.509286],[-88.953181,33.508862],[-88.954015,33.506477],[-88.952903,33.506099],[-88.932459,33.506004],[-88.932485,33.512864],[-88.933208,33.512292],[-88.935024,33.512448],[-88.936222,33.51395],[-88.935709,33.515312],[-88.937318,33.514027],[-88.94001,33.516569],[-88.94241,33.516757],[-88.944705,33.518213],[-88.946506,33.520564],[-88.946446,33.521389],[-88.948662,33.522077],[-88.953094,33.525153],[-88.953591,33.526285],[-88.956324,33.528771],[-88.957071,33.528633],[-88.954636,33.54654],[-88.951401,33.549047],[-88.949974,33.548708],[-88.949356,33.550962],[-88.94791,33.552223],[-88.949455,33.555254],[-88.949824,33.564343],[-88.947959,33.564282],[-88.871503,33.564644],[-88.873338,33.568634],[-88.877547,33.576589],[-88.878145,33.577351],[-88.880758,33.578037],[-88.880702,33.580866],[-88.878638,33.580876],[-88.883538,33.585484],[-88.885406,33.586443],[-88.885779,33.587515],[-88.888485,33.591289],[-88.888803,33.592867],[-88.898789,33.601127],[-88.901964,33.602428],[-88.903959,33.601871],[-88.910165,33.602622],[-88.914549,33.603901],[-88.918873,33.606207],[-88.919344,33.607636],[-88.92128,33.608688],[-88.922199,33.607878],[-88.924877,33.609505],[-88.931857,33.610979],[-88.931925,33.619623],[-88.927277,33.620559],[-88.92523,33.6206],[-88.920497,33.619552],[-88.910053,33.61462],[-88.905517,33.613479],[-88.903344,33.613509],[-88.896736,33.614172],[-88.893334,33.614697],[-88.888988,33.614086],[-88.884285,33.611698],[-88.881172,33.609377],[-88.880746,33.610636],[-88.880739,33.627354],[-88.88227,33.627843],[-88.881972,33.629124],[-88.885378,33.630054],[-88.885154,33.631318],[-88.883838,33.631849],[-88.886591,33.632539],[-88.884987,33.633313],[-88.885374,33.634237],[-88.884596,33.635369],[-88.888428,33.635719],[-88.892342,33.636949],[-88.89528,33.637095],[-88.89685,33.638289],[-88.896453,33.640091],[-88.898707,33.640445],[-88.898268,33.639731],[-88.899366,33.63844],[-88.900662,33.638177],[-88.901759,33.638788],[-88.900718,33.640063],[-88.901459,33.641586],[-88.90351,33.641274],[-88.905631,33.643536],[-88.894999,33.640832],[-88.907696,33.655579],[-88.906245,33.658026],[-88.905524,33.661891],[-88.902624,33.667946],[-88.897835,33.670718],[-88.897038,33.675444],[-88.900658,33.678748],[-88.902385,33.679934],[-88.900109,33.684153],[-88.897532,33.688062],[-88.897033,33.689762],[-88.896882,33.694701],[-88.896986,33.702781],[-88.905277,33.702777],[-88.90562,33.701714],[-88.905561,33.69855],[-88.906583,33.697802],[-88.908171,33.69428],[-88.912358,33.690915],[-88.914822,33.689405],[-88.915738,33.687801],[-88.916244,33.688257],[-88.916767,33.691446],[-88.917823,33.693865],[-88.920148,33.696099],[-88.920157,33.697321],[-88.916777,33.700526],[-88.914775,33.702993],[-88.914464,33.704016],[-88.914343,33.710053],[-88.921613,33.710196],[-88.923407,33.706301],[-88.927123,33.701844],[-88.928061,33.700118],[-88.92859,33.696898],[-88.930118,33.694857],[-88.931235,33.69561],[-88.934155,33.695744],[-88.935056,33.697506],[-88.934993,33.698889],[-88.936565,33.701816],[-88.936461,33.707374],[-88.937961,33.709807],[-88.939543,33.710665],[-88.940956,33.712542],[-88.941132,33.714032],[-88.94077,33.717525],[-88.943166,33.716381],[-88.947708,33.716376],[-88.94774,33.717565],[-88.956569,33.717657],[-88.959717,33.717256],[-88.962029,33.71629],[-88.968944,33.712137],[-88.972189,33.710685],[-88.974693,33.709764],[-88.978178,33.709255],[-88.991386,33.710078],[-88.991215,33.69948],[-88.994566,33.699433],[-88.993426,33.698444],[-88.991088,33.697463],[-88.989584,33.696182],[-88.984826,33.691133],[-88.982723,33.689325],[-88.981797,33.686868],[-88.979822,33.684644],[-88.979558,33.681937],[-88.980328,33.678975],[-88.979481,33.678111],[-88.977982,33.678171],[-88.97937,33.676474],[-88.978174,33.674456],[-88.977174,33.675451],[-88.976643,33.674115],[-88.974414,33.673916],[-88.975959,33.672515],[-88.97383,33.672256],[-88.9727,33.67119],[-88.973384,33.670408],[-88.971622,33.670657],[-88.971196,33.669536],[-88.991444,33.669334],[-88.991452,33.651586],[-88.985117,33.650766],[-88.980411,33.64952],[-88.979077,33.648752],[-88.97576,33.645781],[-88.972354,33.645508],[-88.970978,33.644457],[-88.966256,33.636937],[-88.964417,33.632646],[-88.964149,33.630966],[-88.969309,33.629323],[-88.98623,33.625522],[-88.989415,33.625012],[-88.994927,33.625999],[-89.001848,33.62971],[-89.007317,33.635401],[-89.012873,33.639201],[-89.017148,33.639927]]]}},{"type":"Feature","properties":{"zcta5":"39776","AFFGEOID10":"8600000US39776","GEOID10":"39776","ALAND10":193028467,"AWATER10":408185,"county_name":"Clay","state_code":"MS","county_state":"Clay County, MS","county_fips":"28025","risk_level_county":"Very High Risk (<60% vaccinated)","mean_vaccination_rate_county":59.39,"risk_level_zcta":"Medium Risk (70–79% vaccinated)","mean_vaccination_rate_zips":71.42,"cases":0},"geometry":{"type":"Polygon","coordinates":[[[-89.122199,33.822004],[-89.124551,33.817226],[-89.125126,33.815124],[-89.127011,33.815114],[-89.128555,33.814148],[-89.129878,33.8123],[-89.132704,33.811527],[-89.134167,33.809666],[-89.135272,33.809121],[-89.138516,33.80888],[-89.139452,33.808282],[-89.143485,33.803354],[-89.1438,33.801975],[-89.14585,33.80098],[-89.147683,33.798634],[-89.154542,33.79815],[-89.158834,33.798724],[-89.160868,33.80087],[-89.162173,33.803475],[-89.164032,33.80286],[-89.169997,33.801934],[-89.173963,33.801576],[-89.176927,33.800562],[-89.181861,33.80139],[-89.185542,33.801411],[-89.19029,33.800828],[-89.190561,33.789061],[-89.186637,33.788406],[-89.183909,33.787047],[-89.18189,33.78805],[-89.176024,33.789073],[-89.171761,33.789207],[-89.169738,33.790087],[-89.16225,33.789995],[-89.160543,33.789433],[-89.158932,33.79012],[-89.157418,33.78921],[-89.154633,33.789184],[-89.152299,33.790032],[-89.146754,33.790092],[-89.146641,33.785765],[-89.146028,33.784266],[-89.143569,33.781194],[-89.136747,33.774987],[-89.135798,33.773634],[-89.131686,33.764453],[-89.12972,33.76246],[-89.128109,33.759033],[-89.133692,33.754224],[-89.135929,33.752658],[-89.13982,33.751915],[-89.141532,33.750437],[-89.145867,33.747775],[-89.14933,33.745257],[-89.153039,33.741603],[-89.156509,33.738773],[-89.034498,33.73943],[-89.03485,33.750115],[-89.034775,33.754156],[-89.021231,33.754214],[-89.023145,33.748145],[-89.025795,33.741961],[-89.028093,33.737685],[-89.031106,33.732888],[-89.029791,33.732437],[-89.02854,33.733385],[-89.026387,33.732535],[-89.024742,33.72949],[-88.996794,33.725664],[-88.999113,33.728073],[-89.002899,33.731166],[-89.000371,33.732302],[-88.999658,33.729343],[-88.992938,33.72454],[-88.99094,33.722215],[-88.98923,33.721653],[-88.987219,33.719741],[-88.984739,33.720334],[-88.981595,33.719272],[-88.979841,33.717927],[-88.980308,33.717036],[-88.979098,33.716102],[-88.979908,33.714843],[-88.978804,33.71354],[-88.977292,33.713491],[-88.972189,33.710685],[-88.968944,33.712137],[-88.962029,33.71629],[-88.959717,33.717256],[-88.960808,33.719478],[-88.959156,33.73189],[-88.960533,33.735918],[-88.962888,33.740011],[-88.964659,33.748193],[-88.966109,33.749578],[-88.9659,33.754282],[-88.931604,33.754312],[-88.931525,33.76478],[-88.93123,33.804922],[-88.936813,33.804943],[-88.939466,33.803997],[-88.94362,33.800837],[-88.947431,33.798704],[-88.949953,33.797681],[-88.954771,33.796637],[-88.95614,33.796669],[-88.960367,33.797707],[-88.973572,33.797784],[-88.994537,33.811139],[-88.989415,33.816405],[-88.985323,33.82169],[-88.987987,33.824158],[-88.989309,33.825817],[-88.991733,33.82974],[-88.9941,33.832378],[-88.999019,33.837134],[-88.999333,33.838038],[-88.999283,33.859486],[-89.005013,33.859595],[-89.012396,33.859268],[-89.014285,33.854637],[-89.015339,33.854509],[-89.016267,33.849732],[-89.01767,33.846335],[-89.019336,33.847616],[-89.020857,33.849579],[-89.024703,33.850552],[-89.026474,33.851927],[-89.028127,33.854406],[-89.02978,33.854851],[-89.035484,33.846327],[-89.037112,33.84326],[-89.03752,33.844213],[-89.067919,33.833167],[-89.072714,33.831361],[-89.078162,33.827367],[-89.077352,33.824258],[-89.079728,33.821575],[-89.122199,33.822004]]]}},{"type":"Feature","properties":{"zcta5":"39750","AFFGEOID10":"8600000US39750","GEOID10":"39750","ALAND10":212588968,"AWATER10":969518,"county_name":"Clay","state_code":"MS","county_state":"Clay County, MS","county_fips":"28025","risk_level_county":"Very High Risk (<60% vaccinated)","mean_vaccination_rate_county":59.39,"risk_level_zcta":"Medium Risk (70–79% vaccinated)","mean_vaccination_rate_zips":77.2,"cases":0},"geometry":{"type":"MultiPolygon","coordinates":[[[[-88.991452,33.651586],[-88.996942,33.652069],[-89.003211,33.653191],[-89.008989,33.655375],[-89.012283,33.655169],[-89.017332,33.657085],[-89.017381,33.644565],[-89.017148,33.639927],[-89.012873,33.639201],[-89.007317,33.635401],[-89.001848,33.62971],[-88.994927,33.625999],[-88.989415,33.625012],[-88.98623,33.625522],[-88.969309,33.629323],[-88.964149,33.630966],[-88.964417,33.632646],[-88.966256,33.636937],[-88.970978,33.644457],[-88.972354,33.645508],[-88.97576,33.645781],[-88.979077,33.648752],[-88.980411,33.64952],[-88.985117,33.650766],[-88.991452,33.651586]]],[[[-89.13359,33.647248],[-89.133593,33.645849],[-89.130681,33.645028],[-89.127569,33.642465],[-89.128783,33.64049],[-89.126507,33.638587],[-89.125488,33.635989],[-89.125351,33.633914],[-89.123496,33.630732],[-89.124335,33.628632],[-89.123001,33.628094],[-89.122461,33.626198],[-89.124215,33.625846],[-89.124068,33.624496],[-89.122865,33.623475],[-89.124395,33.622825],[-89.123684,33.621138],[-89.123248,33.617621],[-89.124133,33.615945],[-89.123198,33.612263],[-89.121436,33.610225],[-89.122388,33.609741],[-89.120811,33.608945],[-89.121557,33.605889],[-89.122367,33.605705],[-89.10856,33.605768],[-89.115521,33.598436],[-89.118658,33.592404],[-89.122144,33.580525],[-89.123097,33.577977],[-89.125329,33.573665],[-89.123114,33.572614],[-89.118678,33.572472],[-89.114298,33.573036],[-89.110094,33.571642],[-89.110026,33.562615],[-89.111026,33.562014],[-89.105802,33.561997],[-89.105763,33.551206],[-89.0956,33.551198],[-89.103223,33.543889],[-89.105747,33.54152],[-89.105747,33.532941],[-89.115054,33.532942],[-89.116252,33.532879],[-89.114587,33.531405],[-89.114629,33.526017],[-89.1153,33.522973],[-89.115174,33.521337],[-89.11308,33.519084],[-89.109131,33.51644],[-89.106401,33.51278],[-89.106035,33.51182],[-89.10662,33.507871],[-89.102904,33.506587],[-89.098967,33.504342],[-89.09376,33.502837],[-89.088544,33.504189],[-89.088657,33.441821],[-89.088658,33.440936],[-89.087438,33.441465],[-89.086082,33.443023],[-89.083618,33.444067],[-89.082732,33.445585],[-89.081034,33.44517],[-89.07849,33.443752],[-89.073663,33.441696],[-89.070891,33.441799],[-89.066846,33.437831],[-89.065157,33.437372],[-89.061547,33.438015],[-89.057921,33.440639],[-89.055764,33.443619],[-89.053286,33.444316],[-89.053457,33.447167],[-89.052529,33.448458],[-89.050832,33.448708],[-89.048185,33.447425],[-89.045911,33.44678],[-89.04375,33.447422],[-89.042672,33.448456],[-89.041083,33.448836],[-89.039467,33.448027],[-89.035461,33.446976],[-89.031823,33.44717],[-89.026248,33.445092],[-89.023359,33.445516],[-89.022219,33.444232],[-89.020027,33.443931],[-89.016914,33.444496],[-89.015265,33.446959],[-89.014672,33.449379],[-89.014456,33.457069],[-89.013797,33.458086],[-89.013494,33.461816],[-89.013759,33.466076],[-89.016203,33.469733],[-89.015039,33.470303],[-89.011697,33.474315],[-89.007218,33.47877],[-89.005263,33.483206],[-89.003246,33.484345],[-89.007436,33.485336],[-89.01116,33.487132],[-89.015721,33.488947],[-89.023647,33.490267],[-89.027771,33.491789],[-89.027739,33.509377],[-89.032085,33.510655],[-89.036013,33.512673],[-89.034558,33.515697],[-89.032628,33.517991],[-89.032893,33.520607],[-89.036908,33.524241],[-89.036264,33.526956],[-89.036509,33.530508],[-89.03637,33.541546],[-89.036876,33.545366],[-89.039774,33.549871],[-89.03587,33.550476],[-89.036263,33.553773],[-89.035749,33.554316],[-89.035677,33.562154],[-89.018613,33.562114],[-89.018625,33.593037],[-89.01452,33.592481],[-89.010474,33.592335],[-88.999442,33.592725],[-88.994287,33.593361],[-88.990351,33.59444],[-88.986057,33.596071],[-88.983273,33.596545],[-88.979688,33.596079],[-88.973128,33.59351],[-88.97287,33.59814],[-88.974166,33.598991],[-88.977619,33.599858],[-88.980127,33.602311],[-88.982815,33.606791],[-88.986476,33.609962],[-88.99043,33.612838],[-88.989381,33.614161],[-88.993415,33.614283],[-88.996874,33.616602],[-89.000267,33.619328],[-89.001957,33.620343],[-89.010774,33.620474],[-89.011447,33.623018],[-89.012791,33.624347],[-89.015391,33.627844],[-89.01629,33.629528],[-89.016337,33.632014],[-89.017252,33.6357],[-89.017148,33.639927],[-89.024759,33.64109],[-89.027972,33.640377],[-89.034432,33.639144],[-89.035002,33.652015],[-89.034821,33.65863],[-89.037459,33.660082],[-89.042711,33.661327],[-89.047656,33.660884],[-89.054024,33.658231],[-89.058348,33.655072],[-89.064701,33.654564],[-89.064214,33.659224],[-89.060718,33.659164],[-89.059041,33.669647],[-89.062088,33.669644],[-89.065782,33.67075],[-89.069726,33.671159],[-89.073853,33.672282],[-89.07595,33.672123],[-89.079563,33.670841],[-89.084141,33.670536],[-89.087249,33.668914],[-89.092123,33.668634],[-89.095942,33.665138],[-89.10027,33.664287],[-89.10312,33.664597],[-89.105178,33.667077],[-89.109059,33.665307],[-89.11615,33.664579],[-89.11797,33.663518],[-89.119901,33.659831],[-89.122948,33.656956],[-89.122622,33.654148],[-89.123275,33.652927],[-89.127995,33.649067],[-89.131794,33.648213],[-89.13359,33.647248]]]]}},{"type":"Feature","properties":{"zcta5":"39741","AFFGEOID10":"8600000US39741","GEOID10":"39741","ALAND10":173204421,"AWATER10":640808,"county_name":"Clay","state_code":"MS","county_state":"Clay County, MS","county_fips":"28025","risk_level_county":"Very High Risk (<60% vaccinated)","mean_vaccination_rate_county":59.39,"risk_level_zcta":"Higher Risk (60–69% vaccinated)","mean_vaccination_rate_zips":64.26,"cases":0},"geometry":{"type":"Polygon","coordinates":[[[-88.931525,33.76478],[-88.931604,33.754312],[-88.9659,33.754282],[-88.966109,33.749578],[-88.964659,33.748193],[-88.962888,33.740011],[-88.960533,33.735918],[-88.959156,33.73189],[-88.960808,33.719478],[-88.959717,33.717256],[-88.956569,33.717657],[-88.94774,33.717565],[-88.947708,33.716376],[-88.943166,33.716381],[-88.94077,33.717525],[-88.941132,33.714032],[-88.940956,33.712542],[-88.939543,33.710665],[-88.937961,33.709807],[-88.936461,33.707374],[-88.936565,33.701816],[-88.934993,33.698889],[-88.935056,33.697506],[-88.934155,33.695744],[-88.931235,33.69561],[-88.930118,33.694857],[-88.92859,33.696898],[-88.928061,33.700118],[-88.927123,33.701844],[-88.923407,33.706301],[-88.921613,33.710196],[-88.914343,33.710053],[-88.914464,33.704016],[-88.914775,33.702993],[-88.916777,33.700526],[-88.920157,33.697321],[-88.920148,33.696099],[-88.917823,33.693865],[-88.916767,33.691446],[-88.916244,33.688257],[-88.915738,33.687801],[-88.914822,33.689405],[-88.912358,33.690915],[-88.908171,33.69428],[-88.906583,33.697802],[-88.905561,33.69855],[-88.90562,33.701714],[-88.905277,33.702777],[-88.896986,33.702781],[-88.896882,33.694701],[-88.897033,33.689762],[-88.897532,33.688062],[-88.900109,33.684153],[-88.902385,33.679934],[-88.900658,33.678748],[-88.897038,33.675444],[-88.897835,33.670718],[-88.902624,33.667946],[-88.905524,33.661891],[-88.906245,33.658026],[-88.907696,33.655579],[-88.894999,33.640832],[-88.905631,33.643536],[-88.90351,33.641274],[-88.901459,33.641586],[-88.900718,33.640063],[-88.901759,33.638788],[-88.900662,33.638177],[-88.899366,33.63844],[-88.898268,33.639731],[-88.898707,33.640445],[-88.896453,33.640091],[-88.89685,33.638289],[-88.89528,33.637095],[-88.892342,33.636949],[-88.888428,33.635719],[-88.884596,33.635369],[-88.885374,33.634237],[-88.884987,33.633313],[-88.886591,33.632539],[-88.883838,33.631849],[-88.885154,33.631318],[-88.885378,33.630054],[-88.881972,33.629124],[-88.88227,33.627843],[-88.880739,33.627354],[-88.880746,33.610636],[-88.881172,33.609377],[-88.884285,33.611698],[-88.888988,33.614086],[-88.893334,33.614697],[-88.896736,33.614172],[-88.903344,33.613509],[-88.905517,33.613479],[-88.910053,33.61462],[-88.920497,33.619552],[-88.92523,33.6206],[-88.927277,33.620559],[-88.931925,33.619623],[-88.931857,33.610979],[-88.924877,33.609505],[-88.922199,33.607878],[-88.92128,33.608688],[-88.919344,33.607636],[-88.918873,33.606207],[-88.914549,33.603901],[-88.910165,33.602622],[-88.903959,33.601871],[-88.901964,33.602428],[-88.898789,33.601127],[-88.888803,33.592867],[-88.888485,33.591289],[-88.885779,33.587515],[-88.885406,33.586443],[-88.883538,33.585484],[-88.878638,33.580876],[-88.880702,33.580866],[-88.880758,33.578037],[-88.878145,33.577351],[-88.877547,33.576589],[-88.873338,33.568634],[-88.871503,33.564644],[-88.80393,33.564836],[-88.770596,33.565212],[-88.766561,33.567409],[-88.768708,33.568228],[-88.771133,33.567099],[-88.773642,33.567571],[-88.77451,33.566737],[-88.777161,33.567323],[-88.77607,33.567976],[-88.7774,33.56928],[-88.779101,33.569007],[-88.780017,33.571355],[-88.781573,33.570753],[-88.782234,33.571792],[-88.78143,33.57394],[-88.78419,33.572382],[-88.786634,33.572635],[-88.788595,33.572112],[-88.792629,33.57348],[-88.793625,33.57458],[-88.791871,33.575715],[-88.793622,33.576987],[-88.796002,33.576371],[-88.795859,33.577369],[-88.79811,33.577976],[-88.798845,33.580321],[-88.797651,33.582162],[-88.800736,33.581841],[-88.801261,33.582859],[-88.800221,33.583759],[-88.801427,33.585662],[-88.803624,33.586933],[-88.806464,33.588936],[-88.80633,33.590359],[-88.803657,33.591967],[-88.801734,33.591075],[-88.801094,33.593201],[-88.795913,33.598697],[-88.797406,33.601584],[-88.797225,33.603507],[-88.795798,33.604978],[-88.795244,33.606874],[-88.791976,33.608379],[-88.786523,33.609811],[-88.781792,33.610189],[-88.767017,33.610148],[-88.766438,33.612754],[-88.767409,33.614571],[-88.764425,33.6151],[-88.76023,33.616802],[-88.763331,33.620676],[-88.766677,33.622334],[-88.768096,33.623661],[-88.772906,33.626903],[-88.779288,33.630832],[-88.782769,33.63195],[-88.786334,33.636982],[-88.790794,33.641343],[-88.793262,33.645572],[-88.796627,33.647007],[-88.797074,33.650435],[-88.796712,33.651572],[-88.799645,33.660632],[-88.800481,33.665258],[-88.799808,33.668203],[-88.800287,33.669407],[-88.800259,33.672902],[-88.801442,33.674178],[-88.801571,33.676547],[-88.802641,33.680121],[-88.841983,33.680553],[-88.844655,33.680714],[-88.851694,33.680395],[-88.853148,33.681446],[-88.853401,33.683159],[-88.856809,33.686083],[-88.859634,33.687514],[-88.859639,33.690428],[-88.8624,33.692113],[-88.863368,33.694106],[-88.865602,33.69481],[-88.865654,33.697864],[-88.864624,33.700203],[-88.867316,33.704392],[-88.867519,33.705741],[-88.869281,33.707737],[-88.868793,33.711151],[-88.870652,33.714643],[-88.871225,33.716689],[-88.876446,33.716716],[-88.874595,33.722008],[-88.87452,33.724753],[-88.872581,33.731782],[-88.874524,33.732823],[-88.878054,33.732507],[-88.880958,33.734707],[-88.88337,33.735875],[-88.886083,33.73631],[-88.887563,33.737134],[-88.890029,33.736469],[-88.891806,33.737377],[-88.892294,33.740175],[-88.89422,33.741866],[-88.896698,33.740693],[-88.896675,33.749689],[-88.898537,33.752341],[-88.898296,33.753982],[-88.909526,33.753904],[-88.915676,33.754175],[-88.930626,33.754303],[-88.929468,33.758358],[-88.931359,33.760854],[-88.931525,33.76478]]]}},{"type":"Feature","properties":{"zcta5":"39751","AFFGEOID10":"8600000US39751","GEOID10":"39751","ALAND10":205056175,"AWATER10":860018,"county_name":"Clay","state_code":"MS","county_state":"Clay County, MS","county_fips":"28025","risk_level_county":"Very High Risk (<60% vaccinated)","mean_vaccination_rate_county":59.39,"risk_level_zcta":"Higher Risk (60–69% vaccinated)","mean_vaccination_rate_zips":64.83,"cases":0},"geometry":{"type":"Polygon","coordinates":[[[-89.191116,33.763777],[-89.191781,33.738602],[-89.176371,33.738669],[-89.175999,33.736655],[-89.174685,33.734343],[-89.174234,33.729611],[-89.173226,33.727562],[-89.174544,33.727224],[-89.1747,33.724496],[-89.177229,33.721749],[-89.180547,33.720527],[-89.181489,33.71843],[-89.188211,33.716397],[-89.190218,33.71522],[-89.191992,33.715059],[-89.196666,33.716484],[-89.201976,33.715722],[-89.205783,33.716027],[-89.209597,33.715234],[-89.212866,33.713949],[-89.216059,33.713941],[-89.218813,33.711698],[-89.219427,33.710149],[-89.220485,33.707107],[-89.219892,33.7048],[-89.219019,33.7049],[-89.218198,33.703154],[-89.219087,33.703086],[-89.221997,33.699689],[-89.221911,33.696803],[-89.219379,33.696418],[-89.220419,33.694503],[-89.219929,33.693092],[-89.2212,33.691363],[-89.221021,33.689591],[-89.225921,33.690262],[-89.226258,33.689404],[-89.228802,33.687566],[-89.228746,33.678165],[-89.234279,33.678138],[-89.234188,33.676572],[-89.233108,33.674574],[-89.233443,33.671108],[-89.229957,33.669938],[-89.22666,33.669905],[-89.225113,33.671097],[-89.218931,33.671277],[-89.217318,33.671835],[-89.211871,33.672418],[-89.206734,33.676524],[-89.201134,33.677524],[-89.195966,33.67512],[-89.189623,33.671119],[-89.185557,33.66992],[-89.185079,33.665897],[-89.183008,33.666241],[-89.179272,33.663464],[-89.17709,33.664055],[-89.175171,33.663883],[-89.171695,33.662687],[-89.168016,33.66006],[-89.164493,33.655031],[-89.16336,33.653672],[-89.161096,33.653055],[-89.159908,33.650292],[-89.15868,33.649398],[-89.15362,33.648378],[-89.151334,33.648889],[-89.14888,33.648787],[-89.143917,33.646379],[-89.135833,33.645735],[-89.13359,33.647248],[-89.131794,33.648213],[-89.127995,33.649067],[-89.123275,33.652927],[-89.122622,33.654148],[-89.122948,33.656956],[-89.119901,33.659831],[-89.11797,33.663518],[-89.11615,33.664579],[-89.109059,33.665307],[-89.105178,33.667077],[-89.10312,33.664597],[-89.10027,33.664287],[-89.095942,33.665138],[-89.092123,33.668634],[-89.087249,33.668914],[-89.084141,33.670536],[-89.079563,33.670841],[-89.07595,33.672123],[-89.073853,33.672282],[-89.069726,33.671159],[-89.065782,33.67075],[-89.062088,33.669644],[-89.059041,33.669647],[-89.060718,33.659164],[-89.064214,33.659224],[-89.064701,33.654564],[-89.058348,33.655072],[-89.054024,33.658231],[-89.047656,33.660884],[-89.042711,33.661327],[-89.037459,33.660082],[-89.034821,33.65863],[-89.035002,33.652015],[-89.034432,33.639144],[-89.027972,33.640377],[-89.024759,33.64109],[-89.017148,33.639927],[-89.017381,33.644565],[-89.017332,33.657085],[-89.012283,33.655169],[-89.008989,33.655375],[-89.003211,33.653191],[-88.996942,33.652069],[-88.991452,33.651586],[-88.991444,33.669334],[-88.971196,33.669536],[-88.971622,33.670657],[-88.973384,33.670408],[-88.9727,33.67119],[-88.97383,33.672256],[-88.975959,33.672515],[-88.974414,33.673916],[-88.976643,33.674115],[-88.977174,33.675451],[-88.978174,33.674456],[-88.97937,33.676474],[-88.977982,33.678171],[-88.979481,33.678111],[-88.980328,33.678975],[-88.979558,33.681937],[-88.979822,33.684644],[-88.981797,33.686868],[-88.982723,33.689325],[-88.984826,33.691133],[-88.989584,33.696182],[-88.991088,33.697463],[-88.993426,33.698444],[-88.994566,33.699433],[-88.991215,33.69948],[-88.991386,33.710078],[-88.978178,33.709255],[-88.974693,33.709764],[-88.972189,33.710685],[-88.977292,33.713491],[-88.978804,33.71354],[-88.979908,33.714843],[-88.979098,33.716102],[-88.980308,33.717036],[-88.979841,33.717927],[-88.981595,33.719272],[-88.984739,33.720334],[-88.987219,33.719741],[-88.98923,33.721653],[-88.99094,33.722215],[-88.992938,33.72454],[-88.999658,33.729343],[-89.000371,33.732302],[-89.002899,33.731166],[-88.999113,33.728073],[-88.996794,33.725664],[-89.024742,33.72949],[-89.026387,33.732535],[-89.02854,33.733385],[-89.029791,33.732437],[-89.031106,33.732888],[-89.028093,33.737685],[-89.025795,33.741961],[-89.023145,33.748145],[-89.021231,33.754214],[-89.034775,33.754156],[-89.03485,33.750115],[-89.034498,33.73943],[-89.156509,33.738773],[-89.153039,33.741603],[-89.14933,33.745257],[-89.145867,33.747775],[-89.141532,33.750437],[-89.13982,33.751915],[-89.135929,33.752658],[-89.133692,33.754224],[-89.128109,33.759033],[-89.12972,33.76246],[-89.131686,33.764453],[-89.135798,33.773634],[-89.136747,33.774987],[-89.143569,33.781194],[-89.146028,33.784266],[-89.146641,33.785765],[-89.146754,33.790092],[-89.152299,33.790032],[-89.154633,33.789184],[-89.157418,33.78921],[-89.158932,33.79012],[-89.160543,33.789433],[-89.16225,33.789995],[-89.169738,33.790087],[-89.171761,33.789207],[-89.176024,33.789073],[-89.18189,33.78805],[-89.183909,33.787047],[-89.186637,33.788406],[-89.190561,33.789061],[-89.191116,33.763777]]]}},{"type":"Feature","properties":{"zcta5":"39756","AFFGEOID10":"8600000US39756","GEOID10":"39756","ALAND10":197364674,"AWATER10":514364,"county_name":"Clay","state_code":"MS","county_state":"Clay County, MS","county_fips":"28025","risk_level_county":"Very High Risk (<60% vaccinated)","mean_vaccination_rate_county":59.39,"risk_level_zcta":"Higher Risk (60–69% vaccinated)","mean_vaccination_rate_zips":63.9,"cases":0},"geometry":{"type":"Polygon","coordinates":[[[-88.856833,33.811798],[-88.858546,33.80956],[-88.859247,33.803888],[-88.860513,33.798661],[-88.861979,33.797473],[-88.855512,33.789184],[-88.85573,33.786768],[-88.854654,33.78539],[-88.859586,33.781197],[-88.860556,33.780099],[-88.861164,33.778217],[-88.861006,33.773968],[-88.859672,33.770688],[-88.852968,33.763905],[-88.845427,33.760944],[-88.844751,33.760474],[-88.842856,33.760935],[-88.841319,33.760113],[-88.837286,33.761459],[-88.836362,33.76222],[-88.831478,33.764114],[-88.826367,33.766951],[-88.823051,33.767795],[-88.816353,33.767526],[-88.813437,33.767068],[-88.810337,33.764396],[-88.795116,33.749384],[-88.792037,33.747531],[-88.742602,33.736129],[-88.741773,33.735491],[-88.741074,33.733801],[-88.740626,33.731039],[-88.74108,33.730297],[-88.73949,33.728235],[-88.739724,33.727244],[-88.737783,33.7258],[-88.737981,33.72408],[-88.737418,33.723728],[-88.732507,33.723729],[-88.731991,33.722554],[-88.729966,33.722107],[-88.730263,33.721152],[-88.728299,33.719655],[-88.726599,33.719495],[-88.728876,33.723759],[-88.719567,33.723771],[-88.719474,33.704168],[-88.718202,33.703935],[-88.716828,33.704407],[-88.714886,33.706005],[-88.71326,33.708548],[-88.713575,33.709818],[-88.712803,33.711702],[-88.710658,33.71353],[-88.703973,33.717655],[-88.701559,33.718265],[-88.699179,33.718126],[-88.696121,33.720678],[-88.693501,33.721826],[-88.690798,33.721124],[-88.687122,33.721659],[-88.685864,33.722531],[-88.683895,33.722293],[-88.681315,33.721037],[-88.678746,33.7206],[-88.67688,33.719751],[-88.673675,33.720819],[-88.672975,33.720021],[-88.667346,33.722855],[-88.667256,33.723879],[-88.665605,33.723824],[-88.664294,33.724723],[-88.667218,33.732926],[-88.66732,33.745516],[-88.662273,33.745707],[-88.661128,33.745326],[-88.661113,33.746682],[-88.658724,33.74687],[-88.658253,33.745729],[-88.656762,33.745841],[-88.657085,33.762848],[-88.659461,33.763465],[-88.667287,33.763479],[-88.667546,33.782193],[-88.6624,33.782112],[-88.664553,33.788635],[-88.66515,33.791287],[-88.665803,33.796714],[-88.66237,33.796696],[-88.661952,33.798736],[-88.660458,33.798538],[-88.660273,33.7967],[-88.65774,33.796704],[-88.657729,33.797593],[-88.654447,33.797589],[-88.653264,33.798576],[-88.652826,33.796718],[-88.653259,33.794488],[-88.651282,33.79372],[-88.651228,33.792287],[-88.645781,33.792309],[-88.645801,33.78778],[-88.641564,33.787793],[-88.641175,33.79358],[-88.640093,33.792949],[-88.637048,33.792719],[-88.636966,33.791963],[-88.634332,33.792512],[-88.633988,33.793881],[-88.63123,33.79359],[-88.631253,33.796871],[-88.626776,33.796923],[-88.627749,33.801924],[-88.628815,33.805245],[-88.634217,33.808462],[-88.632495,33.810734],[-88.623203,33.805445],[-88.622722,33.80786],[-88.619329,33.805845],[-88.620169,33.804486],[-88.61407,33.805176],[-88.614109,33.825203],[-88.615493,33.8259],[-88.619171,33.825766],[-88.620935,33.825225],[-88.622144,33.825713],[-88.622556,33.827302],[-88.627169,33.830528],[-88.630037,33.830752],[-88.63276,33.831732],[-88.635987,33.831876],[-88.640119,33.835129],[-88.644129,33.835616],[-88.665943,33.837194],[-88.66727,33.837034],[-88.667808,33.840339],[-88.67137,33.840393],[-88.677364,33.835965],[-88.677301,33.825494],[-88.706683,33.825553],[-88.711305,33.840153],[-88.720188,33.840108],[-88.719979,33.81133],[-88.725346,33.810997],[-88.746039,33.810868],[-88.762073,33.839912],[-88.767951,33.83994],[-88.771847,33.840254],[-88.791623,33.840474],[-88.829927,33.840667],[-88.830573,33.840017],[-88.831463,33.836028],[-88.83346,33.832957],[-88.836289,33.830301],[-88.840198,33.825984],[-88.8424,33.822439],[-88.84635,33.818921],[-88.847337,33.817733],[-88.84979,33.811694],[-88.856495,33.811784],[-88.856833,33.811798]]]}}]}