{"type":"FeatureCollection","features":[{"type":"Feature","properties":{"zcta5":"42303","AFFGEOID10":"8600000US42303","GEOID10":"42303","ALAND10":124133825,"AWATER10":1320514,"county_name":"Daviess","state_code":"KY","county_state":"Daviess County, KY","county_fips":"21059","risk_level_county":"Higher Risk (60–69% vaccinated)","mean_vaccination_rate_county":69.81,"risk_level_zcta":"Medium Risk (70–79% vaccinated)","mean_vaccination_rate_zips":76.32,"cases":4},"geometry":{"type":"MultiPolygon","coordinates":[[[[-87.108858,37.776177],[-87.113643,37.775846],[-87.112892,37.767402],[-87.110549,37.767492],[-87.110405,37.765901],[-87.112718,37.765651],[-87.111381,37.752577],[-87.111698,37.751164],[-87.109738,37.751045],[-87.110031,37.747893],[-87.112266,37.747761],[-87.113855,37.745333],[-87.115064,37.74559],[-87.116851,37.742289],[-87.11479,37.741797],[-87.115879,37.739543],[-87.118269,37.739282],[-87.118862,37.737611],[-87.117833,37.737373],[-87.11886,37.736163],[-87.119741,37.73251],[-87.120964,37.732768],[-87.122297,37.729664],[-87.124178,37.722365],[-87.120014,37.721642],[-87.120203,37.72059],[-87.118261,37.720136],[-87.116175,37.720723],[-87.113776,37.720113],[-87.112836,37.723144],[-87.111953,37.725249],[-87.108016,37.723927],[-87.117907,37.697029],[-87.108242,37.697431],[-87.106085,37.698113],[-87.100777,37.701928],[-87.099352,37.702099],[-87.096178,37.70149],[-87.091524,37.702211],[-87.089276,37.701833],[-87.087561,37.700888],[-87.086295,37.699729],[-87.083727,37.691521],[-87.086733,37.685608],[-87.090732,37.679313],[-87.088236,37.678143],[-87.08496,37.679396],[-87.079655,37.680473],[-87.077845,37.681846],[-87.073864,37.691401],[-87.067545,37.690158],[-87.06684,37.690493],[-87.063856,37.697988],[-87.062045,37.699383],[-87.06246,37.701425],[-87.057535,37.702259],[-87.044611,37.708016],[-87.028747,37.71504],[-87.026346,37.716935],[-87.024657,37.71894],[-87.02088,37.720905],[-87.019469,37.732119],[-87.0192,37.735821],[-87.019163,37.737793],[-87.010303,37.735998],[-87.007486,37.736012],[-87.002888,37.747166],[-86.993928,37.744899],[-86.993161,37.746611],[-86.994076,37.753892],[-87.000997,37.751835],[-87.002367,37.748433],[-87.008943,37.750146],[-87.010791,37.750866],[-87.015395,37.751369],[-87.012716,37.754391],[-87.00858,37.760368],[-87.007361,37.761664],[-86.997225,37.767052],[-86.993485,37.768177],[-86.989768,37.773968],[-86.989287,37.777729],[-86.988426,37.778804],[-86.984283,37.786735],[-86.981864,37.787177],[-86.979183,37.790493],[-86.977923,37.790867],[-86.975012,37.793738],[-86.97271,37.792425],[-86.970284,37.79299],[-86.966578,37.793094],[-86.961479,37.795162],[-86.960654,37.796134],[-86.956678,37.796864],[-86.953219,37.796936],[-86.953618,37.797925],[-86.956974,37.801757],[-86.956223,37.804565],[-86.957309,37.80771],[-86.958981,37.809197],[-86.959812,37.811877],[-86.963929,37.814393],[-86.970176,37.816417],[-86.974255,37.812758],[-86.977662,37.811462],[-86.981506,37.80586],[-86.982141,37.80536],[-86.986404,37.813449],[-86.984348,37.816623],[-86.985374,37.818551],[-86.987634,37.815777],[-86.989607,37.819224],[-87.000459,37.823529],[-86.998996,37.825821],[-86.995334,37.828658],[-87.006913,37.833185],[-87.006637,37.831745],[-87.005294,37.830536],[-87.009851,37.83023],[-87.014395,37.833138],[-87.018555,37.832706],[-87.022187,37.830914],[-87.024109,37.82869],[-87.025481,37.82915],[-87.018423,37.835716],[-87.018632,37.837003],[-87.021321,37.836378],[-87.022361,37.83473],[-87.028309,37.837566],[-87.03061,37.838199],[-87.032957,37.841425],[-87.037018,37.83981],[-87.038951,37.838141],[-87.039277,37.839377],[-87.042173,37.837702],[-87.04234,37.836064],[-87.043691,37.834669],[-87.047594,37.824153],[-87.043638,37.825889],[-87.042197,37.824685],[-87.044615,37.822411],[-87.048023,37.823378],[-87.048474,37.821104],[-87.050864,37.815137],[-87.054667,37.808885],[-87.057271,37.805425],[-87.058892,37.802616],[-87.062036,37.798275],[-87.066176,37.793478],[-87.071244,37.788863],[-87.074166,37.786841],[-87.082998,37.782087],[-87.09219,37.778475],[-87.097029,37.777166],[-87.103639,37.776384],[-87.108858,37.776177]]],[[[-87.117907,37.697029],[-87.120295,37.696717],[-87.12299,37.695512],[-87.128751,37.69125],[-87.130908,37.690717],[-87.132669,37.689285],[-87.131344,37.685681],[-87.129026,37.669779],[-87.121013,37.669913],[-87.121177,37.671022],[-87.120242,37.694295],[-87.118861,37.695185],[-87.117907,37.697029]]]]}},{"type":"Feature","properties":{"zcta5":"42376","AFFGEOID10":"8600000US42376","GEOID10":"42376","ALAND10":258965988,"AWATER10":2509167,"county_name":"Daviess","state_code":"KY","county_state":"Daviess County, KY","county_fips":"21059","risk_level_county":"Higher Risk (60–69% vaccinated)","mean_vaccination_rate_county":69.81,"risk_level_zcta":"Medium Risk (70–79% vaccinated)","mean_vaccination_rate_zips":77.58,"cases":4},"geometry":{"type":"MultiPolygon","coordinates":[[[[-87.19314,37.594401],[-87.193162,37.594404],[-87.198647,37.595723],[-87.198727,37.594683],[-87.197219,37.592842],[-87.194854,37.593512],[-87.193621,37.593233],[-87.193166,37.594329],[-87.19314,37.594401]]],[[[-87.266082,37.625688],[-87.26695,37.624247],[-87.267407,37.622778],[-87.266319,37.621276],[-87.26571,37.618083],[-87.264032,37.613619],[-87.261406,37.610274],[-87.259124,37.608649],[-87.254489,37.607132],[-87.254247,37.604213],[-87.246481,37.604273],[-87.240779,37.604729],[-87.236851,37.604583],[-87.238118,37.596073],[-87.238806,37.592809],[-87.239862,37.592061],[-87.218766,37.590579],[-87.216183,37.589695],[-87.208189,37.596977],[-87.210666,37.59835],[-87.212075,37.600818],[-87.211234,37.60223],[-87.209122,37.603936],[-87.192154,37.598108],[-87.19314,37.594401],[-87.192103,37.594078],[-87.190886,37.590923],[-87.192191,37.588586],[-87.193769,37.58702],[-87.19369,37.582449],[-87.190524,37.582292],[-87.180934,37.578616],[-87.171973,37.576555],[-87.169875,37.575868],[-87.165053,37.573257],[-87.165514,37.576906],[-87.164526,37.585773],[-87.16293,37.584222],[-87.159155,37.582338],[-87.155603,37.581026],[-87.15444,37.584359],[-87.148983,37.58017],[-87.138821,37.575628],[-87.108777,37.571159],[-87.105578,37.569153],[-87.100911,37.568896],[-87.095532,37.56693],[-87.089464,37.567205],[-87.076726,37.567898],[-87.073481,37.567756],[-87.073867,37.567085],[-87.078002,37.565473],[-87.078688,37.564597],[-87.079576,37.558301],[-87.073707,37.557815],[-87.071769,37.552012],[-87.06931,37.550229],[-87.06612,37.546449],[-87.066251,37.544288],[-87.067358,37.542692],[-87.067739,37.539886],[-87.059182,37.540347],[-87.057452,37.541204],[-87.053462,37.546474],[-87.049376,37.55186],[-87.03826,37.560803],[-87.038685,37.559962],[-87.032796,37.557556],[-87.020217,37.555278],[-87.019379,37.553399],[-87.017427,37.550964],[-87.015256,37.546628],[-87.013779,37.546226],[-87.011,37.542862],[-87.010027,37.543983],[-87.008177,37.544454],[-86.997006,37.545117],[-86.994784,37.546395],[-86.978301,37.539728],[-86.977452,37.539556],[-86.975816,37.536676],[-86.972145,37.536692],[-86.969455,37.53777],[-86.960995,37.538244],[-86.959702,37.540181],[-86.959448,37.543035],[-86.958709,37.543725],[-86.957492,37.540726],[-86.954924,37.544081],[-86.952675,37.545713],[-86.952386,37.547922],[-86.949453,37.5509],[-86.950165,37.553477],[-86.951242,37.555642],[-86.952608,37.55656],[-86.953672,37.559972],[-86.955511,37.562722],[-86.959623,37.564284],[-86.960935,37.567361],[-86.968071,37.56748],[-86.968611,37.569037],[-86.968953,37.573867],[-86.986995,37.595933],[-86.953377,37.615707],[-86.953547,37.617869],[-86.963689,37.617342],[-86.964246,37.617473],[-86.964413,37.61813],[-86.968556,37.614601],[-86.969005,37.618347],[-86.983723,37.617221],[-86.990037,37.629303],[-86.975467,37.630388],[-86.974189,37.630623],[-86.980007,37.638624],[-86.982771,37.638304],[-86.98238,37.642881],[-86.998704,37.645892],[-87.001032,37.650242],[-87.004231,37.654384],[-87.007172,37.656996],[-87.019702,37.665822],[-87.02207,37.6678],[-87.02588,37.666472],[-87.028805,37.669721],[-87.03484,37.674745],[-87.033682,37.677414],[-87.032479,37.677999],[-87.028164,37.676895],[-87.034319,37.690846],[-87.03715,37.696401],[-87.044611,37.708016],[-87.057535,37.702259],[-87.06246,37.701425],[-87.062045,37.699383],[-87.063856,37.697988],[-87.06684,37.690493],[-87.067545,37.690158],[-87.073864,37.691401],[-87.077845,37.681846],[-87.079655,37.680473],[-87.08496,37.679396],[-87.088236,37.678143],[-87.090732,37.679313],[-87.086733,37.685608],[-87.083727,37.691521],[-87.086295,37.699729],[-87.087561,37.700888],[-87.089276,37.701833],[-87.091524,37.702211],[-87.096178,37.70149],[-87.099352,37.702099],[-87.100777,37.701928],[-87.106085,37.698113],[-87.108242,37.697431],[-87.117907,37.697029],[-87.118861,37.695185],[-87.120242,37.694295],[-87.121177,37.671022],[-87.121013,37.669913],[-87.129026,37.669779],[-87.133249,37.669656],[-87.135741,37.671289],[-87.137036,37.67147],[-87.140289,37.668348],[-87.141309,37.663068],[-87.140487,37.66143],[-87.14205,37.659393],[-87.145742,37.65841],[-87.149218,37.658032],[-87.15029,37.656862],[-87.150126,37.654186],[-87.147521,37.651883],[-87.149126,37.648675],[-87.150889,37.646774],[-87.15201,37.643533],[-87.150777,37.642252],[-87.13496,37.645317],[-87.133342,37.628384],[-87.134093,37.625887],[-87.151692,37.630115],[-87.150904,37.631087],[-87.150924,37.635645],[-87.153516,37.635124],[-87.155047,37.636836],[-87.168779,37.634245],[-87.170566,37.634836],[-87.17318,37.632115],[-87.174045,37.631922],[-87.186586,37.633751],[-87.192026,37.633884],[-87.193408,37.633551],[-87.195467,37.638547],[-87.19616,37.644326],[-87.19719,37.64638],[-87.19749,37.650106],[-87.200887,37.650512],[-87.20312,37.650134],[-87.206319,37.651713],[-87.208683,37.653786],[-87.209316,37.655308],[-87.212867,37.656337],[-87.216875,37.656896],[-87.223659,37.656714],[-87.227656,37.65457],[-87.235171,37.65385],[-87.236155,37.64909],[-87.235778,37.647728],[-87.236595,37.645553],[-87.239396,37.645448],[-87.241902,37.646621],[-87.245967,37.647475],[-87.244447,37.644958],[-87.238702,37.640654],[-87.236686,37.638638],[-87.234913,37.63432],[-87.236576,37.632541],[-87.239691,37.630628],[-87.2425,37.627837],[-87.245456,37.627691],[-87.248432,37.626716],[-87.252105,37.626263],[-87.253797,37.62559],[-87.256188,37.626442],[-87.260297,37.625548],[-87.263701,37.626346],[-87.266082,37.625688]]]]}},{"type":"Feature","properties":{"zcta5":"42378","AFFGEOID10":"8600000US42378","GEOID10":"42378","ALAND10":173544725,"AWATER10":1234507,"county_name":"Daviess","state_code":"KY","county_state":"Daviess County, KY","county_fips":"21059","risk_level_county":"Higher Risk (60–69% vaccinated)","mean_vaccination_rate_county":69.81,"risk_level_zcta":"Medium Risk (70–79% vaccinated)","mean_vaccination_rate_zips":76.07,"cases":4},"geometry":{"type":"Polygon","coordinates":[[[-86.953377,37.615707],[-86.986995,37.595933],[-86.968953,37.573867],[-86.968611,37.569037],[-86.968071,37.56748],[-86.960935,37.567361],[-86.959623,37.564284],[-86.955511,37.562722],[-86.953672,37.559972],[-86.952608,37.55656],[-86.951242,37.555642],[-86.950165,37.553477],[-86.94935,37.554747],[-86.94768,37.55534],[-86.9463,37.557494],[-86.942756,37.560301],[-86.952826,37.574373],[-86.936961,37.552492],[-86.920538,37.568538],[-86.922706,37.572967],[-86.918442,37.575807],[-86.919676,37.576231],[-86.925128,37.576447],[-86.927735,37.578622],[-86.928369,37.579805],[-86.927856,37.583696],[-86.928551,37.587657],[-86.927442,37.591475],[-86.929117,37.594317],[-86.925737,37.59555],[-86.922984,37.598495],[-86.919662,37.600647],[-86.917614,37.601201],[-86.911903,37.600429],[-86.911566,37.601549],[-86.908254,37.601188],[-86.902128,37.607051],[-86.8989,37.608646],[-86.893726,37.609331],[-86.891727,37.610295],[-86.89084,37.612053],[-86.889008,37.613724],[-86.887895,37.618315],[-86.887348,37.618973],[-86.882144,37.616478],[-86.878704,37.616245],[-86.874666,37.615205],[-86.870044,37.614576],[-86.866991,37.614802],[-86.861349,37.61619],[-86.858905,37.618053],[-86.856937,37.618406],[-86.84922,37.617771],[-86.84598,37.616904],[-86.845696,37.614118],[-86.847208,37.61315],[-86.848324,37.606705],[-86.847658,37.600062],[-86.84562,37.597771],[-86.840578,37.595399],[-86.838885,37.595998],[-86.832837,37.59278],[-86.81036,37.605574],[-86.806534,37.601803],[-86.800344,37.599848],[-86.799861,37.60177],[-86.79824,37.604688],[-86.793777,37.609073],[-86.792815,37.615399],[-86.78988,37.616996],[-86.788823,37.618726],[-86.78659,37.620563],[-86.782612,37.624748],[-86.780904,37.628723],[-86.779097,37.63003],[-86.777538,37.632712],[-86.777363,37.634635],[-86.778141,37.636892],[-86.777453,37.640007],[-86.774298,37.641708],[-86.772898,37.64369],[-86.775333,37.64413],[-86.779889,37.646625],[-86.783787,37.643353],[-86.788727,37.64257],[-86.791024,37.643437],[-86.792482,37.64491],[-86.799095,37.645779],[-86.801796,37.645543],[-86.800711,37.647316],[-86.795465,37.652078],[-86.797594,37.652798],[-86.805203,37.64667],[-86.809711,37.640642],[-86.806525,37.638959],[-86.809525,37.633836],[-86.812453,37.632278],[-86.815733,37.627077],[-86.818915,37.620251],[-86.820262,37.619635],[-86.832702,37.617908],[-86.8356,37.618098],[-86.838627,37.617381],[-86.841856,37.621545],[-86.845191,37.624893],[-86.8431,37.628291],[-86.842414,37.63195],[-86.835988,37.640941],[-86.833705,37.642275],[-86.823285,37.642929],[-86.824067,37.645199],[-86.828197,37.649136],[-86.828777,37.65083],[-86.82762,37.653637],[-86.828942,37.655804],[-86.825098,37.655966],[-86.822935,37.659852],[-86.820143,37.662336],[-86.820152,37.665146],[-86.817925,37.664367],[-86.817155,37.666688],[-86.818163,37.667558],[-86.818019,37.669252],[-86.814851,37.671129],[-86.811858,37.671221],[-86.810622,37.672309],[-86.807634,37.672619],[-86.803766,37.671438],[-86.802326,37.669923],[-86.800585,37.669348],[-86.795807,37.669453],[-86.796379,37.670834],[-86.800104,37.675318],[-86.800967,37.678731],[-86.800449,37.680288],[-86.798691,37.681432],[-86.796401,37.680081],[-86.794242,37.679545],[-86.794178,37.677888],[-86.793214,37.676338],[-86.789658,37.673962],[-86.783372,37.681778],[-86.783266,37.684753],[-86.780627,37.685978],[-86.778763,37.687947],[-86.776912,37.68877],[-86.775963,37.69108],[-86.772779,37.690671],[-86.772855,37.692598],[-86.774513,37.693525],[-86.776061,37.697843],[-86.777894,37.699829],[-86.779427,37.703252],[-86.780515,37.704616],[-86.780307,37.707865],[-86.782294,37.709496],[-86.781674,37.711127],[-86.78295,37.712883],[-86.782782,37.715248],[-86.781277,37.716045],[-86.781557,37.718656],[-86.781025,37.72032],[-86.808332,37.731549],[-86.823429,37.737754],[-86.827466,37.735049],[-86.830592,37.736993],[-86.835336,37.738281],[-86.83943,37.738082],[-86.845187,37.740165],[-86.845702,37.741534],[-86.844489,37.745604],[-86.844748,37.748991],[-86.846923,37.750144],[-86.84723,37.74854],[-86.850977,37.743286],[-86.852228,37.740615],[-86.855285,37.738284],[-86.857147,37.738344],[-86.858688,37.735635],[-86.859988,37.734931],[-86.861683,37.735238],[-86.866917,37.731065],[-86.868543,37.730828],[-86.872031,37.724392],[-86.873141,37.726275],[-86.872711,37.727497],[-86.878445,37.72882],[-86.877081,37.727265],[-86.873706,37.725282],[-86.872536,37.723546],[-86.87398,37.72232],[-86.875198,37.719973],[-86.881965,37.72407],[-86.887793,37.731582],[-86.888952,37.731993],[-86.90435,37.689504],[-86.908755,37.691158],[-86.910101,37.688901],[-86.913255,37.685544],[-86.920255,37.682106],[-86.924012,37.678081],[-86.924915,37.675104],[-86.926368,37.674451],[-86.926923,37.672561],[-86.926368,37.67083],[-86.926445,37.668326],[-86.929332,37.661084],[-86.9221,37.659243],[-86.924625,37.65651],[-86.925309,37.655104],[-86.926511,37.655307],[-86.929622,37.650214],[-86.9305,37.649566],[-86.933721,37.642528],[-86.936139,37.643158],[-86.940504,37.632683],[-86.941077,37.63039],[-86.943384,37.629271],[-86.943493,37.628276],[-86.94187,37.628737],[-86.941805,37.62702],[-86.940335,37.627213],[-86.938636,37.62562],[-86.933229,37.626229],[-86.934283,37.624436],[-86.933712,37.623221],[-86.932604,37.624784],[-86.930949,37.623747],[-86.929773,37.625195],[-86.929503,37.623487],[-86.927533,37.623608],[-86.926233,37.624467],[-86.923424,37.623955],[-86.925199,37.619882],[-86.924685,37.617375],[-86.926296,37.616162],[-86.926049,37.61358],[-86.930505,37.613171],[-86.932669,37.61248],[-86.933871,37.610776],[-86.933638,37.612497],[-86.93551,37.614901],[-86.942725,37.615193],[-86.943975,37.618264],[-86.949533,37.618035],[-86.953377,37.615707]]]}},{"type":"Feature","properties":{"zcta5":"42351","AFFGEOID10":"8600000US42351","GEOID10":"42351","ALAND10":177886853,"AWATER10":15258621,"county_name":"Daviess","state_code":"KY","county_state":"Daviess County, KY","county_fips":"21059","risk_level_county":"Higher Risk (60–69% vaccinated)","mean_vaccination_rate_county":69.81,"risk_level_zcta":"Medium Risk (70–79% vaccinated)","mean_vaccination_rate_zips":77.83,"cases":4},"geometry":{"type":"Polygon","coordinates":[[[-86.977026,37.923718],[-86.975364,37.920311],[-86.973966,37.921523],[-86.972525,37.920549],[-86.973929,37.919815],[-86.971657,37.918904],[-86.970154,37.918917],[-86.971803,37.917962],[-86.973912,37.918355],[-86.975568,37.916219],[-86.978823,37.913854],[-86.978935,37.912155],[-86.976936,37.911695],[-86.979074,37.908536],[-86.979201,37.909505],[-86.981503,37.909221],[-86.982827,37.907739],[-86.982969,37.906134],[-86.984775,37.906396],[-86.986049,37.904742],[-86.983871,37.905274],[-86.983374,37.904561],[-86.984435,37.902187],[-86.985517,37.901371],[-86.986429,37.898847],[-86.985543,37.898198],[-86.987136,37.897383],[-86.986204,37.895339],[-86.984257,37.893728],[-86.985181,37.892377],[-86.98333,37.891806],[-86.97819,37.892847],[-86.973216,37.893308],[-86.972202,37.892879],[-86.968129,37.893971],[-86.965176,37.89375],[-86.953376,37.888622],[-86.952576,37.886939],[-86.952988,37.884464],[-86.942553,37.887685],[-86.938805,37.889863],[-86.947739,37.883717],[-86.961369,37.875887],[-86.959211,37.875638],[-86.958259,37.876623],[-86.955827,37.875479],[-86.956041,37.874184],[-86.955121,37.871001],[-86.95595,37.86563],[-86.95396,37.8656],[-86.954781,37.8616],[-86.952999,37.859903],[-86.948185,37.860515],[-86.945925,37.862315],[-86.944517,37.861277],[-86.945497,37.859907],[-86.944601,37.858355],[-86.941817,37.856827],[-86.941956,37.851912],[-86.941276,37.853038],[-86.929511,37.8465],[-86.928125,37.846565],[-86.925692,37.841527],[-86.928252,37.837617],[-86.929162,37.837115],[-86.929551,37.833233],[-86.927928,37.830009],[-86.928407,37.82906],[-86.929293,37.828683],[-86.932454,37.829206],[-86.938749,37.827543],[-86.944594,37.823678],[-86.946204,37.823879],[-86.94483,37.821402],[-86.94224,37.819065],[-86.939032,37.813554],[-86.935114,37.810056],[-86.928983,37.807506],[-86.925007,37.805941],[-86.921407,37.810624],[-86.918182,37.809838],[-86.915057,37.814994],[-86.91382,37.815164],[-86.910496,37.817656],[-86.908229,37.817794],[-86.907609,37.819669],[-86.904866,37.822516],[-86.90356,37.822026],[-86.899906,37.822301],[-86.896596,37.820368],[-86.892184,37.819744],[-86.889733,37.817749],[-86.886217,37.819962],[-86.882366,37.820493],[-86.879081,37.814079],[-86.876666,37.811754],[-86.872307,37.811019],[-86.865796,37.816649],[-86.865602,37.817814],[-86.863243,37.818021],[-86.863085,37.819754],[-86.863896,37.820798],[-86.863838,37.822584],[-86.861995,37.825306],[-86.861818,37.826473],[-86.860405,37.828135],[-86.860332,37.829762],[-86.861095,37.832109],[-86.864652,37.833776],[-86.86249,37.837355],[-86.860929,37.838913],[-86.859318,37.839727],[-86.856323,37.838679],[-86.854657,37.839412],[-86.854035,37.840811],[-86.866447,37.838789],[-86.868226,37.840553],[-86.86958,37.843174],[-86.87012,37.84556],[-86.8696,37.849571],[-86.870394,37.852416],[-86.864952,37.855552],[-86.86293,37.855725],[-86.855451,37.85512],[-86.854844,37.856693],[-86.853053,37.8582],[-86.849429,37.860056],[-86.847106,37.862077],[-86.842904,37.8629],[-86.841554,37.863834],[-86.839029,37.866756],[-86.835221,37.869048],[-86.832128,37.869235],[-86.830297,37.870261],[-86.829663,37.871493],[-86.828094,37.872528],[-86.82452,37.872963],[-86.819794,37.874248],[-86.818519,37.874947],[-86.815273,37.874011],[-86.813768,37.874007],[-86.807948,37.875462],[-86.808722,37.877544],[-86.805137,37.8786],[-86.806752,37.879579],[-86.807881,37.88116],[-86.808089,37.882714],[-86.80732,37.884508],[-86.808249,37.886538],[-86.808522,37.888552],[-86.806971,37.889652],[-86.805919,37.891883],[-86.806575,37.896782],[-86.805875,37.903403],[-86.8094,37.904794],[-86.812295,37.904258],[-86.814551,37.904457],[-86.817068,37.903968],[-86.823766,37.907255],[-86.824692,37.90816],[-86.82818,37.909915],[-86.830319,37.910228],[-86.829193,37.912983],[-86.828803,37.915295],[-86.825533,37.915965],[-86.82144,37.919583],[-86.817044,37.923016],[-86.814924,37.924101],[-86.81576,37.926364],[-86.815668,37.928796],[-86.817188,37.930888],[-86.817511,37.933831],[-86.819162,37.936507],[-86.820131,37.940576],[-86.823095,37.943005],[-86.826079,37.947435],[-86.826864,37.950535],[-86.824743,37.949006],[-86.816536,37.950369],[-86.815891,37.951543],[-86.814728,37.950606],[-86.81342,37.950888],[-86.811017,37.949807],[-86.809435,37.95059],[-86.803071,37.95089],[-86.800969,37.949066],[-86.797671,37.951305],[-86.797002,37.948854],[-86.795285,37.945181],[-86.790664,37.937879],[-86.787941,37.934991],[-86.779319,37.939912],[-86.776497,37.950155],[-86.77620521991729,37.950367471054996],[-86.779915,37.955462],[-86.778569,37.957298],[-86.781335,37.96162],[-86.787168,37.968801],[-86.790509,37.980046],[-86.7938,37.986541],[-86.79551,37.989453],[-86.80013648646779,37.99128927335409],[-86.803134,37.992479],[-86.8050811656634,37.993648200516],[-86.810913,37.99715],[-86.81475580563179,37.9986742364093],[-86.815267,37.998877],[-86.820071,37.999392],[-86.823491,37.998939],[-86.835161,37.99375],[-86.849027,37.99002],[-86.85595,37.987292],[-86.863224,37.982495],[-86.869029,37.976894],[-86.875874,37.97077],[-86.879364,37.969268],[-86.88511388448569,37.9642590716798],[-86.88648,37.963069],[-86.89029,37.957426],[-86.901983,37.946448],[-86.909318,37.94211],[-86.917949,37.93724],[-86.925825,37.935109],[-86.933357,37.934939],[-86.944633,37.933534],[-86.964785,37.932384],[-86.968004,37.932996],[-86.97883393390049,37.930231415394296],[-86.977373,37.924164],[-86.977026,37.923718]]]}},{"type":"Feature","properties":{"zcta5":"42355","AFFGEOID10":"8600000US42355","GEOID10":"42355","ALAND10":73988806,"AWATER10":1072735,"county_name":"Daviess","state_code":"KY","county_state":"Daviess County, KY","county_fips":"21059","risk_level_county":"Higher Risk (60–69% vaccinated)","mean_vaccination_rate_county":69.81,"risk_level_zcta":"Medium Risk (70–79% vaccinated)","mean_vaccination_rate_zips":73.34,"cases":4},"geometry":{"type":"Polygon","coordinates":[[[-86.977026,37.923718],[-86.97972,37.923356],[-86.986571,37.921276],[-86.994033,37.919669],[-87.00339,37.915871],[-87.009336,37.912901],[-87.014129,37.910173],[-87.024209,37.903874],[-87.027317,37.901628],[-87.030549,37.898711],[-87.031554,37.898827],[-87.030702,37.897725],[-87.019922,37.885647],[-87.013442,37.87856],[-87.012634,37.877287],[-87.012864,37.873231],[-87.013471,37.872318],[-87.014034,37.873456],[-87.027307,37.878398],[-87.028896,37.875585],[-87.031607,37.872495],[-87.031705,37.871364],[-87.033189,37.870007],[-87.032323,37.869117],[-87.034201,37.867667],[-87.033543,37.866606],[-87.035921,37.865903],[-87.037946,37.862904],[-87.038321,37.860711],[-87.041928,37.847377],[-87.042559,37.843789],[-87.039441,37.844399],[-87.039421,37.843311],[-87.042504,37.842778],[-87.043691,37.834669],[-87.04234,37.836064],[-87.042173,37.837702],[-87.039277,37.839377],[-87.038951,37.838141],[-87.037018,37.83981],[-87.032957,37.841425],[-87.03061,37.838199],[-87.028309,37.837566],[-87.022361,37.83473],[-87.021321,37.836378],[-87.018632,37.837003],[-87.018423,37.835716],[-87.025481,37.82915],[-87.024109,37.82869],[-87.022187,37.830914],[-87.018555,37.832706],[-87.014395,37.833138],[-87.009851,37.83023],[-87.005294,37.830536],[-87.006637,37.831745],[-87.006913,37.833185],[-86.995334,37.828658],[-86.998996,37.825821],[-87.000459,37.823529],[-86.989607,37.819224],[-86.987634,37.815777],[-86.985374,37.818551],[-86.984348,37.816623],[-86.986404,37.813449],[-86.982141,37.80536],[-86.981506,37.80586],[-86.977662,37.811462],[-86.974255,37.812758],[-86.970176,37.816417],[-86.963929,37.814393],[-86.959812,37.811877],[-86.958981,37.809197],[-86.957309,37.80771],[-86.956223,37.804565],[-86.956974,37.801757],[-86.953618,37.797925],[-86.953219,37.796936],[-86.951184,37.796196],[-86.946688,37.800337],[-86.942974,37.798805],[-86.938083,37.795581],[-86.937335,37.795405],[-86.933256,37.802099],[-86.932025,37.803038],[-86.928983,37.807506],[-86.935114,37.810056],[-86.939032,37.813554],[-86.94224,37.819065],[-86.94483,37.821402],[-86.946204,37.823879],[-86.944594,37.823678],[-86.938749,37.827543],[-86.932454,37.829206],[-86.929293,37.828683],[-86.928407,37.82906],[-86.927928,37.830009],[-86.929551,37.833233],[-86.929162,37.837115],[-86.928252,37.837617],[-86.925692,37.841527],[-86.928125,37.846565],[-86.929511,37.8465],[-86.941276,37.853038],[-86.941956,37.851912],[-86.941817,37.856827],[-86.944601,37.858355],[-86.945497,37.859907],[-86.944517,37.861277],[-86.945925,37.862315],[-86.948185,37.860515],[-86.952999,37.859903],[-86.954781,37.8616],[-86.95396,37.8656],[-86.95595,37.86563],[-86.955121,37.871001],[-86.956041,37.874184],[-86.955827,37.875479],[-86.958259,37.876623],[-86.959211,37.875638],[-86.961369,37.875887],[-86.947739,37.883717],[-86.938805,37.889863],[-86.942553,37.887685],[-86.952988,37.884464],[-86.952576,37.886939],[-86.953376,37.888622],[-86.965176,37.89375],[-86.968129,37.893971],[-86.972202,37.892879],[-86.973216,37.893308],[-86.97819,37.892847],[-86.98333,37.891806],[-86.985181,37.892377],[-86.984257,37.893728],[-86.986204,37.895339],[-86.987136,37.897383],[-86.985543,37.898198],[-86.986429,37.898847],[-86.985517,37.901371],[-86.984435,37.902187],[-86.983374,37.904561],[-86.983871,37.905274],[-86.986049,37.904742],[-86.984775,37.906396],[-86.982969,37.906134],[-86.982827,37.907739],[-86.981503,37.909221],[-86.979201,37.909505],[-86.979074,37.908536],[-86.976936,37.911695],[-86.978935,37.912155],[-86.978823,37.913854],[-86.975568,37.916219],[-86.973912,37.918355],[-86.971803,37.917962],[-86.970154,37.918917],[-86.971657,37.918904],[-86.973929,37.919815],[-86.972525,37.920549],[-86.973966,37.921523],[-86.975364,37.920311],[-86.977026,37.923718]]]}},{"type":"Feature","properties":{"zcta5":"42348","AFFGEOID10":"8600000US42348","GEOID10":"42348","ALAND10":288727010,"AWATER10":14136379,"county_name":"Daviess","state_code":"KY","county_state":"Daviess County, KY","county_fips":"21059","risk_level_county":"Higher Risk (60–69% vaccinated)","mean_vaccination_rate_county":69.81,"risk_level_zcta":"Medium Risk (70–79% vaccinated)","mean_vaccination_rate_zips":70.81,"cases":4},"geometry":{"type":"Polygon","coordinates":[[[-86.876666,37.811754],[-86.874283,37.809311],[-86.876749,37.807181],[-86.882534,37.792647],[-86.880856,37.791788],[-86.884899,37.789158],[-86.887237,37.784307],[-86.883786,37.782893],[-86.881787,37.781286],[-86.880197,37.780927],[-86.878859,37.778186],[-86.880264,37.772951],[-86.87573,37.770782],[-86.872873,37.767948],[-86.871546,37.76606],[-86.87247,37.762528],[-86.872256,37.760189],[-86.868968,37.760333],[-86.865043,37.759102],[-86.86074,37.759266],[-86.859174,37.761397],[-86.855531,37.761843],[-86.854024,37.759466],[-86.850632,37.75778],[-86.849649,37.756545],[-86.845101,37.752925],[-86.84335,37.753761],[-86.83652,37.755382],[-86.821687,37.752064],[-86.822203,37.74772],[-86.815853,37.750842],[-86.809871,37.752692],[-86.809285,37.749606],[-86.807779,37.74911],[-86.803534,37.748088],[-86.803542,37.745786],[-86.800232,37.744675],[-86.798733,37.744535],[-86.79242,37.742816],[-86.789948,37.743686],[-86.788791,37.746307],[-86.787949,37.746337],[-86.785321,37.745001],[-86.784186,37.748276],[-86.78238,37.752081],[-86.782752,37.755368],[-86.781481,37.756474],[-86.779464,37.756602],[-86.778109,37.757862],[-86.774833,37.757061],[-86.772684,37.75821],[-86.769867,37.756302],[-86.765465,37.752479],[-86.759058,37.748764],[-86.759147,37.750208],[-86.757937,37.751055],[-86.757384,37.753227],[-86.755916,37.755146],[-86.751061,37.757369],[-86.745761,37.75778],[-86.744282,37.758519],[-86.742222,37.762582],[-86.744836,37.764521],[-86.746733,37.766863],[-86.746777,37.769314],[-86.748254,37.770873],[-86.748256,37.772601],[-86.749595,37.773414],[-86.74955,37.774975],[-86.747455,37.774604],[-86.743765,37.772971],[-86.742036,37.773155],[-86.738557,37.776625],[-86.735712,37.778824],[-86.72849,37.781492],[-86.723419,37.781879],[-86.718555,37.781766],[-86.71764,37.775215],[-86.71695,37.773169],[-86.717963,37.77139],[-86.717681,37.767703],[-86.716465,37.765481],[-86.716088,37.761032],[-86.713129,37.75736],[-86.712413,37.757085],[-86.711372,37.756413],[-86.709814,37.757745],[-86.708516,37.756928],[-86.704399,37.756862],[-86.701145,37.75779],[-86.698817,37.759032],[-86.697121,37.762158],[-86.695924,37.763594],[-86.694923,37.763787],[-86.693102,37.762505],[-86.691671,37.762725],[-86.690798,37.764191],[-86.687341,37.768259],[-86.684886,37.769652],[-86.684697,37.767633],[-86.679422,37.760307],[-86.679399,37.757968],[-86.677648,37.752832],[-86.679069,37.750779],[-86.677727,37.748943],[-86.677578,37.745726],[-86.677821,37.740125],[-86.677311,37.737702],[-86.675769,37.735951],[-86.671666,37.734762],[-86.669117,37.733425],[-86.665032,37.735958],[-86.662239,37.735222],[-86.659592,37.735943],[-86.657425,37.735459],[-86.653593,37.732607],[-86.677873,37.792848],[-86.666088,37.835803],[-86.658975,37.838414],[-86.655296,37.842508],[-86.658268,37.844144],[-86.661637,37.849714],[-86.662495,37.856951],[-86.661233,37.862761],[-86.658374,37.869376],[-86.648727,37.886036],[-86.644754,37.894806],[-86.644039,37.898202],[-86.644143,37.902366],[-86.645513,37.906529],[-86.647081,37.908621],[-86.650087,37.910616],[-86.660888,37.913059],[-86.673038,37.914903],[-86.680929,37.91501],[-86.686015,37.913084],[-86.691994,37.908529],[-86.707816,37.898367],[-86.716138,37.894073],[-86.718462,37.893123],[-86.722247,37.892648],[-86.73146,37.89434],[-86.734718,37.896587],[-86.75099,37.912893],[-86.7566307792954,37.9209031200166],[-86.764734,37.93241],[-86.775508,37.94941],[-86.77620521991729,37.950367471054996],[-86.776497,37.950155],[-86.779319,37.939912],[-86.787941,37.934991],[-86.790664,37.937879],[-86.795285,37.945181],[-86.797002,37.948854],[-86.797671,37.951305],[-86.800969,37.949066],[-86.803071,37.95089],[-86.809435,37.95059],[-86.811017,37.949807],[-86.81342,37.950888],[-86.814728,37.950606],[-86.815891,37.951543],[-86.816536,37.950369],[-86.824743,37.949006],[-86.826864,37.950535],[-86.826079,37.947435],[-86.823095,37.943005],[-86.820131,37.940576],[-86.819162,37.936507],[-86.817511,37.933831],[-86.817188,37.930888],[-86.815668,37.928796],[-86.81576,37.926364],[-86.814924,37.924101],[-86.817044,37.923016],[-86.82144,37.919583],[-86.825533,37.915965],[-86.828803,37.915295],[-86.829193,37.912983],[-86.830319,37.910228],[-86.82818,37.909915],[-86.824692,37.90816],[-86.823766,37.907255],[-86.817068,37.903968],[-86.814551,37.904457],[-86.812295,37.904258],[-86.8094,37.904794],[-86.805875,37.903403],[-86.806575,37.896782],[-86.805919,37.891883],[-86.806971,37.889652],[-86.808522,37.888552],[-86.808249,37.886538],[-86.80732,37.884508],[-86.808089,37.882714],[-86.807881,37.88116],[-86.806752,37.879579],[-86.805137,37.8786],[-86.808722,37.877544],[-86.807948,37.875462],[-86.813768,37.874007],[-86.815273,37.874011],[-86.818519,37.874947],[-86.819794,37.874248],[-86.82452,37.872963],[-86.828094,37.872528],[-86.829663,37.871493],[-86.830297,37.870261],[-86.832128,37.869235],[-86.835221,37.869048],[-86.839029,37.866756],[-86.841554,37.863834],[-86.842904,37.8629],[-86.847106,37.862077],[-86.849429,37.860056],[-86.853053,37.8582],[-86.854844,37.856693],[-86.855451,37.85512],[-86.86293,37.855725],[-86.864952,37.855552],[-86.870394,37.852416],[-86.8696,37.849571],[-86.87012,37.84556],[-86.86958,37.843174],[-86.868226,37.840553],[-86.866447,37.838789],[-86.854035,37.840811],[-86.854657,37.839412],[-86.856323,37.838679],[-86.859318,37.839727],[-86.860929,37.838913],[-86.86249,37.837355],[-86.864652,37.833776],[-86.861095,37.832109],[-86.860332,37.829762],[-86.860405,37.828135],[-86.861818,37.826473],[-86.861995,37.825306],[-86.863838,37.822584],[-86.863896,37.820798],[-86.863085,37.819754],[-86.863243,37.818021],[-86.865602,37.817814],[-86.865796,37.816649],[-86.872307,37.811019],[-86.876666,37.811754]]]}},{"type":"Feature","properties":{"zcta5":"42366","AFFGEOID10":"8600000US42366","GEOID10":"42366","ALAND10":208736969,"AWATER10":1695065,"county_name":"Daviess","state_code":"KY","county_state":"Daviess County, KY","county_fips":"21059","risk_level_county":"Higher Risk (60–69% vaccinated)","mean_vaccination_rate_county":69.81,"risk_level_zcta":"Medium Risk (70–79% vaccinated)","mean_vaccination_rate_zips":72.62,"cases":4},"geometry":{"type":"Polygon","coordinates":[[[-87.044611,37.708016],[-87.03715,37.696401],[-87.034319,37.690846],[-87.028164,37.676895],[-87.032479,37.677999],[-87.033682,37.677414],[-87.03484,37.674745],[-87.028805,37.669721],[-87.02588,37.666472],[-87.02207,37.6678],[-87.019702,37.665822],[-87.007172,37.656996],[-87.004231,37.654384],[-87.001032,37.650242],[-86.998704,37.645892],[-86.98238,37.642881],[-86.982771,37.638304],[-86.980007,37.638624],[-86.974189,37.630623],[-86.975467,37.630388],[-86.990037,37.629303],[-86.983723,37.617221],[-86.969005,37.618347],[-86.968556,37.614601],[-86.964413,37.61813],[-86.964246,37.617473],[-86.963689,37.617342],[-86.953547,37.617869],[-86.953377,37.615707],[-86.949533,37.618035],[-86.943975,37.618264],[-86.942725,37.615193],[-86.93551,37.614901],[-86.933638,37.612497],[-86.933871,37.610776],[-86.932669,37.61248],[-86.930505,37.613171],[-86.926049,37.61358],[-86.926296,37.616162],[-86.924685,37.617375],[-86.925199,37.619882],[-86.923424,37.623955],[-86.926233,37.624467],[-86.927533,37.623608],[-86.929503,37.623487],[-86.929773,37.625195],[-86.930949,37.623747],[-86.932604,37.624784],[-86.933712,37.623221],[-86.934283,37.624436],[-86.933229,37.626229],[-86.938636,37.62562],[-86.940335,37.627213],[-86.941805,37.62702],[-86.94187,37.628737],[-86.943493,37.628276],[-86.943384,37.629271],[-86.941077,37.63039],[-86.940504,37.632683],[-86.936139,37.643158],[-86.933721,37.642528],[-86.9305,37.649566],[-86.929622,37.650214],[-86.926511,37.655307],[-86.925309,37.655104],[-86.924625,37.65651],[-86.9221,37.659243],[-86.929332,37.661084],[-86.926445,37.668326],[-86.926368,37.67083],[-86.926923,37.672561],[-86.926368,37.674451],[-86.924915,37.675104],[-86.924012,37.678081],[-86.920255,37.682106],[-86.913255,37.685544],[-86.910101,37.688901],[-86.908755,37.691158],[-86.90435,37.689504],[-86.888952,37.731993],[-86.887793,37.731582],[-86.881965,37.72407],[-86.875198,37.719973],[-86.87398,37.72232],[-86.872536,37.723546],[-86.873706,37.725282],[-86.877081,37.727265],[-86.878445,37.72882],[-86.872711,37.727497],[-86.873141,37.726275],[-86.872031,37.724392],[-86.868543,37.730828],[-86.866917,37.731065],[-86.861683,37.735238],[-86.859988,37.734931],[-86.858688,37.735635],[-86.857147,37.738344],[-86.855285,37.738284],[-86.852228,37.740615],[-86.850977,37.743286],[-86.84723,37.74854],[-86.846923,37.750144],[-86.844748,37.748991],[-86.844489,37.745604],[-86.845702,37.741534],[-86.845187,37.740165],[-86.83943,37.738082],[-86.835336,37.738281],[-86.830592,37.736993],[-86.827466,37.735049],[-86.823429,37.737754],[-86.808332,37.731549],[-86.804649,37.735448],[-86.805713,37.736038],[-86.806409,37.741403],[-86.808192,37.742275],[-86.809345,37.745134],[-86.807779,37.74911],[-86.809285,37.749606],[-86.809871,37.752692],[-86.815853,37.750842],[-86.822203,37.74772],[-86.821687,37.752064],[-86.83652,37.755382],[-86.84335,37.753761],[-86.845101,37.752925],[-86.849649,37.756545],[-86.850632,37.75778],[-86.854024,37.759466],[-86.855531,37.761843],[-86.859174,37.761397],[-86.86074,37.759266],[-86.865043,37.759102],[-86.868968,37.760333],[-86.872256,37.760189],[-86.87247,37.762528],[-86.871546,37.76606],[-86.872873,37.767948],[-86.87573,37.770782],[-86.880264,37.772951],[-86.878859,37.778186],[-86.880197,37.780927],[-86.881787,37.781286],[-86.883786,37.782893],[-86.887237,37.784307],[-86.884899,37.789158],[-86.880856,37.791788],[-86.882534,37.792647],[-86.876749,37.807181],[-86.874283,37.809311],[-86.876666,37.811754],[-86.879081,37.814079],[-86.882366,37.820493],[-86.886217,37.819962],[-86.889733,37.817749],[-86.892184,37.819744],[-86.896596,37.820368],[-86.899906,37.822301],[-86.90356,37.822026],[-86.904866,37.822516],[-86.907609,37.819669],[-86.908229,37.817794],[-86.910496,37.817656],[-86.91382,37.815164],[-86.915057,37.814994],[-86.918182,37.809838],[-86.921407,37.810624],[-86.925007,37.805941],[-86.928983,37.807506],[-86.932025,37.803038],[-86.933256,37.802099],[-86.937335,37.795405],[-86.938083,37.795581],[-86.942974,37.798805],[-86.946688,37.800337],[-86.951184,37.796196],[-86.953219,37.796936],[-86.956678,37.796864],[-86.960654,37.796134],[-86.961479,37.795162],[-86.966578,37.793094],[-86.970284,37.79299],[-86.97271,37.792425],[-86.975012,37.793738],[-86.977923,37.790867],[-86.979183,37.790493],[-86.981864,37.787177],[-86.984283,37.786735],[-86.988426,37.778804],[-86.989287,37.777729],[-86.989768,37.773968],[-86.993485,37.768177],[-86.997225,37.767052],[-87.007361,37.761664],[-87.00858,37.760368],[-87.012716,37.754391],[-87.015395,37.751369],[-87.010791,37.750866],[-87.008943,37.750146],[-87.002367,37.748433],[-87.000997,37.751835],[-86.994076,37.753892],[-86.993161,37.746611],[-86.993928,37.744899],[-87.002888,37.747166],[-87.007486,37.736012],[-87.010303,37.735998],[-87.019163,37.737793],[-87.0192,37.735821],[-87.019469,37.732119],[-87.02088,37.720905],[-87.024657,37.71894],[-87.026346,37.716935],[-87.028747,37.71504],[-87.044611,37.708016]]]}},{"type":"Feature","properties":{"zcta5":"42327","AFFGEOID10":"8600000US42327","GEOID10":"42327","ALAND10":322241655,"AWATER10":4782873,"county_name":"Daviess","state_code":"KY","county_state":"Daviess County, KY","county_fips":"21059","risk_level_county":"Higher Risk (60–69% vaccinated)","mean_vaccination_rate_county":69.81,"risk_level_zcta":"Medium Risk (70–79% vaccinated)","mean_vaccination_rate_zips":74.15,"cases":4},"geometry":{"type":"Polygon","coordinates":[[[-87.495331,37.647547],[-87.498352,37.642775],[-87.499924,37.639269],[-87.499647,37.627445],[-87.498429,37.62507],[-87.493533,37.618153],[-87.49117,37.61524],[-87.489599,37.612148],[-87.486378,37.608435],[-87.484642,37.605818],[-87.48417,37.603186],[-87.482702,37.600914],[-87.481018,37.599916],[-87.474118,37.597157],[-87.464462,37.593761],[-87.459257,37.592862],[-87.454665,37.592404],[-87.444546,37.591676],[-87.435895,37.5916],[-87.431319,37.591978],[-87.427213,37.592588],[-87.421925,37.5924],[-87.416871,37.591162],[-87.410124,37.589751],[-87.40285,37.589253],[-87.39697,37.589253],[-87.394395,37.588405],[-87.391749,37.587013],[-87.386787,37.583067],[-87.382707,37.58098],[-87.38082,37.579369],[-87.379997,37.578429],[-87.376174,37.572182],[-87.375145,37.569988],[-87.372686,37.564457],[-87.370698,37.560968],[-87.368977,37.558655],[-87.365233,37.554907],[-87.360898,37.550236],[-87.359612,37.546127],[-87.360538,37.542352],[-87.362159,37.539713],[-87.365344,37.536855],[-87.366627,37.534845],[-87.36647,37.533663],[-87.365302,37.532785],[-87.360053,37.532809],[-87.358127,37.531538],[-87.354556,37.528374],[-87.352908,37.528244],[-87.350041,37.529417],[-87.349889,37.530483],[-87.351082,37.532194],[-87.355168,37.536138],[-87.355524,37.538895],[-87.351895,37.542015],[-87.340272,37.54769],[-87.336846,37.548958],[-87.332252,37.549663],[-87.323882,37.550589],[-87.318369,37.549457],[-87.314736,37.546876],[-87.311978,37.545738],[-87.30864,37.545437],[-87.303433,37.546004],[-87.301885,37.544827],[-87.299941,37.540862],[-87.301132,37.53825],[-87.304661,37.535555],[-87.304351,37.53409],[-87.302687,37.532528],[-87.298845,37.530371],[-87.294547,37.528683],[-87.290899,37.527606],[-87.285384,37.526708],[-87.2837,37.524642],[-87.284413,37.521996],[-87.282995,37.521079],[-87.280339,37.521139],[-87.276776,37.522075],[-87.273987,37.523254],[-87.27069,37.525338],[-87.267605,37.529595],[-87.264732,37.532364],[-87.261649,37.53454],[-87.258606,37.535508],[-87.255186,37.535209],[-87.252238,37.53373],[-87.248145,37.529981],[-87.244015,37.526972],[-87.240963,37.525179],[-87.233949,37.522125],[-87.229215,37.519629],[-87.218525,37.516902],[-87.213173,37.515855],[-87.210264,37.514759],[-87.20864,37.513275],[-87.207382,37.510673],[-87.204888,37.508056],[-87.200116,37.505073],[-87.19099,37.500508],[-87.187111,37.498031],[-87.181826,37.495633],[-87.172515,37.492455],[-87.165817,37.489014],[-87.156876,37.485866],[-87.152648,37.485095],[-87.148696,37.484784],[-87.136872,37.484922],[-87.136384,37.485632],[-87.141446,37.485626],[-87.145197,37.485297],[-87.15132,37.485409],[-87.155636,37.48618],[-87.154229,37.487844],[-87.153993,37.490723],[-87.154531,37.491691],[-87.153811,37.497366],[-87.151104,37.498655],[-87.148975,37.497996],[-87.139323,37.497137],[-87.139251,37.498088],[-87.137002,37.497864],[-87.140721,37.508584],[-87.132148,37.50748],[-87.120203,37.5066],[-87.119196,37.507358],[-87.117743,37.510106],[-87.125268,37.510819],[-87.124767,37.514762],[-87.125057,37.51585],[-87.124173,37.523939],[-87.116438,37.5233],[-87.115555,37.527355],[-87.113288,37.532038],[-87.112227,37.533538],[-87.105947,37.546639],[-87.097411,37.545923],[-87.096705,37.549372],[-87.094479,37.549708],[-87.093829,37.554944],[-87.092091,37.557343],[-87.090712,37.55838],[-87.089464,37.567205],[-87.095532,37.56693],[-87.100911,37.568896],[-87.105578,37.569153],[-87.108777,37.571159],[-87.138821,37.575628],[-87.148983,37.58017],[-87.15444,37.584359],[-87.155603,37.581026],[-87.159155,37.582338],[-87.16293,37.584222],[-87.164526,37.585773],[-87.165514,37.576906],[-87.165053,37.573257],[-87.169875,37.575868],[-87.171973,37.576555],[-87.180934,37.578616],[-87.190524,37.582292],[-87.19369,37.582449],[-87.193769,37.58702],[-87.192191,37.588586],[-87.190886,37.590923],[-87.192103,37.594078],[-87.19314,37.594401],[-87.192154,37.598108],[-87.209122,37.603936],[-87.211234,37.60223],[-87.212075,37.600818],[-87.210666,37.59835],[-87.208189,37.596977],[-87.216183,37.589695],[-87.218766,37.590579],[-87.239862,37.592061],[-87.238806,37.592809],[-87.238118,37.596073],[-87.236851,37.604583],[-87.240779,37.604729],[-87.246481,37.604273],[-87.254247,37.604213],[-87.254489,37.607132],[-87.259124,37.608649],[-87.261406,37.610274],[-87.264032,37.613619],[-87.26571,37.618083],[-87.266319,37.621276],[-87.267407,37.622778],[-87.26695,37.624247],[-87.266082,37.625688],[-87.269596,37.628595],[-87.273929,37.629381],[-87.274225,37.62937],[-87.275849,37.627976],[-87.408547,37.683563],[-87.411257,37.678261],[-87.411869,37.676264],[-87.414344,37.673601],[-87.418409,37.670943],[-87.420533,37.670153],[-87.423813,37.669761],[-87.426683,37.66991],[-87.432555,37.670791],[-87.438436,37.670931],[-87.44324,37.670559],[-87.45388,37.669351],[-87.464887,37.667661],[-87.470164,37.666045],[-87.474195,37.663906],[-87.476844,37.661322],[-87.494136,37.648958],[-87.495331,37.647547]],[[-87.398497,37.614043],[-87.39592,37.614289],[-87.396145,37.615617],[-87.393489,37.615889],[-87.393395,37.614105],[-87.391363,37.614002],[-87.394056,37.612455],[-87.398626,37.612107],[-87.398497,37.614043]],[[-87.19314,37.594401],[-87.193166,37.594329],[-87.193621,37.593233],[-87.194854,37.593512],[-87.197219,37.592842],[-87.198727,37.594683],[-87.198647,37.595723],[-87.193162,37.594404],[-87.19314,37.594401]]]}},{"type":"Feature","properties":{"zcta5":"42356","AFFGEOID10":"8600000US42356","GEOID10":"42356","ALAND10":64462,"AWATER10":0,"county_name":"Daviess","state_code":"KY","county_state":"Daviess County, KY","county_fips":"21059","risk_level_county":"Higher Risk (60–69% vaccinated)","mean_vaccination_rate_county":69.81,"risk_level_zcta":"Uninhabited","mean_vaccination_rate_zips":null,"cases":4},"geometry":{"type":"Polygon","coordinates":[[[-87.325481,37.694566],[-87.325059,37.691943],[-87.32259,37.692181],[-87.322303,37.693013],[-87.32325,37.694713],[-87.325481,37.694566]]]}},{"type":"Feature","properties":{"zcta5":"42301","AFFGEOID10":"8600000US42301","GEOID10":"42301","ALAND10":442955762,"AWATER10":6386414,"county_name":"Daviess","state_code":"KY","county_state":"Daviess County, KY","county_fips":"21059","risk_level_county":"Higher Risk (60–69% vaccinated)","mean_vaccination_rate_county":69.81,"risk_level_zcta":"Medium Risk (70–79% vaccinated)","mean_vaccination_rate_zips":73.84,"cases":4},"geometry":{"type":"Polygon","coordinates":[[[-87.389899,37.727693],[-87.394093,37.723995],[-87.395174,37.721657],[-87.395342,37.720167],[-87.393896,37.710272],[-87.395091,37.705269],[-87.396102,37.702475],[-87.398461,37.698116],[-87.401181,37.694353],[-87.405293,37.689613],[-87.408547,37.683563],[-87.275849,37.627976],[-87.274225,37.62937],[-87.273929,37.629381],[-87.269596,37.628595],[-87.266082,37.625688],[-87.263701,37.626346],[-87.260297,37.625548],[-87.256188,37.626442],[-87.253797,37.62559],[-87.252105,37.626263],[-87.248432,37.626716],[-87.245456,37.627691],[-87.2425,37.627837],[-87.239691,37.630628],[-87.236576,37.632541],[-87.234913,37.63432],[-87.236686,37.638638],[-87.238702,37.640654],[-87.244447,37.644958],[-87.245967,37.647475],[-87.241902,37.646621],[-87.239396,37.645448],[-87.236595,37.645553],[-87.235778,37.647728],[-87.236155,37.64909],[-87.235171,37.65385],[-87.227656,37.65457],[-87.223659,37.656714],[-87.216875,37.656896],[-87.212867,37.656337],[-87.209316,37.655308],[-87.208683,37.653786],[-87.206319,37.651713],[-87.20312,37.650134],[-87.200887,37.650512],[-87.19749,37.650106],[-87.19719,37.64638],[-87.19616,37.644326],[-87.195467,37.638547],[-87.193408,37.633551],[-87.192026,37.633884],[-87.186586,37.633751],[-87.174045,37.631922],[-87.17318,37.632115],[-87.170566,37.634836],[-87.168779,37.634245],[-87.155047,37.636836],[-87.153516,37.635124],[-87.150924,37.635645],[-87.150904,37.631087],[-87.151692,37.630115],[-87.134093,37.625887],[-87.133342,37.628384],[-87.13496,37.645317],[-87.150777,37.642252],[-87.15201,37.643533],[-87.150889,37.646774],[-87.149126,37.648675],[-87.147521,37.651883],[-87.150126,37.654186],[-87.15029,37.656862],[-87.149218,37.658032],[-87.145742,37.65841],[-87.14205,37.659393],[-87.140487,37.66143],[-87.141309,37.663068],[-87.140289,37.668348],[-87.137036,37.67147],[-87.135741,37.671289],[-87.133249,37.669656],[-87.129026,37.669779],[-87.131344,37.685681],[-87.132669,37.689285],[-87.130908,37.690717],[-87.128751,37.69125],[-87.12299,37.695512],[-87.120295,37.696717],[-87.117907,37.697029],[-87.108016,37.723927],[-87.111953,37.725249],[-87.112836,37.723144],[-87.113776,37.720113],[-87.116175,37.720723],[-87.118261,37.720136],[-87.120203,37.72059],[-87.120014,37.721642],[-87.124178,37.722365],[-87.122297,37.729664],[-87.120964,37.732768],[-87.119741,37.73251],[-87.11886,37.736163],[-87.117833,37.737373],[-87.118862,37.737611],[-87.118269,37.739282],[-87.115879,37.739543],[-87.11479,37.741797],[-87.116851,37.742289],[-87.115064,37.74559],[-87.113855,37.745333],[-87.112266,37.747761],[-87.110031,37.747893],[-87.109738,37.751045],[-87.111698,37.751164],[-87.111381,37.752577],[-87.112718,37.765651],[-87.110405,37.765901],[-87.110549,37.767492],[-87.112892,37.767402],[-87.113643,37.775846],[-87.108858,37.776177],[-87.120772,37.776519],[-87.125088,37.777286],[-87.13198,37.779729],[-87.136651,37.782578],[-87.138616,37.78443],[-87.142039,37.790316],[-87.142024,37.792404],[-87.140789,37.796376],[-87.140988,37.799365],[-87.142239,37.804184],[-87.143903,37.806958],[-87.152554,37.806322],[-87.153646,37.804452],[-87.151457,37.802147],[-87.155615,37.805969],[-87.157841,37.813899],[-87.158264,37.814361],[-87.152988,37.815517],[-87.155176,37.81626],[-87.156859,37.817502],[-87.160092,37.821014],[-87.161026,37.822717],[-87.163097,37.824723],[-87.166988,37.829746],[-87.168297,37.830933],[-87.174608,37.834477],[-87.17794,37.835615],[-87.186301,37.837335],[-87.197407,37.83795],[-87.212871,37.838332],[-87.219217,37.838072],[-87.224932,37.838554],[-87.232756,37.84109],[-87.240982,37.844531],[-87.246888,37.848248],[-87.251862,37.852078],[-87.253766,37.853007],[-87.25779,37.85597],[-87.259404,37.857614],[-87.262348,37.859538],[-87.266102,37.862743],[-87.268948,37.865497],[-87.269509,37.866524],[-87.272301,37.86869],[-87.27634,37.872917],[-87.282755,37.878229],[-87.288736,37.881956],[-87.292015,37.884418],[-87.300603,37.890254],[-87.304382,37.892184],[-87.305561,37.887666],[-87.307917,37.88887],[-87.310805,37.891028],[-87.312864,37.889418],[-87.316112,37.891486],[-87.330996,37.875728],[-87.334486,37.874439],[-87.349928,37.871053],[-87.355655,37.873375],[-87.357625,37.872527],[-87.350654,37.868709],[-87.351891,37.866059],[-87.344364,37.861655],[-87.346993,37.858797],[-87.344916,37.858575],[-87.338391,37.856193],[-87.337307,37.852195],[-87.335549,37.847137],[-87.330322,37.845768],[-87.331846,37.849833],[-87.332453,37.854027],[-87.326325,37.851776],[-87.316353,37.846343],[-87.317328,37.842546],[-87.322685,37.843766],[-87.323184,37.841472],[-87.324499,37.838686],[-87.325975,37.837247],[-87.323019,37.83566],[-87.325746,37.835279],[-87.328724,37.832796],[-87.329944,37.833641],[-87.329688,37.83613],[-87.330741,37.838183],[-87.333739,37.837196],[-87.33635,37.83576],[-87.340377,37.837256],[-87.354843,37.822155],[-87.355295,37.814778],[-87.354844,37.813861],[-87.351872,37.812615],[-87.351608,37.811005],[-87.354738,37.810114],[-87.358337,37.807041],[-87.362526,37.805797],[-87.364745,37.804474],[-87.364495,37.80361],[-87.361858,37.805563],[-87.358996,37.806157],[-87.355221,37.808382],[-87.35349,37.809905],[-87.350534,37.810158],[-87.346601,37.807726],[-87.344473,37.804575],[-87.341963,37.803695],[-87.340714,37.805615],[-87.341638,37.80859],[-87.339716,37.812093],[-87.33623,37.812606],[-87.333208,37.811566],[-87.330602,37.809377],[-87.328076,37.808221],[-87.324206,37.80888],[-87.323532,37.81064],[-87.324807,37.813758],[-87.325169,37.815818],[-87.32461,37.818125],[-87.323402,37.819239],[-87.322212,37.819589],[-87.319283,37.819052],[-87.315507,37.816171],[-87.314009,37.815729],[-87.310287,37.815901],[-87.307378,37.81521],[-87.304482,37.812942],[-87.30326,37.811709],[-87.302875,37.808944],[-87.304605,37.80668],[-87.30829,37.803709],[-87.30961,37.801883],[-87.310481,37.799007],[-87.309557,37.797293],[-87.306407,37.795823],[-87.301613,37.796146],[-87.299812,37.795861],[-87.298321,37.793818],[-87.299091,37.789086],[-87.298523,37.786582],[-87.295856,37.784356],[-87.293907,37.783829],[-87.28818,37.784109],[-87.282266,37.784069],[-87.279008,37.784415],[-87.274002,37.784263],[-87.27159,37.782916],[-87.271162,37.781914],[-87.271608,37.78012],[-87.278669,37.774208],[-87.284713,37.769863],[-87.287238,37.767072],[-87.289784,37.761078],[-87.290933,37.759996],[-87.294809,37.757702],[-87.300976,37.753587],[-87.312494,37.747178],[-87.316585,37.745242],[-87.32077,37.742518],[-87.322738,37.741875],[-87.329936,37.740478],[-87.339563,37.739132],[-87.370759,37.737814],[-87.373172,37.737383],[-87.378735,37.734888],[-87.38496,37.731506],[-87.387263,37.730016],[-87.389899,37.727693]],[[-87.325481,37.694566],[-87.32325,37.694713],[-87.322303,37.693013],[-87.32259,37.692181],[-87.325059,37.691943],[-87.325481,37.694566]]]}}]}