{"type":"FeatureCollection","features":[{"type":"Feature","properties":{"zcta5":"79331","AFFGEOID10":"8600000US79331","GEOID10":"79331","ALAND10":1936172434,"AWATER10":2951680,"county_name":"Dawson","state_code":"TX","county_state":"Dawson County, TX","county_fips":"48115","risk_level_county":"Higher Risk (60–69% vaccinated)","mean_vaccination_rate_county":62.55,"risk_level_zcta":"Very High Risk (<60% vaccinated)","mean_vaccination_rate_zips":59.58,"cases":803},"geometry":{"type":"Polygon","coordinates":[[[-102.450834,32.842424],[-102.450792,32.798866],[-102.467988,32.798724],[-102.467997,32.784125],[-102.416326,32.784121],[-102.416315,32.725833],[-102.416324,32.711402],[-102.413842,32.711277],[-102.366833,32.70565],[-102.352364,32.70493],[-102.348251,32.70474],[-102.34785,32.706035],[-102.349617,32.71239],[-102.352102,32.731751],[-102.352053,32.732275],[-102.335479,32.734582],[-102.332739,32.735331],[-102.335134,32.731527],[-102.332071,32.723377],[-102.32901,32.720767],[-102.32595,32.722255],[-102.32335,32.724773],[-102.320641,32.725002],[-102.317662,32.725963],[-102.316714,32.726879],[-102.313192,32.728504],[-102.310132,32.727863],[-102.309157,32.72839],[-102.301247,32.73006],[-102.305317,32.73941],[-102.305907,32.741276],[-102.298919,32.734599],[-102.296197,32.725498],[-102.280214,32.728927],[-102.283007,32.721098],[-102.282831,32.720394],[-102.276385,32.721697],[-102.274222,32.714507],[-102.286826,32.71174],[-102.289158,32.706038],[-102.2881,32.702523],[-102.312869,32.703019],[-102.307096,32.683741],[-102.298438,32.67989],[-102.297083,32.671802],[-102.289782,32.648049],[-102.227452,32.661284],[-102.231774,32.676227],[-102.225937,32.677487],[-102.223204,32.690292],[-102.224245,32.691006],[-102.229041,32.69146],[-102.233492,32.693148],[-102.234782,32.696833],[-102.23296,32.701518],[-102.205,32.702443],[-102.200165,32.702613],[-102.195335,32.686926],[-102.191762,32.687339],[-102.191139,32.685232],[-102.188405,32.685668],[-102.185683,32.67808],[-102.174326,32.680535],[-102.170502,32.681761],[-102.168351,32.681949],[-102.159464,32.683836],[-102.157248,32.676454],[-102.139726,32.680194],[-102.141949,32.687601],[-102.124459,32.691364],[-102.122195,32.683886],[-102.104729,32.687711],[-102.089064,32.635987],[-102.080781,32.637757],[-102.080265,32.636819],[-102.076012,32.623033],[-102.078433,32.622507],[-102.083812,32.618066],[-102.082467,32.613653],[-102.073876,32.615423],[-102.066949,32.592637],[-102.023098,32.601993],[-102.023871,32.60459],[-102.007203,32.608131],[-102.003583,32.59608],[-102.014013,32.576762],[-102.046362,32.569553],[-102.045524,32.566463],[-102.066401,32.562212],[-102.067442,32.563879],[-102.080613,32.560558],[-102.079152,32.555522],[-102.087153,32.554215],[-102.089452,32.561633],[-102.082451,32.562778],[-102.081776,32.564335],[-102.083723,32.570493],[-102.096889,32.568361],[-102.098865,32.575228],[-102.089565,32.577336],[-102.091773,32.584507],[-102.098248,32.583325],[-102.099013,32.585893],[-102.102018,32.58525],[-102.104226,32.592855],[-102.112779,32.591002],[-102.133131,32.658004],[-102.141961,32.656111],[-102.137525,32.641838],[-102.146205,32.639628],[-102.148347,32.646776],[-102.157124,32.644959],[-102.159159,32.652399],[-102.161599,32.659618],[-102.170318,32.657933],[-102.16997,32.656761],[-102.178851,32.654989],[-102.172306,32.633816],[-102.163618,32.635716],[-102.159162,32.620921],[-102.194591,32.613191],[-102.193714,32.610236],[-102.20323,32.607947],[-102.20138,32.604055],[-102.203664,32.603545],[-102.202703,32.523271],[-102.201855,32.523274],[-102.1988,32.520308],[-102.196637,32.516325],[-102.193476,32.505725],[-102.191171,32.500103],[-102.190145,32.496138],[-102.18893,32.493459],[-102.190659,32.491147],[-102.189957,32.488056],[-102.190632,32.485973],[-102.189552,32.482676],[-102.188714,32.4778],[-102.186014,32.463673],[-102.181703,32.442901],[-102.180017,32.442578],[-102.180184,32.436155],[-102.167929,32.433315],[-102.141011,32.439328],[-102.148555,32.462811],[-102.146155,32.463868],[-102.147934,32.470947],[-102.141828,32.472292],[-102.144455,32.480777],[-102.125003,32.486211],[-102.103362,32.490614],[-102.104308,32.4932],[-102.097772,32.494302],[-102.097152,32.491875],[-102.085716,32.494197],[-102.081102,32.477433],[-102.078995,32.477364],[-102.077053,32.469818],[-102.110886,32.46222],[-102.1038,32.439747],[-102.130445,32.433671],[-102.1295,32.432393],[-102.127599,32.431736],[-102.122925,32.429038],[-102.117405,32.427634],[-102.108188,32.422754],[-102.105535,32.42205],[-102.102492,32.416935],[-102.10038,32.416344],[-102.098509,32.414381],[-102.096669,32.41331],[-102.092556,32.413386],[-102.086955,32.41287],[-102.083736,32.413333],[-102.079768,32.41299],[-102.077475,32.413471],[-102.07267,32.415577],[-102.072158,32.417569],[-102.069487,32.420912],[-102.065897,32.422423],[-102.063036,32.42533],[-102.059742,32.423842],[-102.055127,32.423155],[-102.053481,32.424025],[-102.049863,32.427046],[-102.047434,32.427824],[-102.044816,32.429563],[-102.042197,32.430227],[-102.026053,32.436861],[-102.019762,32.440407],[-102.016684,32.441803],[-102.015873,32.443107],[-102.010299,32.444445],[-102.006917,32.44424],[-102.004616,32.445721],[-102.002207,32.446604],[-101.999101,32.447101],[-101.977523,32.45194],[-101.985465,32.476725],[-101.952035,32.483629],[-101.952478,32.485038],[-101.935838,32.488467],[-101.937401,32.493802],[-101.940323,32.502474],[-101.923644,32.506065],[-101.92795,32.520113],[-101.911299,32.523688],[-101.908687,32.524261],[-101.861856,32.524471],[-101.823281,32.524686],[-101.828307,32.541421],[-101.844874,32.537888],[-101.849115,32.551986],[-101.807657,32.560861],[-101.809783,32.567934],[-101.803153,32.5693],[-101.801283,32.569378],[-101.803468,32.576745],[-101.797805,32.578007],[-101.799102,32.582655],[-101.798778,32.58325],[-101.795003,32.583914],[-101.792267,32.585997],[-101.788997,32.587494],[-101.791089,32.594476],[-101.787826,32.595202],[-101.7736,32.583346],[-101.767556,32.578612],[-101.759357,32.571453],[-101.744981,32.559806],[-101.745917,32.561183],[-101.747077,32.565219],[-101.744877,32.565835],[-101.743407,32.567549],[-101.730943,32.570334],[-101.737206,32.591368],[-101.720656,32.595036],[-101.722219,32.600323],[-101.719746,32.600577],[-101.720086,32.602524],[-101.712991,32.604176],[-101.715232,32.611224],[-101.712097,32.611902],[-101.714424,32.618567],[-101.713547,32.619923],[-101.713944,32.62192],[-101.715636,32.623541],[-101.717025,32.628501],[-101.717076,32.631549],[-101.716181,32.632008],[-101.715962,32.633864],[-101.718338,32.63588],[-101.718439,32.640119],[-101.713837,32.641622],[-101.707451,32.643112],[-101.70915,32.644232],[-101.712812,32.647776],[-101.712791,32.653498],[-101.711962,32.655535],[-101.71209,32.657894],[-101.707835,32.657671],[-101.707885,32.661412],[-101.71019,32.664185],[-101.713245,32.665163],[-101.714296,32.669286],[-101.711856,32.671065],[-101.712075,32.673307],[-101.709574,32.673766],[-101.707773,32.673149],[-101.706186,32.673447],[-101.704564,32.676699],[-101.705566,32.678919],[-101.707488,32.678759],[-101.709168,32.684207],[-101.69149,32.688079],[-101.689682,32.68423],[-101.690162,32.751706],[-101.690605,32.796571],[-101.694288,32.795699],[-101.700279,32.794781],[-101.701065,32.794943],[-101.70337,32.798398],[-101.704943,32.802312],[-101.705703,32.805861],[-101.714271,32.81037],[-101.721755,32.813345],[-101.722234,32.811053],[-101.729132,32.808151],[-101.730346,32.807412],[-101.729042,32.801689],[-101.733217,32.802442],[-101.755564,32.801778],[-101.761392,32.800384],[-101.767493,32.799264],[-101.770936,32.798052],[-101.774541,32.797641],[-101.780831,32.797459],[-101.784268,32.8007],[-101.788331,32.800714],[-101.790037,32.803136],[-101.789774,32.808449],[-101.78857,32.808735],[-101.789212,32.810682],[-101.787008,32.812385],[-101.788638,32.814414],[-101.79041,32.814321],[-101.792401,32.820102],[-101.791696,32.820971],[-101.792834,32.825916],[-101.794598,32.826513],[-101.796251,32.832121],[-101.794917,32.833661],[-101.791386,32.83632],[-101.788847,32.835509],[-101.780142,32.837408],[-101.778921,32.838713],[-101.778161,32.840201],[-101.777942,32.846038],[-101.776558,32.849196],[-101.773764,32.851439],[-101.775065,32.85295],[-101.777533,32.853249],[-101.781764,32.856066],[-101.78198,32.857737],[-101.784666,32.860027],[-101.786809,32.86076],[-101.805579,32.861929],[-101.809996,32.875985],[-101.813623,32.875095],[-101.842151,32.868904],[-101.843152,32.86863],[-101.844926,32.874374],[-101.861628,32.870842],[-101.868233,32.893194],[-101.859988,32.894987],[-101.862101,32.90205],[-101.854004,32.903798],[-101.856168,32.910831],[-101.871047,32.907604],[-101.868906,32.912892],[-101.861768,32.924661],[-101.869578,32.912188],[-101.870267,32.91062],[-101.876748,32.891489],[-101.878996,32.898296],[-101.895578,32.894593],[-101.893492,32.887656],[-101.901772,32.885778],[-101.897446,32.871761],[-101.880989,32.875351],[-101.876426,32.861246],[-101.889087,32.858426],[-101.914626,32.811942],[-101.898667,32.841487],[-101.90537,32.840024],[-101.906166,32.842128],[-101.909543,32.853955],[-101.926301,32.850377],[-101.934977,32.878456],[-101.951565,32.874848],[-101.947244,32.860793],[-101.963845,32.857149],[-101.976792,32.899293],[-101.993502,32.89573],[-101.997773,32.909835],[-102.014508,32.905873],[-102.008063,32.884926],[-101.991268,32.888551],[-101.980449,32.853474],[-101.98878,32.851602],[-101.990884,32.858541],[-101.99916,32.856749],[-102.00141,32.863854],[-102.018107,32.86023],[-102.022417,32.874288],[-102.01427,32.87607],[-102.02753,32.918343],[-102.018767,32.920295],[-102.023155,32.934303],[-102.006565,32.93799],[-102.000405,32.939542],[-101.981321,32.943736],[-101.981111,32.956578],[-101.987709,32.956621],[-101.98771,32.957583],[-101.989775,32.960366],[-102.041663,32.960008],[-102.041686,32.949305],[-102.045867,32.949305],[-102.045587,32.94648],[-102.043783,32.944792],[-102.077515,32.937492],[-102.075324,32.930448],[-102.083575,32.928567],[-102.081488,32.921614],[-102.089735,32.919803],[-102.085403,32.905455],[-102.100568,32.90211],[-102.089254,32.889629],[-102.093454,32.888706],[-102.091871,32.883038],[-102.094255,32.882393],[-102.093597,32.880187],[-102.095214,32.879784],[-102.093345,32.873703],[-102.10997,32.870047],[-102.109552,32.868671],[-102.113774,32.86743],[-102.1138,32.865667],[-102.115671,32.863583],[-102.118661,32.863023],[-102.120477,32.867758],[-102.143263,32.862746],[-102.147635,32.876803],[-102.136263,32.879291],[-102.139192,32.888582],[-102.135558,32.88966],[-102.136424,32.892752],[-102.135636,32.894651],[-102.137806,32.895774],[-102.138294,32.896735],[-102.144455,32.895456],[-102.146351,32.901294],[-102.14817,32.900996],[-102.148847,32.902576],[-102.155068,32.901107],[-102.156269,32.904955],[-102.157044,32.904891],[-102.164397,32.903107],[-102.164018,32.901252],[-102.17231,32.89941],[-102.169797,32.890963],[-102.175925,32.889788],[-102.176909,32.892693],[-102.178781,32.892555],[-102.179215,32.893952],[-102.185457,32.892646],[-102.186271,32.893105],[-102.187139,32.897592],[-102.189174,32.897592],[-102.193733,32.896653],[-102.192077,32.891388],[-102.196202,32.890541],[-102.193402,32.881746],[-102.185162,32.883297],[-102.183129,32.876447],[-102.193228,32.874122],[-102.196533,32.871654],[-102.198998,32.871268],[-102.201634,32.879931],[-102.207221,32.878831],[-102.206354,32.848931],[-102.159938,32.859093],[-102.157696,32.852095],[-102.141058,32.855761],[-102.138681,32.848661],[-102.122552,32.851975],[-102.115285,32.853876],[-102.10566,32.856063],[-102.103983,32.850647],[-102.087332,32.854292],[-102.084658,32.84559],[-102.076273,32.847436],[-102.078406,32.854335],[-102.058868,32.858839],[-102.064881,32.864952],[-102.055674,32.866979],[-102.053475,32.859847],[-102.045283,32.861666],[-102.047458,32.868775],[-102.039153,32.870614],[-102.036875,32.863518],[-102.028683,32.865256],[-102.026579,32.858359],[-102.034725,32.856554],[-102.032569,32.849415],[-102.024404,32.851267],[-102.022253,32.844268],[-102.013678,32.846125],[-102.011516,32.839139],[-102.028228,32.83556],[-102.030332,32.842495],[-102.040685,32.840224],[-102.02871,32.827821],[-102.042616,32.824759],[-102.05054,32.850408],[-102.052703,32.852499],[-102.06805,32.84924],[-102.065817,32.842142],[-102.077551,32.839604],[-102.07808,32.83748],[-102.081231,32.836167],[-102.082274,32.83789],[-102.084148,32.838248],[-102.090646,32.836271],[-102.09141,32.833364],[-102.09818,32.831679],[-102.096997,32.827841],[-102.105683,32.825913],[-102.110236,32.839962],[-102.117624,32.838195],[-102.119946,32.844834],[-102.136448,32.84122],[-102.134263,32.834249],[-102.142533,32.831988],[-102.140228,32.825307],[-102.131919,32.827241],[-102.129769,32.820684],[-102.113093,32.82427],[-102.108533,32.810094],[-102.101304,32.811712],[-102.096988,32.79775],[-102.079966,32.80151],[-102.084296,32.815555],[-102.075905,32.817439],[-102.073462,32.80943],[-102.061074,32.811926],[-102.06186,32.814603],[-102.0576,32.815506],[-102.05494,32.807077],[-102.06617,32.804509],[-102.06303,32.794114],[-102.069348,32.792715],[-102.067253,32.78599],[-102.058419,32.787889],[-102.056425,32.781318],[-102.073853,32.777473],[-102.075912,32.784122],[-102.084733,32.782187],[-102.086838,32.788829],[-102.09536,32.786934],[-102.099945,32.79711],[-102.104233,32.796292],[-102.106856,32.80393],[-102.115134,32.802588],[-102.116929,32.808213],[-102.149918,32.800736],[-102.149083,32.792895],[-102.152201,32.788728],[-102.154186,32.78987],[-102.156951,32.799104],[-102.159552,32.799439],[-102.163029,32.797382],[-102.162326,32.792009],[-102.162446,32.788525],[-102.16315,32.78823],[-102.161825,32.783873],[-102.154457,32.785063],[-102.149457,32.769571],[-102.13763,32.772101],[-102.138819,32.777391],[-102.130445,32.779058],[-102.128768,32.773792],[-102.115542,32.776502],[-102.11321,32.768858],[-102.126298,32.76597],[-102.124212,32.759222],[-102.106756,32.762953],[-102.104693,32.756383],[-102.087107,32.760176],[-102.085109,32.753605],[-102.102555,32.74974],[-102.09849,32.736592],[-102.081014,32.741039],[-102.066623,32.744158],[-102.069365,32.753345],[-102.066629,32.754055],[-102.067629,32.757503],[-102.058947,32.759408],[-102.060925,32.765926],[-102.069645,32.764052],[-102.071762,32.77082],[-102.054291,32.774499],[-102.048991,32.757806],[-102.054883,32.756541],[-102.051785,32.74645],[-102.037619,32.750891],[-102.01273,32.756315],[-102.014827,32.763318],[-102.006492,32.765124],[-102.008659,32.772123],[-101.998214,32.774292],[-101.993954,32.760418],[-101.987715,32.761691],[-101.986045,32.756449],[-101.982837,32.757182],[-101.979332,32.757376],[-101.976977,32.749149],[-101.983315,32.74777],[-101.980375,32.73816],[-101.983482,32.737299],[-101.98422,32.736412],[-101.982009,32.733117],[-101.987346,32.731971],[-101.990503,32.742472],[-101.990198,32.744725],[-101.988509,32.746496],[-101.989089,32.746487],[-102.02191,32.73944],[-102.019876,32.73229],[-102.031159,32.729889],[-102.031892,32.7323],[-102.046426,32.728825],[-102.04361,32.719716],[-102.050317,32.718263],[-102.055139,32.733328],[-102.06061,32.732047],[-102.062425,32.730994],[-102.062993,32.732208],[-102.077587,32.729111],[-102.072741,32.713394],[-102.090106,32.7096],[-102.093195,32.717979],[-102.103748,32.715401],[-102.104616,32.717551],[-102.118614,32.714433],[-102.119649,32.714011],[-102.151148,32.724915],[-102.155668,32.725187],[-102.187186,32.718313],[-102.191518,32.732411],[-102.205364,32.729336],[-102.205234,32.71922],[-102.205923,32.721444],[-102.208823,32.720851],[-102.209691,32.722226],[-102.227294,32.718447],[-102.226833,32.716501],[-102.237177,32.714369],[-102.235061,32.707135],[-102.243861,32.705186],[-102.244566,32.708047],[-102.247927,32.712121],[-102.248387,32.713104],[-102.256898,32.741606],[-102.276352,32.737692],[-102.271389,32.750369],[-102.274299,32.751398],[-102.279353,32.748668],[-102.279435,32.744936],[-102.282633,32.744044],[-102.285234,32.744228],[-102.2848,32.745807],[-102.285852,32.746991],[-102.285872,32.754709],[-102.313051,32.754612],[-102.31303,32.776898],[-102.321674,32.776859],[-102.321701,32.784239],[-102.347477,32.784225],[-102.347451,32.754518],[-102.385536,32.754398],[-102.396578,32.76381],[-102.396635,32.769695],[-102.381916,32.769765],[-102.381816,32.813377],[-102.372518,32.813379],[-102.372493,32.810836],[-102.373035,32.809349],[-102.373059,32.805961],[-102.364736,32.805941],[-102.364759,32.79866],[-102.347464,32.798634],[-102.34743,32.813354],[-102.312954,32.813413],[-102.313063,32.803751],[-102.310976,32.803637],[-102.305689,32.801759],[-102.295144,32.801002],[-102.295471,32.79695],[-102.294604,32.794088],[-102.292165,32.789737],[-102.29119,32.786074],[-102.289996,32.784585],[-102.281137,32.776031],[-102.279864,32.775116],[-102.279462,32.775119],[-102.265929,32.779287],[-102.259441,32.780639],[-102.257965,32.785064],[-102.26615,32.784092],[-102.270051,32.784923],[-102.26753,32.786688],[-102.255954,32.789121],[-102.255194,32.790315],[-102.24143,32.808382],[-102.239631,32.810379],[-102.235737,32.813412],[-102.237937,32.814219],[-102.231944,32.824456],[-102.234381,32.825222],[-102.239109,32.825433],[-102.240097,32.827267],[-102.243615,32.826223],[-102.245404,32.823635],[-102.254634,32.823654],[-102.254841,32.830888],[-102.240778,32.830834],[-102.242268,32.836966],[-102.244122,32.839531],[-102.249842,32.844394],[-102.251322,32.844254],[-102.253422,32.843043],[-102.258411,32.845245],[-102.259224,32.846939],[-102.25933,32.851013],[-102.265976,32.848957],[-102.266679,32.851979],[-102.270585,32.851592],[-102.271724,32.852096],[-102.272185,32.85434],[-102.278558,32.854869],[-102.278559,32.857034],[-102.347459,32.857034],[-102.347481,32.871454],[-102.391073,32.871468],[-102.39109,32.856998],[-102.39919,32.856989],[-102.399381,32.860866],[-102.416417,32.860606],[-102.416411,32.856969],[-102.433759,32.856974],[-102.433809,32.842242],[-102.450834,32.842424]]]}},{"type":"Feature","properties":{"zcta5":"79351","AFFGEOID10":"8600000US79351","GEOID10":"79351","ALAND10":841039408,"AWATER10":1493956,"county_name":"Dawson","state_code":"TX","county_state":"Dawson County, TX","county_fips":"48115","risk_level_county":"Higher Risk (60–69% vaccinated)","mean_vaccination_rate_county":62.55,"risk_level_zcta":"Higher Risk (60–69% vaccinated)","mean_vaccination_rate_zips":69.7,"cases":803},"geometry":{"type":"Polygon","coordinates":[[[-102.015619,33.036499],[-102.075466,33.036595],[-102.075401,33.007506],[-102.058653,33.007628],[-102.058724,32.993093],[-102.050113,32.993068],[-102.050206,32.978447],[-102.058679,32.978425],[-102.058808,32.964022],[-102.067353,32.964078],[-102.067365,32.959784],[-102.041663,32.960008],[-102.041433,32.978422],[-102.032876,32.978405],[-102.032807,32.993013],[-102.015616,32.992956],[-102.01553,33.007439],[-101.96386,33.007355],[-101.963799,33.021886],[-101.946562,33.021849],[-101.946635,32.992822],[-101.971807,32.992861],[-101.971404,32.98595],[-101.972134,32.978808],[-101.971263,32.974963],[-101.970448,32.973636],[-101.967813,32.971279],[-101.964092,32.970822],[-101.955657,32.970937],[-101.95096,32.971188],[-101.946646,32.970935],[-101.946653,32.978333],[-101.93794,32.978292],[-101.937962,32.963753],[-101.93214,32.963666],[-101.929412,32.963871],[-101.929624,32.960591],[-101.929548,32.949332],[-101.943422,32.949263],[-101.939919,32.937429],[-101.968281,32.931238],[-101.971667,32.930369],[-101.97152,32.933222],[-101.972299,32.936493],[-101.9729,32.936912],[-101.97958,32.935724],[-101.98749,32.934067],[-101.98546,32.927462],[-102.002135,32.923831],[-101.997773,32.909835],[-101.993502,32.89573],[-101.976792,32.899293],[-101.963845,32.857149],[-101.947244,32.860793],[-101.951565,32.874848],[-101.934977,32.878456],[-101.926301,32.850377],[-101.909543,32.853955],[-101.906166,32.842128],[-101.90537,32.840024],[-101.898667,32.841487],[-101.914626,32.811942],[-101.889087,32.858426],[-101.876426,32.861246],[-101.880989,32.875351],[-101.897446,32.871761],[-101.901772,32.885778],[-101.893492,32.887656],[-101.895578,32.894593],[-101.878996,32.898296],[-101.876748,32.891489],[-101.870267,32.91062],[-101.869578,32.912188],[-101.861768,32.924661],[-101.868906,32.912892],[-101.871047,32.907604],[-101.856168,32.910831],[-101.854004,32.903798],[-101.862101,32.90205],[-101.859988,32.894987],[-101.868233,32.893194],[-101.861628,32.870842],[-101.844926,32.874374],[-101.843152,32.86863],[-101.842151,32.868904],[-101.813623,32.875095],[-101.809996,32.875985],[-101.805579,32.861929],[-101.786809,32.86076],[-101.784666,32.860027],[-101.78198,32.857737],[-101.781764,32.856066],[-101.777533,32.853249],[-101.775065,32.85295],[-101.767334,32.854689],[-101.766303,32.855328],[-101.7647,32.859862],[-101.763534,32.859471],[-101.761803,32.861848],[-101.757613,32.866287],[-101.758865,32.866889],[-101.757207,32.873161],[-101.756285,32.87252],[-101.745063,32.874679],[-101.738843,32.87628],[-101.743204,32.890332],[-101.709913,32.897447],[-101.703629,32.877035],[-101.708784,32.877744],[-101.712963,32.87722],[-101.715827,32.87471],[-101.720452,32.873879],[-101.720943,32.873151],[-101.721086,32.869259],[-101.720077,32.867855],[-101.719789,32.86544],[-101.722349,32.864719],[-101.723325,32.86378],[-101.721561,32.861354],[-101.719769,32.857965],[-101.717734,32.85625],[-101.716051,32.852358],[-101.71388,32.848535],[-101.711111,32.845262],[-101.70829,32.843339],[-101.704249,32.841257],[-101.701374,32.840502],[-101.70056,32.839632],[-101.697441,32.839244],[-101.69755,32.841853],[-101.696845,32.842906],[-101.694621,32.843525],[-101.692668,32.840183],[-101.691717,32.834712],[-101.690797,32.83426],[-101.690605,32.796571],[-101.690162,32.751706],[-101.634993,32.763497],[-101.630577,32.764023],[-101.624696,32.762459],[-101.623666,32.761544],[-101.623257,32.757996],[-101.62415,32.756231],[-101.623445,32.754927],[-101.621619,32.755055],[-101.618378,32.755181],[-101.616184,32.756532],[-101.612067,32.758091],[-101.610876,32.760199],[-101.610146,32.763061],[-101.606572,32.766835],[-101.543759,32.769402],[-101.54619,32.776854],[-101.545436,32.777219],[-101.53916,32.778402],[-101.535479,32.779504],[-101.532124,32.780126],[-101.529058,32.778768],[-101.525797,32.780146],[-101.52529,32.783169],[-101.522523,32.789212],[-101.520462,32.791319],[-101.519295,32.793449],[-101.516936,32.796058],[-101.518694,32.80306],[-101.520193,32.806565],[-101.521104,32.811998],[-101.523473,32.814818],[-101.524538,32.819941],[-101.52546,32.821784],[-101.526356,32.82685],[-101.528717,32.833841],[-101.532622,32.836613],[-101.536473,32.838856],[-101.540025,32.841307],[-101.543334,32.84417],[-101.543496,32.84646],[-101.545259,32.848819],[-101.538559,32.848886],[-101.534572,32.848312],[-101.537499,32.859945],[-101.545286,32.86093],[-101.554618,32.863655],[-101.557493,32.86425],[-101.559013,32.868738],[-101.555974,32.869242],[-101.554211,32.868418],[-101.552664,32.869013],[-101.551525,32.870913],[-101.552094,32.872264],[-101.55166,32.873776],[-101.552278,32.877834],[-101.551192,32.881521],[-101.552169,32.883581],[-101.55168,32.886169],[-101.550486,32.889397],[-101.551382,32.890175],[-101.547798,32.894844],[-101.545572,32.896814],[-101.545441,32.898482],[-101.544523,32.89877],[-101.5418,32.902115],[-101.539129,32.904879],[-101.53797,32.9092],[-101.545299,32.911354],[-101.552574,32.913026],[-101.548882,32.914102],[-101.548823,32.917029],[-101.550293,32.919505],[-101.54766,32.921612],[-101.547632,32.924039],[-101.548339,32.925162],[-101.545977,32.927612],[-101.545962,32.930233],[-101.54771,32.931735],[-101.545828,32.935175],[-101.545268,32.937478],[-101.547112,32.937065],[-101.548173,32.940177],[-101.546868,32.944598],[-101.544065,32.950927],[-101.541841,32.961193],[-101.557434,32.961025],[-101.58866,32.961276],[-101.632144,32.961621],[-101.666922,32.961723],[-101.691284,32.961838],[-101.709933,32.961925],[-101.709897,32.976435],[-101.711011,32.990973],[-101.745918,32.991053],[-101.745941,32.976522],[-101.754696,32.976549],[-101.754697,33.020086],[-101.806615,33.020156],[-101.80659,33.034672],[-101.806779,33.049197],[-101.824155,33.049247],[-101.824041,33.063732],[-101.832802,33.06377],[-101.832831,33.056519],[-101.841531,33.056618],[-101.841509,33.063725],[-101.859025,33.063846],[-101.858827,33.091822],[-101.858739,33.093319],[-101.894096,33.093419],[-101.894151,33.079919],[-101.929154,33.079916],[-101.929852,33.093573],[-101.946307,33.09365],[-101.946385,33.085139],[-101.946446,33.072664],[-101.929153,33.072697],[-101.929192,33.065367],[-101.920509,33.06535],[-101.920431,33.050821],[-101.946459,33.050873],[-101.946534,33.036369],[-101.963802,33.036382],[-101.963666,33.065445],[-101.980911,33.065453],[-101.980962,33.05103],[-101.981043,33.021914],[-102.006835,33.021938],[-102.006762,33.036469],[-102.015619,33.036499]]]}},{"type":"Feature","properties":{"zcta5":"79377","AFFGEOID10":"8600000US79377","GEOID10":"79377","ALAND10":69429591,"AWATER10":9233,"county_name":"Dawson","state_code":"TX","county_state":"Dawson County, TX","county_fips":"48115","risk_level_county":"Higher Risk (60–69% vaccinated)","mean_vaccination_rate_county":62.55,"risk_level_zcta":"Higher Risk (60–69% vaccinated)","mean_vaccination_rate_zips":62.29,"cases":803},"geometry":{"type":"Polygon","coordinates":[[[-102.147151,32.95932],[-102.14713,32.950612],[-102.157296,32.950608],[-102.157282,32.941921],[-102.181518,32.941895],[-102.181539,32.949053],[-102.198868,32.949033],[-102.198922,32.952055],[-102.208433,32.952105],[-102.208373,32.94407],[-102.207563,32.895725],[-102.202823,32.896721],[-102.204833,32.903292],[-102.206543,32.903222],[-102.207439,32.906176],[-102.200329,32.908375],[-102.199243,32.907139],[-102.195579,32.907849],[-102.194602,32.906269],[-102.188333,32.907803],[-102.189445,32.911557],[-102.188604,32.912702],[-102.185754,32.913595],[-102.183963,32.907986],[-102.180164,32.908786],[-102.179187,32.905284],[-102.172185,32.906793],[-102.163739,32.908682],[-102.163183,32.907248],[-102.157352,32.908531],[-102.15837,32.911752],[-102.150226,32.913404],[-102.149007,32.909993],[-102.145561,32.910716],[-102.145827,32.912441],[-102.141166,32.913649],[-102.143922,32.922618],[-102.140473,32.923353],[-102.136713,32.910882],[-102.130415,32.911955],[-102.12995,32.910657],[-102.111885,32.914651],[-102.107693,32.910017],[-102.121365,32.906937],[-102.122379,32.910223],[-102.130607,32.908475],[-102.131257,32.910369],[-102.13372,32.909827],[-102.131506,32.902754],[-102.139458,32.901086],[-102.138294,32.896735],[-102.137806,32.895774],[-102.135636,32.894651],[-102.134116,32.894651],[-102.129313,32.89577],[-102.127662,32.890527],[-102.126061,32.890275],[-102.123128,32.891081],[-102.123618,32.89321],[-102.120877,32.893624],[-102.120149,32.895662],[-102.118044,32.896169],[-102.118672,32.898176],[-102.102001,32.901829],[-102.102859,32.90466],[-102.100568,32.90211],[-102.085403,32.905455],[-102.089735,32.919803],[-102.081488,32.921614],[-102.083575,32.928567],[-102.075324,32.930448],[-102.077515,32.937492],[-102.043783,32.944792],[-102.045587,32.94648],[-102.045867,32.949305],[-102.041686,32.949305],[-102.041663,32.960008],[-102.067365,32.959784],[-102.076214,32.959702],[-102.079058,32.959676],[-102.124502,32.959291],[-102.125449,32.959453],[-102.147151,32.95932]]]}},{"type":"Feature","properties":{"zcta5":"79713","AFFGEOID10":"8600000US79713","GEOID10":"79713","ALAND10":425261953,"AWATER10":48877,"county_name":"Dawson","state_code":"TX","county_state":"Dawson County, TX","county_fips":"48115","risk_level_county":"Higher Risk (60–69% vaccinated)","mean_vaccination_rate_county":62.55,"risk_level_zcta":"Very High Risk (<60% vaccinated)","mean_vaccination_rate_zips":52.32,"cases":803},"geometry":{"type":"Polygon","coordinates":[[[-101.938613,32.441848],[-101.931423,32.419252],[-101.929166,32.416419],[-101.929616,32.413655],[-101.924683,32.398308],[-101.92109,32.38734],[-101.916846,32.388269],[-101.920095,32.399379],[-101.85868,32.413455],[-101.863225,32.427738],[-101.830248,32.435259],[-101.834532,32.449327],[-101.80159,32.456769],[-101.790476,32.422013],[-101.766748,32.427488],[-101.764691,32.41982],[-101.755491,32.421857],[-101.746335,32.393755],[-101.744115,32.394157],[-101.728406,32.397688],[-101.731644,32.407813],[-101.723578,32.409776],[-101.724642,32.413577],[-101.716358,32.415465],[-101.720941,32.429646],[-101.689667,32.436725],[-101.687875,32.437117],[-101.685611,32.429991],[-101.679264,32.431655],[-101.669101,32.433898],[-101.666847,32.426859],[-101.607095,32.439586],[-101.620251,32.451604],[-101.648946,32.478561],[-101.661033,32.488084],[-101.617323,32.496904],[-101.615315,32.49085],[-101.610658,32.491449],[-101.608212,32.483835],[-101.594819,32.486463],[-101.606237,32.521524],[-101.614877,32.519819],[-101.615903,32.517804],[-101.617875,32.517024],[-101.623333,32.51606],[-101.624934,32.520639],[-101.625997,32.521628],[-101.627292,32.524994],[-101.611899,32.524986],[-101.614006,32.532911],[-101.616126,32.532532],[-101.616562,32.535249],[-101.615646,32.539078],[-101.621398,32.560702],[-101.619715,32.560957],[-101.621406,32.56671],[-101.623369,32.566363],[-101.627807,32.568382],[-101.628806,32.569299],[-101.63051,32.569345],[-101.634047,32.573784],[-101.648744,32.570756],[-101.64997,32.573363],[-101.65111,32.579976],[-101.651975,32.580961],[-101.650298,32.582655],[-101.650974,32.584899],[-101.655679,32.585976],[-101.662413,32.583413],[-101.663873,32.588405],[-101.661088,32.589458],[-101.658653,32.591997],[-101.657571,32.594287],[-101.661817,32.593532],[-101.671121,32.592937],[-101.6735,32.594472],[-101.673257,32.598159],[-101.676232,32.599348],[-101.687078,32.596967],[-101.689131,32.597928],[-101.689137,32.598982],[-101.691031,32.59788],[-101.69403,32.600081],[-101.69852,32.601958],[-101.700224,32.603149],[-101.701604,32.606468],[-101.704444,32.606124],[-101.712991,32.604176],[-101.720086,32.602524],[-101.719746,32.600577],[-101.722219,32.600323],[-101.720656,32.595036],[-101.737206,32.591368],[-101.730943,32.570334],[-101.743407,32.567549],[-101.744877,32.565835],[-101.747077,32.565219],[-101.745917,32.561183],[-101.744981,32.559806],[-101.759357,32.571453],[-101.767556,32.578612],[-101.7736,32.583346],[-101.787826,32.595202],[-101.791089,32.594476],[-101.788997,32.587494],[-101.792267,32.585997],[-101.795003,32.583914],[-101.798778,32.58325],[-101.799102,32.582655],[-101.797805,32.578007],[-101.803468,32.576745],[-101.801283,32.569378],[-101.803153,32.5693],[-101.809783,32.567934],[-101.807657,32.560861],[-101.849115,32.551986],[-101.844874,32.537888],[-101.828307,32.541421],[-101.823281,32.524686],[-101.861856,32.524471],[-101.857747,32.521199],[-101.853362,32.507693],[-101.852743,32.506071],[-101.886024,32.499094],[-101.890493,32.513155],[-101.907093,32.509597],[-101.902632,32.495571],[-101.919126,32.492044],[-101.905443,32.44898],[-101.938613,32.441848]]]}}]}