{"type":"FeatureCollection","features":[{"type":"Feature","properties":{"zcta5":"89410","AFFGEOID10":"8600000US89410","GEOID10":"89410","ALAND10":450570014,"AWATER10":4440386,"county_name":"Douglas","state_code":"NV","county_state":"Douglas County, NV","county_fips":"32005","risk_level_county":"Medium Risk (70–79% vaccinated)","mean_vaccination_rate_county":72.75,"risk_level_zcta":"Higher Risk (60–69% vaccinated)","mean_vaccination_rate_zips":69.55,"cases":2},"geometry":{"type":"Polygon","coordinates":[[[-119.666381,38.988252],[-119.671511,38.984527],[-119.672562,38.984764],[-119.675234,38.982525],[-119.685748,38.976099],[-119.695658,38.976145],[-119.70891,38.975823],[-119.709051,38.969398],[-119.709664,38.967598],[-119.708998,38.96576],[-119.709157,38.96157],[-119.714404,38.961341],[-119.737231,38.961099],[-119.733132,38.957749],[-119.733063,38.951779],[-119.748844,38.95172],[-119.748891,38.961276],[-119.754742,38.961261],[-119.754837,38.951694],[-119.756563,38.951696],[-119.761035,38.951425],[-119.759252,38.949144],[-119.761394,38.947178],[-119.761186,38.944615],[-119.761026,38.937229],[-119.759455,38.937112],[-119.757713,38.935941],[-119.755163,38.935367],[-119.753122,38.934207],[-119.751953,38.932742],[-119.751651,38.931176],[-119.74951,38.930346],[-119.745968,38.929984],[-119.742078,38.928518],[-119.7384,38.925478],[-119.73385,38.923401],[-119.730777,38.921237],[-119.728035,38.918646],[-119.723366,38.917133],[-119.72161,38.916935],[-119.71721,38.914447],[-119.716249,38.913429],[-119.71625,38.911614],[-119.715575,38.909094],[-119.714511,38.907595],[-119.714549,38.904636],[-119.71208,38.902379],[-119.712629,38.899182],[-119.712269,38.897818],[-119.710244,38.895466],[-119.709463,38.893731],[-119.709296,38.890694],[-119.708642,38.889385],[-119.705275,38.886274],[-119.704908,38.883734],[-119.703906,38.880948],[-119.702378,38.879507],[-119.702358,38.878097],[-119.703943,38.878079],[-119.704283,38.876839],[-119.706473,38.874485],[-119.708852,38.872624],[-119.711198,38.868231],[-119.711407,38.86528],[-119.714264,38.859397],[-119.716579,38.857314],[-119.717574,38.855684],[-119.717826,38.853861],[-119.720348,38.851413],[-119.721622,38.849468],[-119.723181,38.848473],[-119.724636,38.844722],[-119.720773,38.843205],[-119.717944,38.841299],[-119.718189,38.838169],[-119.719387,38.836759],[-119.719586,38.833095],[-119.720215,38.83072],[-119.722287,38.83077],[-119.722207,38.829128],[-119.720445,38.827966],[-119.719492,38.823064],[-119.720437,38.819907],[-119.722635,38.817058],[-119.724649,38.816412],[-119.725015,38.814376],[-119.72574,38.813828],[-119.726918533307,38.81085816018879],[-119.65664490890701,38.7623446887022],[-119.587679,38.714734],[-119.587066,38.714345],[-119.585437,38.713212],[-119.548520911132,38.687580209715],[-119.500871735176,38.6544961609218],[-119.500266,38.657047],[-119.501237,38.658238],[-119.50112,38.663982],[-119.49984,38.668192],[-119.501286,38.668374],[-119.504656,38.667479],[-119.508652,38.665224],[-119.508739,38.669931],[-119.507063,38.670209],[-119.503984,38.673687],[-119.505034,38.676412],[-119.505014,38.678283],[-119.50654,38.679945],[-119.508043,38.680197],[-119.506701,38.682648],[-119.508357,38.685731],[-119.510437,38.687084],[-119.510313,38.689965],[-119.501207,38.690135],[-119.501168,38.693726],[-119.506045,38.69445],[-119.50605,38.695895],[-119.508433,38.695989],[-119.513081,38.694636],[-119.523748,38.697748],[-119.529094,38.698201],[-119.529152,38.701014],[-119.534503,38.701062],[-119.534287,38.708648],[-119.552423,38.708442],[-119.553105,38.709294],[-119.554112,38.719128],[-119.552234,38.719134],[-119.552229,38.722775],[-119.534452,38.722768],[-119.536211,38.723369],[-119.537501,38.722937],[-119.540339,38.724547],[-119.540651,38.726027],[-119.544116,38.727561],[-119.544985,38.728877],[-119.547068,38.729701],[-119.549571,38.729766],[-119.550685,38.73128],[-119.556163,38.735541],[-119.558215,38.73778],[-119.558505,38.740534],[-119.560252,38.741289],[-119.561252,38.743696],[-119.563449,38.745444],[-119.566066,38.74676],[-119.568576,38.749563],[-119.569522,38.751602],[-119.569232,38.75378],[-119.572521,38.757568],[-119.574443,38.758774],[-119.5762,38.761285],[-119.579121,38.767381],[-119.586026,38.779387],[-119.589557,38.783309],[-119.585683,38.783322],[-119.584894,38.784031],[-119.584339,38.787121],[-119.58098,38.793138],[-119.579986,38.79403],[-119.576511,38.802813],[-119.577271,38.804918],[-119.577095,38.80668],[-119.575605,38.809014],[-119.572798,38.809426],[-119.570431,38.811623],[-119.566951,38.813087],[-119.567361,38.816885],[-119.56435,38.822512],[-119.562624,38.823588],[-119.561367,38.825212],[-119.56102,38.82816],[-119.559297,38.832183],[-119.558041,38.833737],[-119.556785,38.836778],[-119.556872,38.840629],[-119.558092,38.842215],[-119.558711,38.844391],[-119.558695,38.847621],[-119.561129,38.85105],[-119.563861,38.853288],[-119.565036,38.855478],[-119.56705,38.856434],[-119.568064,38.858313],[-119.563883,38.858495],[-119.560435,38.855616],[-119.554095,38.852826],[-119.552973,38.851634],[-119.549937,38.850539],[-119.548554,38.850925],[-119.545672,38.849067],[-119.544703,38.847368],[-119.542709,38.846035],[-119.538608,38.846143],[-119.537175,38.845593],[-119.539603,38.84477],[-119.539019,38.842894],[-119.54174,38.843032],[-119.541916,38.842346],[-119.53864,38.839371],[-119.536856,38.838593],[-119.535872,38.8372],[-119.535872,38.838291],[-119.524603,38.838291],[-119.525273,38.838979],[-119.52144,38.842478],[-119.521441,38.840328],[-119.516428,38.838291],[-119.512493,38.838291],[-119.512493,38.852797],[-119.502158,38.852797],[-119.502174,38.865783],[-119.497903,38.868228],[-119.496148,38.870197],[-119.494995,38.873403],[-119.494175,38.874197],[-119.491715,38.874697],[-119.488982,38.874342],[-119.489864,38.876618],[-119.491925,38.878609],[-119.49229,38.882555],[-119.491324,38.883036],[-119.490888,38.886925],[-119.488871,38.889557],[-119.48779,38.893103],[-119.48669,38.894509],[-119.486701,38.892915],[-119.48203,38.892913],[-119.482027,38.8965],[-119.475552,38.896496],[-119.474265,38.891575],[-119.473086,38.889767],[-119.473088,38.86753],[-119.45578,38.867523],[-119.45578,38.874799],[-119.464378,38.874796],[-119.464378,38.87842],[-119.459872,38.878418],[-119.459872,38.882012],[-119.455329,38.882011],[-119.455329,38.896488],[-119.469027,38.896495],[-119.471458,38.899469],[-119.468477,38.903078],[-119.463989,38.903078],[-119.463989,38.906597],[-119.468466,38.906597],[-119.468479,38.904376],[-119.469677,38.907683],[-119.469677,38.909536],[-119.467181,38.916077],[-119.4683,38.916803],[-119.468948,38.91924],[-119.467746,38.925297],[-119.471294,38.922507],[-119.474544,38.921797],[-119.476534,38.919783],[-119.478789,38.91921],[-119.480019,38.91937],[-119.481806,38.921108],[-119.483769,38.921862],[-119.486817,38.924308],[-119.48878,38.925268],[-119.489044,38.926801],[-119.487995,38.928598],[-119.48641,38.928598],[-119.486411,38.947344],[-119.490915,38.947335],[-119.490759,38.951044],[-119.492712,38.953719],[-119.495736,38.955723],[-119.498541,38.955759],[-119.502585,38.957744],[-119.507006,38.958614],[-119.507369,38.959847],[-119.509381,38.962375],[-119.513056,38.963956],[-119.514583,38.963466],[-119.516858,38.96429],[-119.522253,38.964364],[-119.52416,38.963665],[-119.529394,38.965388],[-119.53404,38.967643],[-119.535279,38.967128],[-119.538783,38.967211],[-119.541675,38.968393],[-119.548634,38.973872],[-119.551587,38.976729],[-119.557766,38.978947],[-119.55697,38.982257],[-119.560028,38.987989],[-119.564924,38.992229],[-119.56493,38.986858],[-119.574549,38.986859],[-119.574545,38.984038],[-119.587605,38.984055],[-119.581923,38.982409],[-119.579736,38.979093],[-119.574782,38.974042],[-119.574812,38.969264],[-119.575456,38.967206],[-119.577332,38.965903],[-119.57991,38.963113],[-119.581697,38.961806],[-119.58378,38.961806],[-119.588839,38.963888],[-119.595923,38.96167],[-119.597773,38.960256],[-119.601913,38.958563],[-119.606279,38.957537],[-119.608936,38.960833],[-119.612872,38.966441],[-119.614976,38.968948],[-119.622063,38.968948],[-119.622055,38.983074],[-119.612044,38.983067],[-119.612041,38.986031],[-119.616082,38.986366],[-119.620646,38.988318],[-119.618528,38.990133],[-119.614784,38.991591],[-119.612073,38.992136],[-119.612073,39.00444],[-119.614046,39.009414],[-119.615161,39.010328],[-119.615775,39.007377],[-119.618148,39.005226],[-119.621254,39.004263],[-119.625183,39.004559],[-119.627263,39.003968],[-119.629344,39.004129],[-119.631659,39.005274],[-119.633218,39.008485],[-119.637154,39.006714],[-119.640185,39.003362],[-119.642277,39.003087],[-119.643378,39.001507],[-119.647936,38.999197],[-119.649997,38.999007],[-119.655095,38.995158],[-119.660489,38.991933],[-119.661838,38.990676],[-119.666381,38.988252]]]}},{"type":"Feature","properties":{"zcta5":"89444","AFFGEOID10":"8600000US89444","GEOID10":"89444","ALAND10":766282196,"AWATER10":9139998,"county_name":"Douglas","state_code":"NV","county_state":"Douglas County, NV","county_fips":"32005","risk_level_county":"Medium Risk (70–79% vaccinated)","mean_vaccination_rate_county":72.75,"risk_level_zcta":"Very High Risk (<60% vaccinated)","mean_vaccination_rate_zips":57.97,"cases":2},"geometry":{"type":"Polygon","coordinates":[[[-119.562624,38.823588],[-119.56435,38.822512],[-119.567361,38.816885],[-119.566951,38.813087],[-119.570431,38.811623],[-119.572798,38.809426],[-119.575605,38.809014],[-119.577095,38.80668],[-119.577271,38.804918],[-119.576511,38.802813],[-119.579986,38.79403],[-119.58098,38.793138],[-119.584339,38.787121],[-119.584894,38.784031],[-119.585683,38.783322],[-119.589557,38.783309],[-119.586026,38.779387],[-119.579121,38.767381],[-119.5762,38.761285],[-119.574443,38.758774],[-119.572521,38.757568],[-119.569232,38.75378],[-119.569522,38.751602],[-119.568576,38.749563],[-119.566066,38.74676],[-119.563449,38.745444],[-119.561252,38.743696],[-119.560252,38.741289],[-119.558505,38.740534],[-119.558215,38.73778],[-119.556163,38.735541],[-119.550685,38.73128],[-119.549571,38.729766],[-119.547068,38.729701],[-119.544985,38.728877],[-119.544116,38.727561],[-119.540651,38.726027],[-119.540339,38.724547],[-119.537501,38.722937],[-119.536211,38.723369],[-119.534452,38.722768],[-119.552229,38.722775],[-119.552234,38.719134],[-119.554112,38.719128],[-119.553105,38.709294],[-119.552423,38.708442],[-119.534287,38.708648],[-119.534503,38.701062],[-119.529152,38.701014],[-119.529094,38.698201],[-119.523748,38.697748],[-119.513081,38.694636],[-119.508433,38.695989],[-119.50605,38.695895],[-119.506045,38.69445],[-119.501168,38.693726],[-119.501207,38.690135],[-119.510313,38.689965],[-119.510437,38.687084],[-119.508357,38.685731],[-119.506701,38.682648],[-119.508043,38.680197],[-119.50654,38.679945],[-119.505014,38.678283],[-119.505034,38.676412],[-119.503984,38.673687],[-119.507063,38.670209],[-119.508739,38.669931],[-119.508652,38.665224],[-119.504656,38.667479],[-119.501286,38.668374],[-119.49984,38.668192],[-119.50112,38.663982],[-119.501237,38.658238],[-119.500266,38.657047],[-119.500871735176,38.6544961609218],[-119.494183,38.649852],[-119.494022,38.649734],[-119.45390973067,38.6222255397844],[-119.450612,38.619964],[-119.450623,38.619965],[-119.375994,38.566793],[-119.370117,38.563281],[-119.333423,38.538328],[-119.33000897876201,38.535906585849006],[-119.328411217387,38.5347733644266],[-119.279262,38.499914],[-119.250988,38.48078],[-119.234966,38.468997],[-119.16007918448601,38.4168935484844],[-119.159023,38.419869],[-119.159567,38.421895],[-119.158262,38.422406],[-119.157192,38.425182],[-119.154624,38.425116],[-119.153125,38.425768],[-119.151422,38.428017],[-119.147484,38.430855],[-119.14338,38.431782],[-119.141006,38.432993],[-119.140148,38.434348],[-119.1385,38.433908],[-119.134772,38.434231],[-119.134132,38.435637],[-119.129824,38.435002],[-119.125983,38.432245],[-119.124797,38.432094],[-119.123949,38.433649],[-119.121124,38.435072],[-119.117676,38.435079],[-119.117159,38.43621],[-119.114167,38.436596],[-119.112624,38.438896],[-119.110419,38.439653],[-119.109115,38.439381],[-119.106506,38.440582],[-119.106799,38.441234],[-119.110419,38.440721],[-119.116548,38.441068],[-119.118355,38.441831],[-119.122642,38.442062],[-119.128579,38.441405],[-119.129389,38.441526],[-119.131778,38.442997],[-119.133835,38.444879],[-119.135854,38.447678],[-119.14065,38.450226],[-119.148163,38.452876],[-119.153882,38.45401],[-119.158107,38.455452],[-119.161829,38.45793],[-119.167286,38.459397],[-119.171739,38.461895],[-119.179136,38.463819],[-119.179793,38.466099],[-119.180855,38.466351],[-119.181222,38.467982],[-119.183641,38.474381],[-119.185556,38.47752],[-119.211027,38.509848],[-119.211462,38.51045],[-119.209808,38.511472],[-119.210025,38.512899],[-119.212324,38.514593],[-119.213333,38.513714],[-119.217595,38.524608],[-119.217776,38.528935],[-119.217228,38.542914],[-119.216933,38.544238],[-119.213917,38.54792],[-119.2134,38.551525],[-119.215301,38.557585],[-119.211845,38.563397],[-119.210828,38.565517],[-119.209752,38.569535],[-119.20948,38.571955],[-119.210338,38.57638],[-119.211719,38.579223],[-119.214687,38.58108],[-119.21809,38.585147],[-119.220295,38.587332],[-119.220816,38.589106],[-119.221611,38.59417],[-119.22235,38.595526],[-119.22407,38.596603],[-119.232987,38.599852],[-119.234422,38.600617],[-119.237539,38.602892],[-119.237923,38.604974],[-119.240488,38.606857],[-119.243491,38.610417],[-119.245412,38.611585],[-119.248652,38.615202],[-119.252939,38.618758],[-119.257947,38.623815],[-119.260069,38.628343],[-119.261403,38.631821],[-119.26272,38.633617],[-119.266821,38.635367],[-119.268473,38.636682],[-119.271317,38.642908],[-119.27007,38.641962],[-119.268903,38.644048],[-119.269289,38.649731],[-119.270083,38.651468],[-119.2736,38.657068],[-119.276073,38.659477],[-119.282245,38.666326],[-119.283194,38.668812],[-119.285226,38.672368],[-119.286354,38.682284],[-119.289937,38.689773],[-119.290855,38.693087],[-119.292116,38.695375],[-119.296008,38.700288],[-119.297852,38.702272],[-119.301284,38.704923],[-119.316836,38.712599],[-119.324169,38.72178],[-119.325565,38.724247],[-119.327558,38.724822],[-119.337967,38.732323],[-119.340644,38.733885],[-119.350085,38.737945],[-119.351504,38.738713],[-119.358267,38.744514],[-119.365417,38.74916],[-119.37005,38.751537],[-119.365602,38.758575],[-119.36302,38.761162],[-119.361741,38.762935],[-119.361198,38.765092],[-119.36116,38.771749],[-119.360885,38.772632],[-119.344949,38.781859],[-119.346215,38.784764],[-119.347502,38.786626],[-119.347526,38.818045],[-119.346981,38.819369],[-119.344628,38.819463],[-119.342873,38.820158],[-119.342684,38.824919],[-119.339819,38.825752],[-119.34123,38.825805],[-119.342026,38.827444],[-119.337272,38.829775],[-119.331068,38.829969],[-119.328674,38.829832],[-119.328693,38.832385],[-119.325173,38.834236],[-119.320358,38.836027],[-119.315777,38.836643],[-119.305128,38.836971],[-119.298847,38.837617],[-119.295097,38.83757],[-119.292381,38.838631],[-119.286308,38.840282],[-119.283638,38.840267],[-119.282005,38.841156],[-119.278084,38.841812],[-119.282383,38.844082],[-119.285119,38.849527],[-119.307258,38.882077],[-119.31195,38.888243],[-119.314665,38.894187],[-119.315263,38.896468],[-119.316953,38.899239],[-119.316725,38.903026],[-119.314939,38.906201],[-119.313395,38.912108],[-119.312868,38.915189],[-119.312075,38.916778],[-119.310732,38.921443],[-119.309718,38.923775],[-119.308951,38.927943],[-119.307967,38.931027],[-119.307267,38.936271],[-119.305905,38.939256],[-119.305132,38.942035],[-119.303588,38.943969],[-119.298522,38.948677],[-119.295148,38.950822],[-119.292012,38.952416],[-119.291483,38.953702],[-119.292544,38.957188],[-119.293419,38.958807],[-119.296857,38.962045],[-119.298907,38.962901],[-119.304084,38.96646],[-119.309002,38.968748],[-119.313508,38.971124],[-119.316227,38.971167],[-119.321454,38.972454],[-119.325782,38.974476],[-119.327172,38.975545],[-119.331994,38.976743],[-119.33439,38.976925],[-119.338756,38.976724],[-119.338882,38.965821],[-119.344635,38.965825],[-119.351199,38.965584],[-119.354218,38.966174],[-119.358837,38.966205],[-119.369137,38.965867],[-119.370394,38.961985],[-119.371409,38.959817],[-119.372922,38.95876],[-119.379184,38.958712],[-119.384084,38.958169],[-119.390637,38.958593],[-119.395,38.957696],[-119.3942,38.959632],[-119.395796,38.961025],[-119.399854,38.963535],[-119.402212,38.964263],[-119.402495,38.954647],[-119.420837,38.954715],[-119.421903,38.882136],[-119.439534,38.882001],[-119.43989,38.852605],[-119.421884,38.852703],[-119.421778,38.82331],[-119.41287,38.823711],[-119.412861,38.808914],[-119.403908,38.809111],[-119.403586,38.784046],[-119.408344,38.783286],[-119.414459,38.783973],[-119.419983,38.78564],[-119.42196,38.785496],[-119.4294,38.786665],[-119.431833,38.79004],[-119.433092,38.791131],[-119.428413,38.791108],[-119.427945,38.791511],[-119.431066,38.792355],[-119.435776,38.793026],[-119.440864,38.794696],[-119.444634,38.795153],[-119.449253,38.796571],[-119.457235,38.799727],[-119.464105,38.798376],[-119.467057,38.796293],[-119.470389,38.795147],[-119.471764,38.796931],[-119.473605,38.79581],[-119.473693,38.797114],[-119.475651,38.796839],[-119.477348,38.798645],[-119.477262,38.802123],[-119.480098,38.802076],[-119.481208,38.801366],[-119.483693,38.801228],[-119.487846,38.801913],[-119.491677,38.804336],[-119.496706,38.803944],[-119.499778,38.806871],[-119.503125,38.808316],[-119.507598,38.809005],[-119.509849,38.808937],[-119.516193,38.811158],[-119.516953,38.812508],[-119.519058,38.813058],[-119.520871,38.811915],[-119.523882,38.81203],[-119.526485,38.810727],[-119.528386,38.809081],[-119.558517,38.809105],[-119.558517,38.816269],[-119.553826,38.816269],[-119.553826,38.81271],[-119.549136,38.81271],[-119.549027,38.816519],[-119.55234,38.818875],[-119.557396,38.820785],[-119.562624,38.823588]]]}},{"type":"Feature","properties":{"zcta5":"89449","AFFGEOID10":"8600000US89449","GEOID10":"89449","ALAND10":25981415,"AWATER10":272684,"county_name":"Douglas","state_code":"NV","county_state":"Douglas County, NV","county_fips":"32005","risk_level_county":"Medium Risk (70–79% vaccinated)","mean_vaccination_rate_county":72.75,"risk_level_zcta":"Higher Risk (60–69% vaccinated)","mean_vaccination_rate_zips":62.17,"cases":2},"geometry":{"type":"Polygon","coordinates":[[[-119.95387,38.975598],[-119.95136799149401,38.965560741708394],[-119.951291245785,38.9655081620206],[-119.949630392863,38.964370285661396],[-119.949590852374,38.9643431958529],[-119.93875550169402,38.956919727331396],[-119.904315,38.933324],[-119.90059759691,38.9307576868155],[-119.900416,38.934194],[-119.899275,38.932936],[-119.899537,38.935749],[-119.898483,38.934902],[-119.897604,38.936549],[-119.894705,38.936068],[-119.892185,38.93808],[-119.893063,38.939292],[-119.893138,38.941532],[-119.887667,38.94353],[-119.883441,38.945916],[-119.881344,38.94972],[-119.878952,38.95192],[-119.877269,38.955482],[-119.875746,38.959714],[-119.872816,38.96221],[-119.869406,38.962695],[-119.870123,38.965267],[-119.871275,38.966122],[-119.873862,38.96541],[-119.875104,38.965929],[-119.872424,38.966944],[-119.8724,38.968631],[-119.868358,38.968538],[-119.869682,38.969838],[-119.87245,38.971296],[-119.87464,38.971467],[-119.876011,38.97247],[-119.8781,38.972784],[-119.881916,38.975174],[-119.884806,38.976048],[-119.885585,38.977739],[-119.883016,38.980576],[-119.8846,38.981632],[-119.882255,38.98518],[-119.881878,38.987621],[-119.884726,38.990193],[-119.889123,38.992048],[-119.890463,38.99335],[-119.889709,38.995075],[-119.887872,38.996687],[-119.890333,38.999079],[-119.893206,38.999354],[-119.89437,39.000551],[-119.896665,38.997408],[-119.897103,38.994771],[-119.898967,38.993064],[-119.8997,38.990543],[-119.902381,38.988902],[-119.902994,38.98754],[-119.906273,38.985141],[-119.912322,38.983265],[-119.913872,38.982135],[-119.9172,38.98087],[-119.91728,38.986464],[-119.92206,38.986361],[-119.922036,38.980143],[-119.921928,38.978031],[-119.922978,38.978678],[-119.925865,38.977673],[-119.928886,38.973329],[-119.934951,38.971194],[-119.935867,38.971261],[-119.936074,38.971852],[-119.937179,38.972331],[-119.93784,38.972096],[-119.937896,38.972548],[-119.939026,38.973596],[-119.940027,38.973905],[-119.943527,38.97434],[-119.946648,38.975616],[-119.949547,38.975845],[-119.949724,38.976405],[-119.950072,38.976657],[-119.95387,38.975598]]]}},{"type":"Feature","properties":{"zcta5":"89448","AFFGEOID10":"8600000US89448","GEOID10":"89448","ALAND10":31812838,"AWATER10":914591,"county_name":"Douglas","state_code":"NV","county_state":"Douglas County, NV","county_fips":"32005","risk_level_county":"Medium Risk (70–79% vaccinated)","mean_vaccination_rate_county":72.75,"risk_level_zcta":"Medium Risk (70–79% vaccinated)","mean_vaccination_rate_zips":70.08,"cases":2},"geometry":{"type":"Polygon","coordinates":[[[-119.950052,39.029203],[-119.949408,39.028104],[-119.950325,39.025769],[-119.950085,39.024678],[-119.951481,39.022584],[-119.954579,39.021449],[-119.954077,39.019573],[-119.954034,39.01606],[-119.953423,39.014926],[-119.951525,39.013551],[-119.949975,39.009471],[-119.950073,39.007282],[-119.952535,39.005703],[-119.956312,39.005352],[-119.961078,39.002705],[-119.961521,39.001609],[-119.960265,38.999092],[-119.958659,38.997861],[-119.956514,38.994808],[-119.95494,38.991834],[-119.9553,38.988933],[-119.958293,38.98766],[-119.95891,38.986074],[-119.95387,38.975598],[-119.950072,38.976657],[-119.949724,38.976405],[-119.949547,38.975845],[-119.946648,38.975616],[-119.943527,38.97434],[-119.940027,38.973905],[-119.939026,38.973596],[-119.937896,38.972548],[-119.93784,38.972096],[-119.937179,38.972331],[-119.936074,38.971852],[-119.935867,38.971261],[-119.934951,38.971194],[-119.928886,38.973329],[-119.925865,38.977673],[-119.922978,38.978678],[-119.921928,38.978031],[-119.922036,38.980143],[-119.92206,38.986361],[-119.91728,38.986464],[-119.9172,38.98087],[-119.913872,38.982135],[-119.912322,38.983265],[-119.906273,38.985141],[-119.902994,38.98754],[-119.902381,38.988902],[-119.8997,38.990543],[-119.898967,38.993064],[-119.897103,38.994771],[-119.896665,38.997408],[-119.89437,39.000551],[-119.893051,39.001671],[-119.892873,39.005216],[-119.891642,39.006568],[-119.890704,39.009181],[-119.892756,39.012046],[-119.893284,39.014362],[-119.891907,39.016126],[-119.893226,39.017779],[-119.893256,39.019381],[-119.895834,39.019378],[-119.897443,39.02191],[-119.89829,39.025426],[-119.893917,39.028231],[-119.891596,39.031176],[-119.889983,39.032295],[-119.889862,39.037967],[-119.893335,39.038292],[-119.894113,39.041196],[-119.895767,39.043076],[-119.900825,39.045688],[-119.904177,39.046687],[-119.908421,39.045539],[-119.909374,39.044096],[-119.912301,39.042399],[-119.915463,39.038221],[-119.918166,39.036617],[-119.919863,39.036373],[-119.923217,39.036814],[-119.924744,39.035151],[-119.930004,39.034263],[-119.93187,39.033016],[-119.936154,39.032632],[-119.936126,39.02599],[-119.945441,39.025849],[-119.945699,39.026871],[-119.948061,39.026873],[-119.946864,39.028213],[-119.945763,39.027094],[-119.946323,39.029678],[-119.950052,39.029203]]]}},{"type":"Feature","properties":{"zcta5":"89413","AFFGEOID10":"8600000US89413","GEOID10":"89413","ALAND10":40901079,"AWATER10":1446996,"county_name":"Douglas","state_code":"NV","county_state":"Douglas County, NV","county_fips":"32005","risk_level_county":"Medium Risk (70–79% vaccinated)","mean_vaccination_rate_county":72.75,"risk_level_zcta":"Uninhabited","mean_vaccination_rate_zips":null,"cases":2},"geometry":{"type":"Polygon","coordinates":[[[-119.957839,39.112706],[-119.958725,39.110555],[-119.960906,39.108155],[-119.961692,39.105689],[-119.960339,39.103726],[-119.957175,39.102416],[-119.955714,39.100671],[-119.954012,39.100453],[-119.952026,39.0991],[-119.948557,39.099384],[-119.94655,39.098227],[-119.942732,39.093536],[-119.941597,39.09094],[-119.941314,39.088671],[-119.942514,39.087558],[-119.944281,39.087362],[-119.947292,39.086227],[-119.949474,39.08374],[-119.949714,39.081013],[-119.948352,39.075992],[-119.948979,39.075133],[-119.948352,39.073741],[-119.946449,39.073137],[-119.943386,39.071049],[-119.943037,39.069733],[-119.943648,39.067726],[-119.946332,39.064998],[-119.946223,39.063122],[-119.944586,39.061464],[-119.946179,39.05854],[-119.94559,39.055136],[-119.946615,39.053827],[-119.947117,39.049726],[-119.949823,39.047195],[-119.950172,39.045842],[-119.949299,39.040693],[-119.950761,39.038751],[-119.952092,39.035849],[-119.950281,39.031486],[-119.950052,39.029203],[-119.946323,39.029678],[-119.945763,39.027094],[-119.946864,39.028213],[-119.948061,39.026873],[-119.945699,39.026871],[-119.945441,39.025849],[-119.936126,39.02599],[-119.936154,39.032632],[-119.93187,39.033016],[-119.930004,39.034263],[-119.924744,39.035151],[-119.923217,39.036814],[-119.919863,39.036373],[-119.918166,39.036617],[-119.915463,39.038221],[-119.912301,39.042399],[-119.909374,39.044096],[-119.908421,39.045539],[-119.904177,39.046687],[-119.900825,39.045688],[-119.895767,39.043076],[-119.894113,39.041196],[-119.893335,39.038292],[-119.889862,39.037967],[-119.891208,39.042656],[-119.890386,39.043845],[-119.890532,39.045423],[-119.887674,39.05057],[-119.88689,39.052123],[-119.884308,39.054043],[-119.88375,39.055209],[-119.884951,39.056674],[-119.885155,39.058755],[-119.883659,39.058617],[-119.880754,39.059942],[-119.878434,39.062594],[-119.883185,39.06573],[-119.883242,39.066805],[-119.886323,39.068453],[-119.889402,39.07081],[-119.890486,39.072915],[-119.890749,39.075088],[-119.887636,39.078426],[-119.887664,39.081307],[-119.888308,39.084395],[-119.891682,39.083893],[-119.893091,39.084466],[-119.89441,39.086753],[-119.898605,39.089179],[-119.899368,39.090483],[-119.902006,39.090228],[-119.905199,39.090761],[-119.908621,39.094751],[-119.910757,39.096413],[-119.910038,39.099954],[-119.908519,39.101465],[-119.902898,39.102955],[-119.891556,39.105364],[-119.887262,39.105762],[-119.87958,39.107412],[-119.879005,39.108279],[-119.879583,39.110062],[-119.884428,39.11287],[-119.957839,39.112706]]]}},{"type":"Feature","properties":{"zcta5":"89411","AFFGEOID10":"8600000US89411","GEOID10":"89411","ALAND10":58896815,"AWATER10":0,"county_name":"Douglas","state_code":"NV","county_state":"Douglas County, NV","county_fips":"32005","risk_level_county":"Medium Risk (70–79% vaccinated)","mean_vaccination_rate_county":72.75,"risk_level_zcta":"Medium Risk (70–79% vaccinated)","mean_vaccination_rate_zips":70.12,"cases":2},"geometry":{"type":"Polygon","coordinates":[[[-119.889862,39.037967],[-119.889983,39.032295],[-119.891596,39.031176],[-119.893917,39.028231],[-119.89829,39.025426],[-119.897443,39.02191],[-119.895834,39.019378],[-119.893256,39.019381],[-119.893226,39.017779],[-119.891907,39.016126],[-119.893284,39.014362],[-119.892756,39.012046],[-119.890704,39.009181],[-119.891642,39.006568],[-119.892873,39.005216],[-119.893051,39.001671],[-119.89437,39.000551],[-119.893206,38.999354],[-119.890333,38.999079],[-119.887872,38.996687],[-119.889709,38.995075],[-119.890463,38.99335],[-119.889123,38.992048],[-119.884726,38.990193],[-119.881878,38.987621],[-119.882255,38.98518],[-119.8846,38.981632],[-119.883016,38.980576],[-119.885585,38.977739],[-119.884806,38.976048],[-119.881916,38.975174],[-119.8781,38.972784],[-119.876011,38.97247],[-119.87464,38.971467],[-119.87245,38.971296],[-119.869682,38.969838],[-119.868358,38.968538],[-119.8724,38.968631],[-119.872424,38.966944],[-119.875104,38.965929],[-119.873862,38.96541],[-119.871275,38.966122],[-119.870123,38.965267],[-119.869406,38.962695],[-119.86376,38.96341],[-119.861914,38.963266],[-119.85816,38.964818],[-119.854879,38.965335],[-119.853235,38.965105],[-119.853287,38.968356],[-119.848349,38.968185],[-119.847471,38.98462],[-119.84429,38.982572],[-119.840894,38.981893],[-119.836691,38.983599],[-119.83288,38.984597],[-119.832812,38.983392],[-119.83509,38.977749],[-119.836865,38.97579],[-119.838211,38.97104],[-119.835411,38.971044],[-119.834913,38.977138],[-119.832311,38.981562],[-119.830976,38.982752],[-119.830785,38.984382],[-119.8337,38.989154],[-119.833669,38.990448],[-119.832159,38.993219],[-119.832307,39.000174],[-119.829222,39.00315],[-119.829248,39.006617],[-119.828064,39.00923],[-119.826371,39.009083],[-119.826089,39.007546],[-119.822621,39.007602],[-119.82274,39.004175],[-119.823964,39.002675],[-119.822924,39.001075],[-119.823833,38.997857],[-119.819771,38.996762],[-119.815879,38.996619],[-119.816212,39.025457],[-119.816915,39.026419],[-119.816379,39.030176],[-119.815179,39.030275],[-119.813784,39.034632],[-119.812558,39.035088],[-119.806907,39.03418],[-119.805915,39.034471],[-119.805615,39.037051],[-119.803098,39.036547],[-119.801626,39.034957],[-119.79982,39.035712],[-119.797943,39.037686],[-119.797482,39.039009],[-119.794658,39.04177],[-119.792429,39.042234],[-119.79153,39.044071],[-119.788452,39.044181],[-119.788633,39.055861],[-119.784687,39.055776],[-119.785465,39.063663],[-119.788597,39.061218],[-119.788555,39.059506],[-119.793844,39.059399],[-119.793359,39.058147],[-119.801338,39.054511],[-119.803918,39.057102],[-119.806906,39.055531],[-119.822031,39.055806],[-119.825315,39.057472],[-119.825355,39.063123],[-119.835919,39.063099],[-119.838275,39.066538],[-119.840275,39.06653],[-119.843762,39.068824],[-119.84385,39.051238],[-119.848302,39.050359],[-119.852385,39.050616],[-119.857186,39.049428],[-119.86288,39.049245],[-119.86364,39.048717],[-119.867716,39.048139],[-119.870765,39.049263],[-119.8765,39.049924],[-119.880126,39.049026],[-119.883034,39.049487],[-119.886261,39.051401],[-119.887674,39.05057],[-119.890532,39.045423],[-119.890386,39.043845],[-119.891208,39.042656],[-119.889862,39.037967]]]}},{"type":"Feature","properties":{"zcta5":"89423","AFFGEOID10":"8600000US89423","GEOID10":"89423","ALAND10":179364657,"AWATER10":669600,"county_name":"Douglas","state_code":"NV","county_state":"Douglas County, NV","county_fips":"32005","risk_level_county":"Medium Risk (70–79% vaccinated)","mean_vaccination_rate_county":72.75,"risk_level_zcta":"Medium Risk (70–79% vaccinated)","mean_vaccination_rate_zips":72.69,"cases":2},"geometry":{"type":"Polygon","coordinates":[[[-119.803918,39.057102],[-119.801338,39.054511],[-119.793359,39.058147],[-119.793844,39.059399],[-119.788555,39.059506],[-119.788597,39.061218],[-119.785465,39.063663],[-119.784687,39.055776],[-119.788633,39.055861],[-119.788452,39.044181],[-119.79153,39.044071],[-119.792429,39.042234],[-119.794658,39.04177],[-119.797482,39.039009],[-119.797943,39.037686],[-119.79982,39.035712],[-119.801626,39.034957],[-119.803098,39.036547],[-119.805615,39.037051],[-119.805915,39.034471],[-119.806907,39.03418],[-119.812558,39.035088],[-119.813784,39.034632],[-119.815179,39.030275],[-119.816379,39.030176],[-119.816915,39.026419],[-119.816212,39.025457],[-119.815879,38.996619],[-119.819771,38.996762],[-119.823833,38.997857],[-119.822924,39.001075],[-119.823964,39.002675],[-119.82274,39.004175],[-119.822621,39.007602],[-119.826089,39.007546],[-119.826371,39.009083],[-119.828064,39.00923],[-119.829248,39.006617],[-119.829222,39.00315],[-119.832307,39.000174],[-119.832159,38.993219],[-119.833669,38.990448],[-119.8337,38.989154],[-119.830785,38.984382],[-119.830976,38.982752],[-119.832311,38.981562],[-119.834913,38.977138],[-119.835411,38.971044],[-119.833402,38.963223],[-119.83315,38.955648],[-119.83537,38.951878],[-119.83434,38.95011],[-119.834665,38.946928],[-119.827062,38.946823],[-119.82433,38.947317],[-119.821759,38.946365],[-119.82105,38.945162],[-119.819325,38.945136],[-119.818929,38.944222],[-119.816045,38.945382],[-119.813069,38.94312],[-119.810941,38.943496],[-119.810185,38.939374],[-119.807062,38.939395],[-119.807113,38.956535],[-119.799217,38.956248],[-119.798397,38.953892],[-119.793985,38.951177],[-119.794133,38.949168],[-119.78991,38.948951],[-119.789476,38.947182],[-119.789085,38.948831],[-119.785639,38.950385],[-119.785278,38.951327],[-119.785842,38.954108],[-119.787705,38.955149],[-119.788583,38.957253],[-119.78867,38.960981],[-119.789958,38.963475],[-119.79359,38.965099],[-119.794557,38.965717],[-119.798482,38.968851],[-119.799195,38.970755],[-119.798046,38.968635],[-119.795977,38.967626],[-119.7944,38.965836],[-119.789679,38.963482],[-119.788126,38.961581],[-119.787016,38.958395],[-119.784236,38.95555],[-119.779405,38.952106],[-119.779516,38.946259],[-119.778661,38.945853],[-119.776935,38.943208],[-119.775273,38.941775],[-119.770427,38.939081],[-119.765707,38.938136],[-119.763347,38.938299],[-119.761026,38.937229],[-119.761186,38.944615],[-119.761394,38.947178],[-119.759252,38.949144],[-119.761035,38.951425],[-119.756563,38.951696],[-119.754837,38.951694],[-119.754742,38.961261],[-119.748891,38.961276],[-119.748844,38.95172],[-119.733063,38.951779],[-119.733132,38.957749],[-119.737231,38.961099],[-119.714404,38.961341],[-119.709157,38.96157],[-119.708998,38.96576],[-119.709664,38.967598],[-119.709051,38.969398],[-119.70891,38.975823],[-119.695658,38.976145],[-119.685748,38.976099],[-119.675234,38.982525],[-119.672562,38.984764],[-119.671511,38.984527],[-119.666381,38.988252],[-119.667758,38.99214],[-119.669165,38.994542],[-119.667405,38.998362],[-119.666841,39.001602],[-119.664495,39.002974],[-119.656421,39.006422],[-119.657033,39.009168],[-119.658672,39.008503],[-119.658468,39.007229],[-119.65965,39.006955],[-119.660341,39.005429],[-119.665835,39.006605],[-119.669635,39.006194],[-119.670239,39.009142],[-119.668846,39.010772],[-119.669856,39.012081],[-119.677157,39.01206],[-119.677148,39.027358],[-119.666535,39.027403],[-119.666311,39.026691],[-119.666918,39.021672],[-119.669007,39.018838],[-119.665372,39.019549],[-119.662452,39.019393],[-119.659809,39.021986],[-119.660989,39.027406],[-119.658717,39.027406],[-119.661203,39.030057],[-119.661915,39.031659],[-119.668389,39.061394],[-119.670083,39.060938],[-119.672166,39.063226],[-119.67331,39.062974],[-119.678562,39.059223],[-119.67862,39.064599],[-119.679031,39.066726],[-119.683608,39.066406],[-119.681732,39.071182],[-119.681438,39.073076],[-119.67953,39.075837],[-119.679235,39.080016],[-119.679705,39.080931],[-119.68308,39.080954],[-119.686602,39.083035],[-119.68608,39.084799],[-119.695909,39.085009],[-119.748515,39.085063],[-119.752116,39.084904],[-119.752159,39.092988],[-119.75219,39.099526],[-119.759195,39.099508],[-119.761213,39.099508],[-119.761213,39.102209],[-119.76128,39.102336],[-119.762878,39.101134],[-119.767312,39.102834],[-119.769096,39.101461],[-119.767409,39.099487],[-119.767392,39.095951],[-119.765742,39.095476],[-119.767388,39.094758],[-119.770916,39.089757],[-119.76943,39.087323],[-119.770752,39.083761],[-119.770788,39.081153],[-119.770998,39.081051],[-119.773536,39.078736],[-119.774037,39.076885],[-119.776626,39.075958],[-119.776724,39.074039],[-119.779053,39.074074],[-119.780054,39.074202],[-119.780052,39.077627],[-119.784573,39.077513],[-119.784844,39.074271],[-119.785859,39.074378],[-119.790962,39.084467],[-119.796258,39.087149],[-119.797699,39.086203],[-119.801048,39.085926],[-119.803165,39.082798],[-119.805228,39.081548],[-119.809288,39.080097],[-119.812203,39.080846],[-119.813102,39.077612],[-119.812809,39.075485],[-119.81635,39.075423],[-119.816393,39.062988],[-119.808684,39.063009],[-119.806851,39.061891],[-119.806726,39.059342],[-119.805361,39.059248],[-119.803069,39.057599],[-119.803918,39.057102]]]}},{"type":"Feature","properties":{"zcta5":"89460","AFFGEOID10":"8600000US89460","GEOID10":"89460","ALAND10":140397219,"AWATER10":1196501,"county_name":"Douglas","state_code":"NV","county_state":"Douglas County, NV","county_fips":"32005","risk_level_county":"Medium Risk (70–79% vaccinated)","mean_vaccination_rate_county":72.75,"risk_level_zcta":"Higher Risk (60–69% vaccinated)","mean_vaccination_rate_zips":69.53,"cases":2},"geometry":{"type":"Polygon","coordinates":[[[-119.869406,38.962695],[-119.872816,38.96221],[-119.875746,38.959714],[-119.877269,38.955482],[-119.878952,38.95192],[-119.881344,38.94972],[-119.883441,38.945916],[-119.887667,38.94353],[-119.893138,38.941532],[-119.893063,38.939292],[-119.892185,38.93808],[-119.894705,38.936068],[-119.897604,38.936549],[-119.898483,38.934902],[-119.899537,38.935749],[-119.899275,38.932936],[-119.900416,38.934194],[-119.90059759691,38.9307576868155],[-119.726918533307,38.81085816018879],[-119.72574,38.813828],[-119.725015,38.814376],[-119.724649,38.816412],[-119.722635,38.817058],[-119.720437,38.819907],[-119.719492,38.823064],[-119.720445,38.827966],[-119.722207,38.829128],[-119.722287,38.83077],[-119.720215,38.83072],[-119.719586,38.833095],[-119.719387,38.836759],[-119.718189,38.838169],[-119.717944,38.841299],[-119.720773,38.843205],[-119.724636,38.844722],[-119.723181,38.848473],[-119.721622,38.849468],[-119.720348,38.851413],[-119.717826,38.853861],[-119.717574,38.855684],[-119.716579,38.857314],[-119.714264,38.859397],[-119.711407,38.86528],[-119.711198,38.868231],[-119.708852,38.872624],[-119.706473,38.874485],[-119.704283,38.876839],[-119.703943,38.878079],[-119.702358,38.878097],[-119.702378,38.879507],[-119.703906,38.880948],[-119.704908,38.883734],[-119.705275,38.886274],[-119.708642,38.889385],[-119.709296,38.890694],[-119.709463,38.893731],[-119.710244,38.895466],[-119.712269,38.897818],[-119.712629,38.899182],[-119.71208,38.902379],[-119.714549,38.904636],[-119.714511,38.907595],[-119.715575,38.909094],[-119.71625,38.911614],[-119.716249,38.913429],[-119.71721,38.914447],[-119.72161,38.916935],[-119.723366,38.917133],[-119.728035,38.918646],[-119.730777,38.921237],[-119.73385,38.923401],[-119.7384,38.925478],[-119.742078,38.928518],[-119.745968,38.929984],[-119.74951,38.930346],[-119.751651,38.931176],[-119.751953,38.932742],[-119.753122,38.934207],[-119.755163,38.935367],[-119.757713,38.935941],[-119.759455,38.937112],[-119.761026,38.937229],[-119.763347,38.938299],[-119.765707,38.938136],[-119.770427,38.939081],[-119.775273,38.941775],[-119.776935,38.943208],[-119.778661,38.945853],[-119.779516,38.946259],[-119.779405,38.952106],[-119.784236,38.95555],[-119.787016,38.958395],[-119.788126,38.961581],[-119.789679,38.963482],[-119.7944,38.965836],[-119.795977,38.967626],[-119.798046,38.968635],[-119.799195,38.970755],[-119.798482,38.968851],[-119.794557,38.965717],[-119.79359,38.965099],[-119.789958,38.963475],[-119.78867,38.960981],[-119.788583,38.957253],[-119.787705,38.955149],[-119.785842,38.954108],[-119.785278,38.951327],[-119.785639,38.950385],[-119.789085,38.948831],[-119.789476,38.947182],[-119.78991,38.948951],[-119.794133,38.949168],[-119.793985,38.951177],[-119.798397,38.953892],[-119.799217,38.956248],[-119.807113,38.956535],[-119.807062,38.939395],[-119.810185,38.939374],[-119.810941,38.943496],[-119.813069,38.94312],[-119.816045,38.945382],[-119.818929,38.944222],[-119.819325,38.945136],[-119.82105,38.945162],[-119.821759,38.946365],[-119.82433,38.947317],[-119.827062,38.946823],[-119.834665,38.946928],[-119.83434,38.95011],[-119.83537,38.951878],[-119.83315,38.955648],[-119.833402,38.963223],[-119.835411,38.971044],[-119.838211,38.97104],[-119.836865,38.97579],[-119.83509,38.977749],[-119.832812,38.983392],[-119.83288,38.984597],[-119.836691,38.983599],[-119.840894,38.981893],[-119.84429,38.982572],[-119.847471,38.98462],[-119.848349,38.968185],[-119.853287,38.968356],[-119.853235,38.965105],[-119.854879,38.965335],[-119.85816,38.964818],[-119.861914,38.963266],[-119.86376,38.96341],[-119.869406,38.962695]]]}},{"type":"Feature","properties":{"zcta5":"89705","AFFGEOID10":"8600000US89705","GEOID10":"89705","ALAND10":111772453,"AWATER10":1584587,"county_name":"Douglas","state_code":"NV","county_state":"Douglas County, NV","county_fips":"32005","risk_level_county":"Medium Risk (70–79% vaccinated)","mean_vaccination_rate_county":72.75,"risk_level_zcta":"Medium Risk (70–79% vaccinated)","mean_vaccination_rate_zips":72.48,"cases":2},"geometry":{"type":"Polygon","coordinates":[[[-119.935207,39.165604],[-119.936856,39.165607],[-119.936216,39.163401],[-119.93662,39.15932],[-119.93662,39.155501],[-119.935074,39.150626],[-119.936244,39.148969],[-119.949074,39.138236],[-119.947943,39.13394],[-119.946045,39.132925],[-119.944168,39.130124],[-119.948099,39.12897],[-119.952259,39.129677],[-119.956078,39.125313],[-119.95626,39.122494],[-119.955169,39.120766],[-119.955971,39.117705],[-119.957839,39.112706],[-119.884428,39.11287],[-119.879583,39.110062],[-119.879005,39.108279],[-119.87958,39.107412],[-119.887262,39.105762],[-119.891556,39.105364],[-119.902898,39.102955],[-119.908519,39.101465],[-119.910038,39.099954],[-119.910757,39.096413],[-119.908621,39.094751],[-119.905199,39.090761],[-119.902006,39.090228],[-119.899368,39.090483],[-119.898605,39.089179],[-119.89441,39.086753],[-119.893091,39.084466],[-119.891682,39.083893],[-119.888308,39.084395],[-119.887664,39.081307],[-119.887636,39.078426],[-119.890749,39.075088],[-119.890486,39.072915],[-119.889402,39.07081],[-119.886323,39.068453],[-119.883242,39.066805],[-119.883185,39.06573],[-119.878434,39.062594],[-119.880754,39.059942],[-119.883659,39.058617],[-119.885155,39.058755],[-119.884951,39.056674],[-119.88375,39.055209],[-119.884308,39.054043],[-119.88689,39.052123],[-119.887674,39.05057],[-119.886261,39.051401],[-119.883034,39.049487],[-119.880126,39.049026],[-119.8765,39.049924],[-119.870765,39.049263],[-119.867716,39.048139],[-119.86364,39.048717],[-119.86288,39.049245],[-119.857186,39.049428],[-119.852385,39.050616],[-119.848302,39.050359],[-119.84385,39.051238],[-119.843762,39.068824],[-119.840275,39.06653],[-119.838275,39.066538],[-119.835919,39.063099],[-119.825355,39.063123],[-119.825315,39.057472],[-119.822031,39.055806],[-119.806906,39.055531],[-119.803918,39.057102],[-119.803069,39.057599],[-119.805361,39.059248],[-119.806726,39.059342],[-119.806851,39.061891],[-119.808684,39.063009],[-119.816393,39.062988],[-119.81635,39.075423],[-119.812809,39.075485],[-119.813102,39.077612],[-119.812203,39.080846],[-119.809288,39.080097],[-119.805228,39.081548],[-119.803165,39.082798],[-119.801048,39.085926],[-119.797699,39.086203],[-119.796258,39.087149],[-119.790962,39.084467],[-119.785859,39.074378],[-119.784844,39.074271],[-119.784573,39.077513],[-119.780052,39.077627],[-119.780054,39.074202],[-119.779053,39.074074],[-119.776724,39.074039],[-119.776626,39.075958],[-119.774037,39.076885],[-119.773536,39.078736],[-119.770998,39.081051],[-119.770788,39.081153],[-119.770752,39.083761],[-119.76943,39.087323],[-119.770916,39.089757],[-119.767388,39.094758],[-119.765742,39.095476],[-119.767392,39.095951],[-119.767409,39.099487],[-119.769096,39.101461],[-119.767312,39.102834],[-119.762878,39.101134],[-119.76128,39.102336],[-119.761316,39.103148],[-119.761213,39.103155],[-119.761213,39.114009],[-119.761486,39.114008],[-119.770427,39.113976],[-119.773104,39.113959],[-119.773244,39.113186],[-119.775048,39.11396],[-119.779717,39.113929],[-119.785786,39.113903],[-119.786335,39.113895],[-119.795411,39.113856],[-119.798316,39.115021],[-119.799988,39.116319],[-119.802302,39.116677],[-119.805275,39.114615],[-119.807216,39.114388],[-119.811753,39.115682],[-119.815893,39.118872],[-119.818096,39.120948],[-119.821378,39.120134],[-119.822872,39.120236],[-119.825415,39.12235],[-119.826997,39.122739],[-119.8319,39.1218],[-119.834341,39.123766],[-119.834896,39.127979],[-119.837219,39.129059],[-119.839205,39.129083],[-119.839823,39.132132],[-119.8372,39.136899],[-119.834062,39.139313],[-119.83356,39.140485],[-119.829944,39.141317],[-119.829592,39.142741],[-119.825816,39.144293],[-119.824419,39.145436],[-119.824755,39.147089],[-119.82369,39.145873],[-119.823773,39.142063],[-119.822301,39.142945],[-119.817448,39.147941],[-119.817505,39.149384],[-119.81529,39.152578],[-119.815458,39.153392],[-119.816232,39.154201],[-119.817217,39.154879],[-119.81981,39.155884],[-119.820888,39.155813],[-119.823899,39.154265],[-119.835609,39.156244],[-119.839247,39.154816],[-119.843498,39.154124],[-119.847622,39.154732],[-119.852395,39.153725],[-119.854002,39.153813],[-119.871499,39.152972],[-119.872592,39.154906],[-119.873713,39.15517],[-119.881926,39.154494],[-119.884158,39.153957],[-119.887208,39.157267],[-119.887779,39.158702],[-119.88709,39.160769],[-119.885273,39.161892],[-119.882068,39.162763],[-119.881164,39.163911],[-119.882644,39.165513],[-119.935207,39.165604]]]}}]}