{"type":"FeatureCollection","features":[{"type":"Feature","properties":{"zcta5":"38577","AFFGEOID10":"8600000US38577","GEOID10":"38577","ALAND10":195192274,"AWATER10":18583,"county_name":"Fentress","state_code":"TN","county_state":"Fentress County, TN","county_fips":"47049","risk_level_county":"Medium Risk (70–79% vaccinated)","mean_vaccination_rate_county":77.93,"risk_level_zcta":"Lower Risk (80–84% vaccinated)","mean_vaccination_rate_zips":84.71,"cases":8},"geometry":{"type":"MultiPolygon","coordinates":[[[[-84.793767,36.532153],[-84.7917,36.536024],[-84.790757,36.5392],[-84.787852,36.543785],[-84.786155,36.54498],[-84.783881,36.545796],[-84.782025,36.547609],[-84.781257,36.549523],[-84.779603,36.551106],[-84.778194,36.553451],[-84.772586,36.555669],[-84.776282,36.558439],[-84.77905,36.561667],[-84.776922,36.562752],[-84.778664,36.566224],[-84.779808,36.565466],[-84.782517,36.567846],[-84.78108,36.567664],[-84.779289,36.568323],[-84.777261,36.566954],[-84.777525,36.56941],[-84.775025,36.57059],[-84.775774,36.571123],[-84.774902,36.572375],[-84.775659,36.573],[-84.777755,36.572409],[-84.778292,36.573799],[-84.776889,36.57532],[-84.774948,36.574759],[-84.773531,36.575961],[-84.775362,36.577527],[-84.775218,36.578577],[-84.772017,36.579509],[-84.771641,36.581432],[-84.774604,36.58124],[-84.777982,36.582049],[-84.780822,36.580984],[-84.78277,36.581611],[-84.784671,36.579799],[-84.785747,36.580667],[-84.787286,36.580623],[-84.786762,36.579344],[-84.790031,36.579932],[-84.790985,36.577894],[-84.792394,36.57727],[-84.795265,36.580194],[-84.796869,36.579406],[-84.80131,36.579269],[-84.802413,36.578231],[-84.804027,36.578232],[-84.805505,36.579561],[-84.80635,36.579303],[-84.806411,36.577292],[-84.807964,36.575364],[-84.805839,36.574771],[-84.805962,36.573969],[-84.80759,36.57342],[-84.807542,36.572667],[-84.805118,36.572393],[-84.805036,36.570986],[-84.807393,36.569399],[-84.809688,36.569811],[-84.811124,36.571783],[-84.812003,36.569751],[-84.811315,36.568976],[-84.812943,36.566741],[-84.814972,36.567037],[-84.815789,36.565527],[-84.815544,36.564434],[-84.817355,36.562204],[-84.820719,36.560067],[-84.822067,36.56027],[-84.824021,36.559682],[-84.82524,36.558644],[-84.825608,36.559314],[-84.829142,36.559517],[-84.832008,36.558725],[-84.833132,36.557956],[-84.834793,36.558379],[-84.834786,36.557555],[-84.81804,36.550073],[-84.793767,36.532153]]],[[[-85.0705426837826,36.621255635184795],[-85.070699,36.620525],[-85.072854,36.619494],[-85.072706,36.61821],[-85.07383,36.616903],[-85.075398,36.616611],[-85.075827,36.615496],[-85.079997,36.612623],[-85.082055,36.612134],[-85.084692,36.609925],[-85.086708,36.607535],[-85.086346,36.605925],[-85.086885,36.604975],[-85.090393,36.602623],[-85.088913,36.600022],[-85.091714,36.598892],[-85.093789,36.599348],[-85.097415,36.598696],[-85.098475,36.597503],[-85.100123,36.598766],[-85.101509,36.598108],[-85.102123,36.596036],[-85.103312,36.596122],[-85.104989,36.597655],[-85.106001,36.594269],[-85.108798,36.592332],[-85.112611,36.592812],[-85.115552,36.591176],[-85.117,36.589854],[-85.117547,36.587624],[-85.118739,36.585865],[-85.118099,36.58362],[-85.115611,36.583946],[-85.112149,36.582817],[-85.11106,36.583078],[-85.10952,36.58588],[-85.105215,36.586779],[-85.101745,36.586963],[-85.100037,36.589208],[-85.097885,36.589455],[-85.095133,36.591017],[-85.091401,36.590523],[-85.088222,36.588609],[-85.084766,36.586131],[-85.083466,36.585629],[-85.084936,36.582718],[-85.087559,36.579914],[-85.091756,36.577295],[-85.092893,36.577349],[-85.095324,36.575154],[-85.09676,36.573165],[-85.098559,36.572545],[-85.09964,36.571047],[-85.098518,36.569872],[-85.092555,36.571049],[-85.087877,36.570578],[-85.079427,36.568906],[-85.080638,36.566089],[-85.080677,36.564862],[-85.076967,36.5637],[-85.075286,36.562669],[-85.074874,36.560918],[-85.073998,36.560141],[-85.071023,36.560145],[-85.067732,36.558583],[-85.072006,36.557362],[-85.073208,36.554799],[-85.071891,36.553719],[-85.062388,36.553338],[-85.058136,36.553983],[-85.056258,36.552878],[-85.056826,36.551658],[-85.059288,36.550217],[-85.063058,36.547314],[-85.059662,36.547956],[-85.058102,36.547018],[-85.055426,36.541816],[-85.052842,36.542725],[-85.052183,36.541851],[-85.048857,36.542292],[-85.047542,36.544783],[-85.047124,36.543915],[-85.047195,36.542301],[-85.04828,36.539138],[-85.044052,36.539535],[-85.040872,36.542059],[-85.03922,36.544586],[-85.039343,36.551761],[-85.037925,36.551761],[-85.036251,36.549895],[-85.035092,36.549628],[-85.034179,36.551186],[-85.03513,36.553468],[-85.034563,36.554384],[-85.032076,36.553845],[-85.032955,36.55303],[-85.033622,36.549632],[-85.033672,36.546713],[-85.034148,36.54588],[-85.028513,36.545338],[-85.027133,36.54559],[-85.022346,36.544301],[-85.020963,36.542554],[-85.019833,36.54224],[-85.016871,36.538266],[-85.016307,36.534792],[-85.011448,36.530352],[-85.011205,36.526688],[-85.009563,36.525222],[-85.007001,36.524361],[-85.007817,36.521405],[-85.00716,36.518707],[-85.007205,36.515757],[-85.006482,36.512877],[-85.007917,36.509798],[-85.005966,36.505487],[-85.005716,36.503136],[-85.006152,36.500365],[-85.005744,36.49972],[-85.00267,36.497832],[-84.999339,36.496786],[-84.995079,36.496797],[-84.992911,36.496024],[-84.989502,36.497667],[-84.986387,36.49728],[-84.983914,36.497481],[-84.98075,36.496944],[-84.978565,36.494331],[-84.975985,36.492582],[-84.971391,36.490369],[-84.969689,36.490819],[-84.967062,36.492368],[-84.965552,36.496836],[-84.966039,36.501094],[-84.966997,36.502026],[-84.9699,36.50291],[-84.970635,36.503746],[-84.97056,36.507272],[-84.969394,36.509786],[-84.967817,36.509896],[-84.965129,36.511796],[-84.963606,36.512143],[-84.961088,36.514093],[-84.95724,36.519051],[-84.956282,36.521423],[-84.953964,36.525779],[-84.95402,36.527848],[-84.955091,36.529695],[-84.955687,36.532198],[-84.955253,36.533199],[-84.952617,36.535067],[-84.951123,36.536585],[-84.947624,36.534369],[-84.943783,36.53332],[-84.940766,36.531199],[-84.937173,36.53037],[-84.933616,36.528249],[-84.931986,36.526429],[-84.927208,36.523518],[-84.926292,36.524398],[-84.923685,36.522997],[-84.924427,36.522024],[-84.920935,36.521252],[-84.920555,36.521862],[-84.915576,36.524352],[-84.914382,36.524684],[-84.907623,36.525187],[-84.897846,36.523747],[-84.89803,36.520504],[-84.897436,36.516609],[-84.891584,36.514011],[-84.886729,36.511928],[-84.880672,36.512123],[-84.879034,36.511081],[-84.877523,36.511235],[-84.875699,36.512854],[-84.87244,36.513598],[-84.86636,36.513091],[-84.862064,36.512986],[-84.859081,36.51427],[-84.857276,36.515663],[-84.854885,36.516107],[-84.85442,36.51673],[-84.852671,36.515488],[-84.851349,36.515587],[-84.850972,36.517424],[-84.85186,36.519428],[-84.851684,36.521179],[-84.84875,36.525225],[-84.849548,36.528152],[-84.851509,36.529476],[-84.851292,36.530789],[-84.852898,36.53109],[-84.854002,36.532183],[-84.856064,36.533089],[-84.859215,36.531884],[-84.861604,36.531373],[-84.863068,36.531762],[-84.865354,36.530871],[-84.868928,36.530837],[-84.872637,36.529956],[-84.873747,36.530615],[-84.875976,36.529892],[-84.873257,36.531796],[-84.87413,36.533053],[-84.873315,36.535641],[-84.871215,36.539894],[-84.871026,36.542245],[-84.866813,36.544581],[-84.863983,36.546445],[-84.862493,36.54833],[-84.85896,36.549512],[-84.858225,36.550831],[-84.860454,36.554472],[-84.858289,36.554901],[-84.85799,36.556],[-84.858549,36.557356],[-84.857488,36.558818],[-84.859027,36.559669],[-84.859152,36.563761],[-84.860195,36.565744],[-84.860632,36.569107],[-84.862343,36.569871],[-84.874944,36.573269],[-84.879244,36.57397],[-84.886145,36.575669],[-84.893045,36.57667],[-84.899845,36.57827],[-84.904445,36.57907],[-84.909345,36.57967],[-84.927345,36.581068],[-84.933943,36.581269],[-84.931185,36.582578],[-84.92688,36.585055],[-84.926621,36.585664],[-84.928174,36.588131],[-84.928507,36.59113],[-84.925612,36.593267],[-84.925467,36.598035],[-84.926706,36.599387],[-84.928933,36.604259],[-84.927481,36.609231],[-84.9258538417021,36.6112638828227],[-84.943948,36.612569],[-84.9748750576222,36.6155518237457],[-84.986448,36.616668],[-84.9934293628522,36.6171591585065],[-85.024627,36.619354],[-85.0705426837826,36.621255635184795]]]]}},{"type":"Feature","properties":{"zcta5":"38504","AFFGEOID10":"8600000US38504","GEOID10":"38504","ALAND10":123257702,"AWATER10":0,"county_name":"Fentress","state_code":"TN","county_state":"Fentress County, TN","county_fips":"47049","risk_level_county":"Medium Risk (70–79% vaccinated)","mean_vaccination_rate_county":77.93,"risk_level_zcta":"Medium Risk (70–79% vaccinated)","mean_vaccination_rate_zips":78.64,"cases":8},"geometry":{"type":"MultiPolygon","coordinates":[[[[-84.692648,36.435777],[-84.696193,36.43694],[-84.697367,36.438984],[-84.6995,36.440387],[-84.704532,36.439156],[-84.707536,36.441273],[-84.713449,36.444582],[-84.71438,36.444627],[-84.719364,36.4431],[-84.720856,36.44304],[-84.722337,36.441059],[-84.724195,36.439987],[-84.724339,36.437786],[-84.725701,36.435809],[-84.728203,36.435064],[-84.730217,36.433156],[-84.733003,36.431721],[-84.734213,36.430594],[-84.736397,36.427557],[-84.738004,36.427396],[-84.739638,36.428863],[-84.741867,36.428552],[-84.741207,36.426236],[-84.742489,36.424913],[-84.742524,36.423882],[-84.745811,36.422978],[-84.748118,36.421959],[-84.749955,36.419762],[-84.752103,36.418224],[-84.747846,36.41529],[-84.74722,36.414079],[-84.747201,36.410558],[-84.752676,36.407973],[-84.753425,36.410543],[-84.754197,36.412448],[-84.757857,36.415626],[-84.75971,36.41923],[-84.762403,36.417375],[-84.764762,36.416134],[-84.768411,36.416224],[-84.769567,36.415658],[-84.769922,36.413912],[-84.769325,36.411868],[-84.770352,36.410001],[-84.769504,36.40771],[-84.772202,36.406733],[-84.77236,36.40431],[-84.770689,36.403343],[-84.770234,36.402074],[-84.77533,36.403246],[-84.777653,36.404609],[-84.779047,36.403834],[-84.779698,36.40545],[-84.782586,36.40617],[-84.783626,36.405181],[-84.783185,36.40416],[-84.772428,36.401918],[-84.771469,36.400982],[-84.768612,36.401522],[-84.768706,36.404606],[-84.760302,36.404083],[-84.760144,36.403363],[-84.76078,36.396559],[-84.762722,36.395736],[-84.765442,36.393768],[-84.769142,36.394208],[-84.771923,36.393481],[-84.773472,36.391632],[-84.777586,36.390801],[-84.779173,36.391334],[-84.78004,36.390791],[-84.780132,36.388307],[-84.7821,36.386822],[-84.783219,36.384005],[-84.786367,36.381159],[-84.790911,36.380721],[-84.79214,36.380013],[-84.79453,36.381611],[-84.794116,36.384376],[-84.791747,36.387641],[-84.791392,36.389007],[-84.792046,36.390534],[-84.791061,36.390953],[-84.79122,36.392704],[-84.794292,36.393291],[-84.797607,36.395571],[-84.798993,36.395774],[-84.799523,36.393626],[-84.800597,36.392605],[-84.80468,36.39328],[-84.805869,36.396088],[-84.808261,36.39784],[-84.810455,36.39539],[-84.8121,36.397401],[-84.816679,36.396313],[-84.82414,36.396059],[-84.827116,36.396905],[-84.8284,36.39674],[-84.829427,36.397789],[-84.826898,36.400055],[-84.832651,36.399019],[-84.834627,36.400254],[-84.835396,36.398485],[-84.835543,36.396474],[-84.840096,36.389907],[-84.841381,36.387693],[-84.844315,36.386937],[-84.847325,36.384881],[-84.848664,36.383105],[-84.849271,36.37818],[-84.818518,36.375709],[-84.816972,36.371991],[-84.813497,36.371177],[-84.811123,36.369614],[-84.808304,36.369517],[-84.807447,36.368752],[-84.806912,36.368179],[-84.807123,36.365389],[-84.810587,36.363812],[-84.810565,36.362538],[-84.808876,36.360166],[-84.805554,36.357982],[-84.803083,36.357109],[-84.800741,36.354839],[-84.798867,36.352131],[-84.797232,36.351948],[-84.797576,36.350379],[-84.794293,36.349871],[-84.791896,36.348036],[-84.791551,36.346454],[-84.789692,36.342927],[-84.789678,36.342174],[-84.78697,36.340053],[-84.787826,36.337548],[-84.786835,36.337279],[-84.787205,36.334438],[-84.791425,36.325734],[-84.78993,36.324287],[-84.786617,36.324877],[-84.785455,36.326015],[-84.781382,36.326188],[-84.778516,36.326725],[-84.776827,36.327838],[-84.775015,36.330123],[-84.774787,36.33365],[-84.773723,36.334812],[-84.772708,36.334913],[-84.768515,36.333533],[-84.766125,36.332033],[-84.762027,36.32848],[-84.760662,36.327815],[-84.759448,36.328276],[-84.75894,36.331319],[-84.758217,36.33258],[-84.755182,36.334702],[-84.75409,36.334682],[-84.751577,36.332413],[-84.750018,36.332156],[-84.746321,36.33505],[-84.741296,36.336013],[-84.739936,36.33664],[-84.739671,36.337932],[-84.74061,36.340882],[-84.742912,36.342959],[-84.743602,36.34572],[-84.743484,36.348702],[-84.745486,36.351083],[-84.743545,36.353556],[-84.742434,36.353989],[-84.73949,36.353437],[-84.73661,36.35169],[-84.733217,36.350462],[-84.731598,36.350655],[-84.728488,36.351436],[-84.726904,36.352837],[-84.726938,36.353983],[-84.729554,36.355076],[-84.731572,36.356668],[-84.73268,36.358745],[-84.732491,36.366261],[-84.731591,36.36811],[-84.729123,36.369273],[-84.725385,36.369147],[-84.723422,36.369779],[-84.723262,36.371625],[-84.72466,36.373797],[-84.724775,36.376233],[-84.722725,36.376605],[-84.718704,36.374688],[-84.715377,36.371595],[-84.71331,36.370292],[-84.709491,36.36849],[-84.706354,36.367997],[-84.705194,36.368352],[-84.702982,36.370294],[-84.700785,36.370824],[-84.69795,36.371235],[-84.695089,36.372073],[-84.691895,36.373473],[-84.689715,36.374981],[-84.689251,36.37567],[-84.689451,36.379341],[-84.690373,36.38068],[-84.690546,36.382445],[-84.689684,36.384596],[-84.687589,36.386088],[-84.685812,36.388086],[-84.683539,36.388885],[-84.676905,36.389877],[-84.669473,36.39242],[-84.665808,36.393363],[-84.661203,36.395034],[-84.659082,36.395227],[-84.657446,36.395682],[-84.654459,36.397579],[-84.652688,36.398177],[-84.650927,36.398069],[-84.649893,36.397291],[-84.650261,36.396139],[-84.649449,36.394092],[-84.649811,36.392064],[-84.651337,36.39032],[-84.652183,36.388541],[-84.65193,36.387163],[-84.649819,36.385406],[-84.647771,36.384346],[-84.644466,36.38336],[-84.640805,36.383043],[-84.635999,36.383095],[-84.632581,36.382707],[-84.630701,36.383065],[-84.62867,36.384467],[-84.628114,36.386153],[-84.629324,36.387598],[-84.632716,36.389629],[-84.636899,36.389738],[-84.638091,36.391762],[-84.636522,36.395101],[-84.631966,36.397327],[-84.630365,36.398546],[-84.628644,36.400674],[-84.626623,36.40185],[-84.621403,36.404143],[-84.6206,36.405185],[-84.622713,36.4075],[-84.622827,36.409631],[-84.620223,36.41066],[-84.619648,36.41169],[-84.620551,36.412547],[-84.625798,36.41361],[-84.627437,36.415565],[-84.626507,36.417902],[-84.623902,36.421637],[-84.623699,36.423905],[-84.624955,36.425983],[-84.628974,36.429557],[-84.632221,36.431437],[-84.635585,36.431714],[-84.638719,36.431512],[-84.641316,36.43042],[-84.644062,36.430333],[-84.645999,36.431696],[-84.646514,36.434355],[-84.646009,36.436535],[-84.644239,36.441538],[-84.641334,36.445168],[-84.638899,36.44626],[-84.63777,36.447331],[-84.634621,36.448708],[-84.632914,36.449932],[-84.631124,36.452271],[-84.632102,36.454117],[-84.635242,36.454503],[-84.637609,36.453724],[-84.641417,36.453418],[-84.644273,36.452431],[-84.645817,36.451404],[-84.647952,36.451267],[-84.650018,36.452125],[-84.652301,36.454795],[-84.65517,36.455779],[-84.657876,36.456198],[-84.660616,36.456171],[-84.665604,36.458497],[-84.667516,36.457294],[-84.670374,36.456896],[-84.673192,36.454458],[-84.676866,36.455831],[-84.679068,36.455702],[-84.681252,36.453547],[-84.682737,36.449404],[-84.684262,36.447822],[-84.685891,36.447294],[-84.690629,36.447659],[-84.691972,36.446147],[-84.692191,36.445166],[-84.691164,36.442244],[-84.6914,36.439959],[-84.690719,36.438743],[-84.692534,36.435468],[-84.692648,36.435777]]],[[[-84.876266,36.36811],[-84.876416,36.367813],[-84.874136,36.366135],[-84.872241,36.365292],[-84.871512,36.367535],[-84.876266,36.36811]]],[[[-84.884401,36.383529],[-84.884864,36.379472],[-84.881723,36.379274],[-84.879929,36.379167],[-84.879547,36.380432],[-84.877973,36.380343],[-84.877894,36.381565],[-84.880838,36.383127],[-84.884401,36.383529]]]]}},{"type":"Feature","properties":{"zcta5":"38574","AFFGEOID10":"8600000US38574","GEOID10":"38574","ALAND10":446941810,"AWATER10":1756731,"county_name":"Fentress","state_code":"TN","county_state":"Fentress County, TN","county_fips":"47049","risk_level_county":"Medium Risk (70–79% vaccinated)","mean_vaccination_rate_county":77.93,"risk_level_zcta":"Medium Risk (70–79% vaccinated)","mean_vaccination_rate_zips":75.42,"cases":8},"geometry":{"type":"MultiPolygon","coordinates":[[[[-85.142836,36.221054],[-85.142364,36.219453],[-85.140063,36.218328],[-85.13915,36.216657],[-85.133134,36.214186],[-85.130845,36.216426],[-85.133632,36.221629],[-85.137939,36.222994],[-85.139895,36.225892],[-85.142836,36.221054]]],[[[-85.302666,36.239036],[-85.303989,36.2374],[-85.302898,36.230022],[-85.317371,36.197944],[-85.322888,36.19968],[-85.324596,36.198257],[-85.326255,36.197596],[-85.327836,36.195738],[-85.329261,36.195674],[-85.331228,36.193915],[-85.331405,36.190395],[-85.338087,36.187048],[-85.339057,36.185054],[-85.341505,36.183374],[-85.345569,36.18284],[-85.348328,36.183661],[-85.349104,36.182323],[-85.348335,36.179809],[-85.344768,36.176678],[-85.343,36.176519],[-85.341607,36.174386],[-85.340035,36.173195],[-85.337665,36.173619],[-85.337061,36.174342],[-85.332774,36.174147],[-85.331426,36.173119],[-85.334364,36.171963],[-85.335093,36.170411],[-85.336883,36.169984],[-85.337745,36.167951],[-85.340264,36.164689],[-85.34285,36.163619],[-85.345369,36.163352],[-85.351866,36.158057],[-85.351999,36.156666],[-85.353656,36.155115],[-85.35896,36.153564],[-85.361099,36.154948],[-85.362752,36.154984],[-85.365054,36.153688],[-85.369663,36.152629],[-85.370905,36.152766],[-85.372308,36.151557],[-85.373542,36.151588],[-85.375503,36.151934],[-85.377158,36.15296],[-85.380173,36.15712],[-85.382116,36.159143],[-85.382475,36.158473],[-85.381349,36.15674],[-85.380199,36.153172],[-85.378201,36.15083],[-85.376906,36.150173],[-85.370963,36.1491],[-85.368263,36.150328],[-85.365746,36.148712],[-85.364176,36.146867],[-85.360942,36.145724],[-85.361417,36.144807],[-85.361753,36.141569],[-85.366239,36.141447],[-85.36404,36.137793],[-85.358624,36.131836],[-85.355751,36.130096],[-85.354001,36.129563],[-85.35575,36.126329],[-85.356727,36.125715],[-85.359131,36.125616],[-85.363223,36.122594],[-85.362816,36.118935],[-85.36451,36.115395],[-85.35835,36.117272],[-85.356751,36.116785],[-85.355136,36.117067],[-85.352357,36.118382],[-85.351252,36.120029],[-85.347644,36.122997],[-85.350501,36.12027],[-85.351118,36.118597],[-85.354188,36.117213],[-85.355561,36.116063],[-85.359754,36.116199],[-85.362852,36.11441],[-85.363968,36.113147],[-85.363863,36.111285],[-85.362546,36.109077],[-85.362324,36.105759],[-85.360997,36.103424],[-85.362823,36.099499],[-85.363958,36.098228],[-85.364947,36.095428],[-85.363168,36.091526],[-85.36096,36.089694],[-85.353624,36.089581],[-85.349916,36.089042],[-85.353677,36.089393],[-85.36064,36.089299],[-85.362005,36.086301],[-85.372232,36.085141],[-85.375602,36.082515],[-85.373674,36.080117],[-85.370554,36.079605],[-85.367352,36.078576],[-85.364636,36.075262],[-85.36547,36.073208],[-85.36304,36.070588],[-85.361499,36.069928],[-85.361345,36.067806],[-85.359977,36.066164],[-85.361658,36.064293],[-85.364012,36.063931],[-85.365688,36.062585],[-85.366805,36.060075],[-85.36603,36.058341],[-85.366405,36.056902],[-85.364703,36.05517],[-85.364639,36.052088],[-85.363813,36.049304],[-85.361994,36.048555],[-85.362195,36.047235],[-85.356619,36.045893],[-85.326278,36.030227],[-85.32537,36.033052],[-85.309363,36.031592],[-85.310638,36.022563],[-85.311675,36.022307],[-85.308687,36.022116],[-85.304489,36.024992],[-85.303446,36.025262],[-85.302062,36.026879],[-85.300546,36.027135],[-85.299453,36.028157],[-85.295042,36.02957],[-85.292873,36.031101],[-85.292202,36.032872],[-85.291022,36.033756],[-85.290791,36.035479],[-85.289076,36.03745],[-85.285475,36.037139],[-85.282202,36.038301],[-85.281365,36.039036],[-85.278141,36.038575],[-85.276522,36.036948],[-85.273786,36.036686],[-85.272207,36.034563],[-85.269643,36.034154],[-85.26734,36.032241],[-85.267524,36.031416],[-85.266203,36.02818],[-85.26241,36.026463],[-85.258581,36.024366],[-85.256697,36.024662],[-85.254854,36.023564],[-85.252494,36.022733],[-85.249003,36.022161],[-85.24501,36.019289],[-85.242007,36.018186],[-85.240769,36.018291],[-85.237544,36.020539],[-85.235247,36.020869],[-85.216685,36.035905],[-85.201799,36.044831],[-85.199092,36.045096],[-85.205399,36.047121],[-85.203724,36.049119],[-85.201506,36.049162],[-85.196794,36.052524],[-85.196314,36.053352],[-85.195806,36.060421],[-85.19246,36.062056],[-85.192563,36.065179],[-85.19131,36.066214],[-85.192264,36.067362],[-85.194457,36.067049],[-85.195533,36.067862],[-85.1965,36.069983],[-85.197245,36.069868],[-85.196839,36.071719],[-85.198897,36.07256],[-85.194416,36.075538],[-85.193333,36.075302],[-85.191892,36.076868],[-85.189496,36.077901],[-85.187445,36.076939],[-85.186795,36.077483],[-85.189597,36.081505],[-85.187221,36.082977],[-85.186416,36.084291],[-85.184356,36.084313],[-85.182788,36.081684],[-85.182384,36.080117],[-85.178953,36.078184],[-85.178329,36.077435],[-85.179034,36.075831],[-85.17927,36.073587],[-85.181356,36.070181],[-85.182666,36.068989],[-85.178784,36.068641],[-85.17292,36.070237],[-85.166483,36.067425],[-85.165315,36.069047],[-85.165423,36.070805],[-85.16036,36.073321],[-85.158708,36.073595],[-85.158707,36.075787],[-85.156731,36.07705],[-85.156162,36.078242],[-85.158124,36.079188],[-85.157216,36.081561],[-85.158413,36.083578],[-85.156863,36.084825],[-85.153038,36.084554],[-85.151135,36.086554],[-85.151534,36.088274],[-85.14961,36.090053],[-85.148303,36.092069],[-85.146739,36.092063],[-85.144818,36.09031],[-85.140689,36.089731],[-85.141197,36.088319],[-85.139107,36.085791],[-85.136297,36.087048],[-85.133501,36.087365],[-85.133232,36.085113],[-85.131217,36.084728],[-85.132211,36.085469],[-85.132021,36.09009],[-85.134217,36.09241],[-85.136865,36.094099],[-85.1344,36.096239],[-85.135869,36.097414],[-85.133817,36.101118],[-85.131901,36.100985],[-85.132766,36.104271],[-85.131567,36.10524],[-85.131903,36.106752],[-85.131279,36.109134],[-85.132447,36.111438],[-85.130888,36.112223],[-85.129731,36.120478],[-85.130581,36.121441],[-85.129169,36.123449],[-85.129741,36.125387],[-85.129028,36.126573],[-85.128814,36.129655],[-85.127619,36.128757],[-85.121735,36.130227],[-85.119615,36.130079],[-85.117768,36.131336],[-85.114657,36.13126],[-85.112561,36.132663],[-85.110835,36.133081],[-85.107319,36.132899],[-85.105438,36.134883],[-85.102781,36.13606],[-85.103066,36.133861],[-85.101751,36.13052],[-85.103242,36.124443],[-85.102915,36.122307],[-85.105859,36.119857],[-85.109209,36.118377],[-85.106315,36.118],[-85.10476,36.117268],[-85.104261,36.115812],[-85.101733,36.11571],[-85.098984,36.118951],[-85.095774,36.12078],[-85.094297,36.120615],[-85.090844,36.12222],[-85.090039,36.123847],[-85.087085,36.127157],[-85.087329,36.128366],[-85.091041,36.130222],[-85.087797,36.131058],[-85.087479,36.133377],[-85.084249,36.132921],[-85.083063,36.132169],[-85.081654,36.132789],[-85.080748,36.135416],[-85.083227,36.136548],[-85.081568,36.138224],[-85.077267,36.138625],[-85.076664,36.14057],[-85.075289,36.140994],[-85.073257,36.140005],[-85.069532,36.139884],[-85.068306,36.141934],[-85.065834,36.143884],[-85.066931,36.145379],[-85.066979,36.147043],[-85.065488,36.148164],[-85.065251,36.149334],[-85.063395,36.150609],[-85.060841,36.15001],[-85.056776,36.153444],[-85.055151,36.151175],[-85.052292,36.15307],[-85.050984,36.152531],[-85.050612,36.15024],[-85.049034,36.149367],[-85.048098,36.152592],[-85.044413,36.153217],[-85.043891,36.155157],[-85.042169,36.157024],[-85.041538,36.160282],[-85.039153,36.163263],[-85.043613,36.165308],[-85.053229,36.172022],[-85.056604,36.172274],[-85.05375,36.175229],[-85.055506,36.175342],[-85.056323,36.177085],[-85.058312,36.17687],[-85.066403,36.17659],[-85.066132,36.178656],[-85.066939,36.182562],[-85.066648,36.185705],[-85.068823,36.183392],[-85.071297,36.18332],[-85.072923,36.181523],[-85.072177,36.179848],[-85.073675,36.179232],[-85.076562,36.180177],[-85.07625,36.17849],[-85.077422,36.177353],[-85.079035,36.177325],[-85.081542,36.176512],[-85.082945,36.175407],[-85.085615,36.174841],[-85.087085,36.173379],[-85.092227,36.171417],[-85.092857,36.169378],[-85.095058,36.168268],[-85.095288,36.166938],[-85.094102,36.16523],[-85.092516,36.164104],[-85.094609,36.161933],[-85.092285,36.161368],[-85.095028,36.159543],[-85.094485,36.158054],[-85.093401,36.157566],[-85.093618,36.156522],[-85.094674,36.155752],[-85.095263,36.153945],[-85.096855,36.154763],[-85.100614,36.15263],[-85.104218,36.15198],[-85.105443,36.149486],[-85.1049,36.148233],[-85.105184,36.146134],[-85.107419,36.145826],[-85.108989,36.143968],[-85.108156,36.143155],[-85.10954,36.141462],[-85.118777,36.144376],[-85.119583,36.144719],[-85.105854,36.163742],[-85.082497,36.196171],[-85.090594,36.216709],[-85.100385,36.241535],[-85.103309,36.23895],[-85.10329,36.236955],[-85.104588,36.235702],[-85.105716,36.231078],[-85.109029,36.229159],[-85.11088,36.229067],[-85.112286,36.228209],[-85.113306,36.225964],[-85.116105,36.225124],[-85.118031,36.22839],[-85.119808,36.229341],[-85.123495,36.228262],[-85.123258,36.226362],[-85.121813,36.224438],[-85.123449,36.220599],[-85.125821,36.219805],[-85.126107,36.218452],[-85.125326,36.216392],[-85.127194,36.213171],[-85.129407,36.2125],[-85.13283,36.21222],[-85.138441,36.210464],[-85.141371,36.210186],[-85.141898,36.209422],[-85.141452,36.205024],[-85.142652,36.202423],[-85.14709,36.198822],[-85.147325,36.193991],[-85.148339,36.193261],[-85.150552,36.19343],[-85.153543,36.193055],[-85.155385,36.192283],[-85.15495,36.19098],[-85.153404,36.190086],[-85.153151,36.188592],[-85.154674,36.187308],[-85.156197,36.187813],[-85.157216,36.189755],[-85.159487,36.190148],[-85.160995,36.187801],[-85.160761,36.185377],[-85.162545,36.184409],[-85.164189,36.184322],[-85.163672,36.184903],[-85.164606,36.186386],[-85.171772,36.189553],[-85.173902,36.191095],[-85.170919,36.190932],[-85.168902,36.190027],[-85.166244,36.188979],[-85.16416,36.187421],[-85.162073,36.190062],[-85.162437,36.191128],[-85.161802,36.192621],[-85.178291,36.202609],[-85.177903,36.205646],[-85.179139,36.208725],[-85.178713,36.210514],[-85.177148,36.211062],[-85.181453,36.2134],[-85.182335,36.213282],[-85.18431,36.214484],[-85.186813,36.215329],[-85.18906,36.214217],[-85.19468,36.215516],[-85.192935,36.213977],[-85.193732,36.21368],[-85.196146,36.215295],[-85.197392,36.217846],[-85.197666,36.21544],[-85.197139,36.212791],[-85.194104,36.2101],[-85.192956,36.207927],[-85.196834,36.211223],[-85.199119,36.211685],[-85.200319,36.213228],[-85.203187,36.213816],[-85.204747,36.214667],[-85.207723,36.214618],[-85.208476,36.215612],[-85.207839,36.218898],[-85.208294,36.220397],[-85.211516,36.223353],[-85.212683,36.22688],[-85.214121,36.22822],[-85.218061,36.229554],[-85.220062,36.231081],[-85.221291,36.233718],[-85.221047,36.23507],[-85.217081,36.237917],[-85.215358,36.239884],[-85.212999,36.241885],[-85.212287,36.245341],[-85.20946,36.248182],[-85.207997,36.250763],[-85.208671,36.256374],[-85.207886,36.25802],[-85.214398,36.258182],[-85.217965,36.258008],[-85.227156,36.258254],[-85.23086,36.259629],[-85.233357,36.261906],[-85.23449,36.264294],[-85.235467,36.264765],[-85.237938,36.264037],[-85.241686,36.263601],[-85.244375,36.264004],[-85.246537,36.262456],[-85.247899,36.25928],[-85.249852,36.257197],[-85.250726,36.254202],[-85.250567,36.250318],[-85.2497,36.249412],[-85.250031,36.246571],[-85.253041,36.240941],[-85.25548,36.243027],[-85.258487,36.244202],[-85.259961,36.24607],[-85.260902,36.246445],[-85.26288,36.244167],[-85.26268,36.243277],[-85.265163,36.240307],[-85.269105,36.239012],[-85.270417,36.237162],[-85.273,36.236199],[-85.276494,36.234258],[-85.277748,36.233965],[-85.28072,36.234217],[-85.283124,36.235175],[-85.288611,36.234954],[-85.291001,36.234536],[-85.2936,36.235065],[-85.297146,36.234952],[-85.300318,36.233974],[-85.302073,36.234431],[-85.301907,36.237098],[-85.302666,36.239036]]]]}},{"type":"Feature","properties":{"zcta5":"38556","AFFGEOID10":"8600000US38556","GEOID10":"38556","ALAND10":825018314,"AWATER10":962231,"county_name":"Fentress","state_code":"TN","county_state":"Fentress County, TN","county_fips":"47049","risk_level_county":"Medium Risk (70–79% vaccinated)","mean_vaccination_rate_county":77.93,"risk_level_zcta":"Medium Risk (70–79% vaccinated)","mean_vaccination_rate_zips":77.48,"cases":8},"geometry":{"type":"Polygon","coordinates":[[[-85.121519,36.33999],[-85.121757,36.328401],[-85.119657,36.326188],[-85.118657,36.324256],[-85.115816,36.322345],[-85.11513,36.32059],[-85.109843,36.321573],[-85.108869,36.32068],[-85.104439,36.321724],[-85.100944,36.321222],[-85.100834,36.32028],[-85.09739,36.319866],[-85.096067,36.318808],[-85.096348,36.317267],[-85.094474,36.316138],[-85.09287,36.31609],[-85.090333,36.31719],[-85.08755,36.316887],[-85.0875,36.316109],[-85.084795,36.313674],[-85.083141,36.313055],[-85.080273,36.313412],[-85.07783,36.31262],[-85.076117,36.312942],[-85.070611,36.311145],[-85.068506,36.312176],[-85.066097,36.311398],[-85.065353,36.309011],[-85.063148,36.308267],[-85.060643,36.309593],[-85.059134,36.309661],[-85.05621,36.311008],[-85.053454,36.313495],[-85.053076,36.314685],[-85.051229,36.3161],[-85.050684,36.31776],[-85.048859,36.319771],[-85.049349,36.321579],[-85.046059,36.32491],[-85.043568,36.325111],[-85.043652,36.326521],[-85.041146,36.329314],[-85.032402,36.335411],[-85.029991,36.336496],[-85.027715,36.339038],[-85.025511,36.339711],[-85.02406,36.33705],[-85.025409,36.333985],[-85.023791,36.330687],[-85.023868,36.327338],[-85.025654,36.325864],[-85.024801,36.323244],[-85.023454,36.32178],[-85.021984,36.321308],[-85.019739,36.31907],[-85.018574,36.317117],[-85.014307,36.317533],[-85.012512,36.317105],[-85.012188,36.315604],[-85.010057,36.313295],[-85.011186,36.311009],[-85.012744,36.309396],[-85.013536,36.307088],[-85.012904,36.305031],[-85.011431,36.304403],[-85.011568,36.301215],[-85.012926,36.297357],[-85.013197,36.295274],[-85.01151,36.294126],[-85.011682,36.292311],[-85.009664,36.29092],[-85.008681,36.289096],[-85.00707,36.287781],[-85.006855,36.283662],[-85.003427,36.283232],[-85.000798,36.281771],[-84.998155,36.2828],[-84.996764,36.28223],[-84.995764,36.279577],[-84.992949,36.280776],[-84.992955,36.279485],[-84.991055,36.278079],[-84.9934,36.274474],[-84.992157,36.272799],[-84.992679,36.2722],[-84.991443,36.270303],[-84.992598,36.268805],[-84.986016,36.267326],[-84.984897,36.266502],[-84.983858,36.267203],[-84.981345,36.266073],[-84.977704,36.26662],[-84.973702,36.268999],[-84.972769,36.270673],[-84.974076,36.271381],[-84.981889,36.271802],[-84.981774,36.278698],[-84.974812,36.276639],[-84.971737,36.277478],[-84.970906,36.276321],[-84.968013,36.277632],[-84.967314,36.277346],[-84.967727,36.275247],[-84.965365,36.274287],[-84.965019,36.27282],[-84.966091,36.272863],[-84.966911,36.271534],[-84.965717,36.270496],[-84.968743,36.270248],[-84.968105,36.269017],[-84.96885,36.267688],[-84.9675,36.267012],[-84.969285,36.265696],[-84.965936,36.263868],[-84.963873,36.261271],[-84.961019,36.258978],[-84.959844,36.258557],[-84.956073,36.258249],[-84.956137,36.256954],[-84.952989,36.256333],[-84.951868,36.249044],[-84.943668,36.247179],[-84.945393,36.245562],[-84.948395,36.244417],[-84.954027,36.242774],[-84.954854,36.245237],[-84.956966,36.246591],[-84.959587,36.243384],[-84.960427,36.241842],[-84.960615,36.239856],[-84.95967,36.237415],[-84.956599,36.234807],[-84.955475,36.232955],[-84.954147,36.232227],[-84.952413,36.232773],[-84.946914,36.233335],[-84.939885,36.236339],[-84.938164,36.2359],[-84.938115,36.234299],[-84.939175,36.232425],[-84.938082,36.230103],[-84.934678,36.22807],[-84.929035,36.226854],[-84.927604,36.224325],[-84.926,36.222993],[-84.918635,36.221318],[-84.918271,36.222338],[-84.916325,36.221898],[-84.914359,36.222129],[-84.913959,36.223222],[-84.916725,36.223832],[-84.916541,36.225348],[-84.915585,36.226414],[-84.913815,36.227084],[-84.912025,36.226122],[-84.911679,36.226897],[-84.912533,36.228737],[-84.909793,36.228594],[-84.908762,36.229698],[-84.910294,36.231236],[-84.912545,36.231061],[-84.914057,36.231523],[-84.914843,36.232869],[-84.912679,36.23544],[-84.914022,36.236753],[-84.914435,36.238363],[-84.913349,36.238577],[-84.912977,36.236934],[-84.910753,36.236032],[-84.909152,36.237466],[-84.909545,36.238526],[-84.912685,36.239307],[-84.911104,36.241235],[-84.91189,36.243136],[-84.910079,36.243817],[-84.908343,36.243064],[-84.90873,36.240998],[-84.905603,36.243134],[-84.904449,36.245106],[-84.905221,36.247293],[-84.904237,36.248847],[-84.902677,36.248572],[-84.901124,36.249429],[-84.901541,36.251075],[-84.904423,36.253416],[-84.906268,36.253823],[-84.909022,36.251818],[-84.91012,36.253434],[-84.910303,36.255214],[-84.907508,36.256839],[-84.90615,36.259058],[-84.904243,36.260838],[-84.904954,36.262964],[-84.904587,36.264678],[-84.903895,36.26532],[-84.900584,36.266407],[-84.89901,36.267423],[-84.896242,36.267626],[-84.895388,36.266246],[-84.894058,36.266229],[-84.891323,36.268937],[-84.890323,36.27348],[-84.889121,36.274375],[-84.884285,36.272867],[-84.882548,36.273509],[-84.88387,36.275032],[-84.883693,36.276004],[-84.881168,36.27664],[-84.877659,36.27838],[-84.878553,36.280204],[-84.877629,36.282253],[-84.876142,36.283483],[-84.875211,36.285597],[-84.872058,36.286217],[-84.87081,36.287124],[-84.871483,36.288382],[-84.870967,36.289234],[-84.86881,36.290394],[-84.866545,36.292675],[-84.863037,36.293335],[-84.858543,36.291792],[-84.855634,36.293712],[-84.850549,36.291409],[-84.847082,36.290131],[-84.84312,36.287009],[-84.840443,36.287644],[-84.838617,36.288644],[-84.83692,36.29139],[-84.834071,36.291718],[-84.832367,36.292371],[-84.830797,36.295042],[-84.826648,36.29696],[-84.82455,36.298598],[-84.822747,36.299384],[-84.821411,36.299409],[-84.818365,36.298335],[-84.816738,36.29702],[-84.814964,36.293375],[-84.812271,36.29376],[-84.80973,36.294626],[-84.805614,36.296863],[-84.802109,36.297497],[-84.799943,36.296816],[-84.797861,36.296894],[-84.795257,36.298007],[-84.792251,36.30095],[-84.791792,36.303325],[-84.795283,36.307874],[-84.794716,36.309544],[-84.792701,36.310836],[-84.791486,36.312307],[-84.789647,36.317144],[-84.788857,36.317798],[-84.784815,36.317902],[-84.781945,36.319134],[-84.78593,36.323233],[-84.786617,36.324877],[-84.78993,36.324287],[-84.791425,36.325734],[-84.787205,36.334438],[-84.786835,36.337279],[-84.787826,36.337548],[-84.78697,36.340053],[-84.789678,36.342174],[-84.789692,36.342927],[-84.791551,36.346454],[-84.791896,36.348036],[-84.794293,36.349871],[-84.797576,36.350379],[-84.797232,36.351948],[-84.798867,36.352131],[-84.800741,36.354839],[-84.803083,36.357109],[-84.805554,36.357982],[-84.808876,36.360166],[-84.810565,36.362538],[-84.810587,36.363812],[-84.807123,36.365389],[-84.806912,36.368179],[-84.807447,36.368752],[-84.808304,36.369517],[-84.811123,36.369614],[-84.813497,36.371177],[-84.816972,36.371991],[-84.818518,36.375709],[-84.849271,36.37818],[-84.848664,36.383105],[-84.847325,36.384881],[-84.844315,36.386937],[-84.841381,36.387693],[-84.840096,36.389907],[-84.835543,36.396474],[-84.835396,36.398485],[-84.834627,36.400254],[-84.832651,36.399019],[-84.826898,36.400055],[-84.829427,36.397789],[-84.8284,36.39674],[-84.827116,36.396905],[-84.82414,36.396059],[-84.816679,36.396313],[-84.8121,36.397401],[-84.810455,36.39539],[-84.808261,36.39784],[-84.805869,36.396088],[-84.80468,36.39328],[-84.800597,36.392605],[-84.799523,36.393626],[-84.798993,36.395774],[-84.797607,36.395571],[-84.794292,36.393291],[-84.79122,36.392704],[-84.791061,36.390953],[-84.792046,36.390534],[-84.791392,36.389007],[-84.791747,36.387641],[-84.794116,36.384376],[-84.79453,36.381611],[-84.79214,36.380013],[-84.790911,36.380721],[-84.786367,36.381159],[-84.783219,36.384005],[-84.7821,36.386822],[-84.780132,36.388307],[-84.78004,36.390791],[-84.779173,36.391334],[-84.777586,36.390801],[-84.773472,36.391632],[-84.771923,36.393481],[-84.769142,36.394208],[-84.765442,36.393768],[-84.762722,36.395736],[-84.76078,36.396559],[-84.760144,36.403363],[-84.760302,36.404083],[-84.768706,36.404606],[-84.768612,36.401522],[-84.771469,36.400982],[-84.772428,36.401918],[-84.783185,36.40416],[-84.783626,36.405181],[-84.782586,36.40617],[-84.779698,36.40545],[-84.779047,36.403834],[-84.777653,36.404609],[-84.77533,36.403246],[-84.770234,36.402074],[-84.770689,36.403343],[-84.77236,36.40431],[-84.772202,36.406733],[-84.769504,36.40771],[-84.770352,36.410001],[-84.769325,36.411868],[-84.769922,36.413912],[-84.769567,36.415658],[-84.768411,36.416224],[-84.764762,36.416134],[-84.762403,36.417375],[-84.75971,36.41923],[-84.757857,36.415626],[-84.754197,36.412448],[-84.753425,36.410543],[-84.752676,36.407973],[-84.747201,36.410558],[-84.74722,36.414079],[-84.747846,36.41529],[-84.752103,36.418224],[-84.749955,36.419762],[-84.748118,36.421959],[-84.745811,36.422978],[-84.742524,36.423882],[-84.742489,36.424913],[-84.741207,36.426236],[-84.741867,36.428552],[-84.739638,36.428863],[-84.738004,36.427396],[-84.736397,36.427557],[-84.734213,36.430594],[-84.733003,36.431721],[-84.730217,36.433156],[-84.728203,36.435064],[-84.725701,36.435809],[-84.724339,36.437786],[-84.724195,36.439987],[-84.722337,36.441059],[-84.720856,36.44304],[-84.719364,36.4431],[-84.71438,36.444627],[-84.713449,36.444582],[-84.707536,36.441273],[-84.704532,36.439156],[-84.6995,36.440387],[-84.697367,36.438984],[-84.696193,36.43694],[-84.692648,36.435777],[-84.715139,36.498874],[-84.715987,36.500074],[-84.731839,36.524674],[-84.784041,36.524973],[-84.793767,36.532153],[-84.81804,36.550073],[-84.834786,36.557555],[-84.860632,36.569107],[-84.860195,36.565744],[-84.859152,36.563761],[-84.859027,36.559669],[-84.857488,36.558818],[-84.858549,36.557356],[-84.85799,36.556],[-84.858289,36.554901],[-84.860454,36.554472],[-84.858225,36.550831],[-84.85896,36.549512],[-84.862493,36.54833],[-84.863983,36.546445],[-84.866813,36.544581],[-84.871026,36.542245],[-84.871215,36.539894],[-84.873315,36.535641],[-84.87413,36.533053],[-84.873257,36.531796],[-84.875976,36.529892],[-84.873747,36.530615],[-84.872637,36.529956],[-84.868928,36.530837],[-84.865354,36.530871],[-84.863068,36.531762],[-84.861604,36.531373],[-84.859215,36.531884],[-84.856064,36.533089],[-84.854002,36.532183],[-84.852898,36.53109],[-84.851292,36.530789],[-84.851509,36.529476],[-84.849548,36.528152],[-84.84875,36.525225],[-84.851684,36.521179],[-84.85186,36.519428],[-84.850972,36.517424],[-84.851349,36.515587],[-84.852671,36.515488],[-84.85442,36.51673],[-84.854885,36.516107],[-84.857276,36.515663],[-84.859081,36.51427],[-84.862064,36.512986],[-84.86636,36.513091],[-84.87244,36.513598],[-84.875699,36.512854],[-84.877523,36.511235],[-84.879034,36.511081],[-84.880672,36.512123],[-84.886729,36.511928],[-84.891584,36.514011],[-84.897436,36.516609],[-84.89803,36.520504],[-84.897846,36.523747],[-84.907623,36.525187],[-84.914382,36.524684],[-84.915576,36.524352],[-84.920555,36.521862],[-84.920935,36.521252],[-84.924427,36.522024],[-84.923685,36.522997],[-84.926292,36.524398],[-84.927208,36.523518],[-84.931986,36.526429],[-84.933616,36.528249],[-84.937173,36.53037],[-84.940766,36.531199],[-84.943783,36.53332],[-84.947624,36.534369],[-84.951123,36.536585],[-84.952617,36.535067],[-84.955253,36.533199],[-84.955687,36.532198],[-84.955091,36.529695],[-84.95402,36.527848],[-84.953964,36.525779],[-84.956282,36.521423],[-84.95724,36.519051],[-84.961088,36.514093],[-84.963606,36.512143],[-84.965129,36.511796],[-84.967817,36.509896],[-84.969394,36.509786],[-84.97056,36.507272],[-84.970635,36.503746],[-84.9699,36.50291],[-84.966997,36.502026],[-84.966039,36.501094],[-84.965552,36.496836],[-84.967062,36.492368],[-84.969689,36.490819],[-84.971391,36.490369],[-84.975985,36.492582],[-84.978565,36.494331],[-84.98075,36.496944],[-84.983914,36.497481],[-84.986387,36.49728],[-84.989502,36.497667],[-84.992911,36.496024],[-84.995079,36.496797],[-84.999339,36.496786],[-85.00267,36.497832],[-85.005744,36.49972],[-85.006152,36.500365],[-85.005716,36.503136],[-85.005966,36.505487],[-85.007917,36.509798],[-85.006482,36.512877],[-85.007205,36.515757],[-85.00716,36.518707],[-85.007817,36.521405],[-85.007001,36.524361],[-85.009563,36.525222],[-85.011205,36.526688],[-85.011448,36.530352],[-85.016307,36.534792],[-85.016871,36.538266],[-85.019833,36.54224],[-85.020963,36.542554],[-85.022346,36.544301],[-85.027133,36.54559],[-85.028513,36.545338],[-85.034148,36.54588],[-85.033672,36.546713],[-85.033622,36.549632],[-85.032955,36.55303],[-85.032076,36.553845],[-85.034563,36.554384],[-85.03513,36.553468],[-85.034179,36.551186],[-85.035092,36.549628],[-85.036251,36.549895],[-85.037925,36.551761],[-85.039343,36.551761],[-85.03922,36.544586],[-85.040872,36.542059],[-85.044052,36.539535],[-85.046079,36.536824],[-85.048478,36.535559],[-85.047682,36.532125],[-85.049915,36.529362],[-85.051148,36.526044],[-85.053558,36.523289],[-85.054113,36.523471],[-85.0549,36.523029],[-85.054091,36.517813],[-85.053111,36.514044],[-85.055535,36.509771],[-85.055474,36.505473],[-85.054629,36.504155],[-85.054755,36.501947],[-85.055621,36.501852],[-85.056836,36.4992],[-85.058424,36.496823],[-85.059077,36.494522],[-85.057844,36.492995],[-85.062274,36.491292],[-85.064878,36.493377],[-85.064627,36.49576],[-85.070637,36.493672],[-85.070842,36.492666],[-85.07284,36.49174],[-85.075523,36.491097],[-85.078839,36.489673],[-85.081798,36.48746],[-85.083794,36.486619],[-85.08734,36.485932],[-85.088875,36.486175],[-85.090781,36.48769],[-85.096188,36.452807],[-85.09927,36.453539],[-85.101748,36.452491],[-85.102388,36.451151],[-85.100921,36.446257],[-85.099353,36.44381],[-85.100167,36.44304],[-85.101643,36.443264],[-85.103383,36.444491],[-85.104181,36.446613],[-85.105662,36.44855],[-85.106666,36.448735],[-85.110607,36.450755],[-85.112942,36.45096],[-85.1141,36.450252],[-85.116985,36.447289],[-85.117722,36.447049],[-85.117226,36.444264],[-85.117873,36.441675],[-85.120132,36.438511],[-85.11987,36.436541],[-85.118591,36.436607],[-85.114387,36.437929],[-85.115652,36.437324],[-85.11362,36.435778],[-85.114425,36.433082],[-85.115692,36.43216],[-85.115933,36.430638],[-85.117167,36.429045],[-85.11334,36.423822],[-85.115844,36.421132],[-85.116034,36.418496],[-85.112595,36.420172],[-85.1079,36.420523],[-85.101438,36.419029],[-85.102839,36.409939],[-85.120445,36.407164],[-85.120503,36.399799],[-85.118899,36.399812],[-85.119163,36.397667],[-85.120527,36.397282],[-85.121519,36.33999]],[[-84.884401,36.383529],[-84.880838,36.383127],[-84.877894,36.381565],[-84.877973,36.380343],[-84.879547,36.380432],[-84.879929,36.379167],[-84.881723,36.379274],[-84.884864,36.379472],[-84.884401,36.383529]],[[-84.876266,36.36811],[-84.871512,36.367535],[-84.872241,36.365292],[-84.874136,36.366135],[-84.876416,36.367813],[-84.876266,36.36811]]]}},{"type":"Feature","properties":{"zcta5":"38549","AFFGEOID10":"8600000US38549","GEOID10":"38549","ALAND10":190586363,"AWATER10":18379227,"county_name":"Fentress","state_code":"TN","county_state":"Fentress County, TN","county_fips":"47049","risk_level_county":"Medium Risk (70–79% vaccinated)","mean_vaccination_rate_county":77.93,"risk_level_zcta":"Lower Risk (80–84% vaccinated)","mean_vaccination_rate_zips":83.8,"cases":8},"geometry":{"type":"Polygon","coordinates":[[[-85.276289,36.626511],[-85.276687,36.617777],[-85.279789,36.616822],[-85.278467,36.614095],[-85.281339,36.611652],[-85.280446,36.608096],[-85.276945,36.60729],[-85.277299,36.593053],[-85.273604,36.593372],[-85.270867,36.593141],[-85.269388,36.589769],[-85.267965,36.58795],[-85.267136,36.584372],[-85.262987,36.579212],[-85.258511,36.57558],[-85.257696,36.574347],[-85.254933,36.572559],[-85.247276,36.572385],[-85.245468,36.573743],[-85.24131,36.573188],[-85.237461,36.570667],[-85.236284,36.569105],[-85.235008,36.56613],[-85.235501,36.564369],[-85.234707,36.558129],[-85.234807,36.556813],[-85.233905,36.553794],[-85.232274,36.552175],[-85.227987,36.550513],[-85.225451,36.550064],[-85.223179,36.550709],[-85.220326,36.550122],[-85.219154,36.549459],[-85.215388,36.544695],[-85.212993,36.542912],[-85.209647,36.53917],[-85.207614,36.53883],[-85.205327,36.537713],[-85.203364,36.535951],[-85.202454,36.533787],[-85.202147,36.528695],[-85.202665,36.527334],[-85.203363,36.523075],[-85.202281,36.521191],[-85.198294,36.520347],[-85.195458,36.521965],[-85.191744,36.524553],[-85.19036,36.526903],[-85.185534,36.532484],[-85.182781,36.534329],[-85.176325,36.533596],[-85.170232,36.534589],[-85.166452,36.534683],[-85.159496,36.533673],[-85.155142,36.532455],[-85.148114,36.529329],[-85.145849,36.527677],[-85.142544,36.524195],[-85.141989,36.523034],[-85.143089,36.520168],[-85.14749,36.516591],[-85.152279,36.515547],[-85.154751,36.515912],[-85.156257,36.515161],[-85.15663,36.512655],[-85.153828,36.510127],[-85.151864,36.50933],[-85.146148,36.507879],[-85.142883,36.506776],[-85.138652,36.506177],[-85.133248,36.506792],[-85.129809,36.507707],[-85.126496,36.509598],[-85.125101,36.509776],[-85.122502,36.5086],[-85.122922,36.507041],[-85.124799,36.504655],[-85.126913,36.503961],[-85.13043,36.501217],[-85.131975,36.499212],[-85.131448,36.497814],[-85.127504,36.495494],[-85.126146,36.493775],[-85.126371,36.492931],[-85.130348,36.491203],[-85.134807,36.491363],[-85.137636,36.490991],[-85.14014,36.489654],[-85.141048,36.487187],[-85.140751,36.48505],[-85.138732,36.483503],[-85.132768,36.481577],[-85.130196,36.48048],[-85.1266,36.47778],[-85.125929,36.476656],[-85.127208,36.474541],[-85.132403,36.473496],[-85.133976,36.472637],[-85.135649,36.470426],[-85.13484,36.465115],[-85.133832,36.462252],[-85.132797,36.461379],[-85.130477,36.461259],[-85.127463,36.462055],[-85.124955,36.461883],[-85.123274,36.46106],[-85.120844,36.45822],[-85.120393,36.457181],[-85.120087,36.454423],[-85.121619,36.450335],[-85.118871,36.44657],[-85.117722,36.447049],[-85.116985,36.447289],[-85.1141,36.450252],[-85.112942,36.45096],[-85.110607,36.450755],[-85.106666,36.448735],[-85.105662,36.44855],[-85.104181,36.446613],[-85.103383,36.444491],[-85.101643,36.443264],[-85.100167,36.44304],[-85.099353,36.44381],[-85.100921,36.446257],[-85.102388,36.451151],[-85.101748,36.452491],[-85.09927,36.453539],[-85.096188,36.452807],[-85.090781,36.48769],[-85.088875,36.486175],[-85.08734,36.485932],[-85.083794,36.486619],[-85.081798,36.48746],[-85.078839,36.489673],[-85.075523,36.491097],[-85.07284,36.49174],[-85.070842,36.492666],[-85.070637,36.493672],[-85.064627,36.49576],[-85.064878,36.493377],[-85.062274,36.491292],[-85.057844,36.492995],[-85.059077,36.494522],[-85.058424,36.496823],[-85.056836,36.4992],[-85.055621,36.501852],[-85.054755,36.501947],[-85.054629,36.504155],[-85.055474,36.505473],[-85.055535,36.509771],[-85.053111,36.514044],[-85.054091,36.517813],[-85.0549,36.523029],[-85.054113,36.523471],[-85.053558,36.523289],[-85.051148,36.526044],[-85.049915,36.529362],[-85.047682,36.532125],[-85.048478,36.535559],[-85.046079,36.536824],[-85.044052,36.539535],[-85.04828,36.539138],[-85.047195,36.542301],[-85.047124,36.543915],[-85.047542,36.544783],[-85.048857,36.542292],[-85.052183,36.541851],[-85.052842,36.542725],[-85.055426,36.541816],[-85.058102,36.547018],[-85.059662,36.547956],[-85.063058,36.547314],[-85.059288,36.550217],[-85.056826,36.551658],[-85.056258,36.552878],[-85.058136,36.553983],[-85.062388,36.553338],[-85.071891,36.553719],[-85.073208,36.554799],[-85.072006,36.557362],[-85.067732,36.558583],[-85.071023,36.560145],[-85.073998,36.560141],[-85.074874,36.560918],[-85.075286,36.562669],[-85.076967,36.5637],[-85.080677,36.564862],[-85.080638,36.566089],[-85.079427,36.568906],[-85.087877,36.570578],[-85.092555,36.571049],[-85.098518,36.569872],[-85.09964,36.571047],[-85.098559,36.572545],[-85.09676,36.573165],[-85.095324,36.575154],[-85.092893,36.577349],[-85.091756,36.577295],[-85.087559,36.579914],[-85.084936,36.582718],[-85.083466,36.585629],[-85.084766,36.586131],[-85.088222,36.588609],[-85.091401,36.590523],[-85.095133,36.591017],[-85.097885,36.589455],[-85.100037,36.589208],[-85.101745,36.586963],[-85.105215,36.586779],[-85.10952,36.58588],[-85.11106,36.583078],[-85.112149,36.582817],[-85.115611,36.583946],[-85.118099,36.58362],[-85.118739,36.585865],[-85.117547,36.587624],[-85.117,36.589854],[-85.115552,36.591176],[-85.112611,36.592812],[-85.108798,36.592332],[-85.106001,36.594269],[-85.104989,36.597655],[-85.103312,36.596122],[-85.102123,36.596036],[-85.101509,36.598108],[-85.100123,36.598766],[-85.098475,36.597503],[-85.097415,36.598696],[-85.093789,36.599348],[-85.091714,36.598892],[-85.088913,36.600022],[-85.090393,36.602623],[-85.086885,36.604975],[-85.086346,36.605925],[-85.086708,36.607535],[-85.084692,36.609925],[-85.082055,36.612134],[-85.079997,36.612623],[-85.075827,36.615496],[-85.075398,36.616611],[-85.07383,36.616903],[-85.072706,36.61821],[-85.072854,36.619494],[-85.070699,36.620525],[-85.0705426837826,36.621255635184795],[-85.086415,36.621913],[-85.096128,36.622483],[-85.19035891279319,36.6253457040634],[-85.191191,36.62313],[-85.190851,36.619476],[-85.189719,36.6179],[-85.192629,36.617905],[-85.19449,36.618729],[-85.197155,36.62174],[-85.198845,36.621608],[-85.198171,36.623328],[-85.200413,36.622058],[-85.2047,36.621404],[-85.207726,36.62264],[-85.208428,36.623585],[-85.20938106884239,36.6256733795462],[-85.276289,36.626511]]]}},{"type":"Feature","properties":{"zcta5":"38565","AFFGEOID10":"8600000US38565","GEOID10":"38565","ALAND10":27702099,"AWATER10":0,"county_name":"Fentress","state_code":"TN","county_state":"Fentress County, TN","county_fips":"47049","risk_level_county":"Medium Risk (70–79% vaccinated)","mean_vaccination_rate_county":77.93,"risk_level_zcta":"Medium Risk (70–79% vaccinated)","mean_vaccination_rate_zips":70.97,"cases":8},"geometry":{"type":"Polygon","coordinates":[[[-85.013197,36.295274],[-85.016743,36.294079],[-85.022626,36.28976],[-85.02265,36.286627],[-85.025735,36.285604],[-85.027329,36.286044],[-85.029321,36.285611],[-85.033068,36.282916],[-85.038043,36.277359],[-85.042047,36.276599],[-85.043152,36.277531],[-85.044194,36.27687],[-85.044192,36.273579],[-85.045344,36.271248],[-85.04439,36.269136],[-85.042877,36.267317],[-85.041055,36.263046],[-85.0412,36.261807],[-85.039218,36.258488],[-85.038979,36.256894],[-85.046093,36.253105],[-85.046778,36.250856],[-85.046108,36.248717],[-85.047066,36.246514],[-85.046076,36.245638],[-85.043648,36.245044],[-85.038343,36.247284],[-85.038371,36.246108],[-85.034668,36.245531],[-85.034607,36.244097],[-85.033,36.244162],[-85.032444,36.243014],[-85.031081,36.243079],[-85.032018,36.241355],[-85.031313,36.240986],[-85.029413,36.241832],[-85.029299,36.240618],[-85.030398,36.239871],[-85.028621,36.239299],[-85.028017,36.24037],[-85.026335,36.2406],[-85.02464,36.239858],[-85.024539,36.238303],[-85.02227,36.238722],[-85.020855,36.244472],[-85.006611,36.242565],[-85.006345,36.24331],[-85.004003,36.245217],[-85.00261,36.245175],[-85.003297,36.243825],[-85.001978,36.243238],[-84.992144,36.237236],[-84.995274,36.234952],[-84.996691,36.234726],[-84.998833,36.232967],[-84.995495,36.23274],[-84.988918,36.236077],[-84.986137,36.238968],[-84.985433,36.240386],[-84.983309,36.241681],[-84.98223,36.24066],[-84.98122,36.240825],[-84.979478,36.243138],[-84.978455,36.245858],[-84.976963,36.246128],[-84.978116,36.24732],[-84.979561,36.24622],[-84.980267,36.247786],[-84.977695,36.250401],[-84.977058,36.251923],[-84.977893,36.253077],[-84.97615,36.253495],[-84.975805,36.254547],[-84.978493,36.254416],[-84.9791,36.255654],[-84.977104,36.256059],[-84.976436,36.254984],[-84.97392,36.256358],[-84.972354,36.257957],[-84.971567,36.257205],[-84.973079,36.256375],[-84.971912,36.255408],[-84.97019,36.2572],[-84.969702,36.258991],[-84.972178,36.260528],[-84.9707,36.262078],[-84.974025,36.262989],[-84.969285,36.265696],[-84.9675,36.267012],[-84.96885,36.267688],[-84.968105,36.269017],[-84.968743,36.270248],[-84.965717,36.270496],[-84.966911,36.271534],[-84.966091,36.272863],[-84.965019,36.27282],[-84.965365,36.274287],[-84.967727,36.275247],[-84.967314,36.277346],[-84.968013,36.277632],[-84.970906,36.276321],[-84.971737,36.277478],[-84.974812,36.276639],[-84.981774,36.278698],[-84.981889,36.271802],[-84.974076,36.271381],[-84.972769,36.270673],[-84.973702,36.268999],[-84.977704,36.26662],[-84.981345,36.266073],[-84.983858,36.267203],[-84.984897,36.266502],[-84.986016,36.267326],[-84.992598,36.268805],[-84.991443,36.270303],[-84.992679,36.2722],[-84.992157,36.272799],[-84.9934,36.274474],[-84.991055,36.278079],[-84.992955,36.279485],[-84.992949,36.280776],[-84.995764,36.279577],[-84.996764,36.28223],[-84.998155,36.2828],[-85.000798,36.281771],[-85.003427,36.283232],[-85.006855,36.283662],[-85.00707,36.287781],[-85.008681,36.289096],[-85.009664,36.29092],[-85.011682,36.292311],[-85.01151,36.294126],[-85.013197,36.295274]]]}},{"type":"Feature","properties":{"zcta5":"37726","AFFGEOID10":"8600000US37726","GEOID10":"37726","ALAND10":252966461,"AWATER10":111394,"county_name":"Fentress","state_code":"TN","county_state":"Fentress County, TN","county_fips":"47049","risk_level_county":"Medium Risk (70–79% vaccinated)","mean_vaccination_rate_county":77.93,"risk_level_zcta":"Medium Risk (70–79% vaccinated)","mean_vaccination_rate_zips":73.81,"cases":8},"geometry":{"type":"Polygon","coordinates":[[[-84.918635,36.221318],[-84.914864,36.221748],[-84.915668,36.219519],[-84.91674,36.218119],[-84.918286,36.217949],[-84.918761,36.215597],[-84.920673,36.214279],[-84.922321,36.214142],[-84.923114,36.215774],[-84.926259,36.216516],[-84.924754,36.214796],[-84.929666,36.205909],[-84.928234,36.205743],[-84.926973,36.20682],[-84.925678,36.205924],[-84.925888,36.204985],[-84.924669,36.204149],[-84.924798,36.202012],[-84.927008,36.201293],[-84.925286,36.200337],[-84.923917,36.198414],[-84.924175,36.196634],[-84.927944,36.194849],[-84.929638,36.195206],[-84.93138,36.194096],[-84.93195,36.195766],[-84.933243,36.195982],[-84.934228,36.190817],[-84.938772,36.184184],[-84.939534,36.181593],[-84.941147,36.179148],[-84.943119,36.177373],[-84.94196,36.1755],[-84.941038,36.172786],[-84.941614,36.170045],[-84.941228,36.168556],[-84.942963,36.166265],[-84.943057,36.163524],[-84.944493,36.161568],[-84.941668,36.157389],[-84.938646,36.158982],[-84.937018,36.154866],[-84.932875,36.150793],[-84.933471,36.148658],[-84.934756,36.147265],[-84.934349,36.146428],[-84.932791,36.146293],[-84.925869,36.146951],[-84.923304,36.148361],[-84.921366,36.15081],[-84.918481,36.150251],[-84.915478,36.151021],[-84.913001,36.152838],[-84.910726,36.15376],[-84.907753,36.156293],[-84.906165,36.155778],[-84.905735,36.153537],[-84.903733,36.151777],[-84.90046,36.151183],[-84.899426,36.150429],[-84.8975,36.147177],[-84.896792,36.146839],[-84.893931,36.146865],[-84.890897,36.145749],[-84.887067,36.14604],[-84.883468,36.145099],[-84.882248,36.144346],[-84.880014,36.141742],[-84.878769,36.139602],[-84.877258,36.138264],[-84.87495,36.13727],[-84.870888,36.136925],[-84.869889,36.13643],[-84.868604,36.134461],[-84.866841,36.133421],[-84.864768,36.133118],[-84.862618,36.131828],[-84.861541,36.128261],[-84.861892,36.125699],[-84.861425,36.124668],[-84.857179,36.124348],[-84.854313,36.122787],[-84.851996,36.120605],[-84.852093,36.119278],[-84.850968,36.118051],[-84.847704,36.117358],[-84.845979,36.114772],[-84.84413,36.114798],[-84.839956,36.11628],[-84.839789,36.118024],[-84.83749,36.121077],[-84.836868,36.122745],[-84.834605,36.122969],[-84.83252,36.122517],[-84.830608,36.122707],[-84.82384,36.120105],[-84.821593,36.119914],[-84.819237,36.120494],[-84.816163,36.120162],[-84.813425,36.121029],[-84.808464,36.119415],[-84.807437,36.118599],[-84.806053,36.118649],[-84.801608,36.120625],[-84.796901,36.120914],[-84.795722,36.122386],[-84.798988,36.123956],[-84.799677,36.125344],[-84.802918,36.128652],[-84.801903,36.131791],[-84.80012,36.133362],[-84.796577,36.134443],[-84.795443,36.136162],[-84.795906,36.138104],[-84.796706,36.138282],[-84.798317,36.137006],[-84.7999,36.137216],[-84.800545,36.140529],[-84.800013,36.14462],[-84.799063,36.145007],[-84.795352,36.144799],[-84.793141,36.145316],[-84.792482,36.146404],[-84.792734,36.148438],[-84.79129,36.149419],[-84.788837,36.149201],[-84.786039,36.150045],[-84.784847,36.151093],[-84.780506,36.149587],[-84.779321,36.149466],[-84.778143,36.148158],[-84.776714,36.148026],[-84.775954,36.151157],[-84.773073,36.154885],[-84.775694,36.157937],[-84.770434,36.160888],[-84.768025,36.164271],[-84.766983,36.166879],[-84.749036,36.173727],[-84.746731,36.177981],[-84.749312,36.178095],[-84.750979,36.178663],[-84.752183,36.181273],[-84.753556,36.182626],[-84.753631,36.183313],[-84.750792,36.187587],[-84.750753,36.189358],[-84.741489,36.195308],[-84.742807,36.197445],[-84.737193,36.199695],[-84.734134,36.19953],[-84.731976,36.200366],[-84.730041,36.202346],[-84.727111,36.203116],[-84.724427,36.203364],[-84.721172,36.203009],[-84.718701,36.205253],[-84.716587,36.20794],[-84.713927,36.210202],[-84.711274,36.21564],[-84.716498,36.21984],[-84.719922,36.220844],[-84.720153,36.222651],[-84.724646,36.233554],[-84.723135,36.235538],[-84.724165,36.236043],[-84.723712,36.238828],[-84.727198,36.240321],[-84.731755,36.241204],[-84.735146,36.241395],[-84.739296,36.241278],[-84.739784,36.240548],[-84.743365,36.241969],[-84.745184,36.244039],[-84.746723,36.244626],[-84.748995,36.244686],[-84.74945,36.245597],[-84.752212,36.245496],[-84.755049,36.256283],[-84.762453,36.255786],[-84.76448,36.254853],[-84.768969,36.254187],[-84.77031,36.25277],[-84.775482,36.251934],[-84.778658,36.250247],[-84.780813,36.249834],[-84.784323,36.247565],[-84.787976,36.249694],[-84.791656,36.252843],[-84.793285,36.253257],[-84.794588,36.254315],[-84.795278,36.25366],[-84.79483,36.254969],[-84.792753,36.257089],[-84.789273,36.259236],[-84.787869,36.260582],[-84.788166,36.265048],[-84.787526,36.270113],[-84.786284,36.273035],[-84.78593,36.275952],[-84.786126,36.278237],[-84.78677,36.279539],[-84.786538,36.281511],[-84.787175,36.283456],[-84.788688,36.283577],[-84.787914,36.285044],[-84.788205,36.287966],[-84.78737,36.289268],[-84.787552,36.291701],[-84.790992,36.293509],[-84.791148,36.29413],[-84.788331,36.295508],[-84.788833,36.296717],[-84.786973,36.297947],[-84.785698,36.296914],[-84.78451,36.297667],[-84.782813,36.297298],[-84.782846,36.299402],[-84.784407,36.29988],[-84.784729,36.301532],[-84.786435,36.301398],[-84.786603,36.302582],[-84.788838,36.302469],[-84.790384,36.304199],[-84.791792,36.303325],[-84.792251,36.30095],[-84.795257,36.298007],[-84.797861,36.296894],[-84.799943,36.296816],[-84.802109,36.297497],[-84.805614,36.296863],[-84.80973,36.294626],[-84.812271,36.29376],[-84.814964,36.293375],[-84.816738,36.29702],[-84.818365,36.298335],[-84.821411,36.299409],[-84.822747,36.299384],[-84.82455,36.298598],[-84.826648,36.29696],[-84.830797,36.295042],[-84.832367,36.292371],[-84.834071,36.291718],[-84.83692,36.29139],[-84.838617,36.288644],[-84.840443,36.287644],[-84.84312,36.287009],[-84.847082,36.290131],[-84.850549,36.291409],[-84.855634,36.293712],[-84.858543,36.291792],[-84.863037,36.293335],[-84.866545,36.292675],[-84.86881,36.290394],[-84.870967,36.289234],[-84.871483,36.288382],[-84.87081,36.287124],[-84.872058,36.286217],[-84.875211,36.285597],[-84.876142,36.283483],[-84.877629,36.282253],[-84.878553,36.280204],[-84.877659,36.27838],[-84.881168,36.27664],[-84.883693,36.276004],[-84.88387,36.275032],[-84.882548,36.273509],[-84.884285,36.272867],[-84.889121,36.274375],[-84.890323,36.27348],[-84.891323,36.268937],[-84.894058,36.266229],[-84.895388,36.266246],[-84.896242,36.267626],[-84.89901,36.267423],[-84.900584,36.266407],[-84.903895,36.26532],[-84.904587,36.264678],[-84.904954,36.262964],[-84.904243,36.260838],[-84.90615,36.259058],[-84.907508,36.256839],[-84.910303,36.255214],[-84.91012,36.253434],[-84.909022,36.251818],[-84.906268,36.253823],[-84.904423,36.253416],[-84.901541,36.251075],[-84.901124,36.249429],[-84.902677,36.248572],[-84.904237,36.248847],[-84.905221,36.247293],[-84.904449,36.245106],[-84.905603,36.243134],[-84.90873,36.240998],[-84.908343,36.243064],[-84.910079,36.243817],[-84.91189,36.243136],[-84.911104,36.241235],[-84.912685,36.239307],[-84.909545,36.238526],[-84.909152,36.237466],[-84.910753,36.236032],[-84.912977,36.236934],[-84.913349,36.238577],[-84.914435,36.238363],[-84.914022,36.236753],[-84.912679,36.23544],[-84.914843,36.232869],[-84.914057,36.231523],[-84.912545,36.231061],[-84.910294,36.231236],[-84.908762,36.229698],[-84.909793,36.228594],[-84.912533,36.228737],[-84.911679,36.226897],[-84.912025,36.226122],[-84.913815,36.227084],[-84.915585,36.226414],[-84.916541,36.225348],[-84.916725,36.223832],[-84.913959,36.223222],[-84.914359,36.222129],[-84.916325,36.221898],[-84.918271,36.222338],[-84.918635,36.221318]]]}},{"type":"Feature","properties":{"zcta5":"38589","AFFGEOID10":"8600000US38589","GEOID10":"38589","ALAND10":79509961,"AWATER10":0,"county_name":"Fentress","state_code":"TN","county_state":"Fentress County, TN","county_fips":"47049","risk_level_county":"Medium Risk (70–79% vaccinated)","mean_vaccination_rate_county":77.93,"risk_level_zcta":"Medium Risk (70–79% vaccinated)","mean_vaccination_rate_zips":73.33,"cases":8},"geometry":{"type":"Polygon","coordinates":[[[-85.121519,36.33999],[-85.123965,36.339624],[-85.124563,36.338479],[-85.127508,36.336217],[-85.129222,36.334265],[-85.131473,36.334022],[-85.135612,36.332961],[-85.13765,36.331506],[-85.138474,36.329006],[-85.141505,36.325865],[-85.141883,36.32279],[-85.140828,36.319264],[-85.139198,36.317611],[-85.138862,36.316503],[-85.139573,36.314519],[-85.139524,36.312439],[-85.140133,36.311863],[-85.13919,36.309704],[-85.138,36.308937],[-85.134463,36.308404],[-85.132466,36.305629],[-85.134238,36.305034],[-85.13538,36.303607],[-85.133772,36.300436],[-85.132223,36.298677],[-85.135542,36.293958],[-85.137032,36.292282],[-85.137455,36.290453],[-85.137157,36.288989],[-85.135522,36.287842],[-85.135566,36.286865],[-85.133499,36.286282],[-85.130126,36.286692],[-85.127035,36.283728],[-85.12333,36.282362],[-85.119419,36.282039],[-85.116465,36.281097],[-85.114858,36.281139],[-85.110626,36.267763],[-85.100385,36.241535],[-85.090594,36.216709],[-85.086052,36.218436],[-85.084026,36.22059],[-85.081232,36.221679],[-85.07846,36.225437],[-85.07488,36.227739],[-85.072906,36.227415],[-85.069041,36.228794],[-85.067895,36.228866],[-85.066817,36.230278],[-85.066675,36.232008],[-85.068033,36.234353],[-85.064328,36.235695],[-85.063694,36.23844],[-85.062008,36.239849],[-85.058852,36.241192],[-85.057438,36.244018],[-85.053756,36.244127],[-85.050142,36.245224],[-85.047288,36.245701],[-85.047066,36.246514],[-85.046108,36.248717],[-85.046778,36.250856],[-85.046093,36.253105],[-85.038979,36.256894],[-85.039218,36.258488],[-85.0412,36.261807],[-85.041055,36.263046],[-85.042877,36.267317],[-85.04439,36.269136],[-85.045344,36.271248],[-85.044192,36.273579],[-85.044194,36.27687],[-85.043152,36.277531],[-85.042047,36.276599],[-85.038043,36.277359],[-85.033068,36.282916],[-85.029321,36.285611],[-85.027329,36.286044],[-85.025735,36.285604],[-85.02265,36.286627],[-85.022626,36.28976],[-85.016743,36.294079],[-85.013197,36.295274],[-85.012926,36.297357],[-85.011568,36.301215],[-85.011431,36.304403],[-85.012904,36.305031],[-85.013536,36.307088],[-85.012744,36.309396],[-85.011186,36.311009],[-85.010057,36.313295],[-85.012188,36.315604],[-85.012512,36.317105],[-85.014307,36.317533],[-85.018574,36.317117],[-85.019739,36.31907],[-85.021984,36.321308],[-85.023454,36.32178],[-85.024801,36.323244],[-85.025654,36.325864],[-85.023868,36.327338],[-85.023791,36.330687],[-85.025409,36.333985],[-85.02406,36.33705],[-85.025511,36.339711],[-85.027715,36.339038],[-85.029991,36.336496],[-85.032402,36.335411],[-85.041146,36.329314],[-85.043652,36.326521],[-85.043568,36.325111],[-85.046059,36.32491],[-85.049349,36.321579],[-85.048859,36.319771],[-85.050684,36.31776],[-85.051229,36.3161],[-85.053076,36.314685],[-85.053454,36.313495],[-85.05621,36.311008],[-85.059134,36.309661],[-85.060643,36.309593],[-85.063148,36.308267],[-85.065353,36.309011],[-85.066097,36.311398],[-85.068506,36.312176],[-85.070611,36.311145],[-85.076117,36.312942],[-85.07783,36.31262],[-85.080273,36.313412],[-85.083141,36.313055],[-85.084795,36.313674],[-85.0875,36.316109],[-85.08755,36.316887],[-85.090333,36.31719],[-85.09287,36.31609],[-85.094474,36.316138],[-85.096348,36.317267],[-85.096067,36.318808],[-85.09739,36.319866],[-85.100834,36.32028],[-85.100944,36.321222],[-85.104439,36.321724],[-85.108869,36.32068],[-85.109843,36.321573],[-85.11513,36.32059],[-85.115816,36.322345],[-85.118657,36.324256],[-85.119657,36.326188],[-85.121757,36.328401],[-85.121519,36.33999]]]}},{"type":"Feature","properties":{"zcta5":"38553","AFFGEOID10":"8600000US38553","GEOID10":"38553","ALAND10":124094916,"AWATER10":0,"county_name":"Fentress","state_code":"TN","county_state":"Fentress County, TN","county_fips":"47049","risk_level_county":"Medium Risk (70–79% vaccinated)","mean_vaccination_rate_county":77.93,"risk_level_zcta":"Medium Risk (70–79% vaccinated)","mean_vaccination_rate_zips":75.71,"cases":8},"geometry":{"type":"Polygon","coordinates":[[[-85.090594,36.216709],[-85.082497,36.196171],[-85.105854,36.163742],[-85.119583,36.144719],[-85.118777,36.144376],[-85.10954,36.141462],[-85.108156,36.143155],[-85.108989,36.143968],[-85.107419,36.145826],[-85.105184,36.146134],[-85.1049,36.148233],[-85.105443,36.149486],[-85.104218,36.15198],[-85.100614,36.15263],[-85.096855,36.154763],[-85.095263,36.153945],[-85.094674,36.155752],[-85.093618,36.156522],[-85.093401,36.157566],[-85.094485,36.158054],[-85.095028,36.159543],[-85.092285,36.161368],[-85.094609,36.161933],[-85.092516,36.164104],[-85.094102,36.16523],[-85.095288,36.166938],[-85.095058,36.168268],[-85.092857,36.169378],[-85.092227,36.171417],[-85.087085,36.173379],[-85.085615,36.174841],[-85.082945,36.175407],[-85.081542,36.176512],[-85.079035,36.177325],[-85.077422,36.177353],[-85.07625,36.17849],[-85.076562,36.180177],[-85.073675,36.179232],[-85.072177,36.179848],[-85.072923,36.181523],[-85.071297,36.18332],[-85.068823,36.183392],[-85.066648,36.185705],[-85.066939,36.182562],[-85.066132,36.178656],[-85.066403,36.17659],[-85.058312,36.17687],[-85.056323,36.177085],[-85.055506,36.175342],[-85.05375,36.175229],[-85.056604,36.172274],[-85.053229,36.172022],[-85.043613,36.165308],[-85.039153,36.163263],[-85.040209,36.164529],[-85.039307,36.167287],[-85.03823,36.167292],[-85.037134,36.162556],[-85.034959,36.162957],[-85.034294,36.165747],[-85.031651,36.167285],[-85.033412,36.168967],[-85.031054,36.169362],[-85.028803,36.170575],[-85.026641,36.167534],[-85.025769,36.165096],[-85.023454,36.164157],[-85.02178,36.165255],[-85.019505,36.162672],[-85.018598,36.160331],[-85.015807,36.160198],[-85.01359,36.162576],[-85.014138,36.163313],[-85.016598,36.163407],[-85.016075,36.164599],[-85.013426,36.164922],[-85.01218,36.162999],[-85.012317,36.161153],[-85.01509,36.158473],[-85.014149,36.157494],[-85.012169,36.159318],[-85.010916,36.159691],[-85.007984,36.156717],[-85.005105,36.156776],[-85.00451,36.155897],[-85.004809,36.153507],[-85.003543,36.152353],[-85.001884,36.152341],[-85.000679,36.150901],[-84.997455,36.152161],[-84.996835,36.153241],[-84.997498,36.155303],[-84.995149,36.160493],[-84.992964,36.16017],[-84.990126,36.161396],[-84.987683,36.160583],[-84.985552,36.161318],[-84.984347,36.159101],[-84.982396,36.157966],[-84.980531,36.157829],[-84.977471,36.159198],[-84.973218,36.159617],[-84.970904,36.160473],[-84.96894,36.162197],[-84.967174,36.161632],[-84.970144,36.157865],[-84.958954,36.147869],[-84.953653,36.155469],[-84.951553,36.153669],[-84.944558,36.15427],[-84.942753,36.153468],[-84.937018,36.154866],[-84.938646,36.158982],[-84.941668,36.157389],[-84.944493,36.161568],[-84.943057,36.163524],[-84.942963,36.166265],[-84.941228,36.168556],[-84.941614,36.170045],[-84.941038,36.172786],[-84.94196,36.1755],[-84.943119,36.177373],[-84.941147,36.179148],[-84.939534,36.181593],[-84.938772,36.184184],[-84.934228,36.190817],[-84.933243,36.195982],[-84.93195,36.195766],[-84.93138,36.194096],[-84.929638,36.195206],[-84.927944,36.194849],[-84.924175,36.196634],[-84.923917,36.198414],[-84.925286,36.200337],[-84.927008,36.201293],[-84.924798,36.202012],[-84.924669,36.204149],[-84.925888,36.204985],[-84.925678,36.205924],[-84.926973,36.20682],[-84.928234,36.205743],[-84.929666,36.205909],[-84.924754,36.214796],[-84.926259,36.216516],[-84.923114,36.215774],[-84.922321,36.214142],[-84.920673,36.214279],[-84.918761,36.215597],[-84.918286,36.217949],[-84.91674,36.218119],[-84.915668,36.219519],[-84.914864,36.221748],[-84.918635,36.221318],[-84.926,36.222993],[-84.927604,36.224325],[-84.929035,36.226854],[-84.934678,36.22807],[-84.938082,36.230103],[-84.939175,36.232425],[-84.938115,36.234299],[-84.938164,36.2359],[-84.939885,36.236339],[-84.946914,36.233335],[-84.952413,36.232773],[-84.954147,36.232227],[-84.955475,36.232955],[-84.956599,36.234807],[-84.95967,36.237415],[-84.960615,36.239856],[-84.960427,36.241842],[-84.959587,36.243384],[-84.956966,36.246591],[-84.954854,36.245237],[-84.954027,36.242774],[-84.948395,36.244417],[-84.945393,36.245562],[-84.943668,36.247179],[-84.951868,36.249044],[-84.952989,36.256333],[-84.956137,36.256954],[-84.956073,36.258249],[-84.959844,36.258557],[-84.961019,36.258978],[-84.963873,36.261271],[-84.965936,36.263868],[-84.969285,36.265696],[-84.974025,36.262989],[-84.9707,36.262078],[-84.972178,36.260528],[-84.969702,36.258991],[-84.97019,36.2572],[-84.971912,36.255408],[-84.973079,36.256375],[-84.971567,36.257205],[-84.972354,36.257957],[-84.97392,36.256358],[-84.976436,36.254984],[-84.977104,36.256059],[-84.9791,36.255654],[-84.978493,36.254416],[-84.975805,36.254547],[-84.97615,36.253495],[-84.977893,36.253077],[-84.977058,36.251923],[-84.977695,36.250401],[-84.980267,36.247786],[-84.979561,36.24622],[-84.978116,36.24732],[-84.976963,36.246128],[-84.978455,36.245858],[-84.979478,36.243138],[-84.98122,36.240825],[-84.98223,36.24066],[-84.983309,36.241681],[-84.985433,36.240386],[-84.986137,36.238968],[-84.988918,36.236077],[-84.995495,36.23274],[-84.998833,36.232967],[-84.996691,36.234726],[-84.995274,36.234952],[-84.992144,36.237236],[-85.001978,36.243238],[-85.003297,36.243825],[-85.00261,36.245175],[-85.004003,36.245217],[-85.006345,36.24331],[-85.006611,36.242565],[-85.020855,36.244472],[-85.02227,36.238722],[-85.024539,36.238303],[-85.02464,36.239858],[-85.026335,36.2406],[-85.028017,36.24037],[-85.028621,36.239299],[-85.030398,36.239871],[-85.029299,36.240618],[-85.029413,36.241832],[-85.031313,36.240986],[-85.032018,36.241355],[-85.031081,36.243079],[-85.032444,36.243014],[-85.033,36.244162],[-85.034607,36.244097],[-85.034668,36.245531],[-85.038371,36.246108],[-85.038343,36.247284],[-85.043648,36.245044],[-85.046076,36.245638],[-85.047066,36.246514],[-85.047288,36.245701],[-85.050142,36.245224],[-85.053756,36.244127],[-85.057438,36.244018],[-85.058852,36.241192],[-85.062008,36.239849],[-85.063694,36.23844],[-85.064328,36.235695],[-85.068033,36.234353],[-85.066675,36.232008],[-85.066817,36.230278],[-85.067895,36.228866],[-85.069041,36.228794],[-85.072906,36.227415],[-85.07488,36.227739],[-85.07846,36.225437],[-85.081232,36.221679],[-85.084026,36.22059],[-85.086052,36.218436],[-85.090594,36.216709]]]}}]}