{"type":"FeatureCollection","features":[{"type":"Feature","properties":{"zcta5":"32456","AFFGEOID10":"8600000US32456","GEOID10":"32456","ALAND10":212410241,"AWATER10":114524034,"county_name":"Franklin","state_code":"FL","county_state":"Franklin County, FL","county_fips":"12037","risk_level_county":"Higher Risk (60–69% vaccinated)","mean_vaccination_rate_county":69.11,"risk_level_zcta":"Very High Risk (<60% vaccinated)","mean_vaccination_rate_zips":57.81,"cases":7},"geometry":{"type":"MultiPolygon","coordinates":[[[[-85.391296,30.027635],[-85.391502,30.000389],[-85.391281,29.999835],[-85.390359,29.98148],[-85.390341,29.978053],[-85.38923,29.9783],[-85.382541,29.978299],[-85.381773,29.97928],[-85.380037,29.97833],[-85.379905,29.979532],[-85.381657,29.979593],[-85.378275,29.982105],[-85.37823,29.98365],[-85.37481,29.983688],[-85.373066,29.987603],[-85.369711,29.991016],[-85.369363,29.99261],[-85.369307,29.994509],[-85.370913,30.000093],[-85.373443,30.007805],[-85.375046,30.010305],[-85.377398,30.010201],[-85.379612,30.011392],[-85.37973,30.012797],[-85.377861,30.016137],[-85.379423,30.019104],[-85.379692,30.022397],[-85.380311,30.023872],[-85.382003,30.024593],[-85.388142,30.025764],[-85.391296,30.027635]]],[[[-85.39492,29.936508],[-85.392845,29.934823],[-85.392783,29.93485],[-85.393356,29.936548],[-85.39344,29.937145],[-85.393806,29.937517],[-85.39492,29.936508]]],[[[-85.395599,29.933727],[-85.396064,29.933282],[-85.393539,29.931186],[-85.394294,29.932674],[-85.393157,29.933744],[-85.394454,29.934783],[-85.395599,29.933727]]],[[[-85.398681,29.939628],[-85.398056,29.939098],[-85.394683,29.942207],[-85.394996,29.942358],[-85.395462,29.942535],[-85.398681,29.939628]]],[[[-85.40344548314309,29.937100566940497],[-85.3886772298017,29.9243554814616],[-85.38473,29.920949],[-85.363731,29.898915],[-85.350165,29.877019],[-85.343618,29.861878],[-85.342838,29.857935],[-85.336654,29.849295],[-85.332289,29.845905],[-85.325008,29.844966],[-85.3190809084004,29.840195414078398],[-85.317464,29.838894],[-85.31454,29.832732],[-85.314770063271,29.830689833433798],[-85.314398,29.831093],[-85.313138,29.831782],[-85.312749,29.831988],[-85.311837,29.832105],[-85.311054,29.832513],[-85.310781,29.831848],[-85.310827,29.831492],[-85.311096,29.83115],[-85.311486,29.830897],[-85.311575,29.829991],[-85.311787,29.829832],[-85.310402,29.827412],[-85.310173,29.826677],[-85.309926,29.826404],[-85.309297,29.825285],[-85.308649,29.824026],[-85.308507,29.823749],[-85.304924,29.815836],[-85.307446,29.815822],[-85.307079,29.814135],[-85.305435,29.814648],[-85.304108,29.811511],[-85.3056336239873,29.810908374621697],[-85.302789,29.808864],[-85.300841,29.798969],[-85.301668,29.795344],[-85.3017920063836,29.7932522172499],[-85.302382,29.7833],[-85.303391,29.774858],[-85.305021,29.769916],[-85.306066,29.759008],[-85.304804,29.748113],[-85.305408,29.744583],[-85.305421,29.73812],[-85.307017,29.73371],[-85.304928,29.731393],[-85.305998,29.725202],[-85.310731,29.711439],[-85.310039,29.705385],[-85.311702,29.698572],[-85.312415,29.692275],[-85.315981,29.687113],[-85.321772,29.68542],[-85.324317,29.68669],[-85.326557,29.686184],[-85.329337,29.687597],[-85.332329,29.684379],[-85.337046,29.683905],[-85.339761,29.685054],[-85.341247,29.683591],[-85.344101,29.684009],[-85.346481,29.681517],[-85.350206,29.682983],[-85.353534,29.679576],[-85.355435,29.680918],[-85.359238,29.679679],[-85.362685,29.681538],[-85.361853,29.688042],[-85.363677,29.691986],[-85.367557,29.692688],[-85.369815,29.696507],[-85.369852,29.700405],[-85.370697,29.702299],[-85.37796,29.709621],[-85.38227,29.719435],[-85.385991,29.725377],[-85.388579,29.730158],[-85.389325,29.733615],[-85.389216,29.738826],[-85.389082,29.742159],[-85.391764,29.750566],[-85.392194,29.754322],[-85.395528,29.762368],[-85.397386,29.764411],[-85.400832,29.764823],[-85.402615,29.76699],[-85.402377,29.770703],[-85.399985,29.774446],[-85.4,29.776377],[-85.402153,29.77872],[-85.404283,29.784702],[-85.405456,29.791297],[-85.406807,29.795343],[-85.408398,29.79842],[-85.409696,29.802353],[-85.410142,29.808678],[-85.40892,29.813793],[-85.40742,29.81679],[-85.406988,29.819187],[-85.407697,29.821659],[-85.409878,29.824898],[-85.410672,29.828143],[-85.410432,29.830733],[-85.408292,29.835545],[-85.405047,29.841009],[-85.403555,29.845326],[-85.400148,29.850523],[-85.399263,29.854],[-85.398951,29.860578],[-85.39752,29.863509],[-85.394171,29.867979],[-85.392469,29.870914],[-85.390079,29.873785],[-85.38574,29.875866],[-85.38467,29.877618],[-85.387047,29.878546],[-85.394058,29.874939],[-85.396316,29.874115],[-85.399287,29.873599],[-85.40511,29.868859],[-85.408913,29.864222],[-85.411765,29.85979],[-85.413575,29.85294],[-85.415806,29.842577],[-85.417971,29.828855],[-85.413983,29.799865],[-85.411528,29.792364],[-85.409633,29.781618],[-85.404287,29.761954],[-85.398407,29.742964],[-85.387313,29.715367],[-85.380867,29.702082],[-85.3753,29.691854],[-85.367676,29.680815],[-85.365061,29.677304],[-85.36209,29.675343],[-85.356743,29.66956],[-85.351514,29.666669],[-85.346541,29.668567],[-85.342838,29.671212],[-85.336064,29.675446],[-85.32834,29.67875],[-85.318349,29.681573],[-85.306592,29.683293],[-85.298623,29.684019],[-85.29074,29.684081],[-85.276634,29.683485],[-85.259719,29.681296],[-85.24616,29.678377],[-85.241069,29.676802],[-85.236914,29.67669],[-85.229975,29.677816],[-85.226623,29.680777],[-85.222677,29.682835],[-85.2210819308043,29.6856061632902],[-85.222309,29.686977],[-85.22268,29.687697],[-85.222414,29.68958],[-85.219822,29.690247],[-85.218525,29.693249],[-85.206226,29.711188],[-85.168427,29.736574],[-85.184346,29.738995],[-85.188376,29.739763],[-85.19298,29.740298],[-85.223873,29.741026],[-85.227411,29.741656],[-85.245497,29.75077],[-85.250891,29.754043],[-85.25726,29.759509],[-85.25974,29.763158],[-85.260761,29.764068],[-85.266658,29.774106],[-85.268936,29.775928],[-85.273887,29.776883],[-85.246545,29.776541],[-85.245515,29.792019],[-85.246103,29.793047],[-85.248836,29.792173],[-85.251053,29.791988],[-85.256189,29.792223],[-85.259986,29.791376],[-85.263304,29.789821],[-85.263301,29.784189],[-85.271583,29.783839],[-85.271607,29.782022],[-85.277185,29.789254],[-85.279299,29.797695],[-85.279166,29.798769],[-85.280838,29.803915],[-85.284592,29.811962],[-85.282946,29.808558],[-85.28292,29.809429],[-85.283157,29.812895],[-85.277827,29.816062],[-85.278779,29.818411],[-85.280491,29.818831],[-85.281799,29.821363],[-85.282326,29.821646],[-85.283874,29.818943],[-85.285585,29.817396],[-85.287834,29.817892],[-85.28814,29.822717],[-85.288117,29.828625],[-85.28723,29.829061],[-85.287698,29.837418],[-85.266792,29.850207],[-85.257492,29.850267],[-85.254185,29.852986],[-85.25426,29.85446],[-85.250877,29.855675],[-85.240915,29.863809],[-85.237549,29.861056],[-85.231872,29.864689],[-85.232902,29.862781],[-85.214757,29.874157],[-85.213316,29.872384],[-85.210206,29.870054],[-85.209583,29.868928],[-85.207779,29.868988],[-85.208215,29.871778],[-85.209539,29.875627],[-85.210798,29.877113],[-85.222743,29.880029],[-85.230966,29.883646],[-85.233024,29.884036],[-85.239727,29.884232],[-85.242194,29.885127],[-85.244187,29.886334],[-85.251083,29.888427],[-85.251416,29.887859],[-85.266583,29.874826],[-85.269464,29.876107],[-85.298529,29.879532],[-85.303185,29.87253],[-85.309875,29.870486],[-85.310524,29.869987],[-85.312301,29.866198],[-85.310677,29.863707],[-85.307389,29.86103],[-85.308395,29.860167],[-85.307143,29.858742],[-85.296823,29.848801],[-85.298624,29.84985],[-85.301033,29.847261],[-85.302696,29.848936],[-85.303924,29.848959],[-85.30471,29.846731],[-85.304505,29.842175],[-85.305186,29.841618],[-85.305574,29.84181],[-85.307094,29.843631],[-85.308258,29.845791],[-85.310478,29.842402],[-85.313075,29.842454],[-85.317253,29.848578],[-85.318169,29.849338],[-85.328896,29.864235],[-85.316912,29.864209],[-85.319046,29.867254],[-85.322133,29.870413],[-85.320831,29.872521],[-85.311761,29.879932],[-85.347041,29.932282],[-85.350917,29.938706],[-85.352904,29.941122],[-85.354244,29.947029],[-85.354113,29.954196],[-85.339928,29.953682],[-85.339735,29.946792],[-85.347682,29.946393],[-85.339503,29.946586],[-85.339654,29.953711],[-85.325396,29.955235],[-85.323394,29.954498],[-85.32147,29.954819],[-85.322748,29.956407],[-85.326692,29.957494],[-85.331878,29.957603],[-85.335932,29.958438],[-85.338718,29.959676],[-85.341658,29.960393],[-85.344978,29.960208],[-85.349785,29.958491],[-85.353187,29.958202],[-85.357729,29.959174],[-85.36356,29.962454],[-85.370909,29.967802],[-85.375536,29.973437],[-85.376981,29.973171],[-85.378673,29.975765],[-85.382083,29.975732],[-85.381914,29.974848],[-85.390151,29.973987],[-85.389945,29.972499],[-85.389154,29.955241],[-85.388956,29.945725],[-85.388764,29.943362],[-85.388374,29.926919],[-85.388465,29.926076],[-85.389266,29.92678],[-85.389343,29.929796],[-85.391464,29.92978],[-85.39009,29.928527],[-85.390075,29.927526],[-85.392463,29.929672],[-85.392982,29.929187],[-85.402084,29.936758],[-85.400619,29.937891],[-85.399826,29.936399],[-85.397308,29.934329],[-85.396209,29.934225],[-85.39492,29.936508],[-85.395736,29.9372],[-85.393005,29.939693],[-85.393058,29.941049],[-85.396591,29.937896],[-85.398193,29.937883],[-85.400474,29.939855],[-85.398109,29.942632],[-85.400794,29.942768],[-85.402582,29.940402],[-85.403785,29.941205],[-85.405204,29.939043],[-85.40303,29.937505],[-85.40344548314309,29.937100566940497]]],[[[-85.422294,29.950693],[-85.423004,29.951101],[-85.424224,29.949512],[-85.423484,29.949111],[-85.422294,29.950693]]],[[[-85.422294,29.950693],[-85.421638,29.950309],[-85.418266,29.949153],[-85.416259,29.946857],[-85.415306,29.94806],[-85.412361,29.946302],[-85.41397,29.945987],[-85.414624,29.947607],[-85.415657,29.946418],[-85.412307,29.944011],[-85.409446,29.946226],[-85.408332,29.943288],[-85.407943,29.945947],[-85.405632,29.946531],[-85.408607,29.948436],[-85.407478,29.950725],[-85.410224,29.95368],[-85.417991,29.95384],[-85.424242,29.95858],[-85.430571,29.95873],[-85.432533,29.956598],[-85.426615,29.953187],[-85.424774,29.953573],[-85.422988,29.952384],[-85.421615,29.953516],[-85.421867,29.951183],[-85.422294,29.950693]]]]}},{"type":"Feature","properties":{"zcta5":"32358","AFFGEOID10":"8600000US32358","GEOID10":"32358","ALAND10":405358432,"AWATER10":8179713,"county_name":"Franklin","state_code":"FL","county_state":"Franklin County, FL","county_fips":"12037","risk_level_county":"Higher Risk (60–69% vaccinated)","mean_vaccination_rate_county":69.11,"risk_level_zcta":"Medium Risk (70–79% vaccinated)","mean_vaccination_rate_zips":78.17,"cases":7},"geometry":{"type":"Polygon","coordinates":[[[-84.713351,30.30017],[-84.727414,30.288745],[-84.728615,30.28813],[-84.729898,30.2862],[-84.730991,30.283338],[-84.730841,30.28044],[-84.729714,30.279054],[-84.727524,30.278749],[-84.727661,30.275846],[-84.730942,30.275158],[-84.730476,30.27256],[-84.731003,30.271385],[-84.730579,30.269686],[-84.73217,30.267942],[-84.735085,30.267288],[-84.736557,30.26812],[-84.737846,30.265646],[-84.735054,30.263626],[-84.728386,30.257875],[-84.726608,30.25672],[-84.718513,30.253553],[-84.715744,30.252697],[-84.715721,30.251646],[-84.712219,30.250439],[-84.709277,30.251667],[-84.709927,30.253089],[-84.708305,30.253439],[-84.707425,30.251358],[-84.705543,30.251803],[-84.704185,30.249521],[-84.701454,30.248461],[-84.699897,30.246115],[-84.698265,30.245691],[-84.69825,30.244781],[-84.700401,30.244236],[-84.700394,30.242695],[-84.698586,30.241419],[-84.697571,30.239525],[-84.697807,30.238438],[-84.699409,30.238121],[-84.697243,30.237148],[-84.699097,30.236374],[-84.698593,30.233582],[-84.700577,30.235329],[-84.701385,30.232895],[-84.701027,30.231972],[-84.697372,30.229315],[-84.699473,30.227655],[-84.695486,30.227329],[-84.695945,30.225465],[-84.693611,30.224115],[-84.694824,30.222834],[-84.692716,30.222143],[-84.690094,30.222824],[-84.688828,30.221695],[-84.687645,30.222263],[-84.685184,30.220033],[-84.683866,30.22008],[-84.683297,30.218258],[-84.681871,30.21771],[-84.682133,30.212096],[-84.681462,30.209145],[-84.680136,30.206763],[-84.681757,30.204984],[-84.681442,30.202188],[-84.677162,30.201813],[-84.675964,30.200735],[-84.678095,30.195439],[-84.677652,30.194053],[-84.678198,30.192486],[-84.678255,30.18809],[-84.677094,30.186146],[-84.674706,30.185574],[-84.674751,30.183786],[-84.672821,30.185801],[-84.672867,30.187124],[-84.672254,30.186523],[-84.672656,30.184336],[-84.671272,30.183945],[-84.670881,30.184965],[-84.668337,30.182591],[-84.667898,30.18041],[-84.668457,30.177711],[-84.668263,30.174462],[-84.670151,30.173363],[-84.668686,30.173066],[-84.668465,30.171041],[-84.66658,30.171465],[-84.666186,30.172561],[-84.664944,30.169774],[-84.667192,30.168596],[-84.665138,30.166096],[-84.667834,30.167044],[-84.669492,30.165691],[-84.66798,30.164878],[-84.667213,30.163431],[-84.66911,30.163558],[-84.667641,30.161437],[-84.668688,30.160991],[-84.668404,30.159533],[-84.66926,30.158003],[-84.670623,30.157559],[-84.669492,30.15473],[-84.670665,30.154087],[-84.669001,30.153108],[-84.669293,30.152118],[-84.67088,30.152138],[-84.672538,30.150406],[-84.670373,30.149839],[-84.671684,30.147943],[-84.670631,30.146152],[-84.66923,30.146469],[-84.669617,30.144455],[-84.668391,30.143046],[-84.670067,30.142662],[-84.672157,30.140898],[-84.670128,30.138826],[-84.671608,30.137678],[-84.668907,30.136854],[-84.667274,30.13735],[-84.668047,30.135691],[-84.667572,30.134779],[-84.665492,30.134622],[-84.668326,30.132714],[-84.666143,30.132526],[-84.668237,30.131076],[-84.668091,30.12915],[-84.669431,30.128957],[-84.670357,30.127626],[-84.669258,30.1252],[-84.665947,30.123873],[-84.6675,30.123352],[-84.664324,30.120196],[-84.660812,30.120202],[-84.661476,30.118855],[-84.661034,30.116903],[-84.659897,30.116533],[-84.659623,30.115079],[-84.658118,30.115134],[-84.657397,30.11415],[-84.656239,30.115234],[-84.655993,30.11758],[-84.653223,30.11824],[-84.652779,30.116129],[-84.651685,30.114759],[-84.651708,30.112291],[-84.650277,30.11016],[-84.648293,30.109287],[-84.648436,30.10808],[-84.651924,30.106815],[-84.651985,30.104616],[-84.649025,30.105942],[-84.64814,30.105364],[-84.650948,30.103156],[-84.652588,30.103189],[-84.65052,30.101242],[-84.653107,30.100906],[-84.654549,30.09992],[-84.652832,30.097973],[-84.654274,30.0972],[-84.652718,30.096722],[-84.651382,30.097652],[-84.651459,30.096264],[-84.649734,30.095385],[-84.648285,30.093456],[-84.649969,30.09326],[-84.648079,30.091991],[-84.647491,30.092728],[-84.644768,30.09128],[-84.643951,30.088711],[-84.64257,30.087364],[-84.642414,30.083294],[-84.640732,30.082573],[-84.637886,30.083738],[-84.639087,30.080724],[-84.639011,30.078899],[-84.63559,30.077396],[-84.63636,30.076304],[-84.634836,30.074231],[-84.632663,30.072937],[-84.634884,30.0727],[-84.635082,30.071639],[-84.633634,30.070027],[-84.633141,30.068467],[-84.632267,30.068253],[-84.628871,30.069307],[-84.627854,30.068607],[-84.631081,30.067199],[-84.63079,30.065128],[-84.627513,30.065623],[-84.625798,30.065296],[-84.626532,30.062899],[-84.621991,30.063585],[-84.621126,30.066514],[-84.619956,30.066919],[-84.617943,30.064672],[-84.616245,30.065244],[-84.612397,30.061555],[-84.609777,30.059719],[-84.608963,30.058529],[-84.607614,30.054827],[-84.605553,30.052267],[-84.605136,30.050624],[-84.603916,30.046335],[-84.601987,30.045485],[-84.599891,30.045824],[-84.597235,30.047422],[-84.596468,30.046362],[-84.597444,30.044964],[-84.600144,30.044061],[-84.600015,30.043179],[-84.59419,30.042309],[-84.59308,30.040667],[-84.594048,30.040033],[-84.596288,30.041195],[-84.598618,30.04089],[-84.599323,30.040131],[-84.598808,30.03787],[-84.596786,30.037049],[-84.595471,30.03552],[-84.595177,30.033417],[-84.593224,30.032238],[-84.591048,30.029637],[-84.587055,30.027553],[-84.584711,30.026684],[-84.581211,30.024164],[-84.576263,30.02215],[-84.572458,30.019637],[-84.570368,30.016884],[-84.56907,30.017011],[-84.569409,30.01888],[-84.568329,30.020398],[-84.566865,30.019846],[-84.566176,30.017386],[-84.565137,30.017417],[-84.563723,30.019331],[-84.561203,30.020205],[-84.562871,30.022653],[-84.558376,30.02212],[-84.555709,30.019745],[-84.555323,30.018014],[-84.55569,30.014778],[-84.550566,30.014609],[-84.549001,30.013733],[-84.548719,30.011695],[-84.547195,30.012063],[-84.547583,30.015412],[-84.546143,30.015194],[-84.543021,30.012835],[-84.543032,30.011732],[-84.54445,30.01103],[-84.548411,30.008983],[-84.548871,30.007087],[-84.548208,30.006192],[-84.544631,30.004313],[-84.542419,30.002445],[-84.54124,30.002395],[-84.538126,30.004546],[-84.531218,30.007366],[-84.528122,30.00743],[-84.525007,30.005221],[-84.520324,29.99877],[-84.51896,29.995129],[-84.519807,29.992944],[-84.522702,29.989889],[-84.524692,29.986653],[-84.525393,29.983709],[-84.524969,29.982495],[-84.521743,29.98075],[-84.515826,29.980268],[-84.514093,29.980477],[-84.512102,29.982039],[-84.511955,29.98338],[-84.513466,29.985149],[-84.514591,29.987592],[-84.51413,29.989076],[-84.511918,29.9894],[-84.508287,29.989126],[-84.502021,29.987324],[-84.49874,29.97261],[-84.49887,29.9705],[-84.50075,29.96487],[-84.50498,29.95687],[-84.505309,29.955316],[-84.50052,29.94221],[-84.50074,29.94083],[-84.50343,29.9374],[-84.51408,29.92983],[-84.51695,29.92818],[-84.52008,29.92431],[-84.52042,29.92337],[-84.52025,29.91979],[-84.51893,29.91779],[-84.51539,29.91675],[-84.512035,29.917338],[-84.5115906302851,29.915842362884597],[-84.51041,29.916336],[-84.505994,29.916413],[-84.500788,29.916091],[-84.498442,29.914744],[-84.494562,29.913957],[-84.492811,29.9123],[-84.493095,29.91049],[-84.492025,29.909872],[-84.488698,29.913168],[-84.484539,29.916258],[-84.480907,29.917744],[-84.47931778314849,29.918762035738197],[-84.47115612814639,29.9239903067996],[-84.470323,29.924524],[-84.460176,29.927794],[-84.45777686713001,29.928159633400398],[-84.4517883924887,29.929072290791797],[-84.451705,29.929085],[-84.4516739266439,29.929047496746],[-84.449189,29.928488],[-84.446917,29.929286],[-84.443061,29.929291],[-84.440139,29.928131],[-84.433866,29.926619],[-84.427599,29.926267],[-84.419414,29.924435],[-84.414946,29.923923],[-84.41205,29.922301],[-84.40957,29.921789],[-84.402552,29.922282],[-84.400084,29.922056],[-84.398085,29.920769],[-84.397043,29.921131],[-84.393838,29.919976],[-84.390526,29.918117],[-84.386645,29.917675],[-84.384424,29.916718],[-84.382116,29.914892],[-84.381125,29.914842],[-84.37729,29.913251],[-84.377478,29.915423],[-84.376077,29.914784],[-84.370547,29.913477],[-84.364809,29.910538],[-84.362411,29.908967],[-84.359085,29.907621],[-84.356352,29.905434],[-84.359028,29.907187],[-84.353682,29.903264],[-84.353997,29.902131],[-84.357802,29.901872],[-84.363441,29.899995],[-84.359341,29.900728],[-84.358186,29.900437],[-84.356016,29.901312],[-84.352079,29.900428],[-84.358217,29.899513],[-84.360198,29.899776],[-84.361491,29.898319],[-84.364034,29.898533],[-84.367572,29.896926],[-84.370164,29.897559],[-84.368274,29.896269],[-84.36377,29.89796],[-84.36373,29.89667],[-84.35788,29.89787],[-84.35485,29.89807],[-84.35116,29.89786],[-84.34863,29.89946],[-84.34845,29.90096],[-84.3496,29.90257],[-84.3528,29.9045],[-84.35194,29.90565],[-84.35355,29.90878],[-84.35615,29.91058],[-84.35957,29.91096],[-84.36042,29.9091],[-84.36537,29.91139],[-84.36838,29.91316],[-84.36769,29.91471],[-84.37375,29.92271],[-84.37993,29.92267],[-84.38141,29.92237],[-84.39041,29.9224],[-84.39104,29.92389],[-84.39248,29.92383],[-84.392613,29.92265],[-84.39648,29.92212],[-84.39827,29.92386],[-84.398455,29.924857],[-84.400207,29.924629],[-84.401388,29.923325],[-84.403413,29.92296],[-84.407895,29.922933],[-84.412594,29.925021],[-84.414218,29.926532],[-84.418104,29.925627],[-84.420021,29.927649],[-84.423573,29.928526],[-84.429939,29.928397],[-84.431678,29.929512],[-84.43348,29.93175],[-84.43912,29.93519],[-84.44053,29.93377],[-84.44304,29.93364],[-84.44227,29.93557],[-84.44223,29.93744],[-84.44447,29.93776],[-84.44583,29.93745],[-84.49157,29.93764],[-84.491515,29.940977],[-84.486604,29.940469],[-84.482627,29.940579],[-84.482431,29.95171],[-84.48592,29.95212],[-84.48768,29.96673],[-84.48584,29.96878],[-84.48247,29.9699],[-84.48255,29.9712],[-84.482028,29.981095],[-84.482187,29.992775],[-84.476742,29.99967],[-84.472119,30.002399],[-84.469004,30.00237],[-84.467713,30.001853],[-84.464211,29.998988],[-84.461612,29.996478],[-84.459675,29.993376],[-84.458846,29.98869],[-84.458864,29.983574],[-84.458403,29.975198],[-84.456892,29.972685],[-84.454551,29.971333],[-84.452486,29.971247],[-84.449482,29.973344],[-84.446912,29.977039],[-84.444191,29.981799],[-84.443417,29.982177],[-84.442145,29.981726],[-84.438852,29.977433],[-84.438003,29.978063],[-84.440585,29.982829],[-84.44253,29.983445],[-84.442336,29.982375],[-84.445761,29.982556],[-84.447891,29.977074],[-84.451729,29.972523],[-84.45311,29.971895],[-84.455152,29.972252],[-84.456734,29.973507],[-84.45752,29.975199],[-84.457108,29.977144],[-84.457848,29.983803],[-84.457314,29.987766],[-84.457618,29.991757],[-84.461218,29.997467],[-84.468513,30.002817],[-84.470421,30.003447],[-84.469933,30.004047],[-84.471855,30.004911],[-84.473366,30.006422],[-84.47481,30.009164],[-84.475439,30.01138],[-84.474865,30.013579],[-84.475944,30.014372],[-84.473259,30.014235],[-84.46962,30.012821],[-84.467949,30.011293],[-84.465836,30.014418],[-84.465057,30.016579],[-84.465252,30.018557],[-84.46728,30.016956],[-84.468486,30.014856],[-84.4698,30.014966],[-84.471152,30.01634],[-84.471443,30.019011],[-84.472289,30.021111],[-84.47164,30.020913],[-84.470078,30.016664],[-84.46865,30.015351],[-84.46745,30.017951],[-84.466036,30.018908],[-84.46464,30.020816],[-84.463187,30.020058],[-84.46169,30.021064],[-84.461876,30.022493],[-84.463066,30.02372],[-84.465599,30.022476],[-84.467819,30.02401],[-84.464996,30.0249],[-84.464745,30.026279],[-84.466118,30.025526],[-84.467918,30.025993],[-84.467285,30.028605],[-84.465965,30.029045],[-84.467331,30.030298],[-84.466866,30.031382],[-84.467949,30.032997],[-84.467995,30.035833],[-84.468735,30.036297],[-84.467033,30.037842],[-84.466932,30.040765],[-84.46512,30.042833],[-84.462555,30.046956],[-84.462118,30.048781],[-84.46006,30.04773],[-84.45853,30.04625],[-84.45724,30.04135],[-84.45563,30.03934],[-84.45151,30.0374],[-84.44991,30.036],[-84.44937,30.03465],[-84.44866,30.028],[-84.44793,30.02647],[-84.444682,30.02314],[-84.440795,30.023621],[-84.438874,30.023459],[-84.438926,30.024398],[-84.437401,30.025521],[-84.43669,30.027078],[-84.434084,30.027054],[-84.430084,30.027787],[-84.430163,30.030628],[-84.431136,30.032918],[-84.432032,30.036949],[-84.433453,30.040223],[-84.428816,30.040453],[-84.413753,30.040748],[-84.413961,30.054676],[-84.413598,30.076649],[-84.41556,30.07682],[-84.41497,30.07879],[-84.41585,30.08416],[-84.415888,30.089977],[-84.417546,30.093252],[-84.419906,30.094581],[-84.423272,30.095245],[-84.426643,30.097261],[-84.428318,30.098932],[-84.42854,30.100467],[-84.432308,30.10294],[-84.435378,30.107154],[-84.438862,30.10894],[-84.440104,30.110544],[-84.441377,30.1143],[-84.443491,30.117437],[-84.4455,30.12029],[-84.44385,30.12224],[-84.44104,30.12207],[-84.43899,30.12426],[-84.43465,30.12478],[-84.43031,30.12683],[-84.42923,30.12679],[-84.42573,30.12439],[-84.42422,30.12445],[-84.42187,30.1252],[-84.41846,30.12782],[-84.414208,30.128795],[-84.413628,30.130551],[-84.413937,30.132389],[-84.413981,30.147112],[-84.413212,30.146928],[-84.41432,30.15024],[-84.4133,30.15689],[-84.41864,30.15396],[-84.42264,30.15313],[-84.42349,30.15238],[-84.43046,30.14924],[-84.43133,30.1485],[-84.43342,30.14512],[-84.43763,30.14406],[-84.43934,30.1425],[-84.44245,30.14131],[-84.44418,30.14151],[-84.44722,30.1436],[-84.45022,30.14134],[-84.4521,30.14196],[-84.45569,30.14211],[-84.46235,30.14559],[-84.46813,30.14667],[-84.47144,30.14569],[-84.47418,30.14538],[-84.47997,30.14249],[-84.48387,30.14195],[-84.484962,30.139469],[-84.496816,30.130775],[-84.49748,30.129503],[-84.49876,30.12877],[-84.5006,30.13034],[-84.50371,30.13025],[-84.50602,30.13345],[-84.51099,30.13304],[-84.51635,30.12986],[-84.51817,30.12619],[-84.51935,30.12538],[-84.52348,30.12484],[-84.52805,30.12357],[-84.53318,30.12092],[-84.53617,30.11884],[-84.53741,30.1185],[-84.54239,30.12025],[-84.5474,30.11834],[-84.55158,30.12197],[-84.55676,30.12178],[-84.56021,30.12086],[-84.56391,30.11811],[-84.56669,30.11347],[-84.57196,30.10988],[-84.57441,30.10872],[-84.57506,30.10597],[-84.57468,30.10416],[-84.57365,30.10235],[-84.56674,30.10006],[-84.56436,30.09948],[-84.55985,30.0974],[-84.55951,30.09683],[-84.56057,30.09485],[-84.56031,30.09095],[-84.56234,30.08853],[-84.55705,30.08471],[-84.5568,30.08366],[-84.58185,30.08374],[-84.58402,30.08348],[-84.58572,30.0829],[-84.60002,30.07574],[-84.60444,30.07485],[-84.60407,30.07636],[-84.6015,30.08065],[-84.59693,30.08463],[-84.59583,30.08632],[-84.59578,30.08926],[-84.59637,30.09168],[-84.59537,30.09624],[-84.5924,30.10047],[-84.59176,30.10322],[-84.5918,30.10367],[-84.60383,30.12932],[-84.60415,30.13112],[-84.60551,30.13381],[-84.60721,30.13804],[-84.61031,30.14274],[-84.6109,30.1448],[-84.61304,30.14719],[-84.61463,30.15165],[-84.6127,30.15619],[-84.60991,30.15991],[-84.60952,30.16506],[-84.6118,30.17006],[-84.61495,30.17122],[-84.62147,30.17326],[-84.62286,30.17449],[-84.62364,30.18018],[-84.62715,30.18752],[-84.62814,30.19806],[-84.62561,30.20102],[-84.61462,30.20474],[-84.60922,30.20536],[-84.60832,30.20579],[-84.60578,30.20833],[-84.59944,30.21037],[-84.59633,30.21205],[-84.58807,30.21501],[-84.58444,30.2169],[-84.57518,30.21925],[-84.56012,30.22165],[-84.55842,30.22213],[-84.538022,30.230942],[-84.542852,30.232218],[-84.547506,30.23217],[-84.550044,30.232962],[-84.552526,30.235722],[-84.557793,30.239158],[-84.560167,30.239725],[-84.560699,30.239257],[-84.563301,30.239604],[-84.565764,30.239461],[-84.568012,30.240203],[-84.571785,30.242204],[-84.574419,30.242243],[-84.577687,30.243386],[-84.579263,30.243595],[-84.580859,30.246069],[-84.583145,30.247756],[-84.585621,30.249026],[-84.587381,30.251552],[-84.591758,30.254833],[-84.592531,30.25464],[-84.596195,30.253033],[-84.59656,30.25186],[-84.59604,30.24992],[-84.59651,30.24898],[-84.59919,30.24821],[-84.60095,30.24667],[-84.60348,30.2458],[-84.60572,30.24302],[-84.60855,30.24025],[-84.60839,30.23939],[-84.60964,30.23734],[-84.60969,30.23432],[-84.61056,30.23246],[-84.61052,30.22952],[-84.61249,30.22701],[-84.61368,30.22463],[-84.61531,30.22389],[-84.61811,30.22122],[-84.62113,30.22051],[-84.62388,30.21935],[-84.6271,30.21879],[-84.62962,30.21712],[-84.6355,30.21272],[-84.63492,30.22072],[-84.6342,30.22254],[-84.62634,30.23176],[-84.62566,30.23306],[-84.62461,30.23873],[-84.62436,30.24288],[-84.62581,30.24574],[-84.62705,30.24954],[-84.6313,30.24873],[-84.63792,30.25243],[-84.64129,30.2523],[-84.64258,30.25284],[-84.64475,30.25506],[-84.64843,30.25728],[-84.64967,30.259093],[-84.654865,30.261763],[-84.65654,30.26664],[-84.65784,30.26746],[-84.65801,30.26959],[-84.65979,30.27108],[-84.66046,30.27245],[-84.65963,30.27838],[-84.66248,30.28002],[-84.66406,30.28212],[-84.66392,30.28546],[-84.66176,30.28695],[-84.65909,30.28685],[-84.65535,30.28573],[-84.65399,30.28618],[-84.65285,30.2882],[-84.65142,30.28837],[-84.64945,30.28727],[-84.64671,30.28869],[-84.64255,30.29043],[-84.64005,30.29432],[-84.64003,30.29589],[-84.63916,30.29785],[-84.63739,30.29885],[-84.63509,30.29892],[-84.63309,30.30029],[-84.661201,30.300219],[-84.713351,30.30017]]]}},{"type":"Feature","properties":{"zcta5":"32321","AFFGEOID10":"8600000US32321","GEOID10":"32321","ALAND10":1053250827,"AWATER10":16063801,"county_name":"Franklin","state_code":"FL","county_state":"Franklin County, FL","county_fips":"12037","risk_level_county":"Higher Risk (60–69% vaccinated)","mean_vaccination_rate_county":69.11,"risk_level_zcta":"Higher Risk (60–69% vaccinated)","mean_vaccination_rate_zips":68.97,"cases":7},"geometry":{"type":"Polygon","coordinates":[[[-85.11566,30.199976],[-85.119312,30.197615],[-85.121504,30.195386],[-85.123512,30.192382],[-85.125692,30.185329],[-85.127839,30.182988],[-85.133629,30.181779],[-85.134773,30.18077],[-85.135107,30.179409],[-85.133938,30.175987],[-85.135348,30.174459],[-85.138669,30.172546],[-85.138729,30.170687],[-85.137547,30.167848],[-85.137511,30.166813],[-85.139535,30.164252],[-85.139456,30.162353],[-85.137147,30.161688],[-85.134866,30.162244],[-85.133184,30.161024],[-85.133179,30.159487],[-85.13574,30.150899],[-85.138522,30.148388],[-85.138454,30.146341],[-85.135645,30.145378],[-85.132606,30.145568],[-85.132096,30.14482],[-85.132498,30.143237],[-85.134001,30.142018],[-85.136932,30.140445],[-85.137622,30.137969],[-85.137365,30.134733],[-85.143685,30.130142],[-85.145237,30.127409],[-85.145424,30.124664],[-85.144904,30.123149],[-85.14303,30.121741],[-85.138636,30.120539],[-85.133232,30.120933],[-85.131832,30.120686],[-85.130182,30.119414],[-85.130237,30.117359],[-85.13183,30.11543],[-85.132998,30.114977],[-85.139208,30.115645],[-85.14185,30.115447],[-85.142257,30.113294],[-85.139892,30.110871],[-85.140141,30.109178],[-85.140948,30.108863],[-85.142922,30.109303],[-85.145759,30.111661],[-85.147873,30.111907],[-85.148605,30.111455],[-85.149077,30.110495],[-85.147619,30.104927],[-85.144928,30.099401],[-85.144917,30.097474],[-85.145742,30.096788],[-85.15032,30.096861],[-85.151848,30.094602],[-85.153811,30.092849],[-85.154015,30.092043],[-85.153773,30.091294],[-85.151567,30.09012],[-85.149176,30.08964],[-85.14696,30.088555],[-85.143634,30.088964],[-85.141159,30.087371],[-85.138601,30.087496],[-85.137192,30.086563],[-85.135977,30.084204],[-85.134346,30.082046],[-85.13441,30.080224],[-85.136224,30.076174],[-85.138353,30.072778],[-85.138278,30.071633],[-85.137138,30.069563],[-85.133413,30.068633],[-85.13218,30.067466],[-85.132541,30.066434],[-85.136357,30.064566],[-85.136894,30.063816],[-85.136309,30.061124],[-85.13602,30.057449],[-85.136509,30.052764],[-85.135711,30.050017],[-85.134608,30.047793],[-85.135504,30.044656],[-85.135254,30.04327],[-85.132744,30.043419],[-85.129001,30.042546],[-85.128343,30.041499],[-85.128861,30.040466],[-85.131593,30.039455],[-85.131213,30.037965],[-85.124914,30.032983],[-85.119111,30.02891],[-85.117873,30.027701],[-85.11569,30.024064],[-85.113691,30.023173],[-85.109678,30.025459],[-85.107941,30.025394],[-85.107208,30.02435],[-85.107715,30.022187],[-85.107072,30.021065],[-85.104518,30.020174],[-85.101557,30.020599],[-85.100714,30.021191],[-85.099867,30.024377],[-85.098317,30.024551],[-85.096772,30.023295],[-85.097349,30.019851],[-85.100408,30.017645],[-85.100563,30.016602],[-85.098981,30.015322],[-85.09316,30.015726],[-85.091309,30.014269],[-85.091498,30.011901],[-85.090115,30.012172],[-85.085238,30.01469],[-85.083287,30.014243],[-85.080984,30.010201],[-85.077897,30.008489],[-85.075251,30.008221],[-85.073662,30.007555],[-85.071919,30.004796],[-85.068614,30.004748],[-85.06411,30.003993],[-85.058214,30.003927],[-85.055147,30.002424],[-85.054002,30.00128],[-85.052862,29.997005],[-85.050625,29.993839],[-85.050625,29.990988],[-85.049732,29.99012],[-85.04734,29.989944],[-85.044618,29.988443],[-85.042601,29.988571],[-85.038445,29.990626],[-85.03664,29.990527],[-85.031953,29.987817],[-85.0298,29.987412],[-85.029641,29.984473],[-85.027255,29.982118],[-85.026897,29.979756],[-85.025691,29.976315],[-85.025439,29.971399],[-85.024377,29.972378],[-85.023774,29.969531],[-85.020552,29.962484],[-85.020018,29.957056],[-85.018492,29.953629],[-85.01692,29.951352],[-85.015385,29.950108],[-85.015594,29.951467],[-85.013953,29.951137],[-85.011774,29.95223],[-85.007606,29.952393],[-85.00451,29.954536],[-85.004232,29.955966],[-85.000914,29.958791],[-84.996943,29.960535],[-84.992441,29.974557],[-84.987501,29.973569],[-84.986276,29.973905],[-84.985392,29.975615],[-84.986063,29.977479],[-84.985235,29.978029],[-84.98559,29.979624],[-84.98484,29.983385],[-84.984171,29.984331],[-84.982045,29.98501],[-84.9838,29.99326],[-84.98363,29.99485],[-84.984081,29.998756],[-84.983463,30.000095],[-84.984882,30.000965],[-84.985546,30.003735],[-84.981426,30.005841],[-84.980456,30.008634],[-84.982584,30.009558],[-84.98279,30.011954],[-84.98085,30.01207],[-84.98188,30.01294],[-84.978967,30.013794],[-84.941116,30.013436],[-84.932209,30.013324],[-84.931936,30.023537],[-84.926356,30.024961],[-84.923981,30.024383],[-84.92004,30.024936],[-84.91895,30.024507],[-84.905851,30.024818],[-84.903215,30.02274],[-84.90374,30.020142],[-84.869919,30.030365],[-84.870126,30.032807],[-84.872113,30.034549],[-84.875364,30.033606],[-84.88047,30.039048],[-84.883921,30.041865],[-84.88537,30.042284],[-84.888455,30.040149],[-84.890642,30.039358],[-84.893277,30.039943],[-84.894857,30.041328],[-84.895675,30.043578],[-84.897414,30.045223],[-84.900286,30.045217],[-84.901682,30.046772],[-84.902286,30.048579],[-84.903734,30.05041],[-84.908841,30.053132],[-84.913869,30.057137],[-84.914684,30.059379],[-84.91745,30.061851],[-84.918212,30.063316],[-84.918844,30.066452],[-84.918737,30.069038],[-84.915153,30.073551],[-84.914441,30.076254],[-84.916355,30.078759],[-84.920497,30.082403],[-84.923699,30.081658],[-84.926013,30.08262],[-84.92839,30.081914],[-84.935968,30.082116],[-84.938531,30.082795],[-84.940846,30.084136],[-84.943297,30.083994],[-84.945209,30.082718],[-84.948502,30.084826],[-84.948107,30.086911],[-84.949688,30.088858],[-84.949451,30.090759],[-84.950058,30.092042],[-84.953987,30.09475],[-84.954286,30.096091],[-84.953532,30.097478],[-84.953185,30.100669],[-84.953959,30.102127],[-84.953209,30.104139],[-84.953987,30.106128],[-84.955632,30.10713],[-84.956173,30.109304],[-84.956097,30.113539],[-84.957138,30.115485],[-84.959027,30.117664],[-84.963296,30.11887],[-84.964835,30.119781],[-84.969897,30.125392],[-84.971994,30.127125],[-84.974159,30.128191],[-84.975223,30.129472],[-84.977675,30.13058],[-84.98038,30.133317],[-84.979902,30.129902],[-84.98085,30.128023],[-84.987384,30.118859],[-84.987815,30.116431],[-84.988976,30.124702],[-84.989327,30.129538],[-84.988383,30.132061],[-84.987117,30.133618],[-84.934439,30.184581],[-84.932796,30.186],[-84.906839,30.20476],[-84.905521,30.20369],[-84.902517,30.20347],[-84.895205,30.205235],[-84.89275,30.200244],[-84.891984,30.194426],[-84.895047,30.190944],[-84.896129,30.190462],[-84.898403,30.187528],[-84.899908,30.186794],[-84.902021,30.186839],[-84.903315,30.185853],[-84.89312,30.181808],[-84.892348,30.181322],[-84.88699,30.175824],[-84.878756,30.1727],[-84.878027,30.171994],[-84.877726,30.170513],[-84.878881,30.165315],[-84.87949,30.16126],[-84.879362,30.154937],[-84.880476,30.144651],[-84.881794,30.143209],[-84.886356,30.140782],[-84.88846,30.138695],[-84.887449,30.136957],[-84.888735,30.134862],[-84.886862,30.135126],[-84.884211,30.137016],[-84.879972,30.137454],[-84.879224,30.139191],[-84.879584,30.141154],[-84.878463,30.142089],[-84.875926,30.142934],[-84.873456,30.145138],[-84.871495,30.145545],[-84.86799,30.145442],[-84.865195,30.14684],[-84.860415,30.152263],[-84.857903,30.153611],[-84.857656,30.152869],[-84.854101,30.155163],[-84.848255,30.153416],[-84.846136,30.155457],[-84.845649,30.157068],[-84.843176,30.159548],[-84.842385,30.161231],[-84.840576,30.162523],[-84.837634,30.163491],[-84.833762,30.165565],[-84.833009,30.167654],[-84.830472,30.167611],[-84.830662,30.166797],[-84.828188,30.166715],[-84.825543,30.169552],[-84.822385,30.171339],[-84.821335,30.173539],[-84.818551,30.177492],[-84.818987,30.179097],[-84.816412,30.183122],[-84.816412,30.185025],[-84.818912,30.187202],[-84.822177,30.186987],[-84.823665,30.18779],[-84.819,30.192816],[-84.814658,30.194361],[-84.813576,30.196071],[-84.811475,30.197016],[-84.812335,30.199276],[-84.811633,30.201398],[-84.811974,30.202938],[-84.815931,30.204186],[-84.816317,30.205346],[-84.816089,30.206644],[-84.814601,30.206699],[-84.814088,30.209899],[-84.814911,30.211785],[-84.81386,30.213912],[-84.810897,30.215677],[-84.811568,30.21714],[-84.81122,30.219152],[-84.818003,30.219223],[-84.821766,30.218235],[-84.823634,30.21679],[-84.828185,30.214839],[-84.832378,30.214792],[-84.834619,30.210142],[-84.836544,30.207026],[-84.839102,30.204185],[-84.842109,30.202649],[-84.849864,30.202808],[-84.852547,30.203486],[-84.855117,30.205117],[-84.859099,30.206527],[-84.861072,30.205724],[-84.863261,30.203925],[-84.865571,30.203688],[-84.867728,30.199519],[-84.868614,30.198612],[-84.873625,30.195926],[-84.876024,30.196269],[-84.879341,30.195825],[-84.881552,30.194039],[-84.881897,30.195328],[-84.880845,30.197327],[-84.880845,30.201438],[-84.880375,30.204895],[-84.880902,30.209746],[-84.88295,30.212979],[-84.883403,30.216954],[-84.883886,30.21784],[-84.885912,30.219322],[-84.889033,30.216099],[-84.889333,30.217466],[-84.892198,30.215564],[-84.893826,30.216445],[-84.891201,30.21924],[-84.892748,30.221575],[-84.893525,30.224781],[-84.894885,30.225963],[-84.893688,30.228003],[-84.894789,30.22929],[-84.895142,30.231137],[-84.893996,30.231615],[-84.893204,30.233363],[-84.896608,30.237824],[-84.896639,30.239913],[-84.895847,30.241623],[-84.898049,30.24456],[-84.900177,30.2451],[-84.901461,30.247646],[-84.900808,30.249174],[-84.903585,30.252797],[-84.901938,30.25592],[-84.901943,30.259675],[-84.898691,30.265063],[-84.897158,30.266272],[-84.896036,30.268696],[-84.897093,30.270753],[-84.897034,30.27253],[-84.899214,30.272828],[-84.898791,30.276951],[-84.899212,30.278508],[-84.902539,30.28238],[-84.903014,30.284487],[-84.903066,30.291449],[-84.906973,30.302123],[-84.905216,30.306996],[-84.901683,30.309609],[-84.900097,30.311538],[-84.898438,30.315707],[-84.896431,30.318478],[-84.890462,30.321088],[-84.887924,30.32599],[-84.884965,30.327959],[-84.882771,30.331486],[-84.879838,30.333546],[-84.875406,30.338858],[-84.87231,30.343137],[-84.870883,30.34458],[-84.870463,30.347132],[-84.86841,30.349583],[-84.870353,30.350071],[-84.870647,30.351678],[-84.86856,30.351603],[-84.865935,30.352412],[-84.86366,30.354189],[-84.863991,30.355624],[-84.863167,30.358022],[-84.863796,30.35977],[-84.866207,30.36287],[-84.864927,30.364668],[-84.867038,30.365294],[-84.869219,30.363935],[-84.871255,30.364479],[-84.871774,30.363484],[-84.874406,30.364918],[-84.876912,30.36486],[-84.879138,30.363871],[-84.879051,30.361056],[-84.880724,30.362228],[-84.882323,30.361426],[-84.884446,30.362004],[-84.888308,30.360653],[-84.890058,30.361402],[-84.892493,30.361315],[-84.893787,30.359457],[-84.896191,30.357885],[-84.898119,30.355835],[-84.899432,30.356105],[-84.900852,30.354863],[-84.901328,30.355517],[-84.902863,30.353989],[-84.904663,30.354281],[-84.90737,30.353259],[-84.909361,30.353689],[-84.913096,30.352634],[-84.91411,30.351755],[-84.915797,30.351661],[-84.916995,30.350441],[-84.918035,30.351123],[-84.919829,30.350211],[-84.921186,30.350926],[-84.923589,30.350497],[-84.923994,30.351839],[-84.925941,30.351476],[-84.925643,30.35075],[-84.92958,30.350861],[-84.931197,30.34947],[-84.931203,30.35041],[-84.933358,30.352329],[-84.936256,30.351571],[-84.941505,30.354842],[-84.942152,30.353963],[-84.944593,30.354568],[-84.945531,30.355997],[-84.94645,30.355689],[-84.946355,30.35779],[-84.947921,30.357839],[-84.948017,30.358884],[-84.95099,30.359769],[-84.950851,30.361204],[-84.952094,30.361743],[-84.949906,30.36419],[-84.948163,30.365652],[-84.946318,30.366279],[-84.94517,30.368402],[-84.94358,30.369067],[-84.943863,30.370008],[-84.943652,30.376058],[-84.929515,30.388155],[-84.930217,30.389962],[-84.928007,30.390932],[-84.924676,30.394429],[-84.922564,30.397717],[-84.920477,30.399498],[-84.916049,30.401235],[-84.915377,30.401078],[-84.915482,30.396544],[-84.912354,30.394036],[-84.913762,30.404099],[-84.915321,30.404236],[-84.915585,30.403297],[-84.917832,30.402679],[-84.918229,30.401511],[-84.91992,30.400892],[-84.922643,30.400778],[-84.922193,30.399724],[-84.924176,30.396838],[-84.926105,30.396448],[-84.92592,30.394822],[-84.926661,30.393928],[-84.928642,30.396746],[-84.930863,30.39111],[-84.937775,30.400506],[-84.938949,30.401512],[-84.932045,30.401517],[-84.932018,30.414363],[-84.927847,30.414038],[-84.923512,30.415323],[-84.916712,30.416204],[-84.918455,30.410887],[-84.915319,30.410835],[-84.915158,30.414955],[-84.913065,30.412919],[-84.911439,30.410475],[-84.906331,30.412638],[-84.90629,30.410461],[-84.907126,30.409],[-84.903717,30.408908],[-84.902131,30.408128],[-84.905172,30.403936],[-84.90705,30.39979],[-84.904196,30.397498],[-84.903827,30.396055],[-84.900045,30.396604],[-84.894134,30.39517],[-84.890112,30.395124],[-84.888899,30.395992],[-84.887991,30.400973],[-84.885808,30.404055],[-84.879619,30.409301],[-84.874316,30.411877],[-84.870943,30.412443],[-84.868178,30.413902],[-84.868959,30.415981],[-84.890356,30.41929],[-84.889765,30.423241],[-84.888587,30.424328],[-84.887596,30.427966],[-84.885254,30.43042],[-84.885113,30.435203],[-84.876497,30.435752],[-84.875969,30.437158],[-84.876779,30.440864],[-84.878465,30.442982],[-84.880698,30.44477],[-84.879968,30.445776],[-84.877327,30.447171],[-84.876128,30.446659],[-84.870227,30.446125],[-84.868159,30.447072],[-84.866916,30.448727],[-84.86335,30.449031],[-84.861383,30.450263],[-84.860387,30.449763],[-84.858725,30.451243],[-84.856459,30.450996],[-84.853692,30.452179],[-84.853135,30.453719],[-84.851764,30.455017],[-84.85,30.454654],[-84.849759,30.456864],[-84.848477,30.457173],[-84.847755,30.459444],[-84.845064,30.459576],[-84.845051,30.460736],[-84.843217,30.461308],[-84.843053,30.462842],[-84.841529,30.463222],[-84.842253,30.46403],[-84.840584,30.46452],[-84.838122,30.467231],[-84.838357,30.469216],[-84.834911,30.471003],[-84.834213,30.471866],[-84.831852,30.472757],[-84.829891,30.475325],[-84.828971,30.478393],[-84.82765,30.478893],[-84.82826,30.480125],[-84.826628,30.479773],[-84.825683,30.480713],[-84.825054,30.482841],[-84.825442,30.486343],[-84.826622,30.486442],[-84.826439,30.488812],[-84.824896,30.488757],[-84.823982,30.490681],[-84.822026,30.492122],[-84.821836,30.494266],[-84.822598,30.496146],[-84.821265,30.497559],[-84.821493,30.499874],[-84.819771,30.499997],[-84.820534,30.502587],[-84.819219,30.504473],[-84.818146,30.504176],[-84.816229,30.505193],[-84.816648,30.506309],[-84.813492,30.508206],[-84.813276,30.509405],[-84.812063,30.509542],[-84.811441,30.510801],[-84.809593,30.51123],[-84.80638,30.51084],[-84.805542,30.512461],[-84.803358,30.511939],[-84.801008,30.512544],[-84.800913,30.513407],[-84.799103,30.514721],[-84.794728,30.513323],[-84.794023,30.51483],[-84.792289,30.514555],[-84.790879,30.51649],[-84.788803,30.516247],[-84.787666,30.515236],[-84.786142,30.5154],[-84.783995,30.517088],[-84.781787,30.516732],[-84.781813,30.518693],[-84.815618,30.518491],[-84.815816,30.533093],[-84.882616,30.533094],[-84.883317,30.562194],[-84.883316,30.605589],[-84.912119,30.605793],[-84.932519,30.606393],[-84.934219,30.602693],[-84.935819,30.600293],[-84.938019,30.598593],[-84.944919,30.595493],[-84.945819,30.591394],[-84.945519,30.589494],[-84.944318,30.587494],[-84.943518,30.584794],[-84.944318,30.581694],[-84.946818,30.579894],[-84.951318,30.578594],[-84.955818,30.579394],[-84.958488,30.581018],[-84.962119,30.582494],[-84.963419,30.582194],[-84.965418,30.580194],[-84.965818,30.578994],[-84.965318,30.571594],[-84.964818,30.570394],[-84.961718,30.566494],[-84.961518,30.565094],[-84.962218,30.563594],[-84.967118,30.558894],[-84.970218,30.556594],[-84.973718,30.552994],[-84.975718,30.549894],[-84.978518,30.544995],[-84.982817,30.536695],[-84.984617,30.532695],[-84.986017,30.530395],[-84.990017,30.524795],[-84.992217,30.519595],[-84.992917,30.514695],[-84.992317,30.510395],[-84.991217,30.507095],[-84.991013,30.504295],[-84.991616,30.500595],[-84.99213,30.500195],[-84.993805,30.495555],[-84.994455,30.492091],[-84.994463,30.489076],[-84.995762,30.485992],[-84.99865,30.482847],[-85.003238,30.47881],[-85.004307,30.476211],[-85.00373,30.474679],[-84.999916,30.472418],[-84.997359,30.471873],[-84.994257,30.471833],[-84.990095,30.472396],[-84.988313,30.472118],[-84.987285,30.471132],[-84.986694,30.469583],[-84.986684,30.466552],[-84.987441,30.464901],[-84.988947,30.464018],[-84.991856,30.463073],[-84.995197,30.460389],[-84.999916,30.456199],[-85.001525,30.452895],[-85.001534,30.449781],[-85.000809,30.448071],[-84.999916,30.44701],[-84.997445,30.445698],[-84.993426,30.444932],[-84.990547,30.44536],[-84.986308,30.447374],[-84.982807,30.447632],[-84.981527,30.446935],[-84.980835,30.445458],[-84.981229,30.444129],[-84.983203,30.441837],[-84.989489,30.441073],[-84.996742,30.438313],[-85.004795,30.436345],[-85.010074,30.435817],[-85.015176,30.434361],[-85.01997,30.431824],[-85.024375,30.429109],[-85.027013,30.427154],[-85.031882,30.422648],[-85.032931,30.420299],[-85.032855,30.418322],[-85.031664,30.415507],[-85.03053,30.413911],[-85.029424,30.413008],[-85.027342,30.412453],[-85.024564,30.412512],[-85.018098,30.413598],[-85.015533,30.413172],[-85.014074,30.411939],[-85.013656,30.410648],[-85.014269,30.409018],[-85.015931,30.408],[-85.019787,30.406714],[-85.023345,30.405985],[-85.027303,30.405603],[-85.029003,30.404577],[-85.029885,30.403269],[-85.029968,30.401308],[-85.029298,30.399808],[-85.027413,30.398196],[-85.017164,30.396865],[-85.015566,30.396172],[-85.014572,30.394269],[-85.014607,30.387394],[-85.015248,30.38582],[-85.021219,30.381983],[-85.023392,30.379254],[-85.0251,30.37584],[-85.026242,30.375589],[-85.028035,30.376402],[-85.028667,30.37783],[-85.03124,30.378658],[-85.037239,30.375196],[-85.040199,30.372089],[-85.040718,30.370214],[-85.040179,30.367671],[-85.038574,30.365629],[-85.037294,30.365033],[-85.034493,30.364915],[-85.029021,30.36539],[-85.02648,30.364771],[-85.026183,30.364198],[-85.026007,30.363043],[-85.027898,30.360843],[-85.029196,30.360244],[-85.033063,30.359351],[-85.037263,30.358013],[-85.038969,30.357018],[-85.041417,30.354535],[-85.04277,30.352466],[-85.043909,30.349403],[-85.044288,30.347084],[-85.045492,30.343674],[-85.049171,30.340026],[-85.049709,30.339137],[-85.049744,30.336544],[-85.047592,30.333639],[-85.045533,30.331396],[-85.044271,30.328789],[-85.044381,30.326357],[-85.046522,30.322264],[-85.046552,30.320767],[-85.044881,30.318752],[-85.042181,30.31739],[-85.036954,30.315953],[-85.034262,30.314308],[-85.03429,30.312478],[-85.03656,30.310367],[-85.039109,30.309927],[-85.042882,30.310989],[-85.04596,30.312284],[-85.048148,30.312669],[-85.050232,30.311269],[-85.050464,30.31013],[-85.04717,30.304222],[-85.047448,30.303067],[-85.04893,30.302516],[-85.050877,30.302925],[-85.054993,30.304834],[-85.05692,30.303458],[-85.057253,30.301301],[-85.056009,30.297781],[-85.052777,30.287406],[-85.054203,30.286216],[-85.057735,30.286082],[-85.059282,30.285401],[-85.060022,30.284027],[-85.059732,30.280748],[-85.058071,30.277544],[-85.057996,30.27609],[-85.05907,30.274319],[-85.062404,30.272416],[-85.063951,30.270863],[-85.064079,30.269272],[-85.063374,30.267948],[-85.060112,30.265344],[-85.059092,30.263229],[-85.060165,30.26107],[-85.062416,30.260308],[-85.065779,30.259875],[-85.067742,30.258765],[-85.068612,30.25748],[-85.069027,30.254765],[-85.069264,30.250197],[-85.070031,30.249392],[-85.073118,30.249707],[-85.07436,30.251049],[-85.076768,30.250989],[-85.078711,30.248844],[-85.078074,30.247281],[-85.077913,30.244338],[-85.078461,30.242497],[-85.079741,30.241229],[-85.083259,30.238653],[-85.083429,30.237155],[-85.082613,30.234611],[-85.079653,30.231553],[-85.079847,30.229715],[-85.081336,30.228531],[-85.084704,30.22838],[-85.088531,30.229665],[-85.091455,30.229359],[-85.092076,30.227568],[-85.090591,30.223641],[-85.09091,30.222418],[-85.093098,30.220745],[-85.096578,30.220063],[-85.098487,30.220242],[-85.099512,30.219657],[-85.100253,30.217297],[-85.099544,30.213709],[-85.100319,30.212525],[-85.101812,30.211739],[-85.104864,30.212634],[-85.106299,30.214325],[-85.106076,30.216024],[-85.108486,30.218156],[-85.11137,30.218005],[-85.111997,30.2161],[-85.111569,30.214567],[-85.109471,30.21059],[-85.109917,30.209301],[-85.111385,30.208272],[-85.113374,30.208782],[-85.116468,30.210658],[-85.11823,30.210491],[-85.11892,30.209718],[-85.118882,30.20701],[-85.115314,30.202477],[-85.11566,30.199976]]]}},{"type":"Feature","properties":{"zcta5":"32328","AFFGEOID10":"8600000US32328","GEOID10":"32328","ALAND10":290740232,"AWATER10":370454791,"county_name":"Franklin","state_code":"FL","county_state":"Franklin County, FL","county_fips":"12037","risk_level_county":"Higher Risk (60–69% vaccinated)","mean_vaccination_rate_county":69.11,"risk_level_zcta":"Higher Risk (60–69% vaccinated)","mean_vaccination_rate_zips":60.47,"cases":7},"geometry":{"type":"MultiPolygon","coordinates":[[[[-85.013919,29.94409],[-85.01333,29.941231],[-85.012833,29.936495],[-85.01335,29.933207],[-85.01602,29.928207],[-85.017801,29.925401],[-85.019353,29.92206],[-85.01983,29.919887],[-85.01976,29.91741],[-85.019184,29.915493],[-85.016962,29.913327],[-85.014277,29.911977],[-85.011302,29.910927],[-85.009861,29.909413],[-85.009547,29.908007],[-85.010596,29.906246],[-85.013106,29.905224],[-85.014643,29.904048],[-85.015001,29.902205],[-85.014388,29.899313],[-85.013406,29.896941],[-85.013447,29.89411],[-85.014673,29.889866],[-85.015822,29.887006],[-85.015647,29.881534],[-85.014444,29.878148],[-85.012191,29.873167],[-85.013517,29.865678],[-85.015655,29.859097],[-85.016147,29.856469],[-85.017643,29.854686],[-85.019707,29.854123],[-85.024202,29.85473],[-85.026342,29.854217],[-85.02743,29.85306],[-85.028538,29.849971],[-85.030787,29.846123],[-85.032453,29.843851],[-85.03177,29.839225],[-85.031921,29.834991],[-85.032615,29.831428],[-85.032206,29.828995],[-85.03159,29.828008],[-85.029349,29.826357],[-85.023829,29.824598],[-85.021902,29.82354],[-85.015809,29.825355],[-85.01354,29.825288],[-85.010918,29.823929],[-85.010035,29.822024],[-85.010056,29.820342],[-85.011181,29.814955],[-85.010603,29.813752],[-85.007406,29.810865],[-85.006127,29.808647],[-85.00639,29.807063],[-85.008394,29.805846],[-85.010956,29.805639],[-85.013977,29.80477],[-85.014992,29.803308],[-85.014248,29.801952],[-85.011885,29.800976],[-85.010059,29.799621],[-85.00985,29.797459],[-85.01178,29.79674],[-85.01403,29.797634],[-85.017063,29.797809],[-85.018822,29.797001],[-85.019653,29.795111],[-85.019113,29.794155],[-85.015933,29.793671],[-85.013985,29.79252],[-85.013547,29.791202],[-85.01446,29.78916],[-85.017364,29.786909],[-85.018012,29.785647],[-85.018029,29.783616],[-85.017479,29.782545],[-85.01546,29.781396],[-85.011622,29.781914],[-85.010946,29.784791],[-85.009923,29.785307],[-85.006415,29.785366],[-85.004741,29.784901],[-85.004181,29.783274],[-85.006469,29.780319],[-85.006866,29.779271],[-85.004713,29.777797],[-85.000487,29.77745],[-84.998469,29.776159],[-84.996632,29.773593],[-84.993712,29.768422],[-84.990465,29.765449],[-84.988633,29.764339],[-84.985809,29.763658],[-84.983502,29.763555],[-84.980406,29.764436],[-84.978187,29.76454],[-84.975243,29.763967],[-84.962432,29.759761],[-84.957584,29.757226],[-84.951724,29.755372],[-84.949751,29.753656],[-84.947742,29.750512],[-84.9458165889192,29.7455221387219],[-84.93837,29.750211],[-84.934091,29.755774],[-84.927558,29.761198],[-84.920917,29.772901],[-84.916403,29.777001],[-84.91511,29.783303],[-84.909629,29.783706],[-84.90413,29.786279],[-84.893992,29.785176],[-84.889545,29.784943],[-84.888,29.784428],[-84.885148,29.784531],[-84.884197,29.785975],[-84.88182,29.787316],[-84.882533,29.788863],[-84.882177,29.790822],[-84.881701,29.793297],[-84.882058,29.796494],[-84.877661,29.798144],[-84.87362,29.79701],[-84.870649,29.797113],[-84.872551,29.7901],[-84.872313,29.787109],[-84.870887,29.783396],[-84.871125,29.781333],[-84.877111,29.772888],[-84.880024,29.769223],[-84.882768,29.768441],[-84.884918,29.767028],[-84.88618,29.76544],[-84.889033,29.759599],[-84.890066,29.755802],[-84.895839,29.744827],[-84.900101,29.739605],[-84.90015879196709,29.7393759980998],[-84.900688,29.737279],[-84.902142,29.73532],[-84.900375,29.733006],[-84.899443,29.731109],[-84.894893,29.728097],[-84.892818,29.725157],[-84.892794,29.723166],[-84.888031,29.722406],[-84.885428,29.725621],[-84.884765,29.729063],[-84.881777,29.733882],[-84.868271,29.742454],[-84.857864,29.746962],[-84.850446,29.749353],[-84.837168,29.755926],[-84.831325,29.757556],[-84.824197,29.758288],[-84.813854,29.762883],[-84.807895,29.766135],[-84.803464,29.767916],[-84.798409,29.768922],[-84.791438,29.773704],[-84.778247,29.780727],[-84.76752,29.785696],[-84.76175,29.788652],[-84.764703,29.789653],[-84.765905,29.788878],[-84.768583,29.789716],[-84.772055,29.789869],[-84.774345,29.792154],[-84.777147,29.79336],[-84.776147,29.794429],[-84.774684,29.800196],[-84.770133,29.803351],[-84.768019,29.805457],[-84.767999,29.813177],[-84.78428,29.81438],[-84.78903,29.8046],[-84.794523,29.803696],[-84.803562,29.800278],[-84.81396,29.795826],[-84.814474,29.795235],[-84.814364,29.791645],[-84.815005,29.789929],[-84.821002,29.78369],[-84.823117,29.783162],[-84.82865,29.7833],[-84.831559,29.781963],[-84.83232,29.77089],[-84.86109,29.77129],[-84.86126,29.774371],[-84.862668,29.774467],[-84.865373,29.775805],[-84.867861,29.776368],[-84.870427,29.777719],[-84.871405,29.779154],[-84.870359,29.779215],[-84.871011,29.784873],[-84.872179,29.787732],[-84.872325,29.790014],[-84.866866,29.790813],[-84.863475,29.791986],[-84.859189,29.792163],[-84.856713,29.795865],[-84.856209,29.797113],[-84.857495,29.798284],[-84.85925,29.802099],[-84.859522,29.805014],[-84.857555,29.805916],[-84.856579,29.807494],[-84.853931,29.809563],[-84.852135,29.81206],[-84.852514,29.813748],[-84.851922,29.81543],[-84.852704,29.815562],[-84.849817,29.818917],[-84.850655,29.820179],[-84.850578,29.821793],[-84.849426,29.823057],[-84.852577,29.823542],[-84.851258,29.827077],[-84.851277,29.828858],[-84.853352,29.829286],[-84.854072,29.830623],[-84.86069,29.82866],[-84.86253,29.8286],[-84.88898,29.82941],[-84.8937,29.82877],[-84.89847,29.82685],[-84.90286,29.823625],[-84.903708,29.823456],[-84.903562,29.825461],[-84.905932,29.826966],[-84.909442,29.82697],[-84.908294,29.828196],[-84.909375,29.829209],[-84.911107,29.828786],[-84.911364,29.827746],[-84.912811,29.828143],[-84.913202,29.829263],[-84.915818,29.829889],[-84.914641,29.832479],[-84.916321,29.831879],[-84.916211,29.83282],[-84.918313,29.832774],[-84.91942,29.83124],[-84.92558,29.83684],[-84.92773,29.83795],[-84.93329,29.83772],[-84.92914,29.83559],[-84.91259,29.82406],[-84.911439,29.823411],[-84.910574,29.824696],[-84.90936,29.82273],[-84.90499,29.82295],[-84.904968,29.820574],[-84.906467,29.81781],[-84.90886,29.81599],[-84.90877,29.81448],[-84.90648,29.81036],[-84.9063,29.8092],[-84.90752,29.80737],[-84.905346,29.807044],[-84.900983,29.805135],[-84.896175,29.801064],[-84.893525,29.79824],[-84.893456,29.796547],[-84.895793,29.794678],[-84.898212,29.793541],[-84.897914,29.795468],[-84.898871,29.796294],[-84.906317,29.798297],[-84.910345,29.799631],[-84.914078,29.802593],[-84.915669,29.805151],[-84.918131,29.806456],[-84.92012,29.808149],[-84.923561,29.809966],[-84.925414,29.80957],[-84.927934,29.812644],[-84.93103,29.81407],[-84.934756,29.815205],[-84.934085,29.816069],[-84.936055,29.817523],[-84.936378,29.821281],[-84.939024,29.822159],[-84.939075,29.824324],[-84.937911,29.826699],[-84.938173,29.830137],[-84.940153,29.834907],[-84.942589,29.837888],[-84.94237,29.83982],[-84.96259,29.84494],[-84.96488,29.841643],[-84.965632,29.839674],[-84.962346,29.838373],[-84.955749,29.833681],[-84.953341,29.833374],[-84.954338,29.830639],[-84.952978,29.828606],[-84.951735,29.824289],[-84.950658,29.82411],[-84.948563,29.819348],[-84.944964,29.816434],[-84.946928,29.815067],[-84.950089,29.814802],[-84.956213,29.813539],[-84.957707,29.812456],[-84.957996,29.810956],[-84.95903,29.81082],[-84.960104,29.812055],[-84.963729,29.812864],[-84.964334,29.814022],[-84.96471,29.818057],[-84.965784,29.819528],[-84.966954,29.818914],[-84.968137,29.819919],[-84.968505,29.822148],[-84.969922,29.82301],[-84.970292,29.82405],[-84.96965,29.826384],[-84.970383,29.827255],[-84.966921,29.8424],[-84.96676,29.845427],[-84.97059,29.84766],[-84.968083,29.851593],[-84.969113,29.855033],[-84.970547,29.854131],[-84.97305,29.853877],[-84.97682,29.88593],[-84.978424,29.886481],[-84.979366,29.889275],[-84.981859,29.892093],[-84.982213,29.893358],[-84.981464,29.896625],[-84.984313,29.902639],[-84.984379,29.905218],[-84.98213,29.90631],[-84.9814,29.91287],[-84.98533,29.91413],[-84.988632,29.912591],[-84.990622,29.916194],[-84.992159,29.917739],[-84.996486,29.919128],[-84.998185,29.920602],[-84.998522,29.922324],[-84.999646,29.923779],[-85.002258,29.925362],[-85.003292,29.928554],[-85.004074,29.928942],[-85.00224,29.930433],[-84.998985,29.931069],[-84.998108,29.932449],[-84.997636,29.935413],[-84.995092,29.935882],[-84.99071,29.935928],[-84.987704,29.93456],[-84.986316,29.934807],[-84.979294,29.933231],[-84.978089,29.934194],[-84.977875,29.935772],[-84.976844,29.935828],[-84.97713,29.92594],[-84.98279,29.92576],[-84.98052,29.9249],[-84.9776,29.92236],[-84.97739,29.91739],[-84.976909,29.913806],[-84.977301,29.897891],[-84.977589,29.895519],[-84.976233,29.888129],[-84.974301,29.8874],[-84.972965,29.885928],[-84.971551,29.885616],[-84.969543,29.883206],[-84.96811,29.88342],[-84.96513,29.88208],[-84.96055,29.88142],[-84.95326,29.88279],[-84.95061,29.88309],[-84.94809,29.88281],[-84.9422,29.88302],[-84.93656,29.88435],[-84.93416,29.88329],[-84.93147,29.88438],[-84.93148,29.89127],[-84.97172,29.89066],[-84.97383,29.89767],[-84.93152,29.8984],[-84.93156,29.91032],[-84.92893,29.91164],[-84.92614,29.91117],[-84.92061,29.90879],[-84.91363,29.90756],[-84.91251,29.90776],[-84.90217,29.911608],[-84.893882,29.91509],[-84.88418,29.91672],[-84.87201,29.90923],[-84.85889,29.89858],[-84.86094,29.89587],[-84.85342,29.89578],[-84.85083,29.9119],[-84.84012,29.91197],[-84.83683,29.93158],[-84.90729,29.93066],[-84.90939,29.93087],[-84.92347,29.93112],[-84.92273,29.98872],[-84.9317,29.98878],[-84.93411,29.98862],[-84.934943,29.991633],[-84.936146,29.992791],[-84.938443,29.999257],[-84.938537,30.002583],[-84.937598,30.004406],[-84.939411,30.007128],[-84.940866,30.007826],[-84.942246,30.010448],[-84.941141,30.011834],[-84.941116,30.013436],[-84.978967,30.013794],[-84.98188,30.01294],[-84.98085,30.01207],[-84.98279,30.011954],[-84.982584,30.009558],[-84.980456,30.008634],[-84.981426,30.005841],[-84.985546,30.003735],[-84.984882,30.000965],[-84.983463,30.000095],[-84.984081,29.998756],[-84.98363,29.99485],[-84.9838,29.99326],[-84.982045,29.98501],[-84.984171,29.984331],[-84.98484,29.983385],[-84.98559,29.979624],[-84.985235,29.978029],[-84.986063,29.977479],[-84.985392,29.975615],[-84.986276,29.973905],[-84.987501,29.973569],[-84.992441,29.974557],[-84.996943,29.960535],[-85.000914,29.958791],[-85.004232,29.955966],[-85.00451,29.954536],[-85.007606,29.952393],[-85.011774,29.95223],[-85.013953,29.951137],[-85.015594,29.951467],[-85.015385,29.950108],[-85.01692,29.951352],[-85.018492,29.953629],[-85.020018,29.957056],[-85.020552,29.962484],[-85.023774,29.969531],[-85.024377,29.972378],[-85.025439,29.971399],[-85.023369,29.962164],[-85.021551,29.958612],[-85.019723,29.95348],[-85.016139,29.949046],[-85.013919,29.94409]]],[[[-85.097628501874,29.624414847403198],[-85.097726,29.624028],[-85.09539,29.621169],[-85.084231,29.615163],[-85.069453,29.605282],[-85.060995,29.598536],[-85.056039,29.594365],[-85.050573,29.590231],[-85.045074,29.586991],[-85.036219,29.588919],[-84.979982,29.606455],[-84.960849,29.612757],[-84.956452,29.613997],[-84.937825,29.623442],[-84.884632,29.652248],[-84.870055,29.658723],[-84.853829,29.66472],[-84.82963,29.672172],[-84.820579,29.673895],[-84.799129,29.681565],[-84.776954,29.692191],[-84.765117,29.699724],[-84.745882,29.716383],[-84.719118,29.739098],[-84.699413,29.758151],[-84.692619,29.763039],[-84.692027,29.764924],[-84.693408,29.768864],[-84.694885,29.770915],[-84.696668,29.770709],[-84.697557,29.767735],[-84.700023,29.764213],[-84.702531,29.763955],[-84.705803,29.760586],[-84.707508,29.75409],[-84.711067,29.749998],[-84.716695,29.744707],[-84.720641,29.745221],[-84.723473,29.743435],[-84.723957,29.739394],[-84.725767,29.736089],[-84.739872,29.726749],[-84.745725,29.726252],[-84.751104,29.721776],[-84.755768,29.720031],[-84.761199,29.716222],[-84.767022,29.711413],[-84.772471,29.709826],[-84.777208,29.707398],[-84.779054,29.702549],[-84.777278,29.695864],[-84.782212,29.692606],[-84.786948,29.695006],[-84.789711,29.698435],[-84.794644,29.70272],[-84.798587,29.702074],[-84.798591,29.697749],[-84.797802,29.694835],[-84.793855,29.694664],[-84.791684,29.692949],[-84.790105,29.691749],[-84.7905,29.689521],[-84.795236,29.687121],[-84.797604,29.686949],[-84.802933,29.683692],[-84.808281,29.684337],[-84.81308,29.681214],[-84.823388,29.678712],[-84.834634,29.675857],[-84.853057,29.671861],[-84.861429,29.672771],[-84.863122,29.669804],[-84.867645,29.670954],[-84.867845,29.666824],[-84.872924,29.664315],[-84.879488,29.663663],[-84.883387,29.660091],[-84.885859,29.656581],[-84.889905,29.656728],[-84.893341,29.656467],[-84.898651,29.653729],[-84.90117,29.650864],[-84.903815,29.648737],[-84.907233,29.649315],[-84.913182,29.649894],[-84.920333,29.648638],[-84.92404,29.646889],[-84.925842,29.644949],[-84.926468,29.640822],[-84.928047,29.638249],[-84.932592,29.637232],[-84.943045,29.627271],[-84.948404,29.622598],[-84.955854,29.620018],[-84.959109,29.617609],[-84.963111,29.616454],[-84.969121,29.61344],[-84.981498,29.608642],[-84.987558,29.607633],[-84.997921,29.604688],[-85.00274,29.605053],[-85.007926,29.60461],[-85.011363,29.603611],[-85.013376,29.604277],[-85.014679,29.603252],[-85.014327,29.599635],[-85.015745,29.598174],[-85.020861,29.598434],[-85.027047,29.596726],[-85.038497,29.599552],[-85.048767,29.603154],[-85.052392,29.603281],[-85.069018,29.609441],[-85.073909,29.612844],[-85.078276,29.617459],[-85.083946,29.61938],[-85.089599,29.624439],[-85.091724,29.626469],[-85.094882,29.627757],[-85.097168,29.626242],[-85.097628501874,29.624414847403198]]]]}},{"type":"Feature","properties":{"zcta5":"32322","AFFGEOID10":"8600000US32322","GEOID10":"32322","ALAND10":186087637,"AWATER10":99681360,"county_name":"Franklin","state_code":"FL","county_state":"Franklin County, FL","county_fips":"12037","risk_level_county":"Higher Risk (60–69% vaccinated)","mean_vaccination_rate_county":69.11,"risk_level_zcta":"Very High Risk (<60% vaccinated)","mean_vaccination_rate_zips":57.17,"cases":7},"geometry":{"type":"MultiPolygon","coordinates":[[[[-84.674683,29.786234],[-84.673919,29.783212],[-84.672068,29.77958],[-84.667907,29.777897],[-84.659228,29.779264],[-84.644854,29.78319],[-84.623741,29.788498],[-84.610271,29.794844],[-84.582819,29.805982],[-84.579406,29.807853],[-84.574081,29.814004],[-84.572124,29.818665],[-84.571518,29.824167],[-84.57248,29.828459],[-84.573975,29.830572],[-84.574976,29.828872],[-84.576521,29.827841],[-84.580323,29.826913],[-84.581106,29.824379],[-84.582104,29.822927],[-84.58625,29.81959],[-84.585552,29.816809],[-84.588523,29.815056],[-84.591257,29.815881],[-84.594849,29.814777],[-84.60306,29.811648],[-84.604736,29.810293],[-84.607581,29.805173],[-84.611221,29.800412],[-84.617164,29.795669],[-84.624532,29.7901],[-84.62988,29.788656],[-84.634871,29.788038],[-84.641764,29.789585],[-84.644089,29.789671],[-84.648538,29.783706],[-84.656738,29.781746],[-84.661928,29.781719],[-84.671809,29.786557],[-84.674683,29.786234]]],[[[-84.54445,30.01103],[-84.582946,30.010834],[-84.58034,30.00985],[-84.57806,30.01006],[-84.574761,30.00869],[-84.573602,30.007461],[-84.572512,30.006071],[-84.572123,30.005233],[-84.570827,30.003958],[-84.573008,30.000552],[-84.575734,29.997915],[-84.57624,29.995655],[-84.576865,29.994129],[-84.58811,29.99611],[-84.59014,29.99526],[-84.59343,29.99548],[-84.59282,29.98772],[-84.59136,29.98358],[-84.5924,29.97828],[-84.592809,29.977581],[-84.592203,29.977064],[-84.590586,29.976393],[-84.588717,29.976124],[-84.586904,29.975179],[-84.585755,29.974228],[-84.584883,29.972914],[-84.58559,29.97193],[-84.58585,29.96928],[-84.5865,29.96746],[-84.58774,29.96528],[-84.5895,29.96175],[-84.58947,29.9597],[-84.591518,29.957071],[-84.593537,29.95654],[-84.594989,29.955539],[-84.59667,29.953977],[-84.59899,29.95446],[-84.61327,29.95269],[-84.62232,29.95338],[-84.60646,29.98513],[-84.60602,29.98777],[-84.60584,29.99666],[-84.61861,29.99661],[-84.62135,29.9992],[-84.6231,30.00009],[-84.62477,30.00045],[-84.63351,30.00189],[-84.63535,30.00256],[-84.63556,29.98938],[-84.64343,29.98936],[-84.64581,29.94276],[-84.646942,29.939837],[-84.644982,29.935616],[-84.644746,29.934439],[-84.646992,29.934727],[-84.64952,29.93168],[-84.65008,29.93041],[-84.65044,29.92693],[-84.64758,29.92122],[-84.64752,29.91875],[-84.64928,29.91677],[-84.65054,29.91484],[-84.65182,29.91068],[-84.653019,29.907776],[-84.65384,29.907755],[-84.655733,29.906282],[-84.657463,29.906249],[-84.658504,29.905529],[-84.659922,29.90576],[-84.66592,29.89324],[-84.67215,29.88917],[-84.67651,29.88337],[-84.677983,29.882566],[-84.675919,29.880347],[-84.675619,29.878042],[-84.676089,29.877419],[-84.67849,29.875275],[-84.68102,29.872608],[-84.683454,29.872135],[-84.685731,29.872305],[-84.687171,29.871862],[-84.688925,29.870409],[-84.689793,29.870477],[-84.695092,29.875199],[-84.696448,29.875719],[-84.695765,29.878098],[-84.69933,29.87759],[-84.70391,29.87861],[-84.70704,29.88108],[-84.71473,29.88156],[-84.71782,29.88393],[-84.72051,29.88417],[-84.7245,29.88625],[-84.72641,29.88494],[-84.7285,29.88409],[-84.73243,29.8832],[-84.73526,29.88442],[-84.73762,29.880379],[-84.7361,29.879946],[-84.734886,29.880152],[-84.734852,29.882131],[-84.73182,29.882472],[-84.730079,29.882901],[-84.728745,29.882374],[-84.725593,29.882039],[-84.723918,29.881293],[-84.722679,29.879513],[-84.721656,29.879438],[-84.718901,29.880584],[-84.716873,29.881592],[-84.71624,29.881509],[-84.715034,29.880217],[-84.714894,29.879376],[-84.712636,29.876945],[-84.712057,29.875773],[-84.711792,29.874214],[-84.71106,29.873679],[-84.708923,29.874304],[-84.707878,29.874288],[-84.706528,29.873802],[-84.705704,29.872856],[-84.705264,29.870516],[-84.704467,29.869675],[-84.704269,29.871681],[-84.703259,29.870969],[-84.70388,29.870312],[-84.70278,29.870646],[-84.701576,29.870516],[-84.700663,29.870004],[-84.700003,29.869254],[-84.699688,29.868185],[-84.699974,29.865852],[-84.698621,29.865564],[-84.698001,29.866835],[-84.697982,29.867802],[-84.698425,29.87018],[-84.698257,29.871202],[-84.697453,29.872643],[-84.696011,29.873601],[-84.694679,29.873314],[-84.693999,29.87239],[-84.693695,29.869625],[-84.694176,29.867722],[-84.693652,29.867226],[-84.692152,29.867231],[-84.69265,29.868048],[-84.691612,29.868317],[-84.690039,29.867228],[-84.687321,29.865824],[-84.686209,29.864995],[-84.684768,29.86438],[-84.683051,29.864222],[-84.681969,29.864649],[-84.6847,29.865292],[-84.686447,29.865683],[-84.688049,29.866413],[-84.688056,29.867211],[-84.68663,29.867184],[-84.685516,29.86638],[-84.683592,29.865869],[-84.683289,29.866303],[-84.682249,29.866611],[-84.681272,29.865675],[-84.681921,29.864071],[-84.683662,29.863734],[-84.685303,29.864022],[-84.686701,29.86464],[-84.688209,29.865833],[-84.689838,29.866628],[-84.692401,29.866699],[-84.69385,29.866927],[-84.694688,29.868208],[-84.694413,29.869567],[-84.694399,29.872271],[-84.695685,29.873199],[-84.696646,29.872864],[-84.697651,29.871114],[-84.697724,29.869763],[-84.697508,29.867569],[-84.697753,29.865918],[-84.698463,29.865155],[-84.699358,29.864955],[-84.700201,29.865314],[-84.700598,29.866123],[-84.700193,29.866935],[-84.700153,29.868667],[-84.700734,29.869652],[-84.702193,29.870307],[-84.704195,29.869389],[-84.705601,29.870149],[-84.706083,29.872666],[-84.707186,29.873785],[-84.708876,29.873864],[-84.710846,29.873406],[-84.711911,29.873706],[-84.712455,29.87462],[-84.712906,29.87664],[-84.714783,29.878613],[-84.714986,29.879158],[-84.715683,29.880816],[-84.716408,29.881199],[-84.717422,29.881132],[-84.719777,29.879828],[-84.721296,29.879238],[-84.7229,29.879305],[-84.723816,29.880846],[-84.725841,29.881744],[-84.728806,29.88216],[-84.730141,29.882518],[-84.734195,29.881977],[-84.734856,29.879887],[-84.736183,29.879713],[-84.737252,29.879927],[-84.738182,29.880661],[-84.738419,29.882235],[-84.737663,29.883957],[-84.738548,29.885262],[-84.739022,29.88666],[-84.738745,29.888125],[-84.738976,29.889612],[-84.738228,29.890953],[-84.737206,29.890047],[-84.73613,29.890158],[-84.734543,29.892504],[-84.733109,29.892916],[-84.73127,29.894009],[-84.730965,29.895033],[-84.731768,29.896112],[-84.733406,29.895992],[-84.733749,29.897747],[-84.732361,29.899103],[-84.733833,29.900045],[-84.733635,29.90102],[-84.731284,29.901128],[-84.730125,29.902622],[-84.728271,29.902554],[-84.727631,29.90317],[-84.727699,29.904406],[-84.729027,29.904991],[-84.728817,29.906881],[-84.727448,29.909067],[-84.728218,29.910393],[-84.72921,29.910469],[-84.730392,29.911472],[-84.730701,29.91364],[-84.729805,29.914511],[-84.730141,29.915747],[-84.729973,29.917315],[-84.730354,29.917879],[-84.730144,29.919275],[-84.730854,29.921262],[-84.730929,29.923611],[-84.731682,29.924736],[-84.732452,29.92708],[-84.732468,29.928398],[-84.73447,29.929145],[-84.736183,29.930933],[-84.735863,29.931955],[-84.736633,29.932749],[-84.735877,29.934592],[-84.734949,29.935309],[-84.734673,29.936514],[-84.733673,29.936459],[-84.733444,29.936674],[-84.733337,29.937144],[-84.733528,29.937614],[-84.733376,29.938276],[-84.731316,29.939894],[-84.730606,29.94199],[-84.729583,29.942884],[-84.728401,29.944363],[-84.728668,29.945807],[-84.729507,29.946131],[-84.728188,29.947067],[-84.72998,29.948021],[-84.729774,29.948378],[-84.729362,29.949171],[-84.72892,29.950035],[-84.728622,29.950218],[-84.728502,29.950132],[-84.728395,29.94985],[-84.728194,29.949526],[-84.727824,29.949415],[-84.727442,29.949546],[-84.726679,29.950167],[-84.726259,29.950406],[-84.725883,29.950508],[-84.725723,29.950411],[-84.725731,29.95018],[-84.725853,29.950022],[-84.725927,29.94981],[-84.725754,29.949615],[-84.725464,29.949615],[-84.724571,29.95002],[-84.723001,29.949933],[-84.721599,29.950821],[-84.721329,29.951698],[-84.719402,29.952881],[-84.718552,29.954781],[-84.718647,29.955088],[-84.718879,29.955705],[-84.719139,29.956308],[-84.719284,29.957102],[-84.719566,29.957592],[-84.719646,29.959199],[-84.719803,29.958004],[-84.718735,29.954485],[-84.719414,29.953033],[-84.721412,29.951809],[-84.721786,29.950899],[-84.723137,29.950014],[-84.724541,29.950201],[-84.724892,29.950064],[-84.72509,29.949907],[-84.725575,29.949738],[-84.725822,29.949842],[-84.725838,29.949953],[-84.725677,29.950153],[-84.725629,29.95036],[-84.725662,29.950607],[-84.726366,29.950511],[-84.727725,29.949596],[-84.727881,29.949562],[-84.728065,29.949638],[-84.728264,29.949974],[-84.72837,29.950224],[-84.728577,29.950386],[-84.729026,29.950257],[-84.729612,29.948987],[-84.730174,29.948014],[-84.729555,29.947397],[-84.728633,29.9472],[-84.72979,29.946309],[-84.728598,29.945298],[-84.728506,29.944505],[-84.729472,29.943228],[-84.730559,29.942246],[-84.731422,29.939928],[-84.733534,29.938283],[-84.733682,29.937857],[-84.733559,29.936678],[-84.734455,29.936959],[-84.734663,29.937745],[-84.735566,29.938679],[-84.736526,29.939185],[-84.73729,29.93665],[-84.73725,29.93513],[-84.7379,29.93362],[-84.73786,29.93254],[-84.73726,29.93059],[-84.73531,29.92826],[-84.7337,29.92555],[-84.73341,29.92466],[-84.73248,29.92361],[-84.73259,29.9229],[-84.73339,29.92189],[-84.73414,29.9184],[-84.73376,29.91652],[-84.73275,29.91585],[-84.73221,29.91493],[-84.73212,29.91367],[-84.73134,29.91205],[-84.73185,29.90643],[-84.73282,29.90504],[-84.73357,29.90217],[-84.73515,29.89954],[-84.75317,29.89935],[-84.75517,29.89092],[-84.75222,29.88918],[-84.74854,29.88755],[-84.74622,29.88555],[-84.74573,29.88485],[-84.7452,29.88322],[-84.74333,29.88176],[-84.744232,29.882065],[-84.748122,29.882082],[-84.749063,29.8823],[-84.750301,29.881773],[-84.75214,29.88051],[-84.7495,29.87265],[-84.7552,29.86631],[-84.75396,29.86525],[-84.75071,29.86166],[-84.745319,29.85813],[-84.74384,29.85729],[-84.72392,29.85106],[-84.73361,29.84236],[-84.73927,29.83316],[-84.74064,29.83356],[-84.75496,29.83589],[-84.75465,29.82644],[-84.75603,29.82024],[-84.76215,29.8208],[-84.7653,29.82073],[-84.78184,29.8216],[-84.78428,29.81438],[-84.767999,29.813177],[-84.768019,29.805457],[-84.770133,29.803351],[-84.774684,29.800196],[-84.776147,29.794429],[-84.777147,29.79336],[-84.774345,29.792154],[-84.772055,29.789869],[-84.768583,29.789716],[-84.765905,29.788878],[-84.764703,29.789653],[-84.76175,29.788652],[-84.758574,29.787897],[-84.755595,29.78854],[-84.750359,29.792344],[-84.74483436515959,29.7972456760158],[-84.744834,29.797246],[-84.736593,29.803556],[-84.73432,29.805132],[-84.730327,29.8069],[-84.727805,29.807016],[-84.717187,29.813563],[-84.706839,29.821202],[-84.701814,29.824333],[-84.692053,29.829059],[-84.683975,29.830748],[-84.674423,29.830147],[-84.6743969879121,29.831051095811898],[-84.674386,29.831433],[-84.67505,29.833881],[-84.671812,29.834746],[-84.668284,29.837302],[-84.666281,29.836831],[-84.66461,29.834741],[-84.662555,29.837086],[-84.661102,29.837122],[-84.65645,29.834277],[-84.654595,29.835945],[-84.653767,29.839799],[-84.652697,29.84351],[-84.647958,29.847104],[-84.64336,29.849863],[-84.636416,29.85289],[-84.633683,29.856291],[-84.62491,29.860423],[-84.613154,29.867984],[-84.603303,29.876117],[-84.593699,29.880956],[-84.57744,29.887828],[-84.568073,29.891472],[-84.555489,29.898749],[-84.535873,29.910092],[-84.528639,29.912342],[-84.521814,29.914078],[-84.515416,29.915361],[-84.51306,29.915228],[-84.5115906302851,29.915842362884597],[-84.512035,29.917338],[-84.51539,29.91675],[-84.51893,29.91779],[-84.52025,29.91979],[-84.52042,29.92337],[-84.551,29.92366],[-84.56635,29.91087],[-84.5706,29.90614],[-84.57503,29.90121],[-84.57462,29.89785],[-84.57315,29.89703],[-84.57326,29.89575],[-84.59074,29.88797],[-84.58877,29.88414],[-84.59653,29.8806],[-84.59886,29.88322],[-84.60417,29.87931],[-84.60541,29.87991],[-84.60646,29.87869],[-84.611128,29.875383],[-84.618686,29.869145],[-84.63068,29.87396],[-84.63212,29.87501],[-84.63495,29.88024],[-84.63648,29.88134],[-84.64272,29.8837],[-84.64529,29.88565],[-84.64062,29.90311],[-84.63932,29.90705],[-84.6367,29.91134],[-84.634153,29.914057],[-84.63409,29.90992],[-84.61693,29.90973],[-84.61727,29.90825],[-84.61569,29.91047],[-84.61447,29.91077],[-84.61012,29.9105],[-84.60889,29.90978],[-84.60834,29.90674],[-84.60632,29.90615],[-84.60425,29.9069],[-84.59894,29.90424],[-84.59588,29.90358],[-84.5913,29.90395],[-84.587576,29.907397],[-84.584997,29.90931],[-84.58293,29.90523],[-84.57884,29.90786],[-84.57629,29.90802],[-84.57292,29.90968],[-84.57378,29.91126],[-84.57558,29.91238],[-84.57679,29.91529],[-84.57673,29.91673],[-84.57547,29.91935],[-84.57535,29.92123],[-84.5724,29.93034],[-84.57268,29.93288],[-84.57222,29.93598],[-84.5693,29.93973],[-84.56819,29.93991],[-84.56716,29.94242],[-84.56569,29.943],[-84.56386,29.94514],[-84.5621,29.94813],[-84.5627,29.9522],[-84.56003,29.95444],[-84.55703,29.95611],[-84.56024,29.957934],[-84.562811,29.960764],[-84.564701,29.961639],[-84.563919,29.967479],[-84.561924,29.967485],[-84.56035,29.96824],[-84.557953,29.967367],[-84.554929,29.967449],[-84.548911,29.969507],[-84.54946,29.9631],[-84.54372,29.96816],[-84.54091,29.9689],[-84.53867,29.96817],[-84.537,29.96653],[-84.53722,29.96402],[-84.53657,29.96289],[-84.53234,29.96156],[-84.53062,29.96218],[-84.5278,29.96216],[-84.52595,29.96611],[-84.52634,29.97342],[-84.52511,29.97345],[-84.49874,29.97261],[-84.502021,29.987324],[-84.508287,29.989126],[-84.511918,29.9894],[-84.51413,29.989076],[-84.514591,29.987592],[-84.513466,29.985149],[-84.511955,29.98338],[-84.512102,29.982039],[-84.514093,29.980477],[-84.515826,29.980268],[-84.521743,29.98075],[-84.524969,29.982495],[-84.525393,29.983709],[-84.524692,29.986653],[-84.522702,29.989889],[-84.519807,29.992944],[-84.51896,29.995129],[-84.520324,29.99877],[-84.525007,30.005221],[-84.528122,30.00743],[-84.531218,30.007366],[-84.538126,30.004546],[-84.54124,30.002395],[-84.542419,30.002445],[-84.544631,30.004313],[-84.548208,30.006192],[-84.548871,30.007087],[-84.548411,30.008983],[-84.54445,30.01103]]]]}},{"type":"Feature","properties":{"zcta5":"32320","AFFGEOID10":"8600000US32320","GEOID10":"32320","ALAND10":103354868,"AWATER10":49448349,"county_name":"Franklin","state_code":"FL","county_state":"Franklin County, FL","county_fips":"12037","risk_level_county":"Higher Risk (60–69% vaccinated)","mean_vaccination_rate_county":69.11,"risk_level_zcta":"Higher Risk (60–69% vaccinated)","mean_vaccination_rate_zips":65.4,"cases":7},"geometry":{"type":"Polygon","coordinates":[[[-85.168427,29.736574],[-85.206226,29.711188],[-85.218525,29.693249],[-85.219822,29.690247],[-85.222414,29.68958],[-85.22268,29.687697],[-85.2197194287925,29.6879732803833],[-85.219125,29.689006],[-85.213402,29.691235],[-85.205508,29.692435],[-85.196628,29.696378],[-85.187945,29.699635],[-85.177284,29.700193],[-85.172295,29.703497],[-85.161523,29.705721],[-85.153238,29.708231],[-85.121473,29.715854],[-85.101682,29.718748],[-85.072123,29.719027],[-85.05332,29.715533],[-85.048066,29.715186],[-85.040217,29.712859],[-85.037194,29.711098],[-85.035859,29.708618],[-85.032621,29.708677],[-85.029063,29.711274],[-85.025146,29.712141],[-85.013851,29.709519],[-85.005869,29.711629],[-85.004926,29.713583],[-85.0015727713937,29.7137562910735],[-84.997689,29.713957],[-84.9944634770458,29.714688847468],[-84.993264,29.714961],[-84.990667116925,29.715958858056396],[-84.986698,29.717484],[-84.981646,29.720666],[-84.9793556743125,29.720933911858697],[-84.97919,29.721746],[-84.979186,29.723955],[-84.980603,29.723654],[-84.980675,29.724932],[-84.979234,29.725213],[-84.979322,29.72622],[-84.979835,29.729249],[-84.982755,29.731728],[-84.98592,29.731331],[-84.989528,29.733116],[-84.994634,29.734912],[-84.997387,29.736694],[-85.001271,29.73836],[-85.003482,29.739618],[-84.998561,29.737671],[-84.994332,29.735402],[-84.995656,29.737969],[-84.998222,29.740998],[-84.996911,29.74002],[-84.994345,29.736958],[-84.993348,29.734726],[-84.988937,29.733121],[-84.985988,29.731742],[-84.985553,29.73199],[-84.988805,29.734551],[-84.990822,29.735139],[-84.998324,29.742378],[-85.004429,29.745163],[-85.004431,29.746405],[-85.007717,29.748309],[-85.009444,29.750195],[-85.011607,29.753448],[-85.013166,29.755048],[-85.0184,29.759154],[-85.025714,29.763791],[-85.032946,29.765146],[-85.039767,29.767715],[-85.042973,29.770069],[-85.046342,29.775491],[-85.048993,29.777862],[-85.050396,29.77864],[-85.054186,29.780811],[-85.060675,29.786296],[-85.062696,29.786968],[-85.064765,29.787026],[-85.066624,29.786421],[-85.06867,29.784467],[-85.069564,29.781727],[-85.070532,29.774722],[-85.072638,29.770811],[-85.076484,29.768882],[-85.079193,29.768617],[-85.082377,29.769645],[-85.090784,29.772761],[-85.104127,29.774181],[-85.10542,29.774553],[-85.109401,29.776793],[-85.168427,29.736574]]]}},{"type":"Feature","properties":{"zcta5":"32346","AFFGEOID10":"8600000US32346","GEOID10":"32346","ALAND10":85604598,"AWATER10":57087320,"county_name":"Franklin","state_code":"FL","county_state":"Franklin County, FL","county_fips":"12037","risk_level_county":"Higher Risk (60–69% vaccinated)","mean_vaccination_rate_county":69.11,"risk_level_zcta":"Higher Risk (60–69% vaccinated)","mean_vaccination_rate_zips":65.78,"cases":7},"geometry":{"type":"MultiPolygon","coordinates":[[[[-84.370164,29.897559],[-84.371893,29.896072],[-84.36894,29.895727],[-84.371754,29.895803],[-84.373181,29.89666],[-84.373137,29.896885],[-84.382958,29.89867],[-84.384598,29.899264],[-84.386786,29.901085],[-84.387632,29.9002],[-84.385003,29.898176],[-84.385193,29.896758],[-84.385186,29.898176],[-84.387841,29.899986],[-84.390359,29.899091],[-84.392542,29.899147],[-84.399046,29.901128],[-84.404351,29.902119],[-84.409626,29.903516],[-84.414415,29.903484],[-84.417815,29.904903],[-84.420137,29.904359],[-84.424333,29.906713],[-84.427551,29.907378],[-84.429191,29.906851],[-84.430567,29.908044],[-84.4323224350767,29.907206870166398],[-84.425237,29.904824],[-84.423336,29.903279],[-84.409071,29.901949],[-84.404958,29.901229],[-84.380861,29.893712],[-84.377498,29.893396],[-84.372021,29.894054],[-84.366768,29.895758],[-84.358559,29.896719],[-84.351705,29.896376],[-84.349066,29.896812],[-84.34446,29.899025],[-84.341555,29.902189],[-84.339175,29.906668],[-84.335953,29.912962],[-84.333746,29.923721],[-84.333945,29.929654],[-84.336511,29.942508],[-84.338625,29.94649],[-84.341251,29.94776],[-84.344224,29.947072],[-84.346565,29.947979],[-84.351914,29.951424],[-84.35591,29.953099],[-84.360826,29.954157],[-84.364035,29.952303],[-84.368075,29.95148],[-84.372116,29.952509],[-84.37685118770351,29.9569194777348],[-84.37687,29.956937],[-84.381148,29.960746],[-84.3835004818995,29.961241715616296],[-84.384133,29.961375],[-84.3845977860081,29.961298934158002],[-84.384839,29.959493],[-84.381503,29.959821],[-84.381764,29.9545],[-84.38238,29.952582],[-84.38177,29.95182],[-84.3787,29.95036],[-84.37676,29.94757],[-84.375818,29.947267],[-84.378218,29.945235],[-84.379491,29.945708],[-84.380873,29.944908],[-84.381527,29.941672],[-84.384638,29.940995],[-84.37937,29.93635],[-84.378421,29.93359],[-84.378833,29.930394],[-84.378211,29.928607],[-84.37375,29.92271],[-84.36769,29.91471],[-84.36838,29.91316],[-84.36537,29.91139],[-84.36042,29.9091],[-84.35957,29.91096],[-84.35615,29.91058],[-84.35355,29.90878],[-84.35194,29.90565],[-84.3528,29.9045],[-84.3496,29.90257],[-84.34845,29.90096],[-84.34863,29.89946],[-84.35116,29.89786],[-84.35485,29.89807],[-84.35788,29.89787],[-84.36373,29.89667],[-84.36377,29.89796],[-84.368274,29.896269],[-84.370164,29.897559]]],[[[-84.413961,30.054676],[-84.413753,30.040748],[-84.428816,30.040453],[-84.433453,30.040223],[-84.432032,30.036949],[-84.431136,30.032918],[-84.430163,30.030628],[-84.430084,30.027787],[-84.434084,30.027054],[-84.43669,30.027078],[-84.437401,30.025521],[-84.438926,30.024398],[-84.438874,30.023459],[-84.440795,30.023621],[-84.444682,30.02314],[-84.44793,30.02647],[-84.44866,30.028],[-84.44937,30.03465],[-84.44991,30.036],[-84.45151,30.0374],[-84.45563,30.03934],[-84.45724,30.04135],[-84.45853,30.04625],[-84.46006,30.04773],[-84.462118,30.048781],[-84.462555,30.046956],[-84.46512,30.042833],[-84.466932,30.040765],[-84.467033,30.037842],[-84.468735,30.036297],[-84.467995,30.035833],[-84.467949,30.032997],[-84.466866,30.031382],[-84.467331,30.030298],[-84.465965,30.029045],[-84.467285,30.028605],[-84.467918,30.025993],[-84.466118,30.025526],[-84.464745,30.026279],[-84.464996,30.0249],[-84.467819,30.02401],[-84.465599,30.022476],[-84.463066,30.02372],[-84.461876,30.022493],[-84.46169,30.021064],[-84.463187,30.020058],[-84.46464,30.020816],[-84.466036,30.018908],[-84.46745,30.017951],[-84.46865,30.015351],[-84.470078,30.016664],[-84.47164,30.020913],[-84.472289,30.021111],[-84.471443,30.019011],[-84.471152,30.01634],[-84.4698,30.014966],[-84.468486,30.014856],[-84.46728,30.016956],[-84.465252,30.018557],[-84.465057,30.016579],[-84.465836,30.014418],[-84.467949,30.011293],[-84.46962,30.012821],[-84.473259,30.014235],[-84.475944,30.014372],[-84.474865,30.013579],[-84.475439,30.01138],[-84.47481,30.009164],[-84.473366,30.006422],[-84.471855,30.004911],[-84.469933,30.004047],[-84.470421,30.003447],[-84.468513,30.002817],[-84.461218,29.997467],[-84.457618,29.991757],[-84.457314,29.987766],[-84.457848,29.983803],[-84.457108,29.977144],[-84.45752,29.975199],[-84.456734,29.973507],[-84.455152,29.972252],[-84.45311,29.971895],[-84.451729,29.972523],[-84.447891,29.977074],[-84.445761,29.982556],[-84.442336,29.982375],[-84.44253,29.983445],[-84.440585,29.982829],[-84.438003,29.978063],[-84.438852,29.977433],[-84.437406,29.977028],[-84.432586220017,29.9762104151536],[-84.436408,29.978557],[-84.435458,29.981748],[-84.436171,29.985762],[-84.437597,29.98813],[-84.435577,29.989674],[-84.43415,29.990497],[-84.432606,29.990188],[-84.428921,29.986895],[-84.426426,29.985762],[-84.41882,29.983292],[-84.415611,29.983086],[-84.412284,29.984321],[-84.408956,29.984939],[-84.402539,29.983704],[-84.399212,29.983292],[-84.394696,29.982365],[-84.391962,29.980616],[-84.385307,29.977219],[-84.382693,29.97691],[-84.378058,29.97691],[-84.372829,29.976086],[-84.36962,29.974645],[-84.362371,29.972895],[-84.36047,29.971248],[-84.353802,29.969747],[-84.350725,29.969703],[-84.348302,29.969059],[-84.341754,29.970258],[-84.340845,29.971966],[-84.340148,29.975366],[-84.341133,29.978889],[-84.343238,29.98288],[-84.344664,29.985042],[-84.346565,29.985042],[-84.3477,29.984123],[-84.350368,29.980513],[-84.352151,29.979071],[-84.353517,29.98006],[-84.356429,29.98041],[-84.358093,29.98288],[-84.359986,29.984739],[-84.361962,29.987739],[-84.362502,29.992817],[-84.360886,29.997959],[-84.363775,30.004787],[-84.366115,30.008662],[-84.361599,30.01566],[-84.356622,30.01856],[-84.355195,30.016708],[-84.355433,30.014032],[-84.352389,30.012906],[-84.346889,30.018602],[-84.344323,30.02247],[-84.345451,30.026997],[-84.339509,30.029261],[-84.337607,30.02638],[-84.3339,30.02901],[-84.337132,30.032348],[-84.33428,30.03708],[-84.329526,30.039344],[-84.3254399924234,30.0423132378324],[-84.32904,30.045335],[-84.345779,30.055392],[-84.354363,30.060184],[-84.360051,30.06369],[-84.360085,30.062624],[-84.361494,30.06065],[-84.359408,30.060793],[-84.358473,30.060074],[-84.35683,30.060267],[-84.359673,30.058913],[-84.360868,30.059534],[-84.361145,30.057473],[-84.360289,30.052471],[-84.360908,30.050706],[-84.35953,30.050217],[-84.3605,30.04804],[-84.36397,30.04718],[-84.36652,30.04769],[-84.36849,30.04906],[-84.36975,30.04919],[-84.37453,30.0531],[-84.37669,30.05433],[-84.38044,30.05539],[-84.38361,30.05783],[-84.38633,30.05776],[-84.38842,30.05841],[-84.388285,30.055001],[-84.413961,30.054676]]]]}},{"type":"Feature","properties":{"zcta5":"32323","AFFGEOID10":"8600000US32323","GEOID10":"32323","ALAND10":20007195,"AWATER10":216076,"county_name":"Franklin","state_code":"FL","county_state":"Franklin County, FL","county_fips":"12037","risk_level_county":"Higher Risk (60–69% vaccinated)","mean_vaccination_rate_county":69.11,"risk_level_zcta":"Uninhabited","mean_vaccination_rate_zips":null,"cases":7},"geometry":{"type":"Polygon","coordinates":[[[-84.57292,29.90968],[-84.57629,29.90802],[-84.57884,29.90786],[-84.58293,29.90523],[-84.584997,29.90931],[-84.587576,29.907397],[-84.5913,29.90395],[-84.59588,29.90358],[-84.59894,29.90424],[-84.60425,29.9069],[-84.60632,29.90615],[-84.60834,29.90674],[-84.60889,29.90978],[-84.61012,29.9105],[-84.61447,29.91077],[-84.61569,29.91047],[-84.61727,29.90825],[-84.61693,29.90973],[-84.63409,29.90992],[-84.634153,29.914057],[-84.6367,29.91134],[-84.63932,29.90705],[-84.64062,29.90311],[-84.64529,29.88565],[-84.64272,29.8837],[-84.63648,29.88134],[-84.63495,29.88024],[-84.63212,29.87501],[-84.63068,29.87396],[-84.618686,29.869145],[-84.611128,29.875383],[-84.60646,29.87869],[-84.60541,29.87991],[-84.60417,29.87931],[-84.59886,29.88322],[-84.59653,29.8806],[-84.58877,29.88414],[-84.59074,29.88797],[-84.57326,29.89575],[-84.57315,29.89703],[-84.57462,29.89785],[-84.57503,29.90121],[-84.5706,29.90614],[-84.57171,29.90687],[-84.57191,29.90706],[-84.57205,29.90724],[-84.57247,29.90873],[-84.57292,29.90968]]]}}]}