{"type":"FeatureCollection","features":[{"type":"Feature","properties":{"zcta5":"78061","AFFGEOID10":"8600000US78061","GEOID10":"78061","ALAND10":1432724326,"AWATER10":1351070,"county_name":"Frio","state_code":"TX","county_state":"Frio County, TX","county_fips":"48163","risk_level_county":"Very High Risk (<60% vaccinated)","mean_vaccination_rate_county":57.7,"risk_level_zcta":"Very High Risk (<60% vaccinated)","mean_vaccination_rate_zips":54.56,"cases":803},"geometry":{"type":"Polygon","coordinates":[[[-99.41388,29.091335],[-99.412157,28.907498],[-99.412288,28.904613],[-99.411735,28.838022],[-99.409929,28.840172],[-99.407817,28.840232],[-99.404011,28.841123],[-99.403568,28.83978],[-99.400769,28.839119],[-99.40048,28.842239],[-99.396757,28.839778],[-99.394806,28.841428],[-99.391251,28.840277],[-99.390308,28.839259],[-99.387846,28.838774],[-99.386477,28.839329],[-99.382484,28.839085],[-99.381377,28.840648],[-99.37779,28.840398],[-99.374654,28.841173],[-99.370462,28.844008],[-99.368105,28.841924],[-99.364487,28.842343],[-99.363749,28.841711],[-99.362301,28.84427],[-99.36077,28.843676],[-99.356595,28.843683],[-99.353451,28.843068],[-99.351457,28.841187],[-99.351475,28.839734],[-99.350238,28.83875],[-99.349587,28.836962],[-99.347863,28.837353],[-99.348487,28.835306],[-99.345724,28.834239],[-99.344962,28.834888],[-99.342319,28.833354],[-99.341406,28.83205],[-99.341593,28.829684],[-99.338362,28.828953],[-99.337812,28.827605],[-99.332294,28.823771],[-99.331213,28.822621],[-99.329651,28.823392],[-99.329051,28.822676],[-99.327245,28.822891],[-99.327064,28.824993],[-99.325134,28.82435],[-99.324296,28.823343],[-99.321778,28.822044],[-99.319679,28.822875],[-99.319848,28.823596],[-99.317611,28.824867],[-99.314468,28.825104],[-99.312812,28.824433],[-99.312819,28.823453],[-99.309632,28.823085],[-99.310913,28.820735],[-99.309264,28.819915],[-99.309326,28.818809],[-99.307589,28.818941],[-99.305028,28.818231],[-99.303284,28.819987],[-99.301591,28.819898],[-99.300554,28.817692],[-99.297862,28.81669],[-99.299974,28.813774],[-99.297656,28.813444],[-99.297793,28.815254],[-99.294394,28.815364],[-99.292864,28.813922],[-99.291464,28.814389],[-99.291958,28.815881],[-99.290508,28.817377],[-99.289946,28.815534],[-99.288209,28.814438],[-99.286435,28.815352],[-99.284542,28.814218],[-99.284867,28.81287],[-99.283431,28.811087],[-99.284587,28.811158],[-99.283657,28.807472],[-99.282034,28.806293],[-99.279645,28.813704],[-99.278687,28.814986],[-99.282046,28.815949],[-99.283243,28.816821],[-99.283086,28.819022],[-99.283633,28.820719],[-99.285323,28.82226],[-99.284982,28.824404],[-99.280721,28.838977],[-99.282827,28.839978],[-99.2934,28.842162],[-99.29599,28.844324],[-99.297576,28.856179],[-99.296313,28.857599],[-99.291987,28.857025],[-99.280731,28.855185],[-99.269839,28.850389],[-99.267717,28.849696],[-99.259984,28.847919],[-99.254324,28.846361],[-99.263489,28.83118],[-99.260535,28.83167],[-99.248161,28.832805],[-99.2454,28.832105],[-99.243976,28.832329],[-99.24123,28.829168],[-99.238042,28.827364],[-99.235935,28.828037],[-99.236159,28.830079],[-99.235706,28.832745],[-99.238198,28.83663],[-99.237948,28.838113],[-99.232159,28.837331],[-99.221656,28.835543],[-99.221516,28.833152],[-99.2245,28.822753],[-99.222025,28.821873],[-99.219801,28.819048],[-99.218372,28.814325],[-99.218158,28.812516],[-99.216412,28.809274],[-99.215983,28.805991],[-99.2184,28.797475],[-99.205969,28.794605],[-99.165716,28.781897],[-99.159604,28.777789],[-99.164202,28.767545],[-99.163708,28.765242],[-99.161604,28.762732],[-99.158806,28.763023],[-99.157963,28.762148],[-99.158632,28.760195],[-99.157714,28.760057],[-99.156947,28.757443],[-99.158209,28.75423],[-99.15733,28.751443],[-99.153636,28.752142],[-99.151008,28.759959],[-99.140429,28.757708],[-99.139627,28.759624],[-99.136348,28.758938],[-99.131646,28.77667],[-99.130424,28.783254],[-99.127785,28.784797],[-99.129205,28.780472],[-99.130942,28.774107],[-99.127396,28.773338],[-99.127747,28.771443],[-99.129978,28.771847],[-99.131128,28.767898],[-99.125766,28.766388],[-99.109527,28.756384],[-99.092848,28.771622],[-99.087428,28.766968],[-99.082819,28.763055],[-99.082481,28.764584],[-99.066517,28.778973],[-99.066087,28.779216],[-99.061209,28.775245],[-99.063631,28.772368],[-99.05902,28.768674],[-99.056515,28.766349],[-99.0569,28.764609],[-99.056949,28.759866],[-99.057871,28.75829],[-99.056475,28.756954],[-99.054192,28.756079],[-99.049824,28.753529],[-99.04831,28.754701],[-99.03789,28.74537],[-99.037242,28.74541],[-99.036155,28.745631],[-99.040596,28.748217],[-99.041565,28.750334],[-99.041446,28.752245],[-99.042352,28.754051],[-99.039495,28.758086],[-99.029117,28.765203],[-99.023553,28.758825],[-99.015781,28.754968],[-99.015574,28.75272],[-99.011394,28.749627],[-98.984529,28.772074],[-98.978707,28.777272],[-98.97706,28.777173],[-98.97466,28.775773],[-98.97145,28.77332],[-98.967877,28.772331],[-98.958187,28.774252],[-98.950609,28.774677],[-98.944933,28.773681],[-98.940838,28.771438],[-98.936358,28.771851],[-98.937643,28.768778],[-98.937612,28.766593],[-98.934883,28.763627],[-98.932064,28.763072],[-98.929173,28.762016],[-98.927828,28.762243],[-98.917731,28.760752],[-98.919568,28.756774],[-98.922982,28.754693],[-98.925628,28.755472],[-98.926419,28.737932],[-98.929039,28.737892],[-98.92509,28.734048],[-98.932597,28.730456],[-98.899521,28.710116],[-98.887795,28.700171],[-98.884438,28.70413],[-98.886707,28.699226],[-98.850427,28.667293],[-98.852264,28.665378],[-98.850247,28.661301],[-98.85053,28.658254],[-98.849417,28.65771],[-98.849038,28.656313],[-98.850121,28.654354],[-98.848567,28.652062],[-98.848695,28.647201],[-98.800841,28.647487],[-98.802109,28.780896],[-98.809445,28.779095],[-98.815434,28.780639],[-98.82122,28.780429],[-98.823475,28.779753],[-98.824245,28.774257],[-98.825858,28.768441],[-98.834414,28.768881],[-98.833287,28.75882],[-98.845114,28.760009],[-98.848988,28.757878],[-98.850286,28.756801],[-98.852461,28.757063],[-98.865523,28.762051],[-98.864733,28.765039],[-98.86617,28.773778],[-98.8605,28.77533],[-98.856104,28.776899],[-98.852194,28.779748],[-98.873041,28.807338],[-98.873142,28.808411],[-98.871502,28.828473],[-98.870721,28.8289],[-98.870161,28.831106],[-98.870551,28.835033],[-98.86563,28.837311],[-98.864931,28.843329],[-98.864205,28.846583],[-98.863156,28.848206],[-98.862406,28.858006],[-98.882205,28.859302],[-98.88213,28.860345],[-98.886703,28.859633],[-98.885616,28.859542],[-98.885847,28.856701],[-98.894116,28.857274],[-98.893903,28.860102],[-98.97694,28.865553],[-98.984482,28.871963],[-98.982632,28.89677],[-98.982527,28.907971],[-98.983435,28.908935],[-98.983469,28.916602],[-98.983914,28.917182],[-98.987279,28.917456],[-98.987218,28.926098],[-98.984873,28.926695],[-98.984905,28.933292],[-98.98203,28.933904],[-98.974144,28.934027],[-98.9739,28.937402],[-98.969627,28.937802],[-98.958832,28.937153],[-98.960688,28.941111],[-98.962396,28.943416],[-98.963016,28.945094],[-98.966369,28.946167],[-98.966377,28.951366],[-98.967282,28.95442],[-98.970226,28.958353],[-98.970428,28.962128],[-98.97106,28.964791],[-98.972088,28.966334],[-98.968986,28.970631],[-98.967623,28.974789],[-98.967448,28.977544],[-98.966528,28.978259],[-98.96619,28.981775],[-98.967373,28.984791],[-98.968161,28.989616],[-98.970676,28.993015],[-98.970763,28.996549],[-98.973015,28.995954],[-98.972345,29.001928],[-98.967332,29.006698],[-98.96577,29.00709],[-98.96509,29.011751],[-98.967728,29.01188],[-98.966811,29.013684],[-98.967476,29.01735],[-98.969628,29.017513],[-98.970557,29.015803],[-98.994265,29.017288],[-98.994871,29.01052],[-98.998474,29.010775],[-98.999102,29.004213],[-99.002638,29.001906],[-99.003414,29.000856],[-99.004344,28.991168],[-99.00045,28.990757],[-99.000322,28.989112],[-98.996993,28.987805],[-98.996123,28.990134],[-98.985638,28.992827],[-98.983832,28.991891],[-98.994737,28.98117],[-98.998548,28.977175],[-98.999855,28.97858],[-99.001915,28.978752],[-99.004324,28.980101],[-99.00481,28.982263],[-99.006187,28.982935],[-99.007118,28.98512],[-99.010553,28.985941],[-99.010152,28.986904],[-99.01218,28.987389],[-99.011778,28.989221],[-99.013961,28.991197],[-99.016251,28.99264],[-99.016745,28.993999],[-99.015323,28.997085],[-99.015804,28.999237],[-99.017956,29.000453],[-99.017774,29.00129],[-99.020152,29.001874],[-99.021478,29.004273],[-99.023976,29.004615],[-99.027491,29.010778],[-99.028198,29.011015],[-99.029906,29.014168],[-99.029324,29.015313],[-99.032165,29.018593],[-99.033209,29.021228],[-99.034899,29.023523],[-99.035956,29.026176],[-99.037521,29.027177],[-99.038347,29.029587],[-99.038252,29.031766],[-99.043338,29.031832],[-99.047762,29.028347],[-99.049961,29.02814],[-99.066008,28.990163],[-99.076106,28.99901],[-99.077253,28.997355],[-99.081078,28.995967],[-99.088744,29.001768],[-99.089752,29.001253],[-99.088569,28.987248],[-99.089046,28.986121],[-99.098127,28.972744],[-99.100128,28.975057],[-99.102119,28.985595],[-99.103291,28.98687],[-99.103885,28.989461],[-99.103633,28.991174],[-99.10178,28.992417],[-99.09935,28.997054],[-99.102154,28.995795],[-99.103974,28.998492],[-99.107987,29.002913],[-99.104892,29.005535],[-99.101966,29.008576],[-99.104987,29.010759],[-99.104996,29.011547],[-99.109613,29.012365],[-99.11885,29.009144],[-99.117404,29.006191],[-99.11225,29.003337],[-99.116366,29.002051],[-99.117519,28.999394],[-99.117634,28.997929],[-99.125576,28.990921],[-99.127231,28.992326],[-99.128857,28.995074],[-99.128705,28.993623],[-99.131214,28.992116],[-99.132677,28.992174],[-99.134426,28.99278],[-99.135025,28.995606],[-99.13642,28.997569],[-99.139443,29.000164],[-99.137507,29.00194],[-99.136617,29.004062],[-99.137647,29.007181],[-99.138787,29.008589],[-99.145597,29.006755],[-99.148403,29.006408],[-99.148,29.009665],[-99.155173,29.016002],[-99.151433,29.019839],[-99.156127,29.026014],[-99.158588,29.027683],[-99.168762,29.026986],[-99.169676,29.027446],[-99.171732,29.026796],[-99.177768,29.027311],[-99.180836,29.027124],[-99.184566,29.030802],[-99.165194,29.048246],[-99.16497,29.054035],[-99.166056,29.054488],[-99.171427,29.060456],[-99.175412,29.06428],[-99.176358,29.066471],[-99.175014,29.067608],[-99.173286,29.066401],[-99.17107,29.065726],[-99.170513,29.064864],[-99.16663,29.062601],[-99.166289,29.061002],[-99.163084,29.062423],[-99.163374,29.064052],[-99.161381,29.068193],[-99.161646,29.070889],[-99.163512,29.070904],[-99.162343,29.072484],[-99.161955,29.074854],[-99.16009,29.077239],[-99.160916,29.077641],[-99.163514,29.082202],[-99.166797,29.084905],[-99.17022,29.086289],[-99.171054,29.088609],[-99.159579,29.088522],[-99.154574,29.088763],[-99.154609,29.090866],[-99.191259,29.091047],[-99.192524,29.090872],[-99.233818,29.090938],[-99.247993,29.091023],[-99.250316,29.09154],[-99.41388,29.091335]]]}},{"type":"Feature","properties":{"zcta5":"78016","AFFGEOID10":"8600000US78016","GEOID10":"78016","ALAND10":411200151,"AWATER10":1827320,"county_name":"Frio","state_code":"TX","county_state":"Frio County, TX","county_fips":"48163","risk_level_county":"Very High Risk (<60% vaccinated)","mean_vaccination_rate_county":57.7,"risk_level_zcta":"Higher Risk (60–69% vaccinated)","mean_vaccination_rate_zips":64.75,"cases":803},"geometry":{"type":"Polygon","coordinates":[[[-99.08582,29.202532],[-99.085404,29.199202],[-99.086773,29.188094],[-99.086628,29.177566],[-99.082455,29.177382],[-99.077936,29.176519],[-99.076499,29.174181],[-99.080155,29.172805],[-99.083525,29.171979],[-99.084726,29.169755],[-99.086522,29.169958],[-99.086329,29.155841],[-99.083182,29.155678],[-99.082607,29.153135],[-99.083025,29.151667],[-99.082084,29.149788],[-99.082867,29.148022],[-99.086222,29.148005],[-99.086293,29.140976],[-99.074647,29.126133],[-99.072575,29.125572],[-99.071967,29.12272],[-99.068591,29.117989],[-99.065108,29.117757],[-99.06544,29.112968],[-99.064119,29.110817],[-99.059882,29.103985],[-99.0548,29.099645],[-99.053712,29.098214],[-99.051821,29.100149],[-99.048688,29.101937],[-99.044642,29.103816],[-99.044485,29.105719],[-99.042553,29.106544],[-99.041012,29.105787],[-99.040098,29.106475],[-99.02843,29.106495],[-99.025141,29.10583],[-99.025387,29.109332],[-99.024251,29.111515],[-99.021797,29.111033],[-99.019161,29.111307],[-99.016184,29.112682],[-99.012085,29.112451],[-99.01151,29.115546],[-99.012709,29.117656],[-99.005521,29.117186],[-99.005069,29.120971],[-99.008816,29.121367],[-99.009417,29.123157],[-99.008711,29.124808],[-99.006308,29.124911],[-99.005368,29.125796],[-98.998683,29.125738],[-98.999142,29.121273],[-98.998795,29.119394],[-98.995869,29.111806],[-99.00034,29.111877],[-99.006125,29.112298],[-99.007336,29.101286],[-98.996513,29.100389],[-98.997135,29.091223],[-98.913201,29.090628],[-98.875305,29.090636],[-98.87208,29.09024],[-98.825813,29.090402],[-98.82601,29.094121],[-98.827524,29.094419],[-98.828542,29.097238],[-98.830657,29.098659],[-98.833867,29.098727],[-98.836791,29.101088],[-98.836061,29.103862],[-98.832929,29.104229],[-98.829326,29.104207],[-98.829196,29.106041],[-98.834626,29.107714],[-98.83205,29.112856],[-98.828217,29.111107],[-98.819557,29.111046],[-98.820786,29.11418],[-98.822932,29.117665],[-98.821192,29.120713],[-98.822392,29.121797],[-98.822844,29.125258],[-98.826576,29.128793],[-98.828021,29.12911],[-98.828131,29.130687],[-98.833938,29.130969],[-98.834059,29.131769],[-98.836446,29.132384],[-98.842961,29.132583],[-98.842875,29.134662],[-98.87626,29.13671],[-98.875324,29.148365],[-98.87559,29.149656],[-98.877205,29.150911],[-98.87765,29.152191],[-98.877708,29.161102],[-98.885293,29.16105],[-98.885265,29.163754],[-98.885423,29.165847],[-98.884464,29.167218],[-98.875506,29.177199],[-98.873278,29.179897],[-98.87767,29.180255],[-98.87764,29.183825],[-98.876003,29.184065],[-98.876004,29.187377],[-98.879691,29.187384],[-98.880124,29.188289],[-98.879093,29.190038],[-98.879207,29.196502],[-98.879681,29.197834],[-98.879174,29.199374],[-98.879306,29.20738],[-98.881617,29.211001],[-98.881615,29.214629],[-98.887622,29.214373],[-98.887528,29.231988],[-98.887009,29.235203],[-98.878099,29.23527],[-98.878095,29.237244],[-98.875782,29.236397],[-98.875858,29.239378],[-98.874784,29.2398],[-98.873693,29.238695],[-98.873869,29.236568],[-98.872289,29.238275],[-98.872666,29.239551],[-98.869715,29.235248],[-98.868635,29.23525],[-98.868503,29.253723],[-98.870832,29.257818],[-98.870685,29.26784],[-98.86989,29.269605],[-98.867963,29.270931],[-98.865404,29.273801],[-98.859009,29.281636],[-98.857191,29.285695],[-98.856184,29.289361],[-98.855293,29.290784],[-98.863865,29.290517],[-98.868545,29.288661],[-98.867981,29.286879],[-98.868581,29.285343],[-98.870186,29.283957],[-98.877933,29.283965],[-98.882832,29.283947],[-98.88385,29.28435],[-98.883923,29.268628],[-98.889852,29.266108],[-98.894122,29.265944],[-98.898735,29.267567],[-98.901427,29.268861],[-98.903843,29.270839],[-98.90216,29.273917],[-98.901644,29.276807],[-98.906069,29.277182],[-98.90664,29.279388],[-98.908029,29.279889],[-98.909579,29.282344],[-98.911092,29.287869],[-98.912387,29.285177],[-98.91464,29.284139],[-98.916327,29.282187],[-98.917862,29.281405],[-98.9232,29.28171],[-98.924589,29.282099],[-98.925402,29.283383],[-98.924545,29.285287],[-98.928108,29.285333],[-98.928394,29.283967],[-98.932287,29.278158],[-98.943941,29.287426],[-98.946825,29.290945],[-98.949636,29.29672],[-98.950928,29.295373],[-98.950284,29.293703],[-98.951084,29.290556],[-98.95247,29.290466],[-98.952572,29.294281],[-98.957198,29.294383],[-98.957327,29.296889],[-98.974265,29.297041],[-98.974053,29.289911],[-98.985795,29.289907],[-99.00206,29.289877],[-99.001717,29.287278],[-99.002853,29.282905],[-98.991149,29.282622],[-98.990962,29.278925],[-98.987005,29.278697],[-98.986886,29.275808],[-98.986781,29.274777],[-98.990808,29.274752],[-98.990946,29.276907],[-99.000384,29.277922],[-99.007773,29.278948],[-99.007742,29.265724],[-99.008768,29.265402],[-99.051631,29.265574],[-99.054574,29.265202],[-99.058576,29.263645],[-99.058591,29.2592],[-99.055609,29.258859],[-99.052169,29.257634],[-99.041872,29.249402],[-99.046656,29.248412],[-99.048968,29.248489],[-99.051639,29.250357],[-99.054123,29.253416],[-99.057554,29.253297],[-99.058739,29.252087],[-99.058821,29.246409],[-99.05957,29.246167],[-99.058272,29.243179],[-99.058278,29.240362],[-99.060656,29.239372],[-99.06398,29.236401],[-99.066404,29.234705],[-99.077185,29.234878],[-99.084265,29.234275],[-99.085182,29.213043],[-99.082958,29.210334],[-99.083401,29.205061],[-99.085678,29.204876],[-99.08582,29.202532]]]}},{"type":"Feature","properties":{"zcta5":"78017","AFFGEOID10":"8600000US78017","GEOID10":"78017","ALAND10":964677051,"AWATER10":719039,"county_name":"Frio","state_code":"TX","county_state":"Frio County, TX","county_fips":"48163","risk_level_county":"Very High Risk (<60% vaccinated)","mean_vaccination_rate_county":57.7,"risk_level_zcta":"Very High Risk (<60% vaccinated)","mean_vaccination_rate_zips":51.64,"cases":803},"geometry":{"type":"Polygon","coordinates":[[[-98.848695,28.647201],[-98.848567,28.652062],[-98.850121,28.654354],[-98.849038,28.656313],[-98.849417,28.65771],[-98.85053,28.658254],[-98.850247,28.661301],[-98.852264,28.665378],[-98.850427,28.667293],[-98.886707,28.699226],[-98.884438,28.70413],[-98.887795,28.700171],[-98.899521,28.710116],[-98.932597,28.730456],[-98.92509,28.734048],[-98.929039,28.737892],[-98.926419,28.737932],[-98.925628,28.755472],[-98.922982,28.754693],[-98.919568,28.756774],[-98.917731,28.760752],[-98.927828,28.762243],[-98.929173,28.762016],[-98.932064,28.763072],[-98.934883,28.763627],[-98.937612,28.766593],[-98.937643,28.768778],[-98.936358,28.771851],[-98.940838,28.771438],[-98.944933,28.773681],[-98.950609,28.774677],[-98.958187,28.774252],[-98.967877,28.772331],[-98.97145,28.77332],[-98.97466,28.775773],[-98.97706,28.777173],[-98.978707,28.777272],[-98.984529,28.772074],[-99.011394,28.749627],[-99.015574,28.75272],[-99.015781,28.754968],[-99.023553,28.758825],[-99.029117,28.765203],[-99.039495,28.758086],[-99.042352,28.754051],[-99.041446,28.752245],[-99.041565,28.750334],[-99.040596,28.748217],[-99.036155,28.745631],[-99.037242,28.74541],[-99.03789,28.74537],[-99.04831,28.754701],[-99.049824,28.753529],[-99.054192,28.756079],[-99.056475,28.756954],[-99.057871,28.75829],[-99.056949,28.759866],[-99.0569,28.764609],[-99.056515,28.766349],[-99.05902,28.768674],[-99.063631,28.772368],[-99.061209,28.775245],[-99.066087,28.779216],[-99.066517,28.778973],[-99.082481,28.764584],[-99.082819,28.763055],[-99.087428,28.766968],[-99.092848,28.771622],[-99.109527,28.756384],[-99.125766,28.766388],[-99.131128,28.767898],[-99.129978,28.771847],[-99.127747,28.771443],[-99.127396,28.773338],[-99.130942,28.774107],[-99.129205,28.780472],[-99.127785,28.784797],[-99.130424,28.783254],[-99.131646,28.77667],[-99.136348,28.758938],[-99.139627,28.759624],[-99.140429,28.757708],[-99.151008,28.759959],[-99.153636,28.752142],[-99.15733,28.751443],[-99.158209,28.75423],[-99.156947,28.757443],[-99.157714,28.760057],[-99.158632,28.760195],[-99.157963,28.762148],[-99.158806,28.763023],[-99.161604,28.762732],[-99.163708,28.765242],[-99.164202,28.767545],[-99.159604,28.777789],[-99.165716,28.781897],[-99.205969,28.794605],[-99.2184,28.797475],[-99.215983,28.805991],[-99.216412,28.809274],[-99.218158,28.812516],[-99.218372,28.814325],[-99.219801,28.819048],[-99.222025,28.821873],[-99.2245,28.822753],[-99.221516,28.833152],[-99.221656,28.835543],[-99.232159,28.837331],[-99.237948,28.838113],[-99.238198,28.83663],[-99.235706,28.832745],[-99.236159,28.830079],[-99.235935,28.828037],[-99.238042,28.827364],[-99.24123,28.829168],[-99.243976,28.832329],[-99.2454,28.832105],[-99.248161,28.832805],[-99.260535,28.83167],[-99.263489,28.83118],[-99.254324,28.846361],[-99.259984,28.847919],[-99.267717,28.849696],[-99.269839,28.850389],[-99.280731,28.855185],[-99.291987,28.857025],[-99.296313,28.857599],[-99.297576,28.856179],[-99.29599,28.844324],[-99.2934,28.842162],[-99.282827,28.839978],[-99.280721,28.838977],[-99.284982,28.824404],[-99.285323,28.82226],[-99.283633,28.820719],[-99.283086,28.819022],[-99.283243,28.816821],[-99.282046,28.815949],[-99.278687,28.814986],[-99.279645,28.813704],[-99.282034,28.806293],[-99.283657,28.807472],[-99.284587,28.811158],[-99.283431,28.811087],[-99.284867,28.81287],[-99.284542,28.814218],[-99.286435,28.815352],[-99.288209,28.814438],[-99.289946,28.815534],[-99.290508,28.817377],[-99.291958,28.815881],[-99.291464,28.814389],[-99.292864,28.813922],[-99.294394,28.815364],[-99.297793,28.815254],[-99.297656,28.813444],[-99.299974,28.813774],[-99.297862,28.81669],[-99.300554,28.817692],[-99.301591,28.819898],[-99.303284,28.819987],[-99.305028,28.818231],[-99.307589,28.818941],[-99.309326,28.818809],[-99.309264,28.819915],[-99.310913,28.820735],[-99.309632,28.823085],[-99.312819,28.823453],[-99.312812,28.824433],[-99.314468,28.825104],[-99.317611,28.824867],[-99.319848,28.823596],[-99.319679,28.822875],[-99.321778,28.822044],[-99.324296,28.823343],[-99.325134,28.82435],[-99.327064,28.824993],[-99.327245,28.822891],[-99.329051,28.822676],[-99.329651,28.823392],[-99.331213,28.822621],[-99.332294,28.823771],[-99.337812,28.827605],[-99.338362,28.828953],[-99.341593,28.829684],[-99.341406,28.83205],[-99.342319,28.833354],[-99.344962,28.834888],[-99.345724,28.834239],[-99.348487,28.835306],[-99.347863,28.837353],[-99.349587,28.836962],[-99.350238,28.83875],[-99.351475,28.839734],[-99.351457,28.841187],[-99.353451,28.843068],[-99.356595,28.843683],[-99.36077,28.843676],[-99.362301,28.84427],[-99.363749,28.841711],[-99.364487,28.842343],[-99.368105,28.841924],[-99.370462,28.844008],[-99.374654,28.841173],[-99.37779,28.840398],[-99.381377,28.840648],[-99.382484,28.839085],[-99.386477,28.839329],[-99.387846,28.838774],[-99.390308,28.839259],[-99.391251,28.840277],[-99.394806,28.841428],[-99.396757,28.839778],[-99.40048,28.842239],[-99.400769,28.839119],[-99.403568,28.83978],[-99.404011,28.841123],[-99.407817,28.840232],[-99.409929,28.840172],[-99.411735,28.838022],[-99.40968,28.716267],[-99.409684,28.712098],[-99.409759,28.707642],[-99.409366,28.703522],[-99.409021,28.640566],[-99.395736,28.640784],[-99.395798,28.622642],[-99.393744,28.621412],[-99.390606,28.622927],[-99.388651,28.621828],[-99.371822,28.610896],[-99.369334,28.611552],[-99.362153,28.607681],[-99.351512,28.611587],[-99.349461,28.611359],[-99.344373,28.609184],[-99.342686,28.609529],[-99.347239,28.60215],[-99.335276,28.584091],[-99.331725,28.585959],[-99.323239,28.573555],[-99.295039,28.588199],[-99.285213,28.573543],[-99.277516,28.576533],[-99.271216,28.566968],[-99.269604,28.564804],[-99.26162,28.569202],[-99.254609,28.558666],[-99.235546,28.568628],[-99.233664,28.570166],[-99.223881,28.582385],[-99.222626,28.583309],[-99.221319,28.583181],[-99.218196,28.581649],[-99.216208,28.581967],[-99.214159,28.584379],[-99.212727,28.584319],[-99.20762,28.581777],[-99.203829,28.582801],[-99.199224,28.581692],[-99.198939,28.582525],[-99.196689,28.582181],[-99.179553,28.638978],[-99.179068,28.644122],[-99.176978,28.644188],[-98.874835,28.64695],[-98.873078,28.647025],[-98.848695,28.647201]]]}},{"type":"Feature","properties":{"zcta5":"78005","AFFGEOID10":"8600000US78005","GEOID10":"78005","ALAND10":461455028,"AWATER10":371680,"county_name":"Frio","state_code":"TX","county_state":"Frio County, TX","county_fips":"48163","risk_level_county":"Very High Risk (<60% vaccinated)","mean_vaccination_rate_county":57.7,"risk_level_zcta":"Very High Risk (<60% vaccinated)","mean_vaccination_rate_zips":48.56,"cases":803},"geometry":{"type":"Polygon","coordinates":[[[-98.967282,28.95442],[-98.966377,28.951366],[-98.966369,28.946167],[-98.963016,28.945094],[-98.962396,28.943416],[-98.960688,28.941111],[-98.958832,28.937153],[-98.969627,28.937802],[-98.9739,28.937402],[-98.974144,28.934027],[-98.98203,28.933904],[-98.984905,28.933292],[-98.984873,28.926695],[-98.987218,28.926098],[-98.987279,28.917456],[-98.983914,28.917182],[-98.983469,28.916602],[-98.983435,28.908935],[-98.982527,28.907971],[-98.982632,28.89677],[-98.984482,28.871963],[-98.97694,28.865553],[-98.893903,28.860102],[-98.894116,28.857274],[-98.885847,28.856701],[-98.885616,28.859542],[-98.886703,28.859633],[-98.88213,28.860345],[-98.882205,28.859302],[-98.862406,28.858006],[-98.863156,28.848206],[-98.864205,28.846583],[-98.864931,28.843329],[-98.86563,28.837311],[-98.870551,28.835033],[-98.870161,28.831106],[-98.870721,28.8289],[-98.871502,28.828473],[-98.873142,28.808411],[-98.873041,28.807338],[-98.852194,28.779748],[-98.856104,28.776899],[-98.8605,28.77533],[-98.86617,28.773778],[-98.864733,28.765039],[-98.865523,28.762051],[-98.852461,28.757063],[-98.850286,28.756801],[-98.848988,28.757878],[-98.845114,28.760009],[-98.833287,28.75882],[-98.834414,28.768881],[-98.825858,28.768441],[-98.824245,28.774257],[-98.823475,28.779753],[-98.82122,28.780429],[-98.815434,28.780639],[-98.809445,28.779095],[-98.802109,28.780896],[-98.80396,28.949712],[-98.798617,28.944612],[-98.786804,28.934197],[-98.783344,28.932505],[-98.777072,28.931543],[-98.774786,28.930692],[-98.770942,28.926834],[-98.768909,28.926002],[-98.765518,28.92339],[-98.761252,28.922575],[-98.758577,28.920333],[-98.748259,28.92919],[-98.746153,28.933008],[-98.740706,28.941556],[-98.758606,28.950309],[-98.7473,28.967842],[-98.762291,28.975421],[-98.759027,28.981106],[-98.759203,28.981869],[-98.773474,28.988781],[-98.771835,28.991364],[-98.776787,28.993812],[-98.781333,28.994521],[-98.779746,29.00444],[-98.783109,29.005597],[-98.780974,29.008996],[-98.784357,29.011221],[-98.778926,29.020315],[-98.761776,29.011694],[-98.756929,29.01919],[-98.760068,29.02314],[-98.760592,29.027911],[-98.759591,29.032294],[-98.760933,29.036787],[-98.760931,29.037714],[-98.759618,29.043538],[-98.758801,29.043284],[-98.756143,29.045719],[-98.754701,29.047784],[-98.753283,29.052334],[-98.757676,29.054661],[-98.743908,29.07613],[-98.751036,29.079652],[-98.753511,29.079622],[-98.755461,29.076883],[-98.757824,29.075553],[-98.761175,29.074753],[-98.761266,29.075965],[-98.760151,29.079164],[-98.759032,29.080243],[-98.756826,29.08123],[-98.756922,29.08201],[-98.755755,29.084637],[-98.769958,29.091132],[-98.773091,29.092751],[-98.776456,29.099626],[-98.776787,29.10279],[-98.778008,29.104417],[-98.784782,29.104976],[-98.799794,29.104877],[-98.804878,29.107015],[-98.8049,29.090434],[-98.825813,29.090402],[-98.87208,29.09024],[-98.875305,29.090636],[-98.913201,29.090628],[-98.914213,29.080067],[-98.906381,29.079569],[-98.909266,29.04998],[-98.892951,29.048702],[-98.893419,29.044115],[-98.876833,29.039681],[-98.876731,29.036679],[-98.878923,29.009097],[-98.878808,29.007378],[-98.87668,29.007482],[-98.876909,29.003426],[-98.883257,29.003597],[-98.883471,29.000308],[-98.885349,29.000392],[-98.8878,29.002274],[-98.889159,29.00233],[-98.890248,28.992707],[-98.896859,28.992795],[-98.901411,28.992346],[-98.903177,28.990941],[-98.913746,28.991682],[-98.914059,28.994538],[-98.911047,28.996039],[-98.917497,28.996477],[-98.921574,28.993966],[-98.923149,28.99354],[-98.929886,28.994009],[-98.930252,28.991483],[-98.931815,28.989199],[-98.932001,28.987038],[-98.933227,28.986323],[-98.936448,28.986736],[-98.937107,28.980774],[-98.906964,28.978587],[-98.909596,28.949514],[-98.910688,28.949092],[-98.943351,28.95137],[-98.944103,28.953931],[-98.9586,28.959734],[-98.959823,28.960022],[-98.960589,28.954077],[-98.962721,28.954508],[-98.967282,28.95442]]]}},{"type":"Feature","properties":{"zcta5":"78057","AFFGEOID10":"8600000US78057","GEOID10":"78057","ALAND10":255075577,"AWATER10":151548,"county_name":"Frio","state_code":"TX","county_state":"Frio County, TX","county_fips":"48163","risk_level_county":"Very High Risk (<60% vaccinated)","mean_vaccination_rate_county":57.7,"risk_level_zcta":"Higher Risk (60–69% vaccinated)","mean_vaccination_rate_zips":62.41,"cases":803},"geometry":{"type":"Polygon","coordinates":[[[-99.064119,29.110817],[-99.06468,29.109459],[-99.067274,29.108947],[-99.071679,29.107396],[-99.072969,29.105387],[-99.072367,29.103649],[-99.070243,29.103555],[-99.070444,29.102708],[-99.074052,29.096639],[-99.076532,29.093975],[-99.079013,29.093117],[-99.080736,29.094167],[-99.083329,29.094497],[-99.085391,29.095861],[-99.087257,29.095542],[-99.089668,29.093159],[-99.09132,29.090958],[-99.120777,29.091002],[-99.120821,29.089393],[-99.119592,29.088209],[-99.117781,29.084181],[-99.117688,29.075126],[-99.12932,29.075127],[-99.130492,29.07387],[-99.131433,29.07065],[-99.129009,29.071294],[-99.126635,29.070959],[-99.119513,29.073531],[-99.112643,29.073403],[-99.112569,29.065368],[-99.106076,29.061202],[-99.106545,29.057281],[-99.105441,29.052503],[-99.105104,29.03633],[-99.104869,29.035522],[-99.100304,29.025966],[-99.100371,29.016536],[-99.107209,29.016787],[-99.121009,29.01655],[-99.120794,29.019034],[-99.119517,29.020863],[-99.118264,29.020895],[-99.118209,29.026506],[-99.12177,29.026726],[-99.135219,29.026847],[-99.132797,29.020686],[-99.129728,29.016273],[-99.137894,29.016157],[-99.138324,29.013452],[-99.137677,29.010888],[-99.139581,29.01054],[-99.139868,29.009408],[-99.138787,29.008589],[-99.137647,29.007181],[-99.136617,29.004062],[-99.137507,29.00194],[-99.139443,29.000164],[-99.13642,28.997569],[-99.135025,28.995606],[-99.134426,28.99278],[-99.132677,28.992174],[-99.131214,28.992116],[-99.128705,28.993623],[-99.128857,28.995074],[-99.127231,28.992326],[-99.125576,28.990921],[-99.117634,28.997929],[-99.117519,28.999394],[-99.116366,29.002051],[-99.11225,29.003337],[-99.117404,29.006191],[-99.11885,29.009144],[-99.109613,29.012365],[-99.104996,29.011547],[-99.104987,29.010759],[-99.101966,29.008576],[-99.104892,29.005535],[-99.107987,29.002913],[-99.103974,28.998492],[-99.102154,28.995795],[-99.09935,28.997054],[-99.10178,28.992417],[-99.103633,28.991174],[-99.103885,28.989461],[-99.103291,28.98687],[-99.102119,28.985595],[-99.100128,28.975057],[-99.098127,28.972744],[-99.089046,28.986121],[-99.088569,28.987248],[-99.089752,29.001253],[-99.088744,29.001768],[-99.081078,28.995967],[-99.077253,28.997355],[-99.076106,28.99901],[-99.066008,28.990163],[-99.049961,29.02814],[-99.047762,29.028347],[-99.043338,29.031832],[-99.038252,29.031766],[-99.038347,29.029587],[-99.037521,29.027177],[-99.035956,29.026176],[-99.034899,29.023523],[-99.033209,29.021228],[-99.032165,29.018593],[-99.029324,29.015313],[-99.029906,29.014168],[-99.028198,29.011015],[-99.027491,29.010778],[-99.023976,29.004615],[-99.021478,29.004273],[-99.020152,29.001874],[-99.017774,29.00129],[-99.017956,29.000453],[-99.015804,28.999237],[-99.015323,28.997085],[-99.016745,28.993999],[-99.016251,28.99264],[-99.013961,28.991197],[-99.011778,28.989221],[-99.01218,28.987389],[-99.010152,28.986904],[-99.010553,28.985941],[-99.007118,28.98512],[-99.006187,28.982935],[-99.00481,28.982263],[-99.004324,28.980101],[-99.001915,28.978752],[-98.999855,28.97858],[-98.998548,28.977175],[-98.994737,28.98117],[-98.983832,28.991891],[-98.985638,28.992827],[-98.996123,28.990134],[-98.996993,28.987805],[-99.000322,28.989112],[-99.00045,28.990757],[-99.004344,28.991168],[-99.003414,29.000856],[-99.002638,29.001906],[-98.999102,29.004213],[-98.998474,29.010775],[-98.994871,29.01052],[-98.994265,29.017288],[-98.970557,29.015803],[-98.969628,29.017513],[-98.967476,29.01735],[-98.966811,29.013684],[-98.967728,29.01188],[-98.96509,29.011751],[-98.96577,29.00709],[-98.967332,29.006698],[-98.972345,29.001928],[-98.973015,28.995954],[-98.970763,28.996549],[-98.970676,28.993015],[-98.968161,28.989616],[-98.967373,28.984791],[-98.96619,28.981775],[-98.966528,28.978259],[-98.967448,28.977544],[-98.967623,28.974789],[-98.968986,28.970631],[-98.972088,28.966334],[-98.97106,28.964791],[-98.970428,28.962128],[-98.970226,28.958353],[-98.967282,28.95442],[-98.962721,28.954508],[-98.960589,28.954077],[-98.959823,28.960022],[-98.9586,28.959734],[-98.944103,28.953931],[-98.943351,28.95137],[-98.910688,28.949092],[-98.909596,28.949514],[-98.906964,28.978587],[-98.937107,28.980774],[-98.936448,28.986736],[-98.933227,28.986323],[-98.932001,28.987038],[-98.931815,28.989199],[-98.930252,28.991483],[-98.929886,28.994009],[-98.923149,28.99354],[-98.921574,28.993966],[-98.917497,28.996477],[-98.911047,28.996039],[-98.914059,28.994538],[-98.913746,28.991682],[-98.903177,28.990941],[-98.901411,28.992346],[-98.896859,28.992795],[-98.890248,28.992707],[-98.889159,29.00233],[-98.8878,29.002274],[-98.885349,29.000392],[-98.883471,29.000308],[-98.883257,29.003597],[-98.876909,29.003426],[-98.87668,29.007482],[-98.878808,29.007378],[-98.878923,29.009097],[-98.876731,29.036679],[-98.876833,29.039681],[-98.893419,29.044115],[-98.892951,29.048702],[-98.909266,29.04998],[-98.906381,29.079569],[-98.914213,29.080067],[-98.913201,29.090628],[-98.997135,29.091223],[-98.996513,29.100389],[-99.007336,29.101286],[-99.006125,29.112298],[-99.00034,29.111877],[-98.995869,29.111806],[-98.998795,29.119394],[-98.999142,29.121273],[-98.998683,29.125738],[-99.005368,29.125796],[-99.006308,29.124911],[-99.008711,29.124808],[-99.009417,29.123157],[-99.008816,29.121367],[-99.005069,29.120971],[-99.005521,29.117186],[-99.012709,29.117656],[-99.01151,29.115546],[-99.012085,29.112451],[-99.016184,29.112682],[-99.019161,29.111307],[-99.021797,29.111033],[-99.024251,29.111515],[-99.025387,29.109332],[-99.025141,29.10583],[-99.02843,29.106495],[-99.040098,29.106475],[-99.041012,29.105787],[-99.042553,29.106544],[-99.044485,29.105719],[-99.044642,29.103816],[-99.048688,29.101937],[-99.051821,29.100149],[-99.053712,29.098214],[-99.0548,29.099645],[-99.059882,29.103985],[-99.064119,29.110817]]]}}]}