{"type":"FeatureCollection","features":[{"type":"Feature","properties":{"zcta5":"58205","AFFGEOID10":"8600000US58205","GEOID10":"58205","ALAND10":417527,"AWATER10":0,"county_name":"Grand Forks","state_code":"ND","county_state":"Grand Forks County, ND","county_fips":"38035","risk_level_county":"Higher Risk (60–69% vaccinated)","mean_vaccination_rate_county":65.56,"risk_level_zcta":"Uninhabited","mean_vaccination_rate_zips":null,"cases":36},"geometry":{"type":"Polygon","coordinates":[[[-97.382914,47.95147],[-97.382915,47.947633],[-97.380253,47.947625],[-97.375825,47.947636],[-97.375787,47.955858],[-97.377171,47.955861],[-97.381907,47.95586],[-97.380263,47.952603],[-97.382914,47.95147]]]}},{"type":"Feature","properties":{"zcta5":"58204","AFFGEOID10":"8600000US58204","GEOID10":"58204","ALAND10":19937754,"AWATER10":706268,"county_name":"Grand Forks","state_code":"ND","county_state":"Grand Forks County, ND","county_fips":"38035","risk_level_county":"Higher Risk (60–69% vaccinated)","mean_vaccination_rate_county":65.56,"risk_level_zcta":"Medium Risk (70–79% vaccinated)","mean_vaccination_rate_zips":78.72,"cases":36},"geometry":{"type":"Polygon","coordinates":[[[-97.418984,47.954575],[-97.423821,47.954539],[-97.423873,47.940045],[-97.418476,47.940062],[-97.418504,47.933228],[-97.400655,47.933293],[-97.386905,47.933351],[-97.367001,47.933415],[-97.364189,47.933429],[-97.364715,47.935292],[-97.364601,47.946761],[-97.325128,47.94691],[-97.325177,47.955117],[-97.349945,47.95493],[-97.350198,47.948168],[-97.353745,47.948152],[-97.353685,47.951205],[-97.364512,47.951171],[-97.364467,47.95462],[-97.364451,47.955656],[-97.364239,47.972998],[-97.375012,47.972971],[-97.375047,47.969318],[-97.385836,47.969294],[-97.385751,47.976475],[-97.391172,47.976535],[-97.390999,47.990949],[-97.404168,47.990901],[-97.40501,47.988497],[-97.406763,47.98721],[-97.407859,47.954623],[-97.418984,47.954575]],[[-97.382914,47.95147],[-97.380263,47.952603],[-97.381907,47.95586],[-97.377171,47.955861],[-97.375787,47.955858],[-97.375825,47.947636],[-97.380253,47.947625],[-97.382915,47.947633],[-97.382914,47.95147]]]}},{"type":"Feature","properties":{"zcta5":"58244","AFFGEOID10":"8600000US58244","GEOID10":"58244","ALAND10":148872797,"AWATER10":34174,"county_name":"Grand Forks","state_code":"ND","county_state":"Grand Forks County, ND","county_fips":"38035","risk_level_county":"Higher Risk (60–69% vaccinated)","mean_vaccination_rate_county":65.56,"risk_level_zcta":"Uninhabited","mean_vaccination_rate_zips":null,"cases":36},"geometry":{"type":"Polygon","coordinates":[[[-97.709245,48.122312],[-97.709055,48.107776],[-97.70896,48.093421],[-97.708944,48.078898],[-97.708933,48.064379],[-97.688333,48.064354],[-97.687412,48.066376],[-97.68739,48.064344],[-97.66571,48.064334],[-97.665682,48.078881],[-97.644196,48.078816],[-97.644,48.107807],[-97.514207,48.107803],[-97.514137,48.165737],[-97.514043,48.194703],[-97.665555,48.194812],[-97.695624,48.194769],[-97.695042,48.192122],[-97.695,48.180327],[-97.708888,48.180349],[-97.709058,48.151322],[-97.665556,48.1513],[-97.665616,48.122365],[-97.685201,48.122496],[-97.691639,48.122325],[-97.709245,48.122312]]]}},{"type":"Feature","properties":{"zcta5":"58214","AFFGEOID10":"8600000US58214","GEOID10":"58214","ALAND10":178641207,"AWATER10":0,"county_name":"Grand Forks","state_code":"ND","county_state":"Grand Forks County, ND","county_fips":"38035","risk_level_county":"Higher Risk (60–69% vaccinated)","mean_vaccination_rate_county":65.56,"risk_level_zcta":"Higher Risk (60–69% vaccinated)","mean_vaccination_rate_zips":61.6,"cases":36},"geometry":{"type":"Polygon","coordinates":[[[-97.514534,48.020734],[-97.537483,48.02076],[-97.537555,47.990627],[-97.580745,47.990689],[-97.580778,47.976161],[-97.559138,47.976168],[-97.559138,47.961678],[-97.537646,47.961661],[-97.537713,47.928323],[-97.539564,47.928369],[-97.537804,47.926066],[-97.537104,47.9218],[-97.532889,47.921786],[-97.532918,47.918618],[-97.530736,47.918173],[-97.531034,47.915551],[-97.53787,47.913549],[-97.577282,47.90408],[-97.581055,47.903667],[-97.581316,47.845695],[-97.538213,47.84571],[-97.538112,47.831176],[-97.473388,47.831191],[-97.473315,47.845751],[-97.451761,47.845854],[-97.451472,47.874853],[-97.430002,47.874955],[-97.429518,47.918429],[-97.443477,47.918371],[-97.472683,47.919165],[-97.472453,47.947152],[-97.429261,47.947315],[-97.429173,47.95891],[-97.426451,47.957984],[-97.424127,47.956271],[-97.418984,47.954575],[-97.407859,47.954623],[-97.406763,47.98721],[-97.409498,47.986093],[-97.41391,47.983176],[-97.411655,47.980488],[-97.412297,47.978971],[-97.417286,47.980167],[-97.418438,47.979156],[-97.417088,47.97635],[-97.429053,47.97632],[-97.428805,48.005274],[-97.472231,48.005118],[-97.472103,48.020683],[-97.514534,48.020734]]]}},{"type":"Feature","properties":{"zcta5":"58202","AFFGEOID10":"8600000US58202","GEOID10":"58202","ALAND10":425963,"AWATER10":5455,"county_name":"Grand Forks","state_code":"ND","county_state":"Grand Forks County, ND","county_fips":"38035","risk_level_county":"Higher Risk (60–69% vaccinated)","mean_vaccination_rate_county":65.56,"risk_level_zcta":"Medium Risk (70–79% vaccinated)","mean_vaccination_rate_zips":76.46,"cases":36},"geometry":{"type":"Polygon","coordinates":[[[-97.066248,47.91853],[-97.066392,47.922272],[-97.07644,47.922278],[-97.076281,47.924094],[-97.077602,47.925744],[-97.081071,47.925772],[-97.081069,47.922277],[-97.077664,47.922272],[-97.077662,47.921273],[-97.075692,47.920009],[-97.073995,47.919849],[-97.076128,47.918547],[-97.066248,47.91853]]]}},{"type":"Feature","properties":{"zcta5":"58231","AFFGEOID10":"8600000US58231","GEOID10":"58231","ALAND10":317544339,"AWATER10":1231076,"county_name":"Grand Forks","state_code":"ND","county_state":"Grand Forks County, ND","county_fips":"38035","risk_level_county":"Higher Risk (60–69% vaccinated)","mean_vaccination_rate_county":65.56,"risk_level_zcta":"Lowest Risk (85%+)","mean_vaccination_rate_zips":91.53,"cases":36},"geometry":{"type":"Polygon","coordinates":[[[-97.860194,48.297572],[-97.860477,48.292317],[-97.86052,48.281859],[-97.9032,48.281891],[-97.903439,48.269411],[-97.903229,48.266816],[-97.903245,48.253178],[-97.904172,48.252417],[-97.901945,48.251349],[-97.895119,48.252901],[-97.882256,48.252917],[-97.882182,48.216665],[-97.888464,48.216973],[-97.892083,48.21965],[-97.892625,48.221836],[-97.89522,48.223934],[-97.903444,48.223924],[-97.903661,48.229864],[-97.905937,48.2296],[-97.906429,48.227809],[-97.911282,48.22646],[-97.920516,48.225017],[-97.924997,48.225499],[-97.924913,48.238363],[-97.990003,48.238238],[-97.989988,48.223736],[-98.01165,48.2237],[-98.011679,48.252692],[-98.03211,48.25257],[-98.032901,48.250823],[-98.032891,48.224822],[-98.033314,48.223343],[-98.033052,48.194646],[-98.011472,48.1945],[-98.000375,48.194441],[-97.989932,48.194791],[-97.986938,48.194692],[-97.903434,48.194897],[-97.903504,48.176629],[-97.903406,48.165937],[-97.903262,48.165277],[-97.903472,48.151157],[-97.903352,48.150688],[-97.903454,48.093465],[-97.860459,48.093457],[-97.860427,48.107913],[-97.838763,48.107866],[-97.838744,48.136899],[-97.773706,48.136876],[-97.773829,48.129211],[-97.762772,48.130266],[-97.752301,48.129591],[-97.752294,48.12236],[-97.709245,48.122312],[-97.691639,48.122325],[-97.685201,48.122496],[-97.665616,48.122365],[-97.665556,48.1513],[-97.709058,48.151322],[-97.708888,48.180349],[-97.695,48.180327],[-97.695042,48.192122],[-97.695624,48.194769],[-97.665555,48.194812],[-97.665547,48.209285],[-97.687281,48.209303],[-97.687249,48.23829],[-97.708962,48.238291],[-97.708951,48.252793],[-97.741674,48.252787],[-97.741638,48.259816],[-97.752309,48.259412],[-97.752367,48.267298],[-97.773667,48.267341],[-97.773597,48.281804],[-97.793156,48.281821],[-97.795349,48.285088],[-97.795331,48.28907],[-97.800491,48.289091],[-97.804363,48.289893],[-97.806816,48.292859],[-97.810746,48.296355],[-97.82006,48.296378],[-97.823861,48.297041],[-97.828484,48.299828],[-97.83804,48.300078],[-97.840095,48.301299],[-97.840199,48.302427],[-97.845475,48.308668],[-97.845295,48.310849],[-97.860117,48.310835],[-97.860194,48.297572]]]}},{"type":"Feature","properties":{"zcta5":"58275","AFFGEOID10":"8600000US58275","GEOID10":"58275","ALAND10":266218981,"AWATER10":99359,"county_name":"Grand Forks","state_code":"ND","county_state":"Grand Forks County, ND","county_fips":"38035","risk_level_county":"Higher Risk (60–69% vaccinated)","mean_vaccination_rate_county":65.56,"risk_level_zcta":"Higher Risk (60–69% vaccinated)","mean_vaccination_rate_zips":68.55,"cases":36},"geometry":{"type":"Polygon","coordinates":[[[-97.324866,47.730219],[-97.324828,47.715712],[-97.281928,47.715772],[-97.282369,47.701244],[-97.346236,47.701197],[-97.346218,47.686723],[-97.3034,47.68672],[-97.303375,47.672187],[-97.260935,47.672189],[-97.261225,47.649558],[-97.239847,47.649616],[-97.239954,47.628436],[-97.218478,47.628348],[-97.218905,47.613961],[-97.198988,47.613968],[-97.198326,47.6429],[-97.191589,47.642893],[-97.13406,47.64309],[-97.134364,47.628606],[-97.112905,47.628596],[-97.112544,47.643005],[-97.026762,47.642864],[-97.026723,47.628443],[-97.0053,47.628411],[-97.005347,47.64288],[-96.983956,47.642812],[-96.9839,47.657249],[-96.902608,47.657459],[-96.903128,47.659304],[-96.902811,47.672109],[-96.905774,47.672098],[-96.905975,47.685662],[-96.906595,47.686485],[-96.907166,47.686654],[-96.938088,47.686604],[-96.937942,47.730108],[-96.980956,47.730149],[-96.980868,47.715647],[-97.002297,47.715584],[-97.002262,47.730096],[-97.023732,47.730073],[-97.02374,47.744611],[-97.058391,47.744749],[-97.056086,47.7302],[-97.045361,47.730186],[-97.045312,47.701132],[-97.066881,47.701166],[-97.06687,47.730219],[-97.119919,47.730067],[-97.120123,47.736837],[-97.13155,47.736827],[-97.131551,47.730126],[-97.163963,47.730139],[-97.164033,47.722371],[-97.174536,47.722399],[-97.174534,47.715627],[-97.185833,47.715619],[-97.185832,47.722333],[-97.195916,47.722347],[-97.195846,47.730159],[-97.239012,47.730206],[-97.239016,47.715743],[-97.26059,47.715809],[-97.260595,47.730316],[-97.324866,47.730219]]]}},{"type":"Feature","properties":{"zcta5":"58235","AFFGEOID10":"8600000US58235","GEOID10":"58235","ALAND10":227044781,"AWATER10":0,"county_name":"Grand Forks","state_code":"ND","county_state":"Grand Forks County, ND","county_fips":"38035","risk_level_county":"Higher Risk (60–69% vaccinated)","mean_vaccination_rate_county":65.56,"risk_level_zcta":"Very High Risk (<60% vaccinated)","mean_vaccination_rate_zips":54.75,"cases":36},"geometry":{"type":"Polygon","coordinates":[[[-97.644196,48.078816],[-97.644151,48.064321],[-97.622509,48.064316],[-97.612274,48.064142],[-97.612346,48.058411],[-97.600833,48.059691],[-97.600896,48.064272],[-97.579343,48.064367],[-97.579219,48.07881],[-97.557629,48.07878],[-97.557595,48.064199],[-97.535969,48.064266],[-97.536061,48.035251],[-97.514368,48.035231],[-97.514534,48.020734],[-97.472103,48.020683],[-97.400494,48.020637],[-97.39588,48.020888],[-97.392915,48.020477],[-97.385005,48.020861],[-97.384241,48.093329],[-97.38379,48.19496],[-97.467278,48.19482],[-97.468558,48.194854],[-97.470461,48.194799],[-97.470161,48.180286],[-97.470216,48.165757],[-97.492207,48.166125],[-97.514137,48.165737],[-97.514207,48.107803],[-97.644,48.107807],[-97.644196,48.078816]]]}},{"type":"Feature","properties":{"zcta5":"58228","AFFGEOID10":"8600000US58228","GEOID10":"58228","ALAND10":270751910,"AWATER10":328901,"county_name":"Grand Forks","state_code":"ND","county_state":"Grand Forks County, ND","county_fips":"38035","risk_level_county":"Higher Risk (60–69% vaccinated)","mean_vaccination_rate_county":65.56,"risk_level_zcta":"Higher Risk (60–69% vaccinated)","mean_vaccination_rate_zips":64.78,"cases":36},"geometry":{"type":"Polygon","coordinates":[[[-97.473388,47.831191],[-97.473594,47.802247],[-97.452105,47.802306],[-97.452208,47.787811],[-97.366352,47.788555],[-97.366185,47.802838],[-97.26089,47.802725],[-97.260854,47.817818],[-97.244628,47.818393],[-97.242931,47.817433],[-97.239013,47.817269],[-97.23914,47.831766],[-97.267689,47.831992],[-97.291946,47.831851],[-97.293136,47.831951],[-97.303678,47.831719],[-97.325043,47.83173],[-97.325724,47.846196],[-97.239414,47.846231],[-97.239006,47.875423],[-97.238844,47.918487],[-97.238854,47.930446],[-97.239145,47.933077],[-97.239062,47.94753],[-97.303622,47.947634],[-97.303678,47.976671],[-97.346834,47.976554],[-97.346891,47.991079],[-97.325143,47.990934],[-97.325187,48.005386],[-97.36371,48.005865],[-97.364239,47.972998],[-97.364451,47.955656],[-97.364467,47.95462],[-97.364512,47.951171],[-97.353685,47.951205],[-97.353745,47.948152],[-97.350198,47.948168],[-97.349945,47.95493],[-97.325177,47.955117],[-97.325128,47.94691],[-97.364601,47.946761],[-97.364715,47.935292],[-97.364189,47.933429],[-97.367001,47.933415],[-97.386905,47.933351],[-97.400655,47.933293],[-97.418504,47.933228],[-97.418476,47.940062],[-97.423873,47.940045],[-97.423821,47.954539],[-97.418984,47.954575],[-97.424127,47.956271],[-97.426451,47.957984],[-97.429173,47.95891],[-97.429261,47.947315],[-97.472453,47.947152],[-97.472683,47.919165],[-97.443477,47.918371],[-97.429518,47.918429],[-97.430002,47.874955],[-97.451472,47.874853],[-97.451761,47.845854],[-97.473315,47.845751],[-97.473388,47.831191]]]}},{"type":"Feature","properties":{"zcta5":"58233","AFFGEOID10":"8600000US58233","GEOID10":"58233","ALAND10":181909410,"AWATER10":0,"county_name":"Grand Forks","state_code":"ND","county_state":"Grand Forks County, ND","county_fips":"38035","risk_level_county":"Higher Risk (60–69% vaccinated)","mean_vaccination_rate_county":65.56,"risk_level_zcta":"Very High Risk (<60% vaccinated)","mean_vaccination_rate_zips":52.71,"cases":36},"geometry":{"type":"Polygon","coordinates":[[[-97.687249,48.23829],[-97.687281,48.209303],[-97.665547,48.209285],[-97.665555,48.194812],[-97.514043,48.194703],[-97.514137,48.165737],[-97.492207,48.166125],[-97.470216,48.165757],[-97.470161,48.180286],[-97.470461,48.194799],[-97.468558,48.194854],[-97.467278,48.19482],[-97.38379,48.19496],[-97.36223,48.194755],[-97.362432,48.215176],[-97.360986,48.212327],[-97.358711,48.214278],[-97.354742,48.214182],[-97.358854,48.217774],[-97.35995,48.223738],[-97.362277,48.223731],[-97.362266,48.238207],[-97.40525,48.238462],[-97.405159,48.257915],[-97.401972,48.259332],[-97.399986,48.25948],[-97.401829,48.261155],[-97.402032,48.262305],[-97.40001,48.262847],[-97.399116,48.264486],[-97.403899,48.266918],[-97.40226,48.267454],[-97.448163,48.2673],[-97.448518,48.266645],[-97.448547,48.260117],[-97.460012,48.260085],[-97.460028,48.267335],[-97.470199,48.26722],[-97.47027,48.252741],[-97.48144,48.252722],[-97.481504,48.267166],[-97.491881,48.267182],[-97.513899,48.267147],[-97.513963,48.25266],[-97.557366,48.252763],[-97.557353,48.267269],[-97.600777,48.267298],[-97.600789,48.281737],[-97.622473,48.281773],[-97.622534,48.238301],[-97.625361,48.238388],[-97.64385,48.238328],[-97.643812,48.259703],[-97.655183,48.259729],[-97.655158,48.267281],[-97.643799,48.267143],[-97.643791,48.274238],[-97.665503,48.274361],[-97.665521,48.267258],[-97.67709,48.267255],[-97.677209,48.259898],[-97.686348,48.259886],[-97.681096,48.250248],[-97.677859,48.2387],[-97.679153,48.238278],[-97.687249,48.23829]]]}},{"type":"Feature","properties":{"zcta5":"58266","AFFGEOID10":"8600000US58266","GEOID10":"58266","ALAND10":278664165,"AWATER10":1664183,"county_name":"Grand Forks","state_code":"ND","county_state":"Grand Forks County, ND","county_fips":"38035","risk_level_county":"Higher Risk (60–69% vaccinated)","mean_vaccination_rate_county":65.56,"risk_level_zcta":"Medium Risk (70–79% vaccinated)","mean_vaccination_rate_zips":73.17,"cases":36},"geometry":{"type":"Polygon","coordinates":[[[-97.903454,48.093465],[-97.903599,48.020897],[-97.882179,48.020803],[-97.882081,48.019193],[-97.882076,47.976567],[-97.899632,47.976504],[-97.910605,47.972545],[-97.91295,47.976926],[-97.916285,47.976527],[-97.968297,47.976552],[-97.968219,47.933032],[-97.92512,47.933245],[-97.92514,47.906014],[-97.925734,47.904064],[-97.94677,47.904081],[-97.946708,47.875077],[-97.946645,47.846149],[-97.925123,47.845898],[-97.924603,47.831702],[-97.922588,47.831626],[-97.882157,47.831628],[-97.882112,47.845994],[-97.882041,47.929054],[-97.873665,47.929136],[-97.861271,47.928848],[-97.861226,47.904131],[-97.817335,47.904101],[-97.818054,47.904838],[-97.818107,47.942788],[-97.818311,47.947746],[-97.795747,47.947814],[-97.795765,47.95128],[-97.796623,47.956921],[-97.796565,47.962194],[-97.781304,47.962248],[-97.779916,47.961887],[-97.774945,47.962272],[-97.774941,47.965384],[-97.77733,47.967641],[-97.776944,47.968905],[-97.775039,47.970108],[-97.787966,47.981731],[-97.793529,47.985428],[-97.818045,47.998474],[-97.81805,48.005648],[-97.796496,48.005668],[-97.796441,48.020854],[-97.773904,48.021697],[-97.773827,48.078854],[-97.752253,48.078886],[-97.75226,48.06438],[-97.730626,48.064388],[-97.730603,48.078904],[-97.708944,48.078898],[-97.70896,48.093421],[-97.709055,48.107776],[-97.709245,48.122312],[-97.752294,48.12236],[-97.752301,48.129591],[-97.762772,48.130266],[-97.773829,48.129211],[-97.773706,48.136876],[-97.838744,48.136899],[-97.838763,48.107866],[-97.860427,48.107913],[-97.860459,48.093457],[-97.903454,48.093465]]]}},{"type":"Feature","properties":{"zcta5":"58240","AFFGEOID10":"8600000US58240","GEOID10":"58240","ALAND10":389382394,"AWATER10":2775376,"county_name":"Grand Forks","state_code":"ND","county_state":"Grand Forks County, ND","county_fips":"38035","risk_level_county":"Higher Risk (60–69% vaccinated)","mean_vaccination_rate_county":65.56,"risk_level_zcta":"Medium Risk (70–79% vaccinated)","mean_vaccination_rate_zips":77.07,"cases":36},"geometry":{"type":"Polygon","coordinates":[[[-97.707647,47.57185],[-97.707803,47.557308],[-97.664974,47.556896],[-97.664803,47.585903],[-97.65655,47.586318],[-97.631479,47.602293],[-97.632527,47.599877],[-97.630907,47.598139],[-97.630607,47.595008],[-97.62946,47.592997],[-97.63014,47.589798],[-97.628679,47.584736],[-97.630733,47.582771],[-97.632919,47.582012],[-97.635542,47.585677],[-97.643381,47.585729],[-97.643696,47.556708],[-97.622155,47.556619],[-97.622052,47.571109],[-97.600651,47.570915],[-97.60077,47.556434],[-97.537187,47.556271],[-97.537267,47.548313],[-97.526201,47.548269],[-97.526515,47.556277],[-97.515809,47.556285],[-97.515958,47.541764],[-97.49453,47.541802],[-97.494439,47.556303],[-97.479561,47.55628],[-97.481924,47.555749],[-97.481247,47.554509],[-97.483373,47.554433],[-97.48219,47.551794],[-97.482694,47.550416],[-97.485057,47.551549],[-97.486036,47.551087],[-97.484481,47.549733],[-97.484749,47.54778],[-97.482253,47.548847],[-97.476613,47.545559],[-97.47442,47.547856],[-97.473407,47.54728],[-97.473116,47.556242],[-97.455228,47.556401],[-97.45411,47.558245],[-97.455556,47.560304],[-97.457746,47.560968],[-97.457029,47.564034],[-97.459288,47.564652],[-97.458237,47.565979],[-97.45742,47.569137],[-97.459542,47.570693],[-97.453753,47.570862],[-97.410637,47.570764],[-97.410553,47.585076],[-97.38914,47.585034],[-97.389064,47.599538],[-97.374577,47.599512],[-97.374488,47.598561],[-97.372457,47.596683],[-97.375789,47.596509],[-97.376828,47.593493],[-97.372889,47.594246],[-97.374742,47.592489],[-97.37264,47.589442],[-97.373583,47.587995],[-97.372735,47.587026],[-97.372888,47.585027],[-97.367763,47.58499],[-97.367747,47.575007],[-97.366553,47.575075],[-97.366857,47.573272],[-97.364224,47.571894],[-97.363954,47.570783],[-97.346414,47.570594],[-97.346259,47.628587],[-97.325692,47.628476],[-97.325403,47.657425],[-97.304055,47.657178],[-97.304115,47.649524],[-97.282621,47.649483],[-97.282665,47.645049],[-97.284633,47.643945],[-97.284832,47.642793],[-97.282709,47.642793],[-97.261305,47.642818],[-97.261225,47.649558],[-97.260935,47.672189],[-97.303375,47.672187],[-97.3034,47.68672],[-97.346218,47.686723],[-97.346236,47.701197],[-97.282369,47.701244],[-97.281928,47.715772],[-97.324828,47.715712],[-97.324866,47.730219],[-97.409725,47.729908],[-97.409864,47.715434],[-97.442663,47.715431],[-97.442588,47.72278],[-97.452812,47.722764],[-97.452973,47.700945],[-97.474513,47.70098],[-97.474306,47.715447],[-97.49572,47.715378],[-97.49616,47.686473],[-97.50684,47.686508],[-97.506919,47.672066],[-97.558278,47.672089],[-97.559381,47.672188],[-97.601189,47.672115],[-97.602554,47.672183],[-97.641302,47.672158],[-97.641169,47.664079],[-97.633701,47.664095],[-97.633671,47.658096],[-97.686522,47.658396],[-97.686442,47.643924],[-97.664957,47.643764],[-97.664642,47.629316],[-97.685787,47.629435],[-97.685969,47.614958],[-97.670403,47.614875],[-97.670587,47.606946],[-97.672729,47.603707],[-97.676547,47.605536],[-97.678676,47.605239],[-97.68074,47.606495],[-97.682897,47.606927],[-97.68382,47.606263],[-97.681801,47.605209],[-97.683778,47.603882],[-97.68652,47.604821],[-97.690188,47.600467],[-97.686211,47.600455],[-97.686306,47.571482],[-97.707647,47.57185]]]}},{"type":"Feature","properties":{"zcta5":"58256","AFFGEOID10":"8600000US58256","GEOID10":"58256","ALAND10":235431013,"AWATER10":1860902,"county_name":"Grand Forks","state_code":"ND","county_state":"Grand Forks County, ND","county_fips":"38035","risk_level_county":"Higher Risk (60–69% vaccinated)","mean_vaccination_rate_county":65.56,"risk_level_zcta":"Medium Risk (70–79% vaccinated)","mean_vaccination_rate_zips":73.54,"cases":36},"geometry":{"type":"Polygon","coordinates":[[[-97.363145,48.09301],[-97.362625,48.078388],[-97.319891,48.078034],[-97.319648,48.063487],[-97.298531,48.06349],[-97.298776,48.034602],[-97.267612,48.034355],[-97.266656,48.01997],[-97.237257,48.0198],[-97.083724,48.019613],[-97.084008,48.055043],[-97.087907,48.056925],[-97.089668,48.058256],[-97.090645,48.060157],[-97.090636,48.061761],[-97.091827,48.062793],[-97.105698,48.063016],[-97.105713,48.068867],[-97.106059,48.06967],[-97.109983,48.070427],[-97.111004,48.071599],[-97.110967,48.077492],[-97.105653,48.077583],[-97.106199,48.089483],[-97.110641,48.090378],[-97.111531,48.091848],[-97.126802,48.092052],[-97.126777,48.106565],[-97.123205,48.106648],[-97.123666,48.108004],[-97.123135,48.109497],[-97.12104,48.112281],[-97.120592,48.113365],[-97.120702,48.114987],[-97.121586,48.116925],[-97.126862,48.124277],[-97.128279,48.127185],[-97.129453,48.133133],[-97.132176,48.135829],[-97.133468,48.137101],[-97.13252,48.137641],[-97.127652,48.136193],[-97.124898,48.136193],[-97.123093,48.136969],[-97.122326,48.138597],[-97.123675,48.140319],[-97.126626,48.14152],[-97.131914,48.142392],[-97.137911,48.143237],[-97.140708,48.142206],[-97.143569,48.140997],[-97.146122,48.141649],[-97.146667,48.143203],[-97.145887,48.145104],[-97.140295,48.150894],[-97.123646,48.157021],[-97.12102,48.159086],[-97.121167,48.161102],[-97.123704,48.162506],[-97.127392,48.162748],[-97.131967,48.161472],[-97.134502,48.160295],[-97.137985,48.15954],[-97.14195,48.160202],[-97.144242,48.16249],[-97.145199,48.166706],[-97.146331,48.168583],[-97.147511,48.172407],[-97.146381843197,48.173223],[-97.145243,48.174046],[-97.13895,48.174656],[-97.13837734733879,48.1749693211996],[-97.147528,48.17441],[-97.149161,48.171787],[-97.148569,48.169355],[-97.147088,48.167257],[-97.147155,48.164316],[-97.154462,48.164043],[-97.15572,48.163147],[-97.159009,48.164027],[-97.160506,48.165375],[-97.163064,48.164052],[-97.166576,48.164835],[-97.163912,48.166456],[-97.16176,48.166523],[-97.160599,48.167528],[-97.161623,48.16826],[-97.164526,48.167964],[-97.164662,48.169198],[-97.161416,48.170842],[-97.160152,48.172463],[-97.1566,48.172531],[-97.15554,48.173467],[-97.156273,48.174992],[-97.156377,48.178184],[-97.157672,48.178628],[-97.168276,48.178699],[-97.167539,48.193798],[-97.187715,48.193784],[-97.188859,48.193702],[-97.190845,48.193659],[-97.211054,48.193715],[-97.212013,48.164472],[-97.233617,48.164527],[-97.234222,48.135739],[-97.251214,48.135799],[-97.254963,48.138656],[-97.255018,48.135826],[-97.276729,48.135669],[-97.276477,48.150141],[-97.29793,48.150183],[-97.298145,48.135615],[-97.31992,48.136084],[-97.31971,48.127738],[-97.319583,48.121532],[-97.320219,48.09911],[-97.319974,48.092356],[-97.363145,48.09301]]]}},{"type":"Feature","properties":{"zcta5":"58258","AFFGEOID10":"8600000US58258","GEOID10":"58258","ALAND10":110403604,"AWATER10":653759,"county_name":"Grand Forks","state_code":"ND","county_state":"Grand Forks County, ND","county_fips":"38035","risk_level_county":"Higher Risk (60–69% vaccinated)","mean_vaccination_rate_county":65.56,"risk_level_zcta":"Higher Risk (60–69% vaccinated)","mean_vaccination_rate_zips":65.92,"cases":36},"geometry":{"type":"Polygon","coordinates":[[[-97.472103,48.020683],[-97.472231,48.005118],[-97.428805,48.005274],[-97.429053,47.97632],[-97.417088,47.97635],[-97.418438,47.979156],[-97.417286,47.980167],[-97.412297,47.978971],[-97.411655,47.980488],[-97.41391,47.983176],[-97.409498,47.986093],[-97.406763,47.98721],[-97.40501,47.988497],[-97.404168,47.990901],[-97.390999,47.990949],[-97.391172,47.976535],[-97.385751,47.976475],[-97.385836,47.969294],[-97.375047,47.969318],[-97.375012,47.972971],[-97.364239,47.972998],[-97.36371,48.005865],[-97.325187,48.005386],[-97.325143,47.990934],[-97.346891,47.991079],[-97.346834,47.976554],[-97.303678,47.976671],[-97.290006,47.976648],[-97.282122,47.979512],[-97.278964,47.979538],[-97.27706,47.977252],[-97.275698,47.97828],[-97.273214,47.978211],[-97.270867,47.977022],[-97.268145,47.977112],[-97.266679,47.979693],[-97.261473,47.979713],[-97.260587,47.980352],[-97.260892,47.982226],[-97.260014,47.980406],[-97.260673,47.976429],[-97.238941,47.97644],[-97.238659,48.011842],[-97.237257,48.0198],[-97.266656,48.01997],[-97.267612,48.034355],[-97.298776,48.034602],[-97.298531,48.06349],[-97.319648,48.063487],[-97.319891,48.078034],[-97.362625,48.078388],[-97.363145,48.09301],[-97.374515,48.093039],[-97.384241,48.093329],[-97.385005,48.020861],[-97.392915,48.020477],[-97.39588,48.020888],[-97.400494,48.020637],[-97.472103,48.020683]]]}},{"type":"Feature","properties":{"zcta5":"58267","AFFGEOID10":"8600000US58267","GEOID10":"58267","ALAND10":609764896,"AWATER10":387425,"county_name":"Grand Forks","state_code":"ND","county_state":"Grand Forks County, ND","county_fips":"38035","risk_level_county":"Higher Risk (60–69% vaccinated)","mean_vaccination_rate_county":65.56,"risk_level_zcta":"Higher Risk (60–69% vaccinated)","mean_vaccination_rate_zips":63.5,"cases":36},"geometry":{"type":"Polygon","coordinates":[[[-97.882157,47.831628],[-97.882553,47.788148],[-97.817886,47.788181],[-97.817797,47.773684],[-97.816477,47.773788],[-97.774788,47.773787],[-97.774757,47.759185],[-97.817786,47.759175],[-97.818173,47.701199],[-97.882428,47.701192],[-97.882405,47.672179],[-97.779497,47.672215],[-97.779826,47.664517],[-97.771157,47.664429],[-97.771196,47.644357],[-97.749786,47.644315],[-97.749771,47.65881],[-97.728379,47.658006],[-97.728451,47.64351],[-97.707868,47.644045],[-97.707826,47.642957],[-97.702895,47.642727],[-97.700933,47.640684],[-97.699601,47.641786],[-97.699889,47.644015],[-97.686442,47.643924],[-97.686522,47.658396],[-97.633671,47.658096],[-97.633701,47.664095],[-97.641169,47.664079],[-97.641302,47.672158],[-97.602554,47.672183],[-97.601189,47.672115],[-97.559381,47.672188],[-97.558278,47.672089],[-97.506919,47.672066],[-97.50684,47.686508],[-97.49616,47.686473],[-97.49572,47.715378],[-97.474306,47.715447],[-97.474513,47.70098],[-97.452973,47.700945],[-97.452812,47.722764],[-97.442588,47.72278],[-97.442663,47.715431],[-97.409864,47.715434],[-97.409725,47.729908],[-97.324866,47.730219],[-97.324607,47.759335],[-97.346026,47.759422],[-97.346085,47.773866],[-97.3665,47.773861],[-97.366352,47.788555],[-97.452208,47.787811],[-97.452105,47.802306],[-97.473594,47.802247],[-97.473388,47.831191],[-97.538112,47.831176],[-97.538213,47.84571],[-97.581316,47.845695],[-97.645174,47.845741],[-97.645191,47.831248],[-97.66662,47.831354],[-97.666713,47.845836],[-97.709786,47.846042],[-97.70972,47.831546],[-97.731406,47.831647],[-97.731412,47.846128],[-97.773834,47.8462],[-97.775152,47.846413],[-97.785947,47.846279],[-97.792318,47.841887],[-97.796413,47.839723],[-97.796412,47.831657],[-97.796633,47.828845],[-97.796579,47.817159],[-97.817899,47.817162],[-97.817924,47.831646],[-97.839462,47.831655],[-97.839518,47.846205],[-97.882112,47.845994],[-97.882157,47.831628]]]}},{"type":"Feature","properties":{"zcta5":"58261","AFFGEOID10":"8600000US58261","GEOID10":"58261","ALAND10":366604403,"AWATER10":3694282,"county_name":"Grand Forks","state_code":"ND","county_state":"Grand Forks County, ND","county_fips":"38035","risk_level_county":"Higher Risk (60–69% vaccinated)","mean_vaccination_rate_county":65.56,"risk_level_zcta":"Medium Risk (70–79% vaccinated)","mean_vaccination_rate_zips":75.72,"cases":36},"geometry":{"type":"Polygon","coordinates":[[[-97.189627,48.338719],[-97.194717,48.338941],[-97.194743,48.346438],[-97.200239,48.346433],[-97.200252,48.353389],[-97.211025,48.353338],[-97.211018,48.338836],[-97.277531,48.338874],[-97.277057,48.324429],[-97.29853,48.32446],[-97.299036,48.338914],[-97.320624,48.339179],[-97.320088,48.331872],[-97.319884,48.310274],[-97.341609,48.310473],[-97.342439,48.33935],[-97.363997,48.339284],[-97.384458,48.339911],[-97.383394,48.336146],[-97.383296,48.310859],[-97.402186,48.310833],[-97.402496,48.309551],[-97.40499,48.309374],[-97.404991,48.31084],[-97.42672,48.310804],[-97.426724,48.296315],[-97.448426,48.296264],[-97.448438,48.325227],[-97.470187,48.325194],[-97.470192,48.310711],[-97.535533,48.310629],[-97.535569,48.296147],[-97.491887,48.296181],[-97.491881,48.267182],[-97.481504,48.267166],[-97.48144,48.252722],[-97.47027,48.252741],[-97.470199,48.26722],[-97.460028,48.267335],[-97.460012,48.260085],[-97.448547,48.260117],[-97.448518,48.266645],[-97.448163,48.2673],[-97.40226,48.267454],[-97.403899,48.266918],[-97.399116,48.264486],[-97.40001,48.262847],[-97.402032,48.262305],[-97.401829,48.261155],[-97.399986,48.25948],[-97.401972,48.259332],[-97.405159,48.257915],[-97.40525,48.238462],[-97.362266,48.238207],[-97.362277,48.223731],[-97.35995,48.223738],[-97.358854,48.217774],[-97.354742,48.214182],[-97.358711,48.214278],[-97.360986,48.212327],[-97.362432,48.215176],[-97.36223,48.194755],[-97.38379,48.19496],[-97.384241,48.093329],[-97.374515,48.093039],[-97.363145,48.09301],[-97.319974,48.092356],[-97.320219,48.09911],[-97.319583,48.121532],[-97.31971,48.127738],[-97.31992,48.136084],[-97.298145,48.135615],[-97.29793,48.150183],[-97.276477,48.150141],[-97.276729,48.135669],[-97.255018,48.135826],[-97.254963,48.138656],[-97.251214,48.135799],[-97.234222,48.135739],[-97.233617,48.164527],[-97.212013,48.164472],[-97.211054,48.193715],[-97.190845,48.193659],[-97.188859,48.193702],[-97.189011,48.237085],[-97.186487,48.237071],[-97.18833,48.23936],[-97.188386,48.251376],[-97.16771,48.251499],[-97.1678,48.265985],[-97.189251,48.266038],[-97.18922,48.295316],[-97.1887,48.298156],[-97.189183,48.338712],[-97.189627,48.338719]]]}},{"type":"Feature","properties":{"zcta5":"56744","AFFGEOID10":"8600000US56744","GEOID10":"56744","ALAND10":265573212,"AWATER10":4989928,"county_name":"Grand Forks","state_code":"ND","county_state":"Grand Forks County, ND","county_fips":"38035","risk_level_county":"Higher Risk (60–69% vaccinated)","mean_vaccination_rate_county":65.56,"risk_level_zcta":"Higher Risk (60–69% vaccinated)","mean_vaccination_rate_zips":66.4,"cases":36},"geometry":{"type":"MultiPolygon","coordinates":[[[[-97.063596,48.136952],[-97.063584,48.136719],[-97.063435,48.122361],[-97.041744,48.122214],[-97.041818,48.13679],[-97.060928,48.136925],[-97.063596,48.136952]]],[[[-97.13721743003819,48.41364848955129],[-97.134844,48.411922],[-97.131631,48.409527],[-97.131479,48.406586],[-97.135795,48.404187],[-97.140647,48.401847],[-97.143496,48.398859],[-97.145693,48.397431],[-97.148155,48.396759],[-97.153429,48.396967],[-97.159373,48.396025],[-97.162103,48.394761],[-97.16329,48.391987],[-97.160843,48.391245],[-97.157681,48.391161],[-97.15656,48.390635],[-97.157737,48.387275],[-97.15721,48.385732],[-97.150587,48.382383],[-97.147027,48.381396],[-97.144315,48.3816],[-97.140637,48.383223],[-97.136247,48.383933],[-97.134419,48.383267],[-97.133377,48.382026],[-97.13449,48.380776],[-97.140381,48.37969],[-97.141351,48.378458],[-97.137647,48.373565],[-97.13736,48.371757],[-97.139286,48.3704],[-97.143849,48.370311],[-97.149801,48.371101],[-97.152456,48.370974],[-97.154806,48.36997],[-97.156276,48.366198],[-97.155481,48.363768],[-97.148482,48.360717],[-97.145682972307,48.3580355389944],[-97.14897,48.358483],[-97.149756,48.355894],[-97.152016,48.355397],[-97.151072,48.353035],[-97.167351,48.353117],[-97.167363,48.345914],[-97.178411,48.345863],[-97.178411,48.353156],[-97.18963,48.353207],[-97.189627,48.338719],[-97.189183,48.338712],[-97.1887,48.298156],[-97.18922,48.295316],[-97.189251,48.266038],[-97.1678,48.265985],[-97.16771,48.251499],[-97.188386,48.251376],[-97.18833,48.23936],[-97.186487,48.237071],[-97.189011,48.237085],[-97.188859,48.193702],[-97.187715,48.193784],[-97.167539,48.193798],[-97.168276,48.178699],[-97.157672,48.178628],[-97.156377,48.178184],[-97.156273,48.174992],[-97.15554,48.173467],[-97.1566,48.172531],[-97.160152,48.172463],[-97.161416,48.170842],[-97.164662,48.169198],[-97.164526,48.167964],[-97.161623,48.16826],[-97.160599,48.167528],[-97.16176,48.166523],[-97.163912,48.166456],[-97.166576,48.164835],[-97.163064,48.164052],[-97.160506,48.165375],[-97.159009,48.164027],[-97.15572,48.163147],[-97.154462,48.164043],[-97.147155,48.164316],[-97.147088,48.167257],[-97.148569,48.169355],[-97.149161,48.171787],[-97.147528,48.17441],[-97.13837734733879,48.1749693211996],[-97.13895,48.174656],[-97.145243,48.174046],[-97.146381843197,48.173223],[-97.147511,48.172407],[-97.146331,48.168583],[-97.145199,48.166706],[-97.144242,48.16249],[-97.14195,48.160202],[-97.137985,48.15954],[-97.134502,48.160295],[-97.131967,48.161472],[-97.127392,48.162748],[-97.123704,48.162506],[-97.121167,48.161102],[-97.12102,48.159086],[-97.123646,48.157021],[-97.140295,48.150894],[-97.145887,48.145104],[-97.146667,48.143203],[-97.146122,48.141649],[-97.143569,48.140997],[-97.140708,48.142206],[-97.137911,48.143237],[-97.131914,48.142392],[-97.126626,48.14152],[-97.123675,48.140319],[-97.122326,48.138597],[-97.123093,48.136969],[-97.124898,48.136193],[-97.127652,48.136193],[-97.13252,48.137641],[-97.133468,48.137101],[-97.132176,48.135829],[-97.129453,48.133133],[-97.128279,48.127185],[-97.126862,48.124277],[-97.121586,48.116925],[-97.120702,48.114987],[-97.120592,48.113365],[-97.12104,48.112281],[-97.123135,48.109497],[-97.123666,48.108004],[-97.123205,48.106648],[-97.119773,48.105381],[-97.113194,48.106188],[-97.11147,48.105913],[-97.109535,48.104723],[-97.108428,48.099824],[-97.104183,48.097901],[-97.102249,48.096694],[-97.102303,48.094882],[-97.104027,48.093806],[-97.108894,48.092873],[-97.109857,48.091395],[-97.108046,48.090537],[-97.104736,48.090103],[-97.102165,48.089122],[-97.099798,48.085884],[-97.099431,48.082106],[-97.100771,48.077452],[-97.104154,48.074578],[-97.104697,48.073094],[-97.104483,48.072428],[-97.103052,48.071669],[-97.097772,48.07108],[-97.095153,48.066837],[-97.086986,48.058222],[-97.0841477399421,48.0565374985528],[-97.084333,48.06417],[-97.087499,48.064321],[-97.087513,48.065316],[-97.080565,48.065366],[-97.080987,48.073355],[-97.084452,48.073913],[-97.085427,48.0754],[-97.089861,48.075723],[-97.089912,48.078686],[-97.06296,48.078978],[-97.063104,48.093484],[-97.041475,48.093344],[-97.041607,48.10692],[-97.042164,48.107606],[-97.063264,48.107788],[-97.063417,48.120521],[-97.063899,48.121742],[-97.065669,48.122358],[-97.085275,48.12253],[-97.085357,48.137044],[-97.063596,48.136952],[-97.063723,48.15103],[-97.041929,48.150998],[-97.04194,48.151378],[-97.042086,48.173183],[-97.063722,48.173156],[-97.064299,48.224203],[-97.021055,48.224201],[-97.021535,48.267757],[-97.064761,48.267686],[-97.065129,48.282202],[-97.070365,48.282221],[-97.069578,48.283133],[-97.066535,48.283953],[-97.06577,48.286046],[-97.065947,48.287584],[-97.063725,48.288229],[-97.065863,48.289799],[-97.065284,48.2913],[-97.066449,48.292346],[-97.063169,48.29312],[-97.056289,48.296759],[-97.054328,48.297517],[-97.052083,48.299251],[-97.051743,48.301365],[-97.048341,48.304235],[-97.047726,48.305463],[-97.049111,48.307215],[-97.047879,48.308611],[-97.048674,48.309817],[-97.04805,48.310771],[-97.086924,48.311174],[-97.086775,48.333442],[-97.08732,48.34009],[-97.088081,48.370103],[-97.108426,48.370123],[-97.107451,48.373588],[-97.107315,48.384665],[-97.096495,48.384685],[-97.096409,48.402028],[-97.099682,48.40277],[-97.099333,48.404057],[-97.102506,48.404602],[-97.100604,48.40578],[-97.100816,48.406551],[-97.103447,48.406572],[-97.102783,48.407539],[-97.104947,48.408078],[-97.103337,48.409808],[-97.105337,48.410874],[-97.103757,48.411698],[-97.104333,48.412719],[-97.106416,48.412508],[-97.106036,48.413542],[-97.104083,48.413831],[-97.107171,48.413922],[-97.109804,48.413805],[-97.108385,48.41535],[-97.111646,48.415699],[-97.107872,48.41741],[-97.108034,48.418912],[-97.110269,48.419298],[-97.110138,48.420235],[-97.1228229790877,48.42031173746901],[-97.122453,48.418276],[-97.123668,48.416692],[-97.126044,48.41612],[-97.130115,48.418977],[-97.133558,48.420916],[-97.136719,48.421544],[-97.140377,48.421574],[-97.146614,48.420577],[-97.150943,48.41948],[-97.154845,48.417463],[-97.155084,48.41429],[-97.153284,48.413051],[-97.15053,48.412742],[-97.147859,48.413227],[-97.143479,48.418035],[-97.141166,48.41863],[-97.139351,48.418031],[-97.138454,48.414548],[-97.13721743003819,48.41364848955129]]]]}},{"type":"Feature","properties":{"zcta5":"58278","AFFGEOID10":"8600000US58278","GEOID10":"58278","ALAND10":319675399,"AWATER10":1053611,"county_name":"Grand Forks","state_code":"ND","county_state":"Grand Forks County, ND","county_fips":"38035","risk_level_county":"Higher Risk (60–69% vaccinated)","mean_vaccination_rate_county":65.56,"risk_level_zcta":"Higher Risk (60–69% vaccinated)","mean_vaccination_rate_zips":69.12,"cases":36},"geometry":{"type":"Polygon","coordinates":[[[-97.366352,47.788555],[-97.3665,47.773861],[-97.346085,47.773866],[-97.346026,47.759422],[-97.324607,47.759335],[-97.324866,47.730219],[-97.260595,47.730316],[-97.26059,47.715809],[-97.239016,47.715743],[-97.239012,47.730206],[-97.195846,47.730159],[-97.195916,47.722347],[-97.185832,47.722333],[-97.185833,47.715619],[-97.174534,47.715627],[-97.174536,47.722399],[-97.164033,47.722371],[-97.163963,47.730139],[-97.131551,47.730126],[-97.13155,47.736827],[-97.120123,47.736837],[-97.119919,47.730067],[-97.06687,47.730219],[-97.066881,47.701166],[-97.045312,47.701132],[-97.045361,47.730186],[-97.056086,47.7302],[-97.058391,47.744749],[-97.02374,47.744611],[-97.023732,47.730073],[-97.002262,47.730096],[-97.002297,47.715584],[-96.980868,47.715647],[-96.980956,47.730149],[-96.937942,47.730108],[-96.938088,47.686604],[-96.907166,47.686654],[-96.906595,47.686485],[-96.905975,47.685662],[-96.905774,47.672098],[-96.902811,47.672109],[-96.88684095182609,47.6720526683322],[-96.886038,47.672445],[-96.885116,47.673808],[-96.886811,47.674245],[-96.891922,47.673157],[-96.895271,47.67357],[-96.896724,47.674758],[-96.896009,47.678288],[-96.899108,47.685558],[-96.899352,47.689473],[-96.900264,47.690775],[-96.901719,47.691621],[-96.902971,47.691576],[-96.905273,47.689246],[-96.907236,47.688493],[-96.908928,47.688722],[-96.909909,47.689522],[-96.910144,47.691235],[-96.907266,47.693976],[-96.907604,47.695119],[-96.909769,47.697313],[-96.911527,47.700512],[-96.912846,47.701746],[-96.914365,47.701582],[-96.917883,47.699226],[-96.920546,47.699649],[-96.9208,47.701401],[-96.917897,47.703319],[-96.915242,47.703527],[-96.912948,47.704721],[-96.911881,47.706745],[-96.912754,47.708319],[-96.91654,47.708626],[-96.920119,47.710383],[-96.920321,47.712394],[-96.919066,47.714433],[-96.919868,47.716982],[-96.922315,47.717928],[-96.924005,47.717294],[-96.926239,47.715018],[-96.928541,47.714261],[-96.930853,47.715387],[-96.930657,47.717561],[-96.928379,47.718744],[-96.923311,47.720387],[-96.919471,47.722515],[-96.918556,47.723863],[-96.919131,47.724731],[-96.92396,47.726137],[-96.925366,47.730233],[-96.930574,47.734352],[-96.932809,47.737139],[-96.933316,47.738716],[-96.933011,47.739949],[-96.929319,47.742988],[-96.928506,47.744884],[-96.928505,47.748037],[-96.929051,47.750331],[-96.931379,47.751772],[-96.934463,47.752956],[-96.93847,47.75388],[-96.939753,47.755292],[-96.938087,47.756398],[-96.934617,47.755389],[-96.932178,47.754742],[-96.929866,47.754827],[-96.928804,47.755724],[-96.930428,47.756699],[-96.935555,47.758276],[-96.937859,47.760195],[-96.9380041485576,47.7607534187565],[-96.938435,47.762411],[-96.936909,47.764536],[-96.934773,47.766457],[-96.93487966068949,47.7667253806377],[-96.935174,47.767466],[-96.939179,47.768397],[-96.945419,47.772372],[-96.946773,47.775091],[-96.949585,47.775228],[-96.952604,47.774556],[-96.955671,47.774748],[-96.956635,47.776188],[-96.953188,47.778389],[-96.952673,47.779777],[-96.956501,47.779798],[-96.95879,47.780335],[-96.959583,47.781783],[-96.957641,47.784182],[-96.95833,47.785708],[-96.961926,47.783292],[-96.9644,47.782995],[-96.965316,47.783474],[-96.96535,47.784937],[-96.963521,47.78729],[-96.961554,47.788707],[-96.957283,47.790147],[-96.957216,47.79097],[-96.95786,47.792021],[-96.963523,47.794601],[-96.966068,47.797297],[-96.96712,47.799852],[-96.971698,47.798255],[-96.973952,47.797683],[-96.976611,47.797982],[-96.977222,47.799474],[-96.976176,47.801544],[-96.972997,47.801795],[-96.972109,47.802556],[-96.974175,47.803576],[-96.979125,47.804015],[-96.983446,47.805383],[-96.986192,47.80695],[-96.991007,47.807672],[-96.991129,47.809365],[-96.987994,47.809943],[-96.981545,47.809026],[-96.978894,47.809882],[-96.977946,47.811619],[-96.980391,47.815662],[-96.980726,47.820411],[-96.98015,47.822379],[-96.978655,47.822526],[-96.975598,47.822107],[-96.974184,47.822978],[-96.974958,47.824517],[-96.97676,47.825296],[-96.981683,47.825785],[-96.984247,47.825265],[-96.987105,47.82555],[-96.986679,47.826568],[-96.982442,47.828391],[-96.981725,47.830421],[-96.984764,47.832982],[-96.986685,47.837639],[-96.989043,47.838105],[-96.992963,47.837911],[-96.994207,47.838844],[-96.992348,47.842155],[-96.993232,47.84285],[-96.996125,47.841819],[-96.998295,47.841724],[-96.99789,47.843163],[-96.996364,47.844398],[-96.993974,47.845974],[-96.9940095190528,47.846002621069196],[-97.045125,47.845841],[-97.045181,47.831817],[-97.066993,47.831898],[-97.067002,47.841708],[-97.06903,47.841718],[-97.069172,47.842667],[-97.067003,47.842711],[-97.067028,47.845854],[-97.082599,47.84587],[-97.078762,47.84075],[-97.077596,47.836602],[-97.077529,47.817323],[-97.08855,47.817316],[-97.08854,47.831843],[-97.108795,47.831382],[-97.153169,47.831504],[-97.153089,47.816981],[-97.239013,47.817269],[-97.242931,47.817433],[-97.244628,47.818393],[-97.260854,47.817818],[-97.26089,47.802725],[-97.366185,47.802838],[-97.366352,47.788555]]]}},{"type":"Feature","properties":{"zcta5":"58201","AFFGEOID10":"8600000US58201","GEOID10":"58201","ALAND10":182953199,"AWATER10":548802,"county_name":"Grand Forks","state_code":"ND","county_state":"Grand Forks County, ND","county_fips":"38035","risk_level_county":"Higher Risk (60–69% vaccinated)","mean_vaccination_rate_county":65.56,"risk_level_zcta":"Medium Risk (70–79% vaccinated)","mean_vaccination_rate_zips":77.33,"cases":36},"geometry":{"type":"Polygon","coordinates":[[[-97.238844,47.918487],[-97.239006,47.875423],[-97.239414,47.846231],[-97.325724,47.846196],[-97.325043,47.83173],[-97.303678,47.831719],[-97.293136,47.831951],[-97.291946,47.831851],[-97.267689,47.831992],[-97.23914,47.831766],[-97.239013,47.817269],[-97.153089,47.816981],[-97.153169,47.831504],[-97.108795,47.831382],[-97.08854,47.831843],[-97.08855,47.817316],[-97.077529,47.817323],[-97.077596,47.836602],[-97.078762,47.84075],[-97.082599,47.84587],[-97.067028,47.845854],[-97.067003,47.842711],[-97.069172,47.842667],[-97.06903,47.841718],[-97.067002,47.841708],[-97.066993,47.831898],[-97.045181,47.831817],[-97.045125,47.845841],[-96.9940095190528,47.846002621069196],[-96.996528,47.848032],[-96.997483,47.849969],[-96.996816,47.854405],[-96.998144,47.858882],[-96.9995680827065,47.86019084274059],[-97.000356,47.860915],[-97.001759,47.861266],[-97.005557,47.863977],[-97.005857,47.865277],[-97.003356,47.865877],[-97.001556,47.867377],[-97.002456,47.868677],[-97.005356,47.870177],[-97.012129255834,47.8709677776186],[-97.017356,47.871578],[-97.021256,47.872578],[-97.023156,47.873978],[-97.023156,47.874978],[-97.018955,47.876878],[-97.018595,47.877454],[-97.01835916666658,47.877831333333404],[-97.017955,47.878478],[-97.019355,47.880278],[-97.023355,47.882078],[-97.025355,47.884278],[-97.024955,47.886878],[-97.019155,47.889778],[-97.018955,47.891078],[-97.01935557605759,47.891338374437396],[-97.021066670282,47.8924505856833],[-97.024955,47.894978],[-97.023955,47.898078],[-97.02237727219469,47.8990744596665],[-97.0207038919308,47.9001313314121],[-97.020155,47.900478],[-97.020255,47.902178],[-97.024155,47.905278],[-97.024955,47.908178],[-97.023555,47.908478],[-97.020355,47.906378],[-97.0198926836825,47.9062736396574],[-97.017254,47.905678],[-97.0156592573099,47.9067653245614],[-97.015054,47.907178],[-97.015354,47.910278],[-97.017254,47.913078],[-97.023754,47.915878],[-97.018054,47.918078],[-97.017754,47.919778],[-97.0208787477896,47.921826154013296],[-97.0216165419116,47.9223097501605],[-97.0285143705308,47.9268310159782],[-97.031528,47.92445],[-97.032699,47.925136],[-97.035617,47.922807],[-97.035146,47.921969],[-97.040167,47.919248],[-97.044892,47.918483],[-97.066248,47.91853],[-97.076128,47.918547],[-97.114628,47.9187],[-97.131567,47.918655],[-97.153302,47.918687],[-97.152914,47.933174],[-97.174805,47.933252],[-97.174829,47.918366],[-97.238844,47.918487]]]}},{"type":"Feature","properties":{"zcta5":"58203","AFFGEOID10":"8600000US58203","GEOID10":"58203","ALAND10":175505231,"AWATER10":1077524,"county_name":"Grand Forks","state_code":"ND","county_state":"Grand Forks County, ND","county_fips":"38035","risk_level_county":"Higher Risk (60–69% vaccinated)","mean_vaccination_rate_county":65.56,"risk_level_zcta":"Medium Risk (70–79% vaccinated)","mean_vaccination_rate_zips":75.66,"cases":36},"geometry":{"type":"Polygon","coordinates":[[[-97.303678,47.976671],[-97.303622,47.947634],[-97.239062,47.94753],[-97.239145,47.933077],[-97.238854,47.930446],[-97.238844,47.918487],[-97.174829,47.918366],[-97.174805,47.933252],[-97.152914,47.933174],[-97.153302,47.918687],[-97.131567,47.918655],[-97.114628,47.9187],[-97.076128,47.918547],[-97.073995,47.919849],[-97.075692,47.920009],[-97.077662,47.921273],[-97.077664,47.922272],[-97.081069,47.922277],[-97.081071,47.925772],[-97.077602,47.925744],[-97.076281,47.924094],[-97.07644,47.922278],[-97.066392,47.922272],[-97.066248,47.91853],[-97.044892,47.918483],[-97.040167,47.919248],[-97.035146,47.921969],[-97.035617,47.922807],[-97.032699,47.925136],[-97.031528,47.92445],[-97.0285143705308,47.9268310159782],[-97.029654,47.927578],[-97.035754,47.930179],[-97.0373342399343,47.933240714872596],[-97.0373363254717,47.93324475560139],[-97.037354,47.933279],[-97.035554,47.936579],[-97.036054,47.939379],[-97.037834161638,47.9400106702586],[-97.0378812681564,47.9400273854748],[-97.039154,47.940479],[-97.044954,47.941079],[-97.051054,47.943379],[-97.054554,47.946279],[-97.055554,47.949079],[-97.055154,47.950779],[-97.052554,47.954779],[-97.052454,47.957179],[-97.054054,47.959679],[-97.059054,47.96208],[-97.061454,47.96358],[-97.061854,47.96448],[-97.061554,47.96588],[-97.057854,47.96898],[-97.057153,47.97048],[-97.059353,47.97398],[-97.059153,47.97538],[-97.056481,47.980556],[-97.053537,47.987948],[-97.053089,47.990252],[-97.053553,47.991612],[-97.054945,47.992924],[-97.062257,47.995948],[-97.064289,47.998508],[-97.066762,48.009558],[-97.065411,48.011337],[-97.063012,48.013179],[-97.063289,48.014989],[-97.064927,48.015658],[-97.069284,48.016176],[-97.070654,48.016918],[-97.072239,48.019107],[-97.071911,48.021395],[-97.068987,48.026267],[-97.068711,48.027694],[-97.070411,48.041765],[-97.072257,48.048068],[-97.074015,48.051212],[-97.075641,48.052725],[-97.082895,48.055794],[-97.0841477399421,48.0565374985528],[-97.086986,48.058222],[-97.095153,48.066837],[-97.097772,48.07108],[-97.103052,48.071669],[-97.104483,48.072428],[-97.104697,48.073094],[-97.104154,48.074578],[-97.100771,48.077452],[-97.099431,48.082106],[-97.099798,48.085884],[-97.102165,48.089122],[-97.104736,48.090103],[-97.108046,48.090537],[-97.109857,48.091395],[-97.108894,48.092873],[-97.104027,48.093806],[-97.102303,48.094882],[-97.102249,48.096694],[-97.104183,48.097901],[-97.108428,48.099824],[-97.109535,48.104723],[-97.11147,48.105913],[-97.113194,48.106188],[-97.119773,48.105381],[-97.123205,48.106648],[-97.126777,48.106565],[-97.126802,48.092052],[-97.111531,48.091848],[-97.110641,48.090378],[-97.106199,48.089483],[-97.105653,48.077583],[-97.110967,48.077492],[-97.111004,48.071599],[-97.109983,48.070427],[-97.106059,48.06967],[-97.105713,48.068867],[-97.105698,48.063016],[-97.091827,48.062793],[-97.090636,48.061761],[-97.090645,48.060157],[-97.089668,48.058256],[-97.087907,48.056925],[-97.084008,48.055043],[-97.083724,48.019613],[-97.237257,48.0198],[-97.238659,48.011842],[-97.238941,47.97644],[-97.260673,47.976429],[-97.260014,47.980406],[-97.260892,47.982226],[-97.260587,47.980352],[-97.261473,47.979713],[-97.266679,47.979693],[-97.268145,47.977112],[-97.270867,47.977022],[-97.273214,47.978211],[-97.275698,47.97828],[-97.27706,47.977252],[-97.278964,47.979538],[-97.282122,47.979512],[-97.290006,47.976648],[-97.303678,47.976671]]]}},{"type":"Feature","properties":{"zcta5":"58251","AFFGEOID10":"8600000US58251","GEOID10":"58251","ALAND10":509266402,"AWATER10":980709,"county_name":"Grand Forks","state_code":"ND","county_state":"Grand Forks County, ND","county_fips":"38035","risk_level_county":"Higher Risk (60–69% vaccinated)","mean_vaccination_rate_county":65.56,"risk_level_zcta":"Lower Risk (80–84% vaccinated)","mean_vaccination_rate_zips":83.29,"cases":36},"geometry":{"type":"Polygon","coordinates":[[[-97.708944,48.078898],[-97.730603,48.078904],[-97.730626,48.064388],[-97.75226,48.06438],[-97.752253,48.078886],[-97.773827,48.078854],[-97.773904,48.021697],[-97.796441,48.020854],[-97.796496,48.005668],[-97.81805,48.005648],[-97.818045,47.998474],[-97.793529,47.985428],[-97.787966,47.981731],[-97.775039,47.970108],[-97.776944,47.968905],[-97.77733,47.967641],[-97.774941,47.965384],[-97.774945,47.962272],[-97.779916,47.961887],[-97.781304,47.962248],[-97.796565,47.962194],[-97.796623,47.956921],[-97.795765,47.95128],[-97.795747,47.947814],[-97.818311,47.947746],[-97.818107,47.942788],[-97.818054,47.904838],[-97.817335,47.904101],[-97.861226,47.904131],[-97.861271,47.928848],[-97.873665,47.929136],[-97.882041,47.929054],[-97.882112,47.845994],[-97.839518,47.846205],[-97.839462,47.831655],[-97.817924,47.831646],[-97.817899,47.817162],[-97.796579,47.817159],[-97.796633,47.828845],[-97.796412,47.831657],[-97.796413,47.839723],[-97.792318,47.841887],[-97.785947,47.846279],[-97.775152,47.846413],[-97.773834,47.8462],[-97.731412,47.846128],[-97.731406,47.831647],[-97.70972,47.831546],[-97.709786,47.846042],[-97.666713,47.845836],[-97.66662,47.831354],[-97.645191,47.831248],[-97.645174,47.845741],[-97.581316,47.845695],[-97.581055,47.903667],[-97.577282,47.90408],[-97.53787,47.913549],[-97.531034,47.915551],[-97.530736,47.918173],[-97.532918,47.918618],[-97.532889,47.921786],[-97.537104,47.9218],[-97.537804,47.926066],[-97.539564,47.928369],[-97.537713,47.928323],[-97.537646,47.961661],[-97.559138,47.961678],[-97.559138,47.976168],[-97.580778,47.976161],[-97.580745,47.990689],[-97.537555,47.990627],[-97.537483,48.02076],[-97.514534,48.020734],[-97.514368,48.035231],[-97.536061,48.035251],[-97.535969,48.064266],[-97.557595,48.064199],[-97.557629,48.07878],[-97.579219,48.07881],[-97.579343,48.064367],[-97.600896,48.064272],[-97.600833,48.059691],[-97.612346,48.058411],[-97.612274,48.064142],[-97.622509,48.064316],[-97.644151,48.064321],[-97.644196,48.078816],[-97.665682,48.078881],[-97.66571,48.064334],[-97.68739,48.064344],[-97.687412,48.066376],[-97.688333,48.064354],[-97.708933,48.064379],[-97.708944,48.078898]]]}},{"type":"Feature","properties":{"zcta5":"58212","AFFGEOID10":"8600000US58212","GEOID10":"58212","ALAND10":522279768,"AWATER10":3801679,"county_name":"Grand Forks","state_code":"ND","county_state":"Grand Forks County, ND","county_fips":"38035","risk_level_county":"Higher Risk (60–69% vaccinated)","mean_vaccination_rate_county":65.56,"risk_level_zcta":"Higher Risk (60–69% vaccinated)","mean_vaccination_rate_zips":65.95,"cases":36},"geometry":{"type":"Polygon","coordinates":[[[-98.263044,47.672442],[-98.262037,47.670356],[-98.253897,47.670551],[-98.243988,47.670522],[-98.243687,47.659703],[-98.2194,47.659703],[-98.219458,47.645372],[-98.187536,47.645265],[-98.187432,47.616302],[-98.176693,47.616264],[-98.176746,47.601783],[-98.176807,47.587234],[-98.150823,47.587168],[-98.149778,47.587988],[-98.147022,47.587426],[-98.133744,47.587062],[-98.112256,47.587027],[-98.112264,47.572801],[-98.093167,47.572776],[-98.094353,47.571836],[-98.090599,47.566607],[-98.088166,47.565333],[-98.090224,47.564589],[-98.089075,47.563137],[-98.089917,47.561777],[-98.086439,47.5618],[-98.085325,47.561298],[-98.083975,47.562349],[-98.08742,47.563994],[-98.086137,47.564726],[-98.083435,47.563561],[-98.081072,47.564155],[-98.081442,47.560659],[-98.07945,47.559859],[-98.079349,47.561756],[-98.080228,47.563607],[-98.078202,47.565024],[-98.078203,47.565961],[-98.076312,47.566053],[-98.072968,47.563151],[-98.072934,47.561414],[-98.070605,47.560774],[-98.070571,47.55954],[-98.072529,47.557963],[-98.070941,47.557255],[-98.069423,47.5589],[-98.066586,47.558466],[-98.06662,47.556044],[-98.06959,47.555861],[-98.070434,47.554764],[-98.069354,47.553644],[-98.067733,47.553644],[-98.064797,47.555472],[-98.062602,47.555244],[-98.063143,47.55369],[-98.065337,47.551999],[-98.064358,47.55017],[-98.066624,47.551235],[-98.066637,47.549509],[-98.065564,47.547625],[-98.063113,47.545266],[-98.06225,47.545179],[-98.060728,47.547903],[-98.060121,47.54367],[-98.049309,47.543615],[-98.049285,47.550483],[-98.050139,47.551388],[-98.059168,47.555924],[-98.060036,47.556983],[-98.059959,47.572672],[-98.016756,47.572374],[-98.012408,47.569765],[-98.00871,47.569057],[-98.006164,47.572259],[-98.004562,47.572266],[-97.984929,47.574243],[-97.984781,47.600628],[-97.984655,47.601076],[-97.910098,47.601175],[-97.910085,47.606352],[-97.910823,47.60828],[-97.899404,47.608242],[-97.899311,47.630046],[-97.924396,47.630056],[-97.938836,47.642345],[-97.942162,47.644517],[-97.942135,47.659082],[-97.920711,47.659027],[-97.920739,47.672198],[-97.920323,47.672286],[-97.882405,47.672179],[-97.882428,47.701192],[-97.818173,47.701199],[-97.817786,47.759175],[-97.774757,47.759185],[-97.774788,47.773787],[-97.816477,47.773788],[-97.817797,47.773684],[-97.817886,47.788181],[-97.882553,47.788148],[-97.882157,47.831628],[-97.922588,47.831626],[-97.924603,47.831702],[-97.925123,47.845898],[-97.946645,47.846149],[-97.946708,47.875077],[-97.968249,47.875111],[-97.968236,47.860754],[-97.978925,47.860652],[-97.979058,47.857042],[-97.989476,47.856971],[-97.989665,47.831696],[-98.010658,47.831693],[-98.010863,47.875125],[-98.032367,47.87513],[-98.032404,47.846159],[-98.048269,47.846126],[-98.050928,47.846655],[-98.053972,47.84614],[-98.054023,47.80276],[-98.075428,47.80274],[-98.075406,47.788434],[-98.073258,47.788971],[-98.069729,47.788231],[-98.075407,47.78663],[-98.075108,47.759297],[-98.032433,47.759313],[-98.032472,47.744824],[-98.011553,47.744812],[-98.011194,47.715825],[-98.032536,47.715883],[-98.032611,47.686867],[-98.075537,47.68688],[-98.075462,47.701403],[-98.096975,47.701367],[-98.097027,47.686881],[-98.118829,47.686862],[-98.123541,47.686601],[-98.123401,47.688193],[-98.128588,47.694097],[-98.13057,47.695407],[-98.132613,47.698269],[-98.135837,47.701873],[-98.137943,47.70505],[-98.139633,47.705408],[-98.139832,47.696982],[-98.140078,47.698013],[-98.142719,47.697557],[-98.143836,47.697855],[-98.144476,47.701283],[-98.145865,47.700324],[-98.149687,47.704348],[-98.15121,47.705331],[-98.149617,47.707753],[-98.151985,47.709514],[-98.151206,47.710382],[-98.152966,47.711068],[-98.153949,47.709789],[-98.158689,47.709676],[-98.158451,47.711001],[-98.15625,47.711023],[-98.156552,47.713352],[-98.158681,47.714434],[-98.1591,47.715831],[-98.161253,47.715837],[-98.161382,47.673265],[-98.160644,47.672366],[-98.204296,47.672376],[-98.252233,47.672238],[-98.263044,47.672442]]]}}]}