{"type":"FeatureCollection","features":[{"type":"Feature","properties":{"zcta5":"39565","AFFGEOID10":"8600000US39565","GEOID10":"39565","ALAND10":722425237,"AWATER10":7263746,"county_name":"Harrison","state_code":"MS","county_state":"Harrison County, MS","county_fips":"28047","risk_level_county":"Medium Risk (70–79% vaccinated)","mean_vaccination_rate_county":76.46,"risk_level_zcta":"Higher Risk (60–69% vaccinated)","mean_vaccination_rate_zips":69.3,"cases":0},"geometry":{"type":"Polygon","coordinates":[[[-88.884417,30.65155],[-88.883775,30.533207],[-88.884912,30.532629],[-88.884934,30.527994],[-88.886048,30.525667],[-88.885987,30.523891],[-88.887567,30.522917],[-88.885995,30.522016],[-88.886102,30.520388],[-88.885484,30.518816],[-88.886033,30.518089],[-88.888047,30.518028],[-88.887696,30.517237],[-88.885606,30.517099],[-88.885781,30.516247],[-88.887951,30.514767],[-88.888435,30.512835],[-88.88978,30.511069],[-88.886376,30.509161],[-88.883623,30.513713],[-88.883375,30.488077],[-88.874411,30.48806],[-88.871689,30.486039],[-88.875156,30.479381],[-88.861942,30.479429],[-88.85866,30.480297],[-88.858661,30.479451],[-88.851688,30.479476],[-88.851583,30.47947],[-88.851104,30.479966],[-88.850694,30.479287],[-88.849774,30.475934],[-88.849135,30.472446],[-88.862615,30.471833],[-88.862704,30.469029],[-88.859084,30.468917],[-88.858992,30.465933],[-88.853799,30.465814],[-88.853829,30.464872],[-88.84664,30.464951],[-88.843648,30.458514],[-88.842971,30.454062],[-88.842762,30.454064],[-88.811864,30.454273],[-88.809586,30.454408],[-88.800172,30.456304],[-88.790013,30.458455],[-88.785151,30.458953],[-88.781754,30.458627],[-88.778856,30.457888],[-88.747715,30.447075],[-88.743616,30.446217],[-88.740458,30.446126],[-88.734843,30.446428],[-88.729646,30.445627],[-88.699179,30.435131],[-88.693881,30.433225],[-88.688524,30.432073],[-88.684482,30.432141],[-88.665105,30.434156],[-88.656183,30.435085],[-88.655974,30.435106],[-88.6571,30.437511],[-88.657509,30.4386],[-88.6576,30.43894],[-88.658092,30.441669],[-88.661606,30.445779],[-88.664256,30.446873],[-88.666685,30.448779],[-88.66339,30.449789],[-88.663117,30.451433],[-88.660213,30.451106],[-88.656265,30.452032],[-88.653268,30.453757],[-88.653166,30.455189],[-88.652803,30.456087],[-88.65026,30.457538],[-88.649727,30.458855],[-88.650068,30.459304],[-88.65001,30.461161],[-88.648958,30.464097],[-88.648274,30.464943],[-88.648181,30.471716],[-88.65619,30.471205],[-88.664492,30.471812],[-88.664478,30.467998],[-88.66731,30.469062],[-88.668619,30.468451],[-88.672228,30.46849],[-88.675407,30.467281],[-88.676739,30.460429],[-88.681901,30.463575],[-88.679836,30.464232],[-88.678934,30.465618],[-88.679956,30.465832],[-88.681086,30.468027],[-88.682121,30.476479],[-88.680794,30.475924],[-88.678305,30.476782],[-88.676255,30.4766],[-88.674318,30.478789],[-88.673219,30.478635],[-88.670642,30.477936],[-88.667315,30.478255],[-88.667797,30.477067],[-88.666979,30.476129],[-88.663088,30.477614],[-88.661742,30.477228],[-88.66322,30.475465],[-88.662901,30.474615],[-88.660835,30.473512],[-88.658411,30.473929],[-88.656465,30.473162],[-88.654412,30.473626],[-88.651496,30.473367],[-88.648345,30.478832],[-88.639967,30.483051],[-88.639573,30.484053],[-88.63656,30.48569],[-88.633145,30.486112],[-88.629966,30.483838],[-88.627858,30.482917],[-88.626412,30.480842],[-88.628535,30.478249],[-88.628327,30.475533],[-88.62723,30.47387],[-88.624949,30.473196],[-88.622909,30.47194],[-88.622096,30.47034],[-88.623428,30.46796],[-88.623303,30.466339],[-88.62134,30.462982],[-88.618381,30.461047],[-88.617859,30.460068],[-88.618233,30.457817],[-88.619221,30.456118],[-88.614481,30.455929],[-88.61286,30.456682],[-88.611809,30.459052],[-88.614329,30.463971],[-88.613348,30.465209],[-88.611773,30.465007],[-88.610464,30.463568],[-88.610883,30.460796],[-88.60931,30.459566],[-88.607297,30.459805],[-88.604218,30.462755],[-88.603271,30.465103],[-88.60373,30.468212],[-88.603556,30.471122],[-88.60415,30.47264],[-88.607024,30.473323],[-88.608298,30.47414],[-88.606519,30.476772],[-88.605675,30.478803],[-88.606144,30.479716],[-88.609698,30.480155],[-88.610043,30.481295],[-88.607342,30.483419],[-88.607001,30.484629],[-88.606945,30.488254],[-88.604808,30.492186],[-88.604848,30.494351],[-88.607136,30.497708],[-88.609147,30.49808],[-88.609713,30.497224],[-88.609817,30.494047],[-88.61422,30.48902],[-88.61574,30.488991],[-88.616278,30.490682],[-88.613652,30.492772],[-88.612103,30.494731],[-88.611431,30.497417],[-88.613263,30.502266],[-88.61397,30.503451],[-88.615613,30.504384],[-88.617585,30.504153],[-88.61881,30.504675],[-88.617328,30.507287],[-88.618345,30.510098],[-88.616647,30.512641],[-88.616602,30.514035],[-88.617586,30.515772],[-88.616943,30.516845],[-88.614158,30.51779],[-88.613651,30.515908],[-88.612349,30.515483],[-88.610873,30.518148],[-88.609473,30.518552],[-88.607423,30.51823],[-88.605028,30.516602],[-88.602714,30.516],[-88.601403,30.516692],[-88.597934,30.51951],[-88.594539,30.520353],[-88.592185,30.521413],[-88.590555,30.523527],[-88.591472,30.52802],[-88.589681,30.530396],[-88.587838,30.531699],[-88.58497,30.532401],[-88.585852,30.533809],[-88.588731,30.533626],[-88.591553,30.532734],[-88.592411,30.533152],[-88.59239,30.533901],[-88.588024,30.538999],[-88.587804,30.541185],[-88.592114,30.541968],[-88.593088,30.542691],[-88.593607,30.544834],[-88.592684,30.545674],[-88.587885,30.545859],[-88.585639,30.547155],[-88.584626,30.551063],[-88.583428,30.55273],[-88.580596,30.553832],[-88.577829,30.554011],[-88.576474,30.555292],[-88.580778,30.556422],[-88.583315,30.557808],[-88.584982,30.559921],[-88.585358,30.562383],[-88.584963,30.564637],[-88.582454,30.569024],[-88.579851,30.57438],[-88.580232,30.576129],[-88.584247,30.577346],[-88.584455,30.578304],[-88.582927,30.5784],[-88.579949,30.579325],[-88.578215,30.581122],[-88.575481,30.582628],[-88.571797,30.582477],[-88.570906,30.582845],[-88.570993,30.584286],[-88.574686,30.586592],[-88.576576,30.591026],[-88.582527,30.597413],[-88.584106,30.598088],[-88.587381,30.597594],[-88.588537,30.596659],[-88.588343,30.594476],[-88.585366,30.59212],[-88.585128,30.59041],[-88.585853,30.590343],[-88.589932,30.592594],[-88.592995,30.593113],[-88.595399,30.593901],[-88.597163,30.593667],[-88.600149,30.594019],[-88.60263,30.595142],[-88.604491,30.595125],[-88.605635,30.594136],[-88.605596,30.593063],[-88.603959,30.59145],[-88.604956,30.589476],[-88.606371,30.589157],[-88.610908,30.590632],[-88.613146,30.589843],[-88.615017,30.588352],[-88.617208,30.587229],[-88.618914,30.58557],[-88.620949,30.585486],[-88.621854,30.586405],[-88.621511,30.588554],[-88.617083,30.59123],[-88.613513,30.592343],[-88.612129,30.593734],[-88.61209,30.595628],[-88.613583,30.59712],[-88.614901,30.596701],[-88.618087,30.594359],[-88.622112,30.595074],[-88.62409,30.594723],[-88.626086,30.593315],[-88.627657,30.592828],[-88.629294,30.594091],[-88.629605,30.598609],[-88.630236,30.600204],[-88.631531,30.600642],[-88.634654,30.598344],[-88.637834,30.597569],[-88.640132,30.598585],[-88.640115,30.599834],[-88.638416,30.601373],[-88.63735,30.603136],[-88.637374,30.605367],[-88.638257,30.607209],[-88.639702,30.608553],[-88.641144,30.610749],[-88.641758,30.610477],[-88.642842,30.612957],[-88.6416,30.617603],[-88.642763,30.620678],[-88.645598,30.623225],[-88.646449,30.624897],[-88.646597,30.627128],[-88.647989,30.629108],[-88.651206,30.630671],[-88.652382,30.631986],[-88.653602,30.634433],[-88.653309,30.63633],[-88.652056,30.637721],[-88.650867,30.636737],[-88.652769,30.635571],[-88.65177,30.635098],[-88.651987,30.633844],[-88.650346,30.635642],[-88.648843,30.639612],[-88.644993,30.64533],[-88.644617,30.647706],[-88.645089,30.650503],[-88.644488,30.651615],[-88.642058,30.652484],[-88.639114,30.65113],[-88.636684,30.65114],[-88.63599,30.651646],[-88.635366,30.653718],[-88.634169,30.654779],[-88.632859,30.654685],[-88.632173,30.653712],[-88.631895,30.650495],[-88.630877,30.649939],[-88.629211,30.650262],[-88.628351,30.651197],[-88.628185,30.652759],[-88.628801,30.655014],[-88.628609,30.656823],[-88.629377,30.658676],[-88.633995,30.659905],[-88.637347,30.66127],[-88.638014,30.662183],[-88.638064,30.664162],[-88.635652,30.666867],[-88.634608,30.667004],[-88.630048,30.666018],[-88.628711,30.666771],[-88.629652,30.668625],[-88.632724,30.669363],[-88.637069,30.669711],[-88.637972,30.670267],[-88.637577,30.671685],[-88.634777,30.673031],[-88.633727,30.674125],[-88.632496,30.679206],[-88.632151,30.682649],[-88.633384,30.685228],[-88.634304,30.689419],[-88.636607,30.692065],[-88.637089,30.694166],[-88.635917,30.696057],[-88.634319,30.697602],[-88.635349,30.699675],[-88.639721,30.699594],[-88.641732,30.700541],[-88.644378,30.704369],[-88.646459,30.705436],[-88.647534,30.706663],[-88.647463,30.708373],[-88.643039,30.711386],[-88.642287,30.713332],[-88.642624,30.714173],[-88.644322,30.716346],[-88.64693,30.720818],[-88.648299,30.720477],[-88.649967,30.717887],[-88.652781,30.717058],[-88.654398,30.717812],[-88.655225,30.719582],[-88.653823,30.724262],[-88.65379,30.727974],[-88.655133,30.728755],[-88.660162,30.727244],[-88.665242,30.72824],[-88.666394,30.728053],[-88.665808,30.730709],[-88.665637,30.7318],[-88.663147,30.732892],[-88.661054,30.734722],[-88.733333,30.734781],[-88.740256,30.734638],[-88.739168,30.730641],[-88.737291,30.726291],[-88.737291,30.723761],[-88.737905,30.721927],[-88.740584,30.716785],[-88.742396,30.7168],[-88.745821,30.717745],[-88.74946,30.721117],[-88.752204,30.721851],[-88.754914,30.72358],[-88.761762,30.72353],[-88.76502,30.723755],[-88.765617,30.722067],[-88.767873,30.720441],[-88.767953,30.71957],[-88.769067,30.719273],[-88.770392,30.720236],[-88.771984,30.718632],[-88.772753,30.719572],[-88.775484,30.720122],[-88.773947,30.718083],[-88.780126,30.714923],[-88.778775,30.713113],[-88.779491,30.712724],[-88.780393,30.710158],[-88.782223,30.709837],[-88.783098,30.70876],[-88.782197,30.70695],[-88.783576,30.705049],[-88.787525,30.703353],[-88.788214,30.701977],[-88.790124,30.701566],[-88.7923,30.70033],[-88.793467,30.699001],[-88.79246,30.698153],[-88.793971,30.698108],[-88.796544,30.699666],[-88.799699,30.699598],[-88.801952,30.698635],[-88.804286,30.700216],[-88.806141,30.700744],[-88.806963,30.702439],[-88.809297,30.702256],[-88.811471,30.703447],[-88.812849,30.702874],[-88.816535,30.703791],[-88.816854,30.704799],[-88.819188,30.706586],[-88.819825,30.710183],[-88.820673,30.711053],[-88.821363,30.713849],[-88.823776,30.71614],[-88.833159,30.705693],[-88.832888,30.694245],[-88.834139,30.694623],[-88.833994,30.702192],[-88.834065,30.70463],[-88.865554,30.668305],[-88.88305,30.652616],[-88.884417,30.65155]]]}},{"type":"Feature","properties":{"zcta5":"39503","AFFGEOID10":"8600000US39503","GEOID10":"39503","ALAND10":312581343,"AWATER10":11180045,"county_name":"Harrison","state_code":"MS","county_state":"Harrison County, MS","county_fips":"28047","risk_level_county":"Medium Risk (70–79% vaccinated)","mean_vaccination_rate_county":76.46,"risk_level_zcta":"Higher Risk (60–69% vaccinated)","mean_vaccination_rate_zips":66.67,"cases":0},"geometry":{"type":"Polygon","coordinates":[[[-89.050273,30.50766],[-89.052642,30.506724],[-89.052726,30.505778],[-89.051521,30.504472],[-89.05323,30.502853],[-89.052719,30.501758],[-89.051467,30.501567],[-89.049384,30.502496],[-89.048934,30.502227],[-89.048461,30.500995],[-89.047372,30.499911],[-89.047213,30.499366],[-89.04755,30.498624],[-89.047048,30.497953],[-89.046616,30.49797],[-89.047429,30.496678],[-89.048337,30.495963],[-89.049709,30.497205],[-89.051055,30.496942],[-89.052357,30.498817],[-89.056033,30.499339],[-89.05696,30.498723],[-89.05769,30.49996],[-89.058935,30.499515],[-89.062421,30.500092],[-89.064476,30.501166],[-89.065727,30.500756],[-89.067841,30.501727],[-89.06781,30.50347],[-89.065773,30.504132],[-89.065766,30.505162],[-89.068001,30.505185],[-89.066559,30.506743],[-89.069095,30.50764],[-89.071335,30.508681],[-89.073647,30.510844],[-89.074167,30.510934],[-89.077073,30.513157],[-89.077897,30.512442],[-89.078629,30.513211],[-89.079446,30.513165],[-89.079141,30.514386],[-89.081598,30.515048],[-89.08323,30.516287],[-89.083017,30.518448],[-89.085664,30.519598],[-89.087984,30.51939],[-89.087556,30.520029],[-89.089891,30.519612],[-89.093157,30.522553],[-89.094118,30.522606],[-89.094584,30.524134],[-89.096422,30.523623],[-89.096865,30.522782],[-89.099589,30.523012],[-89.102091,30.52529],[-89.102847,30.523708],[-89.104388,30.522545],[-89.105662,30.523363],[-89.106661,30.522497],[-89.10763,30.522841],[-89.109331,30.522199],[-89.109257,30.522957],[-89.110886,30.523643],[-89.112759,30.525473],[-89.113842,30.525254],[-89.115356,30.526362],[-89.117156,30.526354],[-89.117958,30.527926],[-89.119914,30.529814],[-89.121465,30.530706],[-89.124195,30.530617],[-89.129507,30.532758],[-89.131792,30.531174],[-89.133776,30.532608],[-89.134573,30.531589],[-89.135967,30.532999],[-89.138086,30.531997],[-89.138137,30.533421],[-89.139016,30.533528],[-89.140682,30.535563],[-89.139534,30.537657],[-89.142268,30.538746],[-89.143747,30.538513],[-89.144739,30.539369],[-89.145339,30.541343],[-89.147991,30.543591],[-89.150079,30.544663],[-89.151813,30.543382],[-89.153856,30.542991],[-89.153801,30.544597],[-89.155855,30.542965],[-89.156525,30.543894],[-89.158239,30.544097],[-89.161134,30.543548],[-89.16206,30.543912],[-89.164012,30.543126],[-89.165846,30.541818],[-89.166425,30.542259],[-89.171142,30.541969],[-89.171674,30.543561],[-89.173002,30.54316],[-89.17526,30.544474],[-89.17607,30.544039],[-89.177847,30.544938],[-89.178815,30.547362],[-89.182334,30.548045],[-89.183577,30.548686],[-89.184966,30.550629],[-89.184905,30.552025],[-89.186658,30.555003],[-89.188475,30.551515],[-89.188371,30.546478],[-89.191283,30.546712],[-89.192146,30.547227],[-89.196899,30.545653],[-89.197715,30.544472],[-89.199699,30.543505],[-89.200744,30.544074],[-89.201751,30.542723],[-89.204147,30.542107],[-89.207428,30.542361],[-89.211334,30.543993],[-89.213982,30.543805],[-89.21743,30.544201],[-89.220459,30.545727],[-89.220849,30.546423],[-89.222855,30.546748],[-89.223908,30.548285],[-89.22667,30.549034],[-89.228249,30.547501],[-89.229209,30.547374],[-89.23325,30.542566],[-89.235051,30.538945],[-89.236412,30.534527],[-89.247285,30.541137],[-89.255902,30.548509],[-89.259782,30.552294],[-89.261808,30.556022],[-89.266363,30.559846],[-89.269318,30.563728],[-89.274209,30.566681],[-89.275787,30.569581],[-89.278893,30.568494],[-89.280842,30.567203],[-89.2838,30.562993],[-89.286625,30.56141],[-89.290343,30.560116],[-89.29319,30.557687],[-89.297371,30.557131],[-89.30182,30.55542],[-89.303007,30.550018],[-89.302661,30.547358],[-89.303526,30.543199],[-89.303826,30.537881],[-89.30576,30.537166],[-89.30507,30.536404],[-89.305314,30.533631],[-89.306116,30.532618],[-89.305989,30.531108],[-89.307179,30.529966],[-89.308662,30.530652],[-89.311291,30.530226],[-89.311732,30.529123],[-89.309459,30.527983],[-89.307399,30.526197],[-89.305354,30.521206],[-89.305148,30.518551],[-89.303439,30.517222],[-89.304942,30.515578],[-89.301555,30.515452],[-89.299807,30.513066],[-89.299891,30.511521],[-89.301829,30.509007],[-89.30083,30.507574],[-89.29893,30.50718],[-89.298038,30.503511],[-89.299596,30.501955],[-89.299474,30.500966],[-89.296898,30.50041],[-89.29759,30.499161],[-89.295343,30.496198],[-89.292668,30.495048],[-89.293982,30.493243],[-89.293932,30.492425],[-89.291434,30.491504],[-89.290279,30.490563],[-89.289965,30.489252],[-89.288292,30.488463],[-89.286561,30.486328],[-89.284061,30.483913],[-89.282442,30.48359],[-89.280895,30.484015],[-89.279401,30.485399],[-89.277888,30.485053],[-89.275551,30.485298],[-89.274485,30.483965],[-89.275211,30.481217],[-89.273369,30.480469],[-89.272533,30.478511],[-89.269739,30.478633],[-89.268271,30.477701],[-89.265425,30.47744],[-89.262434,30.474816],[-89.260697,30.474218],[-89.259894,30.471538],[-89.258156,30.471175],[-89.258074,30.470225],[-89.259377,30.468981],[-89.25848,30.464075],[-89.257794,30.463251],[-89.256785,30.46309],[-89.2543,30.464454],[-89.2518,30.463468],[-89.250771,30.46367],[-89.249298,30.465263],[-89.247748,30.465147],[-89.247223,30.462155],[-89.24595,30.461265],[-89.243861,30.457513],[-89.242005,30.45554],[-89.243369,30.453259],[-89.239799,30.449434],[-89.238533,30.447197],[-89.236573,30.447035],[-89.234537,30.447716],[-89.23357,30.446513],[-89.231201,30.445542],[-89.228039,30.44625],[-89.228105,30.444078],[-89.225128,30.443201],[-89.224274,30.441704],[-89.223098,30.441431],[-89.221797,30.442157],[-89.22049,30.44062],[-89.220703,30.438958],[-89.219298,30.435078],[-89.218003,30.434093],[-89.217358,30.431327],[-89.2164,30.429357],[-89.214683,30.428825],[-89.213042,30.427377],[-89.209519,30.427378],[-89.208918,30.425511],[-89.210873,30.424151],[-89.209558,30.422937],[-89.208723,30.41914],[-89.207024,30.41774],[-89.205396,30.41765],[-89.20358,30.418462],[-89.204045,30.417207],[-89.203209,30.415178],[-89.199998,30.416336],[-89.196269,30.417071],[-89.185014,30.417245],[-89.175521,30.41703],[-89.168033,30.417982],[-89.16759,30.416432],[-89.165388,30.415744],[-89.163651,30.413226],[-89.163412,30.41259],[-89.150638,30.412594],[-89.136673,30.412512],[-89.136643,30.405241],[-89.136636,30.398449],[-89.132651,30.398431],[-89.123879,30.398394],[-89.123206,30.398756],[-89.122877,30.39902],[-89.122147,30.399032],[-89.121481,30.398768],[-89.121145,30.398752],[-89.120321,30.399071],[-89.120071,30.399272],[-89.11287,30.404501],[-89.109383,30.405781],[-89.106466,30.408374],[-89.102781,30.409596],[-89.099685,30.409977],[-89.097422,30.41143],[-89.098907,30.413459],[-89.102443,30.413868],[-89.102193,30.416323],[-89.09704,30.415935],[-89.095948,30.416471],[-89.095928,30.414969],[-89.093084,30.41498],[-89.093057,30.413298],[-89.090254,30.415967],[-89.086343,30.418409],[-89.085686,30.416034],[-89.082266,30.413022],[-89.08213,30.402289],[-89.081438,30.398497],[-89.077731,30.398371],[-89.077711,30.395127],[-89.069269,30.395211],[-89.061804,30.394934],[-89.060617,30.394059],[-89.058818,30.396198],[-89.057439,30.396774],[-89.058123,30.398498],[-89.06212,30.402164],[-89.062144,30.411995],[-89.058222,30.415506],[-89.062243,30.41888],[-89.065945,30.421458],[-89.07036,30.423822],[-89.07068,30.424314],[-89.069119,30.424572],[-89.068773,30.423292],[-89.067337,30.424501],[-89.063765,30.425701],[-89.062519,30.425401],[-89.058552,30.425971],[-89.056991,30.425603],[-89.054187,30.425957],[-89.052713,30.426574],[-89.050196,30.426533],[-89.047705,30.425068],[-89.049641,30.424083],[-89.047834,30.423882],[-89.046486,30.424817],[-89.043571,30.425576],[-89.043717,30.423678],[-89.042834,30.423289],[-89.04068,30.424251],[-89.04144,30.421994],[-89.041205,30.419507],[-89.038744,30.418677],[-89.040081,30.416987],[-89.039844,30.415649],[-89.0382,30.414828],[-89.039908,30.414071],[-89.039758,30.412386],[-89.038606,30.412423],[-89.038126,30.411462],[-89.039601,30.411161],[-89.039974,30.409746],[-89.037245,30.410024],[-89.036766,30.408576],[-89.038473,30.407758],[-89.037608,30.406986],[-89.034484,30.405838],[-89.031757,30.406082],[-89.029413,30.404341],[-89.028532,30.404495],[-89.027793,30.406609],[-89.026469,30.406783],[-89.025638,30.408247],[-89.023852,30.408877],[-89.022339,30.408334],[-89.020047,30.409192],[-89.017762,30.409441],[-89.015972,30.412101],[-89.014226,30.411375],[-89.011429,30.412013],[-89.008265,30.413227],[-89.006432,30.414892],[-89.001434,30.415897],[-88.984733,30.416297],[-88.978833,30.415897],[-88.979533,30.420497],[-88.979233,30.424597],[-88.979595,30.426045],[-88.981118,30.428268],[-88.983382,30.429788],[-88.984957,30.429908],[-88.990447,30.431709],[-88.992496,30.434627],[-88.994645,30.43455],[-88.996645,30.432726],[-89.00014,30.432636],[-89.0031,30.431209],[-89.004717,30.4289],[-89.007001,30.429842],[-89.008219,30.434206],[-89.009027,30.435938],[-89.010969,30.437739],[-89.01252,30.438452],[-89.010232,30.441313],[-89.010112,30.444417],[-89.007435,30.446599],[-89.007357,30.447324],[-89.009516,30.448307],[-89.0095,30.448521],[-89.00823,30.450254],[-89.008244,30.452441],[-89.009729,30.452966],[-89.009887,30.450841],[-89.013636,30.452535],[-89.013686,30.453476],[-89.013023,30.454554],[-89.010874,30.455998],[-89.009531,30.45785],[-89.011294,30.459075],[-89.013408,30.462105],[-89.010244,30.462624],[-89.009986,30.46345],[-89.010062,30.463572],[-89.011999,30.465423],[-89.014307,30.466557],[-89.013612,30.467606],[-89.010927,30.466188],[-89.010073,30.46784],[-89.010938,30.469179],[-89.012951,30.469216],[-89.014819,30.470536],[-89.01344,30.472876],[-89.016242,30.473944],[-89.016484,30.475505],[-89.0188,30.474675],[-89.020153,30.475478],[-89.022052,30.47454],[-89.02334,30.47502],[-89.023042,30.475921],[-89.021605,30.476081],[-89.020364,30.478819],[-89.021587,30.481019],[-89.023791,30.47932],[-89.02501,30.479906],[-89.026031,30.481492],[-89.025046,30.482504],[-89.025675,30.482986],[-89.025251,30.484732],[-89.026473,30.485823],[-89.028137,30.484703],[-89.029601,30.484874],[-89.030267,30.484138],[-89.031926,30.485603],[-89.03092,30.486536],[-89.031622,30.487575],[-89.03109,30.488897],[-89.032206,30.489388],[-89.032752,30.487273],[-89.037725,30.488647],[-89.037572,30.489994],[-89.036493,30.491407],[-89.038486,30.492744],[-89.042478,30.497839],[-89.043372,30.498161],[-89.046376,30.497848],[-89.047405,30.498502],[-89.047127,30.499385],[-89.04726,30.499946],[-89.048809,30.502308],[-89.049386,30.502558],[-89.05015,30.502489],[-89.052193,30.50173],[-89.053059,30.502714],[-89.051452,30.504256],[-89.051412,30.504818],[-89.052677,30.506177],[-89.05044,30.507061],[-89.050273,30.50766]]]}},{"type":"Feature","properties":{"zcta5":"39573","AFFGEOID10":"8600000US39573","GEOID10":"39573","ALAND10":1028463335,"AWATER10":7805365,"county_name":"Harrison","state_code":"MS","county_state":"Harrison County, MS","county_fips":"28047","risk_level_county":"Medium Risk (70–79% vaccinated)","mean_vaccination_rate_county":76.46,"risk_level_zcta":"Higher Risk (60–69% vaccinated)","mean_vaccination_rate_zips":61.92,"cases":0},"geometry":{"type":"Polygon","coordinates":[[[-89.492612,30.586728],[-89.493612,30.586124],[-89.493522,30.581259],[-89.487412,30.581666],[-89.485116,30.581494],[-89.485557,30.578913],[-89.485565,30.572311],[-89.486937,30.571002],[-89.487482,30.568203],[-89.488364,30.566862],[-89.491755,30.565651],[-89.491138,30.56409],[-89.492726,30.563737],[-89.493449,30.562313],[-89.493016,30.560466],[-89.493694,30.556854],[-89.492912,30.556206],[-89.493717,30.553138],[-89.492896,30.550456],[-89.491698,30.548719],[-89.489538,30.548994],[-89.489093,30.547768],[-89.489624,30.546033],[-89.487594,30.543197],[-89.485413,30.542051],[-89.485062,30.539664],[-89.485713,30.536255],[-89.484565,30.535153],[-89.486316,30.532665],[-89.485081,30.531379],[-89.486134,30.529039],[-89.484699,30.528684],[-89.482856,30.524661],[-89.48203,30.523611],[-89.482902,30.521012],[-89.481042,30.522694],[-89.478852,30.523267],[-89.477665,30.524521],[-89.474796,30.524206],[-89.473313,30.523219],[-89.472607,30.518691],[-89.45954,30.527004],[-89.456132,30.528072],[-89.451133,30.528259],[-89.449534,30.528673],[-89.440833,30.533325],[-89.440094,30.533902],[-89.434795,30.540132],[-89.432909,30.540885],[-89.428274,30.539358],[-89.424214,30.538843],[-89.422835,30.540863],[-89.418529,30.545888],[-89.41667,30.547588],[-89.412623,30.550286],[-89.410743,30.552644],[-89.410335,30.554588],[-89.411354,30.559856],[-89.408041,30.560758],[-89.402876,30.561494],[-89.398549,30.563934],[-89.394216,30.567165],[-89.390377,30.57071],[-89.389011,30.571595],[-89.387086,30.571935],[-89.38274,30.571592],[-89.382329,30.570332],[-89.375919,30.572256],[-89.373352,30.570542],[-89.371055,30.571059],[-89.368266,30.566785],[-89.367086,30.567069],[-89.365536,30.569305],[-89.365471,30.570797],[-89.364181,30.572865],[-89.361892,30.573131],[-89.360157,30.57237],[-89.356518,30.571993],[-89.354508,30.572355],[-89.354365,30.570237],[-89.356162,30.565017],[-89.3576,30.56383],[-89.357161,30.560888],[-89.352278,30.558795],[-89.348944,30.554729],[-89.345579,30.554477],[-89.344442,30.552173],[-89.341534,30.550867],[-89.341511,30.559757],[-89.327634,30.559791],[-89.32678,30.558185],[-89.326802,30.557844],[-89.327001,30.557426],[-89.325689,30.557689],[-89.324414,30.557424],[-89.322148,30.559671],[-89.320706,30.560296],[-89.319631,30.562072],[-89.317708,30.563636],[-89.315419,30.563682],[-89.315183,30.566444],[-89.314,30.567268],[-89.318197,30.570546],[-89.317617,30.571929],[-89.316289,30.571664],[-89.316022,30.572709],[-89.318357,30.572997],[-89.318403,30.575196],[-89.320112,30.575547],[-89.320913,30.576804],[-89.319689,30.579401],[-89.315649,30.580064],[-89.314025,30.579328],[-89.313911,30.581305],[-89.314692,30.582695],[-89.316402,30.583863],[-89.318761,30.583961],[-89.320413,30.585813],[-89.320487,30.590568],[-89.321069,30.593417],[-89.321878,30.594613],[-89.320383,30.59546],[-89.320359,30.596497],[-89.31895,30.596821],[-89.321843,30.5981],[-89.325025,30.598264],[-89.329035,30.59744],[-89.330428,30.598736],[-89.33129,30.601258],[-89.329039,30.6055],[-89.327475,30.606913],[-89.326934,30.608538],[-89.32717,30.611683],[-89.326003,30.61221],[-89.322493,30.6171],[-89.322677,30.618809],[-89.320853,30.619559],[-89.320861,30.621291],[-89.320044,30.623202],[-89.318099,30.6253],[-89.317115,30.628928],[-89.3161,30.630272],[-89.316237,30.631975],[-89.314796,30.634127],[-89.315208,30.635142],[-89.314971,30.637407],[-89.314063,30.638996],[-89.313949,30.640465],[-89.312484,30.641844],[-89.311195,30.645159],[-89.311202,30.646423],[-89.31031,30.647555],[-89.240136,30.647646],[-89.240073,30.67716],[-89.206654,30.677089],[-89.20731,30.67974],[-89.20908,30.68037],[-89.21056,30.67931],[-89.21474,30.67961],[-89.21558,30.68108],[-89.218,30.68121],[-89.22095,30.68217],[-89.22208,30.68111],[-89.22311,30.68151],[-89.22416,30.6833],[-89.2241,30.68501],[-89.22839,30.68534],[-89.22929,30.68696],[-89.23074,30.68732],[-89.23154,30.6886],[-89.23126,30.6905],[-89.22875,30.6912],[-89.22739,30.6924],[-89.22851,30.69414],[-89.23016,30.69536],[-89.23084,30.6969],[-89.23217,30.69768],[-89.23245,30.69932],[-89.23397,30.70228],[-89.23541,30.70317],[-89.23671,30.70288],[-89.239738,30.704729],[-89.241731,30.704844],[-89.23914,30.70962],[-89.23754,30.710065],[-89.236593,30.709123],[-89.234068,30.709291],[-89.23258,30.706419],[-89.230612,30.706909],[-89.229001,30.709469],[-89.22712,30.70871],[-89.21968,30.70984],[-89.2148,30.71016],[-89.204821,30.70987],[-89.204877,30.713375],[-89.207524,30.715677],[-89.209142,30.716255],[-89.211431,30.718145],[-89.211736,30.719673],[-89.213918,30.720899],[-89.21338,30.72531],[-89.21266,30.72559],[-89.20996,30.72605],[-89.2084,30.72573],[-89.2057,30.72614],[-89.20325,30.72578],[-89.20241,30.725187],[-89.20165,30.72133],[-89.200307,30.718858],[-89.200963,30.718313],[-89.199559,30.715254],[-89.195851,30.713592],[-89.194616,30.710885],[-89.192906,30.711115],[-89.18922,30.714496],[-89.188274,30.715858],[-89.189343,30.717945],[-89.189572,30.720831],[-89.18902,30.721877],[-89.18495,30.7245],[-89.18293,30.72494],[-89.18289,30.72083],[-89.18195,30.71938],[-89.18208,30.7174],[-89.18082,30.71634],[-89.17964,30.7128],[-89.17928,30.71004],[-89.170974,30.70983],[-89.170154,30.707806],[-89.168734,30.706347],[-89.166987,30.708178],[-89.165924,30.709793],[-89.166244,30.712715],[-89.174504,30.762743],[-89.173995,30.76291],[-89.171181,30.762854],[-89.168813,30.761628],[-89.165935,30.763222],[-89.162847,30.76304],[-89.159346,30.76139],[-89.158742,30.760003],[-89.1505,30.76536],[-89.14829,30.76569],[-89.143483,30.765294],[-89.144135,30.763475],[-89.145148,30.76275],[-89.145289,30.759385],[-89.143746,30.757785],[-89.144586,30.755711],[-89.144432,30.749396],[-89.144785,30.74577],[-89.145536,30.742166],[-89.144855,30.738745],[-89.14253,30.734885],[-89.141504,30.731463],[-89.143231,30.726279],[-89.14192,30.72736],[-89.1382,30.72882],[-89.13477,30.72915],[-89.122884,30.713977],[-89.12063,30.71491],[-89.12061,30.71397],[-89.122741,30.71363],[-89.126931,30.711051],[-89.128205,30.709853],[-89.127747,30.708905],[-89.127249,30.708304],[-89.119933,30.709581],[-89.121487,30.706204],[-89.11386,30.70622],[-89.108213,30.704801],[-89.108154,30.703246],[-89.106964,30.701087],[-89.10456,30.698876],[-89.102676,30.700007],[-89.101531,30.70161],[-89.100669,30.701541],[-89.098449,30.703822],[-89.098716,30.706609],[-89.098426,30.70921],[-89.099494,30.710263],[-89.087378,30.711855],[-89.086532,30.71371],[-89.087379,30.717471],[-89.08331,30.71738],[-89.08101,30.71791],[-89.07632,30.72003],[-89.07421,30.72016],[-89.0735,30.71848],[-89.07409,30.71448],[-89.07533,30.7127],[-89.07547,30.71005],[-89.07642,30.70778],[-89.0758,30.70451],[-89.07643,30.70191],[-89.078181,30.701901],[-89.077589,30.700811],[-89.077734,30.697345],[-89.078413,30.694629],[-89.077375,30.691677],[-89.080114,30.688905],[-89.078695,30.685995],[-89.078825,30.68457],[-89.081251,30.681722],[-89.082205,30.678461],[-89.081993,30.677011],[-88.913445,30.677254],[-88.91291,30.68085],[-88.914049,30.683513],[-88.913228,30.685644],[-88.911821,30.687522],[-88.90647,30.68877],[-88.90637,30.69221],[-88.91332,30.69227],[-88.91662,30.69312],[-88.92618,30.69355],[-88.92628,30.694836],[-88.923544,30.698981],[-88.923407,30.700351],[-88.920944,30.705436],[-88.9186,30.707528],[-88.918219,30.710798],[-88.916534,30.712314],[-88.914185,30.713171],[-88.91141,30.70975],[-88.90649,30.69749],[-88.90396,30.69318],[-88.90027,30.68271],[-88.900589,30.67727],[-88.884533,30.677292],[-88.884417,30.65155],[-88.88305,30.652616],[-88.865554,30.668305],[-88.834065,30.70463],[-88.833994,30.702192],[-88.834139,30.694623],[-88.832888,30.694245],[-88.833159,30.705693],[-88.823776,30.71614],[-88.821363,30.713849],[-88.820673,30.711053],[-88.819825,30.710183],[-88.819188,30.706586],[-88.816854,30.704799],[-88.816535,30.703791],[-88.812849,30.702874],[-88.811471,30.703447],[-88.809297,30.702256],[-88.806963,30.702439],[-88.806141,30.700744],[-88.804286,30.700216],[-88.801952,30.698635],[-88.799699,30.699598],[-88.796544,30.699666],[-88.793971,30.698108],[-88.79246,30.698153],[-88.793467,30.699001],[-88.7923,30.70033],[-88.790124,30.701566],[-88.788214,30.701977],[-88.787525,30.703353],[-88.783576,30.705049],[-88.782197,30.70695],[-88.783098,30.70876],[-88.782223,30.709837],[-88.780393,30.710158],[-88.779491,30.712724],[-88.778775,30.713113],[-88.780126,30.714923],[-88.773947,30.718083],[-88.775484,30.720122],[-88.772753,30.719572],[-88.771984,30.718632],[-88.770392,30.720236],[-88.769067,30.719273],[-88.767953,30.71957],[-88.767873,30.720441],[-88.765617,30.722067],[-88.76502,30.723755],[-88.761762,30.72353],[-88.754914,30.72358],[-88.752204,30.721851],[-88.74946,30.721117],[-88.745821,30.717745],[-88.742396,30.7168],[-88.740584,30.716785],[-88.737905,30.721927],[-88.737291,30.723761],[-88.737291,30.726291],[-88.739168,30.730641],[-88.740256,30.734638],[-88.733333,30.734781],[-88.661054,30.734722],[-88.660189,30.734722],[-88.660244,30.736107],[-88.661486,30.738145],[-88.661724,30.740398],[-88.659615,30.743702],[-88.659099,30.745539],[-88.659525,30.749651],[-88.659068,30.75282],[-88.659886,30.753523],[-88.663731,30.753649],[-88.665997,30.754221],[-88.667422,30.755095],[-88.668447,30.757555],[-88.666408,30.762811],[-88.66655,30.764631],[-88.668669,30.7667],[-88.670747,30.767416],[-88.675096,30.767703],[-88.680794,30.766874],[-88.683618,30.767882],[-88.68375,30.769717],[-88.682971,30.77097],[-88.678902,30.775652],[-88.678772,30.777817],[-88.681296,30.779187],[-88.68575,30.779465],[-88.688068,30.78077],[-88.690589,30.785111],[-88.694014,30.787579],[-88.695674,30.789969],[-88.696713,30.794039],[-88.697652,30.79492],[-88.69865,30.795358],[-88.703749,30.795405],[-88.706869,30.796955],[-88.709561,30.796686],[-88.711051,30.793809],[-88.712554,30.792078],[-88.713572,30.791766],[-88.717512,30.792155],[-88.720253,30.795418],[-88.722932,30.795732],[-88.725852,30.794255],[-88.731501,30.794665],[-88.734952,30.795399],[-88.737037,30.797323],[-88.735603,30.798805],[-88.732112,30.797463],[-88.729186,30.796899],[-88.727167,30.797911],[-88.726682,30.800469],[-88.727599,30.802301],[-88.729746,30.802629],[-88.732848,30.801919],[-88.735949,30.801967],[-88.738189,30.802417],[-88.741729,30.804497],[-88.742527,30.805933],[-88.743254,30.811676],[-88.744868,30.814684],[-88.74753,30.81207],[-88.761645,30.788219],[-88.763982,30.785597],[-88.770181,30.785799],[-88.772448,30.78688],[-88.772081,30.788048],[-88.773042,30.789462],[-88.773011,30.790885],[-88.775493,30.790738],[-88.775469,30.793076],[-88.774464,30.793883],[-88.775684,30.795858],[-88.775643,30.797477],[-88.772919,30.799075],[-88.774382,30.801108],[-88.776222,30.80202],[-88.775752,30.804113],[-88.779221,30.804731],[-88.780341,30.804611],[-88.780981,30.80335],[-88.782117,30.804717],[-88.78389,30.803959],[-88.784899,30.804577],[-88.784067,30.806213],[-88.787263,30.807026],[-88.787563,30.80781],[-88.786049,30.809355],[-88.785208,30.808368],[-88.784306,30.810093],[-88.784817,30.812917],[-88.786485,30.812763],[-88.78654,30.81415],[-88.78767,30.81552],[-88.789888,30.816816],[-88.791518,30.816829],[-88.791911,30.819023],[-88.793638,30.822376],[-88.794628,30.822485],[-88.796975,30.824374],[-88.798439,30.823887],[-88.8,30.825285],[-88.801704,30.82608],[-88.80016,30.82705],[-88.798661,30.8271],[-88.800863,30.829155],[-88.803506,30.829617],[-88.806467,30.827808],[-88.807621,30.824474],[-88.810203,30.823722],[-88.811766,30.825189],[-88.815575,30.826556],[-88.816006,30.827641],[-88.815252,30.828527],[-88.817503,30.828523],[-88.819405,30.825865],[-88.822538,30.827381],[-88.823552,30.825932],[-88.82264,30.824216],[-88.82305,30.823613],[-88.826406,30.824728],[-88.827401,30.826604],[-88.830267,30.825689],[-88.829928,30.826781],[-88.827529,30.828828],[-88.827486,30.82952],[-88.82875,30.8292],[-88.830993,30.830294],[-88.832375,30.83047],[-88.833451,30.831914],[-88.834299,30.831791],[-88.834902,30.830273],[-88.835907,30.829735],[-88.839011,30.8298],[-88.838189,30.828451],[-88.839358,30.828032],[-88.840645,30.82883],[-88.840499,30.830981],[-88.841061,30.832457],[-88.843381,30.832589],[-88.842786,30.833571],[-88.844794,30.83436],[-88.846839,30.833057],[-88.847704,30.83363],[-88.850274,30.831694],[-88.849024,30.830009],[-88.850847,30.829791],[-88.852262,30.828794],[-88.852909,30.827263],[-88.855425,30.827617],[-88.856176,30.827127],[-88.856473,30.825382],[-88.8612,30.826468],[-88.864079,30.827928],[-88.867864,30.828159],[-88.867898,30.828867],[-88.865729,30.829118],[-88.865688,30.832049],[-88.869029,30.830702],[-88.870611,30.831424],[-88.872578,30.831474],[-88.87317,30.832889],[-88.875401,30.834229],[-88.876333,30.836671],[-88.876291,30.838618],[-88.877098,30.839364],[-88.879409,30.840085],[-88.880226,30.839924],[-88.879404,30.837852],[-88.880202,30.837009],[-88.881954,30.837233],[-88.882683,30.839136],[-88.884668,30.840463],[-88.884604,30.82454],[-88.888138,30.825429],[-88.889267,30.827186],[-88.892145,30.828391],[-88.895884,30.828425],[-88.897161,30.828812],[-88.90053,30.82566],[-88.90333,30.82437],[-88.90301,30.82254],[-88.9046,30.82022],[-88.9061,30.82125],[-88.90749,30.82101],[-88.90955,30.81943],[-88.91344,30.81827],[-88.91662,30.82255],[-88.91662,30.82445],[-88.91763,30.82572],[-88.92084,30.82688],[-88.92237,30.82971],[-88.92491,30.83081],[-88.92778,30.83277],[-88.93,30.83293],[-88.93665,30.83059],[-88.939957,30.829821],[-88.944209,30.827804],[-88.944744,30.827186],[-88.949182,30.826093],[-88.9517,30.824495],[-88.95375,30.822],[-88.96152,30.82659],[-88.96937,30.82904],[-88.97104,30.83078],[-88.97167,30.83038],[-88.97507,30.82323],[-88.97328,30.81878],[-88.97038,30.81916],[-88.96902,30.819938],[-88.967771,30.819563],[-88.964722,30.817113],[-88.962917,30.814647],[-88.958593,30.814328],[-88.956409,30.81346],[-88.95629,30.79802],[-88.9516,30.79402],[-88.956004,30.792627],[-88.960093,30.792948],[-88.961901,30.793997],[-88.961894,30.794908],[-88.963588,30.796074],[-88.963397,30.798652],[-88.965007,30.800894],[-88.963573,30.802049],[-88.963611,30.803711],[-88.965053,30.805925],[-88.97076,30.809637],[-88.971172,30.81051],[-88.974087,30.8113],[-88.97591,30.81409],[-88.977024,30.814579],[-88.979351,30.817777],[-88.982342,30.820138],[-88.982907,30.821331],[-88.985181,30.821498],[-88.986897,30.822965],[-88.99017,30.823064],[-88.993406,30.825349],[-88.994878,30.825633],[-88.997515,30.828257],[-89.00084,30.82421],[-89.00104,30.82189],[-89.002107,30.820989],[-89.006438,30.81897],[-89.007162,30.819843],[-89.010252,30.825656],[-89.012373,30.827825],[-89.013159,30.831337],[-89.02392,30.823233],[-89.039629,30.82166],[-89.052327,30.822742],[-89.05782,30.822762],[-89.05788,30.826],[-89.06049,30.82603],[-89.064925,30.828376],[-89.06202,30.83151],[-89.06193,30.83883],[-89.06368,30.83963],[-89.067956,30.840224],[-89.069703,30.839314],[-89.07052,30.836745],[-89.069474,30.834437],[-89.070718,30.832377],[-89.071313,30.829457],[-89.072244,30.828684],[-89.072473,30.826176],[-89.070062,30.822228],[-89.068993,30.822268],[-89.068948,30.819354],[-89.070428,30.818368],[-89.071565,30.815288],[-89.08121,30.815333],[-89.07985,30.81328],[-89.08647,30.81388],[-89.087761,30.815368],[-89.096882,30.815428],[-89.09852,30.818169],[-89.098978,30.820056],[-89.100428,30.822438],[-89.103251,30.823895],[-89.104739,30.825652],[-89.105135,30.827419],[-89.116817,30.825764],[-89.116016,30.828166],[-89.117198,30.830502],[-89.121044,30.833589],[-89.120988,30.82622],[-89.127111,30.826171],[-89.12502,30.82197],[-89.12789,30.80788],[-89.1364,30.80788],[-89.136239,30.797349],[-89.139626,30.798481],[-89.142062,30.803227],[-89.147135,30.807617],[-89.149887,30.80925],[-89.153141,30.809325],[-89.153588,30.810381],[-89.155281,30.811027],[-89.156363,30.812589],[-89.159335,30.810155],[-89.161718,30.810818],[-89.161003,30.812166],[-89.164721,30.814339],[-89.1683,30.813336],[-89.168972,30.814664],[-89.170817,30.815674],[-89.172521,30.814348],[-89.175236,30.815154],[-89.17582,30.817216],[-89.177014,30.818316],[-89.179721,30.819255],[-89.184525,30.818934],[-89.189144,30.819644],[-89.195368,30.8183],[-89.196738,30.819515],[-89.198783,30.819471],[-89.199535,30.820169],[-89.201764,30.819498],[-89.203421,30.820454],[-89.206548,30.820503],[-89.208542,30.818595],[-89.214619,30.820556],[-89.215549,30.819605],[-89.21795,30.818857],[-89.220887,30.819389],[-89.22334,30.820686],[-89.226404,30.820635],[-89.228705,30.823103],[-89.23073,30.821882],[-89.231553,30.822475],[-89.233801,30.822073],[-89.235206,30.822836],[-89.237613,30.821061],[-89.24217,30.819662],[-89.24205,30.82072],[-89.24587,30.82087],[-89.24869,30.82211],[-89.25067,30.82174],[-89.25091,30.8206],[-89.25245,30.81967],[-89.25523,30.81969],[-89.25808,30.8169],[-89.26319,30.81537],[-89.26488,30.81564],[-89.26919,30.81511],[-89.2703,30.81298],[-89.27424,30.81167],[-89.27748,30.81171],[-89.27872,30.81237],[-89.27597,30.81837],[-89.27711,30.82183],[-89.27538,30.82396],[-89.2756,30.82539],[-89.27449,30.82597],[-89.27488,30.82751],[-89.275864,30.828439],[-89.278094,30.827384],[-89.279891,30.82601],[-89.28158,30.822552],[-89.285294,30.819024],[-89.287422,30.817666],[-89.291136,30.8177],[-89.292333,30.818519],[-89.294645,30.819129],[-89.296575,30.818074],[-89.299442,30.818102],[-89.301493,30.818998],[-89.303003,30.81909],[-89.30348,30.81792],[-89.30622,30.81958],[-89.31108,30.8205],[-89.31401,30.82068],[-89.31256,30.8186],[-89.31188,30.81632],[-89.3118,30.80939],[-89.31494,30.80421],[-89.31575,30.80159],[-89.31757,30.79994],[-89.31954,30.79936],[-89.3266,30.79846],[-89.32839,30.79791],[-89.32844,30.80076],[-89.33095,30.80082],[-89.33527,30.80207],[-89.33566,30.80485],[-89.33831,30.80675],[-89.341167,30.806922],[-89.341446,30.64772],[-89.379179,30.647628],[-89.380752,30.652005],[-89.382583,30.653907],[-89.38484,30.655132],[-89.389407,30.661342],[-89.390232,30.664892],[-89.389772,30.669646],[-89.393933,30.669938],[-89.397483,30.669127],[-89.405475,30.666402],[-89.410928,30.665395],[-89.408252,30.658933],[-89.405418,30.656115],[-89.405154,30.65087],[-89.404082,30.649174],[-89.402714,30.648853],[-89.40222,30.647713],[-89.47417,30.647979],[-89.472364,30.645004],[-89.471013,30.64473],[-89.470491,30.639364],[-89.469678,30.638133],[-89.469842,30.636251],[-89.469155,30.633713],[-89.465554,30.634964],[-89.462803,30.638231],[-89.459429,30.639748],[-89.460013,30.625196],[-89.459964,30.618666],[-89.461096,30.616923],[-89.460312,30.611651],[-89.461399,30.610068],[-89.46176,30.607726],[-89.464447,30.60524],[-89.464281,30.6023],[-89.465474,30.598407],[-89.468168,30.596614],[-89.471834,30.595481],[-89.472819,30.594738],[-89.476904,30.593379],[-89.480429,30.590107],[-89.481584,30.587891],[-89.48154,30.588573],[-89.483441,30.593194],[-89.485248,30.592887],[-89.48567,30.589609],[-89.490488,30.589488],[-89.491139,30.587996],[-89.492612,30.586728]],[[-89.419489,30.64421],[-89.415117,30.644206],[-89.410704,30.643437],[-89.409218,30.643595],[-89.404925,30.642098],[-89.406919,30.636837],[-89.41341,30.635431],[-89.416937,30.639205],[-89.422096,30.64204],[-89.419489,30.64421]]]}},{"type":"Feature","properties":{"zcta5":"39574","AFFGEOID10":"8600000US39574","GEOID10":"39574","ALAND10":590069327,"AWATER10":4035542,"county_name":"Harrison","state_code":"MS","county_state":"Harrison County, MS","county_fips":"28047","risk_level_county":"Medium Risk (70–79% vaccinated)","mean_vaccination_rate_county":76.46,"risk_level_zcta":"Higher Risk (60–69% vaccinated)","mean_vaccination_rate_zips":68.49,"cases":0},"geometry":{"type":"Polygon","coordinates":[[[-89.206654,30.677089],[-89.240073,30.67716],[-89.240136,30.647646],[-89.31031,30.647555],[-89.311202,30.646423],[-89.311195,30.645159],[-89.312484,30.641844],[-89.313949,30.640465],[-89.314063,30.638996],[-89.314971,30.637407],[-89.315208,30.635142],[-89.314796,30.634127],[-89.316237,30.631975],[-89.3161,30.630272],[-89.317115,30.628928],[-89.318099,30.6253],[-89.320044,30.623202],[-89.320861,30.621291],[-89.320853,30.619559],[-89.322677,30.618809],[-89.322493,30.6171],[-89.326003,30.61221],[-89.32717,30.611683],[-89.326934,30.608538],[-89.327475,30.606913],[-89.329039,30.6055],[-89.33129,30.601258],[-89.330428,30.598736],[-89.329035,30.59744],[-89.325025,30.598264],[-89.321843,30.5981],[-89.31895,30.596821],[-89.320359,30.596497],[-89.320383,30.59546],[-89.321878,30.594613],[-89.321069,30.593417],[-89.320487,30.590568],[-89.320413,30.585813],[-89.318761,30.583961],[-89.316402,30.583863],[-89.314692,30.582695],[-89.313911,30.581305],[-89.314025,30.579328],[-89.315649,30.580064],[-89.319689,30.579401],[-89.320913,30.576804],[-89.320112,30.575547],[-89.318403,30.575196],[-89.318357,30.572997],[-89.316022,30.572709],[-89.316289,30.571664],[-89.317617,30.571929],[-89.318197,30.570546],[-89.314,30.567268],[-89.315183,30.566444],[-89.315419,30.563682],[-89.317708,30.563636],[-89.319631,30.562072],[-89.320706,30.560296],[-89.322148,30.559671],[-89.324414,30.557424],[-89.325689,30.557689],[-89.327001,30.557426],[-89.326802,30.557844],[-89.327056,30.557568],[-89.327002,30.557299],[-89.326804,30.557263],[-89.32664,30.557277],[-89.325926,30.55755],[-89.325527,30.557615],[-89.325116,30.557557],[-89.324725,30.557437],[-89.32444,30.557228],[-89.324722,30.556333],[-89.3237,30.554484],[-89.320779,30.554048],[-89.320308,30.551278],[-89.318538,30.551146],[-89.31802,30.54964],[-89.316271,30.548791],[-89.315852,30.545572],[-89.312872,30.544717],[-89.313215,30.53995],[-89.310611,30.540684],[-89.309958,30.539982],[-89.311976,30.537912],[-89.311505,30.535558],[-89.313833,30.53529],[-89.312757,30.533653],[-89.312959,30.532681],[-89.31506,30.531168],[-89.314709,30.530559],[-89.312603,30.530497],[-89.311732,30.529123],[-89.311291,30.530226],[-89.308662,30.530652],[-89.307179,30.529966],[-89.305989,30.531108],[-89.306116,30.532618],[-89.305314,30.533631],[-89.30507,30.536404],[-89.30576,30.537166],[-89.303826,30.537881],[-89.303526,30.543199],[-89.302661,30.547358],[-89.303007,30.550018],[-89.30182,30.55542],[-89.297371,30.557131],[-89.29319,30.557687],[-89.290343,30.560116],[-89.286625,30.56141],[-89.2838,30.562993],[-89.280842,30.567203],[-89.278893,30.568494],[-89.275787,30.569581],[-89.274209,30.566681],[-89.269318,30.563728],[-89.266363,30.559846],[-89.261808,30.556022],[-89.259782,30.552294],[-89.255902,30.548509],[-89.247285,30.541137],[-89.236412,30.534527],[-89.235051,30.538945],[-89.23325,30.542566],[-89.229209,30.547374],[-89.228249,30.547501],[-89.22667,30.549034],[-89.223908,30.548285],[-89.222855,30.546748],[-89.220849,30.546423],[-89.220459,30.545727],[-89.21743,30.544201],[-89.213982,30.543805],[-89.211334,30.543993],[-89.207428,30.542361],[-89.204147,30.542107],[-89.201751,30.542723],[-89.200744,30.544074],[-89.199699,30.543505],[-89.197715,30.544472],[-89.196899,30.545653],[-89.192146,30.547227],[-89.191283,30.546712],[-89.188371,30.546478],[-89.188475,30.551515],[-89.186658,30.555003],[-89.184905,30.552025],[-89.184966,30.550629],[-89.183577,30.548686],[-89.182334,30.548045],[-89.178815,30.547362],[-89.177847,30.544938],[-89.17607,30.544039],[-89.17526,30.544474],[-89.173002,30.54316],[-89.171674,30.543561],[-89.171142,30.541969],[-89.166425,30.542259],[-89.165846,30.541818],[-89.164012,30.543126],[-89.16206,30.543912],[-89.161134,30.543548],[-89.158239,30.544097],[-89.156525,30.543894],[-89.155855,30.542965],[-89.153801,30.544597],[-89.153856,30.542991],[-89.151813,30.543382],[-89.150079,30.544663],[-89.147991,30.543591],[-89.145339,30.541343],[-89.144739,30.539369],[-89.143747,30.538513],[-89.142268,30.538746],[-89.139534,30.537657],[-89.140682,30.535563],[-89.139016,30.533528],[-89.138137,30.533421],[-89.138086,30.531997],[-89.135967,30.532999],[-89.134573,30.531589],[-89.133776,30.532608],[-89.131792,30.531174],[-89.129507,30.532758],[-89.124195,30.530617],[-89.121465,30.530706],[-89.119914,30.529814],[-89.117958,30.527926],[-89.117156,30.526354],[-89.115356,30.526362],[-89.113842,30.525254],[-89.112759,30.525473],[-89.110886,30.523643],[-89.109257,30.522957],[-89.109331,30.522199],[-89.10763,30.522841],[-89.106661,30.522497],[-89.105662,30.523363],[-89.104388,30.522545],[-89.102847,30.523708],[-89.102091,30.52529],[-89.099589,30.523012],[-89.096865,30.522782],[-89.096422,30.523623],[-89.094584,30.524134],[-89.094118,30.522606],[-89.093157,30.522553],[-89.089891,30.519612],[-89.087556,30.520029],[-89.087984,30.51939],[-89.085664,30.519598],[-89.083017,30.518448],[-89.08323,30.516287],[-89.081598,30.515048],[-89.079141,30.514386],[-89.079446,30.513165],[-89.078629,30.513211],[-89.077897,30.512442],[-89.077073,30.513157],[-89.074167,30.510934],[-89.073647,30.510844],[-89.071335,30.508681],[-89.069095,30.50764],[-89.066559,30.506743],[-89.068001,30.505185],[-89.065766,30.505162],[-89.065773,30.504132],[-89.06781,30.50347],[-89.067841,30.501727],[-89.065727,30.500756],[-89.064476,30.501166],[-89.062421,30.500092],[-89.058935,30.499515],[-89.05769,30.49996],[-89.05696,30.498723],[-89.056033,30.499339],[-89.052357,30.498817],[-89.051055,30.496942],[-89.049709,30.497205],[-89.048337,30.495963],[-89.047429,30.496678],[-89.046616,30.49797],[-89.047048,30.497953],[-89.04755,30.498624],[-89.047213,30.499366],[-89.047372,30.499911],[-89.048461,30.500995],[-89.048934,30.502227],[-89.049384,30.502496],[-89.051467,30.501567],[-89.052719,30.501758],[-89.05323,30.502853],[-89.051521,30.504472],[-89.052726,30.505778],[-89.052642,30.506724],[-89.050273,30.50766],[-89.052745,30.508754],[-89.052804,30.511716],[-89.055402,30.513077],[-89.055151,30.514155],[-89.052704,30.515156],[-89.055682,30.517205],[-89.056541,30.518419],[-89.05566,30.520935],[-89.057175,30.522269],[-89.057872,30.524212],[-89.061488,30.525791],[-89.062289,30.526702],[-89.062462,30.528604],[-89.064997,30.531375],[-89.068942,30.532852],[-89.070848,30.53549],[-89.070329,30.536284],[-89.072069,30.536864],[-89.072175,30.539442],[-89.073198,30.541392],[-89.071947,30.544947],[-89.072603,30.548773],[-89.072763,30.551857],[-89.071634,30.556166],[-89.067941,30.559891],[-89.068003,30.561748],[-89.066759,30.563763],[-89.065164,30.564888],[-89.063791,30.566765],[-89.063768,30.570709],[-89.060945,30.572386],[-89.059427,30.574516],[-89.055208,30.575237],[-89.053681,30.576613],[-89.051793,30.573753],[-89.050092,30.572529],[-89.050169,30.570978],[-89.048016,30.571479],[-89.047583,30.572202],[-89.05041,30.579076],[-89.048552,30.580784],[-89.048743,30.585375],[-89.046503,30.584923],[-89.042329,30.581545],[-89.041296,30.581205],[-89.03748,30.577362],[-89.035678,30.576099],[-89.032893,30.575261],[-89.032156,30.574464],[-89.026671,30.57151],[-89.024256,30.56981],[-89.021676,30.566363],[-89.022219,30.562983],[-89.023598,30.560366],[-89.022987,30.55992],[-89.015815,30.558346],[-89.012763,30.557261],[-89.010703,30.555522],[-89.008132,30.557109],[-89.005225,30.556628],[-89.001227,30.55506],[-89.00038,30.55367],[-88.997046,30.55131],[-88.994655,30.554875],[-88.979017,30.575407],[-88.969185,30.568761],[-88.966166,30.567967],[-88.967396,30.567468],[-88.963507,30.561578],[-88.959992,30.555507],[-88.956973,30.551357],[-88.956417,30.549198],[-88.952597,30.543432],[-88.95014,30.544978],[-88.934868,30.535324],[-88.924863,30.533644],[-88.922072,30.533394],[-88.917923,30.528342],[-88.911934,30.517881],[-88.911209,30.5152],[-88.910934,30.510754],[-88.906231,30.50846],[-88.900627,30.508477],[-88.896474,30.50803],[-88.88978,30.511069],[-88.888435,30.512835],[-88.887951,30.514767],[-88.885781,30.516247],[-88.885606,30.517099],[-88.887696,30.517237],[-88.888047,30.518028],[-88.886033,30.518089],[-88.885484,30.518816],[-88.886102,30.520388],[-88.885995,30.522016],[-88.887567,30.522917],[-88.885987,30.523891],[-88.886048,30.525667],[-88.884934,30.527994],[-88.884912,30.532629],[-88.883775,30.533207],[-88.884417,30.65155],[-88.884533,30.677292],[-88.900589,30.67727],[-88.90027,30.68271],[-88.90396,30.69318],[-88.90649,30.69749],[-88.91141,30.70975],[-88.914185,30.713171],[-88.916534,30.712314],[-88.918219,30.710798],[-88.9186,30.707528],[-88.920944,30.705436],[-88.923407,30.700351],[-88.923544,30.698981],[-88.92628,30.694836],[-88.92618,30.69355],[-88.91662,30.69312],[-88.91332,30.69227],[-88.90637,30.69221],[-88.90647,30.68877],[-88.911821,30.687522],[-88.913228,30.685644],[-88.914049,30.683513],[-88.91291,30.68085],[-88.913445,30.677254],[-89.081993,30.677011],[-89.167818,30.677089],[-89.168462,30.67703],[-89.206654,30.677089]]]}},{"type":"Feature","properties":{"zcta5":"39571","AFFGEOID10":"8600000US39571","GEOID10":"39571","ALAND10":220207543,"AWATER10":10701267,"county_name":"Harrison","state_code":"MS","county_state":"Harrison County, MS","county_fips":"28047","risk_level_county":"Medium Risk (70–79% vaccinated)","mean_vaccination_rate_county":76.46,"risk_level_zcta":"Higher Risk (60–69% vaccinated)","mean_vaccination_rate_zips":67.3,"cases":0},"geometry":{"type":"Polygon","coordinates":[[[-89.341534,30.550867],[-89.341629,30.516142],[-89.34399,30.515175],[-89.347573,30.513022],[-89.34628,30.51023],[-89.341715,30.501337],[-89.341608,30.50019],[-89.34154,30.456358],[-89.345999,30.459106],[-89.346246,30.457512],[-89.348543,30.456307],[-89.351308,30.453656],[-89.351085,30.450583],[-89.353577,30.448076],[-89.354726,30.448443],[-89.35344,30.452457],[-89.355047,30.454832],[-89.355327,30.457943],[-89.358226,30.459707],[-89.358146,30.423775],[-89.360733,30.422223],[-89.361823,30.418995],[-89.362679,30.418896],[-89.365069,30.416509],[-89.367055,30.416816],[-89.368462,30.414435],[-89.366533,30.414078],[-89.364857,30.412435],[-89.362797,30.413558],[-89.361788,30.41292],[-89.361756,30.412103],[-89.359979,30.412735],[-89.359406,30.412745],[-89.358081,30.411694],[-89.357718,30.410589],[-89.356753,30.411628],[-89.353142,30.411807],[-89.354243,30.411388],[-89.353683,30.410263],[-89.349895,30.409116],[-89.346585,30.406588],[-89.344383,30.409464],[-89.344212,30.40993],[-89.341345,30.410212],[-89.341251,30.407291],[-89.340947,30.383538],[-89.340947,30.373273],[-89.33331,30.375087],[-89.32354,30.375276],[-89.319399,30.375562],[-89.319101,30.376799],[-89.319012,30.37609],[-89.31961954088631,30.375104424579],[-89.3193545752974,30.375122093182597],[-89.315067,30.375408],[-89.309689,30.373397],[-89.3113104148721,30.3651771315613],[-89.312219,30.360571],[-89.308665,30.361509],[-89.30605,30.365816],[-89.297256,30.367046],[-89.292499,30.365635],[-89.291314,30.361304],[-89.284978,30.353846],[-89.2817843529571,30.3513356448825],[-89.279818,30.34979],[-89.2775884585883,30.348206094226597],[-89.2737611091269,30.345487077267798],[-89.2725925192512,30.344656890288],[-89.270077,30.345057],[-89.267522,30.344314],[-89.264746,30.344654],[-89.264917,30.344495],[-89.264442,30.341845],[-89.266966,30.340471],[-89.266219,30.339354],[-89.26895541100319,30.3408336278317],[-89.268734,30.340588],[-89.272775,30.334024],[-89.27371249896778,30.333805972022898],[-89.2746130272295,30.3335965420802],[-89.281564,30.33198],[-89.2823273363707,30.332127805259],[-89.2831470704614,30.3322865308409],[-89.2850603623825,30.332657002652397],[-89.287844,30.333196],[-89.2883538809651,30.3325459017694],[-89.291844,30.328096],[-89.29062407436099,30.316717601607095],[-89.290126,30.312072],[-89.294444,30.307596],[-89.2930400074627,30.305583610696498],[-89.291444,30.303296],[-89.285744,30.303097],[-89.2851359584202,30.303201640323596],[-89.271833,30.305491],[-89.25201,30.311755],[-89.249832,30.310667],[-89.248955431224,30.3107232649281],[-89.2458998428116,30.3109193961011],[-89.245314,30.310957],[-89.245075,30.312797],[-89.24,30.316025],[-89.22228837153769,30.3218860113206],[-89.220442,30.322497],[-89.2145198998032,30.324030309675397],[-89.18684,30.331197],[-89.186848,30.338927],[-89.204165,30.333204],[-89.204192,30.336925],[-89.197075,30.339713],[-89.203878,30.339694],[-89.203806,30.352517],[-89.210372,30.352393],[-89.210466,30.357241],[-89.205945,30.357674],[-89.206797,30.360956],[-89.207794,30.360807],[-89.207781,30.364212],[-89.206762,30.364371],[-89.20544,30.364154],[-89.205391,30.361172],[-89.203903,30.361402],[-89.203916,30.36481],[-89.210104,30.364783],[-89.211232,30.364986],[-89.213299,30.364694],[-89.217239,30.362483],[-89.218209,30.362764],[-89.218198,30.362796],[-89.218059,30.363219],[-89.218068,30.363487],[-89.218436,30.36394],[-89.219233,30.364841],[-89.22174,30.368361],[-89.221199,30.372408],[-89.221746,30.375952],[-89.220708,30.376111],[-89.220979,30.381751],[-89.219248,30.381449],[-89.219971,30.383115],[-89.219605,30.386436],[-89.218177,30.386503],[-89.213795,30.385299],[-89.211455,30.385096],[-89.208674,30.38242],[-89.206134,30.382052],[-89.205825,30.382873],[-89.207654,30.387333],[-89.207944,30.39011],[-89.206374,30.393406],[-89.204171,30.392861],[-89.199891,30.394002],[-89.198294,30.393965],[-89.197826,30.39526],[-89.200193,30.395134],[-89.201856,30.396752],[-89.201129,30.397833],[-89.197783,30.39754],[-89.196521,30.398235],[-89.197371,30.399927],[-89.196403,30.400937],[-89.194326,30.401414],[-89.195813,30.402153],[-89.19616,30.404589],[-89.195233,30.405385],[-89.198026,30.406605],[-89.199543,30.406169],[-89.199816,30.407752],[-89.201084,30.408356],[-89.200287,30.410403],[-89.199094,30.409976],[-89.199348,30.41133],[-89.202276,30.411928],[-89.203209,30.415178],[-89.204045,30.417207],[-89.20358,30.418462],[-89.205396,30.41765],[-89.207024,30.41774],[-89.208723,30.41914],[-89.209558,30.422937],[-89.210873,30.424151],[-89.208918,30.425511],[-89.209519,30.427378],[-89.213042,30.427377],[-89.214683,30.428825],[-89.2164,30.429357],[-89.217358,30.431327],[-89.218003,30.434093],[-89.219298,30.435078],[-89.220703,30.438958],[-89.22049,30.44062],[-89.221797,30.442157],[-89.223098,30.441431],[-89.224274,30.441704],[-89.225128,30.443201],[-89.228105,30.444078],[-89.228039,30.44625],[-89.231201,30.445542],[-89.23357,30.446513],[-89.234537,30.447716],[-89.236573,30.447035],[-89.238533,30.447197],[-89.239799,30.449434],[-89.243369,30.453259],[-89.242005,30.45554],[-89.243861,30.457513],[-89.24595,30.461265],[-89.247223,30.462155],[-89.247748,30.465147],[-89.249298,30.465263],[-89.250771,30.46367],[-89.2518,30.463468],[-89.2543,30.464454],[-89.256785,30.46309],[-89.257794,30.463251],[-89.25848,30.464075],[-89.259377,30.468981],[-89.258074,30.470225],[-89.258156,30.471175],[-89.259894,30.471538],[-89.260697,30.474218],[-89.262434,30.474816],[-89.265425,30.47744],[-89.268271,30.477701],[-89.269739,30.478633],[-89.272533,30.478511],[-89.273369,30.480469],[-89.275211,30.481217],[-89.274485,30.483965],[-89.275551,30.485298],[-89.277888,30.485053],[-89.279401,30.485399],[-89.280895,30.484015],[-89.282442,30.48359],[-89.284061,30.483913],[-89.286561,30.486328],[-89.288292,30.488463],[-89.289965,30.489252],[-89.290279,30.490563],[-89.291434,30.491504],[-89.293932,30.492425],[-89.293982,30.493243],[-89.292668,30.495048],[-89.295343,30.496198],[-89.29759,30.499161],[-89.296898,30.50041],[-89.299474,30.500966],[-89.299596,30.501955],[-89.298038,30.503511],[-89.29893,30.50718],[-89.30083,30.507574],[-89.301829,30.509007],[-89.299891,30.511521],[-89.299807,30.513066],[-89.301555,30.515452],[-89.304942,30.515578],[-89.303439,30.517222],[-89.305148,30.518551],[-89.305354,30.521206],[-89.307399,30.526197],[-89.309459,30.527983],[-89.311732,30.529123],[-89.312603,30.530497],[-89.314709,30.530559],[-89.31506,30.531168],[-89.312959,30.532681],[-89.312757,30.533653],[-89.313833,30.53529],[-89.311505,30.535558],[-89.311976,30.537912],[-89.309958,30.539982],[-89.310611,30.540684],[-89.313215,30.53995],[-89.312872,30.544717],[-89.315852,30.545572],[-89.316271,30.548791],[-89.31802,30.54964],[-89.318538,30.551146],[-89.320308,30.551278],[-89.320779,30.554048],[-89.3237,30.554484],[-89.324722,30.556333],[-89.32444,30.557228],[-89.324725,30.557437],[-89.325116,30.557557],[-89.325527,30.557615],[-89.325926,30.55755],[-89.32664,30.557277],[-89.326804,30.557263],[-89.327002,30.557299],[-89.327056,30.557568],[-89.326802,30.557844],[-89.32678,30.558185],[-89.327634,30.559791],[-89.341511,30.559757],[-89.341534,30.550867]]]}},{"type":"Feature","properties":{"zcta5":"39534","AFFGEOID10":"8600000US39534","GEOID10":"39534","ALAND10":4179776,"AWATER10":9030,"county_name":"Harrison","state_code":"MS","county_state":"Harrison County, MS","county_fips":"28047","risk_level_county":"Medium Risk (70–79% vaccinated)","mean_vaccination_rate_county":76.46,"risk_level_zcta":"Uninhabited","mean_vaccination_rate_zips":null,"cases":0},"geometry":{"type":"MultiPolygon","coordinates":[[[[-88.928928,30.416977],[-88.927963,30.416795],[-88.927748,30.415811],[-88.926612,30.416498],[-88.926111,30.41784],[-88.926574,30.418076],[-88.928928,30.416977]]],[[[-88.930736,30.412974],[-88.932498,30.411345],[-88.933288,30.407789],[-88.931888,30.403547],[-88.933726,30.402557],[-88.933829,30.39797],[-88.908331,30.398576],[-88.908487,30.401223],[-88.911354,30.401534],[-88.913275,30.403342],[-88.908655,30.403385],[-88.908693,30.405856],[-88.906395,30.405865],[-88.906421,30.408349],[-88.904196,30.408333],[-88.904234,30.410004],[-88.906454,30.409412],[-88.910913,30.409368],[-88.910944,30.411831],[-88.913388,30.411812],[-88.91336,30.409344],[-88.915527,30.40932],[-88.915548,30.410553],[-88.917717,30.410528],[-88.917764,30.413548],[-88.915927,30.413705],[-88.915639,30.416964],[-88.915842,30.419485],[-88.917317,30.419736],[-88.920508,30.418065],[-88.922368,30.417543],[-88.923008,30.418379],[-88.92443,30.416993],[-88.924322,30.415184],[-88.925153,30.415893],[-88.925845,30.414695],[-88.92457,30.412907],[-88.926238,30.414678],[-88.928763,30.412875],[-88.930736,30.412974]]]]}},{"type":"Feature","properties":{"zcta5":"39540","AFFGEOID10":"8600000US39540","GEOID10":"39540","ALAND10":11944383,"AWATER10":1252256,"county_name":"Harrison","state_code":"MS","county_state":"Harrison County, MS","county_fips":"28047","risk_level_county":"Medium Risk (70–79% vaccinated)","mean_vaccination_rate_county":76.46,"risk_level_zcta":"Higher Risk (60–69% vaccinated)","mean_vaccination_rate_zips":65.32,"cases":0},"geometry":{"type":"Polygon","coordinates":[[[-88.88313,30.418798],[-88.883429,30.457504],[-88.88333,30.460797],[-88.88343,30.464665],[-88.889595,30.461636],[-88.892774,30.461626],[-88.89506,30.460646],[-88.896272,30.461661],[-88.900587,30.459889],[-88.902167,30.460183],[-88.903022,30.461177],[-88.903842,30.461065],[-88.904653,30.459294],[-88.906118,30.458877],[-88.909445,30.459801],[-88.911042,30.459218],[-88.912091,30.457997],[-88.913804,30.457484],[-88.912833,30.455143],[-88.91275,30.453747],[-88.917203,30.453691],[-88.917104,30.447645],[-88.917243,30.435501],[-88.916779,30.431534],[-88.918901,30.429035],[-88.916947,30.428953],[-88.916752,30.423156],[-88.911547,30.425587],[-88.90815,30.426191],[-88.904836,30.42617],[-88.903628,30.425545],[-88.898647,30.424441],[-88.893791,30.422815],[-88.889748,30.421231],[-88.883798,30.417574],[-88.88335,30.416532],[-88.88313,30.418798]]]}},{"type":"Feature","properties":{"zcta5":"39507","AFFGEOID10":"8600000US39507","GEOID10":"39507","ALAND10":20905501,"AWATER10":904580,"county_name":"Harrison","state_code":"MS","county_state":"Harrison County, MS","county_fips":"28047","risk_level_county":"Medium Risk (70–79% vaccinated)","mean_vaccination_rate_county":76.46,"risk_level_zcta":"Medium Risk (70–79% vaccinated)","mean_vaccination_rate_zips":71.01,"cases":0},"geometry":{"type":"Polygon","coordinates":[[[-89.001434,30.415897],[-89.006432,30.414892],[-89.008265,30.413227],[-89.011429,30.412013],[-89.014226,30.411375],[-89.015972,30.412101],[-89.017762,30.409441],[-89.020047,30.409192],[-89.022339,30.408334],[-89.023852,30.408877],[-89.025638,30.408247],[-89.026469,30.406783],[-89.027793,30.406609],[-89.028532,30.404495],[-89.029413,30.404341],[-89.031757,30.406082],[-89.034484,30.405838],[-89.037608,30.406986],[-89.038473,30.407758],[-89.036766,30.408576],[-89.037245,30.410024],[-89.039974,30.409746],[-89.039601,30.411161],[-89.038126,30.411462],[-89.038606,30.412423],[-89.039758,30.412386],[-89.039908,30.414071],[-89.0382,30.414828],[-89.039844,30.415649],[-89.040081,30.416987],[-89.038744,30.418677],[-89.041205,30.419507],[-89.04144,30.421994],[-89.04068,30.424251],[-89.042834,30.423289],[-89.043717,30.423678],[-89.043571,30.425576],[-89.046486,30.424817],[-89.047834,30.423882],[-89.049641,30.424083],[-89.047705,30.425068],[-89.050196,30.426533],[-89.052713,30.426574],[-89.054187,30.425957],[-89.056991,30.425603],[-89.058552,30.425971],[-89.062519,30.425401],[-89.063765,30.425701],[-89.067337,30.424501],[-89.068773,30.423292],[-89.069119,30.424572],[-89.07068,30.424314],[-89.07036,30.423822],[-89.065945,30.421458],[-89.062243,30.41888],[-89.058222,30.415506],[-89.062144,30.411995],[-89.06212,30.402164],[-89.058123,30.398498],[-89.057439,30.396774],[-89.058279,30.394985],[-89.060949,30.392427],[-89.062978,30.392424],[-89.064938,30.391418],[-89.060978,30.391431],[-89.06086,30.384171],[-89.060458,30.383442],[-89.06023544842219,30.3743857793737],[-89.0569590512734,30.375095683344],[-89.05420248491708,30.375692954465897],[-89.02545528122559,30.381921672509],[-89.016334,30.383898],[-89.012927862446,30.384577],[-89.0127582993039,30.3846108017393],[-89.001334,30.3868881904543],[-89.001536,30.414485],[-89.001434,30.415897]]]}},{"type":"Feature","properties":{"zcta5":"39501","AFFGEOID10":"8600000US39501","GEOID10":"39501","ALAND10":35440606,"AWATER10":1334511,"county_name":"Harrison","state_code":"MS","county_state":"Harrison County, MS","county_fips":"28047","risk_level_county":"Medium Risk (70–79% vaccinated)","mean_vaccination_rate_county":76.46,"risk_level_zcta":"Higher Risk (60–69% vaccinated)","mean_vaccination_rate_zips":66.36,"cases":0},"geometry":{"type":"Polygon","coordinates":[[[-89.136636,30.398449],[-89.13663,30.397408],[-89.138004,30.396499],[-89.139401,30.393816],[-89.139567,30.391848],[-89.141026,30.390529],[-89.143278,30.390288],[-89.14664,30.389173],[-89.149755,30.389344],[-89.153493,30.393066],[-89.153425,30.383764],[-89.145039,30.383784],[-89.144873,30.376757],[-89.141731,30.376588],[-89.137212,30.369707],[-89.135568,30.369171],[-89.135558,30.366717],[-89.134293,30.36551],[-89.132445,30.366161],[-89.129937,30.362597],[-89.1243361131973,30.3534602062688],[-89.1192176904371,30.3552831677091],[-89.098803,30.362554],[-89.09488039312158,30.3550198088812],[-89.093072,30.352854],[-89.092019,30.351452],[-89.091803,30.350699],[-89.0904641165573,30.3491891123524],[-89.08889290348141,30.3505072475313],[-89.085229,30.353581],[-89.0866787912039,30.356932436754796],[-89.08786,30.359663],[-89.0871663425332,30.3600620719395],[-89.084295,30.361714],[-89.0843974050494,30.3624131961985],[-89.08440816176049,30.362486640345896],[-89.08495546780959,30.366223509876598],[-89.085131,30.367422],[-89.062039,30.373995],[-89.06023544842219,30.3743857793737],[-89.060458,30.383442],[-89.06086,30.384171],[-89.060978,30.391431],[-89.064938,30.391418],[-89.062978,30.392424],[-89.060949,30.392427],[-89.058279,30.394985],[-89.057439,30.396774],[-89.058818,30.396198],[-89.060617,30.394059],[-89.061804,30.394934],[-89.069269,30.395211],[-89.077711,30.395127],[-89.077731,30.398371],[-89.081438,30.398497],[-89.08213,30.402289],[-89.082266,30.413022],[-89.085686,30.416034],[-89.086343,30.418409],[-89.090254,30.415967],[-89.093057,30.413298],[-89.093084,30.41498],[-89.095928,30.414969],[-89.095948,30.416471],[-89.09704,30.415935],[-89.102193,30.416323],[-89.102443,30.413868],[-89.098907,30.413459],[-89.097422,30.41143],[-89.099685,30.409977],[-89.102781,30.409596],[-89.106466,30.408374],[-89.109383,30.405781],[-89.11287,30.404501],[-89.120071,30.399272],[-89.120321,30.399071],[-89.121145,30.398752],[-89.121481,30.398768],[-89.122147,30.399032],[-89.122877,30.39902],[-89.123206,30.398756],[-89.123879,30.398394],[-89.132651,30.398431],[-89.136636,30.398449]]]}},{"type":"Feature","properties":{"zcta5":"39560","AFFGEOID10":"8600000US39560","GEOID10":"39560","ALAND10":56580588,"AWATER10":1476865,"county_name":"Harrison","state_code":"MS","county_state":"Harrison County, MS","county_fips":"28047","risk_level_county":"Medium Risk (70–79% vaccinated)","mean_vaccination_rate_county":76.46,"risk_level_zcta":"Medium Risk (70–79% vaccinated)","mean_vaccination_rate_zips":74.36,"cases":0},"geometry":{"type":"Polygon","coordinates":[[[-89.203209,30.415178],[-89.202276,30.411928],[-89.199348,30.41133],[-89.199094,30.409976],[-89.200287,30.410403],[-89.201084,30.408356],[-89.199816,30.407752],[-89.199543,30.406169],[-89.198026,30.406605],[-89.195233,30.405385],[-89.19616,30.404589],[-89.195813,30.402153],[-89.194326,30.401414],[-89.196403,30.400937],[-89.197371,30.399927],[-89.196521,30.398235],[-89.197783,30.39754],[-89.201129,30.397833],[-89.201856,30.396752],[-89.200193,30.395134],[-89.197826,30.39526],[-89.198294,30.393965],[-89.199891,30.394002],[-89.204171,30.392861],[-89.206374,30.393406],[-89.207944,30.39011],[-89.207654,30.387333],[-89.205825,30.382873],[-89.206134,30.382052],[-89.208674,30.38242],[-89.211455,30.385096],[-89.213795,30.385299],[-89.218177,30.386503],[-89.219605,30.386436],[-89.219971,30.383115],[-89.219248,30.381449],[-89.220979,30.381751],[-89.220708,30.376111],[-89.221746,30.375952],[-89.221199,30.372408],[-89.22174,30.368361],[-89.219233,30.364841],[-89.218436,30.36394],[-89.218068,30.363487],[-89.218059,30.363219],[-89.218198,30.362796],[-89.218209,30.362764],[-89.217239,30.362483],[-89.213299,30.364694],[-89.211232,30.364986],[-89.210104,30.364783],[-89.203916,30.36481],[-89.203903,30.361402],[-89.205391,30.361172],[-89.20544,30.364154],[-89.206762,30.364371],[-89.207781,30.364212],[-89.207794,30.360807],[-89.206797,30.360956],[-89.205945,30.357674],[-89.210466,30.357241],[-89.210372,30.352393],[-89.203806,30.352517],[-89.203878,30.339694],[-89.197075,30.339713],[-89.204192,30.336925],[-89.204165,30.333204],[-89.186848,30.338927],[-89.18684,30.331197],[-89.153881,30.342937],[-89.145735,30.344945],[-89.14433129814209,30.344356740944498],[-89.142485,30.343583],[-89.1416290567957,30.343631993382097],[-89.141,30.343668],[-89.14080879532479,30.3466627811619],[-89.140748,30.347615],[-89.1371649285859,30.348891135507298],[-89.1243361131973,30.3534602062688],[-89.129937,30.362597],[-89.132445,30.366161],[-89.134293,30.36551],[-89.135558,30.366717],[-89.135568,30.369171],[-89.137212,30.369707],[-89.141731,30.376588],[-89.144873,30.376757],[-89.145039,30.383784],[-89.153425,30.383764],[-89.153493,30.393066],[-89.149755,30.389344],[-89.14664,30.389173],[-89.143278,30.390288],[-89.141026,30.390529],[-89.139567,30.391848],[-89.139401,30.393816],[-89.138004,30.396499],[-89.13663,30.397408],[-89.136636,30.398449],[-89.136643,30.405241],[-89.136673,30.412512],[-89.150638,30.412594],[-89.163412,30.41259],[-89.163651,30.413226],[-89.165388,30.415744],[-89.16759,30.416432],[-89.168033,30.417982],[-89.175521,30.41703],[-89.185014,30.417245],[-89.196269,30.417071],[-89.199998,30.416336],[-89.203209,30.415178]]]}},{"type":"Feature","properties":{"zcta5":"39531","AFFGEOID10":"8600000US39531","GEOID10":"39531","ALAND10":17518403,"AWATER10":2577823,"county_name":"Harrison","state_code":"MS","county_state":"Harrison County, MS","county_fips":"28047","risk_level_county":"Medium Risk (70–79% vaccinated)","mean_vaccination_rate_county":76.46,"risk_level_zcta":"Higher Risk (60–69% vaccinated)","mean_vaccination_rate_zips":69.96,"cases":0},"geometry":{"type":"Polygon","coordinates":[[[-89.001434,30.415897],[-89.001536,30.414485],[-89.001334,30.3868881904543],[-88.998902,30.387373],[-88.971233,30.390798],[-88.965431,30.391152],[-88.96386269718609,30.388785827764],[-88.963267,30.388915],[-88.963414,30.390974],[-88.961955,30.391007],[-88.961989,30.388618],[-88.9636311525467,30.3884364854735],[-88.963316,30.387961],[-88.961543,30.387502],[-88.961659,30.391262],[-88.960574,30.391245],[-88.959934,30.391257],[-88.93429336583469,30.3929759365331],[-88.934406,30.397943],[-88.933829,30.39797],[-88.933726,30.402557],[-88.931888,30.403547],[-88.933288,30.407789],[-88.932498,30.411345],[-88.930736,30.412974],[-88.933947,30.415311],[-88.939866,30.416245],[-88.939898,30.41788],[-88.942591,30.419342],[-88.943862,30.419342],[-88.948432,30.420897],[-88.966533,30.419897],[-88.969633,30.418497],[-88.973433,30.415897],[-88.975617,30.41554],[-88.978833,30.415897],[-88.984733,30.416297],[-89.001434,30.415897]]]}},{"type":"Feature","properties":{"zcta5":"39530","AFFGEOID10":"8600000US39530","GEOID10":"39530","ALAND10":25706764,"AWATER10":2047348,"county_name":"Harrison","state_code":"MS","county_state":"Harrison County, MS","county_fips":"28047","risk_level_county":"Medium Risk (70–79% vaccinated)","mean_vaccination_rate_county":76.46,"risk_level_zcta":"Higher Risk (60–69% vaccinated)","mean_vaccination_rate_zips":63.64,"cases":0},"geometry":{"type":"MultiPolygon","coordinates":[[[[-88.87231906404901,30.385544772257198],[-88.874382,30.385121],[-88.867028,30.382435],[-88.851695,30.375281],[-88.840087,30.370059],[-88.83672,30.369413],[-88.826743,30.364786],[-88.818762,30.36059],[-88.81856,30.361872],[-88.821243,30.364264],[-88.8216486337378,30.3647359654125],[-88.824374,30.367907],[-88.8298092434726,30.371572035993896],[-88.829913,30.371642],[-88.836166,30.374066],[-88.837918,30.374088],[-88.849814,30.378666],[-88.8510286817308,30.3786341278846],[-88.85393,30.378558],[-88.859556,30.381333],[-88.865652,30.383292],[-88.871763,30.385659],[-88.87231906404901,30.385544772257198]]],[[[-88.8934700321305,30.2323570918605],[-88.893498,30.232222],[-88.88815,30.23561],[-88.881257,30.239819],[-88.88057512715389,30.2407767067328],[-88.879356,30.242489],[-88.883515,30.242078],[-88.88420041192269,30.241730467194095],[-88.888982,30.239306],[-88.8923748717605,30.2356630542943],[-88.892903,30.235096],[-88.8934700321305,30.2323570918605]]],[[[-88.909353,30.422864],[-88.906625,30.421351],[-88.904341,30.421922],[-88.901727,30.421795],[-88.900426,30.422922],[-88.902176,30.423165],[-88.906428,30.423402],[-88.909353,30.422864]]],[[[-88.933829,30.39797],[-88.934406,30.397943],[-88.93429336583469,30.3929759365331],[-88.922031,30.393798],[-88.9172960921799,30.3937306015755],[-88.902129,30.3935147075905],[-88.89393,30.393398],[-88.884829,30.391998],[-88.8830914961481,30.3919393285541],[-88.868482,30.391446],[-88.8673967791873,30.391106521187],[-88.8654760880292,30.390505690510896],[-88.862676,30.391406],[-88.860138,30.389702],[-88.8569159903486,30.3902832109653],[-88.856764,30.390688],[-88.8577945483116,30.3928285185796],[-88.857828,30.392898],[-88.859519,30.396923],[-88.86195,30.398412],[-88.860763,30.39789],[-88.861512,30.398671],[-88.8593426813777,30.399108719597002],[-88.858737,30.406617],[-88.869908,30.409077],[-88.87002330405149,30.409932365830297],[-88.872353,30.407794],[-88.874329,30.407669],[-88.877204,30.408996],[-88.877298,30.410119],[-88.876727,30.411878],[-88.878541,30.411873],[-88.880533,30.41266],[-88.885564,30.412398],[-88.885355,30.411469],[-88.887919,30.411162],[-88.889796,30.411762],[-88.890271,30.412955],[-88.892415,30.414133],[-88.896394,30.413408],[-88.901153,30.411892],[-88.903564,30.411579],[-88.906025,30.412102],[-88.908537,30.414236],[-88.90969,30.418855],[-88.910642,30.41891],[-88.912145,30.42089],[-88.913021,30.421017],[-88.915842,30.419485],[-88.915639,30.416964],[-88.915927,30.413705],[-88.917764,30.413548],[-88.917717,30.410528],[-88.915548,30.410553],[-88.915527,30.40932],[-88.91336,30.409344],[-88.913388,30.411812],[-88.910944,30.411831],[-88.910913,30.409368],[-88.906454,30.409412],[-88.904234,30.410004],[-88.904196,30.408333],[-88.906421,30.408349],[-88.906395,30.405865],[-88.908693,30.405856],[-88.908655,30.403385],[-88.913275,30.403342],[-88.911354,30.401534],[-88.908487,30.401223],[-88.908331,30.398576],[-88.933829,30.39797]]],[[[-88.982219,30.211627],[-88.9838362486645,30.210585746795797],[-88.977404,30.208588],[-88.97447,30.208213],[-88.970054,30.20809],[-88.959823,30.208538],[-88.958645,30.208511],[-88.953259,30.209781],[-88.949123,30.212622],[-88.951774,30.213447],[-88.966518,30.212824],[-88.971819,30.212439],[-88.976811,30.210987],[-88.982219,30.211627]]],[[[-89.150563,30.230208],[-89.1533449708807,30.2301924276087],[-89.114574,30.224404],[-89.110537,30.222615],[-89.1104918321491,30.2220879326388],[-89.106788,30.221512],[-89.105446,30.221875],[-89.101912,30.221222],[-89.099621,30.22224],[-89.101178,30.222487],[-89.097519,30.222637],[-89.098399,30.221949],[-89.09522,30.221109],[-89.092459,30.220818],[-89.087907,30.221358],[-89.080486,30.220942],[-89.083139,30.218555],[-89.090122,30.218999],[-89.091863,30.218498],[-89.09256,30.219196],[-89.094966,30.218711],[-89.098322,30.219139],[-89.100942,30.218083],[-89.103703,30.218219],[-89.105311,30.218972],[-89.108514,30.217404],[-89.1101414036736,30.217619376171697],[-89.110433,30.215011],[-89.108053,30.214117],[-89.104119,30.214922],[-89.10122,30.213848],[-89.092007,30.215995],[-89.0907827707096,30.2155418695892],[-89.089032,30.21537],[-89.087607,30.214188],[-89.087024,30.213187],[-89.087619,30.211923],[-89.088031,30.211785],[-89.088315,30.211142],[-89.0889881926426,30.2104886999409],[-89.088384,30.210091],[-89.085071,30.213222],[-89.07886,30.22011],[-89.074615,30.225835],[-89.068611,30.235852],[-89.065713,30.24569],[-89.067128,30.250199],[-89.072342,30.238678],[-89.077514,30.230397],[-89.0797986840375,30.230441514118898],[-89.08074168947289,30.2304598873624],[-89.0848211685574,30.2305393707458],[-89.095837,30.230754],[-89.116955,30.230735],[-89.121303,30.231738],[-89.14147750084409,30.2311464575596],[-89.143718,30.230922],[-89.14577,30.230906],[-89.146777,30.230636],[-89.149113,30.2305],[-89.150563,30.230208]]]]}},{"type":"Feature","properties":{"zcta5":"39532","AFFGEOID10":"8600000US39532","GEOID10":"39532","ALAND10":204404721,"AWATER10":11753935,"county_name":"Harrison","state_code":"MS","county_state":"Harrison County, MS","county_fips":"28047","risk_level_county":"Medium Risk (70–79% vaccinated)","mean_vaccination_rate_county":76.46,"risk_level_zcta":"Medium Risk (70–79% vaccinated)","mean_vaccination_rate_zips":77.56,"cases":0},"geometry":{"type":"Polygon","coordinates":[[[-88.88978,30.511069],[-88.896474,30.50803],[-88.900627,30.508477],[-88.906231,30.50846],[-88.910934,30.510754],[-88.911209,30.5152],[-88.911934,30.517881],[-88.917923,30.528342],[-88.922072,30.533394],[-88.924863,30.533644],[-88.934868,30.535324],[-88.95014,30.544978],[-88.952597,30.543432],[-88.956417,30.549198],[-88.956973,30.551357],[-88.959992,30.555507],[-88.963507,30.561578],[-88.967396,30.567468],[-88.966166,30.567967],[-88.969185,30.568761],[-88.979017,30.575407],[-88.994655,30.554875],[-88.997046,30.55131],[-89.00038,30.55367],[-89.001227,30.55506],[-89.005225,30.556628],[-89.008132,30.557109],[-89.010703,30.555522],[-89.012763,30.557261],[-89.015815,30.558346],[-89.022987,30.55992],[-89.023598,30.560366],[-89.022219,30.562983],[-89.021676,30.566363],[-89.024256,30.56981],[-89.026671,30.57151],[-89.032156,30.574464],[-89.032893,30.575261],[-89.035678,30.576099],[-89.03748,30.577362],[-89.041296,30.581205],[-89.042329,30.581545],[-89.046503,30.584923],[-89.048743,30.585375],[-89.048552,30.580784],[-89.05041,30.579076],[-89.047583,30.572202],[-89.048016,30.571479],[-89.050169,30.570978],[-89.050092,30.572529],[-89.051793,30.573753],[-89.053681,30.576613],[-89.055208,30.575237],[-89.059427,30.574516],[-89.060945,30.572386],[-89.063768,30.570709],[-89.063791,30.566765],[-89.065164,30.564888],[-89.066759,30.563763],[-89.068003,30.561748],[-89.067941,30.559891],[-89.071634,30.556166],[-89.072763,30.551857],[-89.072603,30.548773],[-89.071947,30.544947],[-89.073198,30.541392],[-89.072175,30.539442],[-89.072069,30.536864],[-89.070329,30.536284],[-89.070848,30.53549],[-89.068942,30.532852],[-89.064997,30.531375],[-89.062462,30.528604],[-89.062289,30.526702],[-89.061488,30.525791],[-89.057872,30.524212],[-89.057175,30.522269],[-89.05566,30.520935],[-89.056541,30.518419],[-89.055682,30.517205],[-89.052704,30.515156],[-89.055151,30.514155],[-89.055402,30.513077],[-89.052804,30.511716],[-89.052745,30.508754],[-89.050273,30.50766],[-89.05044,30.507061],[-89.052677,30.506177],[-89.051412,30.504818],[-89.051452,30.504256],[-89.053059,30.502714],[-89.052193,30.50173],[-89.05015,30.502489],[-89.049386,30.502558],[-89.048809,30.502308],[-89.04726,30.499946],[-89.047127,30.499385],[-89.047405,30.498502],[-89.046376,30.497848],[-89.043372,30.498161],[-89.042478,30.497839],[-89.038486,30.492744],[-89.036493,30.491407],[-89.037572,30.489994],[-89.037725,30.488647],[-89.032752,30.487273],[-89.032206,30.489388],[-89.03109,30.488897],[-89.031622,30.487575],[-89.03092,30.486536],[-89.031926,30.485603],[-89.030267,30.484138],[-89.029601,30.484874],[-89.028137,30.484703],[-89.026473,30.485823],[-89.025251,30.484732],[-89.025675,30.482986],[-89.025046,30.482504],[-89.026031,30.481492],[-89.02501,30.479906],[-89.023791,30.47932],[-89.021587,30.481019],[-89.020364,30.478819],[-89.021605,30.476081],[-89.023042,30.475921],[-89.02334,30.47502],[-89.022052,30.47454],[-89.020153,30.475478],[-89.0188,30.474675],[-89.016484,30.475505],[-89.016242,30.473944],[-89.01344,30.472876],[-89.014819,30.470536],[-89.012951,30.469216],[-89.010938,30.469179],[-89.010073,30.46784],[-89.010927,30.466188],[-89.013612,30.467606],[-89.014307,30.466557],[-89.011999,30.465423],[-89.010062,30.463572],[-89.009986,30.46345],[-89.010244,30.462624],[-89.013408,30.462105],[-89.011294,30.459075],[-89.009531,30.45785],[-89.010874,30.455998],[-89.013023,30.454554],[-89.013686,30.453476],[-89.013636,30.452535],[-89.009887,30.450841],[-89.009729,30.452966],[-89.008244,30.452441],[-89.00823,30.450254],[-89.0095,30.448521],[-89.009516,30.448307],[-89.007357,30.447324],[-89.007435,30.446599],[-89.010112,30.444417],[-89.010232,30.441313],[-89.01252,30.438452],[-89.010969,30.437739],[-89.009027,30.435938],[-89.008219,30.434206],[-89.007001,30.429842],[-89.004717,30.4289],[-89.0031,30.431209],[-89.00014,30.432636],[-88.996645,30.432726],[-88.994645,30.43455],[-88.992496,30.434627],[-88.990447,30.431709],[-88.984957,30.429908],[-88.983382,30.429788],[-88.981118,30.428268],[-88.979595,30.426045],[-88.979233,30.424597],[-88.979533,30.420497],[-88.978833,30.415897],[-88.975617,30.41554],[-88.973433,30.415897],[-88.969633,30.418497],[-88.966533,30.419897],[-88.948432,30.420897],[-88.943862,30.419342],[-88.942591,30.419342],[-88.939898,30.41788],[-88.932878,30.41728],[-88.919623,30.422705],[-88.916752,30.423156],[-88.916947,30.428953],[-88.918901,30.429035],[-88.916779,30.431534],[-88.917243,30.435501],[-88.917104,30.447645],[-88.917203,30.453691],[-88.91275,30.453747],[-88.912833,30.455143],[-88.913804,30.457484],[-88.912091,30.457997],[-88.911042,30.459218],[-88.909445,30.459801],[-88.906118,30.458877],[-88.904653,30.459294],[-88.903842,30.461065],[-88.903022,30.461177],[-88.902167,30.460183],[-88.900587,30.459889],[-88.896272,30.461661],[-88.89506,30.460646],[-88.892774,30.461626],[-88.889595,30.461636],[-88.88343,30.464665],[-88.88333,30.460797],[-88.883429,30.457504],[-88.88313,30.418798],[-88.873829,30.419998],[-88.87085959588819,30.419471170238197],[-88.870146,30.424244],[-88.865392,30.427113],[-88.857786,30.430188],[-88.8550555672792,30.425850505682195],[-88.854029,30.427398],[-88.849028,30.433298],[-88.849092,30.43502],[-88.846605,30.437091],[-88.845247,30.43729],[-88.844428,30.441201],[-88.842428,30.443203],[-88.839159,30.444036],[-88.842971,30.454062],[-88.843648,30.458514],[-88.84664,30.464951],[-88.853829,30.464872],[-88.853799,30.465814],[-88.858992,30.465933],[-88.859084,30.468917],[-88.862704,30.469029],[-88.862615,30.471833],[-88.849135,30.472446],[-88.849774,30.475934],[-88.850694,30.479287],[-88.851104,30.479966],[-88.851583,30.47947],[-88.851688,30.479476],[-88.858661,30.479451],[-88.85866,30.480297],[-88.861942,30.479429],[-88.875156,30.479381],[-88.871689,30.486039],[-88.874411,30.48806],[-88.883375,30.488077],[-88.883623,30.513713],[-88.886376,30.509161],[-88.88978,30.511069]]]}}]}