{"type":"FeatureCollection","features":[{"type":"Feature","properties":{"zcta5":"78620","AFFGEOID10":"8600000US78620","GEOID10":"78620","ALAND10":446535837,"AWATER10":1027003,"county_name":"Hays","state_code":"TX","county_state":"Hays County, TX","county_fips":"48209","risk_level_county":"Very High Risk (<60% vaccinated)","mean_vaccination_rate_county":59.98,"risk_level_zcta":"Medium Risk (70–79% vaccinated)","mean_vaccination_rate_zips":73.71,"cases":803},"geometry":{"type":"Polygon","coordinates":[[[-98.259241,30.136542],[-98.257879,30.136735],[-98.25665,30.134956],[-98.249063,30.13642],[-98.244489,30.131873],[-98.225249,30.131862],[-98.221087,30.133138],[-98.219668,30.133018],[-98.208916,30.136542],[-98.202964,30.136664],[-98.170008,30.124153],[-98.167978,30.123554],[-98.168678,30.121399],[-98.171021,30.118529],[-98.161051,30.115648],[-98.157917,30.109395],[-98.159395,30.102565],[-98.165073,30.094541],[-98.168779,30.089986],[-98.168269,30.088184],[-98.15365,30.08832],[-98.153582,30.085294],[-98.143552,30.08509],[-98.143565,30.094157],[-98.135447,30.094273],[-98.135601,30.086885],[-98.126581,30.086881],[-98.126424,30.080575],[-98.115983,30.080679],[-98.115316,30.081228],[-98.114754,30.077841],[-98.113429,30.076888],[-98.111979,30.076903],[-98.108933,30.079771],[-98.106904,30.080597],[-98.105032,30.079658],[-98.104347,30.078053],[-98.10074,30.078265],[-98.099047,30.077943],[-98.09719,30.078842],[-98.097852,30.079817],[-98.099814,30.083042],[-98.100577,30.08669],[-98.099676,30.08928],[-98.098525,30.090963],[-98.096091,30.096744],[-98.096655,30.099283],[-98.095931,30.102099],[-98.092314,30.107093],[-98.089468,30.113759],[-98.088309,30.117983],[-98.088441,30.120681],[-98.089209,30.122809],[-98.089995,30.130822],[-98.088301,30.13557],[-98.088004,30.137457],[-98.086777,30.137458],[-98.086951,30.133277],[-98.079907,30.133027],[-98.071114,30.142219],[-98.071058,30.146477],[-98.07526,30.145291],[-98.078265,30.149251],[-98.079029,30.149487],[-98.080564,30.152677],[-98.084431,30.156021],[-98.085857,30.15934],[-98.086668,30.160242],[-98.087654,30.156498],[-98.088889,30.159538],[-98.091313,30.160676],[-98.090644,30.163617],[-98.088012,30.166167],[-98.086837,30.168078],[-98.085647,30.167204],[-98.082945,30.16335],[-98.081816,30.162297],[-98.078056,30.164628],[-98.07404,30.164257],[-98.065297,30.166768],[-98.054759,30.165876],[-98.052273,30.166277],[-98.051261,30.16558],[-98.021016,30.163022],[-98.014867,30.15815],[-98.014984,30.156448],[-98.015957,30.156042],[-98.018271,30.156722],[-98.019446,30.155888],[-98.01905,30.153495],[-98.008778,30.153469],[-98.008984,30.155066],[-98.00845,30.166721],[-98.007992,30.168241],[-98.007594,30.168912],[-98.006537,30.170364],[-98.005282,30.171842],[-98.005002,30.172236],[-98.00422,30.174497],[-98.00298,30.176643],[-98.000731,30.185991],[-98.000667,30.187749],[-98.000576,30.188817],[-97.999913,30.1903],[-97.997387,30.192032],[-97.997235,30.192411],[-97.997792,30.193924],[-97.997815,30.194703],[-97.997311,30.19631],[-97.997387,30.196842],[-98.000272,30.196374],[-98.006749,30.196314],[-98.012769,30.196826],[-98.014204,30.201536],[-98.015218,30.203589],[-98.015501,30.205362],[-98.017026,30.208483],[-98.02059,30.211283],[-98.02255,30.215183],[-98.024145,30.217279],[-98.024946,30.21955],[-98.02482,30.22184],[-98.026144,30.225047],[-98.026129,30.227208],[-98.02265,30.232514],[-98.024946,30.234151],[-98.024602,30.236725],[-98.022682,30.235658],[-98.019497,30.236586],[-98.013751,30.236298],[-98.012917,30.238532],[-98.010835,30.240184],[-98.011253,30.242288],[-98.010487,30.243741],[-98.007786,30.242835],[-98.00618,30.243905],[-98.006829,30.245367],[-98.009046,30.245997],[-98.010332,30.246931],[-98.011402,30.248618],[-98.007753,30.250103],[-98.005211,30.250082],[-98.003081,30.251166],[-98.003504,30.254135],[-98.002091,30.255189],[-97.998901,30.255382],[-97.996774,30.257856],[-97.997778,30.259991],[-97.997348,30.261613],[-97.996248,30.261975],[-97.994128,30.26137],[-97.99281,30.261652],[-97.992215,30.263005],[-97.995167,30.264018],[-97.996054,30.265112],[-97.997608,30.264815],[-97.999563,30.265228],[-98.003176,30.268647],[-98.004688,30.268812],[-98.004832,30.266597],[-98.005885,30.266283],[-98.009205,30.26714],[-98.01114,30.266868],[-98.015493,30.265122],[-98.016301,30.265135],[-98.01803,30.268118],[-98.019452,30.268858],[-98.021438,30.266924],[-98.024783,30.268489],[-98.024591,30.27021],[-98.025032,30.273422],[-98.024322,30.276542],[-98.021399,30.284811],[-98.020796,30.29065],[-98.029151,30.292228],[-98.030641,30.292235],[-98.038547,30.29123],[-98.041124,30.291552],[-98.041157,30.295111],[-98.043454,30.294891],[-98.04506,30.296579],[-98.046201,30.296641],[-98.047008,30.296304],[-98.045142,30.294129],[-98.043496,30.291197],[-98.045739,30.290734],[-98.051708,30.287629],[-98.057208,30.286915],[-98.061307,30.285923],[-98.063837,30.286078],[-98.073829,30.290751],[-98.074751,30.290919],[-98.07453,30.292595],[-98.071886,30.296522],[-98.073758,30.297435],[-98.069522,30.307524],[-98.07136,30.310827],[-98.079328,30.308709],[-98.079448,30.31142],[-98.080192,30.313397],[-98.08226,30.312924],[-98.083933,30.310323],[-98.086211,30.309526],[-98.086904,30.306964],[-98.089593,30.305176],[-98.089345,30.308809],[-98.090934,30.312548],[-98.103421,30.320713],[-98.107741,30.324468],[-98.108868,30.326011],[-98.113569,30.328418],[-98.101264,30.33413],[-98.10731,30.345346],[-98.093954,30.351577],[-98.099393,30.354287],[-98.098457,30.355629],[-98.108977,30.360413],[-98.110613,30.357814],[-98.115301,30.359843],[-98.118359,30.377877],[-98.124732,30.375785],[-98.128961,30.372587],[-98.130011,30.372683],[-98.131678,30.370483],[-98.132297,30.368586],[-98.130755,30.36567],[-98.129012,30.363835],[-98.12711,30.362803],[-98.127031,30.361657],[-98.129094,30.359251],[-98.132134,30.357671],[-98.135254,30.355106],[-98.136738,30.352658],[-98.13855,30.347153],[-98.13824,30.345077],[-98.139262,30.340879],[-98.139289,30.335184],[-98.140161,30.333956],[-98.14144,30.333858],[-98.140636,30.333285],[-98.148334,30.334358],[-98.151854,30.334613],[-98.155288,30.33433],[-98.163232,30.332255],[-98.167246,30.330462],[-98.172757,30.328461],[-98.17549,30.327146],[-98.176796,30.327383],[-98.178743,30.329204],[-98.182079,30.333742],[-98.181999,30.333927],[-98.182876,30.334851],[-98.184841,30.340667],[-98.185018,30.344339],[-98.185626,30.346894],[-98.186424,30.348024],[-98.192768,30.350332],[-98.195075,30.350083],[-98.196735,30.349265],[-98.198387,30.346383],[-98.198479,30.345394],[-98.197335,30.343865],[-98.196322,30.337821],[-98.196764,30.336362],[-98.199774,30.334318],[-98.203129,30.333446],[-98.206712,30.331141],[-98.210568,30.326859],[-98.211328,30.325588],[-98.211304,30.322546],[-98.21005,30.320078],[-98.204888,30.316754],[-98.203543,30.315215],[-98.204367,30.312411],[-98.206567,30.310812],[-98.208422,30.310605],[-98.210146,30.31149],[-98.210939,30.309856],[-98.212982,30.308678],[-98.211251,30.307648],[-98.210801,30.306502],[-98.208046,30.304557],[-98.205693,30.30217],[-98.203696,30.302051],[-98.199369,30.300779],[-98.198188,30.30007],[-98.200554,30.297237],[-98.199901,30.294407],[-98.201186,30.291854],[-98.199467,30.289497],[-98.252327,30.153801],[-98.259241,30.136542]]]}},{"type":"Feature","properties":{"zcta5":"78663","AFFGEOID10":"8600000US78663","GEOID10":"78663","ALAND10":318920970,"AWATER10":1793850,"county_name":"Hays","state_code":"TX","county_state":"Hays County, TX","county_fips":"48209","risk_level_county":"Very High Risk (<60% vaccinated)","mean_vaccination_rate_county":59.98,"risk_level_zcta":"Very High Risk (<60% vaccinated)","mean_vaccination_rate_zips":55.44,"cases":803},"geometry":{"type":"Polygon","coordinates":[[[-98.59167,30.499875],[-98.590989,30.4593],[-98.589597,30.458869],[-98.58616,30.456368],[-98.58218,30.45127],[-98.579524,30.447186],[-98.57747,30.446878],[-98.575466,30.449594],[-98.573886,30.452521],[-98.570944,30.454133],[-98.565951,30.459213],[-98.5655,30.460167],[-98.561163,30.465872],[-98.558342,30.471421],[-98.55855,30.473224],[-98.557898,30.475186],[-98.555661,30.476762],[-98.552584,30.477731],[-98.547989,30.479683],[-98.54215,30.481467],[-98.538212,30.48369],[-98.534589,30.486195],[-98.527888,30.489859],[-98.524522,30.494177],[-98.521788,30.494796],[-98.521833,30.491085],[-98.517261,30.488503],[-98.514447,30.48752],[-98.517868,30.481353],[-98.515713,30.480886],[-98.507377,30.47736],[-98.505474,30.475698],[-98.504726,30.47388],[-98.501608,30.473199],[-98.500007,30.472353],[-98.497635,30.47246],[-98.495506,30.47192],[-98.493569,30.467599],[-98.494485,30.467182],[-98.495957,30.464858],[-98.496073,30.462882],[-98.497933,30.461178],[-98.495299,30.459164],[-98.495593,30.45567],[-98.492524,30.453899],[-98.490884,30.452306],[-98.489166,30.447859],[-98.487193,30.448681],[-98.482828,30.44871],[-98.478245,30.453295],[-98.476972,30.455586],[-98.475647,30.456166],[-98.467065,30.458664],[-98.459605,30.459581],[-98.451196,30.46199],[-98.451324,30.450887],[-98.450264,30.449925],[-98.450978,30.448274],[-98.450528,30.445822],[-98.449655,30.444813],[-98.448781,30.439955],[-98.44991,30.437112],[-98.450472,30.429656],[-98.449389,30.428013],[-98.445238,30.428481],[-98.443855,30.431156],[-98.44506,30.433851],[-98.445644,30.437571],[-98.445226,30.438164],[-98.446541,30.440378],[-98.448451,30.44169],[-98.446344,30.443087],[-98.445118,30.443093],[-98.444369,30.445288],[-98.445373,30.44647],[-98.443855,30.447147],[-98.444604,30.448682],[-98.443785,30.449402],[-98.444154,30.450987],[-98.443055,30.452208],[-98.442516,30.454931],[-98.44209,30.458108],[-98.440529,30.454968],[-98.441984,30.452607],[-98.440926,30.451644],[-98.440555,30.448321],[-98.438386,30.446006],[-98.437353,30.443163],[-98.436084,30.44188],[-98.436533,30.440024],[-98.435132,30.438099],[-98.431693,30.437159],[-98.43275,30.434381],[-98.432934,30.43197],[-98.431266,30.429443],[-98.430463,30.426062],[-98.427645,30.424415],[-98.427177,30.421694],[-98.422599,30.422238],[-98.421766,30.421025],[-98.419265,30.420849],[-98.417516,30.419529],[-98.415627,30.415896],[-98.413254,30.409417],[-98.411378,30.407644],[-98.411274,30.405473],[-98.408337,30.403477],[-98.40721,30.401886],[-98.405596,30.402139],[-98.403085,30.403425],[-98.399089,30.404259],[-98.39722,30.405987],[-98.394329,30.4044],[-98.388611,30.403085],[-98.38417,30.403723],[-98.379627,30.403516],[-98.373634,30.404029],[-98.369269,30.404903],[-98.368905,30.400124],[-98.363964,30.399467],[-98.368297,30.39066],[-98.375244,30.394483],[-98.37807,30.394727],[-98.381233,30.397802],[-98.38368,30.396915],[-98.384316,30.395911],[-98.389209,30.394849],[-98.393142,30.394653],[-98.393911,30.392081],[-98.395545,30.391633],[-98.39703,30.39218],[-98.403882,30.39038],[-98.405476,30.387941],[-98.405286,30.38666],[-98.403139,30.386537],[-98.401787,30.384559],[-98.397644,30.383034],[-98.397433,30.381412],[-98.396407,30.381364],[-98.393519,30.382643],[-98.393008,30.381936],[-98.391039,30.382379],[-98.388726,30.382116],[-98.38806,30.381125],[-98.383664,30.383566],[-98.382858,30.384704],[-98.380067,30.385294],[-98.379251,30.386154],[-98.373482,30.389083],[-98.36902,30.388997],[-98.369436,30.388137],[-98.365717,30.387823],[-98.352841,30.411006],[-98.345508,30.429147],[-98.339259,30.428772],[-98.336045,30.429071],[-98.333516,30.427822],[-98.331623,30.428276],[-98.328607,30.426682],[-98.325959,30.424405],[-98.321744,30.422133],[-98.317242,30.420068],[-98.314558,30.418297],[-98.312391,30.417546],[-98.313949,30.410899],[-98.312359,30.409359],[-98.31115,30.406795],[-98.307327,30.402668],[-98.303037,30.399945],[-98.298603,30.398629],[-98.295462,30.396753],[-98.293889,30.394971],[-98.289949,30.393606],[-98.287428,30.392153],[-98.288209,30.391786],[-98.291582,30.392556],[-98.293764,30.391248],[-98.29175,30.390428],[-98.291884,30.389574],[-98.296085,30.386912],[-98.297177,30.384568],[-98.297103,30.38179],[-98.298822,30.379531],[-98.297313,30.373455],[-98.295694,30.372695],[-98.29178,30.373834],[-98.285728,30.37175],[-98.282582,30.3723],[-98.280785,30.373813],[-98.278459,30.374661],[-98.274754,30.374474],[-98.270879,30.374999],[-98.267673,30.376503],[-98.264786,30.376761],[-98.269837,30.369224],[-98.271245,30.367807],[-98.275338,30.365522],[-98.27721,30.362522],[-98.277669,30.358494],[-98.278815,30.357689],[-98.276285,30.349723],[-98.275816,30.34087],[-98.276316,30.338903],[-98.279687,30.337692],[-98.282829,30.335311],[-98.284756,30.332678],[-98.284887,30.331397],[-98.289414,30.325983],[-98.292241,30.324792],[-98.295634,30.322588],[-98.298529,30.324037],[-98.301642,30.327822],[-98.30349,30.3289],[-98.308985,30.327502],[-98.313669,30.32915],[-98.316146,30.328606],[-98.314755,30.301644],[-98.311277,30.303064],[-98.308966,30.303442],[-98.30615,30.303268],[-98.30093,30.302448],[-98.29752,30.304548],[-98.294514,30.306848],[-98.292532,30.309124],[-98.288871,30.31177],[-98.286196,30.313232],[-98.282046,30.314107],[-98.280504,30.313496],[-98.276498,30.318262],[-98.273291,30.321334],[-98.271924,30.323575],[-98.271872,30.32588],[-98.270865,30.327407],[-98.265883,30.332979],[-98.262703,30.337068],[-98.257742,30.339542],[-98.25617,30.339665],[-98.254138,30.339299],[-98.249661,30.337067],[-98.249055,30.335512],[-98.245593,30.332153],[-98.245507,30.329657],[-98.246246,30.324142],[-98.245103,30.322943],[-98.242954,30.322302],[-98.240401,30.322706],[-98.237004,30.32407],[-98.234754,30.324148],[-98.232718,30.322484],[-98.232708,30.320787],[-98.23566,30.314207],[-98.236882,30.312539],[-98.239322,30.311086],[-98.243153,30.310198],[-98.245238,30.309249],[-98.246129,30.308003],[-98.245441,30.306161],[-98.240778,30.301033],[-98.236304,30.297897],[-98.235413,30.297601],[-98.230499,30.297613],[-98.225583,30.298571],[-98.223737,30.301098],[-98.223392,30.303408],[-98.223909,30.304267],[-98.222269,30.307436],[-98.216638,30.311918],[-98.213948,30.312809],[-98.212273,30.312586],[-98.208448,30.310751],[-98.206567,30.310812],[-98.204367,30.312411],[-98.203543,30.315215],[-98.204888,30.316754],[-98.21005,30.320078],[-98.211304,30.322546],[-98.211328,30.325588],[-98.210568,30.326859],[-98.206712,30.331141],[-98.203129,30.333446],[-98.199774,30.334318],[-98.196764,30.336362],[-98.196322,30.337821],[-98.197335,30.343865],[-98.198479,30.345394],[-98.198387,30.346383],[-98.196735,30.349265],[-98.195075,30.350083],[-98.192768,30.350332],[-98.186424,30.348024],[-98.185626,30.346894],[-98.185018,30.344339],[-98.184841,30.340667],[-98.182876,30.334851],[-98.181999,30.333927],[-98.182079,30.333742],[-98.178743,30.329204],[-98.176796,30.327383],[-98.17549,30.327146],[-98.172757,30.328461],[-98.167246,30.330462],[-98.163232,30.332255],[-98.155288,30.33433],[-98.151854,30.334613],[-98.148334,30.334358],[-98.140636,30.333285],[-98.14144,30.333858],[-98.140161,30.333956],[-98.139289,30.335184],[-98.139262,30.340879],[-98.13824,30.345077],[-98.13855,30.347153],[-98.136738,30.352658],[-98.135254,30.355106],[-98.132134,30.357671],[-98.129094,30.359251],[-98.127031,30.361657],[-98.12711,30.362803],[-98.129012,30.363835],[-98.130755,30.36567],[-98.132297,30.368586],[-98.131678,30.370483],[-98.130011,30.372683],[-98.138038,30.373862],[-98.144303,30.364269],[-98.149545,30.369916],[-98.152441,30.373502],[-98.159225,30.373051],[-98.159506,30.3763],[-98.161815,30.372682],[-98.160811,30.376488],[-98.162232,30.377785],[-98.165346,30.379058],[-98.169248,30.378723],[-98.171037,30.379983],[-98.173676,30.383481],[-98.178853,30.383905],[-98.180585,30.38511],[-98.181378,30.386876],[-98.183015,30.387388],[-98.185946,30.386012],[-98.189055,30.385346],[-98.190603,30.387585],[-98.194601,30.390027],[-98.195678,30.391594],[-98.197602,30.391288],[-98.196964,30.393296],[-98.198345,30.393807],[-98.198586,30.395105],[-98.204767,30.401749],[-98.207338,30.405186],[-98.209624,30.406116],[-98.210174,30.407453],[-98.208685,30.408601],[-98.206517,30.413163],[-98.206677,30.420337],[-98.208291,30.421666],[-98.210301,30.421665],[-98.211941,30.423681],[-98.215564,30.424116],[-98.216649,30.423657],[-98.219215,30.42494],[-98.228825,30.415368],[-98.229626,30.41411],[-98.235387,30.413242],[-98.239762,30.413998],[-98.241329,30.414659],[-98.245738,30.414301],[-98.248748,30.412966],[-98.252039,30.414224],[-98.253723,30.414339],[-98.253807,30.415637],[-98.255699,30.419673],[-98.249546,30.420873],[-98.246724,30.432311],[-98.250254,30.432975],[-98.251693,30.43402],[-98.262525,30.434911],[-98.26502,30.435855],[-98.266501,30.43847],[-98.26627,30.440038],[-98.269946,30.440888],[-98.270421,30.444761],[-98.26944,30.447695],[-98.270022,30.449483],[-98.2715,30.45082],[-98.271443,30.454969],[-98.270944,30.458307],[-98.268879,30.460873],[-98.267685,30.463753],[-98.320882,30.478013],[-98.351041,30.486096],[-98.400964,30.499589],[-98.411462,30.502095],[-98.440983,30.501862],[-98.469283,30.501628],[-98.470089,30.499538],[-98.471484,30.498973],[-98.473411,30.499633],[-98.482109,30.499771],[-98.484995,30.499429],[-98.489488,30.499468],[-98.495794,30.500185],[-98.495814,30.501415],[-98.59167,30.499875]]]}},{"type":"Feature","properties":{"zcta5":"78739","AFFGEOID10":"8600000US78739","GEOID10":"78739","ALAND10":29588289,"AWATER10":0,"county_name":"Hays","state_code":"TX","county_state":"Hays County, TX","county_fips":"48209","risk_level_county":"Very High Risk (<60% vaccinated)","mean_vaccination_rate_county":59.98,"risk_level_zcta":"Medium Risk (70–79% vaccinated)","mean_vaccination_rate_zips":78.55,"cases":803},"geometry":{"type":"Polygon","coordinates":[[[-97.880168,30.196449],[-97.881783,30.196736],[-97.883371,30.199972],[-97.888791,30.202384],[-97.890383,30.202268],[-97.895279,30.204887],[-97.900585,30.207088],[-97.9022,30.207561],[-97.903573,30.209319],[-97.907512,30.209965],[-97.90883,30.209334],[-97.911998,30.204794],[-97.915941,30.203774],[-97.917559,30.203173],[-97.917972,30.202874],[-97.925205,30.1924],[-97.926524,30.190673],[-97.928703,30.186927],[-97.928856,30.1862],[-97.928737,30.182122],[-97.92286,30.17785],[-97.919301,30.175303],[-97.908562,30.167742],[-97.903664,30.164289],[-97.898993,30.166267],[-97.897361,30.165093],[-97.897408,30.161484],[-97.896049,30.159244],[-97.891968,30.157414],[-97.889879,30.157815],[-97.889168,30.159604],[-97.887305,30.159623],[-97.883362,30.156527],[-97.881713,30.154105],[-97.879893,30.152264],[-97.877548,30.152015],[-97.873955,30.152337],[-97.870324,30.148785],[-97.868334,30.146229],[-97.866846,30.143471],[-97.861814,30.146132],[-97.860996,30.145622],[-97.861716,30.143995],[-97.860949,30.143157],[-97.857402,30.141218],[-97.855438,30.141422],[-97.85337,30.140262],[-97.850178,30.139515],[-97.848721,30.140735],[-97.847329,30.140517],[-97.846688,30.141121],[-97.848636,30.143245],[-97.853184,30.14526],[-97.854857,30.148482],[-97.857577,30.153858],[-97.859889,30.157126],[-97.85995,30.158302],[-97.860345,30.167421],[-97.860154,30.168459],[-97.859811,30.169097],[-97.857782,30.171094],[-97.853761,30.177403],[-97.858573,30.178144],[-97.858404,30.177383],[-97.859449,30.178609],[-97.861766,30.180204],[-97.863548,30.182203],[-97.86389,30.183631],[-97.862961,30.185457],[-97.861548,30.186563],[-97.860948,30.18858],[-97.862961,30.190602],[-97.864802,30.190272],[-97.866053,30.190927],[-97.866206,30.192467],[-97.865543,30.1947],[-97.867706,30.195901],[-97.869085,30.195896],[-97.869771,30.195923],[-97.874782,30.198095],[-97.880168,30.196449]]]}},{"type":"Feature","properties":{"zcta5":"78640","AFFGEOID10":"8600000US78640","GEOID10":"78640","ALAND10":237349184,"AWATER10":2187505,"county_name":"Hays","state_code":"TX","county_state":"Hays County, TX","county_fips":"48209","risk_level_county":"Very High Risk (<60% vaccinated)","mean_vaccination_rate_county":59.98,"risk_level_zcta":"Medium Risk (70–79% vaccinated)","mean_vaccination_rate_zips":70.58,"cases":803},"geometry":{"type":"Polygon","coordinates":[[[-98.010418,30.046379],[-98.010419,30.043634],[-98.007622,30.042911],[-98.004541,30.041261],[-98.00254,30.038991],[-97.9984,30.040436],[-97.996424,30.0403],[-97.994106,30.041034],[-97.987625,30.041426],[-97.985543,30.040144],[-97.984857,30.038035],[-97.985409,30.034024],[-97.985092,30.033015],[-97.981747,30.033819],[-97.978849,30.031505],[-97.976584,30.032308],[-97.97366,30.032492],[-97.970842,30.033707],[-97.969131,30.036848],[-97.966602,30.0371],[-97.964152,30.035794],[-97.962229,30.033274],[-97.962939,30.030454],[-97.96286,30.028346],[-97.96199,30.026971],[-97.959725,30.025986],[-97.95875,30.026651],[-97.958066,30.029286],[-97.956354,30.032083],[-97.954722,30.035911],[-97.95409,30.036369],[-97.952509,30.03653],[-97.949928,30.03543],[-97.948663,30.033207],[-97.94861,30.030022],[-97.947293,30.028165],[-97.945634,30.027111],[-97.941102,30.026928],[-97.939575,30.025873],[-97.939943,30.023535],[-97.939259,30.022435],[-97.940022,30.019708],[-97.938126,30.018356],[-97.938258,30.017645],[-97.941392,30.015468],[-97.941629,30.014299],[-97.940681,30.012717],[-97.937468,30.01313],[-97.936783,30.012007],[-97.935651,30.007767],[-97.932939,30.002725],[-97.929645,29.995879],[-97.928039,29.994687],[-97.926565,29.991868],[-97.924117,29.989575],[-97.920958,29.989139],[-97.918509,29.987695],[-97.917773,29.985473],[-97.918617,29.979238],[-97.919592,29.97548],[-97.919065,29.973944],[-97.915689,29.972888],[-97.913753,29.973529],[-97.912299,29.975309],[-97.912141,29.976538],[-97.909703,29.979144],[-97.909015,29.980794],[-97.907589,29.981435],[-97.9059,29.980931],[-97.90397,29.976873],[-97.903962,29.972267],[-97.903324,29.969448],[-97.903746,29.96821],[-97.905905,29.966813],[-97.907537,29.965094],[-97.908117,29.963582],[-97.907618,29.960739],[-97.904776,29.956087],[-97.904142,29.956086],[-97.900177,29.959363],[-97.899784,29.960582],[-97.892958,29.957917],[-97.894158,29.955562],[-97.892992,29.954395],[-97.891194,29.956095],[-97.8875,29.952922],[-97.88582,29.953842],[-97.883218,29.952888],[-97.883844,29.951944],[-97.884497,29.951137],[-97.883572,29.950506],[-97.882796,29.949452],[-97.880387,29.947041],[-97.875555,29.942722],[-97.878155,29.940032],[-97.863143,29.927443],[-97.860664,29.925822],[-97.849178,29.916],[-97.83661,29.922282],[-97.827359,29.929085],[-97.817358,29.934682],[-97.803452,29.941241],[-97.792435,29.945177],[-97.782972,29.935656],[-97.779645,29.93069],[-97.775102,29.926841],[-97.767518,29.932193],[-97.764069,29.934186],[-97.7622,29.932286],[-97.752249,29.94137],[-97.746005,29.946323],[-97.743747,29.948383],[-97.736107,29.954413],[-97.73694,29.958142],[-97.73956,29.961427],[-97.740159,29.962704],[-97.742232,29.973001],[-97.728881,29.975006],[-97.728971,29.977515],[-97.724338,29.978455],[-97.711238,29.980632],[-97.71012,29.974764],[-97.705415,29.978672],[-97.700952,29.982076],[-97.698642,29.982383],[-97.698882,29.983797],[-97.694605,29.987436],[-97.698708,30.013372],[-97.696709,30.022171],[-97.700024,30.025026],[-97.700512,30.025953],[-97.703107,30.03067],[-97.709143,30.025272],[-97.710215,30.024499],[-97.751479,30.054354],[-97.756269,30.050052],[-97.754141,30.048473],[-97.769415,30.034641],[-97.769086,30.03342],[-97.771237,30.033456],[-97.774887,30.032812],[-97.777632,30.033325],[-97.782462,30.036143],[-97.78469,30.038043],[-97.796104,30.028991],[-97.80482,30.036034],[-97.800239,30.038138],[-97.800032,30.038758],[-97.804236,30.038591],[-97.804298,30.041028],[-97.803351,30.044665],[-97.81339,30.030511],[-97.824638,30.030395],[-97.828468,30.031943],[-97.831475,30.031917],[-97.830744,30.034976],[-97.831497,30.037708],[-97.828198,30.03793],[-97.828268,30.040689],[-97.840448,30.040798],[-97.841329,30.040911],[-97.84241,30.041562],[-97.842674,30.042173],[-97.846066,30.035657],[-97.85231,30.036051],[-97.853318,30.031882],[-97.854607,30.028275],[-97.866864,30.028202],[-97.872733,30.02816],[-97.872323,30.035786],[-97.872774,30.038668],[-97.874927,30.043817],[-97.875096,30.046058],[-97.874712,30.049713],[-97.87528,30.050209],[-97.878434,30.050136],[-97.880387,30.049385],[-97.88337,30.046515],[-97.887185,30.037136],[-97.887899,30.034519],[-97.902932,30.034235],[-97.901892,30.035243],[-97.91193,30.043697],[-97.90778,30.045285],[-97.90649,30.048226],[-97.904442,30.050004],[-97.903532,30.051781],[-97.927635,30.051715],[-97.927832,30.059885],[-97.92618,30.060226],[-97.9259,30.062277],[-97.92992,30.059837],[-97.934068,30.055115],[-97.93747,30.052003],[-97.976252,30.058943],[-97.977194,30.060423],[-97.979005,30.060619],[-97.980655,30.059531],[-97.981302,30.05693],[-97.983279,30.055945],[-97.983215,30.054263],[-97.98457,30.052552],[-97.986848,30.051633],[-97.989148,30.052466],[-97.988616,30.047392],[-98.000354,30.047928],[-98.003993,30.046629],[-98.010418,30.046379]]]}},{"type":"Feature","properties":{"zcta5":"78610","AFFGEOID10":"8600000US78610","GEOID10":"78610","ALAND10":239337816,"AWATER10":919588,"county_name":"Hays","state_code":"TX","county_state":"Hays County, TX","county_fips":"48209","risk_level_county":"Very High Risk (<60% vaccinated)","mean_vaccination_rate_county":59.98,"risk_level_zcta":"Medium Risk (70–79% vaccinated)","mean_vaccination_rate_zips":70.13,"cases":803},"geometry":{"type":"Polygon","coordinates":[[[-97.975999,30.128761],[-97.983371,30.123548],[-97.977385,30.117173],[-97.985332,30.117116],[-97.987805,30.118257],[-97.992754,30.121857],[-97.995067,30.122518],[-98.000637,30.122802],[-98.002354,30.12384],[-98.010403,30.131921],[-98.012639,30.131208],[-98.016022,30.131152],[-98.016235,30.129692],[-98.015029,30.127868],[-98.012301,30.127101],[-98.00929,30.128169],[-98.007938,30.127106],[-98.007564,30.125209],[-98.008131,30.121389],[-98.005787,30.118753],[-98.003072,30.116872],[-98.002469,30.112517],[-98.000915,30.110659],[-97.995805,30.11061],[-97.995869,30.113186],[-97.993565,30.112002],[-97.992413,30.110338],[-97.992413,30.108338],[-97.995165,30.103202],[-97.998141,30.099362],[-98.003507,30.094755],[-98.005222,30.091661],[-98.006382,30.090493],[-98.010496,30.089234],[-98.012531,30.087652],[-98.013221,30.084958],[-98.010509,30.084523],[-98.008134,30.083075],[-98.00683,30.083964],[-98.004617,30.084425],[-97.998954,30.083503],[-97.99702,30.080177],[-97.995768,30.079749],[-97.994372,30.080529],[-97.992545,30.084165],[-97.990399,30.086248],[-97.986076,30.087372],[-97.981865,30.08928],[-97.980135,30.089505],[-97.977846,30.087972],[-97.976629,30.086133],[-97.974498,30.084104],[-97.974704,30.081339],[-97.978604,30.078335],[-97.979483,30.076099],[-97.979306,30.0745],[-97.978216,30.07263],[-97.977926,30.07012],[-97.981059,30.067116],[-97.982945,30.063872],[-97.981762,30.062237],[-97.979005,30.060619],[-97.977194,30.060423],[-97.976252,30.058943],[-97.93747,30.052003],[-97.934068,30.055115],[-97.92992,30.059837],[-97.9259,30.062277],[-97.92618,30.060226],[-97.927832,30.059885],[-97.927635,30.051715],[-97.903532,30.051781],[-97.904442,30.050004],[-97.90649,30.048226],[-97.90778,30.045285],[-97.91193,30.043697],[-97.901892,30.035243],[-97.902932,30.034235],[-97.887899,30.034519],[-97.887185,30.037136],[-97.88337,30.046515],[-97.880387,30.049385],[-97.878434,30.050136],[-97.87528,30.050209],[-97.874712,30.049713],[-97.875096,30.046058],[-97.874927,30.043817],[-97.872774,30.038668],[-97.872323,30.035786],[-97.872733,30.02816],[-97.866864,30.028202],[-97.854607,30.028275],[-97.853318,30.031882],[-97.85231,30.036051],[-97.846066,30.035657],[-97.842674,30.042173],[-97.84241,30.041562],[-97.841329,30.040911],[-97.840448,30.040798],[-97.828268,30.040689],[-97.828198,30.03793],[-97.831497,30.037708],[-97.830744,30.034976],[-97.831475,30.031917],[-97.828468,30.031943],[-97.824638,30.030395],[-97.81339,30.030511],[-97.803351,30.044665],[-97.804298,30.041028],[-97.804236,30.038591],[-97.800032,30.038758],[-97.800239,30.038138],[-97.80482,30.036034],[-97.796104,30.028991],[-97.78469,30.038043],[-97.782462,30.036143],[-97.777632,30.033325],[-97.774887,30.032812],[-97.771237,30.033456],[-97.769086,30.03342],[-97.769415,30.034641],[-97.754141,30.048473],[-97.756269,30.050052],[-97.751479,30.054354],[-97.710215,30.024499],[-97.709143,30.025272],[-97.703107,30.03067],[-97.700512,30.025953],[-97.694907,30.027151],[-97.694561,30.026482],[-97.674465,30.030523],[-97.675735,30.034776],[-97.675932,30.035123],[-97.687014,30.044762],[-97.68647,30.046104],[-97.682433,30.048709],[-97.670886,30.059464],[-97.655257,30.072907],[-97.671778,30.086377],[-97.672954,30.085091],[-97.673035,30.083646],[-97.67408,30.081924],[-97.678628,30.082386],[-97.682901,30.081906],[-97.69017,30.0757],[-97.693192,30.07569],[-97.696704,30.079301],[-97.702229,30.083561],[-97.707756,30.088341],[-97.722473,30.088681],[-97.726635,30.090666],[-97.728957,30.091043],[-97.727808,30.098313],[-97.72735,30.099897],[-97.719586,30.096557],[-97.718388,30.098575],[-97.726383,30.102922],[-97.727496,30.101181],[-97.749267,30.111502],[-97.751411,30.108099],[-97.752362,30.108549],[-97.760517,30.109171],[-97.763882,30.104033],[-97.781789,30.112653],[-97.78529,30.112775],[-97.806871,30.11247],[-97.813255,30.09868],[-97.820772,30.104101],[-97.821373,30.104976],[-97.824464,30.107608],[-97.857222,30.13124],[-97.858555,30.128911],[-97.861154,30.126439],[-97.861915,30.12575],[-97.862258,30.125462],[-97.862672,30.125176],[-97.863084,30.124993],[-97.863489,30.12487],[-97.865396,30.124669],[-97.865709,30.124833],[-97.866738,30.124872],[-97.868615,30.124839],[-97.868959,30.124627],[-97.869058,30.124323],[-97.8694,30.126207],[-97.875463,30.125731],[-97.880543,30.125338],[-97.90067,30.131073],[-97.901787,30.129824],[-97.905655,30.129001],[-97.906983,30.127486],[-97.90716,30.124314],[-97.910981,30.120889],[-97.91476,30.119325],[-97.916177,30.117268],[-97.915167,30.115499],[-97.918136,30.112096],[-97.919855,30.110998],[-97.922914,30.109835],[-97.92653,30.109462],[-97.928654,30.108496],[-97.932345,30.112271],[-97.933458,30.112249],[-97.936527,30.11349],[-97.938691,30.11361],[-97.940335,30.112908],[-97.943445,30.112666],[-97.945442,30.11462],[-97.950019,30.113566],[-97.955152,30.116305],[-97.957271,30.117135],[-97.955983,30.118228],[-97.9573,30.118154],[-97.961093,30.119691],[-97.961649,30.122347],[-97.962585,30.123928],[-97.9639,30.124103],[-97.965467,30.125376],[-97.969336,30.125823],[-97.971106,30.126921],[-97.97149,30.12876],[-97.975999,30.128761]]]}},{"type":"Feature","properties":{"zcta5":"78656","AFFGEOID10":"8600000US78656","GEOID10":"78656","ALAND10":55448723,"AWATER10":304458,"county_name":"Hays","state_code":"TX","county_state":"Hays County, TX","county_fips":"48209","risk_level_county":"Very High Risk (<60% vaccinated)","mean_vaccination_rate_county":59.98,"risk_level_zcta":"Higher Risk (60–69% vaccinated)","mean_vaccination_rate_zips":60.62,"cases":803},"geometry":{"type":"Polygon","coordinates":[[[-97.849178,29.916],[-97.856052,29.911334],[-97.857766,29.91306],[-97.864963,29.907737],[-97.863423,29.906352],[-97.869802,29.901861],[-97.876841,29.908076],[-97.884616,29.901085],[-97.881905,29.898767],[-97.880899,29.899627],[-97.877453,29.896415],[-97.88112,29.893414],[-97.857523,29.910299],[-97.850868,29.903208],[-97.852845,29.903708],[-97.853999,29.902767],[-97.852777,29.899621],[-97.85126,29.897341],[-97.850431,29.894673],[-97.849055,29.893287],[-97.850722,29.892234],[-97.85484,29.891863],[-97.854832,29.887126],[-97.852982,29.88577],[-97.85431,29.882678],[-97.854482,29.881374],[-97.851896,29.88142],[-97.848594,29.878123],[-97.867351,29.864183],[-97.865363,29.863306],[-97.860012,29.867564],[-97.855204,29.862599],[-97.850299,29.867069],[-97.848078,29.864848],[-97.847345,29.865641],[-97.845272,29.86739],[-97.830604,29.878954],[-97.83189,29.884402],[-97.825901,29.878561],[-97.821055,29.878455],[-97.815927,29.873079],[-97.815222,29.873031],[-97.808222,29.87834],[-97.802673,29.87315],[-97.803267,29.872754],[-97.801099,29.87002],[-97.799011,29.868415],[-97.797077,29.868789],[-97.795688,29.867367],[-97.794191,29.867641],[-97.791509,29.871491],[-97.789691,29.872871],[-97.763922,29.872014],[-97.762906,29.870484],[-97.763854,29.86886],[-97.763581,29.867656],[-97.759623,29.866307],[-97.757033,29.865782],[-97.757086,29.867472],[-97.75934,29.869436],[-97.759504,29.871276],[-97.747486,29.87107],[-97.74169,29.870611],[-97.740835,29.871236],[-97.748734,29.882694],[-97.758899,29.880835],[-97.764034,29.880198],[-97.77104,29.879934],[-97.761163,29.885074],[-97.765428,29.891759],[-97.75928,29.896851],[-97.759785,29.89762],[-97.763507,29.898311],[-97.764478,29.900502],[-97.767277,29.902165],[-97.768894,29.901415],[-97.770478,29.902925],[-97.776389,29.901076],[-97.777823,29.902896],[-97.780897,29.904487],[-97.783263,29.90926],[-97.787158,29.913824],[-97.7622,29.932286],[-97.764069,29.934186],[-97.767518,29.932193],[-97.775102,29.926841],[-97.779645,29.93069],[-97.782972,29.935656],[-97.792435,29.945177],[-97.803452,29.941241],[-97.817358,29.934682],[-97.827359,29.929085],[-97.83661,29.922282],[-97.849178,29.916]]]}},{"type":"Feature","properties":{"zcta5":"78619","AFFGEOID10":"8600000US78619","GEOID10":"78619","ALAND10":99881835,"AWATER10":0,"county_name":"Hays","state_code":"TX","county_state":"Hays County, TX","county_fips":"48209","risk_level_county":"Very High Risk (<60% vaccinated)","mean_vaccination_rate_county":59.98,"risk_level_zcta":"Higher Risk (60–69% vaccinated)","mean_vaccination_rate_zips":69.86,"cases":803},"geometry":{"type":"Polygon","coordinates":[[[-98.008778,30.153469],[-98.01905,30.153495],[-98.019446,30.155888],[-98.018271,30.156722],[-98.015957,30.156042],[-98.014984,30.156448],[-98.014867,30.15815],[-98.021016,30.163022],[-98.051261,30.16558],[-98.052273,30.166277],[-98.054759,30.165876],[-98.065297,30.166768],[-98.07404,30.164257],[-98.078056,30.164628],[-98.081816,30.162297],[-98.082945,30.16335],[-98.085647,30.167204],[-98.086837,30.168078],[-98.088012,30.166167],[-98.090644,30.163617],[-98.091313,30.160676],[-98.088889,30.159538],[-98.087654,30.156498],[-98.086668,30.160242],[-98.085857,30.15934],[-98.084431,30.156021],[-98.080564,30.152677],[-98.079029,30.149487],[-98.078265,30.149251],[-98.07526,30.145291],[-98.071058,30.146477],[-98.071114,30.142219],[-98.079907,30.133027],[-98.086951,30.133277],[-98.086777,30.137458],[-98.088004,30.137457],[-98.088301,30.13557],[-98.089995,30.130822],[-98.089209,30.122809],[-98.088441,30.120681],[-98.088309,30.117983],[-98.089468,30.113759],[-98.092314,30.107093],[-98.095931,30.102099],[-98.096655,30.099283],[-98.096091,30.096744],[-98.098525,30.090963],[-98.099676,30.08928],[-98.100577,30.08669],[-98.099814,30.083042],[-98.097852,30.079817],[-98.094432,30.079978],[-98.094391,30.078656],[-98.080339,30.079008],[-98.080607,30.082413],[-98.08054,30.089743],[-98.0763,30.089252],[-98.076355,30.090706],[-98.052938,30.091789],[-98.045865,30.091774],[-98.045735,30.08935],[-98.044269,30.088479],[-98.040783,30.089275],[-98.040643,30.074372],[-98.033466,30.074377],[-98.032498,30.072543],[-98.030262,30.071366],[-98.0313,30.070002],[-98.029194,30.068042],[-98.025783,30.069403],[-98.023557,30.069448],[-98.024796,30.068251],[-98.030031,30.066811],[-98.034909,30.067764],[-98.037273,30.067524],[-98.036486,30.056646],[-98.030647,30.053779],[-98.029607,30.051606],[-98.02804,30.05082],[-98.026561,30.053389],[-98.024753,30.054575],[-98.021664,30.052773],[-98.022983,30.051485],[-98.024143,30.048092],[-98.02103,30.048113],[-98.014156,30.046402],[-98.010418,30.046379],[-98.003993,30.046629],[-98.000354,30.047928],[-97.988616,30.047392],[-97.989148,30.052466],[-97.986848,30.051633],[-97.98457,30.052552],[-97.983215,30.054263],[-97.983279,30.055945],[-97.981302,30.05693],[-97.980655,30.059531],[-97.979005,30.060619],[-97.981762,30.062237],[-97.982945,30.063872],[-97.981059,30.067116],[-97.977926,30.07012],[-97.978216,30.07263],[-97.979306,30.0745],[-97.979483,30.076099],[-97.978604,30.078335],[-97.974704,30.081339],[-97.974498,30.084104],[-97.976629,30.086133],[-97.977846,30.087972],[-97.980135,30.089505],[-97.981865,30.08928],[-97.986076,30.087372],[-97.990399,30.086248],[-97.992545,30.084165],[-97.994372,30.080529],[-97.995768,30.079749],[-97.99702,30.080177],[-97.998954,30.083503],[-98.004617,30.084425],[-98.00683,30.083964],[-98.008134,30.083075],[-98.010509,30.084523],[-98.013221,30.084958],[-98.012531,30.087652],[-98.010496,30.089234],[-98.006382,30.090493],[-98.005222,30.091661],[-98.003507,30.094755],[-97.998141,30.099362],[-97.995165,30.103202],[-97.992413,30.108338],[-97.992413,30.110338],[-97.993565,30.112002],[-97.995869,30.113186],[-97.995805,30.11061],[-98.000915,30.110659],[-98.002469,30.112517],[-98.003072,30.116872],[-98.005787,30.118753],[-98.008131,30.121389],[-98.007564,30.125209],[-98.007938,30.127106],[-98.00929,30.128169],[-98.012301,30.127101],[-98.015029,30.127868],[-98.016235,30.129692],[-98.016022,30.131152],[-98.012639,30.131208],[-98.010403,30.131921],[-98.002354,30.12384],[-98.000637,30.122802],[-97.995067,30.122518],[-97.992754,30.121857],[-97.987805,30.118257],[-97.985332,30.117116],[-97.977385,30.117173],[-97.983371,30.123548],[-97.975999,30.128761],[-97.986363,30.12876],[-97.986397,30.131524],[-97.973067,30.130169],[-97.973579,30.130415],[-97.972318,30.133225],[-97.972218,30.152296],[-97.974224,30.151222],[-97.977833,30.150444],[-97.982785,30.148084],[-97.985989,30.146851],[-97.990566,30.1488],[-97.993483,30.151049],[-97.994054,30.152961],[-97.995471,30.153772],[-98.008778,30.153469]]]}},{"type":"Feature","properties":{"zcta5":"78737","AFFGEOID10":"8600000US78737","GEOID10":"78737","ALAND10":98273067,"AWATER10":4561,"county_name":"Hays","state_code":"TX","county_state":"Hays County, TX","county_fips":"48209","risk_level_county":"Very High Risk (<60% vaccinated)","mean_vaccination_rate_county":59.98,"risk_level_zcta":"Medium Risk (70–79% vaccinated)","mean_vaccination_rate_zips":79.55,"cases":803},"geometry":{"type":"Polygon","coordinates":[[[-98.011253,30.242288],[-98.010835,30.240184],[-98.012917,30.238532],[-98.013751,30.236298],[-98.019497,30.236586],[-98.022682,30.235658],[-98.024602,30.236725],[-98.024946,30.234151],[-98.02265,30.232514],[-98.026129,30.227208],[-98.026144,30.225047],[-98.02482,30.22184],[-98.024946,30.21955],[-98.024145,30.217279],[-98.02255,30.215183],[-98.02059,30.211283],[-98.017026,30.208483],[-98.015501,30.205362],[-98.015218,30.203589],[-98.014204,30.201536],[-98.012769,30.196826],[-98.006749,30.196314],[-98.000272,30.196374],[-97.997387,30.196842],[-97.997311,30.19631],[-97.997815,30.194703],[-97.997792,30.193924],[-97.997235,30.192411],[-97.997387,30.192032],[-97.999913,30.1903],[-98.000576,30.188817],[-98.000667,30.187749],[-98.000731,30.185991],[-98.00298,30.176643],[-98.00422,30.174497],[-98.005002,30.172236],[-98.005282,30.171842],[-98.006537,30.170364],[-98.007594,30.168912],[-98.007992,30.168241],[-98.00845,30.166721],[-98.008984,30.155066],[-98.008778,30.153469],[-97.995471,30.153772],[-97.994054,30.152961],[-97.993483,30.151049],[-97.990566,30.1488],[-97.985989,30.146851],[-97.982785,30.148084],[-97.977833,30.150444],[-97.974224,30.151222],[-97.972218,30.152296],[-97.972318,30.133225],[-97.973579,30.130415],[-97.973067,30.130169],[-97.986397,30.131524],[-97.986363,30.12876],[-97.975999,30.128761],[-97.97149,30.12876],[-97.971106,30.126921],[-97.969336,30.125823],[-97.965467,30.125376],[-97.9639,30.124103],[-97.962585,30.123928],[-97.961649,30.122347],[-97.961093,30.119691],[-97.9573,30.118154],[-97.955983,30.118228],[-97.916074,30.151913],[-97.916133,30.159166],[-97.915058,30.160344],[-97.910297,30.162954],[-97.907916,30.163857],[-97.908562,30.167742],[-97.919301,30.175303],[-97.92286,30.17785],[-97.928737,30.182122],[-97.928856,30.1862],[-97.928703,30.186927],[-97.926524,30.190673],[-97.925205,30.1924],[-97.917972,30.202874],[-97.917559,30.203173],[-97.915941,30.203774],[-97.911998,30.204794],[-97.90883,30.209334],[-97.907512,30.209965],[-97.903573,30.209319],[-97.9022,30.207561],[-97.900585,30.207088],[-97.895279,30.204887],[-97.890383,30.202268],[-97.888791,30.202384],[-97.883371,30.199972],[-97.881783,30.196736],[-97.880168,30.196449],[-97.878479,30.200538],[-97.883118,30.202209],[-97.885469,30.203822],[-97.886888,30.205368],[-97.889525,30.208837],[-97.892924,30.21246],[-97.893889,30.217759],[-97.894442,30.217975],[-97.893223,30.22106],[-97.888305,30.229195],[-97.894208,30.229935],[-97.895557,30.23032],[-97.909356,30.234439],[-97.911076,30.234498],[-97.935803,30.230267],[-97.938123,30.229603],[-97.952975,30.223472],[-97.954972,30.222571],[-97.959316,30.219817],[-97.959421,30.221325],[-97.960646,30.222738],[-97.960638,30.224781],[-97.963448,30.226658],[-97.968201,30.22825],[-97.970136,30.228426],[-97.973972,30.230323],[-97.978995,30.233133],[-97.982112,30.233915],[-97.984973,30.233228],[-97.983111,30.2313],[-97.984006,30.228479],[-97.983374,30.227609],[-97.981472,30.226821],[-97.981284,30.225683],[-97.982444,30.223439],[-97.981527,30.222761],[-97.983196,30.220913],[-97.98469,30.222012],[-97.989016,30.226792],[-98.011253,30.242288]]]}},{"type":"Feature","properties":{"zcta5":"78666","AFFGEOID10":"8600000US78666","GEOID10":"78666","ALAND10":457375174,"AWATER10":2434044,"county_name":"Hays","state_code":"TX","county_state":"Hays County, TX","county_fips":"48209","risk_level_county":"Very High Risk (<60% vaccinated)","mean_vaccination_rate_county":59.98,"risk_level_zcta":"Higher Risk (60–69% vaccinated)","mean_vaccination_rate_zips":67.63,"cases":803},"geometry":{"type":"Polygon","coordinates":[[[-97.940681,30.012717],[-97.943604,30.00905],[-97.945605,30.007858],[-97.950503,30.006276],[-97.954136,30.004304],[-97.9549,30.004281],[-97.956559,30.005312],[-97.957746,30.00859],[-97.9598,30.011225],[-97.961907,30.011959],[-97.9657,30.011981],[-97.967411,30.011293],[-97.971229,30.007968],[-97.972887,30.007212],[-97.976047,30.006936],[-97.983552,30.005191],[-97.986369,30.004778],[-97.991108,30.002736],[-97.994304,30.000214],[-97.99479,29.998114],[-97.994078,29.99651],[-97.995182,29.994309],[-97.998011,29.994683],[-98.002746,29.999372],[-98.005432,29.999167],[-98.006512,29.998067],[-98.006867,29.994682],[-98.006148,29.990572],[-98.007413,29.987891],[-98.009468,29.986356],[-98.013275,29.984189],[-98.015453,29.98359],[-98.01991,29.985974],[-98.023936,29.984499],[-98.027804,29.982654],[-98.030162,29.981022],[-98.031147,29.983138],[-98.032299,29.983641],[-98.034518,29.987394],[-98.035572,29.987677],[-98.037593,29.986699],[-98.039066,29.984273],[-98.038516,29.982432],[-98.0396,29.980828],[-98.038692,29.980093],[-98.040302,29.979505],[-98.040798,29.97408],[-98.04414,29.966542],[-98.044345,29.961065],[-98.044803,29.958764],[-98.043231,29.955434],[-98.040638,29.951917],[-98.03506,29.95061],[-98.030521,29.947701],[-98.028391,29.944945],[-98.031705,29.941853],[-98.034468,29.943206],[-98.034678,29.945315],[-98.03573,29.946438],[-98.039283,29.945912],[-98.045283,29.947059],[-98.046468,29.944033],[-98.049968,29.9444],[-98.052772,29.944051],[-98.051448,29.94409],[-98.050854,29.935555],[-98.062293,29.935475],[-98.062457,29.939521],[-98.063446,29.939558],[-98.064371,29.942177],[-98.066174,29.944477],[-98.070369,29.944735],[-98.073986,29.944256],[-98.074231,29.94158],[-98.07552,29.939895],[-98.075245,29.938658],[-98.077962,29.934233],[-98.080372,29.937296],[-98.083958,29.939809],[-98.086529,29.940443],[-98.094951,29.941674],[-98.098813,29.941508],[-98.125669,29.934007],[-98.130117,29.933437],[-98.143957,29.933814],[-98.149718,29.934462],[-98.151587,29.934318],[-98.12127,29.912844],[-98.030523,29.848539],[-98.02989,29.846601],[-98.015044,29.801057],[-98.01995,29.796635],[-98.022448,29.793545],[-98.023802,29.792827],[-98.029364,29.786758],[-98.031715,29.783577],[-98.031816,29.782669],[-98.031141,29.783591],[-98.026599,29.785827],[-98.024027,29.787467],[-98.021755,29.78994],[-98.020428,29.788852],[-98.018147,29.789972],[-98.010818,29.78816],[-97.999271,29.752444],[-97.985873,29.765462],[-97.982903,29.762066],[-97.976994,29.761907],[-97.976972,29.760282],[-97.97559,29.75846],[-97.975081,29.755988],[-97.972223,29.755744],[-97.969457,29.754523],[-97.967057,29.754177],[-97.961347,29.752672],[-97.948071,29.752809],[-97.949567,29.743946],[-97.950335,29.741355],[-97.94573,29.740767],[-97.945377,29.73756],[-97.943257,29.737389],[-97.942201,29.736788],[-97.941997,29.733121],[-97.940553,29.732776],[-97.932622,29.731984],[-97.927933,29.727324],[-97.922391,29.731477],[-97.919931,29.733857],[-97.899057,29.749411],[-97.897215,29.750356],[-97.887049,29.753393],[-97.885336,29.754344],[-97.8748,29.76234],[-97.873567,29.763874],[-97.872232,29.765518],[-97.863052,29.772407],[-97.887869,29.797775],[-97.885743,29.800996],[-97.877457,29.807208],[-97.876894,29.80807],[-97.878471,29.808483],[-97.888873,29.818959],[-97.892526,29.822751],[-97.868227,29.845553],[-97.874291,29.851924],[-97.873221,29.85311],[-97.874068,29.855425],[-97.875709,29.857881],[-97.875259,29.858208],[-97.874446,29.859232],[-97.875281,29.860293],[-97.879105,29.86074],[-97.879157,29.861191],[-97.880074,29.864681],[-97.88052,29.865316],[-97.86884,29.863096],[-97.867351,29.864183],[-97.848594,29.878123],[-97.851896,29.88142],[-97.854482,29.881374],[-97.85431,29.882678],[-97.852982,29.88577],[-97.854832,29.887126],[-97.85484,29.891863],[-97.850722,29.892234],[-97.849055,29.893287],[-97.850431,29.894673],[-97.85126,29.897341],[-97.852777,29.899621],[-97.853999,29.902767],[-97.852845,29.903708],[-97.850868,29.903208],[-97.857523,29.910299],[-97.88112,29.893414],[-97.877453,29.896415],[-97.880899,29.899627],[-97.881905,29.898767],[-97.884616,29.901085],[-97.876841,29.908076],[-97.869802,29.901861],[-97.863423,29.906352],[-97.864963,29.907737],[-97.857766,29.91306],[-97.856052,29.911334],[-97.849178,29.916],[-97.860664,29.925822],[-97.863143,29.927443],[-97.878155,29.940032],[-97.875555,29.942722],[-97.880387,29.947041],[-97.882796,29.949452],[-97.883572,29.950506],[-97.884497,29.951137],[-97.883844,29.951944],[-97.883218,29.952888],[-97.88582,29.953842],[-97.8875,29.952922],[-97.891194,29.956095],[-97.892992,29.954395],[-97.894158,29.955562],[-97.892958,29.957917],[-97.899784,29.960582],[-97.900177,29.959363],[-97.904142,29.956086],[-97.904776,29.956087],[-97.907618,29.960739],[-97.908117,29.963582],[-97.907537,29.965094],[-97.905905,29.966813],[-97.903746,29.96821],[-97.903324,29.969448],[-97.903962,29.972267],[-97.90397,29.976873],[-97.9059,29.980931],[-97.907589,29.981435],[-97.909015,29.980794],[-97.909703,29.979144],[-97.912141,29.976538],[-97.912299,29.975309],[-97.913753,29.973529],[-97.915689,29.972888],[-97.919065,29.973944],[-97.919592,29.97548],[-97.918617,29.979238],[-97.917773,29.985473],[-97.918509,29.987695],[-97.920958,29.989139],[-97.924117,29.989575],[-97.926565,29.991868],[-97.928039,29.994687],[-97.929645,29.995879],[-97.932939,30.002725],[-97.935651,30.007767],[-97.936783,30.012007],[-97.937468,30.01313],[-97.940681,30.012717]]]}},{"type":"Feature","properties":{"zcta5":"78130","AFFGEOID10":"8600000US78130","GEOID10":"78130","ALAND10":239143950,"AWATER10":3160389,"county_name":"Hays","state_code":"TX","county_state":"Hays County, TX","county_fips":"48209","risk_level_county":"Very High Risk (<60% vaccinated)","mean_vaccination_rate_county":59.98,"risk_level_zcta":"Higher Risk (60–69% vaccinated)","mean_vaccination_rate_zips":66.66,"cases":803},"geometry":{"type":"MultiPolygon","coordinates":[[[[-98.02989,29.846601],[-98.033864,29.844408],[-98.039623,29.838267],[-98.041278,29.834577],[-98.041146,29.831689],[-98.04301,29.831759],[-98.045296,29.831003],[-98.045795,29.829834],[-98.048712,29.828505],[-98.053914,29.826765],[-98.055753,29.824977],[-98.061994,29.822087],[-98.062575,29.821239],[-98.059158,29.820207],[-98.05737,29.818786],[-98.056845,29.817205],[-98.055583,29.816792],[-98.053741,29.818007],[-98.052219,29.816471],[-98.054296,29.813927],[-98.045786,29.806753],[-98.039264,29.801731],[-98.036658,29.799757],[-98.033117,29.80283],[-98.025664,29.805992],[-98.022875,29.808486],[-98.02179,29.807381],[-98.022223,29.804783],[-98.024398,29.802721],[-98.023777,29.798027],[-98.024605,29.794861],[-98.023802,29.792827],[-98.022448,29.793545],[-98.01995,29.796635],[-98.015044,29.801057],[-98.02989,29.846601]]],[[[-98.031715,29.783577],[-98.035459,29.778463],[-98.034301,29.780593],[-98.044139,29.788958],[-98.045497,29.787833],[-98.058167,29.776052],[-98.059834,29.774656],[-98.066923,29.771408],[-98.07013,29.769338],[-98.074283,29.76586],[-98.07757,29.763956],[-98.080359,29.76019],[-98.081942,29.757215],[-98.084939,29.753108],[-98.088638,29.746273],[-98.093214,29.741025],[-98.099571,29.745452],[-98.100344,29.746346],[-98.104274,29.743747],[-98.109098,29.742601],[-98.109766,29.742433],[-98.110639,29.742166],[-98.111311,29.741837],[-98.113324,29.740056],[-98.11643,29.731298],[-98.119451,29.734251],[-98.121441,29.732414],[-98.121717,29.731007],[-98.125592,29.730281],[-98.125487,29.729101],[-98.134516,29.727692],[-98.140464,29.72589],[-98.143505,29.724393],[-98.154083,29.717619],[-98.155882,29.715796],[-98.157727,29.712531],[-98.161732,29.708994],[-98.162595,29.706995],[-98.16188,29.703689],[-98.156077,29.694703],[-98.155252,29.692624],[-98.154911,29.684946],[-98.15504,29.674543],[-98.153154,29.672],[-98.148932,29.666902],[-98.150327,29.665319],[-98.154888,29.663445],[-98.153125,29.660165],[-98.151569,29.65721],[-98.146436,29.647374],[-98.141648,29.649799],[-98.138908,29.645453],[-98.128261,29.635198],[-98.128138,29.634104],[-98.146869,29.624803],[-98.145233,29.621989],[-98.147615,29.620738],[-98.14817,29.622396],[-98.149282,29.622117],[-98.149118,29.617192],[-98.146888,29.61518],[-98.144976,29.61178],[-98.142429,29.610806],[-98.140776,29.609105],[-98.139347,29.606594],[-98.138332,29.603154],[-98.138091,29.600402],[-98.142877,29.598242],[-98.142324,29.597388],[-98.133191,29.602099],[-98.130082,29.60224],[-98.124417,29.6031],[-98.123739,29.603928],[-98.116929,29.60426],[-98.114522,29.603623],[-98.104689,29.604466],[-98.098741,29.604349],[-98.088561,29.605817],[-98.079237,29.606773],[-98.073102,29.606629],[-98.067881,29.606859],[-98.065555,29.606021],[-98.057784,29.600011],[-98.054447,29.602565],[-98.052356,29.605096],[-98.052766,29.606461],[-98.056089,29.612328],[-98.061413,29.618821],[-98.058255,29.621983],[-98.057292,29.620789],[-98.056391,29.619898],[-98.050794,29.621256],[-98.049155,29.620409],[-98.048885,29.622947],[-98.049674,29.624234],[-98.049684,29.626026],[-98.04688,29.627661],[-98.045973,29.629048],[-98.03427,29.63862],[-98.031607,29.640492],[-98.016614,29.65316],[-98.015228,29.652565],[-98.015019,29.649141],[-98.00301,29.649089],[-98.003133,29.701398],[-97.992696,29.701463],[-97.991019,29.701866],[-97.99108,29.719304],[-97.990803,29.72284],[-97.985765,29.722859],[-97.985717,29.732004],[-97.986564,29.732451],[-97.986603,29.741724],[-97.992071,29.744526],[-97.997767,29.748109],[-98.001106,29.751051],[-97.999271,29.752444],[-98.010818,29.78816],[-98.018147,29.789972],[-98.020428,29.788852],[-98.021755,29.78994],[-98.024027,29.787467],[-98.026599,29.785827],[-98.031141,29.783591],[-98.031816,29.782669],[-98.031715,29.783577]]]]}},{"type":"Feature","properties":{"zcta5":"78623","AFFGEOID10":"8600000US78623","GEOID10":"78623","ALAND10":53157014,"AWATER10":84501,"county_name":"Hays","state_code":"TX","county_state":"Hays County, TX","county_fips":"48209","risk_level_county":"Very High Risk (<60% vaccinated)","mean_vaccination_rate_county":59.98,"risk_level_zcta":"Medium Risk (70–79% vaccinated)","mean_vaccination_rate_zips":73.65,"cases":803},"geometry":{"type":"MultiPolygon","coordinates":[[[[-98.257362,29.968144],[-98.256546,29.967311],[-98.256592,29.964579],[-98.251998,29.964453],[-98.252196,29.965901],[-98.25087,29.966833],[-98.250859,29.969044],[-98.253529,29.969371],[-98.257128,29.969158],[-98.257362,29.968144]]],[[[-98.312958,30.004166],[-98.308992,30.000726],[-98.304784,29.994308],[-98.303141,29.992405],[-98.301167,29.991132],[-98.281898,29.981349],[-98.275883,29.977747],[-98.26939,29.976175],[-98.253284,29.972547],[-98.245277,29.970095],[-98.243422,29.96983],[-98.239558,29.970182],[-98.237314,29.969993],[-98.235679,29.969325],[-98.233853,29.967679],[-98.231934,29.964506],[-98.228343,29.955108],[-98.227481,29.953537],[-98.225612,29.951879],[-98.215079,29.946292],[-98.208148,29.941187],[-98.209632,29.940624],[-98.207218,29.938458],[-98.207002,29.933383],[-98.207317,29.929368],[-98.213539,29.92937],[-98.214791,29.929743],[-98.215558,29.928537],[-98.216799,29.928108],[-98.216875,29.926494],[-98.218129,29.924831],[-98.21704,29.923799],[-98.215595,29.920918],[-98.216319,29.917787],[-98.213758,29.917579],[-98.2138,29.919241],[-98.212871,29.92059],[-98.211224,29.919812],[-98.2111,29.917548],[-98.20576,29.918921],[-98.204752,29.919595],[-98.200602,29.919577],[-98.200192,29.921804],[-98.197565,29.924564],[-98.196216,29.925344],[-98.194207,29.925349],[-98.192322,29.925356],[-98.192645,29.926989],[-98.192202,29.928646],[-98.194255,29.930155],[-98.192161,29.932756],[-98.190074,29.931519],[-98.18744,29.930644],[-98.185576,29.930475],[-98.181267,29.931119],[-98.177944,29.931155],[-98.175238,29.930526],[-98.170125,29.931775],[-98.168669,29.932594],[-98.166014,29.932651],[-98.15985,29.933849],[-98.15638,29.933566],[-98.151587,29.934318],[-98.17143,29.948454],[-98.169898,29.950466],[-98.169993,29.953714],[-98.168923,29.955905],[-98.171239,29.95727],[-98.17689,29.962667],[-98.178917,29.963676],[-98.184761,29.964181],[-98.192126,29.969185],[-98.196139,29.970993],[-98.198518,29.9739],[-98.201846,29.975701],[-98.203258,29.971073],[-98.251333,30.005359],[-98.252806,30.0063],[-98.254951,30.007942],[-98.291407,30.033614],[-98.291037,30.031722],[-98.290163,30.030865],[-98.289905,30.029307],[-98.288564,30.028653],[-98.287193,30.023806],[-98.286939,30.0216],[-98.288016,30.018573],[-98.287032,30.016905],[-98.289136,30.013416],[-98.290252,30.009538],[-98.291947,30.009018],[-98.296027,30.006132],[-98.299057,30.005939],[-98.299284,30.0043],[-98.312958,30.004166]]]]}},{"type":"Feature","properties":{"zcta5":"78652","AFFGEOID10":"8600000US78652","GEOID10":"78652","ALAND10":44820248,"AWATER10":0,"county_name":"Hays","state_code":"TX","county_state":"Hays County, TX","county_fips":"48209","risk_level_county":"Very High Risk (<60% vaccinated)","mean_vaccination_rate_county":59.98,"risk_level_zcta":"Higher Risk (60–69% vaccinated)","mean_vaccination_rate_zips":64.5,"cases":803},"geometry":{"type":"Polygon","coordinates":[[[-97.955983,30.118228],[-97.957271,30.117135],[-97.955152,30.116305],[-97.950019,30.113566],[-97.945442,30.11462],[-97.943445,30.112666],[-97.940335,30.112908],[-97.938691,30.11361],[-97.936527,30.11349],[-97.933458,30.112249],[-97.932345,30.112271],[-97.928654,30.108496],[-97.92653,30.109462],[-97.922914,30.109835],[-97.919855,30.110998],[-97.918136,30.112096],[-97.915167,30.115499],[-97.916177,30.117268],[-97.91476,30.119325],[-97.910981,30.120889],[-97.90716,30.124314],[-97.906983,30.127486],[-97.905655,30.129001],[-97.901787,30.129824],[-97.90067,30.131073],[-97.880543,30.125338],[-97.875463,30.125731],[-97.8694,30.126207],[-97.869058,30.124323],[-97.868959,30.124627],[-97.868615,30.124839],[-97.866738,30.124872],[-97.865709,30.124833],[-97.865396,30.124669],[-97.863489,30.12487],[-97.863084,30.124993],[-97.862672,30.125176],[-97.862258,30.125462],[-97.861915,30.12575],[-97.861154,30.126439],[-97.858555,30.128911],[-97.857222,30.13124],[-97.824464,30.107608],[-97.821373,30.104976],[-97.820772,30.104101],[-97.813255,30.09868],[-97.806871,30.11247],[-97.797731,30.13541],[-97.797112,30.136978],[-97.797249,30.137018],[-97.796142,30.140204],[-97.801555,30.142828],[-97.80966,30.144869],[-97.811183,30.144374],[-97.813344,30.14206],[-97.818962,30.141868],[-97.823232,30.140695],[-97.837793,30.140454],[-97.840673,30.141476],[-97.842648,30.142697],[-97.844088,30.142648],[-97.846688,30.141121],[-97.847329,30.140517],[-97.848721,30.140735],[-97.850178,30.139515],[-97.85337,30.140262],[-97.855438,30.141422],[-97.857402,30.141218],[-97.860949,30.143157],[-97.861716,30.143995],[-97.860996,30.145622],[-97.861814,30.146132],[-97.866846,30.143471],[-97.868334,30.146229],[-97.870324,30.148785],[-97.873955,30.152337],[-97.877548,30.152015],[-97.879893,30.152264],[-97.881713,30.154105],[-97.883362,30.156527],[-97.887305,30.159623],[-97.889168,30.159604],[-97.889879,30.157815],[-97.891968,30.157414],[-97.896049,30.159244],[-97.897408,30.161484],[-97.897361,30.165093],[-97.898993,30.166267],[-97.903664,30.164289],[-97.908562,30.167742],[-97.907916,30.163857],[-97.910297,30.162954],[-97.915058,30.160344],[-97.916133,30.159166],[-97.916074,30.151913],[-97.955983,30.118228]]]}},{"type":"Feature","properties":{"zcta5":"78676","AFFGEOID10":"8600000US78676","GEOID10":"78676","ALAND10":434008473,"AWATER10":240322,"county_name":"Hays","state_code":"TX","county_state":"Hays County, TX","county_fips":"48209","risk_level_county":"Very High Risk (<60% vaccinated)","mean_vaccination_rate_county":59.98,"risk_level_zcta":"Higher Risk (60–69% vaccinated)","mean_vaccination_rate_zips":65.15,"cases":803},"geometry":{"type":"Polygon","coordinates":[[[-98.259241,30.136542],[-98.263844,30.125168],[-98.28225,30.077446],[-98.284639,30.080513],[-98.2842,30.083919],[-98.285289,30.086859],[-98.286782,30.085843],[-98.287791,30.083786],[-98.290139,30.083656],[-98.294109,30.08469],[-98.29597,30.085883],[-98.306794,30.089223],[-98.309085,30.08372],[-98.312956,30.084763],[-98.316331,30.082814],[-98.319595,30.082464],[-98.320794,30.083487],[-98.320902,30.086013],[-98.32504,30.087932],[-98.324154,30.085652],[-98.321618,30.083898],[-98.321389,30.082156],[-98.322197,30.079653],[-98.324706,30.076581],[-98.326115,30.073267],[-98.327857,30.070947],[-98.327022,30.068785],[-98.325627,30.068135],[-98.322328,30.069184],[-98.320729,30.067502],[-98.318344,30.067475],[-98.316591,30.07037],[-98.312962,30.068766],[-98.310174,30.06903],[-98.308427,30.069788],[-98.305751,30.067588],[-98.306218,30.065043],[-98.309394,30.06469],[-98.31095,30.065248],[-98.314116,30.063731],[-98.315604,30.062259],[-98.314306,30.057676],[-98.3165,30.05459],[-98.315942,30.053252],[-98.312851,30.051273],[-98.310661,30.050373],[-98.305855,30.047659],[-98.302654,30.046897],[-98.298948,30.04715],[-98.295465,30.046814],[-98.294174,30.046801],[-98.2976,30.037994],[-98.291407,30.033614],[-98.254951,30.007942],[-98.252806,30.0063],[-98.251333,30.005359],[-98.203258,29.971073],[-98.201846,29.975701],[-98.198518,29.9739],[-98.196139,29.970993],[-98.192126,29.969185],[-98.184761,29.964181],[-98.178917,29.963676],[-98.17689,29.962667],[-98.171239,29.95727],[-98.168923,29.955905],[-98.169993,29.953714],[-98.169898,29.950466],[-98.17143,29.948454],[-98.151587,29.934318],[-98.149718,29.934462],[-98.143957,29.933814],[-98.130117,29.933437],[-98.125669,29.934007],[-98.098813,29.941508],[-98.094951,29.941674],[-98.086529,29.940443],[-98.083958,29.939809],[-98.080372,29.937296],[-98.077962,29.934233],[-98.075245,29.938658],[-98.07552,29.939895],[-98.074231,29.94158],[-98.073986,29.944256],[-98.070369,29.944735],[-98.066174,29.944477],[-98.064371,29.942177],[-98.063446,29.939558],[-98.062457,29.939521],[-98.062293,29.935475],[-98.050854,29.935555],[-98.051448,29.94409],[-98.052772,29.944051],[-98.049968,29.9444],[-98.046468,29.944033],[-98.045283,29.947059],[-98.039283,29.945912],[-98.03573,29.946438],[-98.034678,29.945315],[-98.034468,29.943206],[-98.031705,29.941853],[-98.028391,29.944945],[-98.030521,29.947701],[-98.03506,29.95061],[-98.040638,29.951917],[-98.043231,29.955434],[-98.044803,29.958764],[-98.044345,29.961065],[-98.04414,29.966542],[-98.040798,29.97408],[-98.040302,29.979505],[-98.038692,29.980093],[-98.0396,29.980828],[-98.038516,29.982432],[-98.039066,29.984273],[-98.037593,29.986699],[-98.035572,29.987677],[-98.034518,29.987394],[-98.032299,29.983641],[-98.031147,29.983138],[-98.030162,29.981022],[-98.027804,29.982654],[-98.023936,29.984499],[-98.01991,29.985974],[-98.015453,29.98359],[-98.013275,29.984189],[-98.009468,29.986356],[-98.007413,29.987891],[-98.006148,29.990572],[-98.006867,29.994682],[-98.006512,29.998067],[-98.005432,29.999167],[-98.002746,29.999372],[-97.998011,29.994683],[-97.995182,29.994309],[-97.994078,29.99651],[-97.99479,29.998114],[-97.994304,30.000214],[-97.991108,30.002736],[-97.986369,30.004778],[-97.983552,30.005191],[-97.976047,30.006936],[-97.972887,30.007212],[-97.971229,30.007968],[-97.967411,30.011293],[-97.9657,30.011981],[-97.961907,30.011959],[-97.9598,30.011225],[-97.957746,30.00859],[-97.956559,30.005312],[-97.9549,30.004281],[-97.954136,30.004304],[-97.950503,30.006276],[-97.945605,30.007858],[-97.943604,30.00905],[-97.940681,30.012717],[-97.941629,30.014299],[-97.941392,30.015468],[-97.938258,30.017645],[-97.938126,30.018356],[-97.940022,30.019708],[-97.939259,30.022435],[-97.939943,30.023535],[-97.939575,30.025873],[-97.941102,30.026928],[-97.945634,30.027111],[-97.947293,30.028165],[-97.94861,30.030022],[-97.948663,30.033207],[-97.949928,30.03543],[-97.952509,30.03653],[-97.95409,30.036369],[-97.954722,30.035911],[-97.956354,30.032083],[-97.958066,30.029286],[-97.95875,30.026651],[-97.959725,30.025986],[-97.96199,30.026971],[-97.96286,30.028346],[-97.962939,30.030454],[-97.962229,30.033274],[-97.964152,30.035794],[-97.966602,30.0371],[-97.969131,30.036848],[-97.970842,30.033707],[-97.97366,30.032492],[-97.976584,30.032308],[-97.978849,30.031505],[-97.981747,30.033819],[-97.985092,30.033015],[-97.985409,30.034024],[-97.984857,30.038035],[-97.985543,30.040144],[-97.987625,30.041426],[-97.994106,30.041034],[-97.996424,30.0403],[-97.9984,30.040436],[-98.00254,30.038991],[-98.004541,30.041261],[-98.007622,30.042911],[-98.010419,30.043634],[-98.010418,30.046379],[-98.014156,30.046402],[-98.02103,30.048113],[-98.024143,30.048092],[-98.022983,30.051485],[-98.021664,30.052773],[-98.024753,30.054575],[-98.026561,30.053389],[-98.02804,30.05082],[-98.029607,30.051606],[-98.030647,30.053779],[-98.036486,30.056646],[-98.037273,30.067524],[-98.034909,30.067764],[-98.030031,30.066811],[-98.024796,30.068251],[-98.023557,30.069448],[-98.025783,30.069403],[-98.029194,30.068042],[-98.0313,30.070002],[-98.030262,30.071366],[-98.032498,30.072543],[-98.033466,30.074377],[-98.040643,30.074372],[-98.040783,30.089275],[-98.044269,30.088479],[-98.045735,30.08935],[-98.045865,30.091774],[-98.052938,30.091789],[-98.076355,30.090706],[-98.0763,30.089252],[-98.08054,30.089743],[-98.080607,30.082413],[-98.080339,30.079008],[-98.094391,30.078656],[-98.094432,30.079978],[-98.097852,30.079817],[-98.09719,30.078842],[-98.099047,30.077943],[-98.10074,30.078265],[-98.104347,30.078053],[-98.105032,30.079658],[-98.106904,30.080597],[-98.108933,30.079771],[-98.111979,30.076903],[-98.113429,30.076888],[-98.114754,30.077841],[-98.115316,30.081228],[-98.115983,30.080679],[-98.126424,30.080575],[-98.126581,30.086881],[-98.135601,30.086885],[-98.135447,30.094273],[-98.143565,30.094157],[-98.143552,30.08509],[-98.153582,30.085294],[-98.15365,30.08832],[-98.168269,30.088184],[-98.168779,30.089986],[-98.165073,30.094541],[-98.159395,30.102565],[-98.157917,30.109395],[-98.161051,30.115648],[-98.171021,30.118529],[-98.168678,30.121399],[-98.167978,30.123554],[-98.170008,30.124153],[-98.202964,30.136664],[-98.208916,30.136542],[-98.219668,30.133018],[-98.221087,30.133138],[-98.225249,30.131862],[-98.244489,30.131873],[-98.249063,30.13642],[-98.25665,30.134956],[-98.257879,30.136735],[-98.259241,30.136542]]]}},{"type":"Feature","properties":{"zcta5":"78736","AFFGEOID10":"8600000US78736","GEOID10":"78736","ALAND10":75081113,"AWATER10":0,"county_name":"Hays","state_code":"TX","county_state":"Hays County, TX","county_fips":"48209","risk_level_county":"Very High Risk (<60% vaccinated)","mean_vaccination_rate_county":59.98,"risk_level_zcta":"Medium Risk (70–79% vaccinated)","mean_vaccination_rate_zips":70.08,"cases":803},"geometry":{"type":"Polygon","coordinates":[[[-98.020796,30.29065],[-98.021399,30.284811],[-98.024322,30.276542],[-98.025032,30.273422],[-98.024591,30.27021],[-98.024783,30.268489],[-98.021438,30.266924],[-98.019452,30.268858],[-98.01803,30.268118],[-98.016301,30.265135],[-98.015493,30.265122],[-98.01114,30.266868],[-98.009205,30.26714],[-98.005885,30.266283],[-98.004832,30.266597],[-98.004688,30.268812],[-98.003176,30.268647],[-97.999563,30.265228],[-97.997608,30.264815],[-97.996054,30.265112],[-97.995167,30.264018],[-97.992215,30.263005],[-97.99281,30.261652],[-97.994128,30.26137],[-97.996248,30.261975],[-97.997348,30.261613],[-97.997778,30.259991],[-97.996774,30.257856],[-97.998901,30.255382],[-98.002091,30.255189],[-98.003504,30.254135],[-98.003081,30.251166],[-98.005211,30.250082],[-98.007753,30.250103],[-98.011402,30.248618],[-98.010332,30.246931],[-98.009046,30.245997],[-98.006829,30.245367],[-98.00618,30.243905],[-98.007786,30.242835],[-98.010487,30.243741],[-98.011253,30.242288],[-97.989016,30.226792],[-97.98469,30.222012],[-97.983196,30.220913],[-97.981527,30.222761],[-97.982444,30.223439],[-97.981284,30.225683],[-97.981472,30.226821],[-97.983374,30.227609],[-97.984006,30.228479],[-97.983111,30.2313],[-97.984973,30.233228],[-97.982112,30.233915],[-97.978995,30.233133],[-97.973972,30.230323],[-97.970136,30.228426],[-97.968201,30.22825],[-97.963448,30.226658],[-97.960638,30.224781],[-97.960646,30.222738],[-97.959421,30.221325],[-97.959316,30.219817],[-97.954972,30.222571],[-97.952975,30.223472],[-97.938123,30.229603],[-97.935803,30.230267],[-97.911076,30.234498],[-97.909356,30.234439],[-97.895557,30.23032],[-97.894208,30.229935],[-97.888305,30.229195],[-97.885168,30.228978],[-97.882828,30.229233],[-97.880928,30.229876],[-97.874723,30.233418],[-97.877252,30.235741],[-97.879961,30.239478],[-97.8831,30.239877],[-97.886824,30.244816],[-97.884722,30.244599],[-97.886827,30.246204],[-97.897971,30.251664],[-97.899827,30.252761],[-97.907243,30.260127],[-97.907743,30.261338],[-97.909066,30.266754],[-97.910004,30.268729],[-97.913383,30.273881],[-97.920247,30.276094],[-97.923083,30.277646],[-97.92458,30.277394],[-97.925783,30.278086],[-97.926357,30.279535],[-97.928315,30.281102],[-97.926357,30.282132],[-97.930746,30.284251],[-97.932698,30.284558],[-97.932925,30.286171],[-97.931589,30.286677],[-97.929837,30.288206],[-97.931721,30.290645],[-97.932982,30.291379],[-97.934969,30.291248],[-97.93587,30.290331],[-97.938975,30.289466],[-97.940622,30.287641],[-97.942592,30.287194],[-97.944379,30.288777],[-97.944224,30.29157],[-97.945211,30.292901],[-97.947032,30.293692],[-97.948741,30.293698],[-97.949962,30.294389],[-97.949845,30.296392],[-97.953041,30.298073],[-97.953055,30.299611],[-97.949112,30.302542],[-97.948938,30.303159],[-97.950469,30.304341],[-97.950504,30.304078],[-97.951463,30.303674],[-97.954237,30.304185],[-97.954947,30.303419],[-97.953276,30.302487],[-97.954598,30.29732],[-97.950397,30.29629],[-97.952374,30.289296],[-97.960261,30.290905],[-97.966541,30.288781],[-97.968183,30.290162],[-97.971383,30.291829],[-97.970202,30.293738],[-97.970003,30.295747],[-97.972211,30.29704],[-97.968573,30.302426],[-97.972369,30.304673],[-97.97368,30.302699],[-97.975702,30.301091],[-97.978291,30.30123],[-97.980594,30.302809],[-97.983809,30.303184],[-97.984303,30.305785],[-97.989941,30.306252],[-97.990677,30.304689],[-97.992801,30.305022],[-97.993901,30.306929],[-97.996116,30.305873],[-97.997583,30.304472],[-97.998713,30.301974],[-97.999967,30.300453],[-98.0014,30.299652],[-98.005726,30.298674],[-98.008258,30.296666],[-98.009621,30.296174],[-98.013632,30.295817],[-98.015712,30.295134],[-98.01781,30.291762],[-98.020796,30.29065]]]}}]}