{"type":"FeatureCollection","features":[{"type":"Feature","properties":{"zcta5":"46158","AFFGEOID10":"8600000US46158","GEOID10":"46158","ALAND10":195012184,"AWATER10":2760083,"county_name":"Hendricks","state_code":"IN","county_state":"Hendricks County, IN","county_fips":"18063","risk_level_county":"Lower Risk (80–84% vaccinated)","mean_vaccination_rate_county":84.92,"risk_level_zcta":"Medium Risk (70–79% vaccinated)","mean_vaccination_rate_zips":76.56,"cases":0},"geometry":{"type":"Polygon","coordinates":[[[-86.437289,39.663726],[-86.437147,39.651521],[-86.461773,39.645818],[-86.471679,39.64312],[-86.481958,39.641238],[-86.480136,39.632645],[-86.479827,39.628407],[-86.479633,39.60078],[-86.468214,39.600762],[-86.468445,39.593515],[-86.470214,39.593206],[-86.469961,39.586055],[-86.467671,39.586012],[-86.467412,39.58466],[-86.465518,39.584827],[-86.465502,39.578747],[-86.474681,39.578813],[-86.474616,39.57163],[-86.477449,39.571546],[-86.471603,39.568783],[-86.470716,39.557684],[-86.470118,39.555132],[-86.471367,39.553285],[-86.471214,39.551272],[-86.468209,39.547869],[-86.468739,39.546766],[-86.465533,39.546645],[-86.465354,39.556963],[-86.442153,39.556862],[-86.442782,39.555676],[-86.442384,39.553721],[-86.440312,39.553232],[-86.43978,39.551205],[-86.440284,39.548031],[-86.438148,39.546509],[-86.437637,39.545367],[-86.439219,39.54234],[-86.437758,39.540846],[-86.436885,39.538863],[-86.434197,39.536595],[-86.434963,39.530492],[-86.432637,39.530772],[-86.430828,39.533601],[-86.42965,39.533837],[-86.428132,39.53599],[-86.42301,39.540027],[-86.422491,39.54151],[-86.419873,39.543739],[-86.418681,39.545519],[-86.41509,39.547518],[-86.413073,39.550169],[-86.408097,39.549907],[-86.408014,39.551847],[-86.406505,39.552261],[-86.401799,39.552265],[-86.404026,39.555023],[-86.404465,39.557111],[-86.384636,39.557704],[-86.384442,39.550494],[-86.380554,39.550616],[-86.381708,39.54249],[-86.382258,39.540615],[-86.384107,39.537792],[-86.386532,39.535353],[-86.382762,39.538974],[-86.382635,39.535957],[-86.375836,39.53555],[-86.373247,39.534265],[-86.375148,39.532327],[-86.376545,39.530867],[-86.37737,39.527026],[-86.378538,39.525541],[-86.377996,39.525317],[-86.378258,39.525153],[-86.378851,39.524659],[-86.380582,39.523463],[-86.381389,39.523064],[-86.382466,39.522362],[-86.384436,39.521515],[-86.393529,39.517308],[-86.39322,39.514065],[-86.392087,39.514086],[-86.380962,39.514232],[-86.380126,39.513648],[-86.381682,39.51115],[-86.381457,39.508777],[-86.379786,39.505283],[-86.3824,39.497808],[-86.383136,39.496674],[-86.38438,39.495568],[-86.386223,39.495618],[-86.387571,39.493928],[-86.385383,39.493806],[-86.384042,39.492878],[-86.384832,39.491273],[-86.384216,39.490432],[-86.381412,39.492013],[-86.378572,39.491976],[-86.376467,39.490457],[-86.374223,39.491944],[-86.373881,39.495438],[-86.371297,39.496729],[-86.370068,39.496024],[-86.368604,39.492464],[-86.367193,39.492013],[-86.364878,39.493158],[-86.363974,39.496553],[-86.362075,39.497911],[-86.359099,39.498887],[-86.354039,39.499581],[-86.349128,39.501871],[-86.346417,39.503539],[-86.343016,39.503567],[-86.338808,39.501711],[-86.3334,39.501551],[-86.331784,39.502063],[-86.329368,39.505455],[-86.329721,39.509308],[-86.328088,39.510367],[-86.325784,39.50913],[-86.323863,39.508975],[-86.323111,39.509839],[-86.323757,39.512417],[-86.325223,39.514735],[-86.325607,39.516575],[-86.324871,39.518703],[-86.323035,39.520748],[-86.321623,39.520815],[-86.319047,39.519295],[-86.316663,39.518911],[-86.312727,39.520591],[-86.309729,39.525431],[-86.309335,39.528831],[-86.307479,39.531711],[-86.306231,39.532079],[-86.299143,39.530543],[-86.297815,39.532767],[-86.298851,39.535578],[-86.298274,39.537774],[-86.298647,39.539503],[-86.297015,39.541807],[-86.294119,39.541823],[-86.291958,39.542671],[-86.291686,39.544143],[-86.294246,39.546739],[-86.293697,39.547475],[-86.291698,39.546738],[-86.289591,39.547013],[-86.28535,39.550879],[-86.28639,39.552671],[-86.287846,39.553279],[-86.289478,39.555535],[-86.28879,39.557711],[-86.287334,39.558767],[-86.284822,39.559695],[-86.281206,39.559151],[-86.274758,39.559727],[-86.269355,39.560354],[-86.263862,39.562016],[-86.257878,39.564204],[-86.256806,39.565028],[-86.255397,39.568623],[-86.255429,39.569967],[-86.257013,39.572271],[-86.254485,39.572143],[-86.253813,39.572879],[-86.253989,39.574319],[-86.257141,39.576286],[-86.258709,39.578414],[-86.258517,39.580062],[-86.257205,39.583102],[-86.258853,39.586414],[-86.257845,39.589694],[-86.258833,39.592662],[-86.257589,39.59323],[-86.254133,39.593054],[-86.250589,39.591046],[-86.250821,39.604046],[-86.250133,39.604046],[-86.249885,39.633645],[-86.252024,39.633543],[-86.25229,39.630806],[-86.255279,39.62745],[-86.252906,39.627844],[-86.252069,39.627168],[-86.252225,39.625048],[-86.253982,39.621868],[-86.255381,39.622473],[-86.259584,39.622737],[-86.261553,39.622072],[-86.262914,39.620406],[-86.263009,39.618698],[-86.263097,39.617723],[-86.264783,39.615277],[-86.266554,39.611289],[-86.268471,39.606791],[-86.274351,39.599306],[-86.274595,39.599098],[-86.275936,39.598239],[-86.277058,39.599833],[-86.277063,39.601787],[-86.281963,39.601787],[-86.281963,39.599752],[-86.279875,39.599752],[-86.279876,39.598609],[-86.27988,39.597181],[-86.288751,39.597176],[-86.289505,39.599845],[-86.291189,39.602793],[-86.294214,39.603429],[-86.296167,39.602823],[-86.296863,39.600599],[-86.293814,39.600011],[-86.294499,39.6014],[-86.292937,39.601461],[-86.291597,39.597275],[-86.290078,39.595808],[-86.288466,39.595461],[-86.2885,39.590734],[-86.288487,39.589605],[-86.297835,39.589381],[-86.307229,39.589163],[-86.307322,39.594443],[-86.310545,39.594372],[-86.309909,39.596695],[-86.30111,39.604366],[-86.301129,39.605224],[-86.304798,39.605253],[-86.304744,39.61066],[-86.307786,39.610672],[-86.307779,39.611843],[-86.316773,39.61184],[-86.316715,39.610486],[-86.321464,39.610387],[-86.321464,39.614264],[-86.328989,39.61423],[-86.328989,39.620664],[-86.33618,39.620663],[-86.33618,39.621316],[-86.339167,39.621342],[-86.339175,39.622327],[-86.341087,39.623485],[-86.342545,39.623429],[-86.342542,39.624551],[-86.347277,39.624389],[-86.34732,39.621177],[-86.350472,39.621062],[-86.350579,39.622273],[-86.352174,39.622304],[-86.352221,39.624243],[-86.353761,39.624207],[-86.350821,39.629027],[-86.3479,39.631675],[-86.348114,39.631673],[-86.35552,39.631485],[-86.359657,39.631476],[-86.36226,39.63109],[-86.375116,39.630797],[-86.385563,39.630681],[-86.386517,39.634027],[-86.386669,39.635485],[-86.383219,39.635393],[-86.38153,39.634828],[-86.380463,39.635141],[-86.381317,39.641662],[-86.384831,39.642222],[-86.385572,39.643426],[-86.386404,39.643278],[-86.387729,39.644418],[-86.387505,39.645238],[-86.394213,39.64528],[-86.39426,39.646596],[-86.399068,39.646937],[-86.403761,39.646943],[-86.404096,39.652552],[-86.42088,39.652381],[-86.421438,39.657683],[-86.42339,39.6587],[-86.424307,39.660061],[-86.426305,39.658381],[-86.427384,39.659517],[-86.429109,39.659214],[-86.432841,39.661383],[-86.434953,39.661658],[-86.435834,39.664091],[-86.437289,39.663726]],[[-86.373675,39.532135],[-86.37308,39.534199],[-86.371275,39.53709],[-86.371262,39.546539],[-86.370486,39.546565],[-86.370656,39.542938],[-86.369234,39.542958],[-86.369177,39.539046],[-86.36824,39.538629],[-86.366797,39.538708],[-86.366312,39.537764],[-86.36554,39.537207],[-86.367972,39.535812],[-86.370711,39.535761],[-86.373219,39.531956],[-86.373675,39.532135]]]}},{"type":"Feature","properties":{"zcta5":"46121","AFFGEOID10":"8600000US46121","GEOID10":"46121","ALAND10":140960887,"AWATER10":1610067,"county_name":"Hendricks","state_code":"IN","county_state":"Hendricks County, IN","county_fips":"18063","risk_level_county":"Lower Risk (80–84% vaccinated)","mean_vaccination_rate_county":84.92,"risk_level_zcta":"Medium Risk (70–79% vaccinated)","mean_vaccination_rate_zips":78.52,"cases":0},"geometry":{"type":"Polygon","coordinates":[[[-86.726735,39.732094],[-86.724661,39.73238],[-86.724113,39.730431],[-86.721453,39.727475],[-86.726203,39.724719],[-86.72648,39.722041],[-86.725389,39.720702],[-86.726903,39.717801],[-86.726643,39.716141],[-86.724958,39.71646],[-86.719346,39.717269],[-86.720633,39.71706],[-86.718118,39.71402],[-86.715924,39.713871],[-86.71595,39.712553],[-86.718065,39.710057],[-86.718268,39.70645],[-86.724653,39.706489],[-86.724831,39.702877],[-86.729351,39.702901],[-86.729109,39.688404],[-86.728782,39.687156],[-86.723684,39.688357],[-86.753136,39.680111],[-86.741368,39.683205],[-86.740923,39.675037],[-86.740951,39.667055],[-86.72965,39.666783],[-86.72966,39.661462],[-86.727991,39.661109],[-86.724104,39.661583],[-86.722295,39.659656],[-86.720178,39.65856],[-86.718085,39.658516],[-86.715232,39.659579],[-86.706206,39.65949],[-86.706232,39.65685],[-86.69429,39.65684],[-86.69429,39.640239],[-86.687354,39.640239],[-86.687406,39.630437],[-86.682242,39.6304],[-86.680757,39.626693],[-86.678958,39.625222],[-86.683541,39.623861],[-86.683359,39.601291],[-86.720097,39.601556],[-86.720093,39.594056],[-86.715681,39.594013],[-86.715472,39.59174],[-86.706221,39.59161],[-86.706156,39.584084],[-86.697843,39.586207],[-86.683262,39.591209],[-86.683254,39.588465],[-86.674299,39.588678],[-86.674084,39.59041],[-86.669669,39.590385],[-86.669637,39.58312],[-86.687511,39.583139],[-86.687517,39.579561],[-86.710785,39.579379],[-86.710792,39.572173],[-86.711056,39.564913],[-86.715537,39.564842],[-86.715628,39.557694],[-86.701604,39.557646],[-86.701462,39.572176],[-86.671883,39.572214],[-86.670127,39.572803],[-86.664249,39.573187],[-86.661552,39.573102],[-86.658525,39.572402],[-86.657002,39.571563],[-86.658737,39.573104],[-86.656837,39.573297],[-86.65553,39.574743],[-86.658555,39.576298],[-86.659594,39.579206],[-86.658346,39.57991],[-86.659018,39.580846],[-86.657032,39.583776],[-86.658006,39.585188],[-86.655432,39.585881],[-86.655907,39.587338],[-86.654152,39.587741],[-86.653982,39.590997],[-86.651942,39.595694],[-86.655347,39.596774],[-86.657035,39.599306],[-86.65665,39.601395],[-86.643877,39.601106],[-86.641004,39.605185],[-86.638033,39.610331],[-86.636724,39.615502],[-86.637246,39.620047],[-86.640766,39.627987],[-86.640385,39.628995],[-86.640364,39.638448],[-86.639963,39.63952],[-86.6376,39.640933],[-86.635157,39.641114],[-86.63223,39.642117],[-86.6317,39.643877],[-86.632205,39.6455],[-86.632246,39.649654],[-86.631245,39.65114],[-86.631664,39.652054],[-86.630441,39.654992],[-86.627525,39.656799],[-86.625747,39.658512],[-86.626139,39.661522],[-86.625509,39.663648],[-86.623914,39.665413],[-86.622763,39.665315],[-86.618175,39.668326],[-86.617216,39.672327],[-86.615744,39.673318],[-86.608868,39.673614],[-86.608773,39.66378],[-86.604826,39.663538],[-86.601688,39.664575],[-86.599576,39.666256],[-86.594317,39.666306],[-86.593747,39.667834],[-86.589571,39.670712],[-86.589375,39.672142],[-86.587293,39.675002],[-86.585376,39.676677],[-86.581118,39.678906],[-86.580514,39.680241],[-86.580653,39.6865],[-86.579653,39.687599],[-86.606292,39.687696],[-86.608954,39.688911],[-86.609424,39.690852],[-86.610498,39.69138],[-86.61147,39.695008],[-86.609384,39.695025],[-86.609427,39.699047],[-86.611503,39.700989],[-86.613324,39.70086],[-86.613579,39.704001],[-86.614498,39.705568],[-86.613176,39.707478],[-86.614454,39.708597],[-86.614594,39.711136],[-86.614087,39.712981],[-86.610239,39.713339],[-86.609235,39.714319],[-86.608624,39.716505],[-86.604411,39.716741],[-86.604299,39.729624],[-86.604429,39.73121],[-86.64558,39.719922],[-86.650805,39.718099],[-86.651097,39.717103],[-86.661013,39.717114],[-86.669796,39.717148],[-86.669794,39.73072],[-86.665882,39.730998],[-86.665119,39.734769],[-86.66332,39.735482],[-86.662054,39.738863],[-86.665097,39.738883],[-86.665137,39.743945],[-86.660469,39.744135],[-86.660478,39.749202],[-86.665188,39.749183],[-86.665129,39.760728],[-86.686822,39.760819],[-86.686814,39.776111],[-86.704559,39.776162],[-86.707777,39.774168],[-86.706937,39.771218],[-86.708274,39.770213],[-86.709206,39.767802],[-86.70722,39.76644],[-86.708159,39.763595],[-86.710618,39.760817],[-86.718741,39.760915],[-86.719831,39.762025],[-86.719887,39.753588],[-86.720463,39.751232],[-86.719924,39.749556],[-86.719908,39.744515],[-86.723229,39.743655],[-86.724252,39.741387],[-86.725988,39.740991],[-86.723204,39.737328],[-86.723581,39.736202],[-86.725394,39.735493],[-86.726735,39.732094]],[[-86.614506,39.686851],[-86.61556,39.689865],[-86.614494,39.689861],[-86.61348,39.691635],[-86.613466,39.687749],[-86.610839,39.68772],[-86.610871,39.68673],[-86.614506,39.686851]]]}},{"type":"Feature","properties":{"zcta5":"46149","AFFGEOID10":"8600000US46149","GEOID10":"46149","ALAND10":67965333,"AWATER10":34997,"county_name":"Hendricks","state_code":"IN","county_state":"Hendricks County, IN","county_fips":"18063","risk_level_county":"Lower Risk (80–84% vaccinated)","mean_vaccination_rate_county":84.92,"risk_level_zcta":"Medium Risk (70–79% vaccinated)","mean_vaccination_rate_zips":77.69,"cases":0},"geometry":{"type":"Polygon","coordinates":[[[-86.515566,39.922883],[-86.562619,39.922732],[-86.562859,39.905833],[-86.562931,39.906851],[-86.564562,39.908127],[-86.576669,39.908116],[-86.576666,39.905358],[-86.581519,39.90734],[-86.581584,39.92282],[-86.618787,39.922679],[-86.615896,39.921295],[-86.619282,39.918732],[-86.619044,39.915826],[-86.61664,39.914195],[-86.616206,39.910541],[-86.618478,39.909309],[-86.623984,39.909634],[-86.623943,39.904007],[-86.622898,39.903905],[-86.614507,39.900901],[-86.609965,39.900887],[-86.609889,39.896219],[-86.610901,39.8937],[-86.61215,39.891333],[-86.615105,39.888637],[-86.616958,39.886178],[-86.616824,39.884065],[-86.618678,39.880457],[-86.620005,39.879217],[-86.600323,39.879176],[-86.599901,39.871876],[-86.576547,39.871858],[-86.576634,39.864594],[-86.579853,39.864606],[-86.580097,39.861526],[-86.586076,39.860918],[-86.586059,39.852586],[-86.583677,39.851959],[-86.576725,39.851931],[-86.57673,39.834428],[-86.543033,39.834268],[-86.543041,39.843387],[-86.533573,39.841447],[-86.533815,39.859957],[-86.519865,39.859866],[-86.51938,39.860443],[-86.514983,39.86057],[-86.514964,39.864462],[-86.50556,39.864482],[-86.506028,39.922912],[-86.515566,39.922883]]]}},{"type":"Feature","properties":{"zcta5":"46231","AFFGEOID10":"8600000US46231","GEOID10":"46231","ALAND10":32078389,"AWATER10":46560,"county_name":"Hendricks","state_code":"IN","county_state":"Hendricks County, IN","county_fips":"18063","risk_level_county":"Lower Risk (80–84% vaccinated)","mean_vaccination_rate_county":84.92,"risk_level_zcta":"Higher Risk (60–69% vaccinated)","mean_vaccination_rate_zips":69.96,"cases":0},"geometry":{"type":"Polygon","coordinates":[[[-86.345416,39.728782],[-86.345396,39.7267],[-86.339003,39.726746],[-86.337107,39.727234],[-86.337145,39.728361],[-86.335119,39.728363],[-86.33298,39.729906],[-86.33058,39.729983],[-86.329048,39.728903],[-86.332172,39.727967],[-86.335902,39.727409],[-86.335902,39.72612],[-86.343324,39.72333],[-86.343344,39.722039],[-86.33708,39.723869],[-86.336925,39.719548],[-86.335932,39.682341],[-86.348842,39.676721],[-86.370663,39.668179],[-86.370648,39.66794],[-86.370273,39.658991],[-86.369083,39.660355],[-86.366397,39.660447],[-86.36616,39.661778],[-86.350735,39.662148],[-86.350433,39.660227],[-86.348892,39.660257],[-86.348177,39.656999],[-86.345369,39.655218],[-86.342372,39.654026],[-86.341164,39.653982],[-86.340237,39.655514],[-86.34156,39.656584],[-86.341659,39.658345],[-86.340649,39.659186],[-86.341046,39.660963],[-86.335851,39.661227],[-86.335864,39.668239],[-86.330044,39.668557],[-86.32981,39.670351],[-86.326584,39.671795],[-86.326573,39.682512],[-86.326585,39.686242],[-86.320231,39.689243],[-86.312108,39.691532],[-86.314381,39.690664],[-86.307726,39.690854],[-86.288302,39.691245],[-86.288276,39.698467],[-86.293046,39.698392],[-86.293046,39.699924],[-86.289272,39.702101],[-86.287675,39.703888],[-86.285071,39.705804],[-86.291831,39.705733],[-86.292994,39.705488],[-86.307328,39.705331],[-86.307397,39.712886],[-86.316212,39.712452],[-86.316596,39.71948],[-86.324185,39.719482],[-86.323138,39.722725],[-86.318405,39.728286],[-86.318811,39.730379],[-86.308574,39.7329],[-86.307635,39.730782],[-86.305791,39.729392],[-86.301265,39.732892],[-86.300363,39.732211],[-86.29813,39.733198],[-86.298223,39.737411],[-86.297135,39.738044],[-86.296417,39.736787],[-86.288835,39.738052],[-86.288886,39.740949],[-86.287668,39.741324],[-86.287706,39.744172],[-86.288928,39.744139],[-86.28903,39.763488],[-86.289047,39.76429],[-86.302917,39.764172],[-86.30368,39.761933],[-86.308796,39.760697],[-86.310698,39.764047],[-86.313343,39.761558],[-86.320434,39.763857],[-86.326786,39.763774],[-86.326726,39.758772],[-86.33669,39.758539],[-86.336232,39.756306],[-86.336077,39.745844],[-86.335935,39.734333],[-86.337929,39.73432],[-86.337974,39.732225],[-86.337156,39.728821],[-86.345416,39.728782]]]}},{"type":"Feature","properties":{"zcta5":"46113","AFFGEOID10":"8600000US46113","GEOID10":"46113","ALAND10":42474109,"AWATER10":277253,"county_name":"Hendricks","state_code":"IN","county_state":"Hendricks County, IN","county_fips":"18063","risk_level_county":"Lower Risk (80–84% vaccinated)","mean_vaccination_rate_county":84.92,"risk_level_zcta":"Medium Risk (70–79% vaccinated)","mean_vaccination_rate_zips":75.52,"cases":0},"geometry":{"type":"Polygon","coordinates":[[[-86.342372,39.654026],[-86.342982,39.651618],[-86.344713,39.650333],[-86.344517,39.648741],[-86.346281,39.646796],[-86.347463,39.644377],[-86.347093,39.642315],[-86.348057,39.64003],[-86.350207,39.63958],[-86.351742,39.637195],[-86.352712,39.63342],[-86.35552,39.631485],[-86.348114,39.631673],[-86.3479,39.631675],[-86.350821,39.629027],[-86.353761,39.624207],[-86.352221,39.624243],[-86.352174,39.622304],[-86.350579,39.622273],[-86.350472,39.621062],[-86.34732,39.621177],[-86.347277,39.624389],[-86.342542,39.624551],[-86.342545,39.623429],[-86.341087,39.623485],[-86.339175,39.622327],[-86.339167,39.621342],[-86.33618,39.621316],[-86.33618,39.620663],[-86.328989,39.620664],[-86.328989,39.61423],[-86.321464,39.614264],[-86.321464,39.610387],[-86.316715,39.610486],[-86.316773,39.61184],[-86.307779,39.611843],[-86.307786,39.610672],[-86.304744,39.61066],[-86.304798,39.605253],[-86.301129,39.605224],[-86.30111,39.604366],[-86.309909,39.596695],[-86.310545,39.594372],[-86.307322,39.594443],[-86.307229,39.589163],[-86.297835,39.589381],[-86.288487,39.589605],[-86.2885,39.590734],[-86.288466,39.595461],[-86.290078,39.595808],[-86.291597,39.597275],[-86.292937,39.601461],[-86.294499,39.6014],[-86.293814,39.600011],[-86.296863,39.600599],[-86.296167,39.602823],[-86.294214,39.603429],[-86.291189,39.602793],[-86.289505,39.599845],[-86.288751,39.597176],[-86.27988,39.597181],[-86.279876,39.598609],[-86.279875,39.599752],[-86.281963,39.599752],[-86.281963,39.601787],[-86.277063,39.601787],[-86.277058,39.599833],[-86.275936,39.598239],[-86.274595,39.599098],[-86.274351,39.599306],[-86.268471,39.606791],[-86.266554,39.611289],[-86.264783,39.615277],[-86.263097,39.617723],[-86.263009,39.618698],[-86.262914,39.620406],[-86.261553,39.622072],[-86.259584,39.622737],[-86.255381,39.622473],[-86.253982,39.621868],[-86.252225,39.625048],[-86.252069,39.627168],[-86.252906,39.627844],[-86.255279,39.62745],[-86.25229,39.630806],[-86.252024,39.633543],[-86.268525,39.633059],[-86.271461,39.633174],[-86.271434,39.640395],[-86.273851,39.640356],[-86.288257,39.640112],[-86.288296,39.647483],[-86.285475,39.64906],[-86.282862,39.651099],[-86.282862,39.652838],[-86.282862,39.654849],[-86.286715,39.660734],[-86.286715,39.662047],[-86.290403,39.662034],[-86.290499,39.663515],[-86.301042,39.669499],[-86.310445,39.661758],[-86.309732,39.662977],[-86.309729,39.667708],[-86.31175,39.667708],[-86.311749,39.672389],[-86.320653,39.671883],[-86.321682,39.668947],[-86.326479,39.668648],[-86.326584,39.671795],[-86.32981,39.670351],[-86.330044,39.668557],[-86.335864,39.668239],[-86.335851,39.661227],[-86.341046,39.660963],[-86.340649,39.659186],[-86.341659,39.658345],[-86.34156,39.656584],[-86.340237,39.655514],[-86.341164,39.653982],[-86.342372,39.654026]]]}},{"type":"Feature","properties":{"zcta5":"46165","AFFGEOID10":"8600000US46165","GEOID10":"46165","ALAND10":103832311,"AWATER10":234322,"county_name":"Hendricks","state_code":"IN","county_state":"Hendricks County, IN","county_fips":"18063","risk_level_county":"Lower Risk (80–84% vaccinated)","mean_vaccination_rate_county":84.92,"risk_level_zcta":"Lowest Risk (85%+)","mean_vaccination_rate_zips":85.75,"cases":0},"geometry":{"type":"Polygon","coordinates":[[[-86.695193,39.915707],[-86.695287,39.908498],[-86.695178,39.893911],[-86.695127,39.864845],[-86.686843,39.864842],[-86.686836,39.853333],[-86.686645,39.827916],[-86.686809,39.825737],[-86.686795,39.790647],[-86.686814,39.776111],[-86.651335,39.775923],[-86.651722,39.777706],[-86.651777,39.790467],[-86.601215,39.790343],[-86.601221,39.791745],[-86.604615,39.792058],[-86.60748,39.794175],[-86.608993,39.793785],[-86.612024,39.795987],[-86.6125,39.798627],[-86.613692,39.79986],[-86.616096,39.80038],[-86.616367,39.801277],[-86.618921,39.801685],[-86.619017,39.819432],[-86.587984,39.819449],[-86.592236,39.822427],[-86.595327,39.825419],[-86.595344,39.833838],[-86.57673,39.834428],[-86.576725,39.851931],[-86.583677,39.851959],[-86.586059,39.852586],[-86.586076,39.860918],[-86.580097,39.861526],[-86.579853,39.864606],[-86.576634,39.864594],[-86.576547,39.871858],[-86.599901,39.871876],[-86.600323,39.879176],[-86.620005,39.879217],[-86.618678,39.880457],[-86.616824,39.884065],[-86.616958,39.886178],[-86.615105,39.888637],[-86.61215,39.891333],[-86.610901,39.8937],[-86.634501,39.893762],[-86.634478,39.897245],[-86.635153,39.905073],[-86.633747,39.909374],[-86.633731,39.911829],[-86.657234,39.912204],[-86.657263,39.908598],[-86.685731,39.908281],[-86.685753,39.915526],[-86.695193,39.915707]]]}},{"type":"Feature","properties":{"zcta5":"46052","AFFGEOID10":"8600000US46052","GEOID10":"46052","ALAND10":460881998,"AWATER10":40328,"county_name":"Hendricks","state_code":"IN","county_state":"Hendricks County, IN","county_fips":"18063","risk_level_county":"Lower Risk (80–84% vaccinated)","mean_vaccination_rate_county":84.92,"risk_level_zcta":"Lower Risk (80–84% vaccinated)","mean_vaccination_rate_zips":80.5,"cases":0},"geometry":{"type":"Polygon","coordinates":[[[-86.648098,40.0545],[-86.64817,40.03998],[-86.62921,40.03988],[-86.629226,40.038683],[-86.627061,40.03942],[-86.625154,40.039216],[-86.623438,40.037476],[-86.619589,40.03662],[-86.61959,40.03197],[-86.60065,40.03185],[-86.6007,40.01011],[-86.59126,40.01016],[-86.59133,39.99569],[-86.58813,39.99574],[-86.585689,39.997068],[-86.584976,39.998128],[-86.582269,39.998272],[-86.579662,39.99568],[-86.56356,39.99562],[-86.56368,39.96745],[-86.5523,39.96768],[-86.55229,39.96996],[-86.54931,39.9703],[-86.54356,39.97567],[-86.54218,39.9774],[-86.538479,39.977385],[-86.541472,39.972726],[-86.544729,39.97024],[-86.544744,39.959289],[-86.54224,39.95928],[-86.54222,39.95523],[-86.54442,39.95366],[-86.54886,39.95206],[-86.548402,39.947913],[-86.547168,39.945661],[-86.545092,39.944073],[-86.543901,39.944175],[-86.543829,39.93713],[-86.52971,39.93696],[-86.52862,39.93612],[-86.52505,39.94094],[-86.52502,39.9371],[-86.52031,39.93685],[-86.52029,39.9297],[-86.51558,39.92976],[-86.515566,39.922883],[-86.506028,39.922912],[-86.46867,39.92278],[-86.46834,39.92305],[-86.429053,39.923658],[-86.384694,39.92382],[-86.383456,39.925708],[-86.38351,39.93106],[-86.35534,39.93142],[-86.35574,39.94251],[-86.35774,39.94279],[-86.35726,39.94459],[-86.358419,39.946025],[-86.36483,39.94586],[-86.3648,39.9516],[-86.37538,39.96058],[-86.37941,39.96045],[-86.37931,39.9639],[-86.38924,39.97262],[-86.39303,39.97031],[-86.3985,39.97042],[-86.39853,39.968503],[-86.400298,39.968499],[-86.400302,39.967432],[-86.41279,39.96733],[-86.4117,39.969644],[-86.411679,39.971706],[-86.412793,39.971706],[-86.412809,39.97489],[-86.398542,39.975265],[-86.398546,39.97331],[-86.39664,39.97333],[-86.396364,39.976531],[-86.395066,39.976961],[-86.395337,39.978053],[-86.39854,39.977891],[-86.39759,39.97952],[-86.39385,39.98269],[-86.39395,40.01126],[-86.38724,40.01211],[-86.3853,40.01136],[-86.37503,40.01164],[-86.37505,40.01438],[-86.37319,40.01511],[-86.37352,40.01381],[-86.37061,40.01228],[-86.37021,40.0115],[-86.356,40.01138],[-86.35631,40.02592],[-86.358285,40.025893],[-86.35409,40.028734],[-86.350519,40.029796],[-86.346103,40.03263],[-86.34618,40.03998],[-86.33626,40.04014],[-86.336844,40.050411],[-86.339996,40.049823],[-86.342233,40.050772],[-86.343376,40.050393],[-86.345875,40.051545],[-86.34603,40.06176],[-86.34044,40.0622],[-86.34076,40.07607],[-86.34153,40.07667],[-86.341124,40.081693],[-86.338536,40.081908],[-86.335054,40.08376],[-86.329034,40.083848],[-86.327389,40.084931],[-86.3275,40.09844],[-86.3138,40.098757],[-86.32826,40.128],[-86.32954,40.129536],[-86.333389,40.130304],[-86.333898,40.132786],[-86.335801,40.132934],[-86.336811,40.135076],[-86.33991,40.136047],[-86.341556,40.137859],[-86.343847,40.138957],[-86.343583,40.140462],[-86.345859,40.141604],[-86.348163,40.141455],[-86.349451,40.140642],[-86.351826,40.140487],[-86.353444,40.141579],[-86.35637,40.140342],[-86.356419,40.143131],[-86.33889,40.14959],[-86.3459,40.16411],[-86.35594,40.16403],[-86.35746,40.16353],[-86.36601,40.16327],[-86.36602,40.14875],[-86.37181,40.1486],[-86.372334,40.146505],[-86.373658,40.146299],[-86.374653,40.147271],[-86.374497,40.148533],[-86.375443,40.149767],[-86.380036,40.150617],[-86.380717,40.150239],[-86.383149,40.150932],[-86.383907,40.1518],[-86.386651,40.149022],[-86.388683,40.149215],[-86.39093,40.150172],[-86.392726,40.150156],[-86.394206,40.152123],[-86.394842,40.154834],[-86.39663,40.155643],[-86.397756,40.155226],[-86.398618,40.156873],[-86.399615,40.15728],[-86.399111,40.159474],[-86.401623,40.160464],[-86.402858,40.162028],[-86.40202,40.16274],[-86.46421,40.16253],[-86.46489,40.15984],[-86.4722,40.15936],[-86.47301,40.15898],[-86.47939,40.159],[-86.48085,40.15975],[-86.4817,40.15911],[-86.48536,40.15916],[-86.485629,40.161635],[-86.488198,40.161203],[-86.490009,40.160055],[-86.49355,40.15981],[-86.496745,40.161292],[-86.498258,40.160368],[-86.497487,40.158067],[-86.499943,40.156021],[-86.504215,40.158161],[-86.507492,40.160469],[-86.506426,40.161628],[-86.509197,40.16152],[-86.510825,40.160144],[-86.512922,40.159454],[-86.516286,40.159562],[-86.5199,40.160557],[-86.520931,40.162047],[-86.52422,40.162974],[-86.525088,40.160098],[-86.524285,40.158678],[-86.522034,40.157177],[-86.520918,40.155617],[-86.520447,40.153557],[-86.517685,40.152051],[-86.516634,40.150079],[-86.514953,40.149557],[-86.514618,40.146926],[-86.513438,40.146019],[-86.513825,40.144921],[-86.512251,40.144294],[-86.511845,40.142509],[-86.51327,40.140922],[-86.51048,40.14091],[-86.51068,40.12647],[-86.531863,40.126595],[-86.531217,40.1235],[-86.528814,40.121759],[-86.522118,40.122256],[-86.52028,40.121168],[-86.520272,40.104734],[-86.53456,40.1047],[-86.534505,40.107265],[-86.537676,40.108574],[-86.540339,40.107148],[-86.5315,40.0989],[-86.53082,40.09754],[-86.534701,40.09728],[-86.56283,40.09761],[-86.563026,40.080498],[-86.567631,40.08316],[-86.57996,40.08337],[-86.58173,40.08358],[-86.581719,40.080748],[-86.580299,40.079825],[-86.576195,40.080951],[-86.576202,40.078512],[-86.572884,40.07854],[-86.571426,40.077667],[-86.57149,40.076854],[-86.573463,40.076261],[-86.571854,40.073482],[-86.572061,40.070456],[-86.570724,40.070093],[-86.570963,40.06846],[-86.58181,40.06866],[-86.581928,40.054161],[-86.58983,40.05432],[-86.648098,40.0545]]]}},{"type":"Feature","properties":{"zcta5":"46123","AFFGEOID10":"8600000US46123","GEOID10":"46123","ALAND10":79394897,"AWATER10":784836,"county_name":"Hendricks","state_code":"IN","county_state":"Hendricks County, IN","county_fips":"18063","risk_level_county":"Lower Risk (80–84% vaccinated)","mean_vaccination_rate_county":84.92,"risk_level_zcta":"Medium Risk (70–79% vaccinated)","mean_vaccination_rate_zips":78.66,"cases":0},"geometry":{"type":"Polygon","coordinates":[[[-86.414215,39.799136],[-86.457011,39.798368],[-86.456977,39.776312],[-86.457279,39.76196],[-86.457258,39.756826],[-86.457087,39.732585],[-86.452363,39.73267],[-86.452288,39.725482],[-86.447837,39.725391],[-86.447589,39.721876],[-86.442688,39.721686],[-86.435717,39.719192],[-86.435049,39.71827],[-86.418778,39.718633],[-86.417741,39.718502],[-86.417512,39.719792],[-86.415836,39.720563],[-86.416126,39.723554],[-86.41543,39.721146],[-86.415684,39.720508],[-86.417555,39.7185],[-86.408322,39.718602],[-86.409144,39.719373],[-86.409164,39.724167],[-86.410296,39.725818],[-86.412438,39.731843],[-86.411255,39.731417],[-86.404165,39.731471],[-86.403777,39.73057],[-86.399557,39.730554],[-86.399553,39.731739],[-86.393751,39.731834],[-86.393758,39.732613],[-86.390669,39.732614],[-86.390457,39.733709],[-86.345447,39.734259],[-86.345416,39.728782],[-86.337156,39.728821],[-86.337974,39.732225],[-86.337929,39.73432],[-86.335935,39.734333],[-86.336077,39.745844],[-86.336232,39.756306],[-86.33669,39.758539],[-86.326726,39.758772],[-86.326786,39.763774],[-86.326803,39.765113],[-86.328211,39.764774],[-86.334112,39.764749],[-86.336148,39.764201],[-86.336367,39.769138],[-86.338278,39.771752],[-86.342477,39.774609],[-86.343506,39.77673],[-86.343819,39.782959],[-86.345896,39.788917],[-86.347058,39.793018],[-86.345595,39.793033],[-86.345717,39.800416],[-86.352773,39.800174],[-86.362602,39.800125],[-86.374426,39.799917],[-86.381582,39.799835],[-86.400533,39.79942],[-86.414215,39.799136]]]}},{"type":"Feature","properties":{"zcta5":"46180","AFFGEOID10":"8600000US46180","GEOID10":"46180","ALAND10":66375471,"AWATER10":96205,"county_name":"Hendricks","state_code":"IN","county_state":"Hendricks County, IN","county_fips":"18063","risk_level_county":"Lower Risk (80–84% vaccinated)","mean_vaccination_rate_county":84.92,"risk_level_zcta":"Medium Risk (70–79% vaccinated)","mean_vaccination_rate_zips":74.61,"cases":0},"geometry":{"type":"Polygon","coordinates":[[[-86.665156,39.538086],[-86.664866,39.535821],[-86.659461,39.535812],[-86.655046,39.538249],[-86.648953,39.540555],[-86.645814,39.544143],[-86.644091,39.543138],[-86.603712,39.542991],[-86.603769,39.549533],[-86.589615,39.549639],[-86.589584,39.572076],[-86.594322,39.572144],[-86.59431,39.579279],[-86.589586,39.579296],[-86.589627,39.591921],[-86.587106,39.593781],[-86.58113,39.600927],[-86.575641,39.60091],[-86.575707,39.605461],[-86.574032,39.606671],[-86.58511,39.610364],[-86.585065,39.629938],[-86.580875,39.629932],[-86.580894,39.647578],[-86.584622,39.650633],[-86.604045,39.646231],[-86.604074,39.663443],[-86.604826,39.663538],[-86.608773,39.66378],[-86.608868,39.673614],[-86.615744,39.673318],[-86.617216,39.672327],[-86.618175,39.668326],[-86.622763,39.665315],[-86.623914,39.665413],[-86.625509,39.663648],[-86.626139,39.661522],[-86.625747,39.658512],[-86.627525,39.656799],[-86.630441,39.654992],[-86.631664,39.652054],[-86.631245,39.65114],[-86.632246,39.649654],[-86.632205,39.6455],[-86.6317,39.643877],[-86.63223,39.642117],[-86.635157,39.641114],[-86.6376,39.640933],[-86.639963,39.63952],[-86.640364,39.638448],[-86.640385,39.628995],[-86.640766,39.627987],[-86.637246,39.620047],[-86.636724,39.615502],[-86.638033,39.610331],[-86.641004,39.605185],[-86.643877,39.601106],[-86.65665,39.601395],[-86.657035,39.599306],[-86.655347,39.596774],[-86.651942,39.595694],[-86.653982,39.590997],[-86.654152,39.587741],[-86.655907,39.587338],[-86.655432,39.585881],[-86.658006,39.585188],[-86.657032,39.583776],[-86.659018,39.580846],[-86.658346,39.57991],[-86.659594,39.579206],[-86.658555,39.576298],[-86.65553,39.574743],[-86.656837,39.573297],[-86.658737,39.573104],[-86.657002,39.571563],[-86.656655,39.570709],[-86.65455,39.570128],[-86.655539,39.568723],[-86.654937,39.566377],[-86.653513,39.564601],[-86.65142,39.566104],[-86.649027,39.566172],[-86.64832,39.565441],[-86.651217,39.563709],[-86.650069,39.56209],[-86.650806,39.56048],[-86.653302,39.559439],[-86.651285,39.55203],[-86.651407,39.549992],[-86.652421,39.549919],[-86.653942,39.551966],[-86.654971,39.551516],[-86.656415,39.549091],[-86.657847,39.548962],[-86.65816,39.547423],[-86.66095,39.546981],[-86.66147,39.545974],[-86.659843,39.545079],[-86.661783,39.544322],[-86.663247,39.542364],[-86.662283,39.540437],[-86.665156,39.538086]]]}},{"type":"Feature","properties":{"zcta5":"46234","AFFGEOID10":"8600000US46234","GEOID10":"46234","ALAND10":32981528,"AWATER10":3343297,"county_name":"Hendricks","state_code":"IN","county_state":"Hendricks County, IN","county_fips":"18063","risk_level_county":"Lower Risk (80–84% vaccinated)","mean_vaccination_rate_county":84.92,"risk_level_zcta":"Medium Risk (70–79% vaccinated)","mean_vaccination_rate_zips":74.6,"cases":0},"geometry":{"type":"Polygon","coordinates":[[[-86.328012,39.859269],[-86.351223,39.85893],[-86.351851,39.858937],[-86.351733,39.8546],[-86.351383,39.853568],[-86.351612,39.850566],[-86.345192,39.844169],[-86.346686,39.844151],[-86.346347,39.829302],[-86.341478,39.829737],[-86.332839,39.829946],[-86.332779,39.826971],[-86.341547,39.826844],[-86.341545,39.823234],[-86.346277,39.825461],[-86.346199,39.822367],[-86.345878,39.807703],[-86.350089,39.807634],[-86.34961,39.803591],[-86.362729,39.80628],[-86.362641,39.802239],[-86.362602,39.800125],[-86.352773,39.800174],[-86.345717,39.800416],[-86.345595,39.793033],[-86.347058,39.793018],[-86.345896,39.788917],[-86.343819,39.782959],[-86.343506,39.77673],[-86.342477,39.774609],[-86.338278,39.771752],[-86.336367,39.769138],[-86.336148,39.764201],[-86.334112,39.764749],[-86.328211,39.764774],[-86.326803,39.765113],[-86.326786,39.763774],[-86.320434,39.763857],[-86.313343,39.761558],[-86.310698,39.764047],[-86.307954,39.764103],[-86.307989,39.767162],[-86.305676,39.769067],[-86.305727,39.771117],[-86.308037,39.771257],[-86.308065,39.773577],[-86.305102,39.773542],[-86.305889,39.775984],[-86.308102,39.776839],[-86.307471,39.781066],[-86.305868,39.781331],[-86.305902,39.782629],[-86.303105,39.782668],[-86.303144,39.786385],[-86.304591,39.787076],[-86.304629,39.789248],[-86.307614,39.789216],[-86.307815,39.798426],[-86.308104,39.799159],[-86.303278,39.804296],[-86.301028,39.805398],[-86.2974,39.80515],[-86.294491,39.803171],[-86.29315,39.803137],[-86.290271,39.804523],[-86.308052,39.808987],[-86.308611,39.810844],[-86.308004,39.815087],[-86.305348,39.814552],[-86.307222,39.815532],[-86.307873,39.818793],[-86.305538,39.820365],[-86.307943,39.822642],[-86.298138,39.822519],[-86.300696,39.823387],[-86.299911,39.825267],[-86.301648,39.828906],[-86.299269,39.831324],[-86.29915,39.832927],[-86.297913,39.833831],[-86.298817,39.83395],[-86.298387,39.837138],[-86.298647,39.839591],[-86.300693,39.839513],[-86.301842,39.841994],[-86.300955,39.842218],[-86.301899,39.844494],[-86.299486,39.84834],[-86.300532,39.848342],[-86.300939,39.852611],[-86.308322,39.852466],[-86.313754,39.851985],[-86.327865,39.851956],[-86.328012,39.859269]]]}},{"type":"Feature","properties":{"zcta5":"46147","AFFGEOID10":"8600000US46147","GEOID10":"46147","ALAND10":152675838,"AWATER10":78742,"county_name":"Hendricks","state_code":"IN","county_state":"Hendricks County, IN","county_fips":"18063","risk_level_county":"Lower Risk (80–84% vaccinated)","mean_vaccination_rate_county":84.92,"risk_level_zcta":"Higher Risk (60–69% vaccinated)","mean_vaccination_rate_zips":69.08,"cases":0},"geometry":{"type":"Polygon","coordinates":[[[-86.695832,40.047203],[-86.695781,40.010581],[-86.69063,40.01033],[-86.67651,40.01023],[-86.676605,39.981227],[-86.682174,39.981311],[-86.69537,39.98615],[-86.695274,39.981264],[-86.69521,39.973967],[-86.66714,39.97372],[-86.66717,39.95945],[-86.66688,39.95645],[-86.66502,39.95474],[-86.664839,39.952218],[-86.695202,39.952354],[-86.695071,39.92277],[-86.695193,39.915707],[-86.685753,39.915526],[-86.685731,39.908281],[-86.657263,39.908598],[-86.657234,39.912204],[-86.633731,39.911829],[-86.633747,39.909374],[-86.635153,39.905073],[-86.634478,39.897245],[-86.634501,39.893762],[-86.610901,39.8937],[-86.609889,39.896219],[-86.609965,39.900887],[-86.614507,39.900901],[-86.622898,39.903905],[-86.623943,39.904007],[-86.623984,39.909634],[-86.618478,39.909309],[-86.616206,39.910541],[-86.61664,39.914195],[-86.619044,39.915826],[-86.619282,39.918732],[-86.615896,39.921295],[-86.618787,39.922679],[-86.581584,39.92282],[-86.581519,39.90734],[-86.576666,39.905358],[-86.576669,39.908116],[-86.564562,39.908127],[-86.562931,39.906851],[-86.562859,39.905833],[-86.562619,39.922732],[-86.515566,39.922883],[-86.51558,39.92976],[-86.52029,39.9297],[-86.52031,39.93685],[-86.52502,39.9371],[-86.52505,39.94094],[-86.52862,39.93612],[-86.52971,39.93696],[-86.543829,39.93713],[-86.543901,39.944175],[-86.545092,39.944073],[-86.547168,39.945661],[-86.548402,39.947913],[-86.54886,39.95206],[-86.54442,39.95366],[-86.54222,39.95523],[-86.54224,39.95928],[-86.544744,39.959289],[-86.544729,39.97024],[-86.541472,39.972726],[-86.538479,39.977385],[-86.54218,39.9774],[-86.54356,39.97567],[-86.54931,39.9703],[-86.55229,39.96996],[-86.5523,39.96768],[-86.56368,39.96745],[-86.56356,39.99562],[-86.579662,39.99568],[-86.582269,39.998272],[-86.584976,39.998128],[-86.585689,39.997068],[-86.58813,39.99574],[-86.59133,39.99569],[-86.59126,40.01016],[-86.6007,40.01011],[-86.60065,40.03185],[-86.61959,40.03197],[-86.619589,40.03662],[-86.623438,40.037476],[-86.625154,40.039216],[-86.627061,40.03942],[-86.629226,40.038683],[-86.62921,40.03988],[-86.64817,40.03998],[-86.648098,40.0545],[-86.671774,40.05466],[-86.67236,40.05331],[-86.672591,40.05466],[-86.685907,40.054687],[-86.695832,40.047203]]]}},{"type":"Feature","properties":{"zcta5":"46278","AFFGEOID10":"8600000US46278","GEOID10":"46278","ALAND10":33863353,"AWATER10":892759,"county_name":"Hendricks","state_code":"IN","county_state":"Hendricks County, IN","county_fips":"18063","risk_level_county":"Lower Risk (80–84% vaccinated)","mean_vaccination_rate_county":84.92,"risk_level_zcta":"Medium Risk (70–79% vaccinated)","mean_vaccination_rate_zips":79.82,"cases":0},"geometry":{"type":"Polygon","coordinates":[[[-86.330763,39.924168],[-86.330761,39.923783],[-86.33074,39.921798],[-86.328509,39.918792],[-86.326342,39.919153],[-86.326212,39.915319],[-86.326204,39.90962],[-86.325981,39.891222],[-86.325889,39.882329],[-86.326051,39.882051],[-86.330414,39.881993],[-86.330996,39.884056],[-86.336578,39.884221],[-86.339996,39.884195],[-86.340534,39.88508],[-86.345212,39.885194],[-86.349381,39.885949],[-86.355469,39.885878],[-86.356692,39.88454],[-86.360081,39.879193],[-86.361874,39.877289],[-86.361458,39.873046],[-86.325987,39.873492],[-86.2993,39.873551],[-86.29832,39.876255],[-86.300909,39.876644],[-86.303317,39.877695],[-86.298607,39.877131],[-86.295045,39.877172],[-86.294487,39.879264],[-86.29302,39.879692],[-86.290019,39.87788],[-86.284908,39.87342],[-86.281051,39.868216],[-86.279707,39.866969],[-86.276448,39.865363],[-86.274628,39.863698],[-86.270479,39.867105],[-86.259892,39.867159],[-86.259849,39.892261],[-86.265538,39.889193],[-86.264728,39.892449],[-86.264599,39.902184],[-86.262752,39.902217],[-86.261955,39.903149],[-86.25987,39.903446],[-86.260261,39.921536],[-86.262072,39.923546],[-86.264901,39.925073],[-86.268246,39.924916],[-86.283757,39.924646],[-86.288914,39.924635],[-86.288276,39.924189],[-86.28827,39.915957],[-86.298763,39.915957],[-86.298763,39.91784],[-86.300677,39.91784],[-86.300677,39.915957],[-86.305842,39.915957],[-86.305842,39.914407],[-86.307176,39.914401],[-86.307246,39.924394],[-86.31803,39.92422],[-86.326293,39.924029],[-86.330763,39.924168]]]}},{"type":"Feature","properties":{"zcta5":"46112","AFFGEOID10":"8600000US46112","GEOID10":"46112","ALAND10":103704134,"AWATER10":720950,"county_name":"Hendricks","state_code":"IN","county_state":"Hendricks County, IN","county_fips":"18063","risk_level_county":"Lower Risk (80–84% vaccinated)","mean_vaccination_rate_county":84.92,"risk_level_zcta":"Lower Risk (80–84% vaccinated)","mean_vaccination_rate_zips":80.66,"cases":0},"geometry":{"type":"Polygon","coordinates":[[[-86.429053,39.923658],[-86.428482,39.922153],[-86.427461,39.921723],[-86.4241,39.921815],[-86.420335,39.918925],[-86.419389,39.917183],[-86.419671,39.915668],[-86.416749,39.915091],[-86.415285,39.911293],[-86.411851,39.912567],[-86.411786,39.909142],[-86.409129,39.909152],[-86.409164,39.902908],[-86.407801,39.902398],[-86.407916,39.899277],[-86.406941,39.896019],[-86.411603,39.896013],[-86.411589,39.894547],[-86.430446,39.894242],[-86.430129,39.879668],[-86.43807,39.87961],[-86.439729,39.880044],[-86.439726,39.878979],[-86.437148,39.878313],[-86.434563,39.877434],[-86.432843,39.876727],[-86.43005,39.875312],[-86.430074,39.873754],[-86.428801,39.873457],[-86.42838,39.871047],[-86.426177,39.867934],[-86.429007,39.86626],[-86.429447,39.866362],[-86.43009,39.866453],[-86.430174,39.867407],[-86.430208,39.871202],[-86.431017,39.871825],[-86.439615,39.871787],[-86.439517,39.856066],[-86.430779,39.854933],[-86.427025,39.854002],[-86.427035,39.849893],[-86.43023,39.849143],[-86.430037,39.848479],[-86.427034,39.848526],[-86.427112,39.846928],[-86.429966,39.846938],[-86.429319,39.845036],[-86.427708,39.84493],[-86.427148,39.843921],[-86.428933,39.841757],[-86.433476,39.841685],[-86.433479,39.842727],[-86.439297,39.842628],[-86.439172,39.837167],[-86.434519,39.837213],[-86.434434,39.835382],[-86.427483,39.835574],[-86.427526,39.83895],[-86.425133,39.839213],[-86.425206,39.842872],[-86.423414,39.842904],[-86.423326,39.84009],[-86.421848,39.837926],[-86.420407,39.837401],[-86.420383,39.835631],[-86.425019,39.835558],[-86.424985,39.832743],[-86.426212,39.831862],[-86.434364,39.831656],[-86.434282,39.828079],[-86.438962,39.828004],[-86.438838,39.821973],[-86.424679,39.819116],[-86.424407,39.810148],[-86.422424,39.810656],[-86.419339,39.809927],[-86.419382,39.808104],[-86.421151,39.807269],[-86.419583,39.803012],[-86.417265,39.801858],[-86.416061,39.800235],[-86.414215,39.799136],[-86.400533,39.79942],[-86.381582,39.799835],[-86.374426,39.799917],[-86.362602,39.800125],[-86.362641,39.802239],[-86.362729,39.80628],[-86.34961,39.803591],[-86.350089,39.807634],[-86.345878,39.807703],[-86.346199,39.822367],[-86.346277,39.825461],[-86.341545,39.823234],[-86.341547,39.826844],[-86.332779,39.826971],[-86.332839,39.829946],[-86.341478,39.829737],[-86.346347,39.829302],[-86.346686,39.844151],[-86.345192,39.844169],[-86.351612,39.850566],[-86.351383,39.853568],[-86.351733,39.8546],[-86.351851,39.858937],[-86.351223,39.85893],[-86.328012,39.859269],[-86.328121,39.866125],[-86.325373,39.866176],[-86.325927,39.87236],[-86.325987,39.873492],[-86.361458,39.873046],[-86.361874,39.877289],[-86.360081,39.879193],[-86.356692,39.88454],[-86.355469,39.885878],[-86.349381,39.885949],[-86.345212,39.885194],[-86.340534,39.88508],[-86.339996,39.884195],[-86.336578,39.884221],[-86.330996,39.884056],[-86.330414,39.881993],[-86.326051,39.882051],[-86.325889,39.882329],[-86.325981,39.891222],[-86.326204,39.90962],[-86.326212,39.915319],[-86.326342,39.919153],[-86.328509,39.918792],[-86.33074,39.921798],[-86.330761,39.923783],[-86.330763,39.924168],[-86.333261,39.924139],[-86.334089,39.924169],[-86.3402,39.92411],[-86.340545,39.92412],[-86.34432,39.92413],[-86.351833,39.924069],[-86.351906,39.927793],[-86.355214,39.927785],[-86.355247,39.931414],[-86.35534,39.93142],[-86.38351,39.93106],[-86.383456,39.925708],[-86.384694,39.92382],[-86.429053,39.923658]]]}},{"type":"Feature","properties":{"zcta5":"46168","AFFGEOID10":"8600000US46168","GEOID10":"46168","ALAND10":83554188,"AWATER10":589129,"county_name":"Hendricks","state_code":"IN","county_state":"Hendricks County, IN","county_fips":"18063","risk_level_county":"Lower Risk (80–84% vaccinated)","mean_vaccination_rate_county":84.92,"risk_level_zcta":"Medium Risk (70–79% vaccinated)","mean_vaccination_rate_zips":77.01,"cases":0},"geometry":{"type":"Polygon","coordinates":[[[-86.473086,39.708857],[-86.469417,39.705216],[-86.466786,39.701028],[-86.465757,39.696363],[-86.463111,39.697083],[-86.462897,39.695688],[-86.455025,39.686346],[-86.446165,39.68819],[-86.444844,39.683319],[-86.442834,39.682669],[-86.441244,39.678386],[-86.438723,39.674231],[-86.437535,39.674085],[-86.437289,39.663726],[-86.435834,39.664091],[-86.434953,39.661658],[-86.432841,39.661383],[-86.429109,39.659214],[-86.427384,39.659517],[-86.426305,39.658381],[-86.424307,39.660061],[-86.42339,39.6587],[-86.421438,39.657683],[-86.42088,39.652381],[-86.404096,39.652552],[-86.403761,39.646943],[-86.399068,39.646937],[-86.39426,39.646596],[-86.394213,39.64528],[-86.387505,39.645238],[-86.387729,39.644418],[-86.386404,39.643278],[-86.385572,39.643426],[-86.384831,39.642222],[-86.381317,39.641662],[-86.380463,39.635141],[-86.38153,39.634828],[-86.383219,39.635393],[-86.386669,39.635485],[-86.386517,39.634027],[-86.385563,39.630681],[-86.375116,39.630797],[-86.36226,39.63109],[-86.359657,39.631476],[-86.35552,39.631485],[-86.352712,39.63342],[-86.351742,39.637195],[-86.350207,39.63958],[-86.348057,39.64003],[-86.347093,39.642315],[-86.347463,39.644377],[-86.346281,39.646796],[-86.344517,39.648741],[-86.344713,39.650333],[-86.342982,39.651618],[-86.342372,39.654026],[-86.345369,39.655218],[-86.348177,39.656999],[-86.348892,39.660257],[-86.350433,39.660227],[-86.350735,39.662148],[-86.36616,39.661778],[-86.366397,39.660447],[-86.369083,39.660355],[-86.370273,39.658991],[-86.370648,39.66794],[-86.370663,39.668179],[-86.348842,39.676721],[-86.335932,39.682341],[-86.336925,39.719548],[-86.33708,39.723869],[-86.343344,39.722039],[-86.343324,39.72333],[-86.335902,39.72612],[-86.335902,39.727409],[-86.332172,39.727967],[-86.329048,39.728903],[-86.33058,39.729983],[-86.33298,39.729906],[-86.335119,39.728363],[-86.337145,39.728361],[-86.337107,39.727234],[-86.339003,39.726746],[-86.345396,39.7267],[-86.345416,39.728782],[-86.345447,39.734259],[-86.390457,39.733709],[-86.390669,39.732614],[-86.393758,39.732613],[-86.393751,39.731834],[-86.399553,39.731739],[-86.399557,39.730554],[-86.403777,39.73057],[-86.404165,39.731471],[-86.411255,39.731417],[-86.412438,39.731843],[-86.410296,39.725818],[-86.409164,39.724167],[-86.409144,39.719373],[-86.408322,39.718602],[-86.417555,39.7185],[-86.415684,39.720508],[-86.41543,39.721146],[-86.416126,39.723554],[-86.415836,39.720563],[-86.417512,39.719792],[-86.417741,39.718502],[-86.418778,39.718633],[-86.435049,39.71827],[-86.435717,39.719192],[-86.442688,39.721686],[-86.442698,39.718359],[-86.463519,39.717779],[-86.463518,39.714887],[-86.46259,39.712532],[-86.458556,39.710527],[-86.466536,39.710493],[-86.466889,39.709353],[-86.473086,39.708857]]]}},{"type":"Feature","properties":{"zcta5":"46103","AFFGEOID10":"8600000US46103","GEOID10":"46103","ALAND10":97950,"AWATER10":0,"county_name":"Hendricks","state_code":"IN","county_state":"Hendricks County, IN","county_fips":"18063","risk_level_county":"Lower Risk (80–84% vaccinated)","mean_vaccination_rate_county":84.92,"risk_level_zcta":"Lower Risk (80–84% vaccinated)","mean_vaccination_rate_zips":82.35,"cases":0},"geometry":{"type":"Polygon","coordinates":[[[-86.614506,39.686851],[-86.610871,39.68673],[-86.610839,39.68772],[-86.613466,39.687749],[-86.61348,39.691635],[-86.614494,39.689861],[-86.61556,39.689865],[-86.614506,39.686851]]]}},{"type":"Feature","properties":{"zcta5":"46118","AFFGEOID10":"8600000US46118","GEOID10":"46118","ALAND10":141281884,"AWATER10":419175,"county_name":"Hendricks","state_code":"IN","county_state":"Hendricks County, IN","county_fips":"18063","risk_level_county":"Lower Risk (80–84% vaccinated)","mean_vaccination_rate_county":84.92,"risk_level_zcta":"Medium Risk (70–79% vaccinated)","mean_vaccination_rate_zips":72.97,"cases":0},"geometry":{"type":"Polygon","coordinates":[[[-86.604826,39.663538],[-86.604074,39.663443],[-86.604045,39.646231],[-86.584622,39.650633],[-86.580894,39.647578],[-86.580875,39.629932],[-86.585065,39.629938],[-86.58511,39.610364],[-86.574032,39.606671],[-86.575707,39.605461],[-86.575641,39.60091],[-86.559847,39.600862],[-86.559299,39.596829],[-86.559311,39.590538],[-86.559921,39.589264],[-86.540832,39.593313],[-86.539265,39.58959],[-86.540695,39.58944],[-86.540655,39.579242],[-86.491718,39.578916],[-86.491779,39.582339],[-86.493605,39.583181],[-86.493585,39.587844],[-86.498087,39.588097],[-86.498577,39.589839],[-86.502993,39.590163],[-86.503002,39.600754],[-86.479633,39.60078],[-86.479827,39.628407],[-86.480136,39.632645],[-86.481958,39.641238],[-86.471679,39.64312],[-86.461773,39.645818],[-86.437147,39.651521],[-86.437289,39.663726],[-86.437535,39.674085],[-86.438723,39.674231],[-86.441244,39.678386],[-86.442834,39.682669],[-86.444844,39.683319],[-86.446165,39.68819],[-86.455025,39.686346],[-86.462897,39.695688],[-86.463111,39.697083],[-86.465757,39.696363],[-86.466786,39.701028],[-86.469417,39.705216],[-86.473086,39.708857],[-86.474069,39.709407],[-86.479767,39.710677],[-86.482277,39.710498],[-86.482751,39.707863],[-86.486023,39.709183],[-86.487438,39.708538],[-86.488184,39.710311],[-86.489692,39.711422],[-86.489478,39.71308],[-86.491164,39.713083],[-86.491722,39.714239],[-86.494322,39.714138],[-86.494305,39.716905],[-86.500008,39.716733],[-86.546775,39.7167],[-86.546707,39.709418],[-86.570009,39.709276],[-86.571378,39.707557],[-86.572439,39.704272],[-86.57252,39.702147],[-86.57391,39.702154],[-86.573955,39.697972],[-86.574839,39.696405],[-86.57521,39.69352],[-86.577028,39.691843],[-86.579653,39.687599],[-86.580653,39.6865],[-86.580514,39.680241],[-86.581118,39.678906],[-86.585376,39.676677],[-86.587293,39.675002],[-86.589375,39.672142],[-86.589571,39.670712],[-86.593747,39.667834],[-86.594317,39.666306],[-86.599576,39.666256],[-86.601688,39.664575],[-86.604826,39.663538]]]}},{"type":"Feature","properties":{"zcta5":"46122","AFFGEOID10":"8600000US46122","GEOID10":"46122","ALAND10":228273261,"AWATER10":861209,"county_name":"Hendricks","state_code":"IN","county_state":"Hendricks County, IN","county_fips":"18063","risk_level_county":"Lower Risk (80–84% vaccinated)","mean_vaccination_rate_county":84.92,"risk_level_zcta":"Medium Risk (70–79% vaccinated)","mean_vaccination_rate_zips":79.26,"cases":0},"geometry":{"type":"Polygon","coordinates":[[[-86.686814,39.776111],[-86.686822,39.760819],[-86.665129,39.760728],[-86.665188,39.749183],[-86.660478,39.749202],[-86.660469,39.744135],[-86.665137,39.743945],[-86.665097,39.738883],[-86.662054,39.738863],[-86.66332,39.735482],[-86.665119,39.734769],[-86.665882,39.730998],[-86.669794,39.73072],[-86.669796,39.717148],[-86.661013,39.717114],[-86.651097,39.717103],[-86.650805,39.718099],[-86.64558,39.719922],[-86.604429,39.73121],[-86.604299,39.729624],[-86.604411,39.716741],[-86.608624,39.716505],[-86.609235,39.714319],[-86.610239,39.713339],[-86.614087,39.712981],[-86.614594,39.711136],[-86.614454,39.708597],[-86.613176,39.707478],[-86.614498,39.705568],[-86.613579,39.704001],[-86.613324,39.70086],[-86.611503,39.700989],[-86.609427,39.699047],[-86.609384,39.695025],[-86.61147,39.695008],[-86.610498,39.69138],[-86.609424,39.690852],[-86.608954,39.688911],[-86.606292,39.687696],[-86.579653,39.687599],[-86.577028,39.691843],[-86.57521,39.69352],[-86.574839,39.696405],[-86.573955,39.697972],[-86.57391,39.702154],[-86.57252,39.702147],[-86.572439,39.704272],[-86.571378,39.707557],[-86.570009,39.709276],[-86.546707,39.709418],[-86.546775,39.7167],[-86.500008,39.716733],[-86.494305,39.716905],[-86.494322,39.714138],[-86.491722,39.714239],[-86.491164,39.713083],[-86.489478,39.71308],[-86.489692,39.711422],[-86.488184,39.710311],[-86.487438,39.708538],[-86.486023,39.709183],[-86.482751,39.707863],[-86.482277,39.710498],[-86.479767,39.710677],[-86.474069,39.709407],[-86.473086,39.708857],[-86.466889,39.709353],[-86.466536,39.710493],[-86.458556,39.710527],[-86.46259,39.712532],[-86.463518,39.714887],[-86.463519,39.717779],[-86.442698,39.718359],[-86.442688,39.721686],[-86.447589,39.721876],[-86.447837,39.725391],[-86.452288,39.725482],[-86.452363,39.73267],[-86.457087,39.732585],[-86.457258,39.756826],[-86.457279,39.76196],[-86.456977,39.776312],[-86.457011,39.798368],[-86.414215,39.799136],[-86.416061,39.800235],[-86.417265,39.801858],[-86.419583,39.803012],[-86.421151,39.807269],[-86.419382,39.808104],[-86.419339,39.809927],[-86.422424,39.810656],[-86.424407,39.810148],[-86.424679,39.819116],[-86.438838,39.821973],[-86.438962,39.828004],[-86.439026,39.828354],[-86.448272,39.828016],[-86.448444,39.824207],[-86.449563,39.824194],[-86.457506,39.825833],[-86.457569,39.827801],[-86.467521,39.827775],[-86.472066,39.828705],[-86.473278,39.828244],[-86.477097,39.82888],[-86.477163,39.834083],[-86.543033,39.834268],[-86.57673,39.834428],[-86.595344,39.833838],[-86.595327,39.825419],[-86.592236,39.822427],[-86.587984,39.819449],[-86.619017,39.819432],[-86.618921,39.801685],[-86.616367,39.801277],[-86.616096,39.80038],[-86.613692,39.79986],[-86.6125,39.798627],[-86.612024,39.795987],[-86.608993,39.793785],[-86.60748,39.794175],[-86.604615,39.792058],[-86.601221,39.791745],[-86.601215,39.790343],[-86.651777,39.790467],[-86.651722,39.777706],[-86.651335,39.775923],[-86.686814,39.776111]]]}},{"type":"Feature","properties":{"zcta5":"47968","AFFGEOID10":"8600000US47968","GEOID10":"47968","ALAND10":63223976,"AWATER10":2848,"county_name":"Hendricks","state_code":"IN","county_state":"Hendricks County, IN","county_fips":"18063","risk_level_county":"Lower Risk (80–84% vaccinated)","mean_vaccination_rate_county":84.92,"risk_level_zcta":"Very High Risk (<60% vaccinated)","mean_vaccination_rate_zips":50.63,"cases":0},"geometry":{"type":"Polygon","coordinates":[[[-86.695274,39.981264],[-86.695784,39.98149],[-86.733414,39.981401],[-86.733417,39.99592],[-86.746447,39.995946],[-86.746267,39.994094],[-86.747753,39.991279],[-86.748556,39.991073],[-86.750713,39.991348],[-86.751669,39.990276],[-86.755427,39.990627],[-86.757308,39.993632],[-86.757114,39.995929],[-86.808991,39.995977],[-86.808868,39.98139],[-86.799601,39.981385],[-86.799659,39.96689],[-86.800333,39.966892],[-86.807442,39.96331],[-86.808757,39.963293],[-86.808736,39.9605],[-86.819398,39.952423],[-86.827607,39.952333],[-86.827345,39.946528],[-86.827254,39.930628],[-86.819106,39.930656],[-86.816558,39.933579],[-86.816494,39.936874],[-86.814675,39.93815],[-86.808207,39.930316],[-86.803928,39.930291],[-86.803975,39.940046],[-86.80323,39.9413],[-86.799297,39.941234],[-86.79937,39.944815],[-86.785728,39.944796],[-86.785497,39.95225],[-86.733488,39.95225],[-86.733441,39.950431],[-86.727554,39.950283],[-86.723918,39.948668],[-86.723751,39.915739],[-86.709578,39.915815],[-86.709517,39.908503],[-86.695287,39.908498],[-86.695193,39.915707],[-86.695071,39.92277],[-86.695202,39.952354],[-86.664839,39.952218],[-86.66502,39.95474],[-86.66688,39.95645],[-86.66717,39.95945],[-86.66714,39.97372],[-86.69521,39.973967],[-86.695274,39.981264]]]}},{"type":"Feature","properties":{"zcta5":"46167","AFFGEOID10":"8600000US46167","GEOID10":"46167","ALAND10":77736985,"AWATER10":64744,"county_name":"Hendricks","state_code":"IN","county_state":"Hendricks County, IN","county_fips":"18063","risk_level_county":"Lower Risk (80–84% vaccinated)","mean_vaccination_rate_county":84.92,"risk_level_zcta":"Medium Risk (70–79% vaccinated)","mean_vaccination_rate_zips":79.07,"cases":0},"geometry":{"type":"Polygon","coordinates":[[[-86.506028,39.922912],[-86.50556,39.864482],[-86.514964,39.864462],[-86.514983,39.86057],[-86.51938,39.860443],[-86.519865,39.859866],[-86.533815,39.859957],[-86.533573,39.841447],[-86.543041,39.843387],[-86.543033,39.834268],[-86.477163,39.834083],[-86.477097,39.82888],[-86.473278,39.828244],[-86.472066,39.828705],[-86.467521,39.827775],[-86.457569,39.827801],[-86.457506,39.825833],[-86.449563,39.824194],[-86.448444,39.824207],[-86.448272,39.828016],[-86.439026,39.828354],[-86.438962,39.828004],[-86.434282,39.828079],[-86.434364,39.831656],[-86.426212,39.831862],[-86.424985,39.832743],[-86.425019,39.835558],[-86.420383,39.835631],[-86.420407,39.837401],[-86.421848,39.837926],[-86.423326,39.84009],[-86.423414,39.842904],[-86.425206,39.842872],[-86.425133,39.839213],[-86.427526,39.83895],[-86.427483,39.835574],[-86.434434,39.835382],[-86.434519,39.837213],[-86.439172,39.837167],[-86.439297,39.842628],[-86.433479,39.842727],[-86.433476,39.841685],[-86.428933,39.841757],[-86.427148,39.843921],[-86.427708,39.84493],[-86.429319,39.845036],[-86.429966,39.846938],[-86.427112,39.846928],[-86.427034,39.848526],[-86.430037,39.848479],[-86.43023,39.849143],[-86.427035,39.849893],[-86.427025,39.854002],[-86.430779,39.854933],[-86.439517,39.856066],[-86.439615,39.871787],[-86.431017,39.871825],[-86.430208,39.871202],[-86.430174,39.867407],[-86.43009,39.866453],[-86.429447,39.866362],[-86.429007,39.86626],[-86.426177,39.867934],[-86.42838,39.871047],[-86.428801,39.873457],[-86.430074,39.873754],[-86.43005,39.875312],[-86.432843,39.876727],[-86.434563,39.877434],[-86.437148,39.878313],[-86.439726,39.878979],[-86.439729,39.880044],[-86.43807,39.87961],[-86.430129,39.879668],[-86.430446,39.894242],[-86.411589,39.894547],[-86.411603,39.896013],[-86.406941,39.896019],[-86.407916,39.899277],[-86.407801,39.902398],[-86.409164,39.902908],[-86.409129,39.909152],[-86.411786,39.909142],[-86.411851,39.912567],[-86.415285,39.911293],[-86.416749,39.915091],[-86.419671,39.915668],[-86.419389,39.917183],[-86.420335,39.918925],[-86.4241,39.921815],[-86.427461,39.921723],[-86.428482,39.922153],[-86.429053,39.923658],[-86.46834,39.92305],[-86.46867,39.92278],[-86.506028,39.922912]]]}}]}