{"type":"FeatureCollection","features":[{"type":"Feature","properties":{"zcta5":"46952","AFFGEOID10":"8600000US46952","GEOID10":"46952","ALAND10":274785585,"AWATER10":1345141,"county_name":"Huntington","state_code":"IN","county_state":"Huntington County, IN","county_fips":"18069","risk_level_county":"Medium Risk (70–79% vaccinated)","mean_vaccination_rate_county":72.53,"risk_level_zcta":"Medium Risk (70–79% vaccinated)","mean_vaccination_rate_zips":75.6,"cases":0},"geometry":{"type":"Polygon","coordinates":[[[-85.81232,40.652072],[-85.812018,40.638825],[-85.807143,40.638796],[-85.807066,40.595259],[-85.811292,40.595219],[-85.810975,40.578044],[-85.814908,40.575224],[-85.812416,40.574707],[-85.80686,40.574454],[-85.787725,40.573922],[-85.787717,40.566491],[-85.780653,40.56659],[-85.780668,40.564746],[-85.777982,40.564746],[-85.777982,40.563288],[-85.775114,40.563923],[-85.77495,40.562466],[-85.772506,40.561777],[-85.770084,40.561878],[-85.769034,40.561192],[-85.769047,40.563269],[-85.771569,40.562794],[-85.771574,40.564822],[-85.769053,40.564651],[-85.769072,40.566681],[-85.771504,40.569083],[-85.771587,40.572369],[-85.770411,40.572091],[-85.770393,40.571138],[-85.767982,40.571534],[-85.765073,40.57089],[-85.765135,40.572455],[-85.763598,40.572558],[-85.763594,40.575947],[-85.765287,40.576038],[-85.765284,40.576876],[-85.760283,40.576652],[-85.760328,40.574429],[-85.754793,40.573997],[-85.754681,40.572254],[-85.756129,40.569313],[-85.75672,40.56899],[-85.756914,40.568847],[-85.757073,40.568528],[-85.757196,40.56743],[-85.757103,40.566881],[-85.756931,40.566348],[-85.756981,40.566129],[-85.757112,40.564988],[-85.756591,40.565563],[-85.749981,40.564925],[-85.712417,40.56038],[-85.702638,40.559149],[-85.684913,40.556874],[-85.675726,40.556906],[-85.675734,40.557821],[-85.671658,40.557853],[-85.655479,40.557868],[-85.654771,40.554199],[-85.654779,40.557865],[-85.650704,40.557813],[-85.647027,40.556709],[-85.639383,40.552998],[-85.637177,40.552258],[-85.634579,40.552047],[-85.618388,40.552964],[-85.617748,40.553025],[-85.616211,40.553122],[-85.616213,40.55337],[-85.611136,40.553654],[-85.603879,40.553437],[-85.559986,40.55359],[-85.541606,40.553536],[-85.506406,40.553136],[-85.506528,40.552003],[-85.505045,40.552337],[-85.503664,40.550942],[-85.503694,40.553106],[-85.4847,40.552417],[-85.47472,40.552391],[-85.465146,40.551887],[-85.458302,40.551842],[-85.456483,40.5496],[-85.457173,40.54529],[-85.456309,40.544681],[-85.454323,40.551774],[-85.449709,40.551634],[-85.4467,40.552259],[-85.446421,40.538406],[-85.428474,40.538093],[-85.428563,40.552725],[-85.427672,40.552719],[-85.428552,40.554522],[-85.428608,40.566888],[-85.409729,40.566848],[-85.409816,40.610161],[-85.44788,40.610256],[-85.447451,40.596112],[-85.466951,40.596257],[-85.466335,40.580123],[-85.469035,40.581616],[-85.504371,40.581257],[-85.50471,40.599717],[-85.505847,40.59912],[-85.508648,40.59972],[-85.512675,40.599727],[-85.513927,40.602006],[-85.515499,40.599212],[-85.518374,40.599307],[-85.521045,40.600499],[-85.524155,40.604174],[-85.5245,40.605662],[-85.526263,40.608397],[-85.529268,40.608953],[-85.530572,40.608041],[-85.534391,40.607197],[-85.535723,40.607576],[-85.536393,40.608652],[-85.534771,40.609837],[-85.536884,40.610091],[-85.541961,40.604049],[-85.542266,40.605474],[-85.545875,40.606376],[-85.556761,40.606893],[-85.559095,40.608568],[-85.564256,40.609122],[-85.577009,40.605009],[-85.580147,40.604308],[-85.581655,40.648552],[-85.561918,40.646983],[-85.562294,40.653193],[-85.562359,40.667621],[-85.565941,40.66792],[-85.60066,40.66771],[-85.619778,40.667662],[-85.619557,40.657701],[-85.622746,40.653192],[-85.638587,40.653129],[-85.690956,40.652711],[-85.685962,40.643359],[-85.690854,40.642873],[-85.692274,40.64351],[-85.69257,40.642357],[-85.695475,40.643559],[-85.696902,40.643307],[-85.700427,40.641593],[-85.703714,40.642114],[-85.704838,40.641411],[-85.705617,40.642454],[-85.709705,40.641905],[-85.709624,40.640088],[-85.718279,40.640173],[-85.743762,40.639877],[-85.745214,40.642228],[-85.747624,40.648405],[-85.748784,40.650482],[-85.749103,40.652401],[-85.754158,40.65208],[-85.758829,40.652077],[-85.760169,40.652377],[-85.81232,40.652072]]]}},{"type":"Feature","properties":{"zcta5":"46783","AFFGEOID10":"8600000US46783","GEOID10":"46783","ALAND10":155898639,"AWATER10":1246250,"county_name":"Huntington","state_code":"IN","county_state":"Huntington County, IN","county_fips":"18069","risk_level_county":"Medium Risk (70–79% vaccinated)","mean_vaccination_rate_county":72.53,"risk_level_zcta":"Medium Risk (70–79% vaccinated)","mean_vaccination_rate_zips":73.64,"cases":0},"geometry":{"type":"Polygon","coordinates":[[[-85.336119,41.036045],[-85.337191,41.03689],[-85.33933,41.03706],[-85.340795,41.036637],[-85.341974,41.03442],[-85.43244,41.034426],[-85.432449,41.019786],[-85.452101,41.019845],[-85.452146,41.005232],[-85.433109,41.005227],[-85.432957,40.99012],[-85.451815,40.990064],[-85.451807,40.960886],[-85.406248,40.960811],[-85.406326,40.955362],[-85.410429,40.948647],[-85.412434,40.946435],[-85.39466,40.946049],[-85.3764,40.946097],[-85.380083,40.938498],[-85.379282,40.93815],[-85.380968,40.936189],[-85.381333,40.934559],[-85.380413,40.93273],[-85.383109,40.927615],[-85.368816,40.917159],[-85.374641,40.912509],[-85.374613,40.903714],[-85.356235,40.903435],[-85.341803,40.903602],[-85.338288,40.904223],[-85.336064,40.904126],[-85.335973,40.90423],[-85.325435,40.917006],[-85.321803,40.917066],[-85.320029,40.915241],[-85.317763,40.914598],[-85.313121,40.910489],[-85.312681,40.908823],[-85.308671,40.907396],[-85.307155,40.905106],[-85.3036,40.905007],[-85.298114,40.906118],[-85.296529,40.907023],[-85.293939,40.91035],[-85.292353,40.91036],[-85.292352,40.912592],[-85.290216,40.912608],[-85.290203,40.917038],[-85.285948,40.917043],[-85.285968,40.920503],[-85.283131,40.920515],[-85.280622,40.922505],[-85.280517,40.924175],[-85.279387,40.926425],[-85.278887,40.931517],[-85.273698,40.931487],[-85.271765,40.934208],[-85.27729,40.935434],[-85.275914,40.936993],[-85.272727,40.936574],[-85.273339,40.944467],[-85.28115,40.945313],[-85.281501,40.960368],[-85.275602,40.960451],[-85.273109,40.964898],[-85.270138,40.966989],[-85.268118,40.966247],[-85.26614,40.966812],[-85.263808,40.966596],[-85.262691,40.968814],[-85.260553,40.970295],[-85.259718,40.972354],[-85.257907,40.972979],[-85.257803,40.97477],[-85.262829,40.974705],[-85.262997,40.980115],[-85.275378,40.980062],[-85.276556,40.979612],[-85.281246,40.973455],[-85.282135,40.97278],[-85.272193,40.985823],[-85.268932,40.990752],[-85.259931,41.006103],[-85.260303,41.006037],[-85.283888,41.001832],[-85.314747,41.001928],[-85.318166,41.001635],[-85.318009,41.011913],[-85.32212,41.013031],[-85.322199,41.014086],[-85.324011,41.014967],[-85.322902,41.016756],[-85.320642,41.018982],[-85.320844,41.020421],[-85.322595,41.022289],[-85.32506,41.023354],[-85.325393,41.024232],[-85.325843,41.024891],[-85.329395,41.02483],[-85.33046,41.024198],[-85.335946,41.025447],[-85.336097,41.033839],[-85.336119,41.036045]]]}},{"type":"Feature","properties":{"zcta5":"46792","AFFGEOID10":"8600000US46792","GEOID10":"46792","ALAND10":260765153,"AWATER10":2348695,"county_name":"Huntington","state_code":"IN","county_state":"Huntington County, IN","county_fips":"18069","risk_level_county":"Medium Risk (70–79% vaccinated)","mean_vaccination_rate_county":72.53,"risk_level_zcta":"Medium Risk (70–79% vaccinated)","mean_vaccination_rate_zips":73.58,"cases":0},"geometry":{"type":"Polygon","coordinates":[[[-85.563004,40.726726],[-85.562851,40.712138],[-85.576903,40.711463],[-85.585127,40.703334],[-85.59029,40.696624],[-85.601116,40.696564],[-85.60066,40.66771],[-85.565941,40.66792],[-85.562359,40.667621],[-85.562294,40.653193],[-85.54454,40.653332],[-85.544744,40.66781],[-85.525639,40.66776],[-85.525488,40.653292],[-85.505088,40.653335],[-85.5003,40.660087],[-85.49385,40.667914],[-85.448741,40.668749],[-85.44314,40.6682],[-85.439875,40.668201],[-85.439868,40.665981],[-85.442674,40.662478],[-85.445009,40.658039],[-85.445541,40.656432],[-85.448825,40.653607],[-85.448993,40.651271],[-85.44788,40.610256],[-85.409816,40.610161],[-85.40986,40.624604],[-85.390958,40.624871],[-85.390804,40.595881],[-85.371801,40.596082],[-85.371743,40.588224],[-85.370665,40.587853],[-85.368686,40.588781],[-85.36704,40.590945],[-85.365368,40.590279],[-85.363134,40.591833],[-85.36433,40.594593],[-85.362477,40.594571],[-85.36165,40.596054],[-85.333906,40.596368],[-85.316493,40.596194],[-85.316493,40.603709],[-85.317713,40.604284],[-85.318547,40.606187],[-85.318951,40.610659],[-85.319742,40.612248],[-85.322666,40.614835],[-85.325383,40.615614],[-85.324816,40.615886],[-85.324121,40.620812],[-85.322298,40.620911],[-85.318354,40.622002],[-85.316697,40.623115],[-85.316716,40.62514],[-85.334237,40.625104],[-85.334667,40.654413],[-85.334756,40.668926],[-85.31685,40.668922],[-85.317014,40.693267],[-85.334834,40.692022],[-85.335122,40.727234],[-85.373226,40.726913],[-85.373493,40.756529],[-85.392524,40.756536],[-85.392686,40.765751],[-85.390258,40.767999],[-85.389518,40.769579],[-85.390206,40.770741],[-85.39181,40.771569],[-85.392977,40.77109],[-85.411737,40.771067],[-85.411598,40.743536],[-85.412114,40.742564],[-85.415227,40.741919],[-85.444473,40.741982],[-85.4502,40.757345],[-85.451993,40.763761],[-85.468975,40.763606],[-85.468898,40.749113],[-85.48792,40.749037],[-85.487915,40.746194],[-85.490071,40.745375],[-85.492602,40.74619],[-85.496476,40.745551],[-85.49699,40.744627],[-85.49665,40.741938],[-85.505791,40.741918],[-85.508616,40.7418],[-85.508782,40.746888],[-85.511557,40.750001],[-85.513095,40.750586],[-85.516665,40.749645],[-85.518008,40.747757],[-85.516322,40.744746],[-85.517772,40.742831],[-85.522535,40.741481],[-85.526027,40.741581],[-85.527312,40.742518],[-85.525561,40.746152],[-85.526483,40.750172],[-85.525358,40.752025],[-85.518922,40.754646],[-85.517356,40.755698],[-85.514122,40.760312],[-85.514266,40.763404],[-85.516543,40.764259],[-85.518179,40.76232],[-85.521146,40.76005],[-85.525908,40.760501],[-85.527646,40.761183],[-85.529641,40.763999],[-85.531337,40.763956],[-85.534184,40.762725],[-85.534747,40.760206],[-85.533353,40.758101],[-85.534455,40.756352],[-85.535671,40.756089],[-85.536309,40.754283],[-85.535898,40.752444],[-85.533845,40.74911],[-85.533781,40.745852],[-85.531021,40.743617],[-85.532329,40.742262],[-85.536851,40.741553],[-85.541805,40.741606],[-85.543393,40.742075],[-85.545379,40.738908],[-85.549556,40.740675],[-85.552563,40.74142],[-85.559425,40.741508],[-85.559862,40.739318],[-85.561928,40.73927],[-85.561883,40.736125],[-85.563129,40.734725],[-85.563004,40.726726]]]}},{"type":"Feature","properties":{"zcta5":"46940","AFFGEOID10":"8600000US46940","GEOID10":"46940","ALAND10":147159283,"AWATER10":3801393,"county_name":"Huntington","state_code":"IN","county_state":"Huntington County, IN","county_fips":"18069","risk_level_county":"Medium Risk (70–79% vaccinated)","mean_vaccination_rate_county":72.53,"risk_level_zcta":"Medium Risk (70–79% vaccinated)","mean_vaccination_rate_zips":70.3,"cases":0},"geometry":{"type":"Polygon","coordinates":[[[-85.857431,40.661876],[-85.855277,40.65793],[-85.852482,40.65551],[-85.85113,40.653688],[-85.847388,40.653882],[-85.844621,40.656551],[-85.837835,40.656141],[-85.835542,40.655274],[-85.835975,40.653994],[-85.837858,40.651791],[-85.836318,40.651925],[-85.81232,40.652072],[-85.760169,40.652377],[-85.758829,40.652077],[-85.754158,40.65208],[-85.749103,40.652401],[-85.748784,40.650482],[-85.747624,40.648405],[-85.745214,40.642228],[-85.743762,40.639877],[-85.718279,40.640173],[-85.709624,40.640088],[-85.709705,40.641905],[-85.705617,40.642454],[-85.704838,40.641411],[-85.703714,40.642114],[-85.700427,40.641593],[-85.696902,40.643307],[-85.695475,40.643559],[-85.69257,40.642357],[-85.692274,40.64351],[-85.690854,40.642873],[-85.685962,40.643359],[-85.690956,40.652711],[-85.638587,40.653129],[-85.622746,40.653192],[-85.619557,40.657701],[-85.619778,40.667662],[-85.60066,40.66771],[-85.601116,40.696564],[-85.59029,40.696624],[-85.585127,40.703334],[-85.576903,40.711463],[-85.562851,40.712138],[-85.563004,40.726726],[-85.567904,40.726466],[-85.568158,40.732076],[-85.569555,40.732201],[-85.573021,40.730359],[-85.576306,40.728446],[-85.57916,40.728191],[-85.581475,40.725729],[-85.599694,40.725487],[-85.599188,40.726011],[-85.599179,40.731076],[-85.600854,40.732586],[-85.599633,40.735579],[-85.598028,40.736785],[-85.598538,40.741078],[-85.60181,40.741039],[-85.601511,40.725475],[-85.620656,40.725496],[-85.620864,40.740737],[-85.639902,40.740506],[-85.677553,40.739921],[-85.676725,40.711194],[-85.695518,40.710553],[-85.718001,40.71052],[-85.717981,40.720042],[-85.724416,40.720369],[-85.725383,40.720034],[-85.726755,40.721719],[-85.728928,40.722075],[-85.732983,40.720937],[-85.736404,40.720941],[-85.738626,40.720369],[-85.74137,40.721637],[-85.745246,40.722447],[-85.746993,40.723512],[-85.751375,40.722642],[-85.752516,40.721484],[-85.755064,40.721079],[-85.760035,40.722624],[-85.762735,40.722488],[-85.766415,40.723083],[-85.771179,40.722426],[-85.77296,40.722852],[-85.772806,40.716661],[-85.769886,40.714064],[-85.772758,40.714014],[-85.772446,40.6953],[-85.808193,40.694938],[-85.807886,40.680409],[-85.789012,40.680645],[-85.788904,40.675709],[-85.789618,40.676218],[-85.792369,40.675514],[-85.795361,40.673473],[-85.801816,40.670717],[-85.804527,40.671108],[-85.808875,40.675367],[-85.810203,40.677215],[-85.813463,40.678876],[-85.814891,40.680882],[-85.816842,40.681481],[-85.818267,40.681367],[-85.820495,40.678591],[-85.821699,40.678036],[-85.825734,40.67759],[-85.826366,40.678131],[-85.828099,40.676872],[-85.828496,40.673915],[-85.829354,40.67321],[-85.827033,40.672335],[-85.826986,40.663744],[-85.835099,40.663714],[-85.834205,40.666397],[-85.834437,40.670703],[-85.833382,40.672536],[-85.838773,40.674231],[-85.842607,40.671765],[-85.846328,40.67055],[-85.849089,40.666308],[-85.850374,40.665206],[-85.857431,40.661876]]]}},{"type":"Feature","properties":{"zcta5":"46770","AFFGEOID10":"8600000US46770","GEOID10":"46770","ALAND10":136780380,"AWATER10":1596303,"county_name":"Huntington","state_code":"IN","county_state":"Huntington County, IN","county_fips":"18069","risk_level_county":"Medium Risk (70–79% vaccinated)","mean_vaccination_rate_county":72.53,"risk_level_zcta":"Medium Risk (70–79% vaccinated)","mean_vaccination_rate_zips":72.04,"cases":0},"geometry":{"type":"Polygon","coordinates":[[[-85.390206,40.770741],[-85.389518,40.769579],[-85.390258,40.767999],[-85.392686,40.765751],[-85.392524,40.756536],[-85.373493,40.756529],[-85.373226,40.726913],[-85.335122,40.727234],[-85.335035,40.742031],[-85.33536,40.785396],[-85.304277,40.785436],[-85.304449,40.79333],[-85.307631,40.816773],[-85.305219,40.815826],[-85.304473,40.814908],[-85.304078,40.811529],[-85.305122,40.810626],[-85.304872,40.808509],[-85.302333,40.807467],[-85.299972,40.808459],[-85.297785,40.806507],[-85.29482,40.805313],[-85.290955,40.80594],[-85.28634,40.80495],[-85.281318,40.801442],[-85.279881,40.801527],[-85.279874,40.799886],[-85.24181,40.80039],[-85.241887,40.80686],[-85.241915,40.809994],[-85.257752,40.810985],[-85.279954,40.811],[-85.279993,40.817938],[-85.2893,40.817991],[-85.289827,40.82163],[-85.299182,40.821677],[-85.299199,40.829988],[-85.309429,40.830023],[-85.280072,40.830371],[-85.279846,40.834333],[-85.280027,40.844886],[-85.260842,40.844775],[-85.261004,40.859261],[-85.242124,40.859353],[-85.242218,40.873878],[-85.223313,40.873817],[-85.223267,40.886315],[-85.225526,40.885894],[-85.227392,40.887527],[-85.229464,40.88838],[-85.242191,40.888392],[-85.242206,40.899938],[-85.245012,40.899767],[-85.248743,40.900354],[-85.250584,40.902864],[-85.261212,40.902826],[-85.261267,40.907072],[-85.263312,40.907757],[-85.26823,40.907843],[-85.270097,40.911038],[-85.271147,40.911713],[-85.271107,40.91039],[-85.280652,40.910392],[-85.280685,40.911611],[-85.282445,40.911331],[-85.288096,40.907172],[-85.291573,40.908281],[-85.288732,40.911932],[-85.284178,40.917044],[-85.285948,40.917043],[-85.290203,40.917038],[-85.290216,40.912608],[-85.292352,40.912592],[-85.292353,40.91036],[-85.293939,40.91035],[-85.296529,40.907023],[-85.298114,40.906118],[-85.3036,40.905007],[-85.307155,40.905106],[-85.308671,40.907396],[-85.312681,40.908823],[-85.313121,40.910489],[-85.317763,40.914598],[-85.320029,40.915241],[-85.321803,40.917066],[-85.325435,40.917006],[-85.335973,40.90423],[-85.336064,40.904126],[-85.343457,40.895149],[-85.345502,40.891137],[-85.345692,40.88908],[-85.344858,40.859869],[-85.373949,40.859617],[-85.373741,40.831651],[-85.372814,40.831234],[-85.359548,40.828509],[-85.354109,40.827766],[-85.364362,40.818256],[-85.380246,40.803161],[-85.382782,40.800114],[-85.383859,40.795597],[-85.383739,40.782725],[-85.384268,40.779462],[-85.385923,40.776396],[-85.390206,40.770741]]]}},{"type":"Feature","properties":{"zcta5":"46750","AFFGEOID10":"8600000US46750","GEOID10":"46750","ALAND10":515906983,"AWATER10":7578915,"county_name":"Huntington","state_code":"IN","county_state":"Huntington County, IN","county_fips":"18069","risk_level_county":"Medium Risk (70–79% vaccinated)","mean_vaccination_rate_county":72.53,"risk_level_zcta":"Medium Risk (70–79% vaccinated)","mean_vaccination_rate_zips":72.4,"cases":0},"geometry":{"type":"Polygon","coordinates":[[[-85.643841,41.002305],[-85.642617,40.929247],[-85.64198,40.914738],[-85.594396,40.915273],[-85.594076,40.90054],[-85.608193,40.900339],[-85.608235,40.887926],[-85.605642,40.888315],[-85.60314,40.885561],[-85.600591,40.885466],[-85.598041,40.886096],[-85.594215,40.884029],[-85.592389,40.881052],[-85.603964,40.873869],[-85.603076,40.872776],[-85.601882,40.869063],[-85.600252,40.869645],[-85.598722,40.871268],[-85.59698,40.875484],[-85.595107,40.876808],[-85.592588,40.877708],[-85.590461,40.880704],[-85.589228,40.881198],[-85.583809,40.88071],[-85.57937,40.879198],[-85.576521,40.877726],[-85.572217,40.877215],[-85.570639,40.876666],[-85.570389,40.862166],[-85.565051,40.86218],[-85.564997,40.857407],[-85.560224,40.857454],[-85.564189,40.853684],[-85.565027,40.852288],[-85.56399,40.851241],[-85.559564,40.849953],[-85.557634,40.845343],[-85.555024,40.844479],[-85.564959,40.84311],[-85.564293,40.799762],[-85.602489,40.799082],[-85.60237,40.791706],[-85.621755,40.791595],[-85.621432,40.770948],[-85.620217,40.770705],[-85.616549,40.771389],[-85.613141,40.771003],[-85.609327,40.772764],[-85.607091,40.77316],[-85.601844,40.772094],[-85.600151,40.770798],[-85.599032,40.768708],[-85.591338,40.76869],[-85.591137,40.766969],[-85.589045,40.762864],[-85.585731,40.759099],[-85.584668,40.756758],[-85.583622,40.756274],[-85.580984,40.751493],[-85.578207,40.748276],[-85.575754,40.746854],[-85.573126,40.749077],[-85.573021,40.730359],[-85.569555,40.732201],[-85.568158,40.732076],[-85.567904,40.726466],[-85.563004,40.726726],[-85.563129,40.734725],[-85.561883,40.736125],[-85.561928,40.73927],[-85.559862,40.739318],[-85.559425,40.741508],[-85.552563,40.74142],[-85.549556,40.740675],[-85.545379,40.738908],[-85.543393,40.742075],[-85.541805,40.741606],[-85.536851,40.741553],[-85.532329,40.742262],[-85.531021,40.743617],[-85.533781,40.745852],[-85.533845,40.74911],[-85.535898,40.752444],[-85.536309,40.754283],[-85.535671,40.756089],[-85.534455,40.756352],[-85.533353,40.758101],[-85.534747,40.760206],[-85.534184,40.762725],[-85.531337,40.763956],[-85.529641,40.763999],[-85.527646,40.761183],[-85.525908,40.760501],[-85.521146,40.76005],[-85.518179,40.76232],[-85.516543,40.764259],[-85.514266,40.763404],[-85.514122,40.760312],[-85.517356,40.755698],[-85.518922,40.754646],[-85.525358,40.752025],[-85.526483,40.750172],[-85.525561,40.746152],[-85.527312,40.742518],[-85.526027,40.741581],[-85.522535,40.741481],[-85.517772,40.742831],[-85.516322,40.744746],[-85.518008,40.747757],[-85.516665,40.749645],[-85.513095,40.750586],[-85.511557,40.750001],[-85.508782,40.746888],[-85.508616,40.7418],[-85.505791,40.741918],[-85.49665,40.741938],[-85.49699,40.744627],[-85.496476,40.745551],[-85.492602,40.74619],[-85.490071,40.745375],[-85.487915,40.746194],[-85.48792,40.749037],[-85.468898,40.749113],[-85.468975,40.763606],[-85.451993,40.763761],[-85.4502,40.757345],[-85.444473,40.741982],[-85.415227,40.741919],[-85.412114,40.742564],[-85.411598,40.743536],[-85.411737,40.771067],[-85.392977,40.77109],[-85.39181,40.771569],[-85.390206,40.770741],[-85.385923,40.776396],[-85.384268,40.779462],[-85.383739,40.782725],[-85.383859,40.795597],[-85.382782,40.800114],[-85.380246,40.803161],[-85.364362,40.818256],[-85.354109,40.827766],[-85.359548,40.828509],[-85.372814,40.831234],[-85.373741,40.831651],[-85.373949,40.859617],[-85.344858,40.859869],[-85.345692,40.88908],[-85.345502,40.891137],[-85.343457,40.895149],[-85.336064,40.904126],[-85.338288,40.904223],[-85.341803,40.903602],[-85.356235,40.903435],[-85.374613,40.903714],[-85.374641,40.912509],[-85.368816,40.917159],[-85.383109,40.927615],[-85.380413,40.93273],[-85.381333,40.934559],[-85.380968,40.936189],[-85.379282,40.93815],[-85.380083,40.938498],[-85.3764,40.946097],[-85.39466,40.946049],[-85.412434,40.946435],[-85.410429,40.948647],[-85.406326,40.955362],[-85.406248,40.960811],[-85.451807,40.960886],[-85.451815,40.990064],[-85.432957,40.99012],[-85.433109,41.005227],[-85.452146,41.005232],[-85.538178,41.003515],[-85.576105,41.002976],[-85.580167,41.005298],[-85.624417,41.004547],[-85.624377,41.002501],[-85.643841,41.002305]]]}},{"type":"Feature","properties":{"zcta5":"46702","AFFGEOID10":"8600000US46702","GEOID10":"46702","ALAND10":117774433,"AWATER10":2408485,"county_name":"Huntington","state_code":"IN","county_state":"Huntington County, IN","county_fips":"18069","risk_level_county":"Medium Risk (70–79% vaccinated)","mean_vaccination_rate_county":72.53,"risk_level_zcta":"Medium Risk (70–79% vaccinated)","mean_vaccination_rate_zips":73.28,"cases":0},"geometry":{"type":"Polygon","coordinates":[[[-85.64198,40.914738],[-85.641856,40.899909],[-85.670913,40.8998],[-85.669831,40.870429],[-85.670194,40.857927],[-85.672116,40.85599],[-85.675201,40.854486],[-85.676505,40.853194],[-85.680211,40.852643],[-85.680195,40.852137],[-85.649193,40.852475],[-85.648936,40.845677],[-85.6429,40.84732],[-85.644677,40.845174],[-85.647984,40.842812],[-85.647048,40.842301],[-85.644464,40.843634],[-85.641756,40.843699],[-85.641404,40.827211],[-85.650964,40.827057],[-85.650882,40.813166],[-85.65816,40.812864],[-85.661003,40.812085],[-85.666903,40.81246],[-85.671842,40.812386],[-85.673486,40.811669],[-85.677994,40.807951],[-85.67625,40.807687],[-85.674262,40.808465],[-85.669837,40.805856],[-85.66773,40.804186],[-85.665923,40.806473],[-85.665411,40.805672],[-85.666466,40.804002],[-85.664539,40.803407],[-85.663635,40.804482],[-85.6621,40.80455],[-85.665172,40.80224],[-85.661259,40.800295],[-85.66141,40.798396],[-85.659182,40.798693],[-85.657738,40.797823],[-85.65578,40.799378],[-85.656142,40.796976],[-85.654758,40.795855],[-85.652319,40.795625],[-85.656023,40.795009],[-85.657618,40.796542],[-85.661742,40.796131],[-85.664421,40.796406],[-85.661171,40.793774],[-85.660871,40.792058],[-85.658825,40.788969],[-85.657591,40.788351],[-85.652173,40.787412],[-85.647889,40.785539],[-85.645187,40.78593],[-85.645633,40.785068],[-85.640874,40.785455],[-85.640066,40.758907],[-85.640221,40.757495],[-85.639902,40.740506],[-85.620864,40.740737],[-85.620656,40.725496],[-85.601511,40.725475],[-85.60181,40.741039],[-85.598538,40.741078],[-85.598028,40.736785],[-85.599633,40.735579],[-85.600854,40.732586],[-85.599179,40.731076],[-85.599188,40.726011],[-85.599694,40.725487],[-85.581475,40.725729],[-85.57916,40.728191],[-85.576306,40.728446],[-85.573021,40.730359],[-85.573126,40.749077],[-85.575754,40.746854],[-85.578207,40.748276],[-85.580984,40.751493],[-85.583622,40.756274],[-85.584668,40.756758],[-85.585731,40.759099],[-85.589045,40.762864],[-85.591137,40.766969],[-85.591338,40.76869],[-85.599032,40.768708],[-85.600151,40.770798],[-85.601844,40.772094],[-85.607091,40.77316],[-85.609327,40.772764],[-85.613141,40.771003],[-85.616549,40.771389],[-85.620217,40.770705],[-85.621432,40.770948],[-85.621755,40.791595],[-85.60237,40.791706],[-85.602489,40.799082],[-85.564293,40.799762],[-85.564959,40.84311],[-85.555024,40.844479],[-85.557634,40.845343],[-85.559564,40.849953],[-85.56399,40.851241],[-85.565027,40.852288],[-85.564189,40.853684],[-85.560224,40.857454],[-85.564997,40.857407],[-85.565051,40.86218],[-85.570389,40.862166],[-85.570639,40.876666],[-85.572217,40.877215],[-85.576521,40.877726],[-85.57937,40.879198],[-85.583809,40.88071],[-85.589228,40.881198],[-85.590461,40.880704],[-85.592588,40.877708],[-85.595107,40.876808],[-85.59698,40.875484],[-85.598722,40.871268],[-85.600252,40.869645],[-85.601882,40.869063],[-85.603076,40.872776],[-85.603964,40.873869],[-85.592389,40.881052],[-85.594215,40.884029],[-85.598041,40.886096],[-85.600591,40.885466],[-85.60314,40.885561],[-85.605642,40.888315],[-85.608235,40.887926],[-85.608193,40.900339],[-85.594076,40.90054],[-85.594396,40.915273],[-85.64198,40.914738]]]}},{"type":"Feature","properties":{"zcta5":"46991","AFFGEOID10":"8600000US46991","GEOID10":"46991","ALAND10":79292046,"AWATER10":97255,"county_name":"Huntington","state_code":"IN","county_state":"Huntington County, IN","county_fips":"18069","risk_level_county":"Medium Risk (70–79% vaccinated)","mean_vaccination_rate_county":72.53,"risk_level_zcta":"Medium Risk (70–79% vaccinated)","mean_vaccination_rate_zips":71.04,"cases":0},"geometry":{"type":"Polygon","coordinates":[[[-85.562294,40.653193],[-85.561918,40.646983],[-85.581655,40.648552],[-85.580147,40.604308],[-85.577009,40.605009],[-85.564256,40.609122],[-85.559095,40.608568],[-85.556761,40.606893],[-85.545875,40.606376],[-85.542266,40.605474],[-85.541961,40.604049],[-85.536884,40.610091],[-85.534771,40.609837],[-85.536393,40.608652],[-85.535723,40.607576],[-85.534391,40.607197],[-85.530572,40.608041],[-85.529268,40.608953],[-85.526263,40.608397],[-85.5245,40.605662],[-85.524155,40.604174],[-85.521045,40.600499],[-85.518374,40.599307],[-85.515499,40.599212],[-85.513927,40.602006],[-85.512675,40.599727],[-85.508648,40.59972],[-85.505847,40.59912],[-85.50471,40.599717],[-85.504371,40.581257],[-85.469035,40.581616],[-85.466335,40.580123],[-85.466951,40.596257],[-85.447451,40.596112],[-85.44788,40.610256],[-85.448993,40.651271],[-85.448825,40.653607],[-85.445541,40.656432],[-85.445009,40.658039],[-85.442674,40.662478],[-85.439868,40.665981],[-85.439875,40.668201],[-85.44314,40.6682],[-85.448741,40.668749],[-85.49385,40.667914],[-85.5003,40.660087],[-85.505088,40.653335],[-85.525488,40.653292],[-85.525639,40.66776],[-85.544744,40.66781],[-85.54454,40.653332],[-85.562294,40.653193]]]}},{"type":"Feature","properties":{"zcta5":"46787","AFFGEOID10":"8600000US46787","GEOID10":"46787","ALAND10":166509471,"AWATER10":288701,"county_name":"Huntington","state_code":"IN","county_state":"Huntington County, IN","county_fips":"18069","risk_level_county":"Medium Risk (70–79% vaccinated)","mean_vaccination_rate_county":72.53,"risk_level_zcta":"Medium Risk (70–79% vaccinated)","mean_vaccination_rate_zips":71.48,"cases":0},"geometry":{"type":"Polygon","coordinates":[[[-85.724096,41.10307],[-85.724148,41.101514],[-85.70484,41.098334],[-85.704787,41.089446],[-85.704536,41.087967],[-85.704748,41.08204],[-85.704593,41.067746],[-85.706386,41.067698],[-85.706211,41.065316],[-85.703313,41.063738],[-85.701827,41.061487],[-85.700043,41.059979],[-85.697466,41.059698],[-85.694461,41.061412],[-85.692185,41.062029],[-85.686319,41.059522],[-85.684502,41.059805],[-85.684276,41.053534],[-85.673707,41.055601],[-85.673625,41.051841],[-85.676417,41.049071],[-85.683525,41.047732],[-85.684208,41.048173],[-85.684181,41.046716],[-85.683865,41.031603],[-85.682639,41.03113],[-85.673256,41.031209],[-85.672699,41.002023],[-85.643841,41.002305],[-85.624377,41.002501],[-85.624417,41.004547],[-85.580167,41.005298],[-85.576105,41.002976],[-85.538178,41.003515],[-85.538252,41.019479],[-85.528639,41.019503],[-85.528756,41.048622],[-85.543208,41.048585],[-85.543179,41.059213],[-85.55123,41.059268],[-85.558121,41.06046],[-85.561998,41.063136],[-85.567254,41.063136],[-85.567702,41.077243],[-85.564679,41.077729],[-85.544815,41.077669],[-85.544696,41.087271],[-85.541878,41.088413],[-85.541913,41.089653],[-85.549175,41.089395],[-85.558517,41.089549],[-85.567713,41.090217],[-85.567712,41.118344],[-85.585479,41.11859],[-85.606622,41.118762],[-85.60493,41.11947],[-85.60448,41.120631],[-85.596502,41.123544],[-85.596126,41.125178],[-85.59614,41.137247],[-85.596804,41.138463],[-85.59299,41.138558],[-85.605692,41.145759],[-85.605628,41.14049],[-85.62039,41.14043],[-85.620509,41.129864],[-85.62107,41.128318],[-85.620643,41.125999],[-85.620697,41.118705],[-85.664252,41.118376],[-85.664139,41.1388],[-85.66609,41.139683],[-85.68619,41.139603],[-85.705282,41.139617],[-85.704866,41.103336],[-85.724096,41.10307]]]}}]}