{"type":"FeatureCollection","features":[{"type":"Feature","properties":{"zcta5":"39159","AFFGEOID10":"8600000US39159","GEOID10":"39159","ALAND10":756956645,"AWATER10":5819928,"county_name":"Issaquena","state_code":"MS","county_state":"Issaquena County, MS","county_fips":"28055","risk_level_county":"Higher Risk (60–69% vaccinated)","mean_vaccination_rate_county":62.11,"risk_level_zcta":"Medium Risk (70–79% vaccinated)","mean_vaccination_rate_zips":72.73,"cases":0},"geometry":{"type":"MultiPolygon","coordinates":[[[[-90.84815,33.031633],[-90.848583,33.025928],[-90.848322,33.02411],[-90.852997,33.024017],[-90.854744,33.021925],[-90.855114,33.020425],[-90.854503,33.017975],[-90.851967,33.012558],[-90.85195,33.009811],[-90.853517,33.006717],[-90.857865,33.003588],[-90.857994,33.002511],[-90.856122,33.000569],[-90.850694,32.997022],[-90.847446,32.994244],[-90.844987,32.993288],[-90.842292,32.993178],[-90.837415,32.994484],[-90.834525,32.994456],[-90.83775,33.001368],[-90.835331,33.003025],[-90.83174,33.002679],[-90.831649,33.007934],[-90.840806,33.007953],[-90.846753,33.020722],[-90.843619,33.020919],[-90.840281,33.018942],[-90.836103,33.017978],[-90.833703,33.018107],[-90.830414,33.019992],[-90.827689,33.023061],[-90.827161,33.02431],[-90.828408,33.026272],[-90.831675,33.027392],[-90.836875,33.027533],[-90.840011,33.028264],[-90.841983,33.029432],[-90.842544,33.031647],[-90.841936,33.033867],[-90.835164,33.041033],[-90.83365,33.043531],[-90.830362,33.043523],[-90.830378,33.046008],[-90.820755,33.051994],[-90.771319,33.051693],[-90.768897,33.055456],[-90.768856,33.059544],[-90.768986,33.068983],[-90.776497,33.073819],[-90.777372,33.07403],[-90.79525,33.074025],[-90.799781,33.074683],[-90.800933,33.075217],[-90.821811,33.082147],[-90.821792,33.074157],[-90.824367,33.069868],[-90.826075,33.06765],[-90.827022,33.066916],[-90.833989,33.066871],[-90.837819,33.067164],[-90.841183,33.06588],[-90.844118,33.064112],[-90.844603,33.062706],[-90.848859,33.059913],[-90.84235,33.049867],[-90.847744,33.049906],[-90.847414,33.048341],[-90.847762,33.036842],[-90.84815,33.031633]]],[[[-91.05925,32.88548],[-91.06185,32.882603],[-91.064956,32.88075],[-91.069233,32.88057],[-91.072717,32.87775],[-91.076147,32.875563],[-91.078069,32.874868],[-91.079011,32.872472],[-91.080904,32.872749],[-91.085861,32.866055],[-91.086783,32.865276],[-91.09004,32.860671],[-91.092834,32.857326],[-91.095872,32.854349],[-91.097852,32.851898],[-91.107046,32.8431],[-91.109433,32.841198],[-91.111712,32.840006],[-91.114071,32.838104],[-91.118843,32.833385],[-91.123776,32.827153],[-91.126954,32.823531],[-91.128774,32.820005],[-91.130838,32.816982],[-91.132358,32.815609],[-91.134392,32.815404],[-91.137024,32.813687],[-91.133662,32.812196],[-91.138354,32.812222],[-91.140388,32.811878],[-91.141691,32.809978],[-91.140473,32.806793],[-91.141964,32.806634],[-91.1424,32.803451],[-91.138577,32.802487],[-91.137655,32.800928],[-91.138389,32.797953],[-91.137009,32.792935],[-91.138936,32.790005],[-91.139236,32.786868],[-91.140756,32.783868],[-91.14092,32.782471],[-91.142277,32.780248],[-91.144231,32.774776],[-91.143636,32.773148],[-91.144288,32.770263],[-91.143368,32.767102],[-91.140362,32.760872],[-91.140634,32.758811],[-91.139713,32.758741],[-91.140365,32.755558],[-91.1392,32.754527],[-91.138063,32.751891],[-91.136437,32.751067],[-91.13389,32.75086],[-91.13413,32.749772],[-91.132559,32.748514],[-91.134131,32.748011],[-91.136407,32.749043],[-91.138006,32.748928],[-91.139444,32.747579],[-91.1368953968432,32.7427364395392],[-91.131691,32.743107],[-91.123152,32.742798],[-91.113652,32.73997],[-91.090573,32.7361],[-91.077176,32.732534],[-91.060766,32.727494],[-91.056999,32.72558],[-91.054481,32.722259],[-91.0545136340063,32.7218900408994],[-91.045538,32.722909],[-91.039917,32.724621],[-91.042028,32.719592],[-91.047381,32.708981],[-91.048125,32.707847],[-91.057581,32.695518],[-91.057622,32.690489],[-91.058003,32.689711],[-91.059925,32.687817],[-91.057994,32.687297],[-91.045842,32.689708],[-91.042556,32.690536],[-91.04675,32.685088],[-91.053264,32.675989],[-91.056436,32.672606],[-91.061517,32.668628],[-91.064567,32.666914],[-91.061997,32.660247],[-91.061728,32.658392],[-91.06105,32.657389],[-91.046508,32.648061],[-91.042175,32.647489],[-91.023642,32.650753],[-91.019558,32.649822],[-91.015714,32.647964],[-91.008672,32.643497],[-91.001964,32.637531],[-91.001536,32.634757],[-91.000908,32.634011],[-90.999489,32.635117],[-90.999844,32.632275],[-90.999456,32.630419],[-90.99495,32.625953],[-90.991797,32.623994],[-90.987503,32.620136],[-90.986781,32.618986],[-90.986725,32.616768],[-90.987239,32.615941],[-90.993261,32.611221],[-90.996817,32.604656],[-91.000521,32.601948],[-90.999825,32.601681],[-90.993152,32.601238],[-90.992647,32.599468],[-90.989575,32.598931],[-90.988211,32.596798],[-90.986819,32.601695],[-90.98425,32.604421],[-90.979597,32.607537],[-90.97094,32.614753],[-90.969479,32.616746],[-90.969344,32.617914],[-90.96737,32.621533],[-90.967208,32.623068],[-90.96789,32.625853],[-90.96605,32.627893],[-90.964888,32.632657],[-90.96681,32.63497],[-90.967975,32.638314],[-90.967191,32.640237],[-90.964918,32.642781],[-90.963565,32.645941],[-90.963566,32.6483],[-90.961915,32.651117],[-90.959127,32.653132],[-90.958477,32.652709],[-90.957463,32.654012],[-90.956166,32.657317],[-90.95598,32.662125],[-90.955861,32.662661],[-90.952135,32.66263],[-90.939247,32.662547],[-90.87295,32.662263],[-90.869676,32.65392],[-90.86795,32.65618],[-90.865833,32.656132],[-90.862483,32.65448],[-90.860878,32.654308],[-90.859139,32.654882],[-90.857069,32.656747],[-90.856136,32.660653],[-90.856111,32.662248],[-90.758863,32.662176],[-90.758868,32.662529],[-90.773089,32.662775],[-90.773519,32.662993],[-90.78055,32.669325],[-90.784981,32.674114],[-90.788094,32.67716],[-90.789208,32.67775],[-90.797236,32.679696],[-90.802206,32.681368],[-90.810253,32.683419],[-90.815433,32.685192],[-90.822061,32.68696],[-90.823851,32.69297],[-90.879202,32.679935],[-90.879166,32.674875],[-90.884967,32.675075],[-90.886941,32.67548],[-90.88941,32.677315],[-90.895431,32.676025],[-90.896678,32.675039],[-90.896947,32.672922],[-90.895886,32.671492],[-90.902716,32.671397],[-90.903992,32.672314],[-90.904358,32.673707],[-90.903386,32.674864],[-90.90165,32.675089],[-90.90298,32.675162],[-90.904554,32.674284],[-90.904236,32.671675],[-90.909242,32.671314],[-90.912092,32.671781],[-90.914136,32.67266],[-90.917203,32.675583],[-90.922275,32.684663],[-90.919504,32.684689],[-90.919083,32.688515],[-90.918074,32.692143],[-90.918592,32.694553],[-90.920531,32.696578],[-90.923819,32.697544],[-90.925011,32.699617],[-90.924886,32.700919],[-90.926042,32.702317],[-90.924662,32.704286],[-90.925306,32.705205],[-90.924793,32.749102],[-90.921308,32.749088],[-90.921502,32.756197],[-90.924521,32.756363],[-90.923877,32.763564],[-90.922226,32.77451],[-90.927689,32.774538],[-90.928336,32.775806],[-90.932511,32.776238],[-90.935259,32.776947],[-90.935511,32.774228],[-90.936942,32.772216],[-90.947597,32.772371],[-90.947531,32.778658],[-90.948579,32.782932],[-90.944817,32.783395],[-90.942419,32.783211],[-90.941021,32.788693],[-90.937667,32.788162],[-90.936819,32.789783],[-90.934178,32.792778],[-90.932693,32.792772],[-90.932562,32.795281],[-90.928703,32.794531],[-90.929301,32.792771],[-90.92828,32.792748],[-90.926922,32.797778],[-90.928096,32.797781],[-90.928583,32.802518],[-90.926824,32.806482],[-90.926783,32.807769],[-90.924519,32.815385],[-90.922659,32.818393],[-90.921964,32.817864],[-90.920473,32.818764],[-90.918426,32.821722],[-90.914175,32.821736],[-90.914765,32.826113],[-90.914144,32.830891],[-90.914058,32.826011],[-90.913975,32.823652],[-90.909227,32.823698],[-90.908868,32.825533],[-90.906047,32.825325],[-90.906114,32.826918],[-90.90505,32.83549],[-90.901756,32.835614],[-90.901328,32.832481],[-90.900053,32.830554],[-90.895917,32.828626],[-90.895943,32.837316],[-90.899772,32.837246],[-90.900486,32.838931],[-90.895949,32.839064],[-90.895959,32.85002],[-90.876764,32.849747],[-90.876798,32.85634],[-90.869409,32.856612],[-90.86516,32.855916],[-90.865122,32.864053],[-90.860974,32.864531],[-90.860847,32.869225],[-90.861083,32.875777],[-90.873906,32.875767],[-90.873944,32.894824],[-90.861147,32.894565],[-90.861289,32.904742],[-90.860658,32.904894],[-90.857806,32.90415],[-90.851531,32.904246],[-90.849069,32.904697],[-90.845114,32.903961],[-90.841144,32.901958],[-90.84045,32.900342],[-90.837592,32.898657],[-90.837033,32.897519],[-90.837858,32.896231],[-90.837971,32.893966],[-90.836425,32.890985],[-90.835598,32.886729],[-90.836925,32.885669],[-90.836847,32.879649],[-90.83625,32.874994],[-90.835064,32.871578],[-90.835883,32.864196],[-90.8338,32.857377],[-90.835176,32.855199],[-90.833705,32.853592],[-90.834871,32.852034],[-90.835305,32.849446],[-90.837584,32.844659],[-90.83696,32.8434],[-90.837474,32.84017],[-90.838261,32.838453],[-90.837717,32.834949],[-90.836605,32.833575],[-90.83712,32.83101],[-90.833782,32.828469],[-90.8321,32.827667],[-90.82833,32.824576],[-90.826512,32.82215],[-90.826349,32.820363],[-90.824125,32.820546],[-90.821061,32.820043],[-90.817589,32.821921],[-90.811048,32.821996],[-90.80693,32.82444],[-90.804869,32.825058],[-90.803188,32.824371],[-90.801452,32.822606],[-90.799798,32.819789],[-90.796055,32.818438],[-90.791661,32.820292],[-90.788488,32.820406],[-90.78488,32.821528],[-90.783469,32.823909],[-90.781869,32.825031],[-90.780648,32.824847],[-90.778642,32.822923],[-90.773998,32.819221],[-90.774461,32.81845],[-90.77677,32.817926],[-90.776869,32.814233],[-90.765412,32.81433],[-90.762844,32.812413],[-90.759325,32.812381],[-90.753,32.81418],[-90.749723,32.814199],[-90.746231,32.812536],[-90.74235,32.808556],[-90.740434,32.807727],[-90.736036,32.807972],[-90.733889,32.808391],[-90.729966,32.809994],[-90.729022,32.811431],[-90.728681,32.814047],[-90.720408,32.814141],[-90.718997,32.813302],[-90.718161,32.814694],[-90.720312,32.814953],[-90.722787,32.816406],[-90.723389,32.818882],[-90.724414,32.819411],[-90.726804,32.819608],[-90.728369,32.818619],[-90.72809,32.815669],[-90.730135,32.814999],[-90.72966,32.813546],[-90.731842,32.812448],[-90.732958,32.809981],[-90.735886,32.809818],[-90.739389,32.80895],[-90.741016,32.809132],[-90.743784,32.811948],[-90.744355,32.814306],[-90.747095,32.817374],[-90.748615,32.818221],[-90.753991,32.817988],[-90.759635,32.814006],[-90.759753,32.835667],[-90.736023,32.855142],[-90.736647,32.857957],[-90.745951,32.889839],[-90.744528,32.891841],[-90.746794,32.896673],[-90.750813,32.906345],[-90.753115,32.913925],[-90.753222,32.915734],[-90.752405,32.919055],[-90.753328,32.919857],[-90.753216,32.924208],[-90.755035,32.925217],[-90.755929,32.928423],[-90.757881,32.932408],[-90.758777,32.933369],[-90.762415,32.93312],[-90.765809,32.934953],[-90.768089,32.935527],[-90.771373,32.939078],[-90.774577,32.940499],[-90.777405,32.935828],[-90.779713,32.936103],[-90.78164,32.937959],[-90.785469,32.937914],[-90.786682,32.940226],[-90.789894,32.937722],[-90.790106,32.935783],[-90.796449,32.936051],[-90.794643,32.938594],[-90.793475,32.941049],[-90.793685,32.950713],[-90.796486,32.951014],[-90.796294,32.957922],[-90.800842,32.958655],[-90.801344,32.957897],[-90.805264,32.958136],[-90.822728,32.958069],[-90.822353,32.936127],[-90.827763,32.936193],[-90.827758,32.930762],[-90.836286,32.930799],[-90.836297,32.922218],[-90.835361,32.921536],[-90.861225,32.92165],[-90.861614,32.929122],[-90.857961,32.933543],[-90.849989,32.941403],[-90.855619,32.947406],[-90.858772,32.953614],[-90.863208,32.951503],[-90.866487,32.951579],[-90.868879,32.954624],[-90.870756,32.958309],[-90.873067,32.961858],[-90.874649,32.963461],[-90.876476,32.964283],[-90.879136,32.963808],[-90.879539,32.965061],[-90.888128,32.965414],[-90.888272,32.979286],[-90.888467,32.9806],[-90.888167,33.004525],[-90.881796,33.00751],[-90.879594,33.007886],[-90.865914,33.007869],[-90.866018,33.022697],[-90.872354,33.023038],[-90.876689,33.023812],[-90.880814,33.026131],[-90.880807,33.03293],[-90.882117,33.032942],[-90.882107,33.035333],[-90.879394,33.035306],[-90.879165,33.037242],[-90.888008,33.037947],[-90.896092,33.03784],[-90.896503,33.042744],[-90.899222,33.043303],[-90.901148,33.044342],[-90.904425,33.045256],[-90.908115,33.044621],[-90.910967,33.044733],[-90.913906,33.047095],[-90.91397,33.029724],[-90.914337,33.007697],[-90.914311,33.003597],[-90.914803,32.978564],[-90.914306,32.954999],[-90.916271,32.955083],[-90.919431,32.958364],[-90.920864,32.958736],[-90.921724,32.95707],[-90.924021,32.958154],[-90.927463,32.958745],[-90.931842,32.961416],[-90.94135,32.972183],[-90.966156,32.971989],[-90.966119,32.966406],[-90.974743,32.969454],[-90.976938,32.965221],[-90.987564,32.971277],[-90.989028,32.970202],[-90.999833,32.964957],[-91.006244,32.959522],[-91.007427,32.957937],[-91.00392,32.956173],[-91.000104,32.952877],[-90.997196,32.947477],[-90.993229,32.945211],[-90.989724,32.942442],[-90.98793,32.940221],[-90.98706,32.93761],[-90.986136,32.936947],[-90.983099,32.936366],[-90.983107,32.929785],[-90.999521,32.929617],[-91.001128,32.921944],[-91.00201,32.919911],[-91.004903,32.920896],[-91.004922,32.917392],[-91.003789,32.908675],[-91.0024,32.905175],[-91.002386,32.897564],[-91.001178,32.895359],[-90.999103,32.894478],[-90.997664,32.88865],[-90.997764,32.886058],[-91.000028,32.880777],[-91.003133,32.881461],[-91.005158,32.880316],[-91.0063,32.878417],[-91.008231,32.877439],[-91.010836,32.877178],[-91.013356,32.875928],[-91.027619,32.875836],[-91.0298,32.877516],[-91.029461,32.880072],[-91.030361,32.886232],[-91.03095,32.887369],[-91.031286,32.891644],[-91.034269,32.892575],[-91.037631,32.891472],[-91.046061,32.895006],[-91.050042,32.895862],[-91.051241,32.884349],[-91.052078,32.88485],[-91.058297,32.885097],[-91.05925,32.88548]],[[-90.914144,32.830891],[-90.914258,32.830919],[-90.914792,32.831038],[-90.910517,32.842574],[-90.919687,32.842574],[-90.919705,32.850431],[-90.899996,32.850391],[-90.897846,32.846145],[-90.899879,32.845201],[-90.905444,32.845219],[-90.906162,32.842826],[-90.905517,32.840316],[-90.906477,32.838475],[-90.91109,32.834244],[-90.912626,32.83354],[-90.913843,32.831648],[-90.914144,32.830891]],[[-90.947597,32.772371],[-90.947726,32.767519],[-90.953247,32.767553],[-90.953272,32.763542],[-90.956644,32.76366],[-90.958078,32.764525],[-90.964177,32.764558],[-90.963733,32.777316],[-90.963557,32.778168],[-90.962556,32.776078],[-90.959981,32.774777],[-90.954028,32.773383],[-90.9507,32.772219],[-90.947597,32.772371]]]]}},{"type":"Feature","properties":{"zcta5":"39183","AFFGEOID10":"8600000US39183","GEOID10":"39183","ALAND10":659275140,"AWATER10":25722640,"county_name":"Issaquena","state_code":"MS","county_state":"Issaquena County, MS","county_fips":"28055","risk_level_county":"Higher Risk (60–69% vaccinated)","mean_vaccination_rate_county":62.11,"risk_level_zcta":"Higher Risk (60–69% vaccinated)","mean_vaccination_rate_zips":67.18,"cases":0},"geometry":{"type":"MultiPolygon","coordinates":[[[[-90.861252,32.454833],[-90.868092,32.455092],[-90.873981,32.454133],[-90.875789,32.4535],[-90.879014,32.451056],[-90.881833,32.45065],[-90.890015,32.452104],[-90.890418,32.447542],[-90.88964,32.446368],[-90.885631,32.442838],[-90.883179,32.441702],[-90.88034,32.44164],[-90.878501,32.442158],[-90.876274,32.443933],[-90.875398,32.446885],[-90.873153,32.451096],[-90.869659,32.452936],[-90.867902,32.452676],[-90.867075,32.450243],[-90.866925,32.447561],[-90.86604,32.445929],[-90.863537,32.443556],[-90.861379,32.442768],[-90.862451,32.442366],[-90.866106,32.44532],[-90.868649,32.45058],[-90.870873,32.451608],[-90.87288,32.450557],[-90.874008,32.448051],[-90.875104,32.444253],[-90.877034,32.442418],[-90.879308,32.441311],[-90.881466,32.440768],[-90.884416,32.441566],[-90.891418,32.447037],[-90.894745,32.448602],[-90.899007,32.448951],[-90.902313,32.448684],[-90.905441,32.447764],[-90.910292,32.445863],[-90.915712,32.444141],[-90.918789,32.444145],[-90.921394,32.441048],[-90.921926,32.439333],[-90.922179,32.435898],[-90.924832,32.427153],[-90.925682,32.420909],[-90.92576,32.416248],[-90.92442,32.412938],[-90.926106,32.404935],[-90.925918,32.402797],[-90.924946,32.400466],[-90.928909,32.39865],[-90.93341,32.39538],[-90.943477,32.390076],[-90.94969,32.38763],[-90.95521,32.38591],[-90.95958,32.38516],[-90.96237,32.38514],[-90.96797,32.38443],[-90.97262,32.38458],[-90.97655,32.38437],[-90.97735,32.38286],[-90.97799,32.37998],[-90.9772,32.37368],[-90.97341,32.367035],[-90.97204,32.364183],[-90.96941,32.362204],[-90.96823,32.35993],[-90.96407,32.35512],[-90.959833,32.352772],[-90.95555,32.35232],[-90.94895,32.35272],[-90.94736,32.35212],[-90.94348,32.35216],[-90.940815,32.352673],[-90.937388,32.353935],[-90.931055,32.357439],[-90.92496,32.361857],[-90.922371,32.36455],[-90.917202,32.370597],[-90.915009,32.372417],[-90.90928,32.37601],[-90.90755,32.37733],[-90.90641,32.37752],[-90.91072,32.38178],[-90.9116,32.38221],[-90.918747,32.388208],[-90.92084,32.39205],[-90.9222,32.392725],[-90.92424,32.39528],[-90.922614,32.395433],[-90.921002,32.393705],[-90.921015,32.393012],[-90.918606,32.390263],[-90.917368,32.389455],[-90.913528,32.385502],[-90.90836,32.380917],[-90.905504,32.379119],[-90.901495,32.377331],[-90.89748,32.376126],[-90.895323,32.375999],[-90.890993,32.373276],[-90.89016193262829,32.3722051309606],[-90.888947,32.373246],[-90.878289,32.374548],[-90.875631,32.372434],[-90.882161,32.357552],[-90.88645397951801,32.3512664710144],[-90.885057,32.35067],[-90.88328,32.35025],[-90.88359,32.34829],[-90.882759,32.350189],[-90.8616,32.3474],[-90.85706,32.34652],[-90.85287,32.34339],[-90.84899,32.34282],[-90.84302,32.34351],[-90.84423,32.34269],[-90.84192,32.342419],[-90.83943,32.343414],[-90.83684,32.34385],[-90.83678,32.34295],[-90.83275,32.34308],[-90.83276,32.34409],[-90.82915,32.3443],[-90.82937,32.34836],[-90.816,32.3496],[-90.80659,32.35138],[-90.80088,32.35225],[-90.78331,32.35396],[-90.77643,32.35415],[-90.75302,32.35402],[-90.74225,32.35308],[-90.73872,32.35334],[-90.72918,32.35612],[-90.723747,32.357525],[-90.722604,32.354986],[-90.720538,32.354536],[-90.72,32.353003],[-90.718466,32.353794],[-90.717481,32.352613],[-90.715914,32.353234],[-90.715655,32.350843],[-90.713305,32.351586],[-90.71199,32.351273],[-90.711595,32.350184],[-90.709905,32.351998],[-90.710819,32.353581],[-90.709724,32.354005],[-90.708804,32.352037],[-90.707555,32.35163],[-90.706577,32.354945],[-90.70455,32.352136],[-90.703728,32.352576],[-90.70378,32.354115],[-90.701579,32.354786],[-90.698917,32.352346],[-90.698742,32.35123],[-90.697687,32.351362],[-90.697907,32.349598],[-90.699312,32.348823],[-90.700458,32.349564],[-90.70084,32.348091],[-90.699053,32.347278],[-90.697419,32.347789],[-90.695515,32.349132],[-90.695515,32.351075],[-90.694517,32.352996],[-90.69289,32.354333],[-90.691715,32.354092],[-90.690206,32.351923],[-90.689042,32.351448],[-90.686087,32.351848],[-90.683571,32.352784],[-90.681056,32.352736],[-90.676741,32.35125],[-90.657983,32.346278],[-90.654,32.344865],[-90.651764,32.344399],[-90.641663,32.343398],[-90.634752,32.339708],[-90.632512,32.338972],[-90.629124,32.338865],[-90.627978,32.339483],[-90.62737,32.342411],[-90.627946,32.345395],[-90.63037,32.34953],[-90.630411,32.353428],[-90.631911,32.361502],[-90.634852,32.366296],[-90.635554,32.368163],[-90.635658,32.371169],[-90.636162,32.374498],[-90.635591,32.375822],[-90.633345,32.377051],[-90.630798,32.377081],[-90.626936,32.378343],[-90.626483,32.380266],[-90.622711,32.38339],[-90.622405,32.384836],[-90.624513,32.385631],[-90.625732,32.386711],[-90.6258,32.388159],[-90.622679,32.390677],[-90.617742,32.393012],[-90.61792,32.39437],[-90.620952,32.394116],[-90.621369,32.394925],[-90.61881,32.396036],[-90.618247,32.397247],[-90.615717,32.398002],[-90.616703,32.399627],[-90.616974,32.401712],[-90.614499,32.40334],[-90.614184,32.404463],[-90.61549,32.409438],[-90.614829,32.409859],[-90.613282,32.408823],[-90.6121,32.409976],[-90.613172,32.413414],[-90.61214,32.41443],[-90.606764,32.415615],[-90.606078,32.416114],[-90.60601,32.418441],[-90.602952,32.420084],[-90.602531,32.42235],[-90.599985,32.424627],[-90.599545,32.425799],[-90.599779,32.427907],[-90.59991,32.435209],[-90.599419,32.436308],[-90.596362,32.437878],[-90.595967,32.440373],[-90.595366,32.441204],[-90.594292,32.44117],[-90.592164,32.439744],[-90.59065,32.4408],[-90.588637,32.443648],[-90.585761,32.445097],[-90.591404,32.448121],[-90.592649,32.448446],[-90.594235,32.448496],[-90.595496,32.448874],[-90.597829,32.450281],[-90.598225,32.451946],[-90.597252,32.453495],[-90.597127,32.454109],[-90.597821,32.455846],[-90.597785,32.457253],[-90.598574,32.457957],[-90.601446,32.45818],[-90.601586,32.459311],[-90.600047,32.463114],[-90.600049,32.46742],[-90.599709,32.470409],[-90.601318,32.473981],[-90.603405,32.477037],[-90.604067,32.479064],[-90.604071,32.481297],[-90.603065,32.481918],[-90.601757,32.482149],[-90.600822,32.484239],[-90.597835,32.482869],[-90.593929,32.48531],[-90.59111,32.487439],[-90.588699,32.487486],[-90.587274,32.486865],[-90.586624,32.48886],[-90.589938,32.488648],[-90.589441,32.490327],[-90.590128,32.493077],[-90.589082,32.495319],[-90.58728,32.496914],[-90.585295,32.494582],[-90.583594,32.493825],[-90.582047,32.494239],[-90.581683,32.495805],[-90.579306,32.498182],[-90.580596,32.501785],[-90.578701,32.503666],[-90.57786,32.503736],[-90.576898,32.503415],[-90.577077,32.501438],[-90.574781,32.501237],[-90.574837,32.499773],[-90.573426,32.499085],[-90.570093,32.49956],[-90.569616,32.501345],[-90.571615,32.50413],[-90.570746,32.506305],[-90.567551,32.505056],[-90.565545,32.505955],[-90.565605,32.502944],[-90.55969,32.504337],[-90.555481,32.505021],[-90.553821,32.507574],[-90.553904,32.531907],[-90.587925,32.531756],[-90.588019,32.546067],[-90.630121,32.54606],[-90.654563,32.546042],[-90.654589,32.556241],[-90.671941,32.550481],[-90.675476,32.549883],[-90.675949,32.549059],[-90.679604,32.548586],[-90.679695,32.54772],[-90.681458,32.546641],[-90.683976,32.54656],[-90.686799,32.545359],[-90.689629,32.545614],[-90.691544,32.544867],[-90.6922,32.545889],[-90.695023,32.546274],[-90.695664,32.54513],[-90.699876,32.544481],[-90.698968,32.544092],[-90.697727,32.541924],[-90.74316,32.54341],[-90.74993,32.53922],[-90.75076,32.53902],[-90.75059,32.53881],[-90.755664,32.535638],[-90.751627,32.535715],[-90.750811,32.534651],[-90.760909,32.486525],[-90.783238,32.467511],[-90.78331,32.46637],[-90.785465,32.467801],[-90.785925,32.471333],[-90.791095,32.476839],[-90.793046,32.477609],[-90.796827,32.476788],[-90.79859,32.4772],[-90.799102,32.475352],[-90.79796,32.47302],[-90.79689,32.472119],[-90.802953,32.471345],[-90.803536,32.474566],[-90.803306,32.477612],[-90.806499,32.478151],[-90.80607,32.48196],[-90.80811,32.4909],[-90.81,32.49539],[-90.813083,32.492625],[-90.816798,32.489791],[-90.8188,32.487636],[-90.820406,32.488397],[-90.82132,32.48791],[-90.82443,32.48374],[-90.82667,32.47988],[-90.82851,32.47841],[-90.84742,32.46836],[-90.84983,32.46667],[-90.85429,32.45875],[-90.85586,32.45672],[-90.85822,32.45534],[-90.861252,32.454833]]],[[[-91.0697862054881,32.562793318519],[-91.080398,32.556442],[-91.075373,32.546718],[-91.061685,32.536448],[-91.051168,32.53089],[-91.018469,32.521019],[-91.007075,32.516371],[-90.994867,32.508611],[-90.988784,32.500841],[-90.987202,32.495663],[-90.987579,32.492387],[-90.988278,32.49119],[-90.990703,32.487749],[-90.996388,32.483925],[-90.999223,32.482615],[-91.004206,32.48214],[-91.017106,32.48374],[-91.024106,32.48524],[-91.033906,32.48854],[-91.038106,32.49044],[-91.045807,32.495539],[-91.050907,32.500139],[-91.060516,32.512361],[-91.070467,32.528171],[-91.074817,32.533467],[-91.093741,32.549128],[-91.097878,32.544752],[-91.097949,32.537214],[-91.098756,32.532968],[-91.101304,32.525599],[-91.106985,32.514934],[-91.116708,32.500139],[-91.117308,32.495039],[-91.116008,32.48314],[-91.112108,32.47614],[-91.108808,32.47204],[-91.095308,32.458741],[-91.081807,32.450441],[-91.070207,32.445141],[-91.052907,32.438442],[-91.029606,32.433542],[-91.026306,32.434442],[-91.016506,32.440342],[-91.004806,32.445741],[-90.998974,32.450165],[-90.993863,32.45085],[-90.983423,32.449077],[-90.978547,32.447032],[-90.9754996232987,32.4444660387316],[-90.974092,32.449656],[-90.97268,32.45154],[-90.97152,32.4524],[-90.96851,32.4521],[-90.963844,32.453319],[-90.964398,32.500137],[-90.964802,32.503664],[-90.964043,32.575605],[-91.0434509306581,32.576269553442096],[-91.049312,32.573624],[-91.069354,32.563052],[-91.0697862054881,32.562793318519]]]]}},{"type":"Feature","properties":{"zcta5":"39113","AFFGEOID10":"8600000US39113","GEOID10":"39113","ALAND10":28901983,"AWATER10":39920,"county_name":"Issaquena","state_code":"MS","county_state":"Issaquena County, MS","county_fips":"28055","risk_level_county":"Higher Risk (60–69% vaccinated)","mean_vaccination_rate_county":62.11,"risk_level_zcta":"Higher Risk (60–69% vaccinated)","mean_vaccination_rate_zips":68.12,"cases":0},"geometry":{"type":"Polygon","coordinates":[[[-91.052035,32.924051],[-91.055358,32.919828],[-91.053489,32.913569],[-91.055451,32.90211],[-91.056447,32.899828],[-91.054017,32.898044],[-91.053844,32.896433],[-91.05495,32.892392],[-91.056567,32.888593],[-91.058347,32.887366],[-91.059392,32.885714],[-91.05925,32.88548],[-91.058297,32.885097],[-91.052078,32.88485],[-91.051241,32.884349],[-91.050042,32.895862],[-91.046061,32.895006],[-91.037631,32.891472],[-91.034269,32.892575],[-91.031286,32.891644],[-91.03095,32.887369],[-91.030361,32.886232],[-91.029461,32.880072],[-91.0298,32.877516],[-91.027619,32.875836],[-91.013356,32.875928],[-91.010836,32.877178],[-91.008231,32.877439],[-91.0063,32.878417],[-91.005158,32.880316],[-91.003133,32.881461],[-91.000028,32.880777],[-90.997764,32.886058],[-90.997664,32.88865],[-90.999103,32.894478],[-91.001178,32.895359],[-91.002386,32.897564],[-91.0024,32.905175],[-91.003789,32.908675],[-91.004922,32.917392],[-91.004903,32.920896],[-91.00201,32.919911],[-91.001128,32.921944],[-90.999521,32.929617],[-90.983107,32.929785],[-90.983099,32.936366],[-90.986136,32.936947],[-90.98706,32.93761],[-90.98793,32.940221],[-90.989724,32.942442],[-90.993229,32.945211],[-90.997196,32.947477],[-91.000104,32.952877],[-91.00392,32.956173],[-91.007427,32.957937],[-91.008186,32.956339],[-91.008208,32.939011],[-91.010336,32.935964],[-91.01055,32.931427],[-91.01217,32.929504],[-91.033971,32.929271],[-91.033937,32.924042],[-91.052035,32.924051]]]}},{"type":"Feature","properties":{"zcta5":"38744","AFFGEOID10":"8600000US38744","GEOID10":"38744","ALAND10":156569159,"AWATER10":2655243,"county_name":"Issaquena","state_code":"MS","county_state":"Issaquena County, MS","county_fips":"28055","risk_level_county":"Higher Risk (60–69% vaccinated)","mean_vaccination_rate_county":62.11,"risk_level_zcta":"Very High Risk (<60% vaccinated)","mean_vaccination_rate_zips":55.74,"cases":0},"geometry":{"type":"Polygon","coordinates":[[[-91.1251665120153,33.0401104197566],[-91.125656,33.038276],[-91.129088,33.033554],[-91.137439,33.028736],[-91.142424,33.027231],[-91.149758,33.026312],[-91.15616,33.02358],[-91.162363,33.019684],[-91.166282,33.011331],[-91.146418,33.011073],[-91.147427,33.010312],[-91.146619,33.009318],[-91.148631,33.006404],[-91.147246,33.002395],[-91.145828,32.99949],[-91.144414,32.993383],[-91.14402,32.989936],[-91.1435,32.989207],[-91.140903,32.987892],[-91.136381,32.988228],[-91.127189,32.992044],[-91.103033,32.998122],[-91.0955,32.997956],[-91.088486,32.995347],[-91.074194,32.982978],[-91.073414,32.981628],[-91.066107,32.961185],[-91.066756,32.961872],[-91.069044,32.9613],[-91.070258,32.959878],[-91.070333,32.957194],[-91.068828,32.954338],[-91.069694,32.953358],[-91.070325,32.953677],[-91.077111,32.949272],[-91.080133,32.948517],[-91.081892,32.949435],[-91.0820105457502,32.9492832375715],[-91.080642,32.948518],[-91.07741,32.947581],[-91.074503,32.945839],[-91.07214,32.943872],[-91.071814,32.942177],[-91.069831,32.940344],[-91.066762,32.936314],[-91.064698,32.933038],[-91.062118,32.930495],[-91.062417,32.927152],[-91.061887,32.924107],[-91.052035,32.924051],[-91.033937,32.924042],[-91.033971,32.929271],[-91.03401,32.933161],[-91.030278,32.946692],[-91.034087,32.945707],[-91.034361,32.967387],[-91.034498,32.967686],[-91.044458,32.971839],[-91.048492,32.972991],[-91.051253,32.9742],[-91.064272,32.977814],[-91.068916,32.979553],[-91.070086,32.98325],[-91.068772,32.988444],[-91.064247,32.995886],[-91.064181,33.001964],[-91.062739,33.00295],[-91.060145,33.002966],[-91.060111,32.993994],[-91.053122,32.999442],[-91.051492,32.998466],[-91.049569,32.995508],[-91.047561,32.994431],[-91.045782,32.995188],[-91.042284,32.993996],[-91.040293,32.991267],[-91.038611,32.989849],[-91.036985,32.989527],[-91.03494,32.987737],[-91.02949,32.984771],[-91.026468,32.98122],[-91.025622,32.979135],[-91.016195,32.975398],[-91.009758,32.971502],[-91.008129,32.969989],[-90.993789,32.973106],[-90.98151,32.979615],[-90.9795,32.981814],[-90.976974,32.983829],[-90.974529,32.987105],[-90.974018,32.989123],[-90.974896,32.990295],[-90.972617,32.992452],[-90.973961,32.994447],[-90.97405,32.998213],[-90.973197,33.001171],[-90.974814,33.002428],[-90.9761,33.004514],[-90.980842,33.009551],[-90.984229,33.010602],[-90.965433,33.010545],[-90.965423,33.007919],[-90.914337,33.007697],[-90.91397,33.029724],[-90.917572,33.030738],[-90.919514,33.032136],[-90.921844,33.032742],[-90.922936,33.032503],[-90.929017,33.026761],[-90.930078,33.025139],[-90.930883,33.025357],[-90.930833,33.054037],[-90.957125,33.05433],[-90.958014,33.054903],[-90.962378,33.054522],[-90.963929,33.056145],[-90.976136,33.056067],[-90.962128,33.071708],[-90.943702,33.096885],[-90.931589,33.09733],[-90.931774,33.100932],[-90.939278,33.100844],[-90.94465,33.101433],[-90.948044,33.100975],[-90.948661,33.106522],[-90.949753,33.109881],[-90.952711,33.114953],[-90.953505,33.119661],[-90.956432,33.11696],[-90.952947,33.112769],[-90.95194,33.109884],[-90.950634,33.10835],[-90.949436,33.101616],[-90.949108,33.097254],[-90.950308,33.091952],[-90.951238,33.089519],[-90.95292,33.086993],[-90.956089,33.083745],[-90.956288,33.082214],[-90.958052,33.079801],[-90.960364,33.0754],[-90.963839,33.0766],[-90.972917,33.076507],[-90.97545,33.071083],[-90.976228,33.070086],[-90.982931,33.065002],[-90.984603,33.063392],[-90.991831,33.058161],[-91.002422,33.051869],[-91.009433,33.048233],[-91.010656,33.047872],[-91.015926,33.058225],[-91.020967,33.056703],[-91.022903,33.057614],[-91.027877,33.05615],[-91.025081,33.05068],[-91.023311,33.05066],[-91.022492,33.046303],[-91.03065,33.046121],[-91.029844,33.040483],[-91.030342,33.030558],[-91.031619,33.0272],[-91.033817,33.023483],[-91.039672,33.017913],[-91.042578,33.016042],[-91.040142,33.014389],[-91.040125,33.010758],[-91.046713,33.010714],[-91.054685,33.010317],[-91.054774,33.012918],[-91.053716,33.013688],[-91.050429,33.013604],[-91.049232,33.015687],[-91.049804,33.017887],[-91.047872,33.019467],[-91.048878,33.021825],[-91.045805,33.025261],[-91.044255,33.02826],[-91.042432,33.032747],[-91.043084,33.036757],[-91.042593,33.041725],[-91.044333,33.044109],[-91.046617,33.043674],[-91.048276,33.041269],[-91.049663,33.041338],[-91.048439,33.042277],[-91.048385,33.043467],[-91.045637,33.04846],[-91.044086,33.053545],[-91.045118,33.057209],[-91.048245,33.060554],[-91.049686,33.064424],[-91.051073,33.066761],[-91.051317,33.069463],[-91.050065,33.0745],[-91.05137,33.076974],[-91.05037,33.077616],[-91.051386,33.077958],[-91.060053,33.077764],[-91.065739,33.077782],[-91.067703,33.077525],[-91.069031,33.07395],[-91.074533,33.074619],[-91.075033,33.073497],[-91.077397,33.073172],[-91.085286,33.073039],[-91.081878,33.068275],[-91.080761,33.063981],[-91.080775,33.061994],[-91.08175,33.059519],[-91.083642,33.056692],[-91.086697,33.053106],[-91.089267,33.05125],[-91.093978,33.049528],[-91.096694,33.049231],[-91.099008,33.048527],[-91.104153,33.047828],[-91.108983,33.046132],[-91.119028,33.041564],[-91.120258,33.040422],[-91.1251665120153,33.0401104197566]],[[-91.040125,33.010758],[-91.002116,33.010693],[-91.002064,33.003314],[-91.008067,33.003467],[-91.015588,33.004604],[-91.020244,33.003342],[-91.040183,33.003507],[-91.040125,33.010758]]]}},{"type":"Feature","properties":{"zcta5":"38745","AFFGEOID10":"8600000US38745","GEOID10":"38745","ALAND10":49515960,"AWATER10":128566,"county_name":"Issaquena","state_code":"MS","county_state":"Issaquena County, MS","county_fips":"28055","risk_level_county":"Higher Risk (60–69% vaccinated)","mean_vaccination_rate_county":62.11,"risk_level_zcta":"Higher Risk (60–69% vaccinated)","mean_vaccination_rate_zips":62.4,"cases":0},"geometry":{"type":"Polygon","coordinates":[[[-90.914337,33.007697],[-90.965423,33.007919],[-90.965433,33.010545],[-90.984229,33.010602],[-90.980842,33.009551],[-90.9761,33.004514],[-90.974814,33.002428],[-90.973197,33.001171],[-90.97405,32.998213],[-90.973961,32.994447],[-90.972617,32.992452],[-90.974896,32.990295],[-90.974018,32.989123],[-90.974529,32.987105],[-90.976974,32.983829],[-90.9795,32.981814],[-90.98151,32.979615],[-90.993789,32.973106],[-91.008129,32.969989],[-91.009758,32.971502],[-91.016195,32.975398],[-91.025622,32.979135],[-91.026468,32.98122],[-91.02949,32.984771],[-91.03494,32.987737],[-91.036985,32.989527],[-91.038611,32.989849],[-91.040293,32.991267],[-91.042284,32.993996],[-91.045782,32.995188],[-91.047561,32.994431],[-91.049569,32.995508],[-91.051492,32.998466],[-91.053122,32.999442],[-91.060111,32.993994],[-91.060145,33.002966],[-91.062739,33.00295],[-91.064181,33.001964],[-91.064247,32.995886],[-91.068772,32.988444],[-91.070086,32.98325],[-91.068916,32.979553],[-91.064272,32.977814],[-91.051253,32.9742],[-91.048492,32.972991],[-91.044458,32.971839],[-91.034498,32.967686],[-91.034361,32.967387],[-91.034087,32.945707],[-91.030278,32.946692],[-91.03401,32.933161],[-91.033971,32.929271],[-91.01217,32.929504],[-91.01055,32.931427],[-91.010336,32.935964],[-91.008208,32.939011],[-91.008186,32.956339],[-91.007427,32.957937],[-91.006244,32.959522],[-90.999833,32.964957],[-90.989028,32.970202],[-90.987564,32.971277],[-90.976938,32.965221],[-90.974743,32.969454],[-90.966119,32.966406],[-90.966156,32.971989],[-90.94135,32.972183],[-90.931842,32.961416],[-90.927463,32.958745],[-90.924021,32.958154],[-90.921724,32.95707],[-90.920864,32.958736],[-90.919431,32.958364],[-90.916271,32.955083],[-90.914306,32.954999],[-90.914803,32.978564],[-90.914311,33.003597],[-90.914337,33.007697]]]}},{"type":"Feature","properties":{"zcta5":"39177","AFFGEOID10":"8600000US39177","GEOID10":"39177","ALAND10":144710747,"AWATER10":3905123,"county_name":"Issaquena","state_code":"MS","county_state":"Issaquena County, MS","county_fips":"28055","risk_level_county":"Higher Risk (60–69% vaccinated)","mean_vaccination_rate_county":62.11,"risk_level_zcta":"Higher Risk (60–69% vaccinated)","mean_vaccination_rate_zips":60.05,"cases":0},"geometry":{"type":"Polygon","coordinates":[[[-90.958477,32.652709],[-90.961431,32.650533],[-90.962386,32.648786],[-90.883608,32.648272],[-90.883153,32.651178],[-90.881442,32.652772],[-90.879744,32.652825],[-90.874856,32.647433],[-90.874903,32.633708],[-90.870544,32.633716],[-90.870499,32.627097],[-90.871345,32.624692],[-90.870867,32.616968],[-90.871569,32.612522],[-90.870616,32.610248],[-90.870578,32.597422],[-90.861742,32.59715],[-90.856302,32.598035],[-90.855154,32.593182],[-90.853451,32.592669],[-90.853758,32.590964],[-90.853004,32.58826],[-90.841265,32.575293],[-90.829297,32.57526],[-90.824894,32.575411],[-90.82288,32.575144],[-90.768081,32.574751],[-90.766582,32.5764],[-90.762783,32.577419],[-90.760485,32.577157],[-90.75874,32.576425],[-90.756075,32.573081],[-90.753654,32.571412],[-90.7501,32.570552],[-90.748141,32.570435],[-90.742561,32.571975],[-90.73952,32.571773],[-90.733457,32.566403],[-90.729847,32.565686],[-90.728344,32.566265],[-90.727044,32.567813],[-90.726262,32.569893],[-90.725577,32.575792],[-90.725864,32.577666],[-90.729727,32.581159],[-90.730804,32.582527],[-90.731731,32.585669],[-90.731699,32.587276],[-90.729924,32.58896],[-90.725965,32.589821],[-90.723197,32.59131],[-90.722726,32.592118],[-90.722042,32.598115],[-90.719924,32.602649],[-90.716399,32.611578],[-90.716326,32.612751],[-90.716848,32.614154],[-90.720102,32.618858],[-90.721086,32.621229],[-90.720703,32.624043],[-90.719436,32.62442],[-90.715308,32.623638],[-90.710275,32.624204],[-90.707745,32.625856],[-90.706277,32.626154],[-90.702619,32.623845],[-90.700279,32.623657],[-90.697563,32.625135],[-90.692295,32.632696],[-90.691405,32.636284],[-90.691871,32.638299],[-90.693011,32.640113],[-90.69475,32.641125],[-90.698313,32.641973],[-90.706956,32.641593],[-90.712819,32.642346],[-90.716536,32.644267],[-90.718903,32.646554],[-90.720507,32.651055],[-90.723269,32.653779],[-90.724601,32.657339],[-90.724151,32.660325],[-90.723159,32.662128],[-90.758863,32.662176],[-90.856111,32.662248],[-90.856136,32.660653],[-90.857069,32.656747],[-90.859139,32.654882],[-90.860878,32.654308],[-90.862483,32.65448],[-90.865833,32.656132],[-90.86795,32.65618],[-90.869676,32.65392],[-90.87295,32.662263],[-90.939247,32.662547],[-90.952135,32.66263],[-90.955861,32.662661],[-90.95598,32.662125],[-90.956166,32.657317],[-90.957463,32.654012],[-90.958477,32.652709]]]}}]}