{"type":"FeatureCollection","features":[{"type":"Feature","properties":{"zcta5":"39565","AFFGEOID10":"8600000US39565","GEOID10":"39565","ALAND10":722425237,"AWATER10":7263746,"county_name":"Jackson","state_code":"MS","county_state":"Jackson County, MS","county_fips":"28059","risk_level_county":"Higher Risk (60–69% vaccinated)","mean_vaccination_rate_county":60.84,"risk_level_zcta":"Higher Risk (60–69% vaccinated)","mean_vaccination_rate_zips":69.3,"cases":0},"geometry":{"type":"Polygon","coordinates":[[[-88.884417,30.65155],[-88.883775,30.533207],[-88.884912,30.532629],[-88.884934,30.527994],[-88.886048,30.525667],[-88.885987,30.523891],[-88.887567,30.522917],[-88.885995,30.522016],[-88.886102,30.520388],[-88.885484,30.518816],[-88.886033,30.518089],[-88.888047,30.518028],[-88.887696,30.517237],[-88.885606,30.517099],[-88.885781,30.516247],[-88.887951,30.514767],[-88.888435,30.512835],[-88.88978,30.511069],[-88.886376,30.509161],[-88.883623,30.513713],[-88.883375,30.488077],[-88.874411,30.48806],[-88.871689,30.486039],[-88.875156,30.479381],[-88.861942,30.479429],[-88.85866,30.480297],[-88.858661,30.479451],[-88.851688,30.479476],[-88.851583,30.47947],[-88.851104,30.479966],[-88.850694,30.479287],[-88.849774,30.475934],[-88.849135,30.472446],[-88.862615,30.471833],[-88.862704,30.469029],[-88.859084,30.468917],[-88.858992,30.465933],[-88.853799,30.465814],[-88.853829,30.464872],[-88.84664,30.464951],[-88.843648,30.458514],[-88.842971,30.454062],[-88.842762,30.454064],[-88.811864,30.454273],[-88.809586,30.454408],[-88.800172,30.456304],[-88.790013,30.458455],[-88.785151,30.458953],[-88.781754,30.458627],[-88.778856,30.457888],[-88.747715,30.447075],[-88.743616,30.446217],[-88.740458,30.446126],[-88.734843,30.446428],[-88.729646,30.445627],[-88.699179,30.435131],[-88.693881,30.433225],[-88.688524,30.432073],[-88.684482,30.432141],[-88.665105,30.434156],[-88.656183,30.435085],[-88.655974,30.435106],[-88.6571,30.437511],[-88.657509,30.4386],[-88.6576,30.43894],[-88.658092,30.441669],[-88.661606,30.445779],[-88.664256,30.446873],[-88.666685,30.448779],[-88.66339,30.449789],[-88.663117,30.451433],[-88.660213,30.451106],[-88.656265,30.452032],[-88.653268,30.453757],[-88.653166,30.455189],[-88.652803,30.456087],[-88.65026,30.457538],[-88.649727,30.458855],[-88.650068,30.459304],[-88.65001,30.461161],[-88.648958,30.464097],[-88.648274,30.464943],[-88.648181,30.471716],[-88.65619,30.471205],[-88.664492,30.471812],[-88.664478,30.467998],[-88.66731,30.469062],[-88.668619,30.468451],[-88.672228,30.46849],[-88.675407,30.467281],[-88.676739,30.460429],[-88.681901,30.463575],[-88.679836,30.464232],[-88.678934,30.465618],[-88.679956,30.465832],[-88.681086,30.468027],[-88.682121,30.476479],[-88.680794,30.475924],[-88.678305,30.476782],[-88.676255,30.4766],[-88.674318,30.478789],[-88.673219,30.478635],[-88.670642,30.477936],[-88.667315,30.478255],[-88.667797,30.477067],[-88.666979,30.476129],[-88.663088,30.477614],[-88.661742,30.477228],[-88.66322,30.475465],[-88.662901,30.474615],[-88.660835,30.473512],[-88.658411,30.473929],[-88.656465,30.473162],[-88.654412,30.473626],[-88.651496,30.473367],[-88.648345,30.478832],[-88.639967,30.483051],[-88.639573,30.484053],[-88.63656,30.48569],[-88.633145,30.486112],[-88.629966,30.483838],[-88.627858,30.482917],[-88.626412,30.480842],[-88.628535,30.478249],[-88.628327,30.475533],[-88.62723,30.47387],[-88.624949,30.473196],[-88.622909,30.47194],[-88.622096,30.47034],[-88.623428,30.46796],[-88.623303,30.466339],[-88.62134,30.462982],[-88.618381,30.461047],[-88.617859,30.460068],[-88.618233,30.457817],[-88.619221,30.456118],[-88.614481,30.455929],[-88.61286,30.456682],[-88.611809,30.459052],[-88.614329,30.463971],[-88.613348,30.465209],[-88.611773,30.465007],[-88.610464,30.463568],[-88.610883,30.460796],[-88.60931,30.459566],[-88.607297,30.459805],[-88.604218,30.462755],[-88.603271,30.465103],[-88.60373,30.468212],[-88.603556,30.471122],[-88.60415,30.47264],[-88.607024,30.473323],[-88.608298,30.47414],[-88.606519,30.476772],[-88.605675,30.478803],[-88.606144,30.479716],[-88.609698,30.480155],[-88.610043,30.481295],[-88.607342,30.483419],[-88.607001,30.484629],[-88.606945,30.488254],[-88.604808,30.492186],[-88.604848,30.494351],[-88.607136,30.497708],[-88.609147,30.49808],[-88.609713,30.497224],[-88.609817,30.494047],[-88.61422,30.48902],[-88.61574,30.488991],[-88.616278,30.490682],[-88.613652,30.492772],[-88.612103,30.494731],[-88.611431,30.497417],[-88.613263,30.502266],[-88.61397,30.503451],[-88.615613,30.504384],[-88.617585,30.504153],[-88.61881,30.504675],[-88.617328,30.507287],[-88.618345,30.510098],[-88.616647,30.512641],[-88.616602,30.514035],[-88.617586,30.515772],[-88.616943,30.516845],[-88.614158,30.51779],[-88.613651,30.515908],[-88.612349,30.515483],[-88.610873,30.518148],[-88.609473,30.518552],[-88.607423,30.51823],[-88.605028,30.516602],[-88.602714,30.516],[-88.601403,30.516692],[-88.597934,30.51951],[-88.594539,30.520353],[-88.592185,30.521413],[-88.590555,30.523527],[-88.591472,30.52802],[-88.589681,30.530396],[-88.587838,30.531699],[-88.58497,30.532401],[-88.585852,30.533809],[-88.588731,30.533626],[-88.591553,30.532734],[-88.592411,30.533152],[-88.59239,30.533901],[-88.588024,30.538999],[-88.587804,30.541185],[-88.592114,30.541968],[-88.593088,30.542691],[-88.593607,30.544834],[-88.592684,30.545674],[-88.587885,30.545859],[-88.585639,30.547155],[-88.584626,30.551063],[-88.583428,30.55273],[-88.580596,30.553832],[-88.577829,30.554011],[-88.576474,30.555292],[-88.580778,30.556422],[-88.583315,30.557808],[-88.584982,30.559921],[-88.585358,30.562383],[-88.584963,30.564637],[-88.582454,30.569024],[-88.579851,30.57438],[-88.580232,30.576129],[-88.584247,30.577346],[-88.584455,30.578304],[-88.582927,30.5784],[-88.579949,30.579325],[-88.578215,30.581122],[-88.575481,30.582628],[-88.571797,30.582477],[-88.570906,30.582845],[-88.570993,30.584286],[-88.574686,30.586592],[-88.576576,30.591026],[-88.582527,30.597413],[-88.584106,30.598088],[-88.587381,30.597594],[-88.588537,30.596659],[-88.588343,30.594476],[-88.585366,30.59212],[-88.585128,30.59041],[-88.585853,30.590343],[-88.589932,30.592594],[-88.592995,30.593113],[-88.595399,30.593901],[-88.597163,30.593667],[-88.600149,30.594019],[-88.60263,30.595142],[-88.604491,30.595125],[-88.605635,30.594136],[-88.605596,30.593063],[-88.603959,30.59145],[-88.604956,30.589476],[-88.606371,30.589157],[-88.610908,30.590632],[-88.613146,30.589843],[-88.615017,30.588352],[-88.617208,30.587229],[-88.618914,30.58557],[-88.620949,30.585486],[-88.621854,30.586405],[-88.621511,30.588554],[-88.617083,30.59123],[-88.613513,30.592343],[-88.612129,30.593734],[-88.61209,30.595628],[-88.613583,30.59712],[-88.614901,30.596701],[-88.618087,30.594359],[-88.622112,30.595074],[-88.62409,30.594723],[-88.626086,30.593315],[-88.627657,30.592828],[-88.629294,30.594091],[-88.629605,30.598609],[-88.630236,30.600204],[-88.631531,30.600642],[-88.634654,30.598344],[-88.637834,30.597569],[-88.640132,30.598585],[-88.640115,30.599834],[-88.638416,30.601373],[-88.63735,30.603136],[-88.637374,30.605367],[-88.638257,30.607209],[-88.639702,30.608553],[-88.641144,30.610749],[-88.641758,30.610477],[-88.642842,30.612957],[-88.6416,30.617603],[-88.642763,30.620678],[-88.645598,30.623225],[-88.646449,30.624897],[-88.646597,30.627128],[-88.647989,30.629108],[-88.651206,30.630671],[-88.652382,30.631986],[-88.653602,30.634433],[-88.653309,30.63633],[-88.652056,30.637721],[-88.650867,30.636737],[-88.652769,30.635571],[-88.65177,30.635098],[-88.651987,30.633844],[-88.650346,30.635642],[-88.648843,30.639612],[-88.644993,30.64533],[-88.644617,30.647706],[-88.645089,30.650503],[-88.644488,30.651615],[-88.642058,30.652484],[-88.639114,30.65113],[-88.636684,30.65114],[-88.63599,30.651646],[-88.635366,30.653718],[-88.634169,30.654779],[-88.632859,30.654685],[-88.632173,30.653712],[-88.631895,30.650495],[-88.630877,30.649939],[-88.629211,30.650262],[-88.628351,30.651197],[-88.628185,30.652759],[-88.628801,30.655014],[-88.628609,30.656823],[-88.629377,30.658676],[-88.633995,30.659905],[-88.637347,30.66127],[-88.638014,30.662183],[-88.638064,30.664162],[-88.635652,30.666867],[-88.634608,30.667004],[-88.630048,30.666018],[-88.628711,30.666771],[-88.629652,30.668625],[-88.632724,30.669363],[-88.637069,30.669711],[-88.637972,30.670267],[-88.637577,30.671685],[-88.634777,30.673031],[-88.633727,30.674125],[-88.632496,30.679206],[-88.632151,30.682649],[-88.633384,30.685228],[-88.634304,30.689419],[-88.636607,30.692065],[-88.637089,30.694166],[-88.635917,30.696057],[-88.634319,30.697602],[-88.635349,30.699675],[-88.639721,30.699594],[-88.641732,30.700541],[-88.644378,30.704369],[-88.646459,30.705436],[-88.647534,30.706663],[-88.647463,30.708373],[-88.643039,30.711386],[-88.642287,30.713332],[-88.642624,30.714173],[-88.644322,30.716346],[-88.64693,30.720818],[-88.648299,30.720477],[-88.649967,30.717887],[-88.652781,30.717058],[-88.654398,30.717812],[-88.655225,30.719582],[-88.653823,30.724262],[-88.65379,30.727974],[-88.655133,30.728755],[-88.660162,30.727244],[-88.665242,30.72824],[-88.666394,30.728053],[-88.665808,30.730709],[-88.665637,30.7318],[-88.663147,30.732892],[-88.661054,30.734722],[-88.733333,30.734781],[-88.740256,30.734638],[-88.739168,30.730641],[-88.737291,30.726291],[-88.737291,30.723761],[-88.737905,30.721927],[-88.740584,30.716785],[-88.742396,30.7168],[-88.745821,30.717745],[-88.74946,30.721117],[-88.752204,30.721851],[-88.754914,30.72358],[-88.761762,30.72353],[-88.76502,30.723755],[-88.765617,30.722067],[-88.767873,30.720441],[-88.767953,30.71957],[-88.769067,30.719273],[-88.770392,30.720236],[-88.771984,30.718632],[-88.772753,30.719572],[-88.775484,30.720122],[-88.773947,30.718083],[-88.780126,30.714923],[-88.778775,30.713113],[-88.779491,30.712724],[-88.780393,30.710158],[-88.782223,30.709837],[-88.783098,30.70876],[-88.782197,30.70695],[-88.783576,30.705049],[-88.787525,30.703353],[-88.788214,30.701977],[-88.790124,30.701566],[-88.7923,30.70033],[-88.793467,30.699001],[-88.79246,30.698153],[-88.793971,30.698108],[-88.796544,30.699666],[-88.799699,30.699598],[-88.801952,30.698635],[-88.804286,30.700216],[-88.806141,30.700744],[-88.806963,30.702439],[-88.809297,30.702256],[-88.811471,30.703447],[-88.812849,30.702874],[-88.816535,30.703791],[-88.816854,30.704799],[-88.819188,30.706586],[-88.819825,30.710183],[-88.820673,30.711053],[-88.821363,30.713849],[-88.823776,30.71614],[-88.833159,30.705693],[-88.832888,30.694245],[-88.834139,30.694623],[-88.833994,30.702192],[-88.834065,30.70463],[-88.865554,30.668305],[-88.88305,30.652616],[-88.884417,30.65155]]]}},{"type":"Feature","properties":{"zcta5":"39562","AFFGEOID10":"8600000US39562","GEOID10":"39562","ALAND10":486804735,"AWATER10":11112081,"county_name":"Jackson","state_code":"MS","county_state":"Jackson County, MS","county_fips":"28059","risk_level_county":"Higher Risk (60–69% vaccinated)","mean_vaccination_rate_county":60.84,"risk_level_zcta":"Higher Risk (60–69% vaccinated)","mean_vaccination_rate_zips":69.77,"cases":0},"geometry":{"type":"Polygon","coordinates":[[[-88.641144,30.610749],[-88.639702,30.608553],[-88.638257,30.607209],[-88.637374,30.605367],[-88.63735,30.603136],[-88.638416,30.601373],[-88.640115,30.599834],[-88.640132,30.598585],[-88.637834,30.597569],[-88.634654,30.598344],[-88.631531,30.600642],[-88.630236,30.600204],[-88.629605,30.598609],[-88.629294,30.594091],[-88.627657,30.592828],[-88.626086,30.593315],[-88.62409,30.594723],[-88.622112,30.595074],[-88.618087,30.594359],[-88.614901,30.596701],[-88.613583,30.59712],[-88.61209,30.595628],[-88.612129,30.593734],[-88.613513,30.592343],[-88.617083,30.59123],[-88.621511,30.588554],[-88.621854,30.586405],[-88.620949,30.585486],[-88.618914,30.58557],[-88.617208,30.587229],[-88.615017,30.588352],[-88.613146,30.589843],[-88.610908,30.590632],[-88.606371,30.589157],[-88.604956,30.589476],[-88.603959,30.59145],[-88.605596,30.593063],[-88.605635,30.594136],[-88.604491,30.595125],[-88.60263,30.595142],[-88.600149,30.594019],[-88.597163,30.593667],[-88.595399,30.593901],[-88.592995,30.593113],[-88.589932,30.592594],[-88.585853,30.590343],[-88.585128,30.59041],[-88.585366,30.59212],[-88.588343,30.594476],[-88.588537,30.596659],[-88.587381,30.597594],[-88.584106,30.598088],[-88.582527,30.597413],[-88.576576,30.591026],[-88.574686,30.586592],[-88.570993,30.584286],[-88.570906,30.582845],[-88.571797,30.582477],[-88.575481,30.582628],[-88.578215,30.581122],[-88.579949,30.579325],[-88.582927,30.5784],[-88.584455,30.578304],[-88.584247,30.577346],[-88.580232,30.576129],[-88.579851,30.57438],[-88.582454,30.569024],[-88.584963,30.564637],[-88.585358,30.562383],[-88.584982,30.559921],[-88.583315,30.557808],[-88.580778,30.556422],[-88.576474,30.555292],[-88.577829,30.554011],[-88.580596,30.553832],[-88.583428,30.55273],[-88.584626,30.551063],[-88.585639,30.547155],[-88.587885,30.545859],[-88.592684,30.545674],[-88.593607,30.544834],[-88.593088,30.542691],[-88.592114,30.541968],[-88.587804,30.541185],[-88.588024,30.538999],[-88.59239,30.533901],[-88.592411,30.533152],[-88.591553,30.532734],[-88.588731,30.533626],[-88.585852,30.533809],[-88.58497,30.532401],[-88.587838,30.531699],[-88.589681,30.530396],[-88.591472,30.52802],[-88.590555,30.523527],[-88.592185,30.521413],[-88.594539,30.520353],[-88.597934,30.51951],[-88.601403,30.516692],[-88.602714,30.516],[-88.60318,30.514545],[-88.599603,30.513856],[-88.596189,30.515095],[-88.593747,30.518286],[-88.591216,30.516144],[-88.590989,30.515259],[-88.592515,30.511458],[-88.591813,30.509789],[-88.59074,30.509339],[-88.586694,30.509862],[-88.586011,30.509357],[-88.585674,30.506881],[-88.586387,30.505876],[-88.589828,30.504636],[-88.58731,30.503451],[-88.58587,30.503339],[-88.584289,30.502419],[-88.583551,30.499756],[-88.579692,30.498204],[-88.577205,30.498581],[-88.576898,30.497442],[-88.578253,30.496103],[-88.577317,30.495611],[-88.572056,30.496775],[-88.569847,30.497697],[-88.567725,30.497413],[-88.566302,30.495457],[-88.564435,30.494566],[-88.564962,30.490756],[-88.564357,30.488944],[-88.562539,30.48732],[-88.561776,30.485807],[-88.563085,30.481756],[-88.563377,30.479941],[-88.562642,30.47737],[-88.561632,30.476192],[-88.558525,30.474098],[-88.557341,30.471432],[-88.557673,30.470143],[-88.559713,30.466194],[-88.559944,30.463115],[-88.561112,30.460389],[-88.56121,30.458134],[-88.560038,30.456088],[-88.559763,30.453752],[-88.560988,30.451844],[-88.55957,30.451921],[-88.557494,30.451293],[-88.554517,30.452928],[-88.550346,30.457162],[-88.545714,30.458347],[-88.545597,30.458342],[-88.544481,30.458298],[-88.542124,30.458307],[-88.534303,30.458314],[-88.533037,30.45832],[-88.535546,30.47276],[-88.514824,30.472741],[-88.514927,30.46493],[-88.524495,30.465062],[-88.524528,30.463759],[-88.52242,30.454547],[-88.522829,30.451901],[-88.525209,30.450048],[-88.530621,30.448323],[-88.530874,30.447551],[-88.528522,30.441714],[-88.527353,30.442172],[-88.499625,30.454222],[-88.495087,30.455668],[-88.490911,30.456194],[-88.474474,30.456968],[-88.474397,30.455211],[-88.47545,30.454296],[-88.476076,30.451004],[-88.4787,30.449336],[-88.480028,30.447582],[-88.479112,30.447135],[-88.47957,30.445682],[-88.480623,30.445518],[-88.479788,30.44284],[-88.477632,30.442527],[-88.480714,30.438175],[-88.481584,30.437828],[-88.48192,30.434127],[-88.482622,30.432582],[-88.485719,30.432548],[-88.486482,30.431304],[-88.483963,30.428268],[-88.479076,30.428427],[-88.479716,30.420881],[-88.479706,30.413569],[-88.479141,30.413582],[-88.479115,30.410387],[-88.479082,30.410223],[-88.478186,30.409085],[-88.482092,30.40639],[-88.488587,30.401824],[-88.501201,30.393834],[-88.507168,30.390039],[-88.501298,30.393464],[-88.500687,30.384014],[-88.492723,30.384232],[-88.494202,30.387408],[-88.494499,30.3967],[-88.49307,30.398717],[-88.479375,30.398878],[-88.479272,30.384273],[-88.44667,30.384301],[-88.445764,30.384292],[-88.445601,30.365683],[-88.44618,30.363085],[-88.443934,30.362237],[-88.442032,30.364185],[-88.442586,30.361229],[-88.440578,30.361458],[-88.439495,30.364414],[-88.437112,30.366684],[-88.437709,30.36815],[-88.432702,30.366958],[-88.429663,30.36854],[-88.428897,30.369525],[-88.428712,30.371908],[-88.427549,30.372756],[-88.428801,30.376023],[-88.427337,30.373352],[-88.424219,30.373925],[-88.423822,30.372893],[-88.422342,30.372802],[-88.420149,30.369639],[-88.419859,30.36847],[-88.417745,30.366614],[-88.416027,30.366614],[-88.417269,30.365972],[-88.418247,30.363566],[-88.421154,30.362833],[-88.423268,30.363635],[-88.424404,30.364987],[-88.425541,30.365102],[-88.425488,30.363658],[-88.424405,30.362673],[-88.421789,30.36171],[-88.419305,30.359899],[-88.416953,30.361526],[-88.415843,30.363474],[-88.414653,30.363726],[-88.412379,30.365582],[-88.410133,30.368584],[-88.409868,30.369981],[-88.408573,30.37076],[-88.406485,30.370416],[-88.405427,30.373189],[-88.40326,30.373486],[-88.405774,30.376015],[-88.407041,30.375454],[-88.406028,30.374493],[-88.407897,30.373977],[-88.411119,30.374364],[-88.412001,30.376069],[-88.410979,30.377129],[-88.411101,30.380337],[-88.413664,30.379498],[-88.414625,30.380467],[-88.412855,30.380734],[-88.412001,30.383637],[-88.408598,30.384026],[-88.410124,30.387101],[-88.40785,30.386576],[-88.405975,30.387317],[-88.403595,30.38702],[-88.402786,30.38566],[-88.401016,30.384918],[-88.398542,30.382684],[-88.398237,30.381838],[-88.39563359960118,30.3813196652612],[-88.3958946504388,30.3864050146845],[-88.402283,30.510852],[-88.403547,30.5331],[-88.403931,30.543359],[-88.404013,30.54506],[-88.4060104917735,30.589761],[-88.407484,30.622736],[-88.407462,30.631653],[-88.408066668182,30.636940863032798],[-88.40807,30.63697],[-88.4095617223648,30.668534686228398],[-88.411897,30.668349],[-88.411907,30.661379],[-88.411649,30.659226],[-88.41198,30.653889],[-88.412087,30.635192],[-88.420098,30.632045],[-88.425113,30.629808],[-88.428434,30.629152],[-88.433684,30.629243],[-88.434571,30.630969],[-88.434597,30.632734],[-88.43624,30.632711],[-88.435286,30.633902],[-88.43677,30.634498],[-88.435737,30.635186],[-88.437619,30.638554],[-88.439341,30.639035],[-88.43966,30.639975],[-88.437884,30.6419],[-88.438441,30.642656],[-88.440296,30.642496],[-88.439713,30.644306],[-88.44223,30.646781],[-88.442151,30.648591],[-88.443556,30.649714],[-88.44337,30.651134],[-88.445332,30.654571],[-88.443583,30.65464],[-88.443689,30.65629],[-88.442629,30.6592],[-88.44345,30.659269],[-88.441754,30.661171],[-88.44353,30.662271],[-88.444697,30.664768],[-88.445837,30.66486],[-88.446473,30.668183],[-88.447984,30.668022],[-88.448355,30.67068],[-88.447401,30.671574],[-88.448038,30.672674],[-88.449708,30.671207],[-88.450529,30.671413],[-88.450185,30.673293],[-88.45236,30.675515],[-88.450505,30.678013],[-88.452122,30.680007],[-88.452759,30.682229],[-88.451884,30.682894],[-88.451938,30.686468],[-88.451092,30.689493],[-88.452021,30.692059],[-88.455655,30.69309],[-88.458004,30.692408],[-88.455677,30.684426],[-88.479135,30.675987],[-88.479289,30.678397],[-88.480087,30.678881],[-88.490748,30.678804],[-88.491548,30.678329],[-88.49558,30.677955],[-88.496148,30.679451],[-88.496045,30.694914],[-88.506364,30.68809],[-88.505881,30.680075],[-88.504116,30.676805],[-88.52148,30.676744],[-88.521747,30.677744],[-88.535306,30.668445],[-88.536861,30.670481],[-88.537929,30.672951],[-88.533036,30.674006],[-88.532947,30.676514],[-88.534632,30.677355],[-88.536102,30.680177],[-88.537838,30.68137],[-88.539321,30.6812],[-88.542108,30.679947],[-88.545372,30.680255],[-88.546753,30.682246],[-88.548744,30.683533],[-88.550716,30.686321],[-88.552943,30.687377],[-88.557608,30.687834],[-88.559396,30.690039],[-88.561108,30.690441],[-88.563246,30.690039],[-88.567248,30.691502],[-88.572873,30.689621],[-88.574464,30.688647],[-88.576663,30.688753],[-88.577604,30.695958],[-88.578772,30.688179],[-88.581151,30.686584],[-88.584314,30.685324],[-88.585083,30.684042],[-88.583505,30.683993],[-88.586202,30.68137],[-88.586932,30.675249],[-88.585838,30.675469],[-88.584921,30.673533],[-88.588178,30.669507],[-88.591,30.6636],[-88.590885,30.659806],[-88.591743,30.657754],[-88.594802,30.657132],[-88.595673,30.656186],[-88.594521,30.653888],[-88.594947,30.651853],[-88.598152,30.651176],[-88.59901,30.649982],[-88.60067,30.649415],[-88.601585,30.647122],[-88.600827,30.644114],[-88.603663,30.642227],[-88.603682,30.64111],[-88.602301,30.641133],[-88.602803,30.639967],[-88.601735,30.639065],[-88.600196,30.640149],[-88.599571,30.636794],[-88.600417,30.635507],[-88.600613,30.632659],[-88.599644,30.633244],[-88.602308,30.629851],[-88.603929,30.628601],[-88.609344,30.626099],[-88.61163,30.624029],[-88.615085,30.622426],[-88.616911,30.621177],[-88.619142,30.618238],[-88.623034,30.614962],[-88.626198,30.613941],[-88.630167,30.614942],[-88.632831,30.614422],[-88.641144,30.610749]]]}},{"type":"Feature","properties":{"zcta5":"39452","AFFGEOID10":"8600000US39452","GEOID10":"39452","ALAND10":1461650779,"AWATER10":16046335,"county_name":"Jackson","state_code":"MS","county_state":"Jackson County, MS","county_fips":"28059","risk_level_county":"Higher Risk (60–69% vaccinated)","mean_vaccination_rate_county":60.84,"risk_level_zcta":"Higher Risk (60–69% vaccinated)","mean_vaccination_rate_zips":67.65,"cases":0},"geometry":{"type":"Polygon","coordinates":[[[-88.874153,30.909918],[-88.875085,30.910674],[-88.885038,30.910788],[-88.884668,30.840463],[-88.882683,30.839136],[-88.881954,30.837233],[-88.880202,30.837009],[-88.879404,30.837852],[-88.880226,30.839924],[-88.879409,30.840085],[-88.877098,30.839364],[-88.876291,30.838618],[-88.876333,30.836671],[-88.875401,30.834229],[-88.87317,30.832889],[-88.872578,30.831474],[-88.870611,30.831424],[-88.869029,30.830702],[-88.865688,30.832049],[-88.865729,30.829118],[-88.867898,30.828867],[-88.867864,30.828159],[-88.864079,30.827928],[-88.8612,30.826468],[-88.856473,30.825382],[-88.856176,30.827127],[-88.855425,30.827617],[-88.852909,30.827263],[-88.852262,30.828794],[-88.850847,30.829791],[-88.849024,30.830009],[-88.850274,30.831694],[-88.847704,30.83363],[-88.846839,30.833057],[-88.844794,30.83436],[-88.842786,30.833571],[-88.843381,30.832589],[-88.841061,30.832457],[-88.840499,30.830981],[-88.840645,30.82883],[-88.839358,30.828032],[-88.838189,30.828451],[-88.839011,30.8298],[-88.835907,30.829735],[-88.834902,30.830273],[-88.834299,30.831791],[-88.833451,30.831914],[-88.832375,30.83047],[-88.830993,30.830294],[-88.82875,30.8292],[-88.827486,30.82952],[-88.827529,30.828828],[-88.829928,30.826781],[-88.830267,30.825689],[-88.827401,30.826604],[-88.826406,30.824728],[-88.82305,30.823613],[-88.82264,30.824216],[-88.823552,30.825932],[-88.822538,30.827381],[-88.819405,30.825865],[-88.817503,30.828523],[-88.815252,30.828527],[-88.816006,30.827641],[-88.815575,30.826556],[-88.811766,30.825189],[-88.810203,30.823722],[-88.807621,30.824474],[-88.806467,30.827808],[-88.803506,30.829617],[-88.800863,30.829155],[-88.798661,30.8271],[-88.80016,30.82705],[-88.801704,30.82608],[-88.8,30.825285],[-88.798439,30.823887],[-88.796975,30.824374],[-88.794628,30.822485],[-88.793638,30.822376],[-88.791911,30.819023],[-88.791518,30.816829],[-88.789888,30.816816],[-88.78767,30.81552],[-88.78654,30.81415],[-88.786485,30.812763],[-88.784817,30.812917],[-88.784306,30.810093],[-88.785208,30.808368],[-88.786049,30.809355],[-88.787563,30.80781],[-88.787263,30.807026],[-88.784067,30.806213],[-88.784899,30.804577],[-88.78389,30.803959],[-88.782117,30.804717],[-88.780981,30.80335],[-88.780341,30.804611],[-88.779221,30.804731],[-88.775752,30.804113],[-88.776222,30.80202],[-88.774382,30.801108],[-88.772919,30.799075],[-88.775643,30.797477],[-88.775684,30.795858],[-88.774464,30.793883],[-88.775469,30.793076],[-88.775493,30.790738],[-88.773011,30.790885],[-88.773042,30.789462],[-88.772081,30.788048],[-88.772448,30.78688],[-88.770181,30.785799],[-88.763982,30.785597],[-88.761645,30.788219],[-88.74753,30.81207],[-88.744868,30.814684],[-88.743254,30.811676],[-88.742527,30.805933],[-88.741729,30.804497],[-88.738189,30.802417],[-88.735949,30.801967],[-88.732848,30.801919],[-88.729746,30.802629],[-88.727599,30.802301],[-88.726682,30.800469],[-88.727167,30.797911],[-88.729186,30.796899],[-88.732112,30.797463],[-88.735603,30.798805],[-88.737037,30.797323],[-88.734952,30.795399],[-88.731501,30.794665],[-88.725852,30.794255],[-88.722932,30.795732],[-88.720253,30.795418],[-88.717512,30.792155],[-88.713572,30.791766],[-88.712554,30.792078],[-88.711051,30.793809],[-88.709561,30.796686],[-88.706869,30.796955],[-88.703749,30.795405],[-88.69865,30.795358],[-88.697652,30.79492],[-88.696713,30.794039],[-88.695674,30.789969],[-88.694014,30.787579],[-88.690589,30.785111],[-88.688068,30.78077],[-88.68575,30.779465],[-88.681296,30.779187],[-88.678772,30.777817],[-88.678902,30.775652],[-88.682971,30.77097],[-88.68375,30.769717],[-88.683618,30.767882],[-88.680794,30.766874],[-88.675096,30.767703],[-88.670747,30.767416],[-88.668669,30.7667],[-88.66655,30.764631],[-88.666408,30.762811],[-88.668447,30.757555],[-88.667422,30.755095],[-88.665997,30.754221],[-88.663731,30.753649],[-88.659886,30.753523],[-88.659068,30.75282],[-88.659525,30.749651],[-88.659099,30.745539],[-88.659615,30.743702],[-88.661724,30.740398],[-88.661486,30.738145],[-88.660244,30.736107],[-88.660189,30.734722],[-88.661054,30.734722],[-88.663147,30.732892],[-88.665637,30.7318],[-88.665808,30.730709],[-88.666394,30.728053],[-88.665242,30.72824],[-88.660162,30.727244],[-88.655133,30.728755],[-88.65379,30.727974],[-88.653823,30.724262],[-88.655225,30.719582],[-88.654398,30.717812],[-88.652781,30.717058],[-88.649967,30.717887],[-88.648299,30.720477],[-88.64693,30.720818],[-88.644322,30.716346],[-88.642624,30.714173],[-88.642287,30.713332],[-88.643039,30.711386],[-88.647463,30.708373],[-88.647534,30.706663],[-88.646459,30.705436],[-88.644378,30.704369],[-88.641732,30.700541],[-88.639721,30.699594],[-88.635349,30.699675],[-88.634319,30.697602],[-88.635917,30.696057],[-88.637089,30.694166],[-88.636607,30.692065],[-88.634304,30.689419],[-88.633384,30.685228],[-88.632151,30.682649],[-88.632496,30.679206],[-88.633727,30.674125],[-88.634777,30.673031],[-88.637577,30.671685],[-88.637972,30.670267],[-88.637069,30.669711],[-88.632724,30.669363],[-88.629652,30.668625],[-88.628711,30.666771],[-88.630048,30.666018],[-88.634608,30.667004],[-88.635652,30.666867],[-88.638064,30.664162],[-88.638014,30.662183],[-88.637347,30.66127],[-88.633995,30.659905],[-88.629377,30.658676],[-88.628609,30.656823],[-88.628801,30.655014],[-88.628185,30.652759],[-88.628351,30.651197],[-88.629211,30.650262],[-88.630877,30.649939],[-88.631895,30.650495],[-88.632173,30.653712],[-88.632859,30.654685],[-88.634169,30.654779],[-88.635366,30.653718],[-88.63599,30.651646],[-88.636684,30.65114],[-88.639114,30.65113],[-88.642058,30.652484],[-88.644488,30.651615],[-88.645089,30.650503],[-88.644617,30.647706],[-88.644993,30.64533],[-88.648843,30.639612],[-88.650346,30.635642],[-88.651987,30.633844],[-88.65177,30.635098],[-88.652769,30.635571],[-88.650867,30.636737],[-88.652056,30.637721],[-88.653309,30.63633],[-88.653602,30.634433],[-88.652382,30.631986],[-88.651206,30.630671],[-88.647989,30.629108],[-88.646597,30.627128],[-88.646449,30.624897],[-88.645598,30.623225],[-88.642763,30.620678],[-88.6416,30.617603],[-88.642842,30.612957],[-88.641758,30.610477],[-88.641144,30.610749],[-88.632831,30.614422],[-88.630167,30.614942],[-88.626198,30.613941],[-88.623034,30.614962],[-88.619142,30.618238],[-88.616911,30.621177],[-88.615085,30.622426],[-88.61163,30.624029],[-88.609344,30.626099],[-88.603929,30.628601],[-88.602308,30.629851],[-88.599644,30.633244],[-88.600613,30.632659],[-88.600417,30.635507],[-88.599571,30.636794],[-88.600196,30.640149],[-88.601735,30.639065],[-88.602803,30.639967],[-88.602301,30.641133],[-88.603682,30.64111],[-88.603663,30.642227],[-88.600827,30.644114],[-88.601585,30.647122],[-88.60067,30.649415],[-88.59901,30.649982],[-88.598152,30.651176],[-88.594947,30.651853],[-88.594521,30.653888],[-88.595673,30.656186],[-88.594802,30.657132],[-88.591743,30.657754],[-88.590885,30.659806],[-88.591,30.6636],[-88.588178,30.669507],[-88.584921,30.673533],[-88.585838,30.675469],[-88.586932,30.675249],[-88.586202,30.68137],[-88.583505,30.683993],[-88.585083,30.684042],[-88.584314,30.685324],[-88.581151,30.686584],[-88.578772,30.688179],[-88.577604,30.695958],[-88.576663,30.688753],[-88.574464,30.688647],[-88.572873,30.689621],[-88.567248,30.691502],[-88.563246,30.690039],[-88.561108,30.690441],[-88.559396,30.690039],[-88.557608,30.687834],[-88.552943,30.687377],[-88.550716,30.686321],[-88.548744,30.683533],[-88.546753,30.682246],[-88.545372,30.680255],[-88.542108,30.679947],[-88.539321,30.6812],[-88.537838,30.68137],[-88.536102,30.680177],[-88.534632,30.677355],[-88.532947,30.676514],[-88.533036,30.674006],[-88.537929,30.672951],[-88.536861,30.670481],[-88.535306,30.668445],[-88.521747,30.677744],[-88.52148,30.676744],[-88.504116,30.676805],[-88.505881,30.680075],[-88.506364,30.68809],[-88.496045,30.694914],[-88.496148,30.679451],[-88.49558,30.677955],[-88.491548,30.678329],[-88.490748,30.678804],[-88.480087,30.678881],[-88.479289,30.678397],[-88.479135,30.675987],[-88.455677,30.684426],[-88.458004,30.692408],[-88.455655,30.69309],[-88.452021,30.692059],[-88.451092,30.689493],[-88.451938,30.686468],[-88.451884,30.682894],[-88.452759,30.682229],[-88.452122,30.680007],[-88.450505,30.678013],[-88.45236,30.675515],[-88.450185,30.673293],[-88.450529,30.671413],[-88.449708,30.671207],[-88.448038,30.672674],[-88.447401,30.671574],[-88.448355,30.67068],[-88.447984,30.668022],[-88.446473,30.668183],[-88.445837,30.66486],[-88.444697,30.664768],[-88.44353,30.662271],[-88.441754,30.661171],[-88.44345,30.659269],[-88.442629,30.6592],[-88.443689,30.65629],[-88.443583,30.65464],[-88.445332,30.654571],[-88.44337,30.651134],[-88.443556,30.649714],[-88.442151,30.648591],[-88.44223,30.646781],[-88.439713,30.644306],[-88.440296,30.642496],[-88.438441,30.642656],[-88.437884,30.6419],[-88.43966,30.639975],[-88.439341,30.639035],[-88.437619,30.638554],[-88.435737,30.635186],[-88.43677,30.634498],[-88.435286,30.633902],[-88.43624,30.632711],[-88.434597,30.632734],[-88.434571,30.630969],[-88.433684,30.629243],[-88.428434,30.629152],[-88.425113,30.629808],[-88.420098,30.632045],[-88.412087,30.635192],[-88.41198,30.653889],[-88.411649,30.659226],[-88.411907,30.661379],[-88.411897,30.668349],[-88.4095617223648,30.668534686228398],[-88.409571,30.668731],[-88.411339,30.706334],[-88.41155,30.712956],[-88.412209,30.730395],[-88.41227,30.731771],[-88.41245060127909,30.7355976173844],[-88.41863,30.866528],[-88.419562,30.875186],[-88.42409406562129,30.9670450248858],[-88.4256361537673,30.9983011286609],[-88.425729,31.000183],[-88.425807,31.001123],[-88.42840751767201,31.0485929334722],[-88.431569,31.050481],[-88.432353,31.05149],[-88.433096,31.054368],[-88.434984,31.054498],[-88.436259,31.05636],[-88.453807,31.056426],[-88.454159,31.052729],[-88.457845,31.052694],[-88.458497,31.056637],[-88.462141,31.068442],[-88.462661,31.072123],[-88.464894,31.076959],[-88.464646,31.082376],[-88.466225,31.085411],[-88.471768,31.09262],[-88.478028,31.097714],[-88.48018,31.099904],[-88.480818,31.101689],[-88.483234,31.101844],[-88.491844,31.106045],[-88.492354,31.106859],[-88.492429,31.112929],[-88.493618,31.116904],[-88.495356,31.119936],[-88.496856,31.121431],[-88.499693,31.123161],[-88.516926,31.129944],[-88.519689,31.131292],[-88.521347,31.128704],[-88.521592,31.120078],[-88.519231,31.119411],[-88.51877,31.118162],[-88.518348,31.114005],[-88.519932,31.110378],[-88.525331,31.100031],[-88.524789,31.09943],[-88.523122,31.098511],[-88.520898,31.098731],[-88.520154,31.100131],[-88.517684,31.100374],[-88.517947,31.093693],[-88.517774,31.091771],[-88.518595,31.08572],[-88.533365,31.08556],[-88.535139,31.087456],[-88.537744,31.087739],[-88.538564,31.08858],[-88.540212,31.088186],[-88.543036,31.088824],[-88.541665,31.090481],[-88.539784,31.095371],[-88.534883,31.102863],[-88.534026,31.104497],[-88.535703,31.105272],[-88.540398,31.106441],[-88.541343,31.105811],[-88.545045,31.10523],[-88.545711,31.102207],[-88.547895,31.101904],[-88.55108,31.099148],[-88.557341,31.096231],[-88.560745,31.093518],[-88.564083,31.091383],[-88.569265,31.090881],[-88.569331,31.090247],[-88.565151,31.086381],[-88.565326,31.084885],[-88.568317,31.082191],[-88.569607,31.08047],[-88.569892,31.078649],[-88.568097,31.076827],[-88.568518,31.076054],[-88.571412,31.074712],[-88.573692,31.074749],[-88.575477,31.076722],[-88.574344,31.08114],[-88.575615,31.081531],[-88.576748,31.080698],[-88.576645,31.078136],[-88.581211,31.073453],[-88.585194,31.073836],[-88.585778,31.072658],[-88.585537,31.06986],[-88.586877,31.067595],[-88.587735,31.067386],[-88.589554,31.0688],[-88.589246,31.07257],[-88.590379,31.073395],[-88.59189,31.073189],[-88.593401,31.070892],[-88.592783,31.069007],[-88.594259,31.067679],[-88.596182,31.068445],[-88.598895,31.068651],[-88.602294,31.069653],[-88.606792,31.068062],[-88.607478,31.066472],[-88.607101,31.063821],[-88.608817,31.060258],[-88.610671,31.059551],[-88.614414,31.06067],[-88.615753,31.06011],[-88.61596,31.057754],[-88.614981,31.056604],[-88.615393,31.055544],[-88.617453,31.055897],[-88.618724,31.057517],[-88.619789,31.061051],[-88.621334,31.06111],[-88.62233,31.058991],[-88.627687,31.055221],[-88.630022,31.055133],[-88.63112,31.056252],[-88.632392,31.059669],[-88.633525,31.060494],[-88.635551,31.060199],[-88.636149,31.057556],[-88.637003,31.056213],[-88.638674,31.056107],[-88.640575,31.057668],[-88.642459,31.057381],[-88.643156,31.055581],[-88.642688,31.053753],[-88.643919,31.051454],[-88.645481,31.051781],[-88.646264,31.054249],[-88.648626,31.053805],[-88.650491,31.051578],[-88.649391,31.049267],[-88.647432,31.04862],[-88.647758,31.047046],[-88.650705,31.045988],[-88.651964,31.043207],[-88.653479,31.042392],[-88.657619,31.042328],[-88.658089,31.040511],[-88.657282,31.03926],[-88.657423,31.037535],[-88.658535,31.036273],[-88.662792,31.034957],[-88.664345,31.03577],[-88.665185,31.037578],[-88.666503,31.038612],[-88.669019,31.038385],[-88.673118,31.039668],[-88.678944,31.04002],[-88.679971,31.039744],[-88.682245,31.03757],[-88.683099,31.034809],[-88.684194,31.034048],[-88.683132,31.033383],[-88.686071,31.031901],[-88.684914,31.029141],[-88.685953,31.027973],[-88.68946,31.02754],[-88.691613,31.028498],[-88.692281,31.027987],[-88.691525,31.026355],[-88.692104,31.024447],[-88.689158,31.02119],[-88.688299,31.016606],[-88.689358,31.015436],[-88.691931,31.015391],[-88.693317,31.016436],[-88.695013,31.019416],[-88.697774,31.020807],[-88.706804,31.021006],[-88.708811,31.017529],[-88.710214,31.012938],[-88.712952,31.011196],[-88.716447,31.011993],[-88.717513,31.011239],[-88.720842,31.006646],[-88.720257,31.001461],[-88.71762,30.998336],[-88.75262,30.997464],[-88.809137,30.997376],[-88.834339,30.997983],[-88.834475,30.910323],[-88.874153,30.909918]]]}},{"type":"Feature","properties":{"zcta5":"39573","AFFGEOID10":"8600000US39573","GEOID10":"39573","ALAND10":1028463335,"AWATER10":7805365,"county_name":"Jackson","state_code":"MS","county_state":"Jackson County, MS","county_fips":"28059","risk_level_county":"Higher Risk (60–69% vaccinated)","mean_vaccination_rate_county":60.84,"risk_level_zcta":"Higher Risk (60–69% vaccinated)","mean_vaccination_rate_zips":61.92,"cases":0},"geometry":{"type":"Polygon","coordinates":[[[-89.492612,30.586728],[-89.493612,30.586124],[-89.493522,30.581259],[-89.487412,30.581666],[-89.485116,30.581494],[-89.485557,30.578913],[-89.485565,30.572311],[-89.486937,30.571002],[-89.487482,30.568203],[-89.488364,30.566862],[-89.491755,30.565651],[-89.491138,30.56409],[-89.492726,30.563737],[-89.493449,30.562313],[-89.493016,30.560466],[-89.493694,30.556854],[-89.492912,30.556206],[-89.493717,30.553138],[-89.492896,30.550456],[-89.491698,30.548719],[-89.489538,30.548994],[-89.489093,30.547768],[-89.489624,30.546033],[-89.487594,30.543197],[-89.485413,30.542051],[-89.485062,30.539664],[-89.485713,30.536255],[-89.484565,30.535153],[-89.486316,30.532665],[-89.485081,30.531379],[-89.486134,30.529039],[-89.484699,30.528684],[-89.482856,30.524661],[-89.48203,30.523611],[-89.482902,30.521012],[-89.481042,30.522694],[-89.478852,30.523267],[-89.477665,30.524521],[-89.474796,30.524206],[-89.473313,30.523219],[-89.472607,30.518691],[-89.45954,30.527004],[-89.456132,30.528072],[-89.451133,30.528259],[-89.449534,30.528673],[-89.440833,30.533325],[-89.440094,30.533902],[-89.434795,30.540132],[-89.432909,30.540885],[-89.428274,30.539358],[-89.424214,30.538843],[-89.422835,30.540863],[-89.418529,30.545888],[-89.41667,30.547588],[-89.412623,30.550286],[-89.410743,30.552644],[-89.410335,30.554588],[-89.411354,30.559856],[-89.408041,30.560758],[-89.402876,30.561494],[-89.398549,30.563934],[-89.394216,30.567165],[-89.390377,30.57071],[-89.389011,30.571595],[-89.387086,30.571935],[-89.38274,30.571592],[-89.382329,30.570332],[-89.375919,30.572256],[-89.373352,30.570542],[-89.371055,30.571059],[-89.368266,30.566785],[-89.367086,30.567069],[-89.365536,30.569305],[-89.365471,30.570797],[-89.364181,30.572865],[-89.361892,30.573131],[-89.360157,30.57237],[-89.356518,30.571993],[-89.354508,30.572355],[-89.354365,30.570237],[-89.356162,30.565017],[-89.3576,30.56383],[-89.357161,30.560888],[-89.352278,30.558795],[-89.348944,30.554729],[-89.345579,30.554477],[-89.344442,30.552173],[-89.341534,30.550867],[-89.341511,30.559757],[-89.327634,30.559791],[-89.32678,30.558185],[-89.326802,30.557844],[-89.327001,30.557426],[-89.325689,30.557689],[-89.324414,30.557424],[-89.322148,30.559671],[-89.320706,30.560296],[-89.319631,30.562072],[-89.317708,30.563636],[-89.315419,30.563682],[-89.315183,30.566444],[-89.314,30.567268],[-89.318197,30.570546],[-89.317617,30.571929],[-89.316289,30.571664],[-89.316022,30.572709],[-89.318357,30.572997],[-89.318403,30.575196],[-89.320112,30.575547],[-89.320913,30.576804],[-89.319689,30.579401],[-89.315649,30.580064],[-89.314025,30.579328],[-89.313911,30.581305],[-89.314692,30.582695],[-89.316402,30.583863],[-89.318761,30.583961],[-89.320413,30.585813],[-89.320487,30.590568],[-89.321069,30.593417],[-89.321878,30.594613],[-89.320383,30.59546],[-89.320359,30.596497],[-89.31895,30.596821],[-89.321843,30.5981],[-89.325025,30.598264],[-89.329035,30.59744],[-89.330428,30.598736],[-89.33129,30.601258],[-89.329039,30.6055],[-89.327475,30.606913],[-89.326934,30.608538],[-89.32717,30.611683],[-89.326003,30.61221],[-89.322493,30.6171],[-89.322677,30.618809],[-89.320853,30.619559],[-89.320861,30.621291],[-89.320044,30.623202],[-89.318099,30.6253],[-89.317115,30.628928],[-89.3161,30.630272],[-89.316237,30.631975],[-89.314796,30.634127],[-89.315208,30.635142],[-89.314971,30.637407],[-89.314063,30.638996],[-89.313949,30.640465],[-89.312484,30.641844],[-89.311195,30.645159],[-89.311202,30.646423],[-89.31031,30.647555],[-89.240136,30.647646],[-89.240073,30.67716],[-89.206654,30.677089],[-89.20731,30.67974],[-89.20908,30.68037],[-89.21056,30.67931],[-89.21474,30.67961],[-89.21558,30.68108],[-89.218,30.68121],[-89.22095,30.68217],[-89.22208,30.68111],[-89.22311,30.68151],[-89.22416,30.6833],[-89.2241,30.68501],[-89.22839,30.68534],[-89.22929,30.68696],[-89.23074,30.68732],[-89.23154,30.6886],[-89.23126,30.6905],[-89.22875,30.6912],[-89.22739,30.6924],[-89.22851,30.69414],[-89.23016,30.69536],[-89.23084,30.6969],[-89.23217,30.69768],[-89.23245,30.69932],[-89.23397,30.70228],[-89.23541,30.70317],[-89.23671,30.70288],[-89.239738,30.704729],[-89.241731,30.704844],[-89.23914,30.70962],[-89.23754,30.710065],[-89.236593,30.709123],[-89.234068,30.709291],[-89.23258,30.706419],[-89.230612,30.706909],[-89.229001,30.709469],[-89.22712,30.70871],[-89.21968,30.70984],[-89.2148,30.71016],[-89.204821,30.70987],[-89.204877,30.713375],[-89.207524,30.715677],[-89.209142,30.716255],[-89.211431,30.718145],[-89.211736,30.719673],[-89.213918,30.720899],[-89.21338,30.72531],[-89.21266,30.72559],[-89.20996,30.72605],[-89.2084,30.72573],[-89.2057,30.72614],[-89.20325,30.72578],[-89.20241,30.725187],[-89.20165,30.72133],[-89.200307,30.718858],[-89.200963,30.718313],[-89.199559,30.715254],[-89.195851,30.713592],[-89.194616,30.710885],[-89.192906,30.711115],[-89.18922,30.714496],[-89.188274,30.715858],[-89.189343,30.717945],[-89.189572,30.720831],[-89.18902,30.721877],[-89.18495,30.7245],[-89.18293,30.72494],[-89.18289,30.72083],[-89.18195,30.71938],[-89.18208,30.7174],[-89.18082,30.71634],[-89.17964,30.7128],[-89.17928,30.71004],[-89.170974,30.70983],[-89.170154,30.707806],[-89.168734,30.706347],[-89.166987,30.708178],[-89.165924,30.709793],[-89.166244,30.712715],[-89.174504,30.762743],[-89.173995,30.76291],[-89.171181,30.762854],[-89.168813,30.761628],[-89.165935,30.763222],[-89.162847,30.76304],[-89.159346,30.76139],[-89.158742,30.760003],[-89.1505,30.76536],[-89.14829,30.76569],[-89.143483,30.765294],[-89.144135,30.763475],[-89.145148,30.76275],[-89.145289,30.759385],[-89.143746,30.757785],[-89.144586,30.755711],[-89.144432,30.749396],[-89.144785,30.74577],[-89.145536,30.742166],[-89.144855,30.738745],[-89.14253,30.734885],[-89.141504,30.731463],[-89.143231,30.726279],[-89.14192,30.72736],[-89.1382,30.72882],[-89.13477,30.72915],[-89.122884,30.713977],[-89.12063,30.71491],[-89.12061,30.71397],[-89.122741,30.71363],[-89.126931,30.711051],[-89.128205,30.709853],[-89.127747,30.708905],[-89.127249,30.708304],[-89.119933,30.709581],[-89.121487,30.706204],[-89.11386,30.70622],[-89.108213,30.704801],[-89.108154,30.703246],[-89.106964,30.701087],[-89.10456,30.698876],[-89.102676,30.700007],[-89.101531,30.70161],[-89.100669,30.701541],[-89.098449,30.703822],[-89.098716,30.706609],[-89.098426,30.70921],[-89.099494,30.710263],[-89.087378,30.711855],[-89.086532,30.71371],[-89.087379,30.717471],[-89.08331,30.71738],[-89.08101,30.71791],[-89.07632,30.72003],[-89.07421,30.72016],[-89.0735,30.71848],[-89.07409,30.71448],[-89.07533,30.7127],[-89.07547,30.71005],[-89.07642,30.70778],[-89.0758,30.70451],[-89.07643,30.70191],[-89.078181,30.701901],[-89.077589,30.700811],[-89.077734,30.697345],[-89.078413,30.694629],[-89.077375,30.691677],[-89.080114,30.688905],[-89.078695,30.685995],[-89.078825,30.68457],[-89.081251,30.681722],[-89.082205,30.678461],[-89.081993,30.677011],[-88.913445,30.677254],[-88.91291,30.68085],[-88.914049,30.683513],[-88.913228,30.685644],[-88.911821,30.687522],[-88.90647,30.68877],[-88.90637,30.69221],[-88.91332,30.69227],[-88.91662,30.69312],[-88.92618,30.69355],[-88.92628,30.694836],[-88.923544,30.698981],[-88.923407,30.700351],[-88.920944,30.705436],[-88.9186,30.707528],[-88.918219,30.710798],[-88.916534,30.712314],[-88.914185,30.713171],[-88.91141,30.70975],[-88.90649,30.69749],[-88.90396,30.69318],[-88.90027,30.68271],[-88.900589,30.67727],[-88.884533,30.677292],[-88.884417,30.65155],[-88.88305,30.652616],[-88.865554,30.668305],[-88.834065,30.70463],[-88.833994,30.702192],[-88.834139,30.694623],[-88.832888,30.694245],[-88.833159,30.705693],[-88.823776,30.71614],[-88.821363,30.713849],[-88.820673,30.711053],[-88.819825,30.710183],[-88.819188,30.706586],[-88.816854,30.704799],[-88.816535,30.703791],[-88.812849,30.702874],[-88.811471,30.703447],[-88.809297,30.702256],[-88.806963,30.702439],[-88.806141,30.700744],[-88.804286,30.700216],[-88.801952,30.698635],[-88.799699,30.699598],[-88.796544,30.699666],[-88.793971,30.698108],[-88.79246,30.698153],[-88.793467,30.699001],[-88.7923,30.70033],[-88.790124,30.701566],[-88.788214,30.701977],[-88.787525,30.703353],[-88.783576,30.705049],[-88.782197,30.70695],[-88.783098,30.70876],[-88.782223,30.709837],[-88.780393,30.710158],[-88.779491,30.712724],[-88.778775,30.713113],[-88.780126,30.714923],[-88.773947,30.718083],[-88.775484,30.720122],[-88.772753,30.719572],[-88.771984,30.718632],[-88.770392,30.720236],[-88.769067,30.719273],[-88.767953,30.71957],[-88.767873,30.720441],[-88.765617,30.722067],[-88.76502,30.723755],[-88.761762,30.72353],[-88.754914,30.72358],[-88.752204,30.721851],[-88.74946,30.721117],[-88.745821,30.717745],[-88.742396,30.7168],[-88.740584,30.716785],[-88.737905,30.721927],[-88.737291,30.723761],[-88.737291,30.726291],[-88.739168,30.730641],[-88.740256,30.734638],[-88.733333,30.734781],[-88.661054,30.734722],[-88.660189,30.734722],[-88.660244,30.736107],[-88.661486,30.738145],[-88.661724,30.740398],[-88.659615,30.743702],[-88.659099,30.745539],[-88.659525,30.749651],[-88.659068,30.75282],[-88.659886,30.753523],[-88.663731,30.753649],[-88.665997,30.754221],[-88.667422,30.755095],[-88.668447,30.757555],[-88.666408,30.762811],[-88.66655,30.764631],[-88.668669,30.7667],[-88.670747,30.767416],[-88.675096,30.767703],[-88.680794,30.766874],[-88.683618,30.767882],[-88.68375,30.769717],[-88.682971,30.77097],[-88.678902,30.775652],[-88.678772,30.777817],[-88.681296,30.779187],[-88.68575,30.779465],[-88.688068,30.78077],[-88.690589,30.785111],[-88.694014,30.787579],[-88.695674,30.789969],[-88.696713,30.794039],[-88.697652,30.79492],[-88.69865,30.795358],[-88.703749,30.795405],[-88.706869,30.796955],[-88.709561,30.796686],[-88.711051,30.793809],[-88.712554,30.792078],[-88.713572,30.791766],[-88.717512,30.792155],[-88.720253,30.795418],[-88.722932,30.795732],[-88.725852,30.794255],[-88.731501,30.794665],[-88.734952,30.795399],[-88.737037,30.797323],[-88.735603,30.798805],[-88.732112,30.797463],[-88.729186,30.796899],[-88.727167,30.797911],[-88.726682,30.800469],[-88.727599,30.802301],[-88.729746,30.802629],[-88.732848,30.801919],[-88.735949,30.801967],[-88.738189,30.802417],[-88.741729,30.804497],[-88.742527,30.805933],[-88.743254,30.811676],[-88.744868,30.814684],[-88.74753,30.81207],[-88.761645,30.788219],[-88.763982,30.785597],[-88.770181,30.785799],[-88.772448,30.78688],[-88.772081,30.788048],[-88.773042,30.789462],[-88.773011,30.790885],[-88.775493,30.790738],[-88.775469,30.793076],[-88.774464,30.793883],[-88.775684,30.795858],[-88.775643,30.797477],[-88.772919,30.799075],[-88.774382,30.801108],[-88.776222,30.80202],[-88.775752,30.804113],[-88.779221,30.804731],[-88.780341,30.804611],[-88.780981,30.80335],[-88.782117,30.804717],[-88.78389,30.803959],[-88.784899,30.804577],[-88.784067,30.806213],[-88.787263,30.807026],[-88.787563,30.80781],[-88.786049,30.809355],[-88.785208,30.808368],[-88.784306,30.810093],[-88.784817,30.812917],[-88.786485,30.812763],[-88.78654,30.81415],[-88.78767,30.81552],[-88.789888,30.816816],[-88.791518,30.816829],[-88.791911,30.819023],[-88.793638,30.822376],[-88.794628,30.822485],[-88.796975,30.824374],[-88.798439,30.823887],[-88.8,30.825285],[-88.801704,30.82608],[-88.80016,30.82705],[-88.798661,30.8271],[-88.800863,30.829155],[-88.803506,30.829617],[-88.806467,30.827808],[-88.807621,30.824474],[-88.810203,30.823722],[-88.811766,30.825189],[-88.815575,30.826556],[-88.816006,30.827641],[-88.815252,30.828527],[-88.817503,30.828523],[-88.819405,30.825865],[-88.822538,30.827381],[-88.823552,30.825932],[-88.82264,30.824216],[-88.82305,30.823613],[-88.826406,30.824728],[-88.827401,30.826604],[-88.830267,30.825689],[-88.829928,30.826781],[-88.827529,30.828828],[-88.827486,30.82952],[-88.82875,30.8292],[-88.830993,30.830294],[-88.832375,30.83047],[-88.833451,30.831914],[-88.834299,30.831791],[-88.834902,30.830273],[-88.835907,30.829735],[-88.839011,30.8298],[-88.838189,30.828451],[-88.839358,30.828032],[-88.840645,30.82883],[-88.840499,30.830981],[-88.841061,30.832457],[-88.843381,30.832589],[-88.842786,30.833571],[-88.844794,30.83436],[-88.846839,30.833057],[-88.847704,30.83363],[-88.850274,30.831694],[-88.849024,30.830009],[-88.850847,30.829791],[-88.852262,30.828794],[-88.852909,30.827263],[-88.855425,30.827617],[-88.856176,30.827127],[-88.856473,30.825382],[-88.8612,30.826468],[-88.864079,30.827928],[-88.867864,30.828159],[-88.867898,30.828867],[-88.865729,30.829118],[-88.865688,30.832049],[-88.869029,30.830702],[-88.870611,30.831424],[-88.872578,30.831474],[-88.87317,30.832889],[-88.875401,30.834229],[-88.876333,30.836671],[-88.876291,30.838618],[-88.877098,30.839364],[-88.879409,30.840085],[-88.880226,30.839924],[-88.879404,30.837852],[-88.880202,30.837009],[-88.881954,30.837233],[-88.882683,30.839136],[-88.884668,30.840463],[-88.884604,30.82454],[-88.888138,30.825429],[-88.889267,30.827186],[-88.892145,30.828391],[-88.895884,30.828425],[-88.897161,30.828812],[-88.90053,30.82566],[-88.90333,30.82437],[-88.90301,30.82254],[-88.9046,30.82022],[-88.9061,30.82125],[-88.90749,30.82101],[-88.90955,30.81943],[-88.91344,30.81827],[-88.91662,30.82255],[-88.91662,30.82445],[-88.91763,30.82572],[-88.92084,30.82688],[-88.92237,30.82971],[-88.92491,30.83081],[-88.92778,30.83277],[-88.93,30.83293],[-88.93665,30.83059],[-88.939957,30.829821],[-88.944209,30.827804],[-88.944744,30.827186],[-88.949182,30.826093],[-88.9517,30.824495],[-88.95375,30.822],[-88.96152,30.82659],[-88.96937,30.82904],[-88.97104,30.83078],[-88.97167,30.83038],[-88.97507,30.82323],[-88.97328,30.81878],[-88.97038,30.81916],[-88.96902,30.819938],[-88.967771,30.819563],[-88.964722,30.817113],[-88.962917,30.814647],[-88.958593,30.814328],[-88.956409,30.81346],[-88.95629,30.79802],[-88.9516,30.79402],[-88.956004,30.792627],[-88.960093,30.792948],[-88.961901,30.793997],[-88.961894,30.794908],[-88.963588,30.796074],[-88.963397,30.798652],[-88.965007,30.800894],[-88.963573,30.802049],[-88.963611,30.803711],[-88.965053,30.805925],[-88.97076,30.809637],[-88.971172,30.81051],[-88.974087,30.8113],[-88.97591,30.81409],[-88.977024,30.814579],[-88.979351,30.817777],[-88.982342,30.820138],[-88.982907,30.821331],[-88.985181,30.821498],[-88.986897,30.822965],[-88.99017,30.823064],[-88.993406,30.825349],[-88.994878,30.825633],[-88.997515,30.828257],[-89.00084,30.82421],[-89.00104,30.82189],[-89.002107,30.820989],[-89.006438,30.81897],[-89.007162,30.819843],[-89.010252,30.825656],[-89.012373,30.827825],[-89.013159,30.831337],[-89.02392,30.823233],[-89.039629,30.82166],[-89.052327,30.822742],[-89.05782,30.822762],[-89.05788,30.826],[-89.06049,30.82603],[-89.064925,30.828376],[-89.06202,30.83151],[-89.06193,30.83883],[-89.06368,30.83963],[-89.067956,30.840224],[-89.069703,30.839314],[-89.07052,30.836745],[-89.069474,30.834437],[-89.070718,30.832377],[-89.071313,30.829457],[-89.072244,30.828684],[-89.072473,30.826176],[-89.070062,30.822228],[-89.068993,30.822268],[-89.068948,30.819354],[-89.070428,30.818368],[-89.071565,30.815288],[-89.08121,30.815333],[-89.07985,30.81328],[-89.08647,30.81388],[-89.087761,30.815368],[-89.096882,30.815428],[-89.09852,30.818169],[-89.098978,30.820056],[-89.100428,30.822438],[-89.103251,30.823895],[-89.104739,30.825652],[-89.105135,30.827419],[-89.116817,30.825764],[-89.116016,30.828166],[-89.117198,30.830502],[-89.121044,30.833589],[-89.120988,30.82622],[-89.127111,30.826171],[-89.12502,30.82197],[-89.12789,30.80788],[-89.1364,30.80788],[-89.136239,30.797349],[-89.139626,30.798481],[-89.142062,30.803227],[-89.147135,30.807617],[-89.149887,30.80925],[-89.153141,30.809325],[-89.153588,30.810381],[-89.155281,30.811027],[-89.156363,30.812589],[-89.159335,30.810155],[-89.161718,30.810818],[-89.161003,30.812166],[-89.164721,30.814339],[-89.1683,30.813336],[-89.168972,30.814664],[-89.170817,30.815674],[-89.172521,30.814348],[-89.175236,30.815154],[-89.17582,30.817216],[-89.177014,30.818316],[-89.179721,30.819255],[-89.184525,30.818934],[-89.189144,30.819644],[-89.195368,30.8183],[-89.196738,30.819515],[-89.198783,30.819471],[-89.199535,30.820169],[-89.201764,30.819498],[-89.203421,30.820454],[-89.206548,30.820503],[-89.208542,30.818595],[-89.214619,30.820556],[-89.215549,30.819605],[-89.21795,30.818857],[-89.220887,30.819389],[-89.22334,30.820686],[-89.226404,30.820635],[-89.228705,30.823103],[-89.23073,30.821882],[-89.231553,30.822475],[-89.233801,30.822073],[-89.235206,30.822836],[-89.237613,30.821061],[-89.24217,30.819662],[-89.24205,30.82072],[-89.24587,30.82087],[-89.24869,30.82211],[-89.25067,30.82174],[-89.25091,30.8206],[-89.25245,30.81967],[-89.25523,30.81969],[-89.25808,30.8169],[-89.26319,30.81537],[-89.26488,30.81564],[-89.26919,30.81511],[-89.2703,30.81298],[-89.27424,30.81167],[-89.27748,30.81171],[-89.27872,30.81237],[-89.27597,30.81837],[-89.27711,30.82183],[-89.27538,30.82396],[-89.2756,30.82539],[-89.27449,30.82597],[-89.27488,30.82751],[-89.275864,30.828439],[-89.278094,30.827384],[-89.279891,30.82601],[-89.28158,30.822552],[-89.285294,30.819024],[-89.287422,30.817666],[-89.291136,30.8177],[-89.292333,30.818519],[-89.294645,30.819129],[-89.296575,30.818074],[-89.299442,30.818102],[-89.301493,30.818998],[-89.303003,30.81909],[-89.30348,30.81792],[-89.30622,30.81958],[-89.31108,30.8205],[-89.31401,30.82068],[-89.31256,30.8186],[-89.31188,30.81632],[-89.3118,30.80939],[-89.31494,30.80421],[-89.31575,30.80159],[-89.31757,30.79994],[-89.31954,30.79936],[-89.3266,30.79846],[-89.32839,30.79791],[-89.32844,30.80076],[-89.33095,30.80082],[-89.33527,30.80207],[-89.33566,30.80485],[-89.33831,30.80675],[-89.341167,30.806922],[-89.341446,30.64772],[-89.379179,30.647628],[-89.380752,30.652005],[-89.382583,30.653907],[-89.38484,30.655132],[-89.389407,30.661342],[-89.390232,30.664892],[-89.389772,30.669646],[-89.393933,30.669938],[-89.397483,30.669127],[-89.405475,30.666402],[-89.410928,30.665395],[-89.408252,30.658933],[-89.405418,30.656115],[-89.405154,30.65087],[-89.404082,30.649174],[-89.402714,30.648853],[-89.40222,30.647713],[-89.47417,30.647979],[-89.472364,30.645004],[-89.471013,30.64473],[-89.470491,30.639364],[-89.469678,30.638133],[-89.469842,30.636251],[-89.469155,30.633713],[-89.465554,30.634964],[-89.462803,30.638231],[-89.459429,30.639748],[-89.460013,30.625196],[-89.459964,30.618666],[-89.461096,30.616923],[-89.460312,30.611651],[-89.461399,30.610068],[-89.46176,30.607726],[-89.464447,30.60524],[-89.464281,30.6023],[-89.465474,30.598407],[-89.468168,30.596614],[-89.471834,30.595481],[-89.472819,30.594738],[-89.476904,30.593379],[-89.480429,30.590107],[-89.481584,30.587891],[-89.48154,30.588573],[-89.483441,30.593194],[-89.485248,30.592887],[-89.48567,30.589609],[-89.490488,30.589488],[-89.491139,30.587996],[-89.492612,30.586728]],[[-89.419489,30.64421],[-89.415117,30.644206],[-89.410704,30.643437],[-89.409218,30.643595],[-89.404925,30.642098],[-89.406919,30.636837],[-89.41341,30.635431],[-89.416937,30.639205],[-89.422096,30.64204],[-89.419489,30.64421]]]}},{"type":"Feature","properties":{"zcta5":"39581","AFFGEOID10":"8600000US39581","GEOID10":"39581","ALAND10":50906135,"AWATER10":2306820,"county_name":"Jackson","state_code":"MS","county_state":"Jackson County, MS","county_fips":"28059","risk_level_county":"Higher Risk (60–69% vaccinated)","mean_vaccination_rate_county":60.84,"risk_level_zcta":"Medium Risk (70–79% vaccinated)","mean_vaccination_rate_zips":75.24,"cases":0},"geometry":{"type":"MultiPolygon","coordinates":[[[[-88.528581,30.346414],[-88.529059,30.346476],[-88.53045,30.346188],[-88.530177,30.344263],[-88.529073,30.34409],[-88.528578,30.34347],[-88.528678,30.345665],[-88.528581,30.346414]]],[[[-88.530694,30.384199],[-88.530683,30.381881],[-88.528933,30.382796],[-88.525414,30.379336],[-88.52897,30.377071],[-88.52898,30.38026],[-88.534637,30.37818],[-88.534791,30.377405],[-88.532641,30.3772],[-88.532368,30.374919],[-88.536227,30.372547],[-88.535111,30.372347],[-88.534152,30.370089],[-88.533417,30.366317],[-88.53252,30.366318],[-88.532563,30.363932],[-88.531358,30.362194],[-88.532263,30.362206],[-88.532391,30.354843],[-88.528534,30.354803],[-88.528581,30.346414],[-88.526533,30.346145],[-88.525713,30.344609],[-88.523318,30.344603],[-88.522634,30.34333],[-88.520418,30.343006],[-88.522494,30.340092],[-88.514613,30.3343],[-88.513553,30.33378],[-88.513879,30.332796],[-88.5140289004294,30.3320797093254],[-88.5139233961846,30.3320155187343],[-88.513335,30.333673],[-88.51146,30.332752],[-88.511247,30.332166],[-88.510438,30.332304],[-88.510332,30.331853],[-88.510896,30.33085],[-88.5113041789197,30.330421942052396],[-88.506334,30.327398],[-88.506226,30.322393],[-88.504373,30.321348],[-88.50229,30.320857],[-88.500481,30.320776],[-88.497814,30.319987],[-88.4974622009145,30.319593750403296],[-88.480117,30.318345],[-88.471875,30.32002],[-88.47058842926079,30.3207041294503],[-88.4576293553084,30.327595071293],[-88.45381,30.329626],[-88.446625,30.337671],[-88.446495,30.347753],[-88.4483311857247,30.352128260726296],[-88.449403,30.353482],[-88.448531,30.356897],[-88.448743,30.359464],[-88.449906,30.361343],[-88.453288,30.360792],[-88.457038,30.361477],[-88.461187,30.361425],[-88.461559,30.360768],[-88.460898,30.35953],[-88.462167,30.359415],[-88.461585,30.35788],[-88.463012,30.357697],[-88.461716,30.356345],[-88.46383,30.355382],[-88.463169,30.353319],[-88.46124,30.353068],[-88.462059,30.351647],[-88.460235,30.351166],[-88.45997,30.348691],[-88.461688,30.349309],[-88.461714,30.347797],[-88.463167,30.348599],[-88.46314,30.346765],[-88.46137,30.345689],[-88.4624,30.344772],[-88.463378,30.345688],[-88.464593,30.344771],[-88.46528,30.346765],[-88.466364,30.346879],[-88.466523,30.348506],[-88.467553,30.348391],[-88.467817,30.346352],[-88.468504,30.347795],[-88.470196,30.348688],[-88.471334,30.351163],[-88.470198,30.352447],[-88.471519,30.352859],[-88.471916,30.35515],[-88.470146,30.35412],[-88.473107,30.357969],[-88.471998,30.361269],[-88.47558,30.361175],[-88.476807,30.359709],[-88.476041,30.361245],[-88.476359,30.362459],[-88.475011,30.363056],[-88.473346,30.362369],[-88.473928,30.363927],[-88.475778,30.364957],[-88.476598,30.366401],[-88.47504,30.367662],[-88.475594,30.366057],[-88.473162,30.363744],[-88.472105,30.364432],[-88.471576,30.362805],[-88.470044,30.365578],[-88.471947,30.365119],[-88.47134,30.366723],[-88.472212,30.368534],[-88.471448,30.373002],[-88.472558,30.374194],[-88.47136,30.375199],[-88.470021,30.37408],[-88.469212,30.376019],[-88.469308,30.373966],[-88.470391,30.373117],[-88.470918,30.370848],[-88.470918,30.368626],[-88.469147,30.368282],[-88.468724,30.369635],[-88.465104,30.368994],[-88.464549,30.368444],[-88.467773,30.368833],[-88.469701,30.366357],[-88.467693,30.367389],[-88.466768,30.366037],[-88.468459,30.365647],[-88.467639,30.364479],[-88.469066,30.364066],[-88.467429,30.36133],[-88.466185,30.361362],[-88.46534,30.363013],[-88.464931,30.361378],[-88.46308,30.361401],[-88.46193,30.363288],[-88.46016,30.364412],[-88.459315,30.366199],[-88.456805,30.369569],[-88.457862,30.369775],[-88.459606,30.368308],[-88.460874,30.368972],[-88.458972,30.369362],[-88.459738,30.37021],[-88.455695,30.370531],[-88.45485,30.374679],[-88.454295,30.372136],[-88.452287,30.374895],[-88.452842,30.373098],[-88.454718,30.371471],[-88.45551,30.369477],[-88.457095,30.367712],[-88.457517,30.365421],[-88.458389,30.364206],[-88.457358,30.364137],[-88.454451,30.362052],[-88.450118,30.362832],[-88.446841,30.362122],[-88.447211,30.363176],[-88.448982,30.364757],[-88.446418,30.364253],[-88.446362,30.375199],[-88.44667,30.384301],[-88.479272,30.384273],[-88.479375,30.398878],[-88.49307,30.398717],[-88.494499,30.3967],[-88.494202,30.387408],[-88.492723,30.384232],[-88.500687,30.384014],[-88.501298,30.393464],[-88.507168,30.390039],[-88.510806,30.388198],[-88.511297,30.389695],[-88.515523,30.389793],[-88.514652,30.386154],[-88.516354,30.385067],[-88.517514,30.3888],[-88.519587,30.387771],[-88.519277,30.389452],[-88.520636,30.3896],[-88.520732,30.387213],[-88.526647,30.384125],[-88.530694,30.384199]]],[[[-88.562655,30.371892],[-88.570979,30.374196],[-88.57098,30.37407],[-88.568328,30.373343],[-88.570521,30.373141],[-88.57099,30.37148],[-88.570874,30.364079],[-88.570892,30.355796],[-88.568066,30.353441],[-88.566538,30.355723],[-88.566406,30.363258],[-88.567338,30.364127],[-88.567554,30.365886],[-88.566297,30.368044],[-88.564627,30.367433],[-88.563901,30.368511],[-88.562655,30.371892]]]]}},{"type":"Feature","properties":{"zcta5":"39553","AFFGEOID10":"8600000US39553","GEOID10":"39553","ALAND10":68476646,"AWATER10":5008924,"county_name":"Jackson","state_code":"MS","county_state":"Jackson County, MS","county_fips":"28059","risk_level_county":"Higher Risk (60–69% vaccinated)","mean_vaccination_rate_county":60.84,"risk_level_zcta":"Higher Risk (60–69% vaccinated)","mean_vaccination_rate_zips":66.93,"cases":0},"geometry":{"type":"Polygon","coordinates":[[[-88.665105,30.434156],[-88.664874,30.414089],[-88.698004,30.414321],[-88.698131,30.399065],[-88.71967,30.402534],[-88.720961,30.39979],[-88.698152,30.395219],[-88.688803,30.392882],[-88.687419,30.385696],[-88.677021,30.372699],[-88.673021,30.372399],[-88.670221,30.372699],[-88.670221,30.371299],[-88.672721,30.369099],[-88.673621,30.370899],[-88.682814,30.365062],[-88.682231,30.36385],[-88.681174,30.363726],[-88.677258,30.365458],[-88.674853,30.364857],[-88.670755,30.364419],[-88.669114,30.363422],[-88.66628,30.36291],[-88.6643858625917,30.3618695302381],[-88.66382,30.362099],[-88.637697,30.359848],[-88.625503,30.3686],[-88.618205,30.372583],[-88.613271316185,30.3732638516877],[-88.612263,30.373403],[-88.611408934753,30.373204573180196],[-88.611018,30.373511],[-88.610615,30.377502],[-88.608649,30.382865],[-88.608101,30.382738],[-88.608101,30.382816],[-88.607463,30.385669],[-88.606201,30.388191],[-88.605569,30.391466],[-88.606301,30.393929],[-88.608919,30.396522],[-88.610478,30.399687],[-88.610773,30.401598],[-88.61282,30.406881],[-88.614337,30.408508],[-88.617258,30.4091],[-88.618629,30.410043],[-88.619034,30.411529],[-88.617342,30.413045],[-88.614091,30.413318],[-88.612981,30.414374],[-88.613001,30.416673],[-88.617671,30.422399],[-88.617655,30.424868],[-88.615906,30.426396],[-88.612257,30.428374],[-88.611536,30.430309],[-88.61214,30.431288],[-88.612559,30.434817],[-88.611707,30.436976],[-88.612174,30.438431],[-88.613328,30.439913],[-88.616528,30.441794],[-88.619922,30.444708],[-88.6224,30.446301],[-88.627704,30.450915],[-88.627456,30.45232],[-88.626777,30.453268],[-88.624203,30.454826],[-88.619221,30.456118],[-88.618233,30.457817],[-88.617859,30.460068],[-88.618381,30.461047],[-88.62134,30.462982],[-88.623303,30.466339],[-88.623428,30.46796],[-88.622096,30.47034],[-88.622909,30.47194],[-88.624949,30.473196],[-88.62723,30.47387],[-88.628327,30.475533],[-88.628535,30.478249],[-88.626412,30.480842],[-88.627858,30.482917],[-88.629966,30.483838],[-88.633145,30.486112],[-88.63656,30.48569],[-88.639573,30.484053],[-88.639967,30.483051],[-88.648345,30.478832],[-88.651496,30.473367],[-88.654412,30.473626],[-88.656465,30.473162],[-88.658411,30.473929],[-88.660835,30.473512],[-88.662901,30.474615],[-88.66322,30.475465],[-88.661742,30.477228],[-88.663088,30.477614],[-88.666979,30.476129],[-88.667797,30.477067],[-88.667315,30.478255],[-88.670642,30.477936],[-88.673219,30.478635],[-88.674318,30.478789],[-88.676255,30.4766],[-88.678305,30.476782],[-88.680794,30.475924],[-88.682121,30.476479],[-88.681086,30.468027],[-88.679956,30.465832],[-88.678934,30.465618],[-88.679836,30.464232],[-88.681901,30.463575],[-88.676739,30.460429],[-88.675407,30.467281],[-88.672228,30.46849],[-88.668619,30.468451],[-88.66731,30.469062],[-88.664478,30.467998],[-88.664492,30.471812],[-88.65619,30.471205],[-88.648181,30.471716],[-88.648274,30.464943],[-88.648958,30.464097],[-88.65001,30.461161],[-88.650068,30.459304],[-88.649727,30.458855],[-88.65026,30.457538],[-88.652803,30.456087],[-88.653166,30.455189],[-88.653268,30.453757],[-88.656265,30.452032],[-88.660213,30.451106],[-88.663117,30.451433],[-88.66339,30.449789],[-88.666685,30.448779],[-88.664256,30.446873],[-88.661606,30.445779],[-88.658092,30.441669],[-88.6576,30.43894],[-88.657509,30.4386],[-88.6571,30.437511],[-88.655974,30.435106],[-88.656183,30.435085],[-88.665105,30.434156]]]}},{"type":"Feature","properties":{"zcta5":"39564","AFFGEOID10":"8600000US39564","GEOID10":"39564","ALAND10":137509888,"AWATER10":15055138,"county_name":"Jackson","state_code":"MS","county_state":"Jackson County, MS","county_fips":"28059","risk_level_county":"Higher Risk (60–69% vaccinated)","mean_vaccination_rate_county":60.84,"risk_level_zcta":"Medium Risk (70–79% vaccinated)","mean_vaccination_rate_zips":77.87,"cases":0},"geometry":{"type":"Polygon","coordinates":[[[-88.842971,30.454062],[-88.839159,30.444036],[-88.842428,30.443203],[-88.844428,30.441201],[-88.845247,30.43729],[-88.846605,30.437091],[-88.849092,30.43502],[-88.849028,30.433298],[-88.854029,30.427398],[-88.8550555672792,30.425850505682195],[-88.85327,30.423014],[-88.845665,30.420555],[-88.8413337778313,30.4096125971171],[-88.841328,30.409598],[-88.8241468996406,30.4025494935926],[-88.823724,30.402376],[-88.810227,30.394698],[-88.801694,30.391651],[-88.794088,30.391857],[-88.78981,30.386321],[-88.790523,30.384065],[-88.795989,30.38345],[-88.802035,30.384992],[-88.812622,30.386703],[-88.811615,30.384907],[-88.7843441162664,30.371567363746397],[-88.771742,30.365403],[-88.74835819044439,30.348635345940696],[-88.746945,30.347622],[-88.7334810923732,30.3439293450775],[-88.728893,30.342671],[-88.714077,30.342186],[-88.700587,30.343689],[-88.692164,30.347302],[-88.679575,30.35571],[-88.6697165469578,30.3597078201515],[-88.6643858625917,30.3618695302381],[-88.66628,30.36291],[-88.669114,30.363422],[-88.670755,30.364419],[-88.674853,30.364857],[-88.677258,30.365458],[-88.681174,30.363726],[-88.682231,30.36385],[-88.682814,30.365062],[-88.673621,30.370899],[-88.672721,30.369099],[-88.670221,30.371299],[-88.670221,30.372699],[-88.673021,30.372399],[-88.677021,30.372699],[-88.687419,30.385696],[-88.688803,30.392882],[-88.698152,30.395219],[-88.720961,30.39979],[-88.71967,30.402534],[-88.698131,30.399065],[-88.698004,30.414321],[-88.664874,30.414089],[-88.665105,30.434156],[-88.684482,30.432141],[-88.688524,30.432073],[-88.693881,30.433225],[-88.699179,30.435131],[-88.729646,30.445627],[-88.734843,30.446428],[-88.740458,30.446126],[-88.743616,30.446217],[-88.747715,30.447075],[-88.778856,30.457888],[-88.781754,30.458627],[-88.785151,30.458953],[-88.790013,30.458455],[-88.800172,30.456304],[-88.809586,30.454408],[-88.811864,30.454273],[-88.842762,30.454064],[-88.842971,30.454062]]]}},{"type":"Feature","properties":{"zcta5":"39563","AFFGEOID10":"8600000US39563","GEOID10":"39563","ALAND10":52737197,"AWATER10":4236994,"county_name":"Jackson","state_code":"MS","county_state":"Jackson County, MS","county_fips":"28059","risk_level_county":"Higher Risk (60–69% vaccinated)","mean_vaccination_rate_county":60.84,"risk_level_zcta":"Higher Risk (60–69% vaccinated)","mean_vaccination_rate_zips":68.97,"cases":0},"geometry":{"type":"Polygon","coordinates":[[[-88.560988,30.451844],[-88.563071,30.450304],[-88.567127,30.44833],[-88.568437,30.446908],[-88.568029,30.444359],[-88.566465,30.443744],[-88.561482,30.443627],[-88.559331,30.442853],[-88.558434,30.441928],[-88.557596,30.439202],[-88.558313,30.436413],[-88.559924,30.432186],[-88.56017,30.430474],[-88.559858,30.424634],[-88.560503,30.422303],[-88.56444,30.420105],[-88.571351,30.419973],[-88.574113,30.419017],[-88.574089,30.41764],[-88.574601,30.416555],[-88.574826,30.41321],[-88.574349,30.41131],[-88.573345,30.410219],[-88.570796,30.408975],[-88.569292,30.407527],[-88.568783,30.40565],[-88.567629,30.404751],[-88.564841,30.40465],[-88.560192,30.405956],[-88.55897,30.404744],[-88.557965,30.400104],[-88.557544,30.396191],[-88.556303,30.395838],[-88.556202,30.392176],[-88.555255,30.391071],[-88.554171,30.390981],[-88.55047,30.392362],[-88.549003,30.393683],[-88.549434,30.394173],[-88.545852,30.391217],[-88.5446,30.38958],[-88.544656,30.389377],[-88.543974,30.388769],[-88.539999,30.388727],[-88.529771,30.389717],[-88.530698,30.389586],[-88.530694,30.384199],[-88.526647,30.384125],[-88.520732,30.387213],[-88.520636,30.3896],[-88.519277,30.389452],[-88.519587,30.387771],[-88.517514,30.3888],[-88.516354,30.385067],[-88.514652,30.386154],[-88.515523,30.389793],[-88.511297,30.389695],[-88.510806,30.388198],[-88.507168,30.390039],[-88.501201,30.393834],[-88.488587,30.401824],[-88.482092,30.40639],[-88.478186,30.409085],[-88.479082,30.410223],[-88.479115,30.410387],[-88.479141,30.413582],[-88.479706,30.413569],[-88.479716,30.420881],[-88.479076,30.428427],[-88.483963,30.428268],[-88.486482,30.431304],[-88.485719,30.432548],[-88.482622,30.432582],[-88.48192,30.434127],[-88.481584,30.437828],[-88.480714,30.438175],[-88.477632,30.442527],[-88.479788,30.44284],[-88.480623,30.445518],[-88.47957,30.445682],[-88.479112,30.447135],[-88.480028,30.447582],[-88.4787,30.449336],[-88.476076,30.451004],[-88.47545,30.454296],[-88.474397,30.455211],[-88.474474,30.456968],[-88.490911,30.456194],[-88.495087,30.455668],[-88.499625,30.454222],[-88.527353,30.442172],[-88.528522,30.441714],[-88.530874,30.447551],[-88.530621,30.448323],[-88.525209,30.450048],[-88.522829,30.451901],[-88.52242,30.454547],[-88.524528,30.463759],[-88.524495,30.465062],[-88.514927,30.46493],[-88.514824,30.472741],[-88.535546,30.47276],[-88.533037,30.45832],[-88.534303,30.458314],[-88.542124,30.458307],[-88.544481,30.458298],[-88.545597,30.458342],[-88.545714,30.458347],[-88.550346,30.457162],[-88.554517,30.452928],[-88.557494,30.451293],[-88.55957,30.451921],[-88.560988,30.451844]]]}},{"type":"Feature","properties":{"zcta5":"39567","AFFGEOID10":"8600000US39567","GEOID10":"39567","ALAND10":34441841,"AWATER10":2697208,"county_name":"Jackson","state_code":"MS","county_state":"Jackson County, MS","county_fips":"28059","risk_level_county":"Higher Risk (60–69% vaccinated)","mean_vaccination_rate_county":60.84,"risk_level_zcta":"Higher Risk (60–69% vaccinated)","mean_vaccination_rate_zips":64.04,"cases":0},"geometry":{"type":"MultiPolygon","coordinates":[[[[-88.502966,30.215235],[-88.506999,30.214348],[-88.502752,30.210506],[-88.493523,30.205945],[-88.4790274432245,30.2025415309645],[-88.45885202929729,30.197804465831897],[-88.453654,30.196584],[-88.42925,30.200387],[-88.413087,30.206344],[-88.420121,30.209098],[-88.430332,30.208548],[-88.442654,30.202314],[-88.453444,30.201236],[-88.468668,30.203731],[-88.491759,30.209014],[-88.502966,30.215235]]],[[[-88.564627,30.367433],[-88.56545,30.366493],[-88.564891,30.358991],[-88.565029,30.355396],[-88.566478,30.352538],[-88.56741,30.35153],[-88.566449,30.348927],[-88.567791,30.34471],[-88.565665,30.345107],[-88.56274901492701,30.343845411941597],[-88.54609603473969,30.343502491944598],[-88.536214,30.343299],[-88.526936,30.342434],[-88.522494,30.340092],[-88.520418,30.343006],[-88.522634,30.34333],[-88.523318,30.344603],[-88.525713,30.344609],[-88.526533,30.346145],[-88.528581,30.346414],[-88.528534,30.354803],[-88.532391,30.354843],[-88.532263,30.362206],[-88.531358,30.362194],[-88.532563,30.363932],[-88.53252,30.366318],[-88.533417,30.366317],[-88.534152,30.370089],[-88.535111,30.372347],[-88.536227,30.372547],[-88.532368,30.374919],[-88.532641,30.3772],[-88.534791,30.377405],[-88.534637,30.37818],[-88.52898,30.38026],[-88.52897,30.377071],[-88.525414,30.379336],[-88.528933,30.382796],[-88.530683,30.381881],[-88.530694,30.384199],[-88.530698,30.389586],[-88.529771,30.389717],[-88.539999,30.388727],[-88.543974,30.388769],[-88.544656,30.389377],[-88.548515,30.389179],[-88.545249,30.386252],[-88.547311,30.385189],[-88.547142,30.384485],[-88.553622,30.381366],[-88.556329,30.38222],[-88.559047,30.382019],[-88.560564,30.382573],[-88.56249,30.380934],[-88.563597,30.377513],[-88.562591,30.375505],[-88.562655,30.371892],[-88.563901,30.368511],[-88.564627,30.367433]],[[-88.528581,30.346414],[-88.528678,30.345665],[-88.528578,30.34347],[-88.529073,30.34409],[-88.530177,30.344263],[-88.53045,30.346188],[-88.529059,30.346476],[-88.528581,30.346414]]],[[[-88.58459,30.337358],[-88.584773,30.335769],[-88.584053,30.33406],[-88.582568,30.331342],[-88.579509,30.329866],[-88.575594,30.329323],[-88.5740386430664,30.329076355773395],[-88.573433,30.329506],[-88.573483,30.331084],[-88.573949,30.331677],[-88.5712,30.333803],[-88.570867,30.336682],[-88.5698062624943,30.340399461872597],[-88.56988,30.341322],[-88.5712599749965,30.340981752196598],[-88.57177,30.340856],[-88.574469,30.33938],[-88.575594,30.338177],[-88.576449,30.338371],[-88.5771746584812,30.338518345033698],[-88.577054,30.336798],[-88.579395,30.337302],[-88.58028375574159,30.3386008743129],[-88.581038,30.338371],[-88.58157356257539,30.3384958037713],[-88.580754,30.337474],[-88.582716,30.337377],[-88.583895,30.337399],[-88.58459,30.337358]]],[[[-88.7684402408924,30.2431593516806],[-88.764022,30.241488],[-88.76312161964479,30.2399639864197],[-88.752782,30.238803],[-88.730628,30.241462],[-88.714941,30.243721],[-88.71093475657501,30.2425069794935],[-88.698418,30.238714],[-88.69796085872589,30.2385250953324],[-88.68702,30.234004],[-88.665857,30.228847],[-88.652906,30.229141],[-88.633743,30.226342],[-88.600497,30.221183],[-88.586831,30.221543],[-88.59638,30.225615],[-88.635318,30.230579],[-88.649326,30.234518],[-88.656804,30.233956],[-88.6748496183368,30.2409436412805],[-88.680186,30.24301],[-88.688308,30.243798],[-88.710719,30.250799],[-88.718104,30.252931],[-88.71946790392809,30.2523070182015],[-88.73255,30.246322],[-88.7497932095461,30.245972985364798],[-88.75083,30.245952],[-88.763316234906,30.243971921298098],[-88.7684402408924,30.2431593516806]]]]}},{"type":"Feature","properties":{"zcta5":"39532","AFFGEOID10":"8600000US39532","GEOID10":"39532","ALAND10":204404721,"AWATER10":11753935,"county_name":"Jackson","state_code":"MS","county_state":"Jackson County, MS","county_fips":"28059","risk_level_county":"Higher Risk (60–69% vaccinated)","mean_vaccination_rate_county":60.84,"risk_level_zcta":"Medium Risk (70–79% vaccinated)","mean_vaccination_rate_zips":77.56,"cases":0},"geometry":{"type":"Polygon","coordinates":[[[-88.88978,30.511069],[-88.896474,30.50803],[-88.900627,30.508477],[-88.906231,30.50846],[-88.910934,30.510754],[-88.911209,30.5152],[-88.911934,30.517881],[-88.917923,30.528342],[-88.922072,30.533394],[-88.924863,30.533644],[-88.934868,30.535324],[-88.95014,30.544978],[-88.952597,30.543432],[-88.956417,30.549198],[-88.956973,30.551357],[-88.959992,30.555507],[-88.963507,30.561578],[-88.967396,30.567468],[-88.966166,30.567967],[-88.969185,30.568761],[-88.979017,30.575407],[-88.994655,30.554875],[-88.997046,30.55131],[-89.00038,30.55367],[-89.001227,30.55506],[-89.005225,30.556628],[-89.008132,30.557109],[-89.010703,30.555522],[-89.012763,30.557261],[-89.015815,30.558346],[-89.022987,30.55992],[-89.023598,30.560366],[-89.022219,30.562983],[-89.021676,30.566363],[-89.024256,30.56981],[-89.026671,30.57151],[-89.032156,30.574464],[-89.032893,30.575261],[-89.035678,30.576099],[-89.03748,30.577362],[-89.041296,30.581205],[-89.042329,30.581545],[-89.046503,30.584923],[-89.048743,30.585375],[-89.048552,30.580784],[-89.05041,30.579076],[-89.047583,30.572202],[-89.048016,30.571479],[-89.050169,30.570978],[-89.050092,30.572529],[-89.051793,30.573753],[-89.053681,30.576613],[-89.055208,30.575237],[-89.059427,30.574516],[-89.060945,30.572386],[-89.063768,30.570709],[-89.063791,30.566765],[-89.065164,30.564888],[-89.066759,30.563763],[-89.068003,30.561748],[-89.067941,30.559891],[-89.071634,30.556166],[-89.072763,30.551857],[-89.072603,30.548773],[-89.071947,30.544947],[-89.073198,30.541392],[-89.072175,30.539442],[-89.072069,30.536864],[-89.070329,30.536284],[-89.070848,30.53549],[-89.068942,30.532852],[-89.064997,30.531375],[-89.062462,30.528604],[-89.062289,30.526702],[-89.061488,30.525791],[-89.057872,30.524212],[-89.057175,30.522269],[-89.05566,30.520935],[-89.056541,30.518419],[-89.055682,30.517205],[-89.052704,30.515156],[-89.055151,30.514155],[-89.055402,30.513077],[-89.052804,30.511716],[-89.052745,30.508754],[-89.050273,30.50766],[-89.05044,30.507061],[-89.052677,30.506177],[-89.051412,30.504818],[-89.051452,30.504256],[-89.053059,30.502714],[-89.052193,30.50173],[-89.05015,30.502489],[-89.049386,30.502558],[-89.048809,30.502308],[-89.04726,30.499946],[-89.047127,30.499385],[-89.047405,30.498502],[-89.046376,30.497848],[-89.043372,30.498161],[-89.042478,30.497839],[-89.038486,30.492744],[-89.036493,30.491407],[-89.037572,30.489994],[-89.037725,30.488647],[-89.032752,30.487273],[-89.032206,30.489388],[-89.03109,30.488897],[-89.031622,30.487575],[-89.03092,30.486536],[-89.031926,30.485603],[-89.030267,30.484138],[-89.029601,30.484874],[-89.028137,30.484703],[-89.026473,30.485823],[-89.025251,30.484732],[-89.025675,30.482986],[-89.025046,30.482504],[-89.026031,30.481492],[-89.02501,30.479906],[-89.023791,30.47932],[-89.021587,30.481019],[-89.020364,30.478819],[-89.021605,30.476081],[-89.023042,30.475921],[-89.02334,30.47502],[-89.022052,30.47454],[-89.020153,30.475478],[-89.0188,30.474675],[-89.016484,30.475505],[-89.016242,30.473944],[-89.01344,30.472876],[-89.014819,30.470536],[-89.012951,30.469216],[-89.010938,30.469179],[-89.010073,30.46784],[-89.010927,30.466188],[-89.013612,30.467606],[-89.014307,30.466557],[-89.011999,30.465423],[-89.010062,30.463572],[-89.009986,30.46345],[-89.010244,30.462624],[-89.013408,30.462105],[-89.011294,30.459075],[-89.009531,30.45785],[-89.010874,30.455998],[-89.013023,30.454554],[-89.013686,30.453476],[-89.013636,30.452535],[-89.009887,30.450841],[-89.009729,30.452966],[-89.008244,30.452441],[-89.00823,30.450254],[-89.0095,30.448521],[-89.009516,30.448307],[-89.007357,30.447324],[-89.007435,30.446599],[-89.010112,30.444417],[-89.010232,30.441313],[-89.01252,30.438452],[-89.010969,30.437739],[-89.009027,30.435938],[-89.008219,30.434206],[-89.007001,30.429842],[-89.004717,30.4289],[-89.0031,30.431209],[-89.00014,30.432636],[-88.996645,30.432726],[-88.994645,30.43455],[-88.992496,30.434627],[-88.990447,30.431709],[-88.984957,30.429908],[-88.983382,30.429788],[-88.981118,30.428268],[-88.979595,30.426045],[-88.979233,30.424597],[-88.979533,30.420497],[-88.978833,30.415897],[-88.975617,30.41554],[-88.973433,30.415897],[-88.969633,30.418497],[-88.966533,30.419897],[-88.948432,30.420897],[-88.943862,30.419342],[-88.942591,30.419342],[-88.939898,30.41788],[-88.932878,30.41728],[-88.919623,30.422705],[-88.916752,30.423156],[-88.916947,30.428953],[-88.918901,30.429035],[-88.916779,30.431534],[-88.917243,30.435501],[-88.917104,30.447645],[-88.917203,30.453691],[-88.91275,30.453747],[-88.912833,30.455143],[-88.913804,30.457484],[-88.912091,30.457997],[-88.911042,30.459218],[-88.909445,30.459801],[-88.906118,30.458877],[-88.904653,30.459294],[-88.903842,30.461065],[-88.903022,30.461177],[-88.902167,30.460183],[-88.900587,30.459889],[-88.896272,30.461661],[-88.89506,30.460646],[-88.892774,30.461626],[-88.889595,30.461636],[-88.88343,30.464665],[-88.88333,30.460797],[-88.883429,30.457504],[-88.88313,30.418798],[-88.873829,30.419998],[-88.87085959588819,30.419471170238197],[-88.870146,30.424244],[-88.865392,30.427113],[-88.857786,30.430188],[-88.8550555672792,30.425850505682195],[-88.854029,30.427398],[-88.849028,30.433298],[-88.849092,30.43502],[-88.846605,30.437091],[-88.845247,30.43729],[-88.844428,30.441201],[-88.842428,30.443203],[-88.839159,30.444036],[-88.842971,30.454062],[-88.843648,30.458514],[-88.84664,30.464951],[-88.853829,30.464872],[-88.853799,30.465814],[-88.858992,30.465933],[-88.859084,30.468917],[-88.862704,30.469029],[-88.862615,30.471833],[-88.849135,30.472446],[-88.849774,30.475934],[-88.850694,30.479287],[-88.851104,30.479966],[-88.851583,30.47947],[-88.851688,30.479476],[-88.858661,30.479451],[-88.85866,30.480297],[-88.861942,30.479429],[-88.875156,30.479381],[-88.871689,30.486039],[-88.874411,30.48806],[-88.883375,30.488077],[-88.883623,30.513713],[-88.886376,30.509161],[-88.88978,30.511069]]]}}]}