{"type":"FeatureCollection","features":[{"type":"Feature","properties":{"zcta5":"52033","AFFGEOID10":"8600000US52033","GEOID10":"52033","ALAND10":252534641,"AWATER10":0,"county_name":"Jones","state_code":"IA","county_state":"Jones County, IA","county_fips":"19105","risk_level_county":"Medium Risk (70–79% vaccinated)","mean_vaccination_rate_county":78.62,"risk_level_zcta":"Medium Risk (70–79% vaccinated)","mean_vaccination_rate_zips":74.76,"cases":1},"geometry":{"type":"Polygon","coordinates":[[[-91.109872,42.321672],[-91.107289,42.319881],[-91.106781,42.318403],[-91.110126,42.317289],[-91.111783,42.31456],[-91.113949,42.313604],[-91.116414,42.313975],[-91.118595,42.316421],[-91.12595,42.319175],[-91.130163,42.319123],[-91.130079,42.295761],[-91.126669,42.295757],[-91.126571,42.291017],[-91.115121,42.291232],[-91.115132,42.289217],[-91.11059,42.289211],[-91.109899,42.283175],[-91.10543,42.283212],[-91.097273,42.284502],[-91.096568,42.284968],[-91.092212,42.285209],[-91.085517,42.286071],[-91.085341,42.281917],[-91.083753,42.280806],[-91.08427,42.274723],[-91.082286,42.274071],[-91.08242,42.270647],[-91.078263,42.267439],[-91.075049,42.266213],[-91.076494,42.263243],[-91.076247,42.260258],[-91.077792,42.258412],[-91.080555,42.257268],[-91.082955,42.255356],[-91.083261,42.252722],[-91.075101,42.252612],[-91.075262,42.249988],[-91.071094,42.250135],[-91.070801,42.247437],[-91.083296,42.246845],[-91.08381,42.242673],[-91.081269,42.242554],[-91.080399,42.241172],[-91.080892,42.239822],[-91.082861,42.239136],[-91.08246,42.237885],[-91.079781,42.236808],[-91.083503,42.233303],[-91.081377,42.232392],[-91.078545,42.233143],[-91.077344,42.231751],[-91.079651,42.230629],[-91.080665,42.227968],[-91.078386,42.227694],[-91.077523,42.226626],[-91.079431,42.225738],[-91.078138,42.224184],[-91.078506,42.223005],[-91.079768,42.223557],[-91.081738,42.223027],[-91.082231,42.222169],[-91.080385,42.22109],[-91.079955,42.219937],[-91.081402,42.220692],[-91.083218,42.220136],[-91.082265,42.218375],[-91.084696,42.21612],[-91.081652,42.215256],[-91.079929,42.214244],[-91.074486,42.213625],[-91.068797,42.213388],[-91.065812,42.214074],[-91.062059,42.215561],[-91.059382,42.214623],[-91.057845,42.212748],[-91.05283,42.212038],[-91.049877,42.212358],[-91.048709,42.211695],[-91.048636,42.208523],[-91.01408,42.20844],[-91.014057,42.202991],[-91.0123,42.203499],[-91.010436,42.205124],[-91.008943,42.207573],[-91.007295,42.206383],[-91.007896,42.204145],[-91.006735,42.203276],[-91.003593,42.203525],[-91.000161,42.20521],[-90.997126,42.205029],[-90.996879,42.203725],[-90.999615,42.202077],[-90.998228,42.199128],[-90.996751,42.197917],[-90.995088,42.195379],[-90.99238,42.192911],[-90.99035,42.192409],[-90.988536,42.19353],[-90.984323,42.193761],[-90.983707,42.192046],[-90.985213,42.190833],[-90.985089,42.189553],[-90.982259,42.187015],[-90.985179,42.186603],[-90.986841,42.187677],[-90.991115,42.187583],[-90.991268,42.186588],[-90.98976,42.185644],[-90.990588,42.183814],[-90.990002,42.182028],[-90.991247,42.180411],[-90.984971,42.180406],[-90.984119,42.178585],[-90.979601,42.178574],[-90.979306,42.182674],[-90.977481,42.185403],[-90.974579,42.183554],[-90.973948,42.181649],[-90.970417,42.18025],[-90.969371,42.178033],[-90.965097,42.178011],[-90.962484,42.179064],[-90.961439,42.180505],[-90.959563,42.181237],[-90.957842,42.183364],[-90.952738,42.182907],[-90.948648,42.179569],[-90.945851,42.180689],[-90.945051,42.181673],[-90.946773,42.182702],[-90.94333,42.183754],[-90.9417,42.185423],[-90.941238,42.187687],[-90.941792,42.189197],[-90.937456,42.190226],[-90.936718,42.19297],[-90.937487,42.193176],[-90.937948,42.195531],[-90.941976,42.195691],[-90.941484,42.196514],[-90.939209,42.197063],[-90.937333,42.199167],[-90.941331,42.197635],[-90.94253,42.198366],[-90.941546,42.200355],[-90.941946,42.20143],[-90.943576,42.201727],[-90.942484,42.204908],[-90.941494,42.205263],[-90.937614,42.202152],[-90.933922,42.200559],[-90.932801,42.19904],[-90.930672,42.198009],[-90.92237,42.197715],[-90.918339,42.196986],[-90.915792,42.195602],[-90.910337,42.195484],[-90.908144,42.193489],[-90.907938,42.190195],[-90.907052,42.189548],[-90.902412,42.189223],[-90.900325,42.190287],[-90.898279,42.192246],[-90.898268,42.206475],[-90.898217,42.218674],[-90.900689,42.220839],[-90.90595,42.219194],[-90.908411,42.219766],[-90.908934,42.220681],[-90.90558,42.2218],[-90.904718,42.2226],[-90.904502,42.223401],[-90.906347,42.224865],[-90.909761,42.226512],[-90.909452,42.229073],[-90.912159,42.230743],[-90.913298,42.230424],[-90.914622,42.227565],[-90.914069,42.225141],[-90.914593,42.223541],[-90.916408,42.223541],[-90.917391,42.227177],[-90.920867,42.229442],[-90.921267,42.230608],[-90.920497,42.23246],[-90.923142,42.2358],[-90.922249,42.237423],[-90.919233,42.238726],[-90.918587,42.239778],[-90.922617,42.243002],[-90.924555,42.245403],[-90.924555,42.24657],[-90.922219,42.25062],[-90.922465,42.253296],[-90.923388,42.254257],[-90.927174,42.254348],[-90.928682,42.255218],[-90.928959,42.258145],[-90.931422,42.258374],[-90.934007,42.257276],[-90.938255,42.257229],[-90.939702,42.259196],[-90.938963,42.261025],[-90.941211,42.264204],[-90.939795,42.265896],[-90.940257,42.266971],[-90.943397,42.266719],[-90.947522,42.267497],[-90.949432,42.269806],[-90.949617,42.270995],[-90.946168,42.272391],[-90.943059,42.274243],[-90.942966,42.275226],[-90.944753,42.277856],[-90.942231,42.277632],[-90.938201,42.277913],[-90.93569,42.277638],[-90.932271,42.276464],[-90.931881,42.275203],[-90.930187,42.275844],[-90.928003,42.278959],[-90.929122,42.281029],[-90.927394,42.282405],[-90.925509,42.285613],[-90.923503,42.287011],[-90.921926,42.289531],[-90.917486,42.289857],[-90.917021,42.291323],[-90.914092,42.291534],[-90.912456,42.292862],[-90.913407,42.294262],[-90.915314,42.293647],[-90.919621,42.294065],[-90.919157,42.295189],[-90.89802,42.295236],[-90.897995,42.345731],[-90.907475,42.345629],[-90.908222,42.344824],[-90.908147,42.333279],[-90.911655,42.331865],[-90.912087,42.330241],[-90.913474,42.329282],[-90.913999,42.32663],[-90.914924,42.325624],[-90.913654,42.322577],[-90.916752,42.321297],[-90.924695,42.319543],[-90.925404,42.320046],[-90.930025,42.320663],[-90.92947,42.322149],[-90.93061,42.323841],[-90.934246,42.323453],[-90.936342,42.325214],[-90.941488,42.32606],[-90.941796,42.327386],[-90.944169,42.328781],[-90.946203,42.328095],[-90.948391,42.328438],[-90.946635,42.331068],[-90.950179,42.33093],[-90.950919,42.332394],[-90.952891,42.333103],[-90.954958,42.335314],[-90.958014,42.33666],[-90.956748,42.339692],[-90.958858,42.339675],[-90.962428,42.341743],[-90.954293,42.347239],[-90.952326,42.34894],[-90.946236,42.357248],[-90.943789,42.359332],[-90.938787,42.360902],[-90.94168,42.361156],[-90.9443,42.364516],[-90.947043,42.365635],[-90.949171,42.368422],[-90.949232,42.370022],[-90.951329,42.370136],[-90.950867,42.37121],[-90.952932,42.372192],[-90.95543,42.372601],[-90.956324,42.374515],[-90.960054,42.374604],[-90.961078,42.376808],[-90.960399,42.377517],[-90.962928,42.37955],[-90.961602,42.381562],[-90.960013,42.382366],[-90.971543,42.38244],[-90.971582,42.378802],[-90.975634,42.378712],[-90.979018,42.377059],[-90.980935,42.377487],[-90.979012,42.37636],[-90.978692,42.372584],[-90.97795,42.371085],[-90.979272,42.369359],[-90.979175,42.366929],[-90.976921,42.365481],[-90.976639,42.362961],[-90.978736,42.363555],[-90.984903,42.363462],[-90.9882,42.360579],[-90.989187,42.360739],[-90.989435,42.363025],[-90.992087,42.363459],[-90.993967,42.361606],[-90.996371,42.360621],[-90.996771,42.359592],[-91.000579,42.35792],[-91.003253,42.358653],[-91.004422,42.359889],[-91.004875,42.351611],[-91.006022,42.351514],[-91.010012,42.353035],[-91.012918,42.354772],[-91.017765,42.355963],[-91.018663,42.357291],[-91.018772,42.3598],[-91.020391,42.361065],[-91.047951,42.360954],[-91.054433,42.360847],[-91.081962,42.361046],[-91.082322,42.354726],[-91.08268,42.34644],[-91.082948,42.342998],[-91.081437,42.340912],[-91.081468,42.339651],[-91.078941,42.336967],[-91.079156,42.33236],[-91.077091,42.331374],[-91.075767,42.329012],[-91.077955,42.328047],[-91.076814,42.327152],[-91.076446,42.324584],[-91.074072,42.32442],[-91.073425,42.323571],[-91.070437,42.324],[-91.070128,42.323382],[-91.071176,42.32265],[-91.073149,42.31691],[-91.075521,42.314851],[-91.077339,42.314028],[-91.080081,42.314371],[-91.084704,42.317572],[-91.085751,42.317183],[-91.086336,42.315147],[-91.084117,42.312586],[-91.08467,42.309705],[-91.085626,42.309156],[-91.087875,42.309224],[-91.095024,42.311578],[-91.096258,42.314527],[-91.098509,42.316927],[-91.099773,42.319419],[-91.102024,42.32214],[-91.104704,42.319715],[-91.106214,42.320606],[-91.107448,42.322458],[-91.109872,42.321672]]]}},{"type":"Feature","properties":{"zcta5":"52312","AFFGEOID10":"8600000US52312","GEOID10":"52312","ALAND10":242871,"AWATER10":0,"county_name":"Jones","state_code":"IA","county_state":"Jones County, IA","county_fips":"19105","risk_level_county":"Medium Risk (70–79% vaccinated)","mean_vaccination_rate_county":78.62,"risk_level_zcta":"Very High Risk (<60% vaccinated)","mean_vaccination_rate_zips":40.76,"cases":1},"geometry":{"type":"Polygon","coordinates":[[[-91.249718,42.007652],[-91.249768,42.004179],[-91.241883,42.004586],[-91.241976,42.007853],[-91.24452,42.007764],[-91.249718,42.007652]]]}},{"type":"Feature","properties":{"zcta5":"52212","AFFGEOID10":"8600000US52212","GEOID10":"52212","ALAND10":60780732,"AWATER10":10057,"county_name":"Jones","state_code":"IA","county_state":"Jones County, IA","county_fips":"19105","risk_level_county":"Medium Risk (70–79% vaccinated)","mean_vaccination_rate_county":78.62,"risk_level_zcta":"Medium Risk (70–79% vaccinated)","mean_vaccination_rate_zips":77.19,"cases":1},"geometry":{"type":"Polygon","coordinates":[[[-91.131835,42.120996],[-91.131714,42.110181],[-91.132299,42.109275],[-91.135557,42.107623],[-91.136815,42.104969],[-91.145196,42.105212],[-91.145511,42.103404],[-91.143813,42.10181],[-91.144006,42.092414],[-91.151297,42.09256],[-91.150785,42.077339],[-91.146491,42.077095],[-91.144003,42.075324],[-91.143206,42.073426],[-91.14026,42.071801],[-91.136301,42.071502],[-91.13357,42.07022],[-91.134062,42.069099],[-91.131712,42.067504],[-91.131673,42.077549],[-91.122028,42.078478],[-91.053699,42.077615],[-91.053252,42.087257],[-91.05106,42.085209],[-91.041725,42.083295],[-91.037903,42.081045],[-91.034266,42.080438],[-91.034501,42.106574],[-91.045089,42.106661],[-91.043481,42.108127],[-91.043112,42.109774],[-91.037214,42.114049],[-91.035309,42.114048],[-91.02815,42.116447],[-91.02339,42.12051],[-91.0339,42.121281],[-91.033584,42.143951],[-91.03921,42.14383],[-91.039303,42.146527],[-91.042182,42.14549],[-91.044517,42.146017],[-91.044763,42.145079],[-91.046422,42.146108],[-91.048443,42.145431],[-91.048384,42.148114],[-91.058542,42.14715],[-91.063125,42.14715],[-91.072848,42.146777],[-91.081746,42.147595],[-91.093213,42.148081],[-91.093478,42.144338],[-91.093502,42.135698],[-91.112238,42.136025],[-91.112218,42.128631],[-91.114846,42.129744],[-91.117664,42.129376],[-91.121462,42.129737],[-91.131275,42.131397],[-91.131385,42.124996],[-91.131835,42.120996]]]}},{"type":"Feature","properties":{"zcta5":"52305","AFFGEOID10":"8600000US52305","GEOID10":"52305","ALAND10":73493551,"AWATER10":0,"county_name":"Jones","state_code":"IA","county_state":"Jones County, IA","county_fips":"19105","risk_level_county":"Medium Risk (70–79% vaccinated)","mean_vaccination_rate_county":78.62,"risk_level_zcta":"Higher Risk (60–69% vaccinated)","mean_vaccination_rate_zips":61.49,"cases":1},"geometry":{"type":"Polygon","coordinates":[[[-91.36478,42.070529],[-91.364982,42.024803],[-91.368609,42.022492],[-91.373119,42.020708],[-91.373491,42.02007],[-91.384679,42.020073],[-91.384481,42.034569],[-91.404257,42.034255],[-91.404232,42.019754],[-91.418843,42.019742],[-91.419001,42.007633],[-91.417746,42.008624],[-91.416396,42.011849],[-91.411745,42.012969],[-91.411766,42.014156],[-91.409219,42.014093],[-91.408299,42.012767],[-91.407471,42.013659],[-91.405017,42.012677],[-91.404267,42.011427],[-91.404425,41.99079],[-91.374544,41.990981],[-91.376193,41.983753],[-91.365479,41.98377],[-91.365585,41.97641],[-91.346451,41.976204],[-91.346669,41.977395],[-91.346478,41.984068],[-91.307835,41.983994],[-91.298513,41.983946],[-91.297966,41.983379],[-91.298095,41.976607],[-91.288299,41.976628],[-91.288259,41.994956],[-91.288196,42.002904],[-91.28285,42.003079],[-91.274938,42.004132],[-91.267984,42.003605],[-91.264854,42.002706],[-91.267564,42.005723],[-91.268905,42.006161],[-91.274088,42.006436],[-91.280435,42.007788],[-91.284053,42.009756],[-91.285125,42.012112],[-91.287609,42.013485],[-91.2877,42.015406],[-91.290368,42.016847],[-91.288919,42.023444],[-91.287609,42.024475],[-91.28747,42.026934],[-91.28812,42.032732],[-91.287843,42.034318],[-91.277416,42.034315],[-91.277306,42.035766],[-91.277762,42.049992],[-91.286559,42.053421],[-91.287035,42.056458],[-91.296802,42.056384],[-91.296796,42.052727],[-91.303492,42.052638],[-91.304155,42.052083],[-91.304216,42.049574],[-91.304908,42.049017],[-91.331039,42.049009],[-91.331027,42.063622],[-91.325674,42.063624],[-91.322513,42.062943],[-91.32152,42.064373],[-91.321653,42.06668],[-91.322737,42.070526],[-91.331082,42.070597],[-91.335433,42.071078],[-91.334311,42.069673],[-91.336785,42.069255],[-91.338049,42.067546],[-91.340579,42.068441],[-91.347166,42.068876],[-91.349579,42.071096],[-91.358936,42.071178],[-91.36478,42.070529]]]}},{"type":"Feature","properties":{"zcta5":"52237","AFFGEOID10":"8600000US52237","GEOID10":"52237","ALAND10":210347961,"AWATER10":114007,"county_name":"Jones","state_code":"IA","county_state":"Jones County, IA","county_fips":"19105","risk_level_county":"Medium Risk (70–79% vaccinated)","mean_vaccination_rate_county":78.62,"risk_level_zcta":"Lower Risk (80–84% vaccinated)","mean_vaccination_rate_zips":80.04,"cases":1},"geometry":{"type":"Polygon","coordinates":[[[-91.403419,42.361826],[-91.40297,42.361182],[-91.40274,42.332736],[-91.422321,42.332609],[-91.422107,42.310803],[-91.402528,42.310904],[-91.40257,42.322151],[-91.397715,42.322987],[-91.396534,42.324678],[-91.393218,42.324856],[-91.392052,42.323825],[-91.385229,42.324162],[-91.38308,42.32396],[-91.38296,42.310944],[-91.363372,42.311056],[-91.363263,42.296445],[-91.31062,42.296432],[-91.30825,42.296091],[-91.295632,42.296365],[-91.266196,42.296105],[-91.266251,42.30317],[-91.244821,42.303126],[-91.240107,42.30147],[-91.238559,42.302086],[-91.237975,42.3005],[-91.236339,42.299027],[-91.237232,42.296001],[-91.224168,42.296062],[-91.224026,42.296044],[-91.130079,42.295761],[-91.130163,42.319123],[-91.12595,42.319175],[-91.118595,42.316421],[-91.116414,42.313975],[-91.113949,42.313604],[-91.111783,42.31456],[-91.110126,42.317289],[-91.106781,42.318403],[-91.107289,42.319881],[-91.109872,42.321672],[-91.111831,42.323031],[-91.111351,42.323841],[-91.108559,42.324859],[-91.105016,42.327856],[-91.105448,42.328977],[-91.108901,42.330988],[-91.111769,42.33357],[-91.111709,42.335354],[-91.113466,42.335102],[-91.116486,42.333248],[-91.119754,42.334024],[-91.121632,42.335497],[-91.123625,42.335435],[-91.123604,42.334432],[-91.126502,42.33447],[-91.12648,42.3332],[-91.130277,42.333158],[-91.130394,42.345542],[-91.131834,42.3463],[-91.140906,42.346675],[-91.150277,42.34671],[-91.150446,42.349429],[-91.15188,42.350267],[-91.15043,42.352071],[-91.150694,42.355738],[-91.150296,42.356463],[-91.150244,42.361227],[-91.146607,42.36156],[-91.146115,42.36287],[-91.145368,42.368586],[-91.145178,42.373187],[-91.14527,42.382661],[-91.174738,42.382719],[-91.174751,42.390073],[-91.169864,42.39003],[-91.170086,42.422204],[-91.171221,42.422695],[-91.178681,42.42272],[-91.179792,42.423472],[-91.179795,42.425638],[-91.180831,42.426474],[-91.189615,42.426486],[-91.18968,42.433809],[-91.204302,42.433756],[-91.204243,42.426453],[-91.218899,42.426389],[-91.220043,42.423874],[-91.218507,42.420928],[-91.216315,42.420266],[-91.216746,42.418093],[-91.214893,42.41512],[-91.218628,42.41329],[-91.221034,42.411665],[-91.218503,42.409882],[-91.218039,42.408373],[-91.215324,42.408259],[-91.215076,42.406636],[-91.212787,42.404641],[-91.247348,42.404716],[-91.247106,42.403786],[-91.247132,42.394247],[-91.251944,42.394623],[-91.257134,42.395996],[-91.263261,42.396791],[-91.279057,42.403313],[-91.282935,42.404141],[-91.282849,42.402137],[-91.28163,42.397504],[-91.28151,42.392535],[-91.280803,42.390658],[-91.28936,42.390095],[-91.29031,42.391197],[-91.293073,42.38909],[-91.29297,42.388444],[-91.289498,42.384141],[-91.28646,42.381641],[-91.286358,42.379719],[-91.28416,42.376641],[-91.282617,42.375539],[-91.281481,42.373411],[-91.28138,42.368777],[-91.285066,42.368818],[-91.288639,42.361828],[-91.290411,42.360125],[-91.289793,42.355736],[-91.29464,42.35434],[-91.299388,42.35441],[-91.302471,42.355211],[-91.303828,42.356079],[-91.308237,42.356011],[-91.310488,42.356903],[-91.313263,42.356994],[-91.312986,42.353495],[-91.316039,42.353106],[-91.315454,42.351322],[-91.314066,42.350636],[-91.313326,42.348143],[-91.314282,42.347572],[-91.316008,42.349653],[-91.321312,42.351643],[-91.322453,42.352763],[-91.32384,42.351597],[-91.322822,42.350224],[-91.321157,42.349744],[-91.32014,42.347206],[-91.321157,42.345147],[-91.324086,42.346153],[-91.325412,42.345284],[-91.327262,42.345742],[-91.331486,42.347845],[-91.331489,42.350428],[-91.333499,42.3536],[-91.336432,42.353539],[-91.338614,42.354055],[-91.341967,42.353538],[-91.342717,42.352744],[-91.345153,42.352547],[-91.347963,42.354555],[-91.351274,42.355714],[-91.352993,42.357058],[-91.357293,42.358343],[-91.376197,42.35826],[-91.378353,42.35924],[-91.378597,42.361804],[-91.393126,42.361831],[-91.403419,42.361826]]]}},{"type":"Feature","properties":{"zcta5":"52032","AFFGEOID10":"8600000US52032","GEOID10":"52032","ALAND10":272313937,"AWATER10":258490,"county_name":"Jones","state_code":"IA","county_state":"Jones County, IA","county_fips":"19105","risk_level_county":"Medium Risk (70–79% vaccinated)","mean_vaccination_rate_county":78.62,"risk_level_zcta":"Medium Risk (70–79% vaccinated)","mean_vaccination_rate_zips":71.55,"cases":1},"geometry":{"type":"Polygon","coordinates":[[[-90.938787,42.360902],[-90.943789,42.359332],[-90.946236,42.357248],[-90.952326,42.34894],[-90.954293,42.347239],[-90.962428,42.341743],[-90.958858,42.339675],[-90.956748,42.339692],[-90.958014,42.33666],[-90.954958,42.335314],[-90.952891,42.333103],[-90.950919,42.332394],[-90.950179,42.33093],[-90.946635,42.331068],[-90.948391,42.328438],[-90.946203,42.328095],[-90.944169,42.328781],[-90.941796,42.327386],[-90.941488,42.32606],[-90.936342,42.325214],[-90.934246,42.323453],[-90.93061,42.323841],[-90.92947,42.322149],[-90.930025,42.320663],[-90.925404,42.320046],[-90.924695,42.319543],[-90.916752,42.321297],[-90.913654,42.322577],[-90.914924,42.325624],[-90.913999,42.32663],[-90.913474,42.329282],[-90.912087,42.330241],[-90.911655,42.331865],[-90.908147,42.333279],[-90.908222,42.344824],[-90.907475,42.345629],[-90.897995,42.345731],[-90.89802,42.295236],[-90.919157,42.295189],[-90.919621,42.294065],[-90.915314,42.293647],[-90.913407,42.294262],[-90.912456,42.292862],[-90.914092,42.291534],[-90.917021,42.291323],[-90.917486,42.289857],[-90.921926,42.289531],[-90.923503,42.287011],[-90.925509,42.285613],[-90.927394,42.282405],[-90.929122,42.281029],[-90.928003,42.278959],[-90.930187,42.275844],[-90.931881,42.275203],[-90.932271,42.276464],[-90.93569,42.277638],[-90.938201,42.277913],[-90.942231,42.277632],[-90.944753,42.277856],[-90.942966,42.275226],[-90.943059,42.274243],[-90.946168,42.272391],[-90.949617,42.270995],[-90.949432,42.269806],[-90.947522,42.267497],[-90.943397,42.266719],[-90.940257,42.266971],[-90.939795,42.265896],[-90.941211,42.264204],[-90.938963,42.261025],[-90.939702,42.259196],[-90.938255,42.257229],[-90.934007,42.257276],[-90.931422,42.258374],[-90.928959,42.258145],[-90.928682,42.255218],[-90.927174,42.254348],[-90.923388,42.254257],[-90.922465,42.253296],[-90.922219,42.25062],[-90.924555,42.24657],[-90.924555,42.245403],[-90.922617,42.243002],[-90.918587,42.239778],[-90.919233,42.238726],[-90.922249,42.237423],[-90.923142,42.2358],[-90.920497,42.23246],[-90.921267,42.230608],[-90.920867,42.229442],[-90.917391,42.227177],[-90.916408,42.223541],[-90.914593,42.223541],[-90.914069,42.225141],[-90.914622,42.227565],[-90.913298,42.230424],[-90.912159,42.230743],[-90.909452,42.229073],[-90.909761,42.226512],[-90.906347,42.224865],[-90.904502,42.223401],[-90.904718,42.2226],[-90.90558,42.2218],[-90.908934,42.220681],[-90.908411,42.219766],[-90.90595,42.219194],[-90.900689,42.220839],[-90.898217,42.218674],[-90.898268,42.206475],[-90.874132,42.206506],[-90.876186,42.205027],[-90.877235,42.201598],[-90.878375,42.199654],[-90.878255,42.196933],[-90.875599,42.194319],[-90.88107,42.194286],[-90.88121,42.188449],[-90.874228,42.188414],[-90.874683,42.18995],[-90.871856,42.189995],[-90.871345,42.190012],[-90.871212,42.197287],[-90.868972,42.198241],[-90.861627,42.198849],[-90.859077,42.196795],[-90.860127,42.194358],[-90.858588,42.196166],[-90.856719,42.196813],[-90.854205,42.196684],[-90.852561,42.198963],[-90.849788,42.199253],[-90.847238,42.201365],[-90.844759,42.202327],[-90.844185,42.203401],[-90.840113,42.204051],[-90.840132,42.206811],[-90.827811,42.20661],[-90.826514,42.205306],[-90.82506,42.200797],[-90.828067,42.196405],[-90.830101,42.192855],[-90.830267,42.191181],[-90.831851,42.190574],[-90.835208,42.187448],[-90.836212,42.18288],[-90.838665,42.182526],[-90.838175,42.181482],[-90.836456,42.180826],[-90.834001,42.180977],[-90.831454,42.182886],[-90.830317,42.184898],[-90.82549,42.185791],[-90.823244,42.187323],[-90.821215,42.187622],[-90.818079,42.186593],[-90.814205,42.186364],[-90.813221,42.185358],[-90.808455,42.18458],[-90.804951,42.181218],[-90.805351,42.180144],[-90.80781,42.178246],[-90.806725,42.176059],[-90.804307,42.176194],[-90.805217,42.17756],[-90.804232,42.1797],[-90.801597,42.181194],[-90.800395,42.183333],[-90.799523,42.188702],[-90.799941,42.190547],[-90.796218,42.192956],[-90.792757,42.197358],[-90.791127,42.201962],[-90.788004,42.207115],[-90.780062,42.20721],[-90.777282,42.206139],[-90.776263,42.205153],[-90.770783,42.204312],[-90.766271,42.204752],[-90.764122,42.205628],[-90.762931,42.207702],[-90.763025,42.217818],[-90.765491,42.220998],[-90.765472,42.223244],[-90.762157,42.225797],[-90.759462,42.225812],[-90.755793,42.227333],[-90.755711,42.229678],[-90.754871,42.23185],[-90.753136,42.233804],[-90.753152,42.240231],[-90.755731,42.244961],[-90.759771,42.247314],[-90.758094,42.250812],[-90.759582,42.250706],[-90.763439,42.251773],[-90.764927,42.253681],[-90.765295,42.255122],[-90.763754,42.257317],[-90.761383,42.257887],[-90.761998,42.259282],[-90.760982,42.260037],[-90.760182,42.259213],[-90.756703,42.259806],[-90.756456,42.260538],[-90.759194,42.262208],[-90.759253,42.265318],[-90.763009,42.26516],[-90.764178,42.265709],[-90.764824,42.267447],[-90.766424,42.267905],[-90.768857,42.266351],[-90.770366,42.26642],[-90.770642,42.267518],[-90.769686,42.269393],[-90.767715,42.270993],[-90.764637,42.270191],[-90.763405,42.270602],[-90.763281,42.271334],[-90.765527,42.273713],[-90.767466,42.274903],[-90.768636,42.27456],[-90.772638,42.275315],[-90.775007,42.277347],[-90.771601,42.278496],[-90.768936,42.280083],[-90.768615,42.281758],[-90.766326,42.28222],[-90.764565,42.281957],[-90.761444,42.283765],[-90.753015,42.283899],[-90.753029,42.285379],[-90.748613,42.291452],[-90.746116,42.292046],[-90.744998,42.294646],[-90.730465,42.295003],[-90.733973,42.296446],[-90.73383,42.316813],[-90.763155,42.316857],[-90.764823,42.31963],[-90.764884,42.320539],[-90.762077,42.320814],[-90.759472,42.321599],[-90.75871,42.322885],[-90.761633,42.323802],[-90.75622,42.326195],[-90.760138,42.330691],[-90.762832,42.3327],[-90.763103,42.341082],[-90.762366,42.34341],[-90.763151,42.345432],[-90.763227,42.350601],[-90.764413,42.353955],[-90.763252,42.355622],[-90.763141,42.382023],[-90.774996,42.381953],[-90.798687,42.365217],[-90.802821,42.363153],[-90.806181,42.363794],[-90.805983,42.37466],[-90.824482,42.374759],[-90.825629,42.375719],[-90.826104,42.378226],[-90.827531,42.378382],[-90.836421,42.378414],[-90.837707,42.380676],[-90.836989,42.382135],[-90.867461,42.382213],[-90.875174,42.382372],[-90.898386,42.382302],[-90.898192,42.375004],[-90.90533,42.374477],[-90.908742,42.37336],[-90.917626,42.369536],[-90.917776,42.368144],[-90.918658,42.368331],[-90.920249,42.37077],[-90.920518,42.373788],[-90.924246,42.374623],[-90.923603,42.378682],[-90.924188,42.380602],[-90.925712,42.382232],[-90.937293,42.382189],[-90.93731,42.3629],[-90.937123,42.361119],[-90.938787,42.360902]]]}},{"type":"Feature","properties":{"zcta5":"52205","AFFGEOID10":"8600000US52205","GEOID10":"52205","ALAND10":308817900,"AWATER10":1250714,"county_name":"Jones","state_code":"IA","county_state":"Jones County, IA","county_fips":"19105","risk_level_county":"Medium Risk (70–79% vaccinated)","mean_vaccination_rate_county":78.62,"risk_level_zcta":"Medium Risk (70–79% vaccinated)","mean_vaccination_rate_zips":71.37,"cases":1},"geometry":{"type":"Polygon","coordinates":[[[-91.432397,42.230953],[-91.432386,42.22507],[-91.437132,42.223334],[-91.437135,42.216679],[-91.439218,42.214435],[-91.441044,42.209841],[-91.437405,42.208679],[-91.433594,42.205915],[-91.437995,42.206905],[-91.446479,42.206195],[-91.445202,42.205052],[-91.442925,42.204413],[-91.436374,42.206292],[-91.430559,42.204488],[-91.429789,42.203894],[-91.428249,42.200372],[-91.426155,42.198086],[-91.425786,42.196851],[-91.423143,42.195995],[-91.423233,42.181923],[-91.422708,42.180147],[-91.42095,42.178202],[-91.416939,42.176026],[-91.410923,42.16954],[-91.406201,42.167047],[-91.403639,42.166373],[-91.40378,42.151869],[-91.403429,42.151252],[-91.380833,42.151185],[-91.364608,42.151541],[-91.364782,42.11249],[-91.36478,42.070529],[-91.358936,42.071178],[-91.349579,42.071096],[-91.347166,42.068876],[-91.340579,42.068441],[-91.338049,42.067546],[-91.336785,42.069255],[-91.334311,42.069673],[-91.335433,42.071078],[-91.331082,42.070597],[-91.322737,42.070526],[-91.321653,42.06668],[-91.32152,42.064373],[-91.322513,42.062943],[-91.325674,42.063624],[-91.331027,42.063622],[-91.331039,42.049009],[-91.304908,42.049017],[-91.304216,42.049574],[-91.304155,42.052083],[-91.303492,42.052638],[-91.296796,42.052727],[-91.296802,42.056384],[-91.287035,42.056458],[-91.286559,42.053421],[-91.277762,42.049992],[-91.277306,42.035766],[-91.277416,42.034315],[-91.287843,42.034318],[-91.28812,42.032732],[-91.28747,42.026934],[-91.287609,42.024475],[-91.288919,42.023444],[-91.290368,42.016847],[-91.2877,42.015406],[-91.287609,42.013485],[-91.285125,42.012112],[-91.284053,42.009756],[-91.280435,42.007788],[-91.274088,42.006436],[-91.268905,42.006161],[-91.267564,42.005723],[-91.264854,42.002706],[-91.267984,42.003605],[-91.274938,42.004132],[-91.28285,42.003079],[-91.288196,42.002904],[-91.288259,41.994956],[-91.268534,41.994803],[-91.268623,41.983824],[-91.229545,41.983663],[-91.229547,41.988159],[-91.219333,41.991795],[-91.219223,41.999232],[-91.209983,41.997315],[-91.207281,41.997192],[-91.200245,41.99989],[-91.190746,42.004577],[-91.19075,42.00506],[-91.203137,41.999076],[-91.205998,41.99826],[-91.210371,41.998036],[-91.218938,41.999559],[-91.219356,42.000121],[-91.219823,42.006067],[-91.219295,42.018138],[-91.215054,42.016613],[-91.213021,42.016429],[-91.190763,42.015993],[-91.191014,42.01764],[-91.192791,42.019767],[-91.192342,42.025355],[-91.190928,42.026726],[-91.1906,42.030451],[-91.18949,42.032406],[-91.192315,42.032969],[-91.192554,42.033865],[-91.208215,42.03407],[-91.205344,42.036288],[-91.203948,42.039536],[-91.204517,42.043046],[-91.200188,42.044351],[-91.200276,42.045668],[-91.206037,42.044113],[-91.210516,42.041825],[-91.21383,42.041321],[-91.215763,42.042121],[-91.217911,42.044454],[-91.221748,42.046967],[-91.22761,42.048132],[-91.230465,42.050533],[-91.234057,42.052773],[-91.234917,42.054007],[-91.234028,42.054991],[-91.230989,42.055312],[-91.23007,42.056959],[-91.232526,42.058788],[-91.235045,42.062949],[-91.232806,42.064436],[-91.230105,42.063821],[-91.227496,42.06421],[-91.225348,42.065675],[-91.225042,42.067345],[-91.227442,42.070255],[-91.209581,42.070387],[-91.209621,42.074092],[-91.189919,42.073927],[-91.189883,42.07029],[-91.176801,42.070348],[-91.176832,42.078671],[-91.1713,42.078705],[-91.171381,42.082871],[-91.16363,42.077783],[-91.158731,42.076846],[-91.151266,42.072729],[-91.151527,42.048607],[-91.137042,42.048429],[-91.137047,42.053326],[-91.136655,42.056164],[-91.136593,42.065509],[-91.135809,42.067061],[-91.131736,42.065584],[-91.131712,42.067504],[-91.134062,42.069099],[-91.13357,42.07022],[-91.136301,42.071502],[-91.14026,42.071801],[-91.143206,42.073426],[-91.144003,42.075324],[-91.146491,42.077095],[-91.150785,42.077339],[-91.151297,42.09256],[-91.144006,42.092414],[-91.143813,42.10181],[-91.145511,42.103404],[-91.145196,42.105212],[-91.136815,42.104969],[-91.135557,42.107623],[-91.132299,42.109275],[-91.131714,42.110181],[-91.131835,42.120996],[-91.151047,42.121179],[-91.150833,42.138624],[-91.158651,42.14137],[-91.160271,42.141676],[-91.160563,42.144922],[-91.170466,42.144932],[-91.170447,42.150363],[-91.18334,42.150405],[-91.184756,42.147769],[-91.183105,42.144846],[-91.189962,42.144536],[-91.189808,42.141554],[-91.190006,42.132362],[-91.193434,42.132353],[-91.196451,42.133162],[-91.200512,42.135232],[-91.204032,42.135109],[-91.20948,42.135994],[-91.20971,42.121419],[-91.248523,42.121645],[-91.247475,42.208826],[-91.363959,42.209132],[-91.383413,42.209204],[-91.383449,42.230956],[-91.401413,42.23107],[-91.402946,42.230955],[-91.402936,42.238395],[-91.417797,42.238394],[-91.417755,42.235025],[-91.427211,42.234807],[-91.427216,42.23105],[-91.432397,42.230953]],[[-91.249718,42.007652],[-91.24452,42.007764],[-91.241976,42.007853],[-91.241883,42.004586],[-91.249768,42.004179],[-91.249718,42.007652]]]}},{"type":"Feature","properties":{"zcta5":"52362","AFFGEOID10":"8600000US52362","GEOID10":"52362","ALAND10":157403826,"AWATER10":27137,"county_name":"Jones","state_code":"IA","county_state":"Jones County, IA","county_fips":"19105","risk_level_county":"Medium Risk (70–79% vaccinated)","mean_vaccination_rate_county":78.62,"risk_level_zcta":"Lower Risk (80–84% vaccinated)","mean_vaccination_rate_zips":80.19,"cases":1},"geometry":{"type":"Polygon","coordinates":[[[-91.131712,42.067504],[-91.131736,42.065584],[-91.135809,42.067061],[-91.136593,42.065509],[-91.136655,42.056164],[-91.137047,42.053326],[-91.137042,42.048429],[-91.073245,42.04774],[-91.073309,42.036541],[-91.073484,42.033807],[-91.063159,42.033818],[-91.063603,42.026661],[-91.073564,42.026184],[-91.073423,42.013877],[-91.065923,42.012333],[-91.066272,42.010593],[-91.067713,42.009129],[-91.069522,42.008671],[-91.069553,42.005652],[-91.067014,42.005528],[-91.065155,42.004507],[-91.065789,42.003764],[-91.060242,41.999531],[-91.057256,41.997861],[-91.054913,41.997153],[-91.050753,42.000014],[-91.049378,42.002131],[-91.047292,42.003183],[-91.043612,42.003868],[-91.040945,42.002999],[-91.039994,42.003296],[-91.038276,42.005605],[-91.035946,42.006497],[-91.030027,42.006884],[-91.027993,42.005433],[-91.027997,42.007534],[-91.025958,42.006883],[-91.014789,42.002224],[-91.014948,41.997929],[-91.012524,41.995015],[-91.011145,41.994145],[-91.01225,41.992453],[-91.009597,41.990203],[-91.00973,42.008648],[-90.99724,42.006554],[-90.994179,42.005201],[-90.987986,42.004942],[-90.986231,42.004274],[-90.985502,42.005237],[-90.985382,42.01949],[-90.975862,42.019386],[-90.975789,42.032868],[-90.975979,42.033943],[-90.956678,42.03382],[-90.956329,42.029645],[-90.956335,42.019243],[-90.954174,42.019263],[-90.950039,42.018231],[-90.945834,42.019191],[-90.937053,42.019184],[-90.936953,42.033077],[-90.937885,42.033741],[-90.936739,42.033899],[-90.912891,42.033591],[-90.912986,42.037239],[-90.917785,42.037284],[-90.917783,42.055395],[-90.92032,42.060381],[-90.920342,42.06299],[-90.925083,42.067101],[-90.91834,42.069904],[-90.910197,42.0727],[-90.906891,42.073312],[-90.898208,42.073447],[-90.898217,42.085091],[-90.898347,42.085758],[-90.89826,42.104822],[-90.900542,42.106988],[-90.900573,42.109794],[-90.901182,42.111093],[-90.904913,42.113771],[-90.907659,42.114275],[-90.907874,42.116362],[-90.907326,42.118744],[-90.90833,42.12455],[-90.907787,42.127996],[-90.907809,42.133509],[-90.906471,42.134954],[-90.903754,42.135057],[-90.902736,42.137638],[-90.9088,42.137679],[-90.912978,42.136284],[-90.914053,42.13482],[-90.913777,42.133402],[-90.917707,42.133629],[-90.91995,42.131365],[-90.919489,42.128665],[-90.917646,42.126813],[-90.918997,42.12656],[-90.922161,42.128779],[-90.922252,42.131249],[-90.924925,42.131089],[-90.926338,42.133513],[-90.923081,42.13548],[-90.923204,42.136646],[-90.92434,42.136852],[-90.927014,42.134222],[-90.928519,42.135206],[-90.92901,42.137012],[-90.931437,42.139528],[-90.934141,42.139803],[-90.936599,42.139071],[-90.937674,42.137401],[-90.939948,42.137996],[-90.942898,42.141334],[-90.941976,42.143392],[-90.943513,42.144787],[-90.945909,42.143163],[-90.946954,42.14051],[-90.946892,42.138955],[-90.944311,42.137356],[-90.943942,42.135526],[-90.947322,42.136372],[-90.948244,42.137126],[-90.952024,42.138406],[-90.953099,42.137811],[-90.950978,42.133948],[-90.949012,42.133719],[-90.947261,42.132439],[-90.947322,42.130197],[-90.952913,42.131706],[-90.955126,42.133969],[-90.956723,42.132848],[-90.957922,42.134289],[-90.960779,42.133533],[-90.96213,42.132413],[-90.961392,42.131338],[-90.959703,42.131521],[-90.959886,42.129623],[-90.962989,42.128753],[-90.963666,42.131109],[-90.966277,42.130605],[-90.967353,42.132091],[-90.965049,42.133395],[-90.966095,42.135247],[-90.971287,42.136321],[-90.973468,42.135131],[-90.975313,42.1368],[-90.975498,42.138058],[-90.978326,42.140709],[-90.980262,42.141029],[-90.981243,42.136546],[-90.982256,42.135448],[-90.985606,42.136499],[-90.985238,42.137322],[-90.986978,42.137985],[-90.990067,42.13668],[-90.992197,42.137822],[-90.993704,42.137433],[-90.995425,42.138713],[-90.995372,42.121133],[-90.989964,42.121117],[-90.986057,42.122722],[-90.980383,42.123596],[-90.979416,42.122333],[-90.976196,42.122008],[-90.975833,42.120715],[-90.975899,42.113891],[-90.970972,42.113805],[-90.970852,42.098968],[-90.978625,42.099019],[-90.980965,42.099748],[-90.980937,42.100579],[-90.986432,42.100531],[-90.988717,42.100898],[-90.992005,42.100487],[-90.9955,42.10107],[-90.995529,42.099356],[-91.014476,42.09959],[-91.014791,42.074039],[-91.020935,42.073967],[-91.025624,42.077341],[-91.030322,42.079786],[-91.034266,42.080438],[-91.037903,42.081045],[-91.041725,42.083295],[-91.05106,42.085209],[-91.053252,42.087257],[-91.053699,42.077615],[-91.122028,42.078478],[-91.131673,42.077549],[-91.131712,42.067504]]]}},{"type":"Feature","properties":{"zcta5":"52320","AFFGEOID10":"8600000US52320","GEOID10":"52320","ALAND10":152785400,"AWATER10":1198881,"county_name":"Jones","state_code":"IA","county_state":"Jones County, IA","county_fips":"19105","risk_level_county":"Medium Risk (70–79% vaccinated)","mean_vaccination_rate_county":78.62,"risk_level_zcta":"Medium Risk (70–79% vaccinated)","mean_vaccination_rate_zips":79.6,"cases":1},"geometry":{"type":"Polygon","coordinates":[[[-91.137042,42.048429],[-91.151527,42.048607],[-91.151266,42.072729],[-91.158731,42.076846],[-91.16363,42.077783],[-91.171381,42.082871],[-91.1713,42.078705],[-91.176832,42.078671],[-91.176801,42.070348],[-91.189883,42.07029],[-91.189919,42.073927],[-91.209621,42.074092],[-91.209581,42.070387],[-91.227442,42.070255],[-91.225042,42.067345],[-91.225348,42.065675],[-91.227496,42.06421],[-91.230105,42.063821],[-91.232806,42.064436],[-91.235045,42.062949],[-91.232526,42.058788],[-91.23007,42.056959],[-91.230989,42.055312],[-91.234028,42.054991],[-91.234917,42.054007],[-91.234057,42.052773],[-91.230465,42.050533],[-91.22761,42.048132],[-91.221748,42.046967],[-91.217911,42.044454],[-91.215763,42.042121],[-91.21383,42.041321],[-91.210516,42.041825],[-91.206037,42.044113],[-91.200276,42.045668],[-91.200188,42.044351],[-91.204517,42.043046],[-91.203948,42.039536],[-91.205344,42.036288],[-91.208215,42.03407],[-91.192554,42.033865],[-91.192315,42.032969],[-91.18949,42.032406],[-91.1906,42.030451],[-91.190928,42.026726],[-91.192342,42.025355],[-91.192791,42.019767],[-91.191014,42.01764],[-91.190763,42.015993],[-91.213021,42.016429],[-91.215054,42.016613],[-91.219295,42.018138],[-91.219823,42.006067],[-91.219356,42.000121],[-91.218938,41.999559],[-91.210371,41.998036],[-91.205998,41.99826],[-91.203137,41.999076],[-91.19075,42.00506],[-91.190746,42.004577],[-91.190773,41.962616],[-91.192844,41.962851],[-91.195809,41.96216],[-91.197648,41.960696],[-91.197188,41.958731],[-91.200282,41.956718],[-91.199945,41.954682],[-91.201477,41.952761],[-91.204172,41.951045],[-91.203192,41.948918],[-91.205944,41.947087],[-91.210574,41.947073],[-91.210582,41.932382],[-91.191028,41.932475],[-91.191062,41.917898],[-91.113219,41.91768],[-91.113084,41.946753],[-91.093178,41.946684],[-91.093087,41.961417],[-91.092907,41.990659],[-91.068523,41.990508],[-91.068448,42.000006],[-91.065789,42.003764],[-91.065155,42.004507],[-91.067014,42.005528],[-91.069553,42.005652],[-91.069522,42.008671],[-91.067713,42.009129],[-91.066272,42.010593],[-91.065923,42.012333],[-91.073423,42.013877],[-91.073564,42.026184],[-91.063603,42.026661],[-91.063159,42.033818],[-91.073484,42.033807],[-91.073309,42.036541],[-91.073245,42.04774],[-91.137042,42.048429]]]}},{"type":"Feature","properties":{"zcta5":"52306","AFFGEOID10":"8600000US52306","GEOID10":"52306","ALAND10":193533425,"AWATER10":712142,"county_name":"Jones","state_code":"IA","county_state":"Jones County, IA","county_fips":"19105","risk_level_county":"Medium Risk (70–79% vaccinated)","mean_vaccination_rate_county":78.62,"risk_level_zcta":"Medium Risk (70–79% vaccinated)","mean_vaccination_rate_zips":70.32,"cases":1},"geometry":{"type":"Polygon","coordinates":[[[-91.307835,41.983994],[-91.307817,41.976571],[-91.303196,41.976589],[-91.303173,41.972752],[-91.288228,41.972817],[-91.287971,41.962304],[-91.288152,41.95459],[-91.307673,41.954587],[-91.308461,41.949263],[-91.308355,41.947203],[-91.288315,41.947235],[-91.288664,41.931742],[-91.290827,41.931863],[-91.303362,41.93594],[-91.303769,41.917974],[-91.310716,41.917935],[-91.311919,41.917694],[-91.327874,41.922035],[-91.327894,41.918206],[-91.338988,41.918286],[-91.339416,41.917487],[-91.338232,41.876326],[-91.332824,41.874777],[-91.324107,41.874486],[-91.323374,41.874061],[-91.32223,41.860254],[-91.322241,41.857218],[-91.320144,41.855184],[-91.319624,41.85245],[-91.318021,41.850797],[-91.317148,41.843968],[-91.317265,41.834706],[-91.307612,41.834666],[-91.307598,41.816319],[-91.302288,41.816286],[-91.300739,41.81738],[-91.297962,41.816267],[-91.278403,41.8162],[-91.278393,41.82341],[-91.269014,41.823361],[-91.269466,41.81617],[-91.250153,41.816109],[-91.24932,41.823399],[-91.233522,41.823658],[-91.225852,41.820268],[-91.221002,41.819837],[-91.220261,41.819285],[-91.2202,41.809456],[-91.219527,41.808923],[-91.213736,41.808853],[-91.213864,41.807995],[-91.21166,41.80581],[-91.209883,41.802363],[-91.208096,41.801305],[-91.190994,41.801178],[-91.190758,41.810553],[-91.191386,41.847925],[-91.191229,41.858968],[-91.190836,41.859989],[-91.191062,41.917898],[-91.191028,41.932475],[-91.210582,41.932382],[-91.210574,41.947073],[-91.205944,41.947087],[-91.203192,41.948918],[-91.204172,41.951045],[-91.201477,41.952761],[-91.199945,41.954682],[-91.200282,41.956718],[-91.197188,41.958731],[-91.197648,41.960696],[-91.195809,41.96216],[-91.192844,41.962851],[-91.190773,41.962616],[-91.190746,42.004577],[-91.200245,41.99989],[-91.207281,41.997192],[-91.209983,41.997315],[-91.219223,41.999232],[-91.219333,41.991795],[-91.229547,41.988159],[-91.229545,41.983663],[-91.268623,41.983824],[-91.268534,41.994803],[-91.288259,41.994956],[-91.288299,41.976628],[-91.298095,41.976607],[-91.297966,41.983379],[-91.298513,41.983946],[-91.307835,41.983994]]]}},{"type":"Feature","properties":{"zcta5":"52309","AFFGEOID10":"8600000US52309","GEOID10":"52309","ALAND10":74161803,"AWATER10":130451,"county_name":"Jones","state_code":"IA","county_state":"Jones County, IA","county_fips":"19105","risk_level_county":"Medium Risk (70–79% vaccinated)","mean_vaccination_rate_county":78.62,"risk_level_zcta":"Lower Risk (80–84% vaccinated)","mean_vaccination_rate_zips":80.56,"cases":1},"geometry":{"type":"Polygon","coordinates":[[[-90.898268,42.206475],[-90.898279,42.192246],[-90.900325,42.190287],[-90.902412,42.189223],[-90.907052,42.189548],[-90.907938,42.190195],[-90.908144,42.193489],[-90.910337,42.195484],[-90.915792,42.195602],[-90.918339,42.196986],[-90.92237,42.197715],[-90.930672,42.198009],[-90.932801,42.19904],[-90.933922,42.200559],[-90.937614,42.202152],[-90.941494,42.205263],[-90.942484,42.204908],[-90.943576,42.201727],[-90.941946,42.20143],[-90.941546,42.200355],[-90.94253,42.198366],[-90.941331,42.197635],[-90.937333,42.199167],[-90.939209,42.197063],[-90.941484,42.196514],[-90.941976,42.195691],[-90.937948,42.195531],[-90.937487,42.193176],[-90.936718,42.19297],[-90.937456,42.190226],[-90.941792,42.189197],[-90.941238,42.187687],[-90.9417,42.185423],[-90.94333,42.183754],[-90.946773,42.182702],[-90.945051,42.181673],[-90.945851,42.180689],[-90.948648,42.179569],[-90.941516,42.177099],[-90.93921,42.177259],[-90.936996,42.176322],[-90.935244,42.173372],[-90.933307,42.173898],[-90.933553,42.177579],[-90.932322,42.178494],[-90.927465,42.177397],[-90.924452,42.17591],[-90.922854,42.174538],[-90.921625,42.172296],[-90.918398,42.170261],[-90.912435,42.16907],[-90.908409,42.166645],[-90.904752,42.165798],[-90.898428,42.166713],[-90.898458,42.160473],[-90.900437,42.15988],[-90.901434,42.158293],[-90.901727,42.15527],[-90.901048,42.152743],[-90.902185,42.147396],[-90.902086,42.139326],[-90.902736,42.137638],[-90.903754,42.135057],[-90.906471,42.134954],[-90.907809,42.133509],[-90.907787,42.127996],[-90.90833,42.12455],[-90.907326,42.118744],[-90.907874,42.116362],[-90.907659,42.114275],[-90.904913,42.113771],[-90.901182,42.111093],[-90.900573,42.109794],[-90.900542,42.106988],[-90.89826,42.104822],[-90.898347,42.085758],[-90.898217,42.085091],[-90.898208,42.073447],[-90.906891,42.073312],[-90.910197,42.0727],[-90.91834,42.069904],[-90.925083,42.067101],[-90.920342,42.06299],[-90.92032,42.060381],[-90.917783,42.055395],[-90.917785,42.037284],[-90.912986,42.037239],[-90.912891,42.033591],[-90.898373,42.033548],[-90.860599,42.033405],[-90.860511,42.055167],[-90.875912,42.055172],[-90.879489,42.053244],[-90.882073,42.053984],[-90.883097,42.055123],[-90.882234,42.062921],[-90.879771,42.066473],[-90.879794,42.069621],[-90.87488,42.069583],[-90.874864,42.073282],[-90.860335,42.073268],[-90.86046,42.074622],[-90.860416,42.088441],[-90.86727,42.088458],[-90.867154,42.096079],[-90.871902,42.096178],[-90.871742,42.106146],[-90.865094,42.106051],[-90.865037,42.113509],[-90.861698,42.113485],[-90.861676,42.117158],[-90.854535,42.117107],[-90.854515,42.120568],[-90.863926,42.120491],[-90.859903,42.123662],[-90.856496,42.125082],[-90.856231,42.125902],[-90.857599,42.12784],[-90.8618,42.128923],[-90.86164,42.131624],[-90.862671,42.133038],[-90.861619,42.136737],[-90.858265,42.138147],[-90.857154,42.139212],[-90.856463,42.143703],[-90.857147,42.145635],[-90.859181,42.147209],[-90.859511,42.148525],[-90.859444,42.155933],[-90.858651,42.157342],[-90.856968,42.156807],[-90.845582,42.156574],[-90.840114,42.156709],[-90.840124,42.157376],[-90.840505,42.158375],[-90.843258,42.160592],[-90.84736,42.165618],[-90.849788,42.16758],[-90.852101,42.172179],[-90.856822,42.173698],[-90.85934,42.178157],[-90.85939,42.183514],[-90.865895,42.183411],[-90.865874,42.186229],[-90.87072,42.186371],[-90.870731,42.188399],[-90.872184,42.188407],[-90.871856,42.189995],[-90.874683,42.18995],[-90.874228,42.188414],[-90.88121,42.188449],[-90.88107,42.194286],[-90.875599,42.194319],[-90.878255,42.196933],[-90.878375,42.199654],[-90.877235,42.201598],[-90.876186,42.205027],[-90.874132,42.206506],[-90.898268,42.206475]]]}},{"type":"Feature","properties":{"zcta5":"52253","AFFGEOID10":"8600000US52253","GEOID10":"52253","ALAND10":119590668,"AWATER10":1859445,"county_name":"Jones","state_code":"IA","county_state":"Jones County, IA","county_fips":"19105","risk_level_county":"Medium Risk (70–79% vaccinated)","mean_vaccination_rate_county":78.62,"risk_level_zcta":"Medium Risk (70–79% vaccinated)","mean_vaccination_rate_zips":75.68,"cases":1},"geometry":{"type":"Polygon","coordinates":[[[-91.413145,41.859688],[-91.412475,41.858462],[-91.408267,41.85789],[-91.402915,41.856692],[-91.400382,41.855747],[-91.395149,41.852396],[-91.393749,41.849635],[-91.391041,41.847465],[-91.391279,41.844134],[-91.39288,41.842279],[-91.392529,41.840813],[-91.394704,41.837641],[-91.397796,41.835759],[-91.399632,41.83391],[-91.399765,41.832818],[-91.402298,41.831271],[-91.402712,41.826731],[-91.402353,41.825392],[-91.402848,41.820007],[-91.399094,41.814934],[-91.395491,41.814016],[-91.389629,41.813454],[-91.388926,41.81089],[-91.387605,41.810867],[-91.38304,41.812243],[-91.381432,41.813483],[-91.380318,41.812335],[-91.378932,41.811505],[-91.376672,41.810994],[-91.380435,41.812593],[-91.38138,41.814866],[-91.379462,41.817983],[-91.37836,41.818729],[-91.373053,41.820092],[-91.368584,41.819814],[-91.366048,41.81796],[-91.366045,41.816539],[-91.363867,41.816543],[-91.363404,41.814027],[-91.363562,41.810477],[-91.362983,41.809262],[-91.359868,41.80693],[-91.357424,41.805951],[-91.353201,41.807448],[-91.34871,41.81239],[-91.343728,41.814701],[-91.341343,41.814702],[-91.339875,41.813284],[-91.335136,41.811249],[-91.32957,41.806584],[-91.327338,41.805304],[-91.324831,41.804641],[-91.32104,41.805099],[-91.319206,41.804642],[-91.316883,41.805191],[-91.313673,41.804459],[-91.314101,41.805694],[-91.309836,41.805059],[-91.311587,41.806777],[-91.307624,41.812425],[-91.307598,41.816319],[-91.307612,41.834666],[-91.317265,41.834706],[-91.317148,41.843968],[-91.318021,41.850797],[-91.319624,41.85245],[-91.320144,41.855184],[-91.322241,41.857218],[-91.32223,41.860254],[-91.323374,41.874061],[-91.324107,41.874486],[-91.332824,41.874777],[-91.338232,41.876326],[-91.339416,41.917487],[-91.338988,41.918286],[-91.327894,41.918206],[-91.327874,41.922035],[-91.311919,41.917694],[-91.310716,41.917935],[-91.303769,41.917974],[-91.303362,41.93594],[-91.290827,41.931863],[-91.288664,41.931742],[-91.288315,41.947235],[-91.308355,41.947203],[-91.308461,41.949263],[-91.307673,41.954587],[-91.288152,41.95459],[-91.287971,41.962304],[-91.288228,41.972817],[-91.303173,41.972752],[-91.303196,41.976589],[-91.307817,41.976571],[-91.307835,41.983994],[-91.346478,41.984068],[-91.346669,41.977395],[-91.346451,41.976204],[-91.365585,41.97641],[-91.365645,41.969215],[-91.378956,41.969196],[-91.380329,41.964606],[-91.381149,41.963155],[-91.386154,41.957396],[-91.385261,41.955938],[-91.385439,41.932381],[-91.399996,41.932769],[-91.400032,41.92917],[-91.400121,41.922217],[-91.404897,41.921533],[-91.404982,41.917052],[-91.404922,41.912319],[-91.404974,41.910558],[-91.403338,41.910582],[-91.402033,41.910506],[-91.400232,41.908074],[-91.400229,41.898547],[-91.395328,41.898543],[-91.393155,41.89821],[-91.393152,41.896122],[-91.390704,41.896346],[-91.390401,41.882933],[-91.400185,41.882816],[-91.400211,41.874324],[-91.385589,41.874446],[-91.385705,41.859953],[-91.413145,41.859688]]]}},{"type":"Feature","properties":{"zcta5":"52323","AFFGEOID10":"8600000US52323","GEOID10":"52323","ALAND10":132025682,"AWATER10":327922,"county_name":"Jones","state_code":"IA","county_state":"Jones County, IA","county_fips":"19105","risk_level_county":"Medium Risk (70–79% vaccinated)","mean_vaccination_rate_county":78.62,"risk_level_zcta":"Medium Risk (70–79% vaccinated)","mean_vaccination_rate_zips":74.06,"cases":1},"geometry":{"type":"Polygon","coordinates":[[[-91.065789,42.003764],[-91.068448,42.000006],[-91.068523,41.990508],[-91.092907,41.990659],[-91.093087,41.961417],[-91.049338,41.96113],[-91.049207,41.975787],[-91.039732,41.975602],[-91.034672,41.974944],[-91.032512,41.975544],[-91.016326,41.975777],[-91.015299,41.975525],[-91.014949,41.974807],[-91.014968,41.968802],[-91.014333,41.967968],[-91.014978,41.966409],[-91.015048,41.955973],[-91.01601,41.954924],[-91.019055,41.954163],[-91.019975,41.952932],[-91.019933,41.946604],[-90.9777,41.946688],[-90.976824,41.937715],[-90.965454,41.934469],[-90.95753,41.931903],[-90.955288,41.930212],[-90.946893,41.92672],[-90.942671,41.925602],[-90.941049,41.924467],[-90.935993,41.924407],[-90.936019,41.922578],[-90.930733,41.920816],[-90.927945,41.920245],[-90.924971,41.920658],[-90.924236,41.922601],[-90.924327,41.925094],[-90.925429,41.927519],[-90.924082,41.928593],[-90.920069,41.930216],[-90.91575,41.934789],[-90.916974,41.936916],[-90.916962,41.946283],[-90.898484,41.946245],[-90.898413,41.968257],[-90.896462,41.968128],[-90.883741,41.968026],[-90.883732,41.986218],[-90.882504,41.987417],[-90.880684,41.992214],[-90.87882,41.993679],[-90.870307,41.993638],[-90.866461,41.995549],[-90.86408,41.996074],[-90.859592,41.995773],[-90.859632,42.007754],[-90.861258,42.007768],[-90.861164,42.010076],[-90.861906,42.012222],[-90.862198,42.015371],[-90.85892,42.0199],[-90.857261,42.021334],[-90.855999,42.024431],[-90.856888,42.024528],[-90.858068,42.028201],[-90.856782,42.032546],[-90.854665,42.03337],[-90.860599,42.033405],[-90.898373,42.033548],[-90.912891,42.033591],[-90.936739,42.033899],[-90.937885,42.033741],[-90.936953,42.033077],[-90.937053,42.019184],[-90.945834,42.019191],[-90.950039,42.018231],[-90.954174,42.019263],[-90.956335,42.019243],[-90.956329,42.029645],[-90.956678,42.03382],[-90.975979,42.033943],[-90.975789,42.032868],[-90.975862,42.019386],[-90.985382,42.01949],[-90.985502,42.005237],[-90.986231,42.004274],[-90.987986,42.004942],[-90.994179,42.005201],[-90.99724,42.006554],[-91.00973,42.008648],[-91.009597,41.990203],[-91.01225,41.992453],[-91.011145,41.994145],[-91.012524,41.995015],[-91.014948,41.997929],[-91.014789,42.002224],[-91.025958,42.006883],[-91.027997,42.007534],[-91.027993,42.005433],[-91.030027,42.006884],[-91.035946,42.006497],[-91.038276,42.005605],[-91.039994,42.003296],[-91.040945,42.002999],[-91.043612,42.003868],[-91.047292,42.003183],[-91.049378,42.002131],[-91.050753,42.000014],[-91.054913,41.997153],[-91.057256,41.997861],[-91.060242,41.999531],[-91.065789,42.003764]]]}},{"type":"Feature","properties":{"zcta5":"52216","AFFGEOID10":"8600000US52216","GEOID10":"52216","ALAND10":146924406,"AWATER10":25719,"county_name":"Jones","state_code":"IA","county_state":"Jones County, IA","county_fips":"19105","risk_level_county":"Medium Risk (70–79% vaccinated)","mean_vaccination_rate_county":78.62,"risk_level_zcta":"Medium Risk (70–79% vaccinated)","mean_vaccination_rate_zips":79.44,"cases":1},"geometry":{"type":"Polygon","coordinates":[[[-91.113219,41.91768],[-91.084034,41.917659],[-91.083727,41.874012],[-91.103225,41.873985],[-91.103025,41.852577],[-91.113658,41.85286],[-91.123174,41.852433],[-91.123041,41.837734],[-91.115583,41.838062],[-91.114188,41.84077],[-91.111742,41.841343],[-91.110581,41.842716],[-91.108275,41.843518],[-91.107984,41.838054],[-91.083912,41.837725],[-91.083328,41.837266],[-91.083241,41.830215],[-91.083514,41.824541],[-91.087176,41.822415],[-91.089498,41.819167],[-91.092066,41.817314],[-91.093503,41.815663],[-91.054919,41.815736],[-91.054693,41.786418],[-91.015513,41.78634],[-91.005698,41.786334],[-91.005705,41.771724],[-90.995957,41.771709],[-90.995664,41.794257],[-90.997152,41.794228],[-91.004799,41.797039],[-91.006694,41.797201],[-91.00764,41.798437],[-91.009443,41.798735],[-91.013016,41.800893],[-91.015456,41.801858],[-91.014685,41.856619],[-91.01056,41.85618],[-91.005732,41.857977],[-91.004541,41.857585],[-91.001057,41.858611],[-91.000172,41.858129],[-90.995234,41.858521],[-90.995781,41.860536],[-90.995586,41.877868],[-91.015252,41.882136],[-91.050067,41.888675],[-91.049776,41.889683],[-91.049981,41.907794],[-91.049069,41.909439],[-91.045355,41.910645],[-91.042204,41.912686],[-91.036328,41.91507],[-91.035196,41.916061],[-91.034865,41.917838],[-91.015078,41.917615],[-91.015131,41.902993],[-90.99606,41.903218],[-90.975257,41.902153],[-90.955585,41.902931],[-90.955299,41.917512],[-90.932089,41.917137],[-90.929141,41.916175],[-90.926137,41.917914],[-90.922951,41.917684],[-90.924329,41.918576],[-90.924971,41.920658],[-90.927945,41.920245],[-90.930733,41.920816],[-90.936019,41.922578],[-90.935993,41.924407],[-90.941049,41.924467],[-90.942671,41.925602],[-90.946893,41.92672],[-90.955288,41.930212],[-90.95753,41.931903],[-90.965454,41.934469],[-90.976824,41.937715],[-90.9777,41.946688],[-91.019933,41.946604],[-91.019975,41.952932],[-91.019055,41.954163],[-91.01601,41.954924],[-91.015048,41.955973],[-91.014978,41.966409],[-91.014333,41.967968],[-91.014968,41.968802],[-91.014949,41.974807],[-91.015299,41.975525],[-91.016326,41.975777],[-91.032512,41.975544],[-91.034672,41.974944],[-91.039732,41.975602],[-91.049207,41.975787],[-91.049338,41.96113],[-91.093087,41.961417],[-91.093178,41.946684],[-91.113084,41.946753],[-91.113219,41.91768]]]}},{"type":"Feature","properties":{"zcta5":"52310","AFFGEOID10":"8600000US52310","GEOID10":"52310","ALAND10":385075199,"AWATER10":219778,"county_name":"Jones","state_code":"IA","county_state":"Jones County, IA","county_fips":"19105","risk_level_county":"Medium Risk (70–79% vaccinated)","mean_vaccination_rate_county":78.62,"risk_level_zcta":"Medium Risk (70–79% vaccinated)","mean_vaccination_rate_zips":71.71,"cases":1},"geometry":{"type":"Polygon","coordinates":[[[-91.363263,42.296445],[-91.363655,42.252909],[-91.403149,42.253025],[-91.402936,42.238395],[-91.402946,42.230955],[-91.401413,42.23107],[-91.383449,42.230956],[-91.383413,42.209204],[-91.363959,42.209132],[-91.247475,42.208826],[-91.248523,42.121645],[-91.20971,42.121419],[-91.20948,42.135994],[-91.204032,42.135109],[-91.200512,42.135232],[-91.196451,42.133162],[-91.193434,42.132353],[-91.190006,42.132362],[-91.189808,42.141554],[-91.189962,42.144536],[-91.183105,42.144846],[-91.184756,42.147769],[-91.18334,42.150405],[-91.170447,42.150363],[-91.170466,42.144932],[-91.160563,42.144922],[-91.160271,42.141676],[-91.158651,42.14137],[-91.150833,42.138624],[-91.151047,42.121179],[-91.131835,42.120996],[-91.131385,42.124996],[-91.131275,42.131397],[-91.121462,42.129737],[-91.117664,42.129376],[-91.114846,42.129744],[-91.112218,42.128631],[-91.112238,42.136025],[-91.093502,42.135698],[-91.093478,42.144338],[-91.093213,42.148081],[-91.081746,42.147595],[-91.072848,42.146777],[-91.063125,42.14715],[-91.058542,42.14715],[-91.048384,42.148114],[-91.048443,42.145431],[-91.046422,42.146108],[-91.044763,42.145079],[-91.044517,42.146017],[-91.042182,42.14549],[-91.039303,42.146527],[-91.03921,42.14383],[-91.033584,42.143951],[-91.030781,42.141556],[-91.028803,42.141371],[-91.028242,42.142172],[-91.026398,42.141567],[-91.025926,42.144388],[-91.02409,42.162696],[-91.02739,42.16296],[-91.026946,42.168671],[-91.030366,42.168946],[-91.029375,42.185164],[-91.026577,42.184935],[-91.025804,42.201153],[-91.014048,42.200983],[-91.014057,42.202991],[-91.01408,42.20844],[-91.048636,42.208523],[-91.048709,42.211695],[-91.049877,42.212358],[-91.05283,42.212038],[-91.057845,42.212748],[-91.059382,42.214623],[-91.062059,42.215561],[-91.065812,42.214074],[-91.068797,42.213388],[-91.074486,42.213625],[-91.079929,42.214244],[-91.081652,42.215256],[-91.084696,42.21612],[-91.082265,42.218375],[-91.083218,42.220136],[-91.081402,42.220692],[-91.079955,42.219937],[-91.080385,42.22109],[-91.082231,42.222169],[-91.081738,42.223027],[-91.079768,42.223557],[-91.078506,42.223005],[-91.078138,42.224184],[-91.079431,42.225738],[-91.077523,42.226626],[-91.078386,42.227694],[-91.080665,42.227968],[-91.079651,42.230629],[-91.077344,42.231751],[-91.078545,42.233143],[-91.081377,42.232392],[-91.083503,42.233303],[-91.079781,42.236808],[-91.08246,42.237885],[-91.082861,42.239136],[-91.080892,42.239822],[-91.080399,42.241172],[-91.081269,42.242554],[-91.08381,42.242673],[-91.083296,42.246845],[-91.070801,42.247437],[-91.071094,42.250135],[-91.075262,42.249988],[-91.075101,42.252612],[-91.083261,42.252722],[-91.082955,42.255356],[-91.080555,42.257268],[-91.077792,42.258412],[-91.076247,42.260258],[-91.076494,42.263243],[-91.075049,42.266213],[-91.078263,42.267439],[-91.08242,42.270647],[-91.082286,42.274071],[-91.08427,42.274723],[-91.083753,42.280806],[-91.085341,42.281917],[-91.085517,42.286071],[-91.092212,42.285209],[-91.096568,42.284968],[-91.097273,42.284502],[-91.10543,42.283212],[-91.109899,42.283175],[-91.11059,42.289211],[-91.115132,42.289217],[-91.115121,42.291232],[-91.126571,42.291017],[-91.126669,42.295757],[-91.130079,42.295761],[-91.224026,42.296044],[-91.224168,42.296062],[-91.237232,42.296001],[-91.236339,42.299027],[-91.237975,42.3005],[-91.238559,42.302086],[-91.240107,42.30147],[-91.244821,42.303126],[-91.266251,42.30317],[-91.266196,42.296105],[-91.295632,42.296365],[-91.30825,42.296091],[-91.31062,42.296432],[-91.363263,42.296445]]]}},{"type":"Feature","properties":{"zcta5":"52321","AFFGEOID10":"8600000US52321","GEOID10":"52321","ALAND10":77834117,"AWATER10":0,"county_name":"Jones","state_code":"IA","county_state":"Jones County, IA","county_fips":"19105","risk_level_county":"Medium Risk (70–79% vaccinated)","mean_vaccination_rate_county":78.62,"risk_level_zcta":"Medium Risk (70–79% vaccinated)","mean_vaccination_rate_zips":71.68,"cases":1},"geometry":{"type":"Polygon","coordinates":[[[-91.033584,42.143951],[-91.0339,42.121281],[-91.02339,42.12051],[-91.02815,42.116447],[-91.035309,42.114048],[-91.037214,42.114049],[-91.043112,42.109774],[-91.043481,42.108127],[-91.045089,42.106661],[-91.034501,42.106574],[-91.034266,42.080438],[-91.030322,42.079786],[-91.025624,42.077341],[-91.020935,42.073967],[-91.014791,42.074039],[-91.014476,42.09959],[-90.995529,42.099356],[-90.9955,42.10107],[-90.992005,42.100487],[-90.988717,42.100898],[-90.986432,42.100531],[-90.980937,42.100579],[-90.980965,42.099748],[-90.978625,42.099019],[-90.970852,42.098968],[-90.970972,42.113805],[-90.975899,42.113891],[-90.975833,42.120715],[-90.976196,42.122008],[-90.979416,42.122333],[-90.980383,42.123596],[-90.986057,42.122722],[-90.989964,42.121117],[-90.995372,42.121133],[-90.995425,42.138713],[-90.993704,42.137433],[-90.992197,42.137822],[-90.990067,42.13668],[-90.986978,42.137985],[-90.985238,42.137322],[-90.985606,42.136499],[-90.982256,42.135448],[-90.981243,42.136546],[-90.980262,42.141029],[-90.978326,42.140709],[-90.975498,42.138058],[-90.975313,42.1368],[-90.973468,42.135131],[-90.971287,42.136321],[-90.966095,42.135247],[-90.965049,42.133395],[-90.967353,42.132091],[-90.966277,42.130605],[-90.963666,42.131109],[-90.962989,42.128753],[-90.959886,42.129623],[-90.959703,42.131521],[-90.961392,42.131338],[-90.96213,42.132413],[-90.960779,42.133533],[-90.957922,42.134289],[-90.956723,42.132848],[-90.955126,42.133969],[-90.952913,42.131706],[-90.947322,42.130197],[-90.947261,42.132439],[-90.949012,42.133719],[-90.950978,42.133948],[-90.953099,42.137811],[-90.952024,42.138406],[-90.948244,42.137126],[-90.947322,42.136372],[-90.943942,42.135526],[-90.944311,42.137356],[-90.946892,42.138955],[-90.946954,42.14051],[-90.945909,42.143163],[-90.943513,42.144787],[-90.941976,42.143392],[-90.942898,42.141334],[-90.939948,42.137996],[-90.937674,42.137401],[-90.936599,42.139071],[-90.934141,42.139803],[-90.931437,42.139528],[-90.92901,42.137012],[-90.928519,42.135206],[-90.927014,42.134222],[-90.92434,42.136852],[-90.923204,42.136646],[-90.923081,42.13548],[-90.926338,42.133513],[-90.924925,42.131089],[-90.922252,42.131249],[-90.922161,42.128779],[-90.918997,42.12656],[-90.917646,42.126813],[-90.919489,42.128665],[-90.91995,42.131365],[-90.917707,42.133629],[-90.913777,42.133402],[-90.914053,42.13482],[-90.912978,42.136284],[-90.9088,42.137679],[-90.902736,42.137638],[-90.902086,42.139326],[-90.902185,42.147396],[-90.901048,42.152743],[-90.901727,42.15527],[-90.901434,42.158293],[-90.900437,42.15988],[-90.898458,42.160473],[-90.898428,42.166713],[-90.904752,42.165798],[-90.908409,42.166645],[-90.912435,42.16907],[-90.918398,42.170261],[-90.921625,42.172296],[-90.922854,42.174538],[-90.924452,42.17591],[-90.927465,42.177397],[-90.932322,42.178494],[-90.933553,42.177579],[-90.933307,42.173898],[-90.935244,42.173372],[-90.936996,42.176322],[-90.93921,42.177259],[-90.941516,42.177099],[-90.948648,42.179569],[-90.952738,42.182907],[-90.957842,42.183364],[-90.959563,42.181237],[-90.961439,42.180505],[-90.962484,42.179064],[-90.965097,42.178011],[-90.969371,42.178033],[-90.970417,42.18025],[-90.973948,42.181649],[-90.974579,42.183554],[-90.977481,42.185403],[-90.979306,42.182674],[-90.979601,42.178574],[-90.984119,42.178585],[-90.984971,42.180406],[-90.991247,42.180411],[-90.990002,42.182028],[-90.990588,42.183814],[-90.98976,42.185644],[-90.991268,42.186588],[-90.991115,42.187583],[-90.986841,42.187677],[-90.985179,42.186603],[-90.982259,42.187015],[-90.985089,42.189553],[-90.985213,42.190833],[-90.983707,42.192046],[-90.984323,42.193761],[-90.988536,42.19353],[-90.99035,42.192409],[-90.99238,42.192911],[-90.995088,42.195379],[-90.996751,42.197917],[-90.998228,42.199128],[-90.999615,42.202077],[-90.996879,42.203725],[-90.997126,42.205029],[-91.000161,42.20521],[-91.003593,42.203525],[-91.006735,42.203276],[-91.007896,42.204145],[-91.007295,42.206383],[-91.008943,42.207573],[-91.010436,42.205124],[-91.0123,42.203499],[-91.014057,42.202991],[-91.014048,42.200983],[-91.025804,42.201153],[-91.026577,42.184935],[-91.029375,42.185164],[-91.030366,42.168946],[-91.026946,42.168671],[-91.02739,42.16296],[-91.02409,42.162696],[-91.025926,42.144388],[-91.026398,42.141567],[-91.028242,42.142172],[-91.028803,42.141371],[-91.030781,42.141556],[-91.033584,42.143951]]]}}]}