{"type":"FeatureCollection","features":[{"type":"Feature","properties":{"zcta5":"68778","AFFGEOID10":"8600000US68778","GEOID10":"68778","ALAND10":1228901410,"AWATER10":1410231,"county_name":"Keya Paha","state_code":"NE","county_state":"Keya Paha County, NE","county_fips":"31103","risk_level_county":"Medium Risk (70–79% vaccinated)","mean_vaccination_rate_county":72.14,"risk_level_zcta":"Medium Risk (70–79% vaccinated)","mean_vaccination_rate_zips":76.42,"cases":1},"geometry":{"type":"Polygon","coordinates":[[[-100.134432,42.821222],[-100.133812,42.81985],[-100.134777,42.818341],[-100.137512,42.816855],[-100.139005,42.814454],[-100.138788,42.813036],[-100.135313,42.808575],[-100.133978,42.807819],[-100.130003,42.807063],[-100.127343,42.805987],[-100.121113,42.805149],[-100.117424,42.805361],[-100.115296,42.804469],[-100.114315,42.803403],[-100.114257,42.801067],[-100.11334,42.799683],[-100.10724,42.798939],[-100.103455,42.797037],[-100.099127,42.796897],[-100.094936,42.796129],[-100.093689,42.795292],[-100.083269,42.792083],[-100.076641,42.791644],[-100.068637,42.790403],[-100.064151,42.7875],[-100.055921,42.785438],[-100.050754,42.785033],[-100.047309,42.785286],[-100.042572,42.785008],[-100.037499,42.78677],[-100.035321,42.786706],[-100.031465,42.787739],[-100.030059,42.787642],[-100.024765,42.786021],[-100.021213,42.785526],[-100.016765,42.787356],[-100.011397,42.7885],[-100.007809,42.788566],[-100.001284,42.786198],[-99.994116,42.784704],[-99.985938,42.780878],[-99.97914,42.780944],[-99.977708,42.779466],[-99.973702,42.777498],[-99.969192,42.776374],[-99.963783,42.775643],[-99.957778,42.775955],[-99.953121,42.774931],[-99.947135,42.774762],[-99.946052,42.775014],[-99.939739,42.773713],[-99.938226,42.774403],[-99.936326,42.773858],[-99.932925,42.77672],[-99.933969,42.780754],[-99.924777,42.780929],[-99.918021,42.780854],[-99.917217,42.779349],[-99.917456,42.777155],[-99.914744,42.777015],[-99.912684,42.775282],[-99.906501,42.774026],[-99.905264,42.774379],[-99.901116,42.772491],[-99.899018,42.770068],[-99.898801,42.768123],[-99.894558,42.768389],[-99.888865,42.769444],[-99.882999,42.770152],[-99.884357,42.772927],[-99.891322,42.774662],[-99.893966,42.776986],[-99.893939,42.778195],[-99.896695,42.778338],[-99.895702,42.779972],[-99.897166,42.782703],[-99.899125,42.783351],[-99.900958,42.786229],[-99.899452,42.787194],[-99.898416,42.785419],[-99.89549,42.786759],[-99.894604,42.786289],[-99.890831,42.786935],[-99.884712,42.785993],[-99.882801,42.786173],[-99.881396,42.787609],[-99.87988,42.785911],[-99.877057,42.786098],[-99.873445,42.784177],[-99.872212,42.782336],[-99.869588,42.780858],[-99.866866,42.776929],[-99.865013,42.776246],[-99.86425,42.774238],[-99.86444,42.77213],[-99.860969,42.770882],[-99.859293,42.766882],[-99.856518,42.763062],[-99.856423,42.759217],[-99.848948,42.759051],[-99.849178,42.756293],[-99.85067,42.751252],[-99.846909,42.751625],[-99.842098,42.753727],[-99.837262,42.754108],[-99.833197,42.752336],[-99.829862,42.749999],[-99.82084,42.744847],[-99.819254,42.743293],[-99.816833,42.742979],[-99.800872,42.739367],[-99.795529,42.738388],[-99.793357,42.738357],[-99.789967,42.739329],[-99.787114,42.738205],[-99.780224,42.73664],[-99.778334,42.735173],[-99.773311,42.735292],[-99.771755,42.736262],[-99.758892,42.73702],[-99.752491,42.737633],[-99.740268,42.733456],[-99.734732,42.732273],[-99.728408,42.732024],[-99.723832,42.731014],[-99.717535,42.728767],[-99.711197,42.727108],[-99.708585,42.727055],[-99.704709,42.72784],[-99.696162,42.730056],[-99.692943,42.730506],[-99.690368,42.730251],[-99.685506,42.728368],[-99.681907,42.728917],[-99.677684,42.730903],[-99.672053,42.733194],[-99.667043,42.734291],[-99.659861,42.735106],[-99.64765,42.732975],[-99.643848,42.731709],[-99.638041,42.730347],[-99.634461,42.729248],[-99.630058,42.726989],[-99.629597,42.726381],[-99.625393,42.724084],[-99.623321,42.723413],[-99.620487,42.723057],[-99.614809,42.722811],[-99.607533,42.721613],[-99.601763,42.721272],[-99.599657,42.721823],[-99.595886,42.722029],[-99.591035,42.721637],[-99.587154,42.722301],[-99.58169,42.724144],[-99.576763,42.724395],[-99.570746,42.724251],[-99.567281,42.723507],[-99.560028,42.722911],[-99.554999,42.721978],[-99.549652,42.719437],[-99.545871,42.718266],[-99.541481,42.71829],[-99.537491,42.717626],[-99.529354,42.720219],[-99.526267,42.721002],[-99.523563,42.72284],[-99.521564,42.723286],[-99.511262,42.727884],[-99.503111,42.730378],[-99.498936,42.731303],[-99.486597,42.731226],[-99.481276,42.733186],[-99.481346,42.735143],[-99.484035,42.734763],[-99.487513,42.737025],[-99.493787,42.738262],[-99.496906,42.737642],[-99.498847,42.737812],[-99.500141,42.74123],[-99.502186,42.744229],[-99.502811,42.746888],[-99.502344,42.747779],[-99.503217,42.749703],[-99.507457,42.751761],[-99.51362,42.755895],[-99.519991,42.760627],[-99.520783,42.76205],[-99.520818,42.767284],[-99.521241,42.76886],[-99.523745,42.772362],[-99.527975,42.775029],[-99.530314,42.775273],[-99.530678,42.781035],[-99.50039,42.781714],[-99.497769,42.781104],[-99.493433,42.781138],[-99.497164,42.785033],[-99.499003,42.787818],[-99.501163,42.789249],[-99.503432,42.792792],[-99.505542,42.794205],[-99.504198,42.798253],[-99.501841,42.802503],[-99.499572,42.805782],[-99.49349,42.810524],[-99.492909,42.811287],[-99.493024,42.821534],[-99.492822,42.824589],[-99.531912,42.824882],[-99.532968,42.827191],[-99.531226,42.829005],[-99.532685,42.830911],[-99.534394,42.831511],[-99.5329,42.835251],[-99.531066,42.836211],[-99.530163,42.839161],[-99.531344,42.839093],[-99.529851,42.841334],[-99.527562,42.841663],[-99.527388,42.842655],[-99.529082,42.842575],[-99.52955,42.846831],[-99.527891,42.848103],[-99.526167,42.847977],[-99.524945,42.849479],[-99.525736,42.850404],[-99.528024,42.850579],[-99.528092,42.8539],[-99.5287,42.855012],[-99.526883,42.855322],[-99.527517,42.856704],[-99.526134,42.857699],[-99.527294,42.859332],[-99.526288,42.860125],[-99.523562,42.860635],[-99.522894,42.861951],[-99.524586,42.862947],[-99.52445,42.86406],[-99.523064,42.865306],[-99.520933,42.865383],[-99.519947,42.86729],[-99.518377,42.868011],[-99.519232,42.869442],[-99.51777,42.870311],[-99.515687,42.870447],[-99.517396,42.871317],[-99.515499,42.871819],[-99.518701,42.873765],[-99.519258,42.875352],[-99.517796,42.875547],[-99.519639,42.877638],[-99.518276,42.879754],[-99.519852,42.880722],[-99.518394,42.882271],[-99.518975,42.886871],[-99.521649,42.892407],[-99.522134,42.896033],[-99.52238,42.911246],[-99.571908,42.911503],[-99.571857,42.940211],[-99.552014,42.940369],[-99.552078,42.97637],[-99.551298,42.978242],[-99.55345,42.978027],[-99.555195,42.976083],[-99.556659,42.975534],[-99.55856,42.973384],[-99.560491,42.972835],[-99.562734,42.973887],[-99.564852,42.976746],[-99.564603,42.978713],[-99.565662,42.981023],[-99.568466,42.983836],[-99.572765,42.984522],[-99.581052,42.984201],[-99.582204,42.98443],[-99.583949,42.985779],[-99.584168,42.988592],[-99.586288,42.990398],[-99.586226,42.991405],[-99.583858,42.990788],[-99.584139,42.992114],[-99.582238,42.993167],[-99.579559,42.993648],[-99.579217,42.994768],[-99.57716,42.995798],[-99.5773320122755,42.997987872054495],[-99.652422036981,42.9979214242845],[-99.699234,42.99788],[-99.701446,42.997994],[-99.719177,42.997899],[-99.726788,42.997892],[-99.743138,42.997912],[-99.768524,42.998125],[-99.788247,42.998016],[-99.800306,42.997972],[-99.803328,42.998064],[-99.809373,42.998178],[-99.821868,42.997995],[-99.850037,42.998171],[-99.859945,42.997962],[-99.869885,42.998094],[-99.877697,42.998094],[-99.918401,42.998057],[-99.927645,42.998113],[-99.950411,42.998286],[-99.950921,42.998291],[-99.961204,42.998335],[-100.004757,42.998392],[-100.022946930271,42.9984172440701],[-100.022644,42.991016],[-100.023403,42.981157],[-100.023537,42.969073],[-100.028522,42.969048],[-100.028427,42.959977],[-100.028161,42.958067],[-100.030298,42.956865],[-100.030305,42.955194],[-100.034033,42.955523],[-100.034401,42.954579],[-100.043522,42.954604],[-100.044226,42.919019],[-100.048969,42.924071],[-100.051617,42.925983],[-100.08095,42.9258],[-100.080766,42.940381],[-100.095872,42.940142],[-100.118301,42.940328],[-100.118306,42.910851],[-100.098376,42.911215],[-100.098386,42.908755],[-100.096412,42.908532],[-100.098392,42.907639],[-100.098397,42.89692],[-100.098129,42.896839],[-100.08133,42.896956],[-100.081633,42.875349],[-100.081062,42.868273],[-100.09684,42.867696],[-100.100625,42.868115],[-100.099505,42.861306],[-100.099719,42.845052],[-100.101331,42.842867],[-100.109182,42.842899],[-100.109542,42.839692],[-100.110823,42.83865],[-100.109485,42.836829],[-100.109779,42.835576],[-100.116976,42.835465],[-100.117161,42.829705],[-100.115979,42.828101],[-100.115798,42.825868],[-100.116496,42.824461],[-100.118139,42.823763],[-100.121875,42.823558],[-100.129077,42.822556],[-100.133264,42.82349],[-100.135533,42.823033],[-100.134432,42.821222]]]}},{"type":"Feature","properties":{"zcta5":"68753","AFFGEOID10":"8600000US68753","GEOID10":"68753","ALAND10":380650730,"AWATER10":636404,"county_name":"Keya Paha","state_code":"NE","county_state":"Keya Paha County, NE","county_fips":"31103","risk_level_county":"Medium Risk (70–79% vaccinated)","mean_vaccination_rate_county":72.14,"risk_level_zcta":"Lowest Risk (85%+)","mean_vaccination_rate_zips":89.91,"cases":1},"geometry":{"type":"Polygon","coordinates":[[[-99.5773320122755,42.997987872054495],[-99.57716,42.995798],[-99.579217,42.994768],[-99.579559,42.993648],[-99.582238,42.993167],[-99.584139,42.992114],[-99.583858,42.990788],[-99.586226,42.991405],[-99.586288,42.990398],[-99.584168,42.988592],[-99.583949,42.985779],[-99.582204,42.98443],[-99.581052,42.984201],[-99.572765,42.984522],[-99.568466,42.983836],[-99.565662,42.981023],[-99.564603,42.978713],[-99.564852,42.976746],[-99.562734,42.973887],[-99.560491,42.972835],[-99.55856,42.973384],[-99.556659,42.975534],[-99.555195,42.976083],[-99.55345,42.978027],[-99.551298,42.978242],[-99.552078,42.97637],[-99.552014,42.940369],[-99.571857,42.940211],[-99.571908,42.911503],[-99.52238,42.911246],[-99.522134,42.896033],[-99.521649,42.892407],[-99.518975,42.886871],[-99.518394,42.882271],[-99.519852,42.880722],[-99.518276,42.879754],[-99.519639,42.877638],[-99.517796,42.875547],[-99.519258,42.875352],[-99.518701,42.873765],[-99.515499,42.871819],[-99.517396,42.871317],[-99.515687,42.870447],[-99.51777,42.870311],[-99.519232,42.869442],[-99.518377,42.868011],[-99.519947,42.86729],[-99.520933,42.865383],[-99.523064,42.865306],[-99.52445,42.86406],[-99.524586,42.862947],[-99.522894,42.861951],[-99.523562,42.860635],[-99.526288,42.860125],[-99.527294,42.859332],[-99.526134,42.857699],[-99.527517,42.856704],[-99.526883,42.855322],[-99.5287,42.855012],[-99.528092,42.8539],[-99.528024,42.850579],[-99.525736,42.850404],[-99.524945,42.849479],[-99.526167,42.847977],[-99.527891,42.848103],[-99.52955,42.846831],[-99.529082,42.842575],[-99.527388,42.842655],[-99.527562,42.841663],[-99.529851,42.841334],[-99.531344,42.839093],[-99.530163,42.839161],[-99.531066,42.836211],[-99.5329,42.835251],[-99.534394,42.831511],[-99.532685,42.830911],[-99.531226,42.829005],[-99.532968,42.827191],[-99.531912,42.824882],[-99.492822,42.824589],[-99.493024,42.821534],[-99.492909,42.811287],[-99.49349,42.810524],[-99.499572,42.805782],[-99.501841,42.802503],[-99.504198,42.798253],[-99.505542,42.794205],[-99.503432,42.792792],[-99.501163,42.789249],[-99.499003,42.787818],[-99.497164,42.785033],[-99.493433,42.781138],[-99.497769,42.781104],[-99.50039,42.781714],[-99.530678,42.781035],[-99.530314,42.775273],[-99.527975,42.775029],[-99.523745,42.772362],[-99.521241,42.76886],[-99.520818,42.767284],[-99.520783,42.76205],[-99.519991,42.760627],[-99.51362,42.755895],[-99.507457,42.751761],[-99.503217,42.749703],[-99.502344,42.747779],[-99.502811,42.746888],[-99.502186,42.744229],[-99.500141,42.74123],[-99.498847,42.737812],[-99.496906,42.737642],[-99.493787,42.738262],[-99.487513,42.737025],[-99.484035,42.734763],[-99.481346,42.735143],[-99.481276,42.733186],[-99.476246,42.735396],[-99.470428,42.738317],[-99.468018,42.740923],[-99.463776,42.750001],[-99.4625,42.751626],[-99.457596,42.752313],[-99.455703,42.753068],[-99.452289,42.753206],[-99.444561,42.75268],[-99.439824,42.752931],[-99.437057,42.753615],[-99.431679,42.759794],[-99.430995,42.76167],[-99.426886,42.764714],[-99.421464,42.767822],[-99.420222,42.76972],[-99.415222,42.772098],[-99.412812,42.772265],[-99.402774,42.77158],[-99.399571,42.771378],[-99.395903,42.772318],[-99.385349,42.777075],[-99.379466,42.78157],[-99.377971,42.782214],[-99.373496,42.78218],[-99.364315,42.782405],[-99.362762,42.78211],[-99.357118,42.780186],[-99.351183,42.779632],[-99.349478,42.779948],[-99.344208,42.779425],[-99.339618,42.779665],[-99.336428,42.780386],[-99.334617,42.781328],[-99.334631,42.789775],[-99.336831,42.78963],[-99.33838,42.79122],[-99.338536,42.793644],[-99.340649,42.796137],[-99.340803,42.797184],[-99.343323,42.801306],[-99.343448,42.802152],[-99.348481,42.80469],[-99.354665,42.806883],[-99.359358,42.809512],[-99.364517,42.81166],[-99.367309,42.813184],[-99.369746,42.816207],[-99.371022,42.817119],[-99.370655,42.820842],[-99.373328,42.823095],[-99.37435,42.825328],[-99.335247,42.825626],[-99.335255,42.847323],[-99.347576,42.847604],[-99.353575,42.848531],[-99.357146,42.848805],[-99.359679,42.848311],[-99.364354,42.848157],[-99.365777,42.84852],[-99.370907,42.84793],[-99.377889,42.848355],[-99.380233,42.849021],[-99.383803,42.850916],[-99.394508,42.850907],[-99.394815,42.860678],[-99.390243,42.867254],[-99.389251,42.871867],[-99.389404,42.875001],[-99.38333,42.878558],[-99.381384,42.88044],[-99.378127,42.881262],[-99.374924,42.883481],[-99.3554,42.883781],[-99.33569,42.883617],[-99.335603,42.915303],[-99.33446,42.918511],[-99.336657,42.919229],[-99.333985,42.919322],[-99.331236,42.923754],[-99.330927,42.925959],[-99.331557,42.927953],[-99.338,42.928754],[-99.344756,42.932686],[-99.348181,42.933372],[-99.352973,42.931449],[-99.35397,42.932317],[-99.356522,42.93266],[-99.361347,42.930896],[-99.364989,42.931651],[-99.365273,42.936294],[-99.366115,42.937666],[-99.36842,42.939403],[-99.371658,42.939196],[-99.373371,42.940796],[-99.372968,42.942054],[-99.374588,42.943288],[-99.374807,42.944706],[-99.374623,42.947245],[-99.372662,42.947429],[-99.372352,42.948848],[-99.373132,42.950494],[-99.371512,42.949557],[-99.370049,42.950633],[-99.37001,42.952341],[-99.370581,42.953286],[-99.372574,42.953651],[-99.372077,42.954589],[-99.375744,42.955549],[-99.375822,42.957104],[-99.374728,42.958842],[-99.37663,42.95914],[-99.375974,42.961153],[-99.374263,42.960535],[-99.37389,42.961907],[-99.371493,42.962092],[-99.370029,42.963259],[-99.370435,42.964494],[-99.367852,42.966896],[-99.36994,42.968337],[-99.368664,42.968498],[-99.369414,42.971677],[-99.370443,42.972454],[-99.368325,42.972843],[-99.367953,42.974856],[-99.370072,42.976045],[-99.367987,42.977944],[-99.37048,42.979156],[-99.368269,42.979842],[-99.36989,42.981374],[-99.368988,42.982175],[-99.370983,42.983844],[-99.368212,42.985606],[-99.370208,42.987334],[-99.37009,42.988657],[-99.368667,42.989619],[-99.368798,42.991259],[-99.370416,42.992301],[-99.368808,42.993652],[-99.370953,42.994373],[-99.370056,42.995197],[-99.372205,42.996829],[-99.373728,42.997143],[-99.377407,42.99647],[-99.3783574998264,42.9980706154215],[-99.3835584075615,42.9981006488324],[-99.395568,42.99817],[-99.471353,42.997967],[-99.474531,42.998081],[-99.490798,42.998143],[-99.494287,42.998118],[-99.5340492772214,42.9980405812359],[-99.535375,42.998038],[-99.569277,42.997995],[-99.5773320122755,42.997987872054495]]]}},{"type":"Feature","properties":{"zcta5":"69220","AFFGEOID10":"8600000US69220","GEOID10":"69220","ALAND10":125881939,"AWATER10":0,"county_name":"Keya Paha","state_code":"NE","county_state":"Keya Paha County, NE","county_fips":"31103","risk_level_county":"Medium Risk (70–79% vaccinated)","mean_vaccination_rate_county":72.14,"risk_level_zcta":"Lower Risk (80–84% vaccinated)","mean_vaccination_rate_zips":81.57,"cases":1},"geometry":{"type":"MultiPolygon","coordinates":[[[[-100.098397,42.89692],[-100.1142,42.896781],[-100.118813,42.896228],[-100.139509,42.896813],[-100.198372,42.896659],[-100.230346,42.8969],[-100.232781,42.897609],[-100.233629,42.896932],[-100.237754,42.896948],[-100.237664,42.911541],[-100.257547,42.911611],[-100.257269,42.897152],[-100.259632,42.895281],[-100.259166,42.892603],[-100.26002,42.891636],[-100.25981,42.888604],[-100.261513,42.887089],[-100.260802,42.883547],[-100.259976,42.88223],[-100.260525,42.880849],[-100.260517,42.877835],[-100.262159,42.876775],[-100.263181,42.874592],[-100.262819,42.873765],[-100.258681,42.87118],[-100.258584,42.869624],[-100.257615,42.868139],[-100.249471,42.867559],[-100.247335,42.867797],[-100.244533,42.866148],[-100.244755,42.864839],[-100.242216,42.862437],[-100.23866,42.861256],[-100.237009,42.859963],[-100.235006,42.859498],[-100.232927,42.857853],[-100.230985,42.857431],[-100.227362,42.858099],[-100.219045,42.856195],[-100.217234,42.854315],[-100.214714,42.85418],[-100.216231,42.852094],[-100.212547,42.847922],[-100.208294,42.847326],[-100.20136,42.847651],[-100.198478,42.846102],[-100.195269,42.842824],[-100.190856,42.839463],[-100.187778,42.83761],[-100.179947,42.836535],[-100.176373,42.834796],[-100.173328,42.834888],[-100.168947,42.833972],[-100.165373,42.834063],[-100.163322,42.833445],[-100.16208,42.831615],[-100.1632,42.828757],[-100.160808,42.827521],[-100.157731,42.828893],[-100.155742,42.83079],[-100.15108,42.832482],[-100.149309,42.832115],[-100.146667,42.830513],[-100.145363,42.830215],[-100.14468,42.829346],[-100.14462,42.824772],[-100.144031,42.824131],[-100.139464,42.823031],[-100.134432,42.821222],[-100.135533,42.823033],[-100.133264,42.82349],[-100.129077,42.822556],[-100.121875,42.823558],[-100.118139,42.823763],[-100.116496,42.824461],[-100.115798,42.825868],[-100.115979,42.828101],[-100.117161,42.829705],[-100.116976,42.835465],[-100.109779,42.835576],[-100.109485,42.836829],[-100.110823,42.83865],[-100.109542,42.839692],[-100.109182,42.842899],[-100.101331,42.842867],[-100.099719,42.845052],[-100.099505,42.861306],[-100.100625,42.868115],[-100.09684,42.867696],[-100.081062,42.868273],[-100.081633,42.875349],[-100.08133,42.896956],[-100.098129,42.896839],[-100.098397,42.89692]]],[[[-100.27760326715101,42.9986736844121],[-100.276551,42.996996],[-100.276409,42.969864],[-100.277809,42.95438],[-100.278237,42.940596],[-100.257332,42.940736],[-100.2545,42.939621],[-100.253599,42.940772],[-100.230741,42.940973],[-100.227021,42.940367],[-100.222675,42.938562],[-100.219101,42.935271],[-100.217438,42.937355],[-100.21744,42.939852],[-100.218119,42.952595],[-100.21739,42.95393],[-100.216091,42.954599],[-100.212923,42.954715],[-100.198516,42.954732],[-100.19841203687501,42.9985420518853],[-100.198412688285,42.9985420503464],[-100.198434,42.998542],[-100.27760326715101,42.9986736844121]]]]}},{"type":"Feature","properties":{"zcta5":"68759","AFFGEOID10":"8600000US68759","GEOID10":"68759","ALAND10":635794151,"AWATER10":778508,"county_name":"Keya Paha","state_code":"NE","county_state":"Keya Paha County, NE","county_fips":"31103","risk_level_county":"Medium Risk (70–79% vaccinated)","mean_vaccination_rate_county":72.14,"risk_level_zcta":"Medium Risk (70–79% vaccinated)","mean_vaccination_rate_zips":75.9,"cases":1},"geometry":{"type":"Polygon","coordinates":[[[-99.402774,42.77158],[-99.402454,42.673757],[-99.401978,42.652664],[-99.375393,42.651839],[-99.363428,42.65217],[-99.363474,42.625],[-99.362387,42.591913],[-99.368697,42.590224],[-99.371143,42.589989],[-99.373541,42.590302],[-99.382852,42.592276],[-99.421179,42.598192],[-99.42082,42.579542],[-99.401451,42.579605],[-99.401012,42.543839],[-99.361695,42.543269],[-99.361625,42.497724],[-99.362445,42.496818],[-99.36223,42.493651],[-99.361727,42.492583],[-99.361811,42.486226],[-99.362179,42.483791],[-99.361889,42.481298],[-99.362312,42.434836],[-99.250385,42.435088],[-99.244591,42.434639],[-99.245335,42.505823],[-99.245025,42.520833],[-99.245252,42.590444],[-99.245587,42.619499],[-99.246018,42.625],[-99.246161,42.708374],[-99.245803,42.782499],[-99.256846,42.782655],[-99.257039,42.804296],[-99.256877,42.847092],[-99.257578,42.901981],[-99.257407,42.905307],[-99.253965,42.904854],[-99.2544542492264,42.998139794357],[-99.25705401939301,42.9981694601048],[-99.26271,42.998234],[-99.288045,42.998152],[-99.347283,42.998217],[-99.368628,42.99814],[-99.371121,42.998093],[-99.374268,42.998047],[-99.3783574998264,42.9980706154215],[-99.377407,42.99647],[-99.373728,42.997143],[-99.372205,42.996829],[-99.370056,42.995197],[-99.370953,42.994373],[-99.368808,42.993652],[-99.370416,42.992301],[-99.368798,42.991259],[-99.368667,42.989619],[-99.37009,42.988657],[-99.370208,42.987334],[-99.368212,42.985606],[-99.370983,42.983844],[-99.368988,42.982175],[-99.36989,42.981374],[-99.368269,42.979842],[-99.37048,42.979156],[-99.367987,42.977944],[-99.370072,42.976045],[-99.367953,42.974856],[-99.368325,42.972843],[-99.370443,42.972454],[-99.369414,42.971677],[-99.368664,42.968498],[-99.36994,42.968337],[-99.367852,42.966896],[-99.370435,42.964494],[-99.370029,42.963259],[-99.371493,42.962092],[-99.37389,42.961907],[-99.374263,42.960535],[-99.375974,42.961153],[-99.37663,42.95914],[-99.374728,42.958842],[-99.375822,42.957104],[-99.375744,42.955549],[-99.372077,42.954589],[-99.372574,42.953651],[-99.370581,42.953286],[-99.37001,42.952341],[-99.370049,42.950633],[-99.371512,42.949557],[-99.373132,42.950494],[-99.372352,42.948848],[-99.372662,42.947429],[-99.374623,42.947245],[-99.374807,42.944706],[-99.374588,42.943288],[-99.372968,42.942054],[-99.373371,42.940796],[-99.371658,42.939196],[-99.36842,42.939403],[-99.366115,42.937666],[-99.365273,42.936294],[-99.364989,42.931651],[-99.361347,42.930896],[-99.356522,42.93266],[-99.35397,42.932317],[-99.352973,42.931449],[-99.348181,42.933372],[-99.344756,42.932686],[-99.338,42.928754],[-99.331557,42.927953],[-99.330927,42.925959],[-99.331236,42.923754],[-99.333985,42.919322],[-99.336657,42.919229],[-99.33446,42.918511],[-99.335603,42.915303],[-99.33569,42.883617],[-99.3554,42.883781],[-99.374924,42.883481],[-99.378127,42.881262],[-99.381384,42.88044],[-99.38333,42.878558],[-99.389404,42.875001],[-99.389251,42.871867],[-99.390243,42.867254],[-99.394815,42.860678],[-99.394508,42.850907],[-99.383803,42.850916],[-99.380233,42.849021],[-99.377889,42.848355],[-99.370907,42.84793],[-99.365777,42.84852],[-99.364354,42.848157],[-99.359679,42.848311],[-99.357146,42.848805],[-99.353575,42.848531],[-99.347576,42.847604],[-99.335255,42.847323],[-99.335247,42.825626],[-99.37435,42.825328],[-99.373328,42.823095],[-99.370655,42.820842],[-99.371022,42.817119],[-99.369746,42.816207],[-99.367309,42.813184],[-99.364517,42.81166],[-99.359358,42.809512],[-99.354665,42.806883],[-99.348481,42.80469],[-99.343448,42.802152],[-99.343323,42.801306],[-99.340803,42.797184],[-99.340649,42.796137],[-99.338536,42.793644],[-99.33838,42.79122],[-99.336831,42.78963],[-99.334631,42.789775],[-99.334617,42.781328],[-99.336428,42.780386],[-99.339618,42.779665],[-99.344208,42.779425],[-99.349478,42.779948],[-99.351183,42.779632],[-99.357118,42.780186],[-99.362762,42.78211],[-99.364315,42.782405],[-99.373496,42.78218],[-99.377971,42.782214],[-99.379466,42.78157],[-99.385349,42.777075],[-99.395903,42.772318],[-99.399571,42.771378],[-99.402774,42.77158]]]}}]}