{"type":"FeatureCollection","features":[{"type":"Feature","properties":{"zcta5":"81045","AFFGEOID10":"8600000US81045","GEOID10":"81045","ALAND10":591324438,"AWATER10":2881137,"county_name":"Kiowa","state_code":"CO","county_state":"Kiowa County, CO","county_fips":"08061","risk_level_county":"Medium Risk (70–79% vaccinated)","mean_vaccination_rate_county":76.69,"risk_level_zcta":"Very High Risk (<60% vaccinated)","mean_vaccination_rate_zips":52.78,"cases":35},"geometry":{"type":"Polygon","coordinates":[[[-103.377631,38.52343],[-103.376814,38.521618],[-103.374692,38.52181],[-103.373739,38.519819],[-103.370229,38.519754],[-103.368491,38.514555],[-103.362469,38.512017],[-103.361393,38.509467],[-103.363553,38.507074],[-103.365538,38.505724],[-103.365899,38.503559],[-103.360432,38.50357],[-103.360433,38.500104],[-103.358342,38.499],[-103.359203,38.497503],[-103.359014,38.495632],[-103.357971,38.494413],[-103.355695,38.494319],[-103.353975,38.493372],[-103.353944,38.48885],[-103.351699,38.487178],[-103.351754,38.485171],[-103.35018,38.48281],[-103.350212,38.479021],[-103.348819,38.476469],[-103.350969,38.474092],[-103.35092,38.473232],[-103.348695,38.4674],[-103.350051,38.464236],[-103.347917,38.462544],[-103.351141,38.459927],[-103.350609,38.45755],[-103.352369,38.456341],[-103.349244,38.454217],[-103.350219,38.452639],[-103.35006,38.450656],[-103.35683,38.450671],[-103.356117,38.33829],[-103.342472,38.338161],[-103.332979,38.358923],[-103.330163,38.364222],[-103.298303,38.403497],[-103.29664,38.405152],[-103.294948,38.406292],[-103.212231,38.448522],[-103.210188,38.449392],[-103.207108,38.449965],[-103.205082,38.449893],[-103.193819,38.448062],[-103.183417,38.447351],[-103.181968,38.44746],[-103.179767,38.447949],[-103.175182,38.449543],[-103.1729,38.450611],[-103.171779,38.395084],[-103.226913,38.393504],[-103.226821,38.322135],[-103.208278,38.32245],[-103.189094,38.322681],[-103.171424,38.322315],[-103.152904,38.324316],[-103.153715,38.379269],[-103.15333,38.395431],[-103.061637,38.397106],[-103.043631,38.396063],[-103.024879,38.396258],[-103.024542,38.440707],[-102.969551,38.440527],[-102.969592,38.497903],[-103.024678,38.503408],[-103.025637,38.614994],[-103.172943,38.61245],[-103.172878,38.525315],[-103.246602,38.523842],[-103.250561,38.523658],[-103.377631,38.52343]]]}},{"type":"Feature","properties":{"zcta5":"81021","AFFGEOID10":"8600000US81021","GEOID10":"81021","ALAND10":565815021,"AWATER10":10034469,"county_name":"Kiowa","state_code":"CO","county_state":"Kiowa County, CO","county_fips":"08061","risk_level_county":"Medium Risk (70–79% vaccinated)","mean_vaccination_rate_county":76.69,"risk_level_zcta":"Uninhabited","mean_vaccination_rate_zips":null,"cases":35},"geometry":{"type":"Polygon","coordinates":[[[-103.504666,38.516409],[-103.504653,38.500001],[-103.505252,38.491281],[-103.506985,38.342256],[-103.501747,38.342295],[-103.501387,38.326975],[-103.501593,38.324396],[-103.501764,38.265016],[-103.410375,38.265308],[-103.399938,38.265435],[-103.375489,38.2655],[-103.355573,38.265533],[-103.207018,38.265833],[-103.208278,38.32245],[-103.226821,38.322135],[-103.226913,38.393504],[-103.171779,38.395084],[-103.1729,38.450611],[-103.175182,38.449543],[-103.179767,38.447949],[-103.181968,38.44746],[-103.183417,38.447351],[-103.193819,38.448062],[-103.205082,38.449893],[-103.207108,38.449965],[-103.210188,38.449392],[-103.212231,38.448522],[-103.294948,38.406292],[-103.29664,38.405152],[-103.298303,38.403497],[-103.330163,38.364222],[-103.332979,38.358923],[-103.342472,38.338161],[-103.356117,38.33829],[-103.35683,38.450671],[-103.35006,38.450656],[-103.350219,38.452639],[-103.349244,38.454217],[-103.352369,38.456341],[-103.350609,38.45755],[-103.351141,38.459927],[-103.347917,38.462544],[-103.350051,38.464236],[-103.348695,38.4674],[-103.35092,38.473232],[-103.350969,38.474092],[-103.348819,38.476469],[-103.350212,38.479021],[-103.35018,38.48281],[-103.351754,38.485171],[-103.351699,38.487178],[-103.353944,38.48885],[-103.353975,38.493372],[-103.355695,38.494319],[-103.357971,38.494413],[-103.359014,38.495632],[-103.359203,38.497503],[-103.358342,38.499],[-103.360433,38.500104],[-103.360432,38.50357],[-103.365899,38.503559],[-103.365538,38.505724],[-103.363553,38.507074],[-103.361393,38.509467],[-103.362469,38.512017],[-103.368491,38.514555],[-103.370229,38.519754],[-103.373739,38.519819],[-103.374692,38.52181],[-103.376814,38.521618],[-103.377631,38.52343],[-103.381931,38.523327],[-103.455415,38.523817],[-103.504674,38.523664],[-103.504666,38.516409]]]}},{"type":"Feature","properties":{"zcta5":"81047","AFFGEOID10":"8600000US81047","GEOID10":"81047","ALAND10":1547092325,"AWATER10":6097991,"county_name":"Kiowa","state_code":"CO","county_state":"Kiowa County, CO","county_fips":"08061","risk_level_county":"Medium Risk (70–79% vaccinated)","mean_vaccination_rate_county":76.69,"risk_level_zcta":"Medium Risk (70–79% vaccinated)","mean_vaccination_rate_zips":71.5,"cases":35},"geometry":{"type":"Polygon","coordinates":[[[-102.47975,38.26793],[-102.479584,38.266951],[-102.480772,38.264607],[-102.480831,38.263353],[-102.483941,38.259825],[-102.481696,38.256016],[-102.485587,38.250269],[-102.4871,38.249086],[-102.486884,38.247488],[-102.484923,38.244335],[-102.485591,38.242369],[-102.484742,38.2396],[-102.48525,38.237786],[-102.485177,38.235336],[-102.482439,38.230835],[-102.483242,38.229509],[-102.485516,38.227838],[-102.483527,38.225707],[-102.4861,38.223936],[-102.485677,38.220916],[-102.48422,38.219663],[-102.482159,38.218945],[-102.480309,38.213898],[-102.481815,38.212189],[-102.482958,38.209069],[-102.482667,38.207894],[-102.483573,38.20622],[-102.486334,38.204578],[-102.485651,38.201672],[-102.486617,38.19932],[-102.481767,38.194204],[-102.479717,38.19284],[-102.478969,38.190653],[-102.479938,38.188666],[-102.481886,38.188073],[-102.484706,38.185647],[-102.484552,38.183876],[-102.482422,38.181304],[-102.482794,38.178694],[-102.480893,38.177567],[-102.478113,38.174754],[-102.477662,38.173715],[-102.478271,38.172812],[-102.480984,38.173116],[-102.482148,38.170384],[-102.484833,38.169353],[-102.484965,38.16789],[-102.484172,38.166672],[-102.485735,38.164292],[-102.485715,38.163154],[-102.483545,38.161331],[-102.482798,38.15958],[-102.484627,38.156343],[-102.486582,38.155759],[-102.488156,38.156231],[-102.489127,38.154738],[-102.487497,38.153618],[-102.488878,38.151667],[-102.487477,38.148182],[-102.487811,38.14608],[-102.484179,38.143441],[-102.483078,38.140163],[-102.48323,38.138853],[-102.486826,38.135492],[-102.486894,38.132984],[-102.488214,38.128927],[-102.487328,38.127338],[-102.487465,38.126202],[-102.490154,38.124208],[-102.490188,38.123473],[-102.485779,38.121981],[-102.481486,38.120915],[-102.479895,38.119305],[-102.479863,38.11749],[-102.481172,38.116113],[-102.482637,38.115914],[-102.48411,38.114321],[-102.412179,38.114451],[-102.411586,38.10868],[-102.41156,38.103868],[-102.380001,38.103823],[-102.379927,38.105753],[-102.376332,38.105293],[-102.371713,38.103222],[-102.370649,38.102288],[-102.370463,38.099962],[-102.368149,38.098906],[-102.365804,38.098527],[-102.364169,38.098345],[-102.363361,38.097222],[-102.356748,38.096724],[-102.356613,38.099152],[-102.341753,38.099209],[-102.339933,38.098498],[-102.336087,38.099029],[-102.332709,38.100746],[-102.329913,38.0998],[-102.328563,38.097583],[-102.326203,38.095928],[-102.324293,38.095749],[-102.318986,38.093667],[-102.315724,38.094848],[-102.312922,38.09474],[-102.310754,38.094594],[-102.310338,38.095374],[-102.307861,38.09446],[-102.300507,38.093348],[-102.297791,38.093713],[-102.296411,38.09456],[-102.294351,38.094334],[-102.293405,38.092382],[-102.293717,38.091373],[-102.292843,38.090124],[-102.291248,38.089696],[-102.288988,38.088206],[-102.285225,38.087094],[-102.281306,38.086741],[-102.274238,38.083208],[-102.273272,38.081839],[-102.272062,38.082208],[-102.270318,38.08158],[-102.268274,38.079428],[-102.26451,38.077471],[-102.262245,38.07438],[-102.258483,38.074373],[-102.257249,38.073274],[-102.254529,38.072279],[-102.251082,38.069388],[-102.247527,38.068422],[-102.242885,38.066819],[-102.236891,38.063847],[-102.234424,38.060964],[-102.230604,38.057451],[-102.228425,38.053373],[-102.222866,38.049743],[-102.21455,38.046459],[-102.210661,38.043495],[-102.208188,38.042727],[-102.204891,38.042699],[-102.199597,38.0437],[-102.195659,38.044035],[-102.191944,38.043199],[-102.191928,37.999287],[-102.229588,37.999476],[-102.229574,37.984474],[-102.264086,37.984396],[-102.264868,37.983809],[-102.262385,37.824173],[-102.226598,37.824397],[-102.226269,37.868164],[-102.191166,37.867994],[-102.190037,37.867888],[-102.189385,37.824571],[-102.219626,37.824269],[-102.219242,37.803249],[-102.219575,37.661694],[-102.219431,37.644161],[-102.20117,37.644201],[-102.199793,37.644387],[-102.196162,37.644153],[-102.041585,37.644282],[-102.041582,37.654495],[-102.041694,37.665681],[-102.041574,37.680436],[-102.041622965116,37.6874790320614],[-102.041876,37.723875],[-102.041989965863,37.7385406283736],[-102.042158,37.760164],[-102.042668,37.788758],[-102.042953,37.803535],[-102.043033,37.824146],[-102.043219,37.867929],[-102.043714529642,37.9140037576958],[-102.043845,37.926135],[-102.043844,37.928102],[-102.044644,38.045532],[-102.044255,38.113011],[-102.044589,38.125013],[-102.044251,38.141778],[-102.04427593885,38.1601406275654],[-102.044398,38.250015],[-102.04451007292,38.2624115834718],[-102.044567368215,38.2687491172007],[-102.064178,38.268774],[-102.066348,38.268643],[-102.1174,38.268403],[-102.120188,38.268599],[-102.134826,38.268316],[-102.137519,38.268437],[-102.181136,38.268266],[-102.185783,38.268528],[-102.432481,38.267868],[-102.434256,38.267914],[-102.47975,38.26793]],[[-102.228959,38.14475],[-102.225938,38.146339],[-102.221999,38.14127],[-102.220118,38.14005],[-102.214585,38.139344],[-102.210582,38.13822],[-102.210624,38.123575],[-102.217139,38.123743],[-102.219719,38.122445],[-102.21767,38.120585],[-102.216349,38.118714],[-102.219795,38.11785],[-102.222052,38.118389],[-102.228766,38.118488],[-102.228959,38.14475]]]}},{"type":"Feature","properties":{"zcta5":"81071","AFFGEOID10":"8600000US81071","GEOID10":"81071","ALAND10":1473609337,"AWATER10":3541191,"county_name":"Kiowa","state_code":"CO","county_state":"Kiowa County, CO","county_fips":"08061","risk_level_county":"Medium Risk (70–79% vaccinated)","mean_vaccination_rate_county":76.69,"risk_level_zcta":"Very High Risk (<60% vaccinated)","mean_vaccination_rate_zips":49.16,"cases":35},"geometry":{"type":"Polygon","coordinates":[[[-102.585863,38.613317],[-102.583187,38.610948],[-102.58091,38.6063],[-102.576071,38.604226],[-102.573278,38.604237],[-102.570092,38.601706],[-102.568172,38.599203],[-102.567657,38.597752],[-102.565477,38.596116],[-102.56026,38.596908],[-102.558815,38.596317],[-102.55636,38.593421],[-102.555082,38.591084],[-102.550998,38.58813],[-102.550428,38.58639],[-102.549098,38.585705],[-102.547689,38.583444],[-102.547279,38.580653],[-102.544811,38.578456],[-102.542796,38.575561],[-102.540908,38.574363],[-102.537195,38.573456],[-102.533382,38.572113],[-102.531674,38.57194],[-102.527747,38.572595],[-102.526765,38.570266],[-102.527111,38.569248],[-102.524479,38.567613],[-102.522431,38.565778],[-102.519357,38.564826],[-102.517207,38.563193],[-102.515577,38.561141],[-102.51542,38.559588],[-102.513428,38.556808],[-102.513575,38.552859],[-102.511286,38.550474],[-102.509466,38.550222],[-102.506506,38.551042],[-102.504504,38.550842],[-102.503101,38.55131],[-102.49987,38.551013],[-102.497773,38.548986],[-102.49741,38.545674],[-102.496316,38.540976],[-102.496631,38.53624],[-102.498378,38.532222],[-102.499739,38.530813],[-102.501705,38.527779],[-102.501618,38.524798],[-102.500018,38.52217],[-102.49986,38.517854],[-102.500337,38.515876],[-102.50024,38.513718],[-102.500772,38.511618],[-102.502734,38.509146],[-102.503108,38.507454],[-102.50273,38.505995],[-102.501638,38.505693],[-102.500737,38.503864],[-102.501379,38.50001],[-102.501166,38.497003],[-102.49623,38.492278],[-102.49541,38.490762],[-102.492188,38.488703],[-102.490609,38.488185],[-102.487915,38.484725],[-102.488164,38.483648],[-102.490204,38.480927],[-102.488877,38.479185],[-102.487075,38.477956],[-102.485592,38.476053],[-102.485305,38.473368],[-102.487167,38.471526],[-102.48846,38.468998],[-102.491007,38.465695],[-102.49042,38.461922],[-102.491595,38.459811],[-102.492906,38.458886],[-102.495633,38.454904],[-102.496646,38.44977],[-102.49812,38.447396],[-102.500565,38.445605],[-102.499855,38.444244],[-102.504801,38.44167],[-102.507453,38.440983],[-102.510117,38.439008],[-102.507162,38.438305],[-102.502785,38.438348],[-102.498207,38.439096],[-102.469087,38.444718],[-102.468842,38.427861],[-102.470892,38.427265],[-102.470877,38.423335],[-102.471489,38.418741],[-102.464481,38.41868],[-102.464953,38.421456],[-102.461974,38.422368],[-102.445736,38.422478],[-102.445533,38.397341],[-102.454699,38.396843],[-102.454664,38.382715],[-102.43628,38.382903],[-102.435307,38.31145],[-102.452347,38.311073],[-102.453874,38.310718],[-102.471606,38.309782],[-102.471647,38.295998],[-102.502224,38.295072],[-102.511799,38.29434],[-102.512545,38.292295],[-102.51234,38.291011],[-102.509325,38.28941],[-102.506689,38.290045],[-102.503323,38.288524],[-102.501376,38.288185],[-102.499046,38.286663],[-102.497627,38.284698],[-102.495508,38.283834],[-102.492774,38.284557],[-102.489012,38.284751],[-102.484131,38.279479],[-102.480543,38.276371],[-102.479198,38.274301],[-102.477204,38.272838],[-102.476809,38.271162],[-102.477586,38.269154],[-102.47975,38.26793],[-102.434256,38.267914],[-102.432481,38.267868],[-102.185783,38.268528],[-102.181136,38.268266],[-102.137519,38.268437],[-102.134826,38.268316],[-102.120188,38.268599],[-102.1174,38.268403],[-102.066348,38.268643],[-102.064178,38.268774],[-102.044567368215,38.2687491172007],[-102.044568,38.268819],[-102.044613,38.312324],[-102.044944,38.384419],[-102.044442,38.415802],[-102.044936,38.41968],[-102.045324,38.453647],[-102.045263,38.505395],[-102.045262,38.505532],[-102.045112,38.523784],[-102.045223,38.543797],[-102.045189,38.558732],[-102.045211,38.581609],[-102.045287815606,38.6151684415595],[-102.06383,38.615156],[-102.064957,38.615727],[-102.068834,38.615176],[-102.325673,38.615325],[-102.327479,38.615179],[-102.585863,38.613317]]]}},{"type":"Feature","properties":{"zcta5":"81092","AFFGEOID10":"8600000US81092","GEOID10":"81092","ALAND10":218776941,"AWATER10":249500,"county_name":"Kiowa","state_code":"CO","county_state":"Kiowa County, CO","county_fips":"08061","risk_level_county":"Medium Risk (70–79% vaccinated)","mean_vaccination_rate_county":76.69,"risk_level_zcta":"Higher Risk (60–69% vaccinated)","mean_vaccination_rate_zips":65.72,"cases":35},"geometry":{"type":"Polygon","coordinates":[[[-102.834637,38.18647],[-102.83481,38.171539],[-102.832402,38.171514],[-102.830115,38.172883],[-102.825365,38.174634],[-102.825501,38.179339],[-102.826649,38.180915],[-102.829208,38.182118],[-102.829503,38.184023],[-102.831006,38.186675],[-102.830297,38.189036],[-102.828739,38.189306],[-102.827622,38.186909],[-102.825726,38.185728],[-102.82385,38.185364],[-102.824728,38.172066],[-102.830739,38.167988],[-102.834124,38.163422],[-102.834068,38.158093],[-102.822137,38.158231],[-102.82211,38.15438],[-102.815571,38.154292],[-102.815533,38.143599],[-102.778564,38.143682],[-102.77849,38.132962],[-102.760105,38.133016],[-102.760117,38.114517],[-102.741779,38.114117],[-102.731367,38.113596],[-102.727642,38.113437],[-102.725358,38.114166],[-102.710626,38.114085],[-102.708392,38.11365],[-102.708057,38.114298],[-102.705281,38.114787],[-102.705295,38.126105],[-102.70445,38.125254],[-102.703088,38.122198],[-102.702602,38.120149],[-102.702095,38.115347],[-102.695378,38.115961],[-102.693724,38.115413],[-102.690564,38.113479],[-102.689051,38.113108],[-102.683129,38.113261],[-102.679853,38.114155],[-102.676242,38.114733],[-102.673842,38.115539],[-102.671454,38.115249],[-102.668428,38.115774],[-102.668351,38.128661],[-102.686806,38.128611],[-102.686855,38.15773],[-102.668397,38.157654],[-102.669198,38.17343],[-102.668922,38.186837],[-102.660075,38.186861],[-102.660057,38.193537],[-102.668754,38.193592],[-102.668224,38.267299],[-102.722139,38.267101],[-102.723824,38.26725],[-102.74233,38.266971],[-102.761337,38.266679],[-102.793522,38.267672],[-102.793844,38.267721],[-102.798991,38.267796],[-102.821675,38.26695],[-102.834481,38.266461],[-102.834386,38.20108],[-102.83456,38.200132],[-102.834637,38.18647]]]}},{"type":"Feature","properties":{"zcta5":"81036","AFFGEOID10":"8600000US81036","GEOID10":"81036","ALAND10":1947541202,"AWATER10":30576121,"county_name":"Kiowa","state_code":"CO","county_state":"Kiowa County, CO","county_fips":"08061","risk_level_county":"Medium Risk (70–79% vaccinated)","mean_vaccination_rate_county":76.69,"risk_level_zcta":"Medium Risk (70–79% vaccinated)","mean_vaccination_rate_zips":78.99,"cases":35},"geometry":{"type":"Polygon","coordinates":[[[-103.208278,38.32245],[-103.207018,38.265833],[-103.16358,38.266026],[-103.140048,38.265977],[-103.131096,38.266392],[-103.000479,38.266373],[-102.958605,38.26669],[-102.949841,38.266916],[-102.841535,38.267045],[-102.839875,38.266729],[-102.839085,38.266641],[-102.834481,38.266461],[-102.821675,38.26695],[-102.798991,38.267796],[-102.793844,38.267721],[-102.793522,38.267672],[-102.761337,38.266679],[-102.74233,38.266971],[-102.723824,38.26725],[-102.722139,38.267101],[-102.668224,38.267299],[-102.47975,38.26793],[-102.477586,38.269154],[-102.476809,38.271162],[-102.477204,38.272838],[-102.479198,38.274301],[-102.480543,38.276371],[-102.484131,38.279479],[-102.489012,38.284751],[-102.492774,38.284557],[-102.495508,38.283834],[-102.497627,38.284698],[-102.499046,38.286663],[-102.501376,38.288185],[-102.503323,38.288524],[-102.506689,38.290045],[-102.509325,38.28941],[-102.51234,38.291011],[-102.512545,38.292295],[-102.511799,38.29434],[-102.502224,38.295072],[-102.471647,38.295998],[-102.471606,38.309782],[-102.453874,38.310718],[-102.452347,38.311073],[-102.435307,38.31145],[-102.43628,38.382903],[-102.454664,38.382715],[-102.454699,38.396843],[-102.445533,38.397341],[-102.445736,38.422478],[-102.461974,38.422368],[-102.464953,38.421456],[-102.464481,38.41868],[-102.471489,38.418741],[-102.470877,38.423335],[-102.470892,38.427265],[-102.468842,38.427861],[-102.469087,38.444718],[-102.498207,38.439096],[-102.502785,38.438348],[-102.507162,38.438305],[-102.510117,38.439008],[-102.507453,38.440983],[-102.504801,38.44167],[-102.499855,38.444244],[-102.500565,38.445605],[-102.49812,38.447396],[-102.496646,38.44977],[-102.495633,38.454904],[-102.492906,38.458886],[-102.491595,38.459811],[-102.49042,38.461922],[-102.491007,38.465695],[-102.48846,38.468998],[-102.487167,38.471526],[-102.485305,38.473368],[-102.485592,38.476053],[-102.487075,38.477956],[-102.488877,38.479185],[-102.490204,38.480927],[-102.488164,38.483648],[-102.487915,38.484725],[-102.490609,38.488185],[-102.492188,38.488703],[-102.49541,38.490762],[-102.49623,38.492278],[-102.501166,38.497003],[-102.501379,38.50001],[-102.500737,38.503864],[-102.501638,38.505693],[-102.50273,38.505995],[-102.503108,38.507454],[-102.502734,38.509146],[-102.500772,38.511618],[-102.50024,38.513718],[-102.500337,38.515876],[-102.49986,38.517854],[-102.500018,38.52217],[-102.501618,38.524798],[-102.501705,38.527779],[-102.499739,38.530813],[-102.498378,38.532222],[-102.496631,38.53624],[-102.496316,38.540976],[-102.49741,38.545674],[-102.497773,38.548986],[-102.49987,38.551013],[-102.503101,38.55131],[-102.504504,38.550842],[-102.506506,38.551042],[-102.509466,38.550222],[-102.511286,38.550474],[-102.513575,38.552859],[-102.513428,38.556808],[-102.51542,38.559588],[-102.515577,38.561141],[-102.517207,38.563193],[-102.519357,38.564826],[-102.522431,38.565778],[-102.524479,38.567613],[-102.527111,38.569248],[-102.526765,38.570266],[-102.527747,38.572595],[-102.531674,38.57194],[-102.533382,38.572113],[-102.537195,38.573456],[-102.540908,38.574363],[-102.542796,38.575561],[-102.544811,38.578456],[-102.547279,38.580653],[-102.547689,38.583444],[-102.549098,38.585705],[-102.550428,38.58639],[-102.550998,38.58813],[-102.555082,38.591084],[-102.55636,38.593421],[-102.558815,38.596317],[-102.56026,38.596908],[-102.565477,38.596116],[-102.567657,38.597752],[-102.568172,38.599203],[-102.570092,38.601706],[-102.573278,38.604237],[-102.576071,38.604226],[-102.58091,38.6063],[-102.583187,38.610948],[-102.585863,38.613317],[-102.611609,38.613244],[-102.620497,38.612914],[-102.627023,38.613252],[-102.661434,38.61347],[-102.663038,38.613356],[-103.025637,38.614994],[-103.024678,38.503408],[-102.969592,38.497903],[-102.969551,38.440527],[-103.024542,38.440707],[-103.024879,38.396258],[-103.043631,38.396063],[-103.061637,38.397106],[-103.15333,38.395431],[-103.153715,38.379269],[-103.152904,38.324316],[-103.171424,38.322315],[-103.189094,38.322681],[-103.208278,38.32245]]]}}]}