{"type":"FeatureCollection","features":[{"type":"Feature","properties":{"zcta5":"67330","AFFGEOID10":"8600000US67330","GEOID10":"67330","ALAND10":153512418,"AWATER10":1218190,"county_name":"Labette","state_code":"KS","county_state":"Labette County, KS","county_fips":"20099","risk_level_county":"Medium Risk (70–79% vaccinated)","mean_vaccination_rate_county":77.94,"risk_level_zcta":"Medium Risk (70–79% vaccinated)","mean_vaccination_rate_zips":78.89,"cases":1},"geometry":{"type":"Polygon","coordinates":[[[-95.339124,37.237921],[-95.339027,37.223602],[-95.340259,37.177995],[-95.349373,37.17834],[-95.395555,37.177743],[-95.395323,37.163251],[-95.376756,37.163298],[-95.376717,37.157167],[-95.395392,37.157167],[-95.395533,37.134276],[-95.395526,37.12742],[-95.395201,37.119693],[-95.377256,37.119937],[-95.377187,37.105501],[-95.359119,37.105587],[-95.359139,37.091052],[-95.322847,37.091294],[-95.322663,37.076888],[-95.304634,37.076993],[-95.304584,37.105803],[-95.268167,37.106054],[-95.266864,37.134739],[-95.267215,37.149439],[-95.253569,37.149436],[-95.25334,37.150155],[-95.255602,37.150475],[-95.257013,37.153073],[-95.258302,37.152931],[-95.258607,37.156278],[-95.260649,37.158128],[-95.261974,37.162328],[-95.264321,37.163233],[-95.265971,37.163105],[-95.266751,37.164011],[-95.249237,37.164026],[-95.249311,37.179053],[-95.231232,37.179162],[-95.230928,37.185896],[-95.231,37.193102],[-95.234289,37.193107],[-95.249507,37.193615],[-95.249468,37.207869],[-95.249286,37.222535],[-95.267205,37.222493],[-95.267221,37.23713],[-95.339124,37.237921]]]}},{"type":"Feature","properties":{"zcta5":"67357","AFFGEOID10":"8600000US67357","GEOID10":"67357","ALAND10":458850535,"AWATER10":8055905,"county_name":"Labette","state_code":"KS","county_state":"Labette County, KS","county_fips":"20099","risk_level_county":"Medium Risk (70–79% vaccinated)","mean_vaccination_rate_county":77.94,"risk_level_zcta":"Medium Risk (70–79% vaccinated)","mean_vaccination_rate_zips":74.38,"cases":1},"geometry":{"type":"Polygon","coordinates":[[[-95.412423,37.383947],[-95.412451,37.368788],[-95.394252,37.368927],[-95.394144,37.347954],[-95.394646,37.339604],[-95.376389,37.339661],[-95.377168,37.325211],[-95.39496,37.325098],[-95.394925,37.310646],[-95.393631,37.29592],[-95.393643,37.288955],[-95.393316,37.281215],[-95.376222,37.281258],[-95.375905,37.266722],[-95.358379,37.266911],[-95.357982,37.252338],[-95.341025,37.252509],[-95.338659,37.252241],[-95.3392,37.251842],[-95.339124,37.237921],[-95.267221,37.23713],[-95.267205,37.222493],[-95.249286,37.222535],[-95.249468,37.207869],[-95.198524,37.207887],[-95.198874,37.210164],[-95.197155,37.212794],[-95.200424,37.214321],[-95.200062,37.215688],[-95.197602,37.215979],[-95.196736,37.217464],[-95.197422,37.217928],[-95.199851,37.217779],[-95.202465,37.219096],[-95.203375,37.220732],[-95.201308,37.222768],[-95.200975,37.224314],[-95.197696,37.226118],[-95.197585,37.229639],[-95.197113,37.231674],[-95.199726,37.234993],[-95.200594,37.236829],[-95.199943,37.23882],[-95.201371,37.241169],[-95.201283,37.242635],[-95.199263,37.244255],[-95.201337,37.2457],[-95.204359,37.248493],[-95.205088,37.250232],[-95.206979,37.251323],[-95.206609,37.253171],[-95.207232,37.254277],[-95.212661,37.253921],[-95.214742,37.255939],[-95.214559,37.257348],[-95.215596,37.25857],[-95.213871,37.259853],[-95.211988,37.262328],[-95.212177,37.264972],[-95.213222,37.267719],[-95.21594,37.271674],[-95.217317,37.27284],[-95.217716,37.274306],[-95.220201,37.276774],[-95.221636,37.279703],[-95.223211,37.279642],[-95.225248,37.280832],[-95.224139,37.282359],[-95.225729,37.282691],[-95.226146,37.28469],[-95.226498,37.296016],[-95.222001,37.295957],[-95.221797,37.303508],[-95.212449,37.303597],[-95.212473,37.332878],[-95.180488,37.332953],[-95.180432,37.325809],[-95.176154,37.325429],[-95.166203,37.325442],[-95.1619,37.325611],[-95.161998,37.318719],[-95.161536,37.310735],[-95.131368,37.310847],[-95.131261,37.286123],[-95.130168,37.285822],[-95.12857,37.283231],[-95.126067,37.282717],[-95.124047,37.283976],[-95.122215,37.283424],[-95.122382,37.295883],[-95.108621,37.295837],[-95.108858,37.298474],[-95.108642,37.304523],[-95.10967,37.307095],[-95.110279,37.310982],[-95.109592,37.311714],[-95.10394,37.313906],[-95.102798,37.315668],[-95.102482,37.318409],[-95.105881,37.323753],[-95.105631,37.325607],[-95.101444,37.328896],[-95.100678,37.331924],[-95.103055,37.337248],[-95.107959,37.338339],[-95.109193,37.34018],[-95.109034,37.342052],[-95.110628,37.346026],[-95.11284,37.347827],[-95.116694,37.349058],[-95.122691,37.350168],[-95.122911,37.350995],[-95.121952,37.354911],[-95.117533,37.35753],[-95.117675,37.359529],[-95.119703,37.360008],[-95.124258,37.359825],[-95.127493,37.360714],[-95.129338,37.363356],[-95.128062,37.365361],[-95.126473,37.365836],[-95.121183,37.364313],[-95.119247,37.364039],[-95.116126,37.364859],[-95.115101,37.366363],[-95.115033,37.368117],[-95.116435,37.370807],[-95.119739,37.372739],[-95.121165,37.374719],[-95.120327,37.377349],[-95.120563,37.379591],[-95.123774,37.384119],[-95.124095,37.384125],[-95.121799,37.385366],[-95.120265,37.387671],[-95.122564,37.389617],[-95.128676,37.391239],[-95.13168,37.391515],[-95.136337,37.391018],[-95.137871,37.392208],[-95.137308,37.396948],[-95.137957,37.399594],[-95.137903,37.403838],[-95.139501,37.407168],[-95.139342,37.408879],[-95.136921,37.412747],[-95.137081,37.414532],[-95.139757,37.415624],[-95.140861,37.417394],[-95.142934,37.41679],[-95.14574,37.414882],[-95.147842,37.414576],[-95.151156,37.416027],[-95.153484,37.415936],[-95.15477,37.415195],[-95.155073,37.412663],[-95.156045,37.411456],[-95.158647,37.41126],[-95.164278,37.413619],[-95.164535,37.41512],[-95.161789,37.415851],[-95.158737,37.415437],[-95.157456,37.415785],[-95.156617,37.417279],[-95.159255,37.418011],[-95.162608,37.420104],[-95.165857,37.41927],[-95.169736,37.419225],[-95.171558,37.419594],[-95.17273,37.420887],[-95.172755,37.422708],[-95.171679,37.425056],[-95.1686,37.426581],[-95.167288,37.429439],[-95.163233,37.433609],[-95.162406,37.436769],[-95.161343,37.437484],[-95.159603,37.437379],[-95.158231,37.436307],[-95.160184,37.43267],[-95.159381,37.430199],[-95.158143,37.430046],[-95.154779,37.431384],[-95.150524,37.429787],[-95.148659,37.430341],[-95.147527,37.432479],[-95.14841,37.434795],[-95.150293,37.43619],[-95.151352,37.438147],[-95.150466,37.440668],[-95.150577,37.443639],[-95.152778,37.446068],[-95.155353,37.445787],[-95.15589,37.445027],[-95.157732,37.439553],[-95.160183,37.438559],[-95.163121,37.440054],[-95.164456,37.445612],[-95.164311,37.447208],[-95.165139,37.448695],[-95.168572,37.44995],[-95.168643,37.451735],[-95.166522,37.453648],[-95.16351,37.453556],[-95.160622,37.454607],[-95.16087,37.456893],[-95.162418,37.457296],[-95.165303,37.456495],[-95.167445,37.456795],[-95.170069,37.458955],[-95.169407,37.460985],[-95.164637,37.462915],[-95.16177,37.462075],[-95.160697,37.460068],[-95.158106,37.459087],[-95.150556,37.460533],[-95.150164,37.462922],[-95.151383,37.464073],[-95.153387,37.464515],[-95.157545,37.464294],[-95.16007,37.46706],[-95.164498,37.467126],[-95.164521,37.469197],[-95.162635,37.470397],[-95.159422,37.467876],[-95.156589,37.468071],[-95.155915,37.471136],[-95.179063,37.471388],[-95.179087,37.442197],[-95.196612,37.442262],[-95.197327,37.441768],[-95.197089,37.456822],[-95.215323,37.45681],[-95.214921,37.471061],[-95.232916,37.471269],[-95.233492,37.456772],[-95.233622,37.442267],[-95.261019,37.442509],[-95.261081,37.444992],[-95.26027,37.448235],[-95.258398,37.451596],[-95.254324,37.456713],[-95.288331,37.456647],[-95.288509,37.442124],[-95.324951,37.442206],[-95.324841,37.427658],[-95.343095,37.427706],[-95.343226,37.442266],[-95.354616,37.442279],[-95.354919,37.440881],[-95.353972,37.439591],[-95.350911,37.440003],[-95.349736,37.438604],[-95.348098,37.438024],[-95.349665,37.43632],[-95.351222,37.43565],[-95.351002,37.434756],[-95.348318,37.433742],[-95.349578,37.430537],[-95.349419,37.427895],[-95.352094,37.427976],[-95.352101,37.42712],[-95.354233,37.426649],[-95.353064,37.425937],[-95.35381,37.423336],[-95.351031,37.422585],[-95.350563,37.421925],[-95.352048,37.420068],[-95.352195,37.418179],[-95.351136,37.417201],[-95.350554,37.41522],[-95.348467,37.413531],[-95.379365,37.412907],[-95.379277,37.38402],[-95.412423,37.383947]]]}},{"type":"Feature","properties":{"zcta5":"67342","AFFGEOID10":"8600000US67342","GEOID10":"67342","ALAND10":187592107,"AWATER10":1154857,"county_name":"Labette","state_code":"KS","county_state":"Labette County, KS","county_fips":"20099","risk_level_county":"Medium Risk (70–79% vaccinated)","mean_vaccination_rate_county":77.94,"risk_level_zcta":"Higher Risk (60–69% vaccinated)","mean_vaccination_rate_zips":63.36,"cases":1},"geometry":{"type":"Polygon","coordinates":[[[-95.395533,37.134276],[-95.431696,37.134337],[-95.431927,37.148728],[-95.466674,37.148884],[-95.465962,37.147076],[-95.466077,37.143191],[-95.462876,37.142162],[-95.462589,37.141018],[-95.465104,37.140011],[-95.464446,37.138432],[-95.461732,37.138078],[-95.461304,37.136705],[-95.463192,37.136771],[-95.464909,37.135714],[-95.465152,37.134337],[-95.464106,37.133131],[-95.465243,37.127791],[-95.463613,37.125801],[-95.464589,37.122975],[-95.463525,37.123324],[-95.461672,37.125397],[-95.454457,37.123765],[-95.45161,37.1241],[-95.449803,37.127428],[-95.449541,37.120037],[-95.431439,37.120117],[-95.430833,37.076617],[-95.412863,37.077018],[-95.412982,37.062631],[-95.449413,37.062313],[-95.449727,37.050167],[-95.447254,37.050205],[-95.430843,37.048633],[-95.431574,37.038047],[-95.44079,37.038067],[-95.440773,37.019867],[-95.431774,37.019845],[-95.4315649977258,36.999239620800005],[-95.407683,36.999241],[-95.40757195069268,36.9992412018471],[-95.33121,36.99938],[-95.328327,36.999366],[-95.328058,36.999365],[-95.322565,36.999358],[-95.26787587305601,36.9994469582523],[-95.268118,37.019091],[-95.286289,37.019165],[-95.286426,37.033729],[-95.250059,37.033528],[-95.250178,37.048011],[-95.268257,37.048157],[-95.268464,37.077085],[-95.250257,37.077046],[-95.249977,37.083509],[-95.249944,37.102653],[-95.249123,37.102181],[-95.249944,37.102928],[-95.251052,37.105916],[-95.268167,37.106054],[-95.304584,37.105803],[-95.304634,37.076993],[-95.322663,37.076888],[-95.322847,37.091294],[-95.359139,37.091052],[-95.359119,37.105587],[-95.377187,37.105501],[-95.377256,37.119937],[-95.395201,37.119693],[-95.395526,37.12742],[-95.395533,37.134276]]]}},{"type":"Feature","properties":{"zcta5":"67337","AFFGEOID10":"8600000US67337","GEOID10":"67337","ALAND10":373183200,"AWATER10":516537,"county_name":"Labette","state_code":"KS","county_state":"Labette County, KS","county_fips":"20099","risk_level_county":"Medium Risk (70–79% vaccinated)","mean_vaccination_rate_county":77.94,"risk_level_zcta":"Higher Risk (60–69% vaccinated)","mean_vaccination_rate_zips":69.16,"cases":1},"geometry":{"type":"Polygon","coordinates":[[[-95.787508,37.033252],[-95.787435,37.019315],[-95.819718,37.01935],[-95.819829,37.001472],[-95.8193660360989,36.999150475109],[-95.80798,36.999124],[-95.786762,36.99931],[-95.768719,36.999205],[-95.759905,36.999271],[-95.741908,36.999244],[-95.718054,36.999255],[-95.714887,36.999279],[-95.71038,36.999371],[-95.696659,36.999215],[-95.6965823908092,36.999216005744294],[-95.686452,36.999349],[-95.664301,36.999322],[-95.630079,36.99932],[-95.6287496081096,36.9993292818425],[-95.6261650092691,36.9993473275666],[-95.624412450787,36.999359563967296],[-95.62435,36.99936],[-95.6203105665812,36.999362399853496],[-95.62027025847689,36.9993624238008],[-95.615934,36.999365],[-95.6157410865682,36.99936276273301],[-95.61214,36.999321],[-95.573598,36.99931],[-95.534401,36.999332],[-95.5224149880945,36.9992810582678],[-95.511578,36.999235],[-95.4315649977258,36.999239620800005],[-95.431774,37.019845],[-95.440773,37.019867],[-95.44079,37.038067],[-95.431574,37.038047],[-95.430843,37.048633],[-95.447254,37.050205],[-95.449727,37.050167],[-95.449413,37.062313],[-95.412982,37.062631],[-95.412863,37.077018],[-95.430833,37.076617],[-95.431439,37.120117],[-95.449541,37.120037],[-95.449803,37.127428],[-95.45161,37.1241],[-95.454457,37.123765],[-95.461672,37.125397],[-95.463525,37.123324],[-95.464589,37.122975],[-95.463613,37.125801],[-95.465243,37.127791],[-95.464106,37.133131],[-95.465152,37.134337],[-95.476545,37.134919],[-95.476796,37.105758],[-95.483398,37.10573],[-95.486302,37.105999],[-95.488107,37.105489],[-95.503711,37.105546],[-95.503684,37.120159],[-95.521691,37.12029],[-95.521698,37.092129],[-95.540007,37.091982],[-95.540142,37.077372],[-95.558541,37.077772],[-95.558211,37.106685],[-95.56828,37.106576],[-95.578796,37.107544],[-95.578806,37.100469],[-95.586048,37.100441],[-95.586309,37.075088],[-95.586839,37.074565],[-95.593568,37.071857],[-95.602069,37.072304],[-95.602034,37.078183],[-95.602299,37.080255],[-95.601754,37.087846],[-95.602096,37.089288],[-95.602009,37.123098],[-95.613716,37.123156],[-95.616591,37.124187],[-95.618771,37.124137],[-95.619075,37.123388],[-95.620595,37.124589],[-95.619562,37.127556],[-95.619735,37.128998],[-95.620736,37.130302],[-95.624052,37.13268],[-95.629456,37.135408],[-95.635025,37.139804],[-95.63814,37.140903],[-95.644456,37.141409],[-95.645912,37.14436],[-95.648111,37.14642],[-95.649769,37.146901],[-95.652799,37.146719],[-95.656201,37.144455],[-95.661717,37.143564],[-95.663804,37.144045],[-95.665662,37.142445],[-95.669836,37.140706],[-95.671207,37.142102],[-95.67378,37.141485],[-95.674285,37.140996],[-95.674478,37.123684],[-95.692548,37.123818],[-95.692534,37.109328],[-95.728765,37.109548],[-95.728678,37.085417],[-95.729145,37.08269],[-95.728627,37.081563],[-95.728848,37.069619],[-95.720057,37.069582],[-95.719697,37.06604],[-95.716723,37.066008],[-95.716739,37.063719],[-95.715473,37.062779],[-95.710538,37.062771],[-95.709519,37.062257],[-95.709507,37.059374],[-95.705369,37.05941],[-95.705366,37.05861],[-95.700778,37.058586],[-95.699627,37.057222],[-95.700487,37.056255],[-95.699802,37.055042],[-95.702028,37.051083],[-95.70785,37.049893],[-95.710515,37.051935],[-95.710524,37.054317],[-95.715921,37.056322],[-95.730286,37.069633],[-95.736083,37.069642],[-95.738324,37.073929],[-95.740067,37.075324],[-95.740439,37.076719],[-95.743867,37.077747],[-95.747064,37.079886],[-95.746776,37.051514],[-95.782845,37.051598],[-95.782827,37.03323],[-95.787508,37.033252]]]}},{"type":"Feature","properties":{"zcta5":"67341","AFFGEOID10":"8600000US67341","GEOID10":"67341","ALAND10":57295855,"AWATER10":857836,"county_name":"Labette","state_code":"KS","county_state":"Labette County, KS","county_fips":"20099","risk_level_county":"Medium Risk (70–79% vaccinated)","mean_vaccination_rate_county":77.94,"risk_level_zcta":"Medium Risk (70–79% vaccinated)","mean_vaccination_rate_zips":73.28,"cases":1},"geometry":{"type":"Polygon","coordinates":[[[-95.502909,37.369372],[-95.501136,37.346637],[-95.477948,37.346684],[-95.472787,37.346558],[-95.466058,37.345592],[-95.466178,37.31004],[-95.461231,37.310022],[-95.457658,37.309456],[-95.452522,37.311885],[-95.449842,37.310161],[-95.443929,37.310116],[-95.443464,37.308188],[-95.440801,37.307098],[-95.436762,37.306585],[-95.430202,37.306622],[-95.430183,37.310611],[-95.421647,37.310558],[-95.420787,37.295555],[-95.411735,37.295654],[-95.412626,37.310613],[-95.394925,37.310646],[-95.39496,37.325098],[-95.377168,37.325211],[-95.376389,37.339661],[-95.394646,37.339604],[-95.394144,37.347954],[-95.394252,37.368927],[-95.412451,37.368788],[-95.412423,37.383947],[-95.434447,37.383906],[-95.442382,37.383955],[-95.443049,37.383144],[-95.440554,37.382681],[-95.444871,37.378598],[-95.444564,37.375557],[-95.445435,37.374079],[-95.44544,37.371769],[-95.446391,37.370124],[-95.447829,37.368965],[-95.502909,37.369372]]]}},{"type":"Feature","properties":{"zcta5":"67335","AFFGEOID10":"8600000US67335","GEOID10":"67335","ALAND10":334440048,"AWATER10":4339600,"county_name":"Labette","state_code":"KS","county_state":"Labette County, KS","county_fips":"20099","risk_level_county":"Medium Risk (70–79% vaccinated)","mean_vaccination_rate_county":77.94,"risk_level_zcta":"Medium Risk (70–79% vaccinated)","mean_vaccination_rate_zips":71.54,"cases":1},"geometry":{"type":"Polygon","coordinates":[[[-95.562007,37.383947],[-95.60544,37.384201],[-95.605661,37.368602],[-95.604777,37.365718],[-95.60507,37.3616],[-95.604533,37.357161],[-95.602101,37.354404],[-95.603364,37.355131],[-95.620307,37.355322],[-95.620371,37.351693],[-95.632777,37.354519],[-95.638854,37.355027],[-95.656546,37.355149],[-95.656544,37.348148],[-95.638448,37.348046],[-95.638276,37.32974],[-95.638542,37.326415],[-95.620161,37.326262],[-95.620144,37.311737],[-95.638433,37.312064],[-95.638424,37.268432],[-95.629325,37.26831],[-95.629403,37.25382],[-95.620183,37.253688],[-95.620168,37.242561],[-95.62235,37.241084],[-95.622363,37.239264],[-95.62038,37.237526],[-95.620427,37.239156],[-95.602085,37.239113],[-95.602102,37.23237],[-95.603094,37.229553],[-95.602142,37.227089],[-95.602443,37.210077],[-95.608452,37.210187],[-95.609843,37.20809],[-95.613616,37.20597],[-95.615988,37.203955],[-95.620258,37.201964],[-95.620266,37.19578],[-95.602154,37.195605],[-95.594629,37.195211],[-95.594636,37.18076],[-95.579433,37.179946],[-95.577701,37.180879],[-95.577161,37.179525],[-95.571717,37.179234],[-95.539635,37.179297],[-95.539552,37.164727],[-95.521288,37.164772],[-95.521565,37.159051],[-95.503725,37.158514],[-95.503743,37.164921],[-95.467751,37.16367],[-95.467744,37.192796],[-95.449582,37.192776],[-95.44762,37.206627],[-95.465332,37.206845],[-95.464705,37.222143],[-95.447098,37.221976],[-95.446803,37.221834],[-95.44653,37.226803],[-95.445912,37.22825],[-95.44618,37.233521],[-95.446048,37.244287],[-95.428092,37.244165],[-95.42802,37.267344],[-95.429423,37.280905],[-95.429621,37.295625],[-95.420787,37.295555],[-95.421647,37.310558],[-95.430183,37.310611],[-95.430202,37.306622],[-95.436762,37.306585],[-95.440801,37.307098],[-95.443464,37.308188],[-95.443929,37.310116],[-95.449842,37.310161],[-95.452522,37.311885],[-95.457658,37.309456],[-95.461231,37.310022],[-95.466178,37.31004],[-95.466058,37.345592],[-95.472787,37.346558],[-95.477948,37.346684],[-95.501136,37.346637],[-95.502909,37.369372],[-95.520624,37.369103],[-95.52113,37.38399],[-95.52556,37.383979],[-95.562007,37.383947]]]}},{"type":"Feature","properties":{"zcta5":"67336","AFFGEOID10":"8600000US67336","GEOID10":"67336","ALAND10":244975480,"AWATER10":2941742,"county_name":"Labette","state_code":"KS","county_state":"Labette County, KS","county_fips":"20099","risk_level_county":"Medium Risk (70–79% vaccinated)","mean_vaccination_rate_county":77.94,"risk_level_zcta":"Higher Risk (60–69% vaccinated)","mean_vaccination_rate_zips":66.6,"cases":1},"geometry":{"type":"Polygon","coordinates":[[[-95.211803,37.096141],[-95.211868,37.091564],[-95.213341,37.076947],[-95.213487,37.064246],[-95.213279,37.063545],[-95.211049,37.061031],[-95.210973,37.058739],[-95.208831,37.05878],[-95.208877,37.054846],[-95.200513,37.054918],[-95.198194,37.054455],[-95.194988,37.052136],[-95.179214,37.037942],[-95.177254,37.036751],[-95.177292,37.033075],[-95.195516,37.033257],[-95.195519,37.018704],[-95.213756,37.01881],[-95.21353893224101,36.9995353436328],[-95.195307,36.999565],[-95.177301,36.99952],[-95.155372,36.99954],[-95.155187,36.999539],[-95.073509,36.999509],[-95.049499,36.99958],[-95.037857,36.999497],[-95.030324,36.999517],[-95.011433,36.999535],[-95.00762,36.999514],[-94.995293,36.999529],[-94.9315293772202,36.9992350777719],[-94.9298797226157,36.999227473590494],[-94.929457,37.001329],[-94.930355,37.002598],[-94.927594,37.003048],[-94.929183,37.004521],[-94.929087,37.006355],[-94.926902,37.006657],[-94.927327,37.008975],[-94.925682,37.010453],[-94.927826,37.013013],[-94.927258,37.013754],[-94.92925,37.01715],[-94.958802,37.017301],[-94.958787,37.046435],[-94.995108,37.04672],[-94.995355,37.075506],[-94.958871,37.075934],[-94.959005,37.090569],[-94.995419,37.090052],[-94.995369,37.105032],[-95.013619,37.104615],[-95.013535,37.134965],[-95.031794,37.135131],[-95.031854,37.149744],[-95.040743,37.149744],[-95.041368,37.150664],[-95.045002,37.150659],[-95.0458,37.149766],[-95.049984,37.149758],[-95.050018,37.164742],[-95.062266,37.164834],[-95.065669,37.164527],[-95.074164,37.164409],[-95.074144,37.135119],[-95.074255,37.134492],[-95.073672,37.047105],[-95.076108,37.046763],[-95.078799,37.047274],[-95.082092,37.048709],[-95.08279,37.050452],[-95.082349,37.052155],[-95.082691,37.056032],[-95.081606,37.057462],[-95.078156,37.060581],[-95.078161,37.061665],[-95.079246,37.062311],[-95.08239,37.061793],[-95.083991,37.063022],[-95.08372,37.065963],[-95.084681,37.068037],[-95.086838,37.070404],[-95.087619,37.07276],[-95.090068,37.075319],[-95.092818,37.076639],[-95.100647,37.07523],[-95.102878,37.074517],[-95.107571,37.074286],[-95.110389,37.074963],[-95.112254,37.074819],[-95.117535,37.076227],[-95.118318,37.079448],[-95.120497,37.080706],[-95.124157,37.080133],[-95.127583,37.081014],[-95.128801,37.081766],[-95.129764,37.083893],[-95.133831,37.085071],[-95.135389,37.086282],[-95.136027,37.08731],[-95.134588,37.089118],[-95.134425,37.090559],[-95.138901,37.092443],[-95.139017,37.093309],[-95.137768,37.094328],[-95.138092,37.096122],[-95.139277,37.096229],[-95.139309,37.09205],[-95.175661,37.091884],[-95.17544,37.106754],[-95.175572,37.111486],[-95.177303,37.111487],[-95.178613,37.108971],[-95.179903,37.108695],[-95.18236,37.10922],[-95.186595,37.10846],[-95.185993,37.106929],[-95.1871,37.106115],[-95.186229,37.103996],[-95.188835,37.103049],[-95.18926,37.101517],[-95.192659,37.102397],[-95.194734,37.103731],[-95.195647,37.103381],[-95.195985,37.101491],[-95.198301,37.101613],[-95.198446,37.100829],[-95.197193,37.099],[-95.197975,37.098148],[-95.19996,37.099411],[-95.200433,37.097736],[-95.203211,37.097041],[-95.20448,37.098064],[-95.205481,37.096962],[-95.205727,37.098074],[-95.207875,37.098958],[-95.208229,37.097434],[-95.209953,37.097448],[-95.211803,37.096141]]]}},{"type":"Feature","properties":{"zcta5":"66753","AFFGEOID10":"8600000US66753","GEOID10":"66753","ALAND10":345571479,"AWATER10":1924585,"county_name":"Labette","state_code":"KS","county_state":"Labette County, KS","county_fips":"20099","risk_level_county":"Medium Risk (70–79% vaccinated)","mean_vaccination_rate_county":77.94,"risk_level_zcta":"Higher Risk (60–69% vaccinated)","mean_vaccination_rate_zips":65.44,"cases":1},"geometry":{"type":"Polygon","coordinates":[[[-95.123774,37.384119],[-95.120563,37.379591],[-95.120327,37.377349],[-95.121165,37.374719],[-95.119739,37.372739],[-95.116435,37.370807],[-95.115033,37.368117],[-95.115101,37.366363],[-95.116126,37.364859],[-95.119247,37.364039],[-95.121183,37.364313],[-95.126473,37.365836],[-95.128062,37.365361],[-95.129338,37.363356],[-95.127493,37.360714],[-95.124258,37.359825],[-95.119703,37.360008],[-95.117675,37.359529],[-95.117533,37.35753],[-95.121952,37.354911],[-95.122911,37.350995],[-95.122691,37.350168],[-95.116694,37.349058],[-95.11284,37.347827],[-95.110628,37.346026],[-95.109034,37.342052],[-95.109193,37.34018],[-95.107959,37.338339],[-95.103055,37.337248],[-95.100678,37.331924],[-95.101444,37.328896],[-95.105631,37.325607],[-95.105881,37.323753],[-95.102482,37.318409],[-95.102798,37.315668],[-95.10394,37.313906],[-95.109592,37.311714],[-95.110279,37.310982],[-95.10967,37.307095],[-95.108642,37.304523],[-95.104174,37.303365],[-95.104222,37.30491],[-95.08951,37.30682],[-95.088905,37.3107],[-95.07522,37.310765],[-95.075246,37.296012],[-95.086253,37.295814],[-95.08626,37.281475],[-95.075249,37.281441],[-95.075324,37.26676],[-95.058795,37.266789],[-95.058863,37.25946],[-95.041312,37.259524],[-95.036714,37.259242],[-95.031392,37.256417],[-95.03152,37.252229],[-94.976866,37.252155],[-94.976867,37.266811],[-94.908209,37.266811],[-94.917019,37.278371],[-94.91811,37.279239],[-94.921213,37.279867],[-94.923003,37.279047],[-94.923028,37.281688],[-94.932138,37.281739],[-94.932121,37.289031],[-94.928622,37.289014],[-94.928504,37.285217],[-94.927276,37.285222],[-94.927613,37.288391],[-94.923017,37.289946],[-94.922995,37.296357],[-94.904863,37.296266],[-94.904821,37.339947],[-94.922806,37.339968],[-94.922921,37.361596],[-94.913724,37.361481],[-94.912066,37.361017],[-94.908736,37.359066],[-94.907329,37.360505],[-94.905958,37.360331],[-94.90424,37.360993],[-94.904091,37.363401],[-94.905296,37.363241],[-94.905288,37.364318],[-94.903524,37.36574],[-94.90061,37.365645],[-94.901249,37.368469],[-94.899235,37.368723],[-94.904824,37.368715],[-94.923024,37.368771],[-94.922961,37.383132],[-94.924092,37.383723],[-94.924076,37.397692],[-94.943894,37.397746],[-94.944437,37.398843],[-94.943809,37.400138],[-94.944424,37.401797],[-94.943934,37.404973],[-94.942324,37.406355],[-94.940854,37.406248],[-94.940966,37.40498],[-94.939684,37.404929],[-94.939446,37.406905],[-94.937222,37.407416],[-94.935756,37.406519],[-94.934753,37.408205],[-94.936393,37.409559],[-94.936088,37.4122],[-94.934667,37.413758],[-94.930829,37.412983],[-94.932015,37.416133],[-94.942263,37.412352],[-94.942253,37.427196],[-94.960551,37.42726],[-94.960477,37.464304],[-94.962634,37.464205],[-94.978634,37.464214],[-94.978616,37.471026],[-95.015009,37.471117],[-95.015195,37.485672],[-95.04074,37.485614],[-95.039988,37.484367],[-95.040779,37.482503],[-95.042552,37.481969],[-95.041747,37.480712],[-95.042117,37.478617],[-95.045414,37.477373],[-95.045474,37.475737],[-95.043393,37.475242],[-95.045012,37.474851],[-95.046074,37.472653],[-95.049343,37.472345],[-95.049777,37.471541],[-95.050724,37.472639],[-95.051341,37.47111],[-95.087694,37.471335],[-95.088189,37.383837],[-95.123774,37.384119]]]}},{"type":"Feature","properties":{"zcta5":"67332","AFFGEOID10":"8600000US67332","GEOID10":"67332","ALAND10":58577853,"AWATER10":720037,"county_name":"Labette","state_code":"KS","county_state":"Labette County, KS","county_fips":"20099","risk_level_county":"Medium Risk (70–79% vaccinated)","mean_vaccination_rate_county":77.94,"risk_level_zcta":"Higher Risk (60–69% vaccinated)","mean_vaccination_rate_zips":65.02,"cases":1},"geometry":{"type":"Polygon","coordinates":[[[-95.249123,37.102181],[-95.249944,37.102653],[-95.249977,37.083509],[-95.250257,37.077046],[-95.268464,37.077085],[-95.268257,37.048157],[-95.250178,37.048011],[-95.250059,37.033528],[-95.286426,37.033729],[-95.286289,37.019165],[-95.268118,37.019091],[-95.26787587305601,36.9994469582523],[-95.21353893224101,36.9995353436328],[-95.213756,37.01881],[-95.195519,37.018704],[-95.195516,37.033257],[-95.177292,37.033075],[-95.177254,37.036751],[-95.179214,37.037942],[-95.194988,37.052136],[-95.198194,37.054455],[-95.200513,37.054918],[-95.208877,37.054846],[-95.208831,37.05878],[-95.210973,37.058739],[-95.211049,37.061031],[-95.213279,37.063545],[-95.213487,37.064246],[-95.213341,37.076947],[-95.211868,37.091564],[-95.211803,37.096141],[-95.211927,37.102812],[-95.215232,37.102787],[-95.214319,37.101536],[-95.215766,37.100548],[-95.217278,37.100717],[-95.219984,37.099656],[-95.222552,37.099953],[-95.224471,37.098821],[-95.22473,37.097154],[-95.226376,37.097172],[-95.230338,37.099503],[-95.230403,37.100655],[-95.232558,37.100479],[-95.234955,37.101421],[-95.235603,37.099397],[-95.234629,37.098166],[-95.238131,37.09795],[-95.239423,37.099174],[-95.240863,37.102483],[-95.242277,37.103646],[-95.24378,37.103201],[-95.244496,37.104083],[-95.24609,37.103587],[-95.245696,37.10271],[-95.24784,37.101639],[-95.249123,37.102181]]]}},{"type":"Feature","properties":{"zcta5":"66776","AFFGEOID10":"8600000US66776","GEOID10":"66776","ALAND10":282856822,"AWATER10":813018,"county_name":"Labette","state_code":"KS","county_state":"Labette County, KS","county_fips":"20099","risk_level_county":"Medium Risk (70–79% vaccinated)","mean_vaccination_rate_county":77.94,"risk_level_zcta":"Medium Risk (70–79% vaccinated)","mean_vaccination_rate_zips":71.38,"cases":1},"geometry":{"type":"Polygon","coordinates":[[[-95.597206,37.476999],[-95.597232,37.456614],[-95.561865,37.456712],[-95.561935,37.413269],[-95.560605,37.413279],[-95.561946,37.412419],[-95.562007,37.383947],[-95.52556,37.383979],[-95.52113,37.38399],[-95.520624,37.369103],[-95.502909,37.369372],[-95.447829,37.368965],[-95.446391,37.370124],[-95.44544,37.371769],[-95.445435,37.374079],[-95.444564,37.375557],[-95.444871,37.378598],[-95.440554,37.382681],[-95.443049,37.383144],[-95.442382,37.383955],[-95.434447,37.383906],[-95.434365,37.398475],[-95.416186,37.398468],[-95.41588,37.442177],[-95.39761,37.442054],[-95.397555,37.456629],[-95.415582,37.456779],[-95.415622,37.471199],[-95.411045,37.471115],[-95.407078,37.471392],[-95.385043,37.471241],[-95.387069,37.471363],[-95.389047,37.473074],[-95.389138,37.474935],[-95.388072,37.477173],[-95.389605,37.47869],[-95.387641,37.479875],[-95.389255,37.480585],[-95.387785,37.48558],[-95.397318,37.485561],[-95.397594,37.529145],[-95.378762,37.529106],[-95.379262,37.530191],[-95.379214,37.543964],[-95.410608,37.543664],[-95.410192,37.548111],[-95.411488,37.55026],[-95.412762,37.551168],[-95.410072,37.552214],[-95.409708,37.555482],[-95.40879,37.555558],[-95.408521,37.557443],[-95.4076,37.558228],[-95.397782,37.558269],[-95.397467,37.568893],[-95.401839,37.568838],[-95.40169,37.561984],[-95.410879,37.561901],[-95.410908,37.558207],[-95.416014,37.558174],[-95.416167,37.543678],[-95.452195,37.543457],[-95.452572,37.558128],[-95.466989,37.558236],[-95.470168,37.55815],[-95.470791,37.557068],[-95.470742,37.550877],[-95.520869,37.55165],[-95.525233,37.551368],[-95.525405,37.573275],[-95.543586,37.573313],[-95.543474,37.558748],[-95.561569,37.558716],[-95.561285,37.500199],[-95.570325,37.500377],[-95.570289,37.493171],[-95.574374,37.493151],[-95.574113,37.492085],[-95.577761,37.491782],[-95.578695,37.491042],[-95.579163,37.489785],[-95.57937,37.478734],[-95.588389,37.478807],[-95.589275,37.477003],[-95.591257,37.476937],[-95.591954,37.478369],[-95.593008,37.478334],[-95.595179,37.475987],[-95.597206,37.476999]]]}},{"type":"Feature","properties":{"zcta5":"67356","AFFGEOID10":"8600000US67356","GEOID10":"67356","ALAND10":301405639,"AWATER10":5676998,"county_name":"Labette","state_code":"KS","county_state":"Labette County, KS","county_fips":"20099","risk_level_county":"Medium Risk (70–79% vaccinated)","mean_vaccination_rate_county":77.94,"risk_level_zcta":"Medium Risk (70–79% vaccinated)","mean_vaccination_rate_zips":71.29,"cases":1},"geometry":{"type":"Polygon","coordinates":[[[-95.249468,37.207869],[-95.249507,37.193615],[-95.234289,37.193107],[-95.231,37.193102],[-95.230928,37.185896],[-95.231232,37.179162],[-95.249311,37.179053],[-95.249237,37.164026],[-95.266751,37.164011],[-95.265971,37.163105],[-95.264321,37.163233],[-95.261974,37.162328],[-95.260649,37.158128],[-95.258607,37.156278],[-95.258302,37.152931],[-95.257013,37.153073],[-95.255602,37.150475],[-95.25334,37.150155],[-95.253569,37.149436],[-95.267215,37.149439],[-95.266864,37.134739],[-95.268167,37.106054],[-95.251052,37.105916],[-95.249944,37.102928],[-95.249123,37.102181],[-95.24784,37.101639],[-95.245696,37.10271],[-95.24609,37.103587],[-95.244496,37.104083],[-95.24378,37.103201],[-95.242277,37.103646],[-95.240863,37.102483],[-95.239423,37.099174],[-95.238131,37.09795],[-95.234629,37.098166],[-95.235603,37.099397],[-95.234955,37.101421],[-95.232558,37.100479],[-95.230403,37.100655],[-95.230338,37.099503],[-95.226376,37.097172],[-95.22473,37.097154],[-95.224471,37.098821],[-95.222552,37.099953],[-95.219984,37.099656],[-95.217278,37.100717],[-95.215766,37.100548],[-95.214319,37.101536],[-95.215232,37.102787],[-95.211927,37.102812],[-95.211803,37.096141],[-95.209953,37.097448],[-95.208229,37.097434],[-95.207875,37.098958],[-95.205727,37.098074],[-95.205481,37.096962],[-95.20448,37.098064],[-95.203211,37.097041],[-95.200433,37.097736],[-95.19996,37.099411],[-95.197975,37.098148],[-95.197193,37.099],[-95.198446,37.100829],[-95.198301,37.101613],[-95.195985,37.101491],[-95.195647,37.103381],[-95.194734,37.103731],[-95.192659,37.102397],[-95.18926,37.101517],[-95.188835,37.103049],[-95.186229,37.103996],[-95.1871,37.106115],[-95.185993,37.106929],[-95.186595,37.10846],[-95.18236,37.10922],[-95.179903,37.108695],[-95.178613,37.108971],[-95.177303,37.111487],[-95.175572,37.111486],[-95.17544,37.106754],[-95.175661,37.091884],[-95.139309,37.09205],[-95.139277,37.096229],[-95.138092,37.096122],[-95.137768,37.094328],[-95.139017,37.093309],[-95.138901,37.092443],[-95.134425,37.090559],[-95.134588,37.089118],[-95.136027,37.08731],[-95.135389,37.086282],[-95.133831,37.085071],[-95.129764,37.083893],[-95.128801,37.081766],[-95.127583,37.081014],[-95.124157,37.080133],[-95.120497,37.080706],[-95.118318,37.079448],[-95.117535,37.076227],[-95.112254,37.074819],[-95.110389,37.074963],[-95.107571,37.074286],[-95.102878,37.074517],[-95.100647,37.07523],[-95.092818,37.076639],[-95.090068,37.075319],[-95.087619,37.07276],[-95.086838,37.070404],[-95.084681,37.068037],[-95.08372,37.065963],[-95.083991,37.063022],[-95.08239,37.061793],[-95.079246,37.062311],[-95.078161,37.061665],[-95.078156,37.060581],[-95.081606,37.057462],[-95.082691,37.056032],[-95.082349,37.052155],[-95.08279,37.050452],[-95.082092,37.048709],[-95.078799,37.047274],[-95.076108,37.046763],[-95.073672,37.047105],[-95.074255,37.134492],[-95.074144,37.135119],[-95.074164,37.164409],[-95.074172,37.204993],[-95.073899,37.206076],[-95.074168,37.208273],[-95.074199,37.222734],[-95.066008,37.222738],[-95.065947,37.225062],[-95.065058,37.226983],[-95.060673,37.228234],[-95.060051,37.230692],[-95.058076,37.232033],[-95.053879,37.232857],[-95.044502,37.232855],[-95.043596,37.236061],[-95.043657,37.238417],[-95.044414,37.239744],[-95.041635,37.239936],[-95.042032,37.240903],[-95.039964,37.242422],[-95.040724,37.243534],[-95.042379,37.242227],[-95.045097,37.243283],[-95.045719,37.244502],[-95.045171,37.248174],[-95.042453,37.25062],[-95.042496,37.252003],[-95.041271,37.255758],[-95.042601,37.258517],[-95.041312,37.259524],[-95.058863,37.25946],[-95.058795,37.266789],[-95.075324,37.26676],[-95.075249,37.281441],[-95.08626,37.281475],[-95.086253,37.295814],[-95.075246,37.296012],[-95.07522,37.310765],[-95.088905,37.3107],[-95.08951,37.30682],[-95.104222,37.30491],[-95.104174,37.303365],[-95.108642,37.304523],[-95.108858,37.298474],[-95.108621,37.295837],[-95.122382,37.295883],[-95.122215,37.283424],[-95.124047,37.283976],[-95.126067,37.282717],[-95.12857,37.283231],[-95.130168,37.285822],[-95.131261,37.286123],[-95.131414,37.28128],[-95.136327,37.281181],[-95.157928,37.281555],[-95.157939,37.24338],[-95.167108,37.244841],[-95.19469,37.244845],[-95.194739,37.242553],[-95.197625,37.245909],[-95.199141,37.246779],[-95.204284,37.251828],[-95.206008,37.253824],[-95.209597,37.256213],[-95.213871,37.259853],[-95.215596,37.25857],[-95.214559,37.257348],[-95.214742,37.255939],[-95.212661,37.253921],[-95.207232,37.254277],[-95.206609,37.253171],[-95.206979,37.251323],[-95.205088,37.250232],[-95.204359,37.248493],[-95.201337,37.2457],[-95.199263,37.244255],[-95.201283,37.242635],[-95.201371,37.241169],[-95.199943,37.23882],[-95.200594,37.236829],[-95.199726,37.234993],[-95.197113,37.231674],[-95.197585,37.229639],[-95.197696,37.226118],[-95.200975,37.224314],[-95.201308,37.222768],[-95.203375,37.220732],[-95.202465,37.219096],[-95.199851,37.217779],[-95.197422,37.217928],[-95.196736,37.217464],[-95.197602,37.215979],[-95.200062,37.215688],[-95.200424,37.214321],[-95.197155,37.212794],[-95.198874,37.210164],[-95.198524,37.207887],[-95.249468,37.207869]]]}},{"type":"Feature","properties":{"zcta5":"67354","AFFGEOID10":"8600000US67354","GEOID10":"67354","ALAND10":145692182,"AWATER10":157398,"county_name":"Labette","state_code":"KS","county_state":"Labette County, KS","county_fips":"20099","risk_level_county":"Medium Risk (70–79% vaccinated)","mean_vaccination_rate_county":77.94,"risk_level_zcta":"Higher Risk (60–69% vaccinated)","mean_vaccination_rate_zips":69.67,"cases":1},"geometry":{"type":"Polygon","coordinates":[[[-95.503725,37.158514],[-95.503744,37.135694],[-95.485703,37.135719],[-95.476545,37.134919],[-95.465152,37.134337],[-95.464909,37.135714],[-95.463192,37.136771],[-95.461304,37.136705],[-95.461732,37.138078],[-95.464446,37.138432],[-95.465104,37.140011],[-95.462589,37.141018],[-95.462876,37.142162],[-95.466077,37.143191],[-95.465962,37.147076],[-95.466674,37.148884],[-95.431927,37.148728],[-95.431696,37.134337],[-95.395533,37.134276],[-95.395392,37.157167],[-95.376717,37.157167],[-95.376756,37.163298],[-95.395323,37.163251],[-95.395555,37.177743],[-95.349373,37.17834],[-95.340259,37.177995],[-95.339027,37.223602],[-95.339124,37.237921],[-95.3392,37.251842],[-95.338659,37.252241],[-95.341025,37.252509],[-95.357982,37.252338],[-95.358379,37.266911],[-95.375905,37.266722],[-95.376222,37.281258],[-95.393316,37.281215],[-95.393643,37.288955],[-95.393631,37.29592],[-95.394925,37.310646],[-95.412626,37.310613],[-95.411735,37.295654],[-95.420787,37.295555],[-95.429621,37.295625],[-95.429423,37.280905],[-95.42802,37.267344],[-95.428092,37.244165],[-95.446048,37.244287],[-95.44618,37.233521],[-95.445912,37.22825],[-95.44653,37.226803],[-95.446803,37.221834],[-95.447098,37.221976],[-95.464705,37.222143],[-95.465332,37.206845],[-95.44762,37.206627],[-95.449582,37.192776],[-95.467744,37.192796],[-95.467751,37.16367],[-95.503743,37.164921],[-95.503725,37.158514]]]}},{"type":"Feature","properties":{"zcta5":"67351","AFFGEOID10":"8600000US67351","GEOID10":"67351","ALAND10":110460027,"AWATER10":185570,"county_name":"Labette","state_code":"KS","county_state":"Labette County, KS","county_fips":"20099","risk_level_county":"Medium Risk (70–79% vaccinated)","mean_vaccination_rate_county":77.94,"risk_level_zcta":"Higher Risk (60–69% vaccinated)","mean_vaccination_rate_zips":61.01,"cases":1},"geometry":{"type":"Polygon","coordinates":[[[-95.594636,37.18076],[-95.601501,37.181106],[-95.627929,37.181249],[-95.630456,37.178794],[-95.635571,37.177524],[-95.640231,37.177188],[-95.642045,37.177679],[-95.645458,37.179673],[-95.645864,37.181747],[-95.647007,37.182318],[-95.64981,37.181611],[-95.653413,37.181566],[-95.655815,37.180926],[-95.657217,37.179576],[-95.657789,37.177266],[-95.65659,37.173398],[-95.660905,37.170814],[-95.664282,37.169625],[-95.666227,37.16855],[-95.66677,37.167589],[-95.666713,37.165781],[-95.664056,37.162189],[-95.662542,37.157201],[-95.6624,37.152533],[-95.663745,37.149857],[-95.665946,37.148599],[-95.666032,37.145967],[-95.663804,37.144045],[-95.661717,37.143564],[-95.656201,37.144455],[-95.652799,37.146719],[-95.649769,37.146901],[-95.648111,37.14642],[-95.645912,37.14436],[-95.644456,37.141409],[-95.63814,37.140903],[-95.635025,37.139804],[-95.629456,37.135408],[-95.624052,37.13268],[-95.620736,37.130302],[-95.619735,37.128998],[-95.619562,37.127556],[-95.620595,37.124589],[-95.619075,37.123388],[-95.618771,37.124137],[-95.616591,37.124187],[-95.613716,37.123156],[-95.602009,37.123098],[-95.602096,37.089288],[-95.601754,37.087846],[-95.602299,37.080255],[-95.602034,37.078183],[-95.602069,37.072304],[-95.593568,37.071857],[-95.586839,37.074565],[-95.586309,37.075088],[-95.586048,37.100441],[-95.578806,37.100469],[-95.578796,37.107544],[-95.56828,37.106576],[-95.558211,37.106685],[-95.558541,37.077772],[-95.540142,37.077372],[-95.540007,37.091982],[-95.521698,37.092129],[-95.521691,37.12029],[-95.503684,37.120159],[-95.503711,37.105546],[-95.488107,37.105489],[-95.486302,37.105999],[-95.483398,37.10573],[-95.476796,37.105758],[-95.476545,37.134919],[-95.485703,37.135719],[-95.503744,37.135694],[-95.503725,37.158514],[-95.521565,37.159051],[-95.521288,37.164772],[-95.539552,37.164727],[-95.539635,37.179297],[-95.571717,37.179234],[-95.577161,37.179525],[-95.577701,37.180879],[-95.579433,37.179946],[-95.594636,37.18076]]]}}]}