{"type":"FeatureCollection","features":[{"type":"Feature","properties":{"zcta5":"70357","AFFGEOID10":"8600000US70357","GEOID10":"70357","ALAND10":547796669,"AWATER10":644593219,"county_name":"Lafourche","state_code":"LA","county_state":"Lafourche County, LA","county_fips":"22057","risk_level_county":"Higher Risk (60–69% vaccinated)","mean_vaccination_rate_county":68.98,"risk_level_zcta":"Higher Risk (60–69% vaccinated)","mean_vaccination_rate_zips":67.37,"cases":1},"geometry":{"type":"MultiPolygon","coordinates":[[[[-90.335411,29.068062],[-90.337431,29.066712],[-90.334935,29.063803],[-90.33137,29.064322],[-90.327448,29.064426],[-90.324359,29.065673],[-90.317585,29.067335],[-90.312118,29.070347],[-90.31093,29.072736],[-90.312593,29.075229],[-90.31646,29.073529],[-90.318417,29.070763],[-90.323883,29.069204],[-90.327567,29.06962],[-90.335411,29.068062]]],[[[-90.347889,29.184021],[-90.350385,29.181219],[-90.347651,29.177691],[-90.345512,29.181946],[-90.344561,29.184124],[-90.341234,29.186096],[-90.338619,29.186614],[-90.338025,29.189416],[-90.343092,29.18823],[-90.344802,29.187889],[-90.346969,29.186437],[-90.347889,29.184021]]],[[[-90.359892,29.10493],[-90.361688,29.103076],[-90.356028,29.101934],[-90.350503,29.102957],[-90.345631,29.104618],[-90.343135,29.106176],[-90.348483,29.107525],[-90.351811,29.107525],[-90.357753,29.106383],[-90.359892,29.10493]]],[[[-90.372609,29.111149],[-90.376173,29.108668],[-90.369755,29.110225],[-90.363219,29.11199],[-90.354544,29.114482],[-90.346701,29.117077],[-90.34373,29.118531],[-90.339808,29.122268],[-90.339582,29.126718],[-90.343013,29.128487],[-90.347057,29.13047],[-90.351454,29.131092],[-90.352505,29.127649],[-90.352524,29.119777],[-90.361435,29.115006],[-90.36521,29.113708],[-90.372609,29.111149]]],[[[-90.39711298610959,29.2665850254558],[-90.397089,29.266472],[-90.396666346071,29.2643985069343],[-90.395187,29.257141],[-90.402555,29.251542],[-90.402436,29.24698],[-90.400535,29.241173],[-90.403981,29.238685],[-90.403268,29.233811],[-90.401367,29.234122],[-90.3959,29.241588],[-90.390552,29.243247],[-90.38877,29.251853],[-90.389245,29.255068],[-90.386393,29.258489],[-90.380689,29.257245],[-90.378244,29.259458],[-90.376148,29.262491],[-90.372608,29.264813],[-90.374153,29.268027],[-90.372013,29.274662],[-90.37546,29.273936],[-90.377837,29.275076],[-90.37855,29.278808],[-90.377124,29.281192],[-90.37855,29.283784],[-90.376886,29.288655],[-90.377599,29.290728],[-90.376648,29.293319],[-90.374034,29.294977],[-90.368448,29.296947],[-90.362744,29.298916],[-90.358347,29.302025],[-90.354069,29.305445],[-90.350503,29.305756],[-90.349196,29.304512],[-90.349624,29.302361],[-90.347445,29.30085],[-90.343611,29.29819],[-90.344324,29.289277],[-90.339927,29.288033],[-90.337788,29.286582],[-90.33755,29.284198],[-90.331727,29.279326],[-90.328756,29.284405],[-90.326973,29.287515],[-90.322695,29.284302],[-90.322576,29.281503],[-90.323408,29.276735],[-90.322101,29.273003],[-90.319011,29.272796],[-90.316515,29.273003],[-90.313069,29.268753],[-90.310573,29.268545],[-90.307602,29.270722],[-90.305344,29.268442],[-90.304275,29.266161],[-90.303799,29.262947],[-90.301066,29.260977],[-90.297738,29.253616],[-90.295956,29.245736],[-90.293223,29.24107],[-90.29037,29.24024],[-90.286621,29.225694],[-90.284866,29.223291],[-90.280744,29.222403],[-90.278249,29.215868],[-90.276704,29.210786],[-90.273705,29.207405],[-90.270286,29.205599],[-90.271237,29.201865],[-90.272832,29.199032],[-90.268623,29.198441],[-90.262918,29.199375],[-90.259234,29.199583],[-90.263869,29.191076],[-90.260542,29.189934],[-90.260542,29.185162],[-90.263513,29.180597],[-90.267197,29.177691],[-90.273852,29.175305],[-90.275753,29.180597],[-90.280863,29.183087],[-90.28526,29.178003],[-90.279913,29.177484],[-90.276823,29.174475],[-90.279081,29.171466],[-90.275634,29.170117],[-90.268029,29.171881],[-90.263275,29.172918],[-90.258165,29.171466],[-90.258759,29.165551],[-90.2628,29.163372],[-90.270881,29.159428],[-90.277536,29.161088],[-90.281457,29.156522],[-90.280034,29.153878],[-90.277892,29.157041],[-90.274802,29.158079],[-90.26993,29.155484],[-90.26482,29.155484],[-90.25864,29.155899],[-90.251034,29.151125],[-90.24533,29.149672],[-90.24735,29.147078],[-90.253887,29.143652],[-90.263631,29.142095],[-90.272901,29.144587],[-90.277773,29.142822],[-90.26901,29.139242],[-90.248629,29.13837],[-90.243435,29.136311],[-90.240814,29.130573],[-90.237023,29.130995],[-90.234405,29.128824],[-90.233446,29.121023],[-90.234235,29.110268],[-90.238319,29.108564],[-90.246519,29.110121],[-90.250044,29.108067],[-90.24533,29.101918],[-90.248063,29.096623],[-90.245924,29.093403],[-90.24022,29.092884],[-90.235823,29.091534],[-90.227266,29.088315],[-90.222869,29.087069],[-90.192689,29.099852],[-90.18665,29.102994],[-90.179849,29.108979],[-90.17058,29.115209],[-90.14598,29.130158],[-90.116627,29.148012],[-90.095592,29.162853],[-90.0887807372695,29.166944147543198],[-90.087891,29.170043],[-90.086316,29.173027],[-90.086924,29.177188],[-90.088059,29.178951],[-90.090337,29.180574],[-90.08952,29.181743],[-90.085806,29.183022],[-90.084735,29.184505],[-90.086471,29.18647],[-90.085722,29.187729],[-90.08372,29.188169],[-90.082832,29.190763],[-90.08007,29.193312],[-90.077072,29.194814],[-90.075325,29.196635],[-90.073593,29.196483],[-90.072328,29.197392],[-90.071512,29.199575],[-90.070538,29.200811],[-90.066069,29.203563],[-90.064419,29.203516],[-90.062101,29.205022],[-90.063156,29.205586],[-90.06352319881559,29.2083936034052],[-90.070622,29.208698],[-90.073355,29.210611],[-90.075033,29.219706],[-90.082638,29.229144],[-90.090838,29.233811],[-90.099514,29.239307],[-90.099989,29.246669],[-90.10605,29.25372],[-90.10807,29.265021],[-90.103138,29.273625],[-90.096008,29.275076],[-90.089828,29.284405],[-90.07533,29.296014],[-90.05691,29.294874],[-90.04764,29.285546],[-90.032428,29.281607],[-90.02411,29.283473],[-90.018643,29.286789],[-90.012939,29.294459],[-90.016266,29.30047],[-90.025298,29.301299],[-90.034805,29.303579],[-90.037657,29.309175],[-90.036352,29.31438],[-90.038608,29.322853],[-90.03837,29.332592],[-90.031815,29.344251],[-90.03039307187429,29.344912325271597],[-90.031234,29.34711],[-90.033256,29.348941],[-90.035301,29.350168],[-90.035713,29.350914],[-90.03585,29.352375],[-90.035087,29.356456],[-90.0351258601136,29.357447781818696],[-90.03843,29.356833],[-90.041995,29.360665],[-90.042827,29.368019],[-90.03736,29.372679],[-90.0307846691255,29.3750007018809],[-90.029396,29.377021],[-90.028633,29.379417],[-90.029129,29.382234],[-90.030944,29.384452],[-90.029098,29.387514],[-90.030181,29.389383],[-90.033294,29.393278],[-90.025062,29.413286],[-90.020622,29.428461],[-90.022315,29.43115],[-90.029212,29.431879],[-90.037551,29.436344],[-90.042083,29.443426],[-90.042037,29.44588],[-90.037376,29.447832],[-90.037887,29.448799],[-90.040878,29.450273],[-90.042938,29.452302],[-90.048637,29.455245],[-90.047447,29.458568],[-90.047615,29.460447],[-90.049041,29.461523],[-90.051338,29.461771],[-90.054237,29.461496],[-90.061424,29.459157],[-90.062698,29.459194],[-90.069458,29.461357],[-90.074913,29.465126],[-90.078239,29.466125],[-90.078246,29.459909],[-90.07882,29.453993],[-90.079824,29.452343],[-90.082461,29.450235],[-90.087684,29.443801],[-90.090219,29.43964],[-90.091872,29.436319],[-90.094658,29.431921],[-90.101791,29.432318],[-90.104152,29.432949],[-90.106282,29.431921],[-90.125096,29.43134],[-90.128505,29.430662],[-90.130604,29.430793],[-90.140096,29.432069],[-90.141951,29.428159],[-90.151473,29.426532],[-90.156481,29.424999],[-90.160202,29.408498],[-90.167543,29.400953],[-90.168208,29.400616],[-90.173898,29.400666],[-90.173622,29.402161],[-90.178489,29.404886],[-90.193696,29.409403],[-90.192491,29.402905],[-90.192411,29.394236],[-90.237025,29.393412],[-90.240505,29.392875],[-90.239994,29.394516],[-90.232381,29.394691],[-90.230043,29.39959],[-90.230116,29.400412],[-90.232611,29.40194],[-90.237959,29.403971],[-90.242453,29.406524],[-90.245659,29.409417],[-90.250656,29.408328],[-90.265093,29.405298],[-90.27309,29.403598],[-90.273863,29.407922],[-90.274877,29.409626],[-90.276446,29.41068],[-90.276987,29.410236],[-90.283789,29.405675],[-90.284157,29.405415],[-90.290213,29.401117],[-90.289361,29.3966],[-90.288145,29.393706],[-90.29142,29.393314],[-90.293618,29.393823],[-90.294378,29.393376],[-90.292139,29.390647],[-90.290196,29.385931],[-90.287778,29.385005],[-90.28593,29.382648],[-90.287273,29.381509],[-90.2858,29.378818],[-90.285676,29.375036],[-90.287577,29.375751],[-90.287848,29.374547],[-90.290395,29.375153],[-90.292272,29.374422],[-90.294274,29.374609],[-90.293126,29.372469],[-90.293065,29.368647],[-90.294386,29.363023],[-90.299101,29.355653],[-90.303354,29.35763],[-90.319744,29.366064],[-90.320493,29.366552],[-90.320918,29.368905],[-90.325184,29.374693],[-90.328152,29.375974],[-90.328964,29.375384],[-90.327589,29.372804],[-90.326315,29.371638],[-90.326139,29.374338],[-90.325028,29.373821],[-90.323704,29.371358],[-90.321262,29.368225],[-90.321595,29.367345],[-90.320965,29.362645],[-90.321969,29.359636],[-90.321421,29.357436],[-90.320383,29.355833],[-90.320054,29.351399],[-90.32019,29.349061],[-90.32162,29.348588],[-90.324695,29.345564],[-90.325686,29.346356],[-90.323226,29.347082],[-90.32595,29.347049],[-90.326381,29.348048],[-90.328748,29.347499],[-90.332701,29.34607],[-90.332086,29.344223],[-90.331966,29.339544],[-90.330234,29.338252],[-90.327862,29.334685],[-90.332386,29.333915],[-90.332919,29.334607],[-90.332129,29.337422],[-90.333309,29.338972],[-90.332669,29.339313],[-90.334993,29.339237],[-90.337088,29.338415],[-90.339216,29.339203],[-90.340497,29.336151],[-90.342865,29.335904],[-90.345335,29.334061],[-90.347545,29.337942],[-90.350808,29.340883],[-90.352622,29.341333],[-90.353005,29.342834],[-90.356707,29.344652],[-90.354474,29.345467],[-90.355127,29.346973],[-90.355829,29.345235],[-90.357567,29.344922],[-90.359438,29.348824],[-90.359546,29.350545],[-90.360487,29.351386],[-90.361637,29.353854],[-90.36409,29.354166],[-90.362924,29.356718],[-90.365008,29.357558],[-90.366997,29.357623],[-90.367625,29.359331],[-90.367625,29.356969],[-90.363891,29.356541],[-90.365201,29.354518],[-90.36726,29.354671],[-90.369324,29.353917],[-90.370649,29.355462],[-90.372229,29.354065],[-90.373967,29.353828],[-90.373491,29.352858],[-90.370877,29.350619],[-90.370521,29.348118],[-90.371126,29.34686],[-90.373105,29.346041],[-90.374508,29.344481],[-90.376522,29.344504],[-90.375047,29.343042],[-90.377058,29.342057],[-90.377127,29.34061],[-90.373919,29.342082],[-90.373539,29.341253],[-90.371237,29.34063],[-90.371511,29.339303],[-90.372755,29.338361],[-90.372141,29.33742],[-90.372655,29.335186],[-90.372253,29.332711],[-90.372163,29.33088],[-90.374051,29.32915],[-90.376206,29.329118],[-90.379654,29.330562],[-90.377487,29.33249],[-90.379121,29.332218],[-90.380764,29.329782],[-90.379137,29.328757],[-90.379442,29.326387],[-90.378132,29.323394],[-90.381043,29.323695],[-90.381333,29.322742],[-90.380058,29.321739],[-90.380096,29.319627],[-90.379001,29.317331],[-90.379363,29.315489],[-90.378227,29.316607],[-90.376746,29.315051],[-90.374713,29.315344],[-90.374878,29.316018],[-90.377875,29.317075],[-90.37897,29.318942],[-90.377166,29.318772],[-90.377331,29.323876],[-90.374108,29.324606],[-90.371266,29.323371],[-90.369506,29.3241],[-90.367851,29.323213],[-90.367861,29.321314],[-90.366553,29.318293],[-90.365084,29.3172],[-90.367216,29.316922],[-90.368409,29.314423],[-90.371546,29.31251],[-90.372774,29.310446],[-90.370993,29.309196],[-90.371496,29.306462],[-90.373157,29.303784],[-90.374683,29.305376],[-90.376368,29.305631],[-90.377943,29.309222],[-90.376573,29.304801],[-90.376666,29.302883],[-90.378332,29.300262],[-90.379978,29.299424],[-90.3831,29.295614],[-90.382981,29.293383],[-90.38376,29.289938],[-90.383222,29.287543],[-90.383945,29.285162],[-90.383628,29.281567],[-90.389554,29.277438],[-90.39044,29.276177],[-90.392081,29.271733],[-90.394559,29.268522],[-90.39711298610959,29.2665850254558]]],[[[-90.40940859656389,29.209099867030297],[-90.40941107404159,29.2032844313328],[-90.407784,29.20394],[-90.407665,29.207051],[-90.40940859656389,29.209099867030297]]]]}},{"type":"Feature","properties":{"zcta5":"70354","AFFGEOID10":"8600000US70354","GEOID10":"70354","ALAND10":302727060,"AWATER10":64271808,"county_name":"Lafourche","state_code":"LA","county_state":"Lafourche County, LA","county_fips":"22057","risk_level_county":"Higher Risk (60–69% vaccinated)","mean_vaccination_rate_county":68.98,"risk_level_zcta":"Very High Risk (<60% vaccinated)","mean_vaccination_rate_zips":59.01,"cases":1},"geometry":{"type":"Polygon","coordinates":[[[-90.43767,29.463609],[-90.438796,29.460162],[-90.440356,29.456823],[-90.441659,29.452035],[-90.443136,29.449279],[-90.444852,29.446955],[-90.445001,29.445557],[-90.444423,29.443621],[-90.442487,29.440903],[-90.441626,29.439124],[-90.445903,29.421959],[-90.446333,29.418503],[-90.446861,29.416843],[-90.444256,29.414597],[-90.441379,29.413285],[-90.439157,29.4117],[-90.435163,29.406833],[-90.430695,29.402905],[-90.426704,29.400092],[-90.424536,29.397571],[-90.421882,29.393733],[-90.418556,29.390037],[-90.407846,29.385251],[-90.403304,29.38423],[-90.397347,29.380156],[-90.396107,29.378838],[-90.395061,29.37663],[-90.392466,29.373616],[-90.385539,29.367749],[-90.384834,29.366878],[-90.384285,29.365755],[-90.383739,29.361357],[-90.383087,29.359067],[-90.380945,29.355515],[-90.379875,29.351872],[-90.379589,29.349054],[-90.381526,29.345436],[-90.38226,29.343329],[-90.382026,29.339938],[-90.382082,29.334418],[-90.383758,29.330227],[-90.386034,29.32693],[-90.386473,29.324743],[-90.385281,29.322619],[-90.382854,29.319449],[-90.381981,29.317066],[-90.380901,29.315761],[-90.378491,29.311186],[-90.377943,29.309222],[-90.376368,29.305631],[-90.374683,29.305376],[-90.373157,29.303784],[-90.371496,29.306462],[-90.370993,29.309196],[-90.372774,29.310446],[-90.371546,29.31251],[-90.368409,29.314423],[-90.367216,29.316922],[-90.365084,29.3172],[-90.366553,29.318293],[-90.367861,29.321314],[-90.367851,29.323213],[-90.369506,29.3241],[-90.371266,29.323371],[-90.374108,29.324606],[-90.377331,29.323876],[-90.377166,29.318772],[-90.37897,29.318942],[-90.377875,29.317075],[-90.374878,29.316018],[-90.374713,29.315344],[-90.376746,29.315051],[-90.378227,29.316607],[-90.379363,29.315489],[-90.379001,29.317331],[-90.380096,29.319627],[-90.380058,29.321739],[-90.381333,29.322742],[-90.381043,29.323695],[-90.378132,29.323394],[-90.379442,29.326387],[-90.379137,29.328757],[-90.380764,29.329782],[-90.379121,29.332218],[-90.377487,29.33249],[-90.379654,29.330562],[-90.376206,29.329118],[-90.374051,29.32915],[-90.372163,29.33088],[-90.372253,29.332711],[-90.372655,29.335186],[-90.372141,29.33742],[-90.372755,29.338361],[-90.371511,29.339303],[-90.371237,29.34063],[-90.373539,29.341253],[-90.373919,29.342082],[-90.377127,29.34061],[-90.377058,29.342057],[-90.375047,29.343042],[-90.376522,29.344504],[-90.374508,29.344481],[-90.373105,29.346041],[-90.371126,29.34686],[-90.370521,29.348118],[-90.370877,29.350619],[-90.373491,29.352858],[-90.373967,29.353828],[-90.372229,29.354065],[-90.370649,29.355462],[-90.369324,29.353917],[-90.36726,29.354671],[-90.365201,29.354518],[-90.363891,29.356541],[-90.367625,29.356969],[-90.367625,29.359331],[-90.366997,29.357623],[-90.365008,29.357558],[-90.362924,29.356718],[-90.36409,29.354166],[-90.361637,29.353854],[-90.360487,29.351386],[-90.359546,29.350545],[-90.359438,29.348824],[-90.357567,29.344922],[-90.355829,29.345235],[-90.355127,29.346973],[-90.354474,29.345467],[-90.356707,29.344652],[-90.353005,29.342834],[-90.352622,29.341333],[-90.350808,29.340883],[-90.347545,29.337942],[-90.345335,29.334061],[-90.342865,29.335904],[-90.340497,29.336151],[-90.339216,29.339203],[-90.337088,29.338415],[-90.334993,29.339237],[-90.332669,29.339313],[-90.333309,29.338972],[-90.332129,29.337422],[-90.332919,29.334607],[-90.332386,29.333915],[-90.327862,29.334685],[-90.330234,29.338252],[-90.331966,29.339544],[-90.332086,29.344223],[-90.332701,29.34607],[-90.328748,29.347499],[-90.326381,29.348048],[-90.32595,29.347049],[-90.323226,29.347082],[-90.325686,29.346356],[-90.324695,29.345564],[-90.32162,29.348588],[-90.32019,29.349061],[-90.320054,29.351399],[-90.320383,29.355833],[-90.321421,29.357436],[-90.321969,29.359636],[-90.320965,29.362645],[-90.321595,29.367345],[-90.321262,29.368225],[-90.323704,29.371358],[-90.325028,29.373821],[-90.326139,29.374338],[-90.326315,29.371638],[-90.327589,29.372804],[-90.328964,29.375384],[-90.328152,29.375974],[-90.325184,29.374693],[-90.320918,29.368905],[-90.320493,29.366552],[-90.319744,29.366064],[-90.303354,29.35763],[-90.299101,29.355653],[-90.294386,29.363023],[-90.293065,29.368647],[-90.293126,29.372469],[-90.294274,29.374609],[-90.292272,29.374422],[-90.290395,29.375153],[-90.287848,29.374547],[-90.287577,29.375751],[-90.285676,29.375036],[-90.2858,29.378818],[-90.287273,29.381509],[-90.28593,29.382648],[-90.287778,29.385005],[-90.290196,29.385931],[-90.292139,29.390647],[-90.294378,29.393376],[-90.293618,29.393823],[-90.29142,29.393314],[-90.288145,29.393706],[-90.289361,29.3966],[-90.290213,29.401117],[-90.284157,29.405415],[-90.283789,29.405675],[-90.276987,29.410236],[-90.276446,29.41068],[-90.274877,29.409626],[-90.273863,29.407922],[-90.27309,29.403598],[-90.265093,29.405298],[-90.250656,29.408328],[-90.245659,29.409417],[-90.242453,29.406524],[-90.237959,29.403971],[-90.232611,29.40194],[-90.230116,29.400412],[-90.230043,29.39959],[-90.232381,29.394691],[-90.239994,29.394516],[-90.240505,29.392875],[-90.237025,29.393412],[-90.192411,29.394236],[-90.192491,29.402905],[-90.193696,29.409403],[-90.178489,29.404886],[-90.173622,29.402161],[-90.173898,29.400666],[-90.168208,29.400616],[-90.167543,29.400953],[-90.160202,29.408498],[-90.156481,29.424999],[-90.151473,29.426532],[-90.141951,29.428159],[-90.140096,29.432069],[-90.130604,29.430793],[-90.128505,29.430662],[-90.125096,29.43134],[-90.106282,29.431921],[-90.104152,29.432949],[-90.101791,29.432318],[-90.094658,29.431921],[-90.091872,29.436319],[-90.090219,29.43964],[-90.087684,29.443801],[-90.082461,29.450235],[-90.079824,29.452343],[-90.07882,29.453993],[-90.078246,29.459909],[-90.078239,29.466125],[-90.080467,29.465915],[-90.085853,29.462503],[-90.088668,29.461729],[-90.095184,29.461421],[-90.114128,29.465684],[-90.124984,29.470207],[-90.135185,29.476049],[-90.137504,29.477163],[-90.140197,29.481742],[-90.141731,29.488214],[-90.142303,29.491539],[-90.144485,29.497373],[-90.146736,29.501037],[-90.150627,29.50476],[-90.151329,29.505865],[-90.155426,29.510482],[-90.157432,29.513591],[-90.159835,29.516498],[-90.16114,29.5188],[-90.163146,29.521303],[-90.166458,29.526504],[-90.169273,29.532701],[-90.170989,29.538997],[-90.172203,29.541196],[-90.174209,29.542892],[-90.179122,29.544382],[-90.182632,29.544673],[-90.186141,29.545665],[-90.18782,29.546567],[-90.198156,29.523791],[-90.198594,29.522944],[-90.215902,29.503574],[-90.217948,29.502715],[-90.221419,29.498168],[-90.233144,29.486302],[-90.237419,29.481476],[-90.238573,29.480434],[-90.2437,29.48096],[-90.243799,29.479402],[-90.244844,29.477829],[-90.250476,29.480517],[-90.253497,29.48038],[-90.255046,29.478337],[-90.255187,29.477207],[-90.259455,29.477333],[-90.263287,29.473628],[-90.265535,29.4733],[-90.272382,29.473294],[-90.274083,29.472984],[-90.278063,29.471574],[-90.285973,29.468274],[-90.2915,29.466291],[-90.299507,29.465913],[-90.298608,29.463703],[-90.305104,29.460438],[-90.305932,29.460501],[-90.308244,29.460014],[-90.308391,29.459708],[-90.304353,29.451976],[-90.303428,29.449512],[-90.305793,29.448688],[-90.31335,29.446819],[-90.315175,29.449877],[-90.321499,29.447977],[-90.328502,29.446959],[-90.32641,29.442759],[-90.325417,29.439049],[-90.321887,29.430281],[-90.322723,29.429885],[-90.327547,29.442589],[-90.328457,29.444002],[-90.330763,29.448911],[-90.334206,29.455117],[-90.336236,29.460471],[-90.341476,29.46876],[-90.340811,29.471133],[-90.344958,29.468452],[-90.348263,29.466651],[-90.349659,29.466312],[-90.352746,29.46912],[-90.356764,29.47208],[-90.357934,29.47372],[-90.359769,29.474693],[-90.362459,29.476739],[-90.364023,29.478372],[-90.363209,29.478873],[-90.362193,29.481057],[-90.361915,29.48412],[-90.361244,29.486291],[-90.359972,29.486183],[-90.359217,29.489058],[-90.360431,29.491314],[-90.362779,29.493199],[-90.363025,29.494507],[-90.366053,29.495309],[-90.369935,29.494613],[-90.370525,29.495047],[-90.37293,29.494255],[-90.374641,29.494407],[-90.378614,29.4958],[-90.380495,29.497646],[-90.38349,29.499173],[-90.385764,29.499378],[-90.389384,29.501279],[-90.389937,29.500729],[-90.392082,29.500973],[-90.39406,29.502076],[-90.395509,29.504532],[-90.394523,29.507656],[-90.395485,29.510213],[-90.398505,29.510379],[-90.40203,29.511229],[-90.402299,29.513526],[-90.403675,29.513841],[-90.40381,29.515449],[-90.406283,29.514838],[-90.407248,29.51632],[-90.408612,29.515852],[-90.409576,29.517304],[-90.411327,29.517448],[-90.411266,29.518902],[-90.411435,29.518737],[-90.42285,29.495882],[-90.423397,29.494014],[-90.424636,29.492155],[-90.427775,29.485976],[-90.437238,29.469077],[-90.43707,29.467856],[-90.43767,29.463609]]]}},{"type":"Feature","properties":{"zcta5":"70375","AFFGEOID10":"8600000US70375","GEOID10":"70375","ALAND10":5677372,"AWATER10":30723,"county_name":"Lafourche","state_code":"LA","county_state":"Lafourche County, LA","county_fips":"22057","risk_level_county":"Higher Risk (60–69% vaccinated)","mean_vaccination_rate_county":68.98,"risk_level_zcta":"Higher Risk (60–69% vaccinated)","mean_vaccination_rate_zips":65.76,"cases":1},"geometry":{"type":"Polygon","coordinates":[[[-90.523923,29.698388],[-90.529824,29.708229],[-90.53732,29.70358],[-90.53953,29.704663],[-90.545749,29.700738],[-90.546841,29.701699],[-90.552073,29.697541],[-90.553914,29.695671],[-90.550837,29.693095],[-90.549309,29.691357],[-90.54628,29.688281],[-90.544381,29.68924],[-90.542682,29.686469],[-90.544775,29.684424],[-90.541477,29.677567],[-90.528173,29.681192],[-90.52484,29.682075],[-90.527618,29.696929],[-90.523923,29.698388]]]}},{"type":"Feature","properties":{"zcta5":"70359","AFFGEOID10":"8600000US70359","GEOID10":"70359","ALAND10":24673556,"AWATER10":0,"county_name":"Lafourche","state_code":"LA","county_state":"Lafourche County, LA","county_fips":"22057","risk_level_county":"Higher Risk (60–69% vaccinated)","mean_vaccination_rate_county":68.98,"risk_level_zcta":"Higher Risk (60–69% vaccinated)","mean_vaccination_rate_zips":65.51,"cases":1},"geometry":{"type":"Polygon","coordinates":[[[-90.782853,29.730329],[-90.788148,29.728609],[-90.787824,29.727028],[-90.785951,29.725647],[-90.786419,29.725338],[-90.793358,29.723099],[-90.798235,29.721334],[-90.799388,29.723242],[-90.799604,29.723656],[-90.806954,29.72126],[-90.805114,29.717837],[-90.80178,29.704154],[-90.797437,29.67939],[-90.796879,29.678617],[-90.790852,29.67439],[-90.780277,29.667031],[-90.777585,29.662312],[-90.775019,29.662595],[-90.775772,29.664327],[-90.7727,29.665003],[-90.774262,29.668155],[-90.773379,29.667647],[-90.765524,29.671283],[-90.767153,29.673697],[-90.758618,29.679061],[-90.749078,29.673559],[-90.747198,29.672921],[-90.744858,29.671092],[-90.74317,29.67084],[-90.73921,29.675389],[-90.736828,29.675019],[-90.735505,29.674982],[-90.732928,29.677249],[-90.730179,29.68071],[-90.737634,29.682265],[-90.73966,29.683569],[-90.740442,29.684169],[-90.74554,29.687712],[-90.750736,29.692474],[-90.752869,29.694275],[-90.75665,29.696952],[-90.76149,29.700918],[-90.767049,29.706701],[-90.768867,29.710335],[-90.771846,29.709109],[-90.777603,29.72027],[-90.782853,29.730329]]]}},{"type":"Feature","properties":{"zcta5":"70364","AFFGEOID10":"8600000US70364","GEOID10":"70364","ALAND10":109710146,"AWATER10":1089210,"county_name":"Lafourche","state_code":"LA","county_state":"Lafourche County, LA","county_fips":"22057","risk_level_county":"Higher Risk (60–69% vaccinated)","mean_vaccination_rate_county":68.98,"risk_level_zcta":"Higher Risk (60–69% vaccinated)","mean_vaccination_rate_zips":62.64,"cases":1},"geometry":{"type":"Polygon","coordinates":[[[-90.773379,29.667647],[-90.771687,29.663607],[-90.769411,29.659784],[-90.765591,29.654212],[-90.765091,29.65251],[-90.763191,29.648311],[-90.760392,29.640513],[-90.759892,29.637814],[-90.758891,29.63491],[-90.757391,29.631812],[-90.752247,29.625825],[-90.748834,29.620641],[-90.745491,29.615217],[-90.744492,29.611512],[-90.74419,29.609114],[-90.742951,29.60569],[-90.740483,29.603119],[-90.73359,29.599413],[-90.731769,29.598596],[-90.72799,29.597613],[-90.72399,29.597313],[-90.718785,29.598714],[-90.71599,29.599015],[-90.710191,29.598721],[-90.710052,29.600597],[-90.708798,29.607003],[-90.708473,29.608663],[-90.705119,29.611862],[-90.702184,29.613795],[-90.699611,29.614012],[-90.695935,29.612985],[-90.692347,29.610803],[-90.687871,29.608561],[-90.681363,29.604297],[-90.67861,29.603057],[-90.672275,29.60114],[-90.672174,29.601108],[-90.667262,29.599598],[-90.656721,29.597449],[-90.654397,29.596789],[-90.648818,29.593451],[-90.634258,29.585062],[-90.630388,29.582516],[-90.61961,29.576756],[-90.618709,29.576407],[-90.61241,29.575825],[-90.605521,29.576241],[-90.589067,29.57767],[-90.58853,29.57813],[-90.578176,29.58906],[-90.581454,29.590998],[-90.592005,29.599524],[-90.597167,29.604919],[-90.598276,29.60585],[-90.625213,29.620358],[-90.630943,29.62249],[-90.634894,29.625266],[-90.648079,29.633506],[-90.662306,29.633574],[-90.6635,29.635578],[-90.668181,29.639119],[-90.678931,29.655495],[-90.674057,29.661128],[-90.673253,29.661891],[-90.640269,29.688915],[-90.649918,29.68887],[-90.699356,29.687394],[-90.703859,29.687087],[-90.703768,29.686848],[-90.73966,29.683569],[-90.737634,29.682265],[-90.730179,29.68071],[-90.732928,29.677249],[-90.735505,29.674982],[-90.736828,29.675019],[-90.73921,29.675389],[-90.74317,29.67084],[-90.744858,29.671092],[-90.747198,29.672921],[-90.749078,29.673559],[-90.758618,29.679061],[-90.767153,29.673697],[-90.765524,29.671283],[-90.773379,29.667647]]]}},{"type":"Feature","properties":{"zcta5":"70030","AFFGEOID10":"8600000US70030","GEOID10":"70030","ALAND10":81580006,"AWATER10":13561069,"county_name":"Lafourche","state_code":"LA","county_state":"Lafourche County, LA","county_fips":"22057","risk_level_county":"Higher Risk (60–69% vaccinated)","mean_vaccination_rate_county":68.98,"risk_level_zcta":"Very High Risk (<60% vaccinated)","mean_vaccination_rate_zips":54.85,"cases":1},"geometry":{"type":"Polygon","coordinates":[[[-90.524953,29.782383],[-90.524175,29.781758],[-90.505208,29.766492],[-90.504815,29.766042],[-90.469132,29.801319],[-90.467757,29.803242],[-90.462944,29.800794],[-90.457946,29.795595],[-90.454032,29.793273],[-90.450759,29.791738],[-90.446693,29.790386],[-90.442703,29.787363],[-90.438613,29.782823],[-90.429887,29.776387],[-90.427142,29.775774],[-90.424387,29.776686],[-90.419013,29.775682],[-90.415817,29.774372],[-90.409286,29.772195],[-90.407356,29.773862],[-90.404823,29.774147],[-90.401214,29.771705],[-90.397295,29.770378],[-90.396528,29.773621],[-90.396449,29.777119],[-90.394126,29.781709],[-90.378463,29.809391],[-90.376937,29.808509],[-90.377296,29.805187],[-90.37651,29.802827],[-90.374481,29.801321],[-90.371765,29.803359],[-90.370277,29.807483],[-90.366767,29.808584],[-90.365425,29.813844],[-90.363693,29.817556],[-90.361373,29.820747],[-90.360893,29.816923],[-90.361755,29.834701],[-90.361831,29.841993],[-90.355438,29.844188],[-90.36116,29.847589],[-90.365646,29.851495],[-90.369186,29.853397],[-90.373906,29.856822],[-90.373847,29.85901],[-90.376762,29.85815],[-90.379814,29.85287],[-90.391899,29.852716],[-90.393135,29.851779],[-90.400337,29.848072],[-90.401931,29.846849],[-90.403656,29.843574],[-90.40599,29.843267],[-90.405845,29.850372],[-90.412574,29.852546],[-90.412979,29.852895],[-90.413131,29.860572],[-90.413894,29.860996],[-90.415016,29.859477],[-90.425979,29.859472],[-90.42592,29.855164],[-90.429847,29.854946],[-90.429801,29.850481],[-90.430122,29.848726],[-90.434623,29.848701],[-90.435974,29.846641],[-90.439933,29.846414],[-90.440696,29.846643],[-90.442375,29.85004],[-90.443931,29.851011],[-90.444587,29.852767],[-90.444046,29.85404],[-90.442192,29.853582],[-90.443351,29.854286],[-90.447761,29.854295],[-90.44654,29.859523],[-90.446703,29.859552],[-90.446884,29.859584],[-90.447158,29.859598],[-90.450637,29.860542],[-90.450874,29.858064],[-90.453536,29.857995],[-90.454002,29.860843],[-90.453865,29.86292],[-90.455993,29.862874],[-90.455497,29.866981],[-90.454048,29.868402],[-90.462364,29.873619],[-90.462783,29.871444],[-90.462432,29.863971],[-90.466293,29.865291],[-90.467926,29.865421],[-90.476387,29.865161],[-90.476005,29.860887],[-90.471206,29.858924],[-90.470405,29.856685],[-90.469383,29.855987],[-90.470782,29.852263],[-90.471904,29.851181],[-90.473553,29.846883],[-90.473117,29.84503],[-90.475979,29.839104],[-90.477583,29.836878],[-90.478451,29.836569],[-90.476936,29.832145],[-90.476356,29.828754],[-90.476306,29.824875],[-90.480776,29.823126],[-90.483961,29.821515],[-90.487141,29.818805],[-90.511876,29.793177],[-90.514306,29.790797],[-90.524953,29.782383]]]}},{"type":"Feature","properties":{"zcta5":"70301","AFFGEOID10":"8600000US70301","GEOID10":"70301","ALAND10":746069846,"AWATER10":19434505,"county_name":"Lafourche","state_code":"LA","county_state":"Lafourche County, LA","county_fips":"22057","risk_level_county":"Higher Risk (60–69% vaccinated)","mean_vaccination_rate_county":68.98,"risk_level_zcta":"Higher Risk (60–69% vaccinated)","mean_vaccination_rate_zips":67.37,"cases":1},"geometry":{"type":"Polygon","coordinates":[[[-90.953649,29.852922],[-90.95143,29.850977],[-90.950498,29.850302],[-90.948217,29.848993],[-90.954023,29.845407],[-90.953416,29.844225],[-90.955695,29.842794],[-90.953497,29.840599],[-90.949077,29.835527],[-90.949821,29.83394],[-90.952569,29.829905],[-90.950302,29.829302],[-90.949941,29.82921],[-90.947142,29.828656],[-90.945295,29.82829],[-90.93185,29.825614],[-90.927997,29.824244],[-90.947496,29.792306],[-90.981696,29.744706],[-91.006743,29.714771],[-90.927177,29.715915],[-90.880194,29.716809],[-90.882094,29.746008],[-90.840893,29.746508],[-90.844093,29.752208],[-90.844404,29.755922],[-90.84288,29.757549],[-90.841169,29.759389],[-90.817257,29.755526],[-90.816731,29.754843],[-90.816438,29.753853],[-90.814467,29.751276],[-90.812611,29.747758],[-90.804496,29.751075],[-90.804692,29.749509],[-90.796618,29.744543],[-90.788092,29.747509],[-90.784292,29.744609],[-90.787491,29.743408],[-90.785892,29.738109],[-90.787492,29.737509],[-90.78604,29.732093],[-90.784192,29.732909],[-90.782853,29.730329],[-90.777603,29.72027],[-90.771846,29.709109],[-90.768867,29.710335],[-90.767049,29.706701],[-90.76149,29.700918],[-90.75665,29.696952],[-90.752869,29.694275],[-90.750736,29.692474],[-90.74554,29.687712],[-90.740442,29.684169],[-90.73966,29.683569],[-90.703768,29.686848],[-90.703859,29.687087],[-90.704284,29.689683],[-90.705833,29.693059],[-90.705947,29.694203],[-90.707943,29.695979],[-90.710904,29.699756],[-90.707705,29.703561],[-90.703057,29.707911],[-90.701004,29.711237],[-90.698964,29.716565],[-90.703934,29.718253],[-90.708362,29.719193],[-90.711639,29.722229],[-90.716232,29.723779],[-90.721265,29.726675],[-90.721601,29.729315],[-90.724519,29.731425],[-90.728036,29.731876],[-90.7211,29.751529],[-90.721131,29.752343],[-90.72787,29.753954],[-90.727885,29.75475],[-90.717683,29.752871],[-90.717429,29.753675],[-90.713009,29.762057],[-90.611066,29.74759],[-90.603107,29.746455],[-90.594925,29.745684],[-90.588817,29.745863],[-90.583628,29.746407],[-90.574594,29.748616],[-90.573031,29.748059],[-90.572981,29.748098],[-90.571431,29.749279],[-90.565904,29.751779],[-90.558834,29.755958],[-90.524953,29.782383],[-90.514306,29.790797],[-90.511876,29.793177],[-90.487141,29.818805],[-90.483961,29.821515],[-90.480776,29.823126],[-90.476306,29.824875],[-90.476356,29.828754],[-90.476936,29.832145],[-90.478451,29.836569],[-90.480186,29.839265],[-90.478981,29.844175],[-90.479904,29.847377],[-90.483276,29.850067],[-90.485984,29.853141],[-90.487014,29.854814],[-90.48777,29.857196],[-90.489227,29.85926],[-90.493865,29.861701],[-90.49607,29.863437],[-90.49887,29.86506],[-90.501564,29.865497],[-90.503967,29.865148],[-90.510154,29.863265],[-90.513244,29.863441],[-90.51493,29.864131],[-90.515724,29.864727],[-90.520759,29.870037],[-90.524108,29.874475],[-90.529188,29.884283],[-90.53069,29.886738],[-90.533192,29.889504],[-90.536595,29.891492],[-90.541558,29.892436],[-90.543377,29.891797],[-90.553005,29.893338],[-90.578551,29.893354],[-90.593505,29.892927],[-90.594688,29.892683],[-90.598846,29.890186],[-90.603056,29.885264],[-90.606701,29.884263],[-90.609348,29.883094],[-90.610809,29.884423],[-90.610826,29.888888],[-90.612091,29.891103],[-90.61573,29.890846],[-90.617656,29.890235],[-90.619384,29.891571],[-90.621826,29.89208],[-90.623779,29.894071],[-90.625076,29.894659],[-90.629134,29.89523],[-90.631608,29.894537],[-90.635292,29.894823],[-90.637046,29.893555],[-90.639403,29.892861],[-90.641815,29.89328],[-90.643642,29.89269],[-90.646741,29.892479],[-90.647647,29.891653],[-90.650613,29.891783],[-90.654296,29.890628],[-90.656312,29.889246],[-90.65889,29.889449],[-90.660682,29.890415],[-90.663718,29.889903],[-90.666576,29.889979],[-90.668167,29.889394],[-90.671572,29.890157],[-90.674515,29.892727],[-90.676168,29.892974],[-90.67991,29.892484],[-90.680855,29.892918],[-90.682077,29.896119],[-90.683832,29.898272],[-90.688232,29.899156],[-90.688693,29.900358],[-90.688007,29.902887],[-90.690032,29.904864],[-90.692945,29.903833],[-90.695609,29.901955],[-90.696534,29.900517],[-90.69783,29.900606],[-90.69887,29.903031],[-90.700815,29.903451],[-90.703683,29.902508],[-90.706022,29.901038],[-90.707041,29.900981],[-90.709131,29.902474],[-90.709905,29.900606],[-90.709172,29.897164],[-90.711759,29.896542],[-90.71677,29.896618],[-90.717939,29.902083],[-90.719938,29.904239],[-90.72138,29.904922],[-90.723191,29.906991],[-90.726643,29.906045],[-90.728473,29.905995],[-90.729679,29.907182],[-90.729786,29.908551],[-90.728748,29.910585],[-90.729557,29.911218],[-90.733505,29.910779],[-90.740249,29.911521],[-90.742439,29.911369],[-90.747428,29.911937],[-90.750045,29.912988],[-90.753196,29.913753],[-90.756706,29.914972],[-90.760149,29.914785],[-90.761651,29.91505],[-90.764221,29.917244],[-90.766068,29.917856],[-90.772972,29.919137],[-90.776641,29.921155],[-90.77729,29.922029],[-90.785659,29.921592],[-90.785163,29.907495],[-90.885589,29.905353],[-90.885195,29.877505],[-90.909695,29.877104],[-90.914824,29.861389],[-90.919152,29.863288],[-90.91822,29.864729],[-90.916491,29.864707],[-90.918126,29.865522],[-90.926171,29.870413],[-90.926985,29.869908],[-90.928289,29.871323],[-90.953649,29.852922]]]}},{"type":"Feature","properties":{"zcta5":"70394","AFFGEOID10":"8600000US70394","GEOID10":"70394","ALAND10":222772476,"AWATER10":7923989,"county_name":"Lafourche","state_code":"LA","county_state":"Lafourche County, LA","county_fips":"22057","risk_level_county":"Higher Risk (60–69% vaccinated)","mean_vaccination_rate_county":68.98,"risk_level_zcta":"Higher Risk (60–69% vaccinated)","mean_vaccination_rate_zips":68.12,"cases":1},"geometry":{"type":"Polygon","coordinates":[[[-90.524953,29.782383],[-90.558834,29.755958],[-90.565904,29.751779],[-90.571431,29.749279],[-90.572981,29.748098],[-90.573031,29.748059],[-90.574594,29.748616],[-90.583628,29.746407],[-90.588817,29.745863],[-90.594925,29.745684],[-90.603107,29.746455],[-90.611066,29.74759],[-90.713009,29.762057],[-90.717429,29.753675],[-90.717683,29.752871],[-90.727885,29.75475],[-90.72787,29.753954],[-90.721131,29.752343],[-90.7211,29.751529],[-90.728036,29.731876],[-90.724519,29.731425],[-90.721601,29.729315],[-90.721265,29.726675],[-90.716232,29.723779],[-90.711639,29.722229],[-90.708362,29.719193],[-90.703934,29.718253],[-90.698964,29.716565],[-90.701004,29.711237],[-90.703057,29.707911],[-90.707705,29.703561],[-90.710904,29.699756],[-90.707943,29.695979],[-90.705947,29.694203],[-90.705833,29.693059],[-90.704284,29.689683],[-90.703859,29.687087],[-90.699356,29.687394],[-90.649918,29.68887],[-90.640269,29.688915],[-90.673253,29.661891],[-90.674057,29.661128],[-90.678931,29.655495],[-90.668181,29.639119],[-90.6635,29.635578],[-90.662306,29.633574],[-90.648079,29.633506],[-90.634894,29.625266],[-90.630943,29.62249],[-90.625213,29.620358],[-90.598276,29.60585],[-90.597167,29.604919],[-90.592005,29.599524],[-90.581454,29.590998],[-90.578176,29.58906],[-90.578011,29.588919],[-90.57247,29.594263],[-90.562903,29.602563],[-90.560391,29.607234],[-90.556266,29.615998],[-90.556116,29.617246],[-90.556584,29.623934],[-90.559,29.636289],[-90.558346,29.637378],[-90.554634,29.639558],[-90.548271,29.64292],[-90.555238,29.652781],[-90.548774,29.654414],[-90.547429,29.651776],[-90.546266,29.6526],[-90.542691,29.653913],[-90.542233,29.653853],[-90.541579,29.65541],[-90.539968,29.657484],[-90.539168,29.659197],[-90.538769,29.661841],[-90.53887,29.670586],[-90.539776,29.673824],[-90.5421,29.677284],[-90.541477,29.677567],[-90.544775,29.684424],[-90.542682,29.686469],[-90.544381,29.68924],[-90.54628,29.688281],[-90.549309,29.691357],[-90.550837,29.693095],[-90.553914,29.695671],[-90.552073,29.697541],[-90.546841,29.701699],[-90.545749,29.700738],[-90.53953,29.704663],[-90.53732,29.70358],[-90.529824,29.708229],[-90.523923,29.698388],[-90.512231,29.703256],[-90.517021,29.714301],[-90.534309,29.735619],[-90.534248,29.737391],[-90.533902,29.737996],[-90.528985,29.742861],[-90.504815,29.766042],[-90.505208,29.766492],[-90.524175,29.781758],[-90.524953,29.782383]]]}},{"type":"Feature","properties":{"zcta5":"70345","AFFGEOID10":"8600000US70345","GEOID10":"70345","ALAND10":240687596,"AWATER10":37990154,"county_name":"Lafourche","state_code":"LA","county_state":"Lafourche County, LA","county_fips":"22057","risk_level_county":"Higher Risk (60–69% vaccinated)","mean_vaccination_rate_county":68.98,"risk_level_zcta":"Higher Risk (60–69% vaccinated)","mean_vaccination_rate_zips":64.04,"cases":1},"geometry":{"type":"Polygon","coordinates":[[[-90.411266,29.518902],[-90.411327,29.517448],[-90.409576,29.517304],[-90.408612,29.515852],[-90.407248,29.51632],[-90.406283,29.514838],[-90.40381,29.515449],[-90.403675,29.513841],[-90.402299,29.513526],[-90.40203,29.511229],[-90.398505,29.510379],[-90.395485,29.510213],[-90.394523,29.507656],[-90.395509,29.504532],[-90.39406,29.502076],[-90.392082,29.500973],[-90.389937,29.500729],[-90.389384,29.501279],[-90.385764,29.499378],[-90.38349,29.499173],[-90.380495,29.497646],[-90.378614,29.4958],[-90.374641,29.494407],[-90.37293,29.494255],[-90.370525,29.495047],[-90.369935,29.494613],[-90.366053,29.495309],[-90.363025,29.494507],[-90.362779,29.493199],[-90.360431,29.491314],[-90.359217,29.489058],[-90.359972,29.486183],[-90.361244,29.486291],[-90.361915,29.48412],[-90.362193,29.481057],[-90.363209,29.478873],[-90.364023,29.478372],[-90.362459,29.476739],[-90.359769,29.474693],[-90.357934,29.47372],[-90.356764,29.47208],[-90.352746,29.46912],[-90.349659,29.466312],[-90.348263,29.466651],[-90.344958,29.468452],[-90.340811,29.471133],[-90.341476,29.46876],[-90.336236,29.460471],[-90.334206,29.455117],[-90.330763,29.448911],[-90.328457,29.444002],[-90.327547,29.442589],[-90.322723,29.429885],[-90.321887,29.430281],[-90.325417,29.439049],[-90.32641,29.442759],[-90.328502,29.446959],[-90.321499,29.447977],[-90.315175,29.449877],[-90.31335,29.446819],[-90.305793,29.448688],[-90.303428,29.449512],[-90.304353,29.451976],[-90.308391,29.459708],[-90.308244,29.460014],[-90.305932,29.460501],[-90.305104,29.460438],[-90.298608,29.463703],[-90.299507,29.465913],[-90.2915,29.466291],[-90.285973,29.468274],[-90.278063,29.471574],[-90.274083,29.472984],[-90.272382,29.473294],[-90.265535,29.4733],[-90.263287,29.473628],[-90.259455,29.477333],[-90.255187,29.477207],[-90.255046,29.478337],[-90.253497,29.48038],[-90.250476,29.480517],[-90.244844,29.477829],[-90.243799,29.479402],[-90.2437,29.48096],[-90.238573,29.480434],[-90.237419,29.481476],[-90.233144,29.486302],[-90.221419,29.498168],[-90.217948,29.502715],[-90.215902,29.503574],[-90.198594,29.522944],[-90.198156,29.523791],[-90.18782,29.546567],[-90.18975,29.548156],[-90.191963,29.551744],[-90.192176,29.555938],[-90.191772,29.557338],[-90.190872,29.558837],[-90.186172,29.563341],[-90.182777,29.564945],[-90.180076,29.565849],[-90.174684,29.567156],[-90.16602,29.567253],[-90.161815,29.568222],[-90.158459,29.570032],[-90.157767,29.571543],[-90.157769,29.573661],[-90.160546,29.575781],[-90.164526,29.577672],[-90.165145,29.57848],[-90.164644,29.579857],[-90.162987,29.581737],[-90.156586,29.585458],[-90.151725,29.587871],[-90.15134,29.588374],[-90.15196,29.591501],[-90.154087,29.59426],[-90.151541,29.596105],[-90.151157,29.598559],[-90.151892,29.599635],[-90.155599,29.601254],[-90.156218,29.602533],[-90.152208,29.60666],[-90.151168,29.609112],[-90.151903,29.61019],[-90.153138,29.610192],[-90.156263,29.608819],[-90.157692,29.609426],[-90.15781,29.611208],[-90.157118,29.61356],[-90.160019,29.616592],[-90.161189,29.623424],[-90.160401,29.629306],[-90.159653,29.63274],[-90.159333,29.640607],[-90.159768,29.643198],[-90.161117,29.64623],[-90.160583,29.649454],[-90.159103,29.653364],[-90.156837,29.655303],[-90.15538,29.657428],[-90.155067,29.660186],[-90.15557,29.6622],[-90.157882,29.666515],[-90.158012,29.669382],[-90.1576,29.672267],[-90.155807,29.67753],[-90.158843,29.677553],[-90.160881,29.67694],[-90.164184,29.676935],[-90.165679,29.677831],[-90.169181,29.682725],[-90.170387,29.683523],[-90.175987,29.683116],[-90.180382,29.682114],[-90.183486,29.680614],[-90.186386,29.680912],[-90.189079,29.68325],[-90.190063,29.681846],[-90.19214,29.680565],[-90.19807,29.673881],[-90.199402,29.672605],[-90.198845,29.67206],[-90.199734,29.670342],[-90.217248,29.639414],[-90.219156,29.635726],[-90.278745,29.583184],[-90.326117,29.563262],[-90.330208,29.561677],[-90.325533,29.558061],[-90.329381,29.55908],[-90.333808,29.561961],[-90.334038,29.560937],[-90.338499,29.557413],[-90.341241,29.555407],[-90.338322,29.553142],[-90.342182,29.550036],[-90.343782,29.549021],[-90.34006,29.546243],[-90.340274,29.546154],[-90.342057,29.547163],[-90.343435,29.54663],[-90.345464,29.547831],[-90.355181,29.543092],[-90.354431,29.541921],[-90.357564,29.545903],[-90.361286,29.549585],[-90.361886,29.548906],[-90.363607,29.549244],[-90.364431,29.549111],[-90.365355,29.549589],[-90.367507,29.552354],[-90.368493,29.55337],[-90.373331,29.544639],[-90.368973,29.542584],[-90.365488,29.538627],[-90.365086,29.53771],[-90.370235,29.53801],[-90.376765,29.539999],[-90.380436,29.541304],[-90.38461,29.541652],[-90.390821,29.542545],[-90.398026,29.543169],[-90.399034,29.540566],[-90.401416,29.538463],[-90.402031,29.535778],[-90.402868,29.535023],[-90.401649,29.532145],[-90.402519,29.530283],[-90.405122,29.528139],[-90.406672,29.527403],[-90.408402,29.52563],[-90.408897,29.524353],[-90.410562,29.5227],[-90.411266,29.518902]]]}},{"type":"Feature","properties":{"zcta5":"70374","AFFGEOID10":"8600000US70374","GEOID10":"70374","ALAND10":127923826,"AWATER10":6496178,"county_name":"Lafourche","state_code":"LA","county_state":"Lafourche County, LA","county_fips":"22057","risk_level_county":"Higher Risk (60–69% vaccinated)","mean_vaccination_rate_county":68.98,"risk_level_zcta":"Higher Risk (60–69% vaccinated)","mean_vaccination_rate_zips":63.38,"cases":1},"geometry":{"type":"Polygon","coordinates":[[[-90.589067,29.57767],[-90.590038,29.576841],[-90.587298,29.575441],[-90.585524,29.576101],[-90.57475,29.570906],[-90.565461,29.566964],[-90.559191,29.563594],[-90.55416,29.561839],[-90.550821,29.561168],[-90.547129,29.561003],[-90.545874,29.56134],[-90.528581,29.560375],[-90.524676,29.560516],[-90.454141,29.557682],[-90.453455,29.558135],[-90.446481,29.557536],[-90.434647,29.555754],[-90.431937,29.555193],[-90.416463,29.553009],[-90.41253,29.552294],[-90.412381,29.556999],[-90.414457,29.557154],[-90.420574,29.558766],[-90.425265,29.558233],[-90.42589,29.559403],[-90.424156,29.562223],[-90.418377,29.58079],[-90.418151,29.581914],[-90.419471,29.582629],[-90.41679,29.581814],[-90.413437,29.580106],[-90.403474,29.57689],[-90.400094,29.576035],[-90.398978,29.575762],[-90.394394,29.575597],[-90.394267,29.576891],[-90.396782,29.576437],[-90.396804,29.575906],[-90.40435,29.577519],[-90.414217,29.580875],[-90.417468,29.582558],[-90.415463,29.58638],[-90.410993,29.582887],[-90.409225,29.581187],[-90.40484,29.580947],[-90.397703,29.580967],[-90.396007,29.580664],[-90.394277,29.586169],[-90.397747,29.590206],[-90.403023,29.593374],[-90.406645,29.597608],[-90.412368,29.601513],[-90.416255,29.602762],[-90.419295,29.605824],[-90.422466,29.6073],[-90.434276,29.611315],[-90.4348,29.611934],[-90.437106,29.619791],[-90.441512,29.621235],[-90.443399,29.620067],[-90.445444,29.619654],[-90.447936,29.620098],[-90.450457,29.619682],[-90.452778,29.617407],[-90.469336,29.622683],[-90.470589,29.623806],[-90.480049,29.633165],[-90.481788,29.636318],[-90.482724,29.639094],[-90.484892,29.642154],[-90.496814,29.652175],[-90.499634,29.654737],[-90.506,29.658199],[-90.503453,29.659066],[-90.528173,29.681192],[-90.541477,29.677567],[-90.5421,29.677284],[-90.539776,29.673824],[-90.53887,29.670586],[-90.538769,29.661841],[-90.539168,29.659197],[-90.539968,29.657484],[-90.541579,29.65541],[-90.542233,29.653853],[-90.542691,29.653913],[-90.546266,29.6526],[-90.547429,29.651776],[-90.548774,29.654414],[-90.555238,29.652781],[-90.548271,29.64292],[-90.554634,29.639558],[-90.558346,29.637378],[-90.559,29.636289],[-90.556584,29.623934],[-90.556116,29.617246],[-90.556266,29.615998],[-90.560391,29.607234],[-90.562903,29.602563],[-90.57247,29.594263],[-90.578011,29.588919],[-90.578176,29.58906],[-90.58853,29.57813],[-90.589067,29.57767]]]}},{"type":"Feature","properties":{"zcta5":"70373","AFFGEOID10":"8600000US70373","GEOID10":"70373","ALAND10":186282740,"AWATER10":64183398,"county_name":"Lafourche","state_code":"LA","county_state":"Lafourche County, LA","county_fips":"22057","risk_level_county":"Higher Risk (60–69% vaccinated)","mean_vaccination_rate_county":68.98,"risk_level_zcta":"Higher Risk (60–69% vaccinated)","mean_vaccination_rate_zips":63.54,"cases":1},"geometry":{"type":"Polygon","coordinates":[[[-90.489062,29.519344],[-90.506168,29.50641],[-90.467186,29.485663],[-90.464153,29.482562],[-90.459851,29.479895],[-90.438999,29.464671],[-90.43767,29.463609],[-90.43707,29.467856],[-90.437238,29.469077],[-90.427775,29.485976],[-90.424636,29.492155],[-90.423397,29.494014],[-90.42285,29.495882],[-90.411435,29.518737],[-90.411266,29.518902],[-90.410562,29.5227],[-90.408897,29.524353],[-90.408402,29.52563],[-90.406672,29.527403],[-90.405122,29.528139],[-90.402519,29.530283],[-90.401649,29.532145],[-90.402868,29.535023],[-90.402031,29.535778],[-90.401416,29.538463],[-90.399034,29.540566],[-90.398026,29.543169],[-90.390821,29.542545],[-90.38461,29.541652],[-90.380436,29.541304],[-90.376765,29.539999],[-90.370235,29.53801],[-90.365086,29.53771],[-90.365488,29.538627],[-90.368973,29.542584],[-90.373331,29.544639],[-90.368493,29.55337],[-90.367507,29.552354],[-90.365355,29.549589],[-90.364431,29.549111],[-90.363607,29.549244],[-90.361886,29.548906],[-90.361286,29.549585],[-90.357564,29.545903],[-90.354431,29.541921],[-90.355181,29.543092],[-90.345464,29.547831],[-90.343435,29.54663],[-90.342057,29.547163],[-90.340274,29.546154],[-90.34006,29.546243],[-90.343782,29.549021],[-90.342182,29.550036],[-90.338322,29.553142],[-90.341241,29.555407],[-90.338499,29.557413],[-90.334038,29.560937],[-90.333808,29.561961],[-90.329381,29.55908],[-90.325533,29.558061],[-90.330208,29.561677],[-90.326117,29.563262],[-90.278745,29.583184],[-90.219156,29.635726],[-90.217248,29.639414],[-90.199734,29.670342],[-90.198845,29.67206],[-90.199402,29.672605],[-90.19807,29.673881],[-90.19214,29.680565],[-90.190063,29.681846],[-90.189079,29.68325],[-90.192495,29.686806],[-90.193394,29.689506],[-90.194194,29.690205],[-90.198796,29.689702],[-90.200393,29.688507],[-90.20269,29.689506],[-90.20259,29.691606],[-90.226074,29.691814],[-90.228157,29.692028],[-90.315965,29.692448],[-90.316005,29.689453],[-90.317213,29.685902],[-90.317371,29.684182],[-90.315917,29.680988],[-90.312461,29.678349],[-90.309427,29.677568],[-90.306222,29.678459],[-90.303591,29.678112],[-90.303194,29.677463],[-90.29999,29.676562],[-90.301678,29.674918],[-90.301137,29.673126],[-90.302125,29.671004],[-90.304876,29.671285],[-90.309244,29.670543],[-90.312732,29.668141],[-90.315231,29.663468],[-90.317239,29.661138],[-90.315432,29.657576],[-90.314272,29.656561],[-90.318912,29.652933],[-90.330865,29.644313],[-90.332987,29.643321],[-90.335487,29.640177],[-90.336984,29.639738],[-90.360727,29.625546],[-90.370473,29.619699],[-90.387495,29.60822],[-90.396898,29.602937],[-90.397622,29.602855],[-90.397035,29.606544],[-90.397788,29.609337],[-90.400007,29.614445],[-90.402887,29.617959],[-90.404529,29.618855],[-90.409404,29.620105],[-90.41226,29.621969],[-90.416047,29.625405],[-90.417952,29.628281],[-90.418763,29.632657],[-90.437528,29.632829],[-90.439793,29.629783],[-90.443191,29.628612],[-90.443426,29.627497],[-90.441753,29.625625],[-90.44256,29.623388],[-90.441512,29.621235],[-90.437106,29.619791],[-90.4348,29.611934],[-90.434276,29.611315],[-90.422466,29.6073],[-90.419295,29.605824],[-90.416255,29.602762],[-90.412368,29.601513],[-90.406645,29.597608],[-90.403023,29.593374],[-90.397747,29.590206],[-90.394277,29.586169],[-90.396007,29.580664],[-90.397703,29.580967],[-90.40484,29.580947],[-90.409225,29.581187],[-90.410993,29.582887],[-90.415463,29.58638],[-90.417468,29.582558],[-90.414217,29.580875],[-90.40435,29.577519],[-90.396804,29.575906],[-90.396782,29.576437],[-90.394267,29.576891],[-90.394394,29.575597],[-90.398978,29.575762],[-90.400094,29.576035],[-90.403474,29.57689],[-90.413437,29.580106],[-90.41679,29.581814],[-90.419471,29.582629],[-90.418151,29.581914],[-90.418377,29.58079],[-90.424156,29.562223],[-90.42589,29.559403],[-90.425265,29.558233],[-90.420574,29.558766],[-90.414457,29.557154],[-90.412381,29.556999],[-90.41253,29.552294],[-90.416463,29.553009],[-90.431937,29.555193],[-90.434647,29.555754],[-90.446481,29.557536],[-90.453455,29.558135],[-90.454141,29.557682],[-90.476994,29.529375],[-90.478044,29.529355],[-90.480233,29.533329],[-90.484854,29.533042],[-90.485432,29.532602],[-90.485695,29.530435],[-90.483418,29.528759],[-90.48333,29.526571],[-90.484253,29.52595],[-90.486572,29.521011],[-90.489062,29.519344]]]}},{"type":"Feature","properties":{"zcta5":"70355","AFFGEOID10":"8600000US70355","GEOID10":"70355","ALAND10":268690997,"AWATER10":10917993,"county_name":"Lafourche","state_code":"LA","county_state":"Lafourche County, LA","county_fips":"22057","risk_level_county":"Higher Risk (60–69% vaccinated)","mean_vaccination_rate_county":68.98,"risk_level_zcta":"Very High Risk (<60% vaccinated)","mean_vaccination_rate_zips":55.81,"cases":1},"geometry":{"type":"Polygon","coordinates":[[[-90.504815,29.766042],[-90.528985,29.742861],[-90.533902,29.737996],[-90.534248,29.737391],[-90.534309,29.735619],[-90.517021,29.714301],[-90.512231,29.703256],[-90.523923,29.698388],[-90.527618,29.696929],[-90.52484,29.682075],[-90.528173,29.681192],[-90.503453,29.659066],[-90.506,29.658199],[-90.499634,29.654737],[-90.496814,29.652175],[-90.484892,29.642154],[-90.482724,29.639094],[-90.481788,29.636318],[-90.480049,29.633165],[-90.470589,29.623806],[-90.469336,29.622683],[-90.452778,29.617407],[-90.450457,29.619682],[-90.447936,29.620098],[-90.445444,29.619654],[-90.443399,29.620067],[-90.441512,29.621235],[-90.44256,29.623388],[-90.441753,29.625625],[-90.443426,29.627497],[-90.443191,29.628612],[-90.439793,29.629783],[-90.437528,29.632829],[-90.418763,29.632657],[-90.417952,29.628281],[-90.416047,29.625405],[-90.41226,29.621969],[-90.409404,29.620105],[-90.404529,29.618855],[-90.402887,29.617959],[-90.400007,29.614445],[-90.397788,29.609337],[-90.397035,29.606544],[-90.397622,29.602855],[-90.396898,29.602937],[-90.387495,29.60822],[-90.370473,29.619699],[-90.360727,29.625546],[-90.336984,29.639738],[-90.335487,29.640177],[-90.332987,29.643321],[-90.330865,29.644313],[-90.318912,29.652933],[-90.314272,29.656561],[-90.315432,29.657576],[-90.317239,29.661138],[-90.315231,29.663468],[-90.312732,29.668141],[-90.309244,29.670543],[-90.304876,29.671285],[-90.302125,29.671004],[-90.301137,29.673126],[-90.301678,29.674918],[-90.29999,29.676562],[-90.303194,29.677463],[-90.303591,29.678112],[-90.306222,29.678459],[-90.309427,29.677568],[-90.312461,29.678349],[-90.315917,29.680988],[-90.317371,29.684182],[-90.317213,29.685902],[-90.316005,29.689453],[-90.315965,29.692448],[-90.317649,29.692434],[-90.346191,29.693302],[-90.349423,29.69539],[-90.351203,29.695211],[-90.35277,29.695889],[-90.353524,29.697879],[-90.357391,29.701828],[-90.360954,29.706245],[-90.361794,29.70941],[-90.361274,29.713975],[-90.360694,29.716182],[-90.360804,29.720895],[-90.360206,29.724496],[-90.361396,29.726909],[-90.363052,29.729125],[-90.363296,29.731323],[-90.362228,29.734491],[-90.361152,29.73537],[-90.360794,29.737054],[-90.36238,29.740064],[-90.364181,29.741985],[-90.366493,29.743518],[-90.368316,29.744249],[-90.370933,29.746192],[-90.371612,29.747501],[-90.372367,29.751214],[-90.371978,29.759239],[-90.374778,29.762611],[-90.376701,29.763774],[-90.380678,29.765196],[-90.392089,29.767416],[-90.395683,29.769811],[-90.397295,29.770378],[-90.401214,29.771705],[-90.404823,29.774147],[-90.407356,29.773862],[-90.409286,29.772195],[-90.415817,29.774372],[-90.419013,29.775682],[-90.424387,29.776686],[-90.427142,29.775774],[-90.429887,29.776387],[-90.438613,29.782823],[-90.442703,29.787363],[-90.446693,29.790386],[-90.450759,29.791738],[-90.454032,29.793273],[-90.457946,29.795595],[-90.462944,29.800794],[-90.467757,29.803242],[-90.469132,29.801319],[-90.504815,29.766042]]]}},{"type":"Feature","properties":{"zcta5":"70343","AFFGEOID10":"8600000US70343","GEOID10":"70343","ALAND10":74929580,"AWATER10":1276158,"county_name":"Lafourche","state_code":"LA","county_state":"Lafourche County, LA","county_fips":"22057","risk_level_county":"Higher Risk (60–69% vaccinated)","mean_vaccination_rate_county":68.98,"risk_level_zcta":"Very High Risk (<60% vaccinated)","mean_vaccination_rate_zips":55.35,"cases":1},"geometry":{"type":"Polygon","coordinates":[[[-90.648818,29.593451],[-90.649536,29.579918],[-90.650452,29.578285],[-90.647466,29.576611],[-90.642151,29.572869],[-90.640754,29.570742],[-90.643482,29.567679],[-90.645187,29.565226],[-90.646382,29.565291],[-90.647449,29.563807],[-90.646011,29.562742],[-90.643158,29.557756],[-90.64061,29.555406],[-90.63649,29.552411],[-90.632431,29.548349],[-90.631104,29.546656],[-90.629462,29.547038],[-90.626356,29.544294],[-90.622769,29.541897],[-90.61355,29.539316],[-90.611654,29.5351],[-90.607711,29.538601],[-90.606932,29.539928],[-90.604423,29.53828],[-90.598212,29.536929],[-90.59397,29.535135],[-90.590721,29.531434],[-90.591191,29.524355],[-90.591034,29.523668],[-90.58755,29.519912],[-90.586947,29.518125],[-90.584877,29.516705],[-90.58354,29.512674],[-90.575686,29.519091],[-90.575474,29.519272],[-90.570523,29.515264],[-90.559733,29.50791],[-90.55718,29.506467],[-90.558602,29.507876],[-90.567377,29.513582],[-90.570795,29.516246],[-90.56884,29.518887],[-90.568228,29.520576],[-90.570445,29.5228],[-90.57186,29.526053],[-90.568219,29.533155],[-90.573752,29.533157],[-90.574352,29.53172],[-90.576999,29.531244],[-90.57786,29.532826],[-90.568727,29.536496],[-90.568408,29.535195],[-90.559068,29.53575],[-90.556553,29.535105],[-90.550791,29.531265],[-90.546335,29.527135],[-90.544147,29.52415],[-90.542681,29.520028],[-90.541974,29.519065],[-90.537287,29.515101],[-90.536109,29.513039],[-90.53653,29.511047],[-90.534755,29.511066],[-90.532401,29.513013],[-90.529735,29.514709],[-90.527659,29.515556],[-90.525292,29.515969],[-90.525833,29.517908],[-90.525023,29.519064],[-90.523506,29.519809],[-90.520927,29.522838],[-90.520837,29.513926],[-90.506193,29.514352],[-90.499276,29.523354],[-90.497691,29.522261],[-90.494409,29.521185],[-90.491768,29.519311],[-90.489062,29.519344],[-90.486572,29.521011],[-90.484253,29.52595],[-90.48333,29.526571],[-90.483418,29.528759],[-90.485695,29.530435],[-90.485432,29.532602],[-90.484854,29.533042],[-90.480233,29.533329],[-90.478044,29.529355],[-90.476994,29.529375],[-90.454141,29.557682],[-90.524676,29.560516],[-90.528581,29.560375],[-90.545874,29.56134],[-90.547129,29.561003],[-90.550821,29.561168],[-90.55416,29.561839],[-90.559191,29.563594],[-90.565461,29.566964],[-90.57475,29.570906],[-90.585524,29.576101],[-90.587298,29.575441],[-90.590038,29.576841],[-90.589067,29.57767],[-90.605521,29.576241],[-90.61241,29.575825],[-90.618709,29.576407],[-90.61961,29.576756],[-90.630388,29.582516],[-90.634258,29.585062],[-90.648818,29.593451]]]}},{"type":"Feature","properties":{"zcta5":"70377","AFFGEOID10":"8600000US70377","GEOID10":"70377","ALAND10":342434650,"AWATER10":247902397,"county_name":"Lafourche","state_code":"LA","county_state":"Lafourche County, LA","county_fips":"22057","risk_level_county":"Higher Risk (60–69% vaccinated)","mean_vaccination_rate_county":68.98,"risk_level_zcta":"Very High Risk (<60% vaccinated)","mean_vaccination_rate_zips":55.81,"cases":1},"geometry":{"type":"MultiPolygon","coordinates":[[[[-90.40940859656389,29.209099867030297],[-90.410755,29.210682],[-90.4123,29.210267],[-90.414439,29.207985],[-90.413132,29.204147],[-90.410874,29.202695],[-90.40941107404159,29.2032844313328],[-90.40940859656389,29.209099867030297]]],[[[-90.444387,29.262532],[-90.444862,29.261081],[-90.442961,29.254342],[-90.441416,29.252061],[-90.439396,29.252579],[-90.437256,29.25289],[-90.435117,29.253409],[-90.436781,29.25569],[-90.439396,29.25683],[-90.442248,29.260666],[-90.444387,29.262532]]],[[[-90.58354,29.512674],[-90.582702,29.51201],[-90.579716,29.511735],[-90.575891,29.505183],[-90.575292,29.503134],[-90.573141,29.501586],[-90.570124,29.497712],[-90.569968,29.495488],[-90.567217,29.492394],[-90.566668,29.490676],[-90.566982,29.489118],[-90.568501,29.487469],[-90.570831,29.485843],[-90.571355,29.484033],[-90.57245,29.483145],[-90.572105,29.481547],[-90.574952,29.478966],[-90.575511,29.47584],[-90.573397,29.47432],[-90.575463,29.444813],[-90.575489,29.442934],[-90.574049,29.437665],[-90.575331,29.436634],[-90.57609,29.434022],[-90.577189,29.432831],[-90.581481,29.431662],[-90.586164,29.42078],[-90.594455,29.40685],[-90.595213,29.40504],[-90.594034,29.398741],[-90.595382,29.39522],[-90.596439,29.394272],[-90.599499,29.392805],[-90.601801,29.390308],[-90.602166,29.38891],[-90.605383,29.386274],[-90.606622,29.384454],[-90.610376,29.379881],[-90.613509,29.37791],[-90.614489,29.378009],[-90.601419,29.367841],[-90.60252,29.365994],[-90.60376,29.364915],[-90.607925,29.363383],[-90.608909,29.362289],[-90.610155,29.360151],[-90.61479,29.354292],[-90.619295,29.343221],[-90.621298,29.336175],[-90.622601,29.332372],[-90.626045,29.327884],[-90.627558,29.323838],[-90.627435,29.317321],[-90.625398,29.312198],[-90.625289,29.310124],[-90.626234,29.30758],[-90.626239,29.304924],[-90.626013,29.303747],[-90.623501,29.298337],[-90.622595,29.292912],[-90.62241,29.287626],[-90.621574,29.284817],[-90.620752,29.283298],[-90.617512,29.279204],[-90.613582,29.276859],[-90.608107,29.274514],[-90.60539,29.271706],[-90.60292,29.268726],[-90.600417,29.266957],[-90.598173,29.264428],[-90.592864,29.257043],[-90.590985,29.254146],[-90.5909100231482,29.250376001542598],[-90.589728,29.253305],[-90.589015,29.260148],[-90.587945,29.271344],[-90.600067,29.288551],[-90.597809,29.296947],[-90.599235,29.299538],[-90.597571,29.303268],[-90.590489,29.305258],[-90.588896,29.308035],[-90.582954,29.312181],[-90.579627,29.311662],[-90.577012,29.313217],[-90.570833,29.308968],[-90.566198,29.30389],[-90.554314,29.285235],[-90.55063,29.286582],[-90.54647,29.293837],[-90.536963,29.296014],[-90.53221,29.303165],[-90.523178,29.304201],[-90.513314,29.302025],[-90.505233,29.305134],[-90.501311,29.300988],[-90.493111,29.294252],[-90.479088,29.292179],[-90.474097,29.297258],[-90.469462,29.29819],[-90.466491,29.30047],[-90.466016,29.30845],[-90.462332,29.310833],[-90.459902,29.31222],[-90.458648,29.313838],[-90.455796,29.314564],[-90.454369,29.317983],[-90.451636,29.321506],[-90.450804,29.324407],[-90.45128,29.326583],[-90.452825,29.32793],[-90.455201,29.32907],[-90.45734,29.332074],[-90.458172,29.335804],[-90.460311,29.337462],[-90.458767,29.338601],[-90.456627,29.340362],[-90.455201,29.343263],[-90.451517,29.344506],[-90.447358,29.347614],[-90.441891,29.348857],[-90.440227,29.349375],[-90.434404,29.348546],[-90.432265,29.346889],[-90.429294,29.345749],[-90.430126,29.344092],[-90.430126,29.341606],[-90.428344,29.335701],[-90.424897,29.329173],[-90.419668,29.3242],[-90.406239,29.313631],[-90.402555,29.312181],[-90.399703,29.311144],[-90.397564,29.310004],[-90.397683,29.306481],[-90.396851,29.304201],[-90.393999,29.299019],[-90.392929,29.296636],[-90.395781,29.293526],[-90.395544,29.289795],[-90.39697,29.287411],[-90.398515,29.285338],[-90.397207,29.281503],[-90.398769,29.277872],[-90.398871,29.274869],[-90.39711298610959,29.2665850254558],[-90.394559,29.268522],[-90.392081,29.271733],[-90.39044,29.276177],[-90.389554,29.277438],[-90.383628,29.281567],[-90.383945,29.285162],[-90.383222,29.287543],[-90.38376,29.289938],[-90.382981,29.293383],[-90.3831,29.295614],[-90.379978,29.299424],[-90.378332,29.300262],[-90.376666,29.302883],[-90.376573,29.304801],[-90.377943,29.309222],[-90.378491,29.311186],[-90.380901,29.315761],[-90.381981,29.317066],[-90.382854,29.319449],[-90.385281,29.322619],[-90.386473,29.324743],[-90.386034,29.32693],[-90.383758,29.330227],[-90.382082,29.334418],[-90.382026,29.339938],[-90.38226,29.343329],[-90.381526,29.345436],[-90.379589,29.349054],[-90.379875,29.351872],[-90.380945,29.355515],[-90.383087,29.359067],[-90.383739,29.361357],[-90.384285,29.365755],[-90.384834,29.366878],[-90.385539,29.367749],[-90.392466,29.373616],[-90.395061,29.37663],[-90.396107,29.378838],[-90.397347,29.380156],[-90.403304,29.38423],[-90.407846,29.385251],[-90.418556,29.390037],[-90.421882,29.393733],[-90.424536,29.397571],[-90.426704,29.400092],[-90.430695,29.402905],[-90.435163,29.406833],[-90.439157,29.4117],[-90.441379,29.413285],[-90.444256,29.414597],[-90.446861,29.416843],[-90.446333,29.418503],[-90.445903,29.421959],[-90.441626,29.439124],[-90.442487,29.440903],[-90.444423,29.443621],[-90.445001,29.445557],[-90.444852,29.446955],[-90.443136,29.449279],[-90.441659,29.452035],[-90.440356,29.456823],[-90.438796,29.460162],[-90.43767,29.463609],[-90.438999,29.464671],[-90.459851,29.479895],[-90.464153,29.482562],[-90.467186,29.485663],[-90.506168,29.50641],[-90.489062,29.519344],[-90.491768,29.519311],[-90.494409,29.521185],[-90.497691,29.522261],[-90.499276,29.523354],[-90.506193,29.514352],[-90.520837,29.513926],[-90.520927,29.522838],[-90.523506,29.519809],[-90.525023,29.519064],[-90.525833,29.517908],[-90.525292,29.515969],[-90.527659,29.515556],[-90.529735,29.514709],[-90.532401,29.513013],[-90.534755,29.511066],[-90.53653,29.511047],[-90.536109,29.513039],[-90.537287,29.515101],[-90.541974,29.519065],[-90.542681,29.520028],[-90.544147,29.52415],[-90.546335,29.527135],[-90.550791,29.531265],[-90.556553,29.535105],[-90.559068,29.53575],[-90.568408,29.535195],[-90.568727,29.536496],[-90.57786,29.532826],[-90.576999,29.531244],[-90.574352,29.53172],[-90.573752,29.533157],[-90.568219,29.533155],[-90.57186,29.526053],[-90.570445,29.5228],[-90.568228,29.520576],[-90.56884,29.518887],[-90.570795,29.516246],[-90.567377,29.513582],[-90.558602,29.507876],[-90.55718,29.506467],[-90.559733,29.50791],[-90.570523,29.515264],[-90.575474,29.519272],[-90.575686,29.519091],[-90.58354,29.512674]]]]}}]}