{"type":"FeatureCollection","features":[{"type":"Feature","properties":{"zcta5":"57054","AFFGEOID10":"8600000US57054","GEOID10":"57054","ALAND10":298605433,"AWATER10":957422,"county_name":"Lake","state_code":"SD","county_state":"Lake County, SD","county_fips":"46079","risk_level_county":"Medium Risk (70–79% vaccinated)","mean_vaccination_rate_county":77.54,"risk_level_zcta":"Very High Risk (<60% vaccinated)","mean_vaccination_rate_zips":57.7,"cases":16},"geometry":{"type":"Polygon","coordinates":[[[-97.370115,44.194971],[-97.370067,44.008182],[-97.361158,44.008273],[-97.354624,44.00805],[-97.329272,44.00804],[-97.329169,44.036946],[-97.318551,44.036924],[-97.318507,44.044476],[-97.299477,44.044563],[-97.299567,44.065832],[-97.249203,44.066012],[-97.24902,44.051492],[-97.230041,44.051335],[-97.230475,44.094943],[-97.19015,44.094676],[-97.190303,44.109236],[-97.109771,44.109022],[-97.109844,44.123567],[-97.089762,44.123619],[-97.08993,44.13813],[-97.109852,44.138008],[-97.109991,44.152526],[-97.090009,44.152625],[-97.090032,44.195796],[-97.129671,44.195933],[-97.189923,44.195882],[-97.271782,44.196069],[-97.271838,44.196075],[-97.370115,44.194971]]]}},{"type":"Feature","properties":{"zcta5":"57018","AFFGEOID10":"8600000US57018","GEOID10":"57018","ALAND10":211711045,"AWATER10":3881205,"county_name":"Lake","state_code":"SD","county_state":"Lake County, SD","county_fips":"46079","risk_level_county":"Medium Risk (70–79% vaccinated)","mean_vaccination_rate_county":77.54,"risk_level_zcta":"Lowest Risk (85%+)","mean_vaccination_rate_zips":86.45,"cases":16},"geometry":{"type":"Polygon","coordinates":[[[-97.129089,43.847973],[-97.129189,43.775578],[-97.049408,43.776142],[-97.049431,43.790745],[-97.029526,43.790699],[-97.029533,43.761547],[-97.009636,43.76137],[-97.000917,43.761567],[-96.990692,43.761562],[-96.990707,43.747047],[-96.950737,43.746857],[-96.950584,43.732346],[-96.930656,43.732296],[-96.93058,43.71777],[-96.910553,43.717762],[-96.910629,43.73225],[-96.89061,43.73217],[-96.871208,43.732121],[-96.871239,43.746613],[-96.851181,43.746628],[-96.851357,43.775505],[-96.871437,43.775528],[-96.871254,43.833736],[-96.89048,43.833763],[-96.890221,43.848362],[-96.928825,43.848351],[-96.941951,43.848391],[-96.943858,43.848304],[-97.029152,43.848209],[-97.129089,43.847973]]]}},{"type":"Feature","properties":{"zcta5":"57057","AFFGEOID10":"8600000US57057","GEOID10":"57057","ALAND10":74555488,"AWATER10":258586,"county_name":"Lake","state_code":"SD","county_state":"Lake County, SD","county_fips":"46079","risk_level_county":"Medium Risk (70–79% vaccinated)","mean_vaccination_rate_county":77.54,"risk_level_zcta":"Medium Risk (70–79% vaccinated)","mean_vaccination_rate_zips":71.05,"cases":16},"geometry":{"type":"Polygon","coordinates":[[[-97.049363,44.109064],[-97.049082,44.094841],[-97.029044,44.094587],[-97.029083,44.06559],[-97.008545,44.065623],[-96.989362,44.066266],[-96.949155,44.065986],[-96.949312,44.080516],[-96.888762,44.080546],[-96.888648,44.138364],[-96.908724,44.138497],[-96.969493,44.138279],[-96.969362,44.133307],[-96.969545,44.126333],[-96.969384,44.123777],[-97.009185,44.123594],[-97.009121,44.109076],[-97.049363,44.109064]]]}},{"type":"Feature","properties":{"zcta5":"57076","AFFGEOID10":"8600000US57076","GEOID10":"57076","ALAND10":320609174,"AWATER10":198748,"county_name":"Lake","state_code":"SD","county_state":"Lake County, SD","county_fips":"46079","risk_level_county":"Medium Risk (70–79% vaccinated)","mean_vaccination_rate_county":77.54,"risk_level_zcta":"Higher Risk (60–69% vaccinated)","mean_vaccination_rate_zips":69.63,"cases":16},"geometry":{"type":"Polygon","coordinates":[[[-97.450651,44.194899],[-97.451142,44.182274],[-97.450925,44.15321],[-97.430802,44.153122],[-97.430592,44.095087],[-97.450929,44.094969],[-97.450809,44.080473],[-97.43052,44.080562],[-97.430022,43.935491],[-97.429651,43.906515],[-97.399024,43.906483],[-97.398941,43.913082],[-97.38961,43.913166],[-97.38958,43.906509],[-97.369678,43.906509],[-97.369463,43.848526],[-97.30928,43.848481],[-97.248918,43.848319],[-97.249118,43.849412],[-97.248886,43.920764],[-97.269028,43.920629],[-97.268857,43.941751],[-97.268817,43.947097],[-97.268868,44.007812],[-97.329272,44.00804],[-97.354624,44.00805],[-97.361158,44.008273],[-97.370067,44.008182],[-97.370115,44.194971],[-97.450651,44.194899]]]}},{"type":"Feature","properties":{"zcta5":"57042","AFFGEOID10":"8600000US57042","GEOID10":"57042","ALAND10":531093970,"AWATER10":11468027,"county_name":"Lake","state_code":"SD","county_state":"Lake County, SD","county_fips":"46079","risk_level_county":"Medium Risk (70–79% vaccinated)","mean_vaccination_rate_county":77.54,"risk_level_zcta":"Medium Risk (70–79% vaccinated)","mean_vaccination_rate_zips":70.85,"cases":16},"geometry":{"type":"Polygon","coordinates":[[[-97.089762,44.123619],[-97.109844,44.123567],[-97.109771,44.109022],[-97.190303,44.109236],[-97.19015,44.094676],[-97.230475,44.094943],[-97.230041,44.051335],[-97.24902,44.051492],[-97.249203,44.066012],[-97.299567,44.065832],[-97.299477,44.044563],[-97.318507,44.044476],[-97.318551,44.036924],[-97.329169,44.036946],[-97.329272,44.00804],[-97.268868,44.007812],[-97.268817,43.947097],[-97.268857,43.941751],[-97.269028,43.920629],[-97.248886,43.920764],[-97.249118,43.849412],[-97.248918,43.848319],[-97.129089,43.847973],[-97.029152,43.848209],[-97.02896,43.89163],[-97.049054,43.89164],[-97.049051,43.904244],[-97.048205,43.904231],[-97.048134,43.906117],[-97.028971,43.906129],[-97.029015,43.920594],[-97.008972,43.920621],[-97.008855,43.937296],[-97.015025,43.939766],[-97.019059,43.941736],[-97.022025,43.943926],[-97.026929,43.94849],[-97.029076,43.949563],[-97.02917,43.957647],[-97.030265,43.959621],[-97.032493,43.959605],[-97.034812,43.960658],[-97.037404,43.96031],[-97.039213,43.960576],[-97.039983,43.961482],[-97.039745,43.962699],[-97.037181,43.964355],[-97.03714,43.965],[-97.042586,43.964665],[-97.045733,43.964989],[-97.047018,43.966135],[-97.047942,43.96868],[-97.047304,43.977023],[-97.040317,43.976383],[-97.036278,43.974035],[-97.03872,43.972493],[-97.038275,43.972001],[-97.034542,43.973931],[-97.032678,43.974108],[-97.029326,43.973114],[-97.027639,43.971803],[-97.026316,43.969965],[-97.0221,43.969903],[-97.020124,43.968705],[-97.016169,43.965186],[-97.016873,43.962398],[-97.016451,43.961637],[-97.015628,43.964155],[-97.014175,43.964151],[-97.01419,43.965906],[-97.017241,43.966981],[-97.017302,43.967835],[-97.019207,43.968676],[-97.019054,43.97163],[-97.019186,43.977954],[-97.018691,43.978658],[-97.026964,43.978772],[-97.049336,43.980115],[-97.049343,44.036785],[-97.029203,44.036491],[-97.029083,44.06559],[-97.029044,44.094587],[-97.049082,44.094841],[-97.049363,44.109064],[-97.049566,44.123602],[-97.089762,44.123619]]]}},{"type":"Feature","properties":{"zcta5":"57075","AFFGEOID10":"8600000US57075","GEOID10":"57075","ALAND10":175989931,"AWATER10":10697164,"county_name":"Lake","state_code":"SD","county_state":"Lake County, SD","county_fips":"46079","risk_level_county":"Medium Risk (70–79% vaccinated)","mean_vaccination_rate_county":77.54,"risk_level_zcta":"Higher Risk (60–69% vaccinated)","mean_vaccination_rate_zips":69.89,"cases":16},"geometry":{"type":"Polygon","coordinates":[[[-97.029083,44.06559],[-97.029203,44.036491],[-97.049343,44.036785],[-97.049336,43.980115],[-97.026964,43.978772],[-97.018691,43.978658],[-97.019186,43.977954],[-97.019054,43.97163],[-97.019207,43.968676],[-97.017302,43.967835],[-97.017241,43.966981],[-97.01419,43.965906],[-97.014175,43.964151],[-97.015628,43.964155],[-97.016451,43.961637],[-97.016873,43.962398],[-97.016169,43.965186],[-97.020124,43.968705],[-97.0221,43.969903],[-97.026316,43.969965],[-97.027639,43.971803],[-97.029326,43.973114],[-97.032678,43.974108],[-97.034542,43.973931],[-97.038275,43.972001],[-97.03872,43.972493],[-97.036278,43.974035],[-97.040317,43.976383],[-97.047304,43.977023],[-97.047942,43.96868],[-97.047018,43.966135],[-97.045733,43.964989],[-97.042586,43.964665],[-97.03714,43.965],[-97.037181,43.964355],[-97.039745,43.962699],[-97.039983,43.961482],[-97.039213,43.960576],[-97.037404,43.96031],[-97.034812,43.960658],[-97.032493,43.959605],[-97.030265,43.959621],[-97.02917,43.957647],[-97.029076,43.949563],[-97.026929,43.94849],[-97.022025,43.943926],[-97.019059,43.941736],[-97.015025,43.939766],[-97.008855,43.937296],[-97.008972,43.920621],[-96.989168,43.920662],[-96.98915,43.90617],[-96.96908,43.906214],[-96.969191,43.935206],[-96.929183,43.935287],[-96.929116,43.949858],[-96.909084,43.949781],[-96.909067,43.935283],[-96.888863,43.935295],[-96.888762,44.080546],[-96.949312,44.080516],[-96.949155,44.065986],[-96.989362,44.066266],[-97.008545,44.065623],[-97.029083,44.06559]]]}},{"type":"Feature","properties":{"zcta5":"57050","AFFGEOID10":"8600000US57050","GEOID10":"57050","ALAND10":103561153,"AWATER10":2171638,"county_name":"Lake","state_code":"SD","county_state":"Lake County, SD","county_fips":"46079","risk_level_county":"Medium Risk (70–79% vaccinated)","mean_vaccination_rate_county":77.54,"risk_level_zcta":"Higher Risk (60–69% vaccinated)","mean_vaccination_rate_zips":62.86,"cases":16},"geometry":{"type":"Polygon","coordinates":[[[-97.090032,44.195796],[-97.090009,44.152625],[-97.109991,44.152526],[-97.109852,44.138008],[-97.08993,44.13813],[-97.089762,44.123619],[-97.049566,44.123602],[-97.049363,44.109064],[-97.009121,44.109076],[-97.009185,44.123594],[-96.969384,44.123777],[-96.969545,44.126333],[-96.969362,44.133307],[-96.969493,44.138279],[-96.908724,44.138497],[-96.908958,44.167415],[-96.949114,44.167357],[-96.949712,44.195508],[-96.949766,44.195671],[-97.049265,44.195781],[-97.090032,44.195796]]]}},{"type":"Feature","properties":{"zcta5":"57071","AFFGEOID10":"8600000US57071","GEOID10":"57071","ALAND10":308905148,"AWATER10":3991801,"county_name":"Lake","state_code":"SD","county_state":"Lake County, SD","county_fips":"46079","risk_level_county":"Medium Risk (70–79% vaccinated)","mean_vaccination_rate_county":77.54,"risk_level_zcta":"Lower Risk (80–84% vaccinated)","mean_vaccination_rate_zips":82.66,"cases":16},"geometry":{"type":"Polygon","coordinates":[[[-97.016979,44.383724],[-97.016888,44.369337],[-97.047375,44.36939],[-97.04823,44.32599],[-97.068725,44.325847],[-97.068661,44.296959],[-97.058334,44.297024],[-97.058337,44.289527],[-97.068613,44.289253],[-97.068718,44.275203],[-97.073623,44.275201],[-97.070692,44.273444],[-97.068837,44.273627],[-97.069463,44.249964],[-97.064476,44.249986],[-97.064383,44.246464],[-97.059204,44.246427],[-97.059196,44.239314],[-97.048993,44.239157],[-97.049013,44.246337],[-97.046692,44.244532],[-97.046693,44.245539],[-97.039024,44.245557],[-97.038963,44.239213],[-97.039129,44.224667],[-97.049102,44.224537],[-97.049265,44.195781],[-96.949766,44.195671],[-96.949712,44.195508],[-96.949114,44.167357],[-96.908958,44.167415],[-96.908724,44.138497],[-96.888648,44.138364],[-96.888946,44.143515],[-96.88903,44.167229],[-96.889216,44.195705],[-96.8654,44.195586],[-96.866214,44.197324],[-96.865313,44.199408],[-96.861825,44.201337],[-96.859728,44.203347],[-96.858027,44.203935],[-96.856843,44.205591],[-96.850467,44.209835],[-96.84779,44.210753],[-96.843244,44.214589],[-96.844642,44.21511],[-96.845195,44.21657],[-96.842901,44.217849],[-96.842849,44.218594],[-96.83751,44.223265],[-96.842489,44.223602],[-96.843475,44.225773],[-96.840107,44.22822],[-96.83813,44.230416],[-96.831856,44.229871],[-96.830326,44.228136],[-96.828052,44.227401],[-96.828186,44.239367],[-96.848392,44.239379],[-96.849113,44.268398],[-96.888457,44.268318],[-96.88825,44.297254],[-96.880247,44.297325],[-96.880664,44.3117],[-96.875846,44.311332],[-96.870862,44.312045],[-96.873643,44.312535],[-96.875989,44.311472],[-96.877497,44.312547],[-96.875767,44.314056],[-96.877245,44.315055],[-96.879621,44.31553],[-96.878619,44.316727],[-96.877229,44.316249],[-96.876313,44.318121],[-96.876951,44.318644],[-96.878921,44.318017],[-96.881484,44.318316],[-96.882959,44.319641],[-96.888069,44.319629],[-96.88792,44.325972],[-96.898544,44.325924],[-96.898517,44.357297],[-96.897376,44.362044],[-96.899756,44.36309],[-96.899594,44.366816],[-96.900613,44.367731],[-96.902818,44.366077],[-96.906293,44.367085],[-96.909868,44.366725],[-96.910411,44.367255],[-96.911401,44.368631],[-96.910787,44.369757],[-96.947682,44.369612],[-96.947607,44.384167],[-97.016979,44.383724]]]}},{"type":"Feature","properties":{"zcta5":"57022","AFFGEOID10":"8600000US57022","GEOID10":"57022","ALAND10":339558892,"AWATER10":1437288,"county_name":"Lake","state_code":"SD","county_state":"Lake County, SD","county_fips":"46079","risk_level_county":"Medium Risk (70–79% vaccinated)","mean_vaccination_rate_county":77.54,"risk_level_zcta":"Lower Risk (80–84% vaccinated)","mean_vaccination_rate_zips":80.61,"cases":16},"geometry":{"type":"MultiPolygon","coordinates":[[[[-96.596992,43.877015],[-96.597444,43.87413],[-96.597069,43.869461],[-96.567219,43.869488],[-96.56724,43.877057],[-96.557128,43.876881],[-96.556839,43.905834],[-96.566869,43.906057],[-96.567061,43.891532],[-96.587161,43.891479],[-96.587261,43.876995],[-96.596992,43.877015]]],[[[-96.888589,43.874247],[-96.889375,43.875614],[-96.893146,43.875794],[-96.896365,43.878246],[-96.901253,43.877908],[-96.90393,43.879435],[-96.907847,43.878835],[-96.909627,43.879704],[-96.912831,43.879781],[-96.916478,43.880796],[-96.918729,43.880549],[-96.922381,43.878435],[-96.922988,43.87725],[-96.925593,43.875296],[-96.925881,43.873591],[-96.927625,43.87217],[-96.929193,43.865048],[-96.928727,43.861843],[-96.928825,43.848351],[-96.890221,43.848362],[-96.89048,43.833763],[-96.871254,43.833736],[-96.871437,43.775528],[-96.851357,43.775505],[-96.811226,43.775478],[-96.811241,43.786861],[-96.811104,43.789989],[-96.791153,43.790054],[-96.791183,43.768299],[-96.781041,43.768383],[-96.781052,43.764614],[-96.780205,43.761105],[-96.77124,43.76112],[-96.771133,43.790085],[-96.759804,43.790051],[-96.750275,43.790604],[-96.746003,43.790514],[-96.743716,43.787327],[-96.745002,43.78567],[-96.742603,43.783832],[-96.743575,43.781515],[-96.743293,43.780354],[-96.741662,43.779603],[-96.738944,43.78025],[-96.739056,43.77918],[-96.740825,43.778378],[-96.74464,43.779008],[-96.745658,43.780975],[-96.747056,43.781019],[-96.748135,43.77899],[-96.750023,43.77745],[-96.750224,43.776183],[-96.747361,43.774567],[-96.744322,43.774668],[-96.740166,43.776609],[-96.736988,43.776403],[-96.738741,43.773962],[-96.73864,43.773016],[-96.736853,43.771409],[-96.739356,43.770882],[-96.741853,43.768936],[-96.742128,43.771212],[-96.744285,43.771818],[-96.74546,43.76956],[-96.741839,43.767687],[-96.741807,43.766412],[-96.740631,43.76559],[-96.737718,43.765758],[-96.737431,43.764827],[-96.735937,43.766954],[-96.729965,43.790138],[-96.731049,43.768283],[-96.726333,43.768313],[-96.726474,43.761189],[-96.691185,43.761246],[-96.671249,43.761314],[-96.670921,43.775341],[-96.669647,43.789383],[-96.651184,43.790436],[-96.633812,43.792606],[-96.612839,43.791],[-96.592238,43.790046],[-96.591911,43.782837],[-96.562175,43.782829],[-96.561914,43.826081],[-96.551956,43.825905],[-96.552017,43.847755],[-96.607803,43.847961],[-96.607366,43.877047],[-96.596992,43.877015],[-96.597008,43.884155],[-96.648041,43.884094],[-96.648086,43.891704],[-96.664538,43.891712],[-96.668073,43.893226],[-96.668134,43.906397],[-96.688116,43.906332],[-96.688278,43.920845],[-96.708255,43.920764],[-96.708422,43.935283],[-96.697721,43.935283],[-96.697731,43.942472],[-96.696413,43.944564],[-96.701602,43.949732],[-96.708366,43.94972],[-96.70825,43.964163],[-96.728372,43.964368],[-96.728803,43.978837],[-96.748458,43.979057],[-96.758355,43.978929],[-96.757901,43.964967],[-96.758446,43.92401],[-96.761293,43.92205],[-96.761021,43.920888],[-96.768676,43.920863],[-96.768619,43.913514],[-96.7712,43.913664],[-96.776967,43.915988],[-96.777915,43.917176],[-96.777407,43.92037],[-96.774558,43.921903],[-96.775545,43.923317],[-96.77868,43.92379],[-96.783075,43.923717],[-96.783991,43.924379],[-96.78395,43.928148],[-96.788767,43.928226],[-96.788761,43.906324],[-96.768581,43.906346],[-96.768531,43.891877],[-96.788691,43.891805],[-96.788546,43.877328],[-96.808514,43.877365],[-96.808363,43.862849],[-96.828529,43.86277],[-96.82866,43.848235],[-96.888664,43.848385],[-96.888589,43.874247]]]]}},{"type":"Feature","properties":{"zcta5":"57017","AFFGEOID10":"8600000US57017","GEOID10":"57017","ALAND10":325961884,"AWATER10":1502128,"county_name":"Lake","state_code":"SD","county_state":"Lake County, SD","county_fips":"46079","risk_level_county":"Medium Risk (70–79% vaccinated)","mean_vaccination_rate_county":77.54,"risk_level_zcta":"Higher Risk (60–69% vaccinated)","mean_vaccination_rate_zips":64.37,"cases":16},"geometry":{"type":"Polygon","coordinates":[[[-96.88903,44.167229],[-96.888946,44.143515],[-96.888648,44.138364],[-96.888762,44.080546],[-96.888863,43.935295],[-96.888805,43.874973],[-96.888589,43.874247],[-96.888664,43.848385],[-96.82866,43.848235],[-96.828529,43.86277],[-96.808363,43.862849],[-96.808514,43.877365],[-96.788546,43.877328],[-96.788691,43.891805],[-96.768531,43.891877],[-96.768581,43.906346],[-96.788761,43.906324],[-96.788767,43.928226],[-96.78395,43.928148],[-96.783991,43.924379],[-96.783075,43.923717],[-96.77868,43.92379],[-96.775545,43.923317],[-96.774558,43.921903],[-96.777407,43.92037],[-96.777915,43.917176],[-96.776967,43.915988],[-96.7712,43.913664],[-96.768619,43.913514],[-96.768676,43.920863],[-96.761021,43.920888],[-96.761293,43.92205],[-96.758446,43.92401],[-96.757901,43.964967],[-96.758355,43.978929],[-96.748458,43.979057],[-96.748392,44.000887],[-96.748864,44.00805],[-96.748702,44.022479],[-96.78875,44.022227],[-96.788741,44.044129],[-96.768633,44.044382],[-96.768723,44.058668],[-96.788789,44.058708],[-96.788888,44.065701],[-96.768721,44.065674],[-96.768579,44.109038],[-96.788717,44.10904],[-96.78876,44.116164],[-96.768643,44.116226],[-96.768999,44.152424],[-96.76907,44.166955],[-96.783806,44.166843],[-96.783821,44.16011],[-96.808985,44.160025],[-96.809068,44.167072],[-96.849449,44.167328],[-96.849477,44.160111],[-96.859547,44.160045],[-96.859572,44.167311],[-96.88903,44.167229]]]}},{"type":"Feature","properties":{"zcta5":"57051","AFFGEOID10":"8600000US57051","GEOID10":"57051","ALAND10":165110942,"AWATER10":4530351,"county_name":"Lake","state_code":"SD","county_state":"Lake County, SD","county_fips":"46079","risk_level_county":"Medium Risk (70–79% vaccinated)","mean_vaccination_rate_county":77.54,"risk_level_zcta":"Very High Risk (<60% vaccinated)","mean_vaccination_rate_zips":33.1,"cases":16},"geometry":{"type":"Polygon","coordinates":[[[-97.451325,44.281883],[-97.461843,44.28186],[-97.461958,44.231774],[-97.472034,44.231763],[-97.472158,44.238596],[-97.480893,44.238539],[-97.48093,44.231131],[-97.501539,44.231162],[-97.501491,44.223978],[-97.53198,44.224051],[-97.532,44.209545],[-97.51343,44.209525],[-97.51184,44.207256],[-97.511975,44.205506],[-97.511624,44.194936],[-97.450651,44.194899],[-97.370115,44.194971],[-97.271838,44.196075],[-97.271782,44.196069],[-97.189923,44.195882],[-97.189683,44.242962],[-97.194106,44.243318],[-97.194906,44.251742],[-97.200885,44.251102],[-97.207242,44.248643],[-97.20984,44.248645],[-97.209852,44.250702],[-97.220075,44.250677],[-97.22644,44.250896],[-97.228606,44.249248],[-97.234739,44.249154],[-97.238388,44.251855],[-97.239847,44.252367],[-97.24908,44.252277],[-97.249,44.253797],[-97.250865,44.253794],[-97.250849,44.269901],[-97.251258,44.278619],[-97.251992,44.279112],[-97.255947,44.279391],[-97.258699,44.281446],[-97.261289,44.280989],[-97.264694,44.281487],[-97.266998,44.282538],[-97.270923,44.282502],[-97.291008,44.2823],[-97.290969,44.289418],[-97.311101,44.289351],[-97.311141,44.282089],[-97.351588,44.281844],[-97.351539,44.260465],[-97.360496,44.260538],[-97.360491,44.252946],[-97.371073,44.252801],[-97.371087,44.238322],[-97.391276,44.238303],[-97.391307,44.223813],[-97.451648,44.223881],[-97.451698,44.259357],[-97.450638,44.260609],[-97.446312,44.262531],[-97.443511,44.265227],[-97.443254,44.270353],[-97.444046,44.272484],[-97.443044,44.278604],[-97.443707,44.281809],[-97.451325,44.281883]]]}},{"type":"Feature","properties":{"zcta5":"57016","AFFGEOID10":"8600000US57016","GEOID10":"57016","ALAND10":87338781,"AWATER10":5697844,"county_name":"Lake","state_code":"SD","county_state":"Lake County, SD","county_fips":"46079","risk_level_county":"Medium Risk (70–79% vaccinated)","mean_vaccination_rate_county":77.54,"risk_level_zcta":"Lowest Risk (85%+)","mean_vaccination_rate_zips":87.51,"cases":16},"geometry":{"type":"Polygon","coordinates":[[[-97.008972,43.920621],[-97.029015,43.920594],[-97.028971,43.906129],[-97.048134,43.906117],[-97.048205,43.904231],[-97.049051,43.904244],[-97.049054,43.89164],[-97.02896,43.89163],[-97.029152,43.848209],[-96.943858,43.848304],[-96.941951,43.848391],[-96.928825,43.848351],[-96.928727,43.861843],[-96.929193,43.865048],[-96.927625,43.87217],[-96.925881,43.873591],[-96.925593,43.875296],[-96.922988,43.87725],[-96.922381,43.878435],[-96.918729,43.880549],[-96.916478,43.880796],[-96.912831,43.879781],[-96.909627,43.879704],[-96.907847,43.878835],[-96.90393,43.879435],[-96.901253,43.877908],[-96.896365,43.878246],[-96.893146,43.875794],[-96.889375,43.875614],[-96.888589,43.874247],[-96.888805,43.874973],[-96.888863,43.935295],[-96.909067,43.935283],[-96.909084,43.949781],[-96.929116,43.949858],[-96.929183,43.935287],[-96.969191,43.935206],[-96.96908,43.906214],[-96.98915,43.90617],[-96.989168,43.920662],[-97.008972,43.920621]]]}},{"type":"Feature","properties":{"zcta5":"57212","AFFGEOID10":"8600000US57212","GEOID10":"57212","ALAND10":590531025,"AWATER10":27210660,"county_name":"Lake","state_code":"SD","county_state":"Lake County, SD","county_fips":"46079","risk_level_county":"Medium Risk (70–79% vaccinated)","mean_vaccination_rate_county":77.54,"risk_level_zcta":"Medium Risk (70–79% vaccinated)","mean_vaccination_rate_zips":70.13,"cases":16},"geometry":{"type":"Polygon","coordinates":[[[-97.269566,44.484859],[-97.289822,44.48475],[-97.289661,44.47022],[-97.269557,44.470368],[-97.269931,44.44166],[-97.290169,44.441699],[-97.290041,44.427175],[-97.269911,44.427108],[-97.269831,44.400051],[-97.269512,44.39812],[-97.289711,44.397759],[-97.289609,44.390445],[-97.290355,44.368859],[-97.287085,44.369058],[-97.270476,44.375614],[-97.266379,44.376343],[-97.250616,44.375547],[-97.249937,44.374856],[-97.250206,44.354889],[-97.240728,44.355019],[-97.240654,44.347536],[-97.250256,44.347535],[-97.250312,44.340764],[-97.229774,44.340607],[-97.229705,44.322718],[-97.241194,44.322667],[-97.243983,44.323293],[-97.248693,44.325576],[-97.250577,44.326043],[-97.250708,44.311597],[-97.25936,44.311562],[-97.259356,44.29336],[-97.270791,44.293362],[-97.270923,44.282502],[-97.266998,44.282538],[-97.264694,44.281487],[-97.261289,44.280989],[-97.258699,44.281446],[-97.255947,44.279391],[-97.251992,44.279112],[-97.251258,44.278619],[-97.250849,44.269901],[-97.250865,44.253794],[-97.249,44.253797],[-97.24908,44.252277],[-97.239847,44.252367],[-97.238388,44.251855],[-97.234739,44.249154],[-97.228606,44.249248],[-97.22644,44.250896],[-97.220075,44.250677],[-97.209852,44.250702],[-97.20984,44.248645],[-97.207242,44.248643],[-97.200885,44.251102],[-97.194906,44.251742],[-97.194106,44.243318],[-97.189683,44.242962],[-97.189923,44.195882],[-97.129671,44.195933],[-97.090032,44.195796],[-97.049265,44.195781],[-97.049102,44.224537],[-97.039129,44.224667],[-97.038963,44.239213],[-97.048993,44.239157],[-97.059196,44.239314],[-97.059204,44.246427],[-97.064383,44.246464],[-97.064476,44.249986],[-97.069463,44.249964],[-97.068837,44.273627],[-97.070692,44.273444],[-97.073623,44.275201],[-97.068718,44.275203],[-97.068613,44.289253],[-97.058337,44.289527],[-97.058334,44.297024],[-97.068661,44.296959],[-97.068725,44.325847],[-97.04823,44.32599],[-97.047375,44.36939],[-97.016888,44.369337],[-97.016979,44.383724],[-97.017037,44.390945],[-97.027325,44.391054],[-97.027711,44.455986],[-97.022046,44.455977],[-97.020639,44.45441],[-97.017821,44.45367],[-97.016808,44.4522],[-97.014465,44.452566],[-97.014636,44.455262],[-97.013595,44.455924],[-97.007527,44.455922],[-97.007615,44.474475],[-97.0125,44.470266],[-97.026889,44.470427],[-97.026856,44.471811],[-97.028456,44.476215],[-97.027702,44.479688],[-97.027447,44.543476],[-97.055057,44.543496],[-97.06687,44.543103],[-97.118864,44.543002],[-97.120814,44.542925],[-97.122056,44.54312],[-97.122061,44.543878],[-97.125093,44.544264],[-97.128677,44.548504],[-97.130389,44.551678],[-97.130316,44.553609],[-97.128888,44.55771],[-97.137845,44.557605],[-97.138187,44.560707],[-97.142472,44.560479],[-97.143089,44.562375],[-97.148068,44.562748],[-97.148153,44.56056],[-97.151502,44.560495],[-97.151492,44.543123],[-97.17869,44.543185],[-97.177954,44.539755],[-97.178426,44.537865],[-97.176291,44.535462],[-97.18933,44.535454],[-97.189219,44.528594],[-97.18868,44.48512],[-97.195103,44.485113],[-97.195365,44.492233],[-97.208908,44.492371],[-97.208868,44.48408],[-97.203113,44.484181],[-97.203312,44.485102],[-97.198791,44.485111],[-97.19881,44.478001],[-97.218994,44.478236],[-97.21886,44.485039],[-97.22928,44.484999],[-97.22937,44.499479],[-97.249229,44.49933],[-97.249212,44.484912],[-97.269566,44.484859]]]}},{"type":"Feature","properties":{"zcta5":"57058","AFFGEOID10":"8600000US57058","GEOID10":"57058","ALAND10":411959324,"AWATER10":1621009,"county_name":"Lake","state_code":"SD","county_state":"Lake County, SD","county_fips":"46079","risk_level_county":"Medium Risk (70–79% vaccinated)","mean_vaccination_rate_county":77.54,"risk_level_zcta":"Higher Risk (60–69% vaccinated)","mean_vaccination_rate_zips":62.12,"cases":16},"geometry":{"type":"Polygon","coordinates":[[[-97.529501,43.795069],[-97.529416,43.775537],[-97.549433,43.775426],[-97.549453,43.746152],[-97.529315,43.746264],[-97.529141,43.716997],[-97.528968,43.702484],[-97.54902,43.702542],[-97.54857,43.688036],[-97.508743,43.688147],[-97.508488,43.67366],[-97.488508,43.673739],[-97.488766,43.664441],[-97.488559,43.664139],[-97.488271,43.644741],[-97.468173,43.644772],[-97.468227,43.651718],[-97.448321,43.651758],[-97.448283,43.644722],[-97.438037,43.644692],[-97.438005,43.634171],[-97.448252,43.634117],[-97.448217,43.615702],[-97.408392,43.61559],[-97.388477,43.61563],[-97.38849,43.620899],[-97.391003,43.621802],[-97.391864,43.623353],[-97.389765,43.624081],[-97.390778,43.625724],[-97.392831,43.62665],[-97.392599,43.627493],[-97.391231,43.6281],[-97.390829,43.629693],[-97.389207,43.630132],[-97.368509,43.630226],[-97.36862,43.644711],[-97.347398,43.644629],[-97.347917,43.666164],[-97.248195,43.666025],[-97.248416,43.673519],[-97.288271,43.673569],[-97.288353,43.687975],[-97.288872,43.694626],[-97.288508,43.702862],[-97.288526,43.709734],[-97.268633,43.709791],[-97.268755,43.731358],[-97.249093,43.731507],[-97.249241,43.738721],[-97.268863,43.738749],[-97.269313,43.745913],[-97.289279,43.745939],[-97.28945,43.77482],[-97.269498,43.774902],[-97.269336,43.789424],[-97.289353,43.789381],[-97.289095,43.818484],[-97.309198,43.818627],[-97.309005,43.846848],[-97.30928,43.848481],[-97.369463,43.848526],[-97.449051,43.848597],[-97.448331,43.846691],[-97.448845,43.818809],[-97.469069,43.818938],[-97.468828,43.804523],[-97.489249,43.804602],[-97.489174,43.790307],[-97.500347,43.792206],[-97.509269,43.793496],[-97.509346,43.804709],[-97.529507,43.804629],[-97.529501,43.795069]]]}}]}