{"type":"FeatureCollection","features":[{"type":"Feature","properties":{"zcta5":"26447","AFFGEOID10":"8600000US26447","GEOID10":"26447","ALAND10":168912647,"AWATER10":378515,"county_name":"Lewis","state_code":"WV","county_state":"Lewis County, WV","county_fips":"54041","risk_level_county":"Lower Risk (80–84% vaccinated)","mean_vaccination_rate_county":81.47,"risk_level_zcta":"Medium Risk (70–79% vaccinated)","mean_vaccination_rate_zips":71.67,"cases":0},"geometry":{"type":"Polygon","coordinates":[[[-80.547185,38.957876],[-80.544054,38.958689],[-80.542861,38.960662],[-80.543341,38.962465],[-80.542704,38.963675],[-80.538323,38.964634],[-80.537095,38.965798],[-80.536418,38.964543],[-80.533189,38.963224],[-80.531617,38.963483],[-80.531956,38.962433],[-80.530543,38.960379],[-80.530538,38.958452],[-80.53583,38.954518],[-80.53488,38.950051],[-80.535746,38.947781],[-80.537038,38.947424],[-80.543063,38.948314],[-80.546948,38.948606],[-80.548299,38.950131],[-80.549975,38.951031],[-80.551934,38.949383],[-80.553475,38.94962],[-80.556232,38.950912],[-80.55545,38.948101],[-80.557554,38.948479],[-80.563444,38.946161],[-80.573336,38.940712],[-80.576716,38.93968],[-80.579918,38.93781],[-80.580863,38.93638],[-80.581082,38.934158],[-80.576535,38.933719],[-80.574367,38.9319],[-80.574488,38.930677],[-80.573063,38.92827],[-80.569401,38.927219],[-80.569246,38.925412],[-80.568476,38.924431],[-80.569054,38.922088],[-80.565212,38.920738],[-80.563686,38.919038],[-80.563498,38.91801],[-80.565732,38.918016],[-80.56738,38.916533],[-80.569798,38.915378],[-80.572501,38.913266],[-80.576864,38.911285],[-80.578155,38.909195],[-80.583916,38.90639],[-80.588259,38.903948],[-80.59062,38.900984],[-80.592354,38.900194],[-80.596544,38.896325],[-80.598406,38.89297],[-80.598435,38.891631],[-80.596124,38.889661],[-80.594146,38.886777],[-80.590253,38.884477],[-80.590102,38.883549],[-80.591928,38.879584],[-80.591799,38.878076],[-80.590309,38.87528],[-80.588719,38.87536],[-80.583639,38.877253],[-80.578268,38.877129],[-80.57663,38.87686],[-80.559963,38.875923],[-80.536147,38.8811],[-80.532527,38.872957],[-80.530584,38.873441],[-80.527662,38.872759],[-80.52425,38.874184],[-80.522965,38.877281],[-80.518857,38.878381],[-80.516451,38.881071],[-80.514604,38.882134],[-80.512075,38.882835],[-80.508458,38.884853],[-80.509957,38.88777],[-80.510076,38.889685],[-80.507715,38.890991],[-80.505813,38.890948],[-80.502935,38.891789],[-80.501274,38.894298],[-80.498388,38.894509],[-80.496258,38.895481],[-80.492342,38.895065],[-80.494069,38.892346],[-80.493977,38.891241],[-80.491389,38.890206],[-80.490645,38.888553],[-80.491361,38.888277],[-80.491275,38.886091],[-80.493763,38.885286],[-80.495147,38.887015],[-80.495143,38.885575],[-80.493654,38.883464],[-80.495116,38.881157],[-80.495553,38.879503],[-80.496533,38.878755],[-80.495475,38.877465],[-80.496684,38.873685],[-80.497828,38.872162],[-80.500031,38.87048],[-80.504616,38.872525],[-80.502792,38.867691],[-80.501929,38.863511],[-80.502025,38.857913],[-80.502505,38.855375],[-80.50423,38.852838],[-80.505301,38.852164],[-80.504876,38.849603],[-80.503829,38.849183],[-80.500481,38.844854],[-80.497023,38.845441],[-80.490845,38.845259],[-80.48803,38.842418],[-80.48747,38.840454],[-80.48459,38.838066],[-80.484434,38.837188],[-80.481393,38.83506],[-80.479309,38.832939],[-80.474472,38.833514],[-80.473568,38.832763],[-80.473768,38.829098],[-80.476255,38.825784],[-80.476151,38.823307],[-80.47688,38.820847],[-80.480609,38.818208],[-80.480715,38.816819],[-80.479748,38.815186],[-80.477652,38.815433],[-80.47775,38.813681],[-80.476409,38.811077],[-80.475695,38.812201],[-80.474242,38.811326],[-80.473553,38.809615],[-80.472448,38.809347],[-80.468776,38.822981],[-80.469333,38.823647],[-80.466613,38.824161],[-80.466016,38.825198],[-80.463643,38.82575],[-80.464247,38.82469],[-80.461339,38.824349],[-80.460167,38.823493],[-80.458942,38.821223],[-80.453071,38.825203],[-80.45198,38.828426],[-80.449997,38.830443],[-80.451186,38.832238],[-80.447667,38.833845],[-80.448229,38.835266],[-80.446964,38.835182],[-80.42688,38.845866],[-80.445927,38.872729],[-80.441037,38.87255],[-80.437107,38.87161],[-80.440337,38.872807],[-80.446473,38.873768],[-80.449833,38.873015],[-80.45115,38.87311],[-80.45233,38.871383],[-80.454831,38.869751],[-80.453415,38.869425],[-80.454946,38.868112],[-80.457665,38.868964],[-80.454401,38.871317],[-80.453543,38.873087],[-80.451309,38.874214],[-80.448328,38.87345],[-80.442406,38.875331],[-80.438861,38.877884],[-80.432934,38.881039],[-80.422861,38.888408],[-80.417245,38.893206],[-80.412269,38.893474],[-80.409802,38.892179],[-80.406122,38.886581],[-80.405176,38.885527],[-80.405364,38.883439],[-80.404403,38.883457],[-80.40262,38.879206],[-80.400339,38.877273],[-80.398263,38.874112],[-80.396294,38.873555],[-80.394729,38.87402],[-80.389906,38.87401],[-80.389433,38.873057],[-80.387573,38.872033],[-80.386989,38.874808],[-80.385465,38.875777],[-80.385421,38.877277],[-80.381806,38.881455],[-80.383647,38.883003],[-80.384276,38.884756],[-80.379809,38.887579],[-80.373007,38.887745],[-80.367778,38.886613],[-80.367119,38.887344],[-80.367112,38.890709],[-80.368281,38.89206],[-80.367768,38.894552],[-80.371641,38.895642],[-80.373602,38.895559],[-80.376584,38.894116],[-80.38121,38.892931],[-80.385138,38.892925],[-80.386536,38.89443],[-80.389066,38.895257],[-80.390125,38.898028],[-80.391144,38.898728],[-80.390453,38.901614],[-80.3918,38.904174],[-80.393754,38.904163],[-80.396251,38.903021],[-80.400077,38.902709],[-80.402125,38.905729],[-80.404707,38.906837],[-80.405552,38.908158],[-80.408936,38.909868],[-80.409902,38.911466],[-80.407635,38.913664],[-80.407338,38.915791],[-80.407851,38.917206],[-80.406642,38.920681],[-80.406587,38.924017],[-80.402924,38.927862],[-80.403089,38.931911],[-80.406414,38.93197],[-80.408603,38.931062],[-80.410867,38.932006],[-80.411717,38.933745],[-80.41375,38.934561],[-80.414009,38.936167],[-80.415753,38.936306],[-80.415943,38.935415],[-80.417574,38.937207],[-80.417595,38.938478],[-80.421591,38.938246],[-80.422744,38.939842],[-80.422546,38.942152],[-80.424079,38.943083],[-80.425283,38.942585],[-80.427512,38.944893],[-80.4263,38.945739],[-80.427342,38.94656],[-80.429394,38.950451],[-80.431123,38.951927],[-80.432912,38.954484],[-80.433,38.95575],[-80.434671,38.958859],[-80.436635,38.960564],[-80.436489,38.96263],[-80.433059,38.965743],[-80.433117,38.967094],[-80.435669,38.969039],[-80.435786,38.971603],[-80.43656,38.973803],[-80.438146,38.976308],[-80.441116,38.976227],[-80.445319,38.975212],[-80.44745,38.975505],[-80.451892,38.978569],[-80.451236,38.9798],[-80.451929,38.981015],[-80.455616,38.980699],[-80.45613,38.981751],[-80.458143,38.981382],[-80.459529,38.981753],[-80.461416,38.983668],[-80.464893,38.982548],[-80.468329,38.985267],[-80.469019,38.987532],[-80.470604,38.988972],[-80.474623,38.989936],[-80.474792,38.989231],[-80.476587,38.991018],[-80.47618,38.991831],[-80.473344,38.992814],[-80.473689,38.99369],[-80.473015,38.99616],[-80.474241,38.998049],[-80.476881,38.998453],[-80.480952,39.00108],[-80.48258,39.003529],[-80.484395,39.001406],[-80.488588,38.999082],[-80.486179,38.996715],[-80.485241,38.994989],[-80.486149,38.993493],[-80.48935,38.992827],[-80.489808,38.992234],[-80.487744,38.990076],[-80.48729,38.986172],[-80.488268,38.985135],[-80.491154,38.985815],[-80.491914,38.985124],[-80.492861,38.98179],[-80.49417,38.980835],[-80.49702,38.980604],[-80.495265,38.978096],[-80.49119,38.976596],[-80.489795,38.974896],[-80.490501,38.96801],[-80.492703,38.968632],[-80.49254,38.966883],[-80.490485,38.965518],[-80.48608,38.96631],[-80.485334,38.965608],[-80.486163,38.963855],[-80.489575,38.963171],[-80.489891,38.962443],[-80.487645,38.959464],[-80.487655,38.955053],[-80.489168,38.954699],[-80.490322,38.955348],[-80.494537,38.955871],[-80.496155,38.955252],[-80.49386,38.953949],[-80.492015,38.951783],[-80.492218,38.950405],[-80.491268,38.949117],[-80.486576,38.950421],[-80.486413,38.949082],[-80.485252,38.947748],[-80.487679,38.947497],[-80.489331,38.946743],[-80.489069,38.944863],[-80.489673,38.942392],[-80.490888,38.940162],[-80.494081,38.940262],[-80.498273,38.939234],[-80.498905,38.93853],[-80.497182,38.937002],[-80.500521,38.936438],[-80.508154,38.935679],[-80.509879,38.935998],[-80.516058,38.941307],[-80.517088,38.943491],[-80.517633,38.946671],[-80.517372,38.948435],[-80.515889,38.950934],[-80.515244,38.954029],[-80.517332,38.954218],[-80.521616,38.953062],[-80.525472,38.953247],[-80.526525,38.953929],[-80.52854,38.952694],[-80.531658,38.952985],[-80.53351,38.954026],[-80.532862,38.956239],[-80.530646,38.957584],[-80.527438,38.960091],[-80.524676,38.96079],[-80.5205,38.960527],[-80.517132,38.961594],[-80.515659,38.963071],[-80.51707,38.962538],[-80.517385,38.963584],[-80.515687,38.964052],[-80.515827,38.967093],[-80.51509,38.968771],[-80.513317,38.970434],[-80.512148,38.97373],[-80.511812,38.978969],[-80.51523,38.979898],[-80.517761,38.974464],[-80.540484,38.976873],[-80.552338,38.96081],[-80.54977,38.959899],[-80.547185,38.957876]]]}},{"type":"Feature","properties":{"zcta5":"26201","AFFGEOID10":"8600000US26201","GEOID10":"26201","ALAND10":464580516,"AWATER10":441938,"county_name":"Lewis","state_code":"WV","county_state":"Lewis County, WV","county_fips":"54041","risk_level_county":"Lower Risk (80–84% vaccinated)","mean_vaccination_rate_county":81.47,"risk_level_zcta":"Medium Risk (70–79% vaccinated)","mean_vaccination_rate_zips":76.3,"cases":0},"geometry":{"type":"MultiPolygon","coordinates":[[[[-80.192303,39.099898],[-80.190703,39.098517],[-80.187242,39.097565],[-80.183196,39.098428],[-80.182615,39.100541],[-80.185622,39.100323],[-80.190424,39.104639],[-80.192303,39.099898]]],[[[-80.338285,39.018191],[-80.332811,39.017601],[-80.328144,39.015601],[-80.325563,39.011837],[-80.31835,39.01306],[-80.334484,38.996586],[-80.325708,38.974261],[-80.319915,38.969515],[-80.319346,38.960919],[-80.31758,38.958799],[-80.320264,38.955902],[-80.322761,38.954922],[-80.325872,38.955133],[-80.329606,38.954592],[-80.331948,38.952394],[-80.333341,38.95009],[-80.334298,38.94738],[-80.340785,38.942811],[-80.343607,38.942624],[-80.345688,38.941913],[-80.348353,38.939901],[-80.346238,38.938613],[-80.343196,38.938927],[-80.33963,38.937707],[-80.338477,38.936847],[-80.340087,38.930657],[-80.344039,38.927518],[-80.343631,38.925339],[-80.346787,38.924315],[-80.348224,38.923249],[-80.348432,38.921806],[-80.349864,38.920345],[-80.348461,38.91844],[-80.348289,38.915461],[-80.351245,38.914141],[-80.353279,38.913914],[-80.355404,38.911933],[-80.354836,38.909824],[-80.355558,38.908214],[-80.358601,38.907309],[-80.362301,38.906775],[-80.361902,38.904667],[-80.360832,38.906044],[-80.35931,38.905684],[-80.356603,38.903943],[-80.349145,38.902879],[-80.345785,38.902961],[-80.341757,38.901028],[-80.340107,38.90116],[-80.338277,38.902943],[-80.339287,38.907425],[-80.33985,38.911328],[-80.339352,38.913363],[-80.338402,38.914302],[-80.332912,38.916588],[-80.32926,38.917668],[-80.323,38.920845],[-80.318296,38.91988],[-80.313474,38.918245],[-80.303906,38.916044],[-80.300454,38.914682],[-80.296023,38.912163],[-80.294399,38.910517],[-80.290005,38.908252],[-80.286484,38.907733],[-80.28485,38.906758],[-80.282574,38.906191],[-80.27584,38.905362],[-80.27589,38.904408],[-80.280801,38.905096],[-80.280978,38.904682],[-80.276555,38.903544],[-80.276978,38.901368],[-80.280657,38.900301],[-80.279139,38.89933],[-80.277298,38.896901],[-80.27535,38.896752],[-80.268497,38.902149],[-80.266494,38.901839],[-80.262332,38.902115],[-80.258314,38.901852],[-80.254874,38.900619],[-80.253065,38.900623],[-80.251599,38.901798],[-80.245059,38.903178],[-80.243624,38.904502],[-80.24222,38.907195],[-80.239079,38.90778],[-80.236568,38.910469],[-80.234543,38.910153],[-80.232979,38.9111],[-80.229918,38.913979],[-80.226687,38.911662],[-80.223503,38.907686],[-80.221121,38.90675],[-80.218486,38.906893],[-80.215749,38.905781],[-80.213285,38.903113],[-80.20842,38.901619],[-80.205567,38.90129],[-80.205651,38.902809],[-80.201896,38.903627],[-80.196024,38.903122],[-80.19421,38.901315],[-80.190932,38.899737],[-80.191033,38.898721],[-80.188385,38.895731],[-80.186132,38.895442],[-80.182395,38.89732],[-80.180942,38.898454],[-80.179567,38.898156],[-80.176874,38.896577],[-80.172427,38.895988],[-80.170071,38.898547],[-80.168631,38.900776],[-80.170428,38.90156],[-80.173264,38.901605],[-80.174805,38.905769],[-80.173577,38.908074],[-80.171277,38.908177],[-80.169859,38.907648],[-80.168838,38.908495],[-80.168574,38.910098],[-80.166508,38.911622],[-80.166008,38.912735],[-80.163561,38.915175],[-80.162847,38.916759],[-80.163642,38.917616],[-80.162128,38.917818],[-80.160752,38.919109],[-80.159201,38.922015],[-80.158959,38.923712],[-80.160415,38.926029],[-80.160213,38.927713],[-80.159108,38.928976],[-80.156655,38.928178],[-80.152626,38.925914],[-80.152547,38.9247],[-80.153473,38.922248],[-80.152579,38.919781],[-80.153054,38.916044],[-80.153673,38.914096],[-80.15794,38.908064],[-80.157331,38.906212],[-80.158684,38.904036],[-80.157883,38.901735],[-80.154745,38.900839],[-80.15242,38.901026],[-80.145844,38.900478],[-80.145065,38.898889],[-80.142335,38.899885],[-80.137351,38.900311],[-80.133289,38.901399],[-80.132424,38.897622],[-80.130223,38.895835],[-80.130732,38.894243],[-80.127712,38.896053],[-80.125224,38.89556],[-80.120793,38.89575],[-80.119846,38.896193],[-80.116227,38.895726],[-80.114304,38.896244],[-80.114925,38.89317],[-80.113775,38.890266],[-80.111049,38.88767],[-80.110806,38.885473],[-80.114076,38.8822],[-80.113238,38.880061],[-80.110555,38.878392],[-80.106864,38.87714],[-80.105007,38.875375],[-80.109045,38.896849],[-80.108813,38.897877],[-80.105839,38.899285],[-80.10305,38.899965],[-80.102728,38.900881],[-80.103298,38.903195],[-80.101679,38.903968],[-80.102272,38.907102],[-80.101508,38.908585],[-80.100124,38.909042],[-80.096713,38.908927],[-80.092969,38.910425],[-80.091837,38.911806],[-80.090539,38.914199],[-80.090424,38.915683],[-80.089219,38.918269],[-80.089865,38.919616],[-80.088898,38.922226],[-80.0889,38.923701],[-80.089927,38.924385],[-80.092868,38.924268],[-80.095467,38.925547],[-80.097122,38.926807],[-80.098042,38.926685],[-80.097052,38.927209],[-80.097343,38.927706],[-80.093747,38.931171],[-80.089693,38.932547],[-80.088058,38.933594],[-80.087327,38.934715],[-80.087574,38.935861],[-80.089188,38.937501],[-80.087899,38.935745],[-80.087738,38.934339],[-80.089178,38.933164],[-80.093643,38.931483],[-80.097094,38.929438],[-80.098943,38.930052],[-80.099619,38.932428],[-80.101807,38.934937],[-80.103756,38.936098],[-80.106751,38.936096],[-80.104392,38.937834],[-80.103588,38.939547],[-80.102992,38.942563],[-80.1012,38.942853],[-80.102012,38.944161],[-80.101458,38.944835],[-80.10221,38.947739],[-80.10148,38.94894],[-80.098374,38.950209],[-80.099644,38.952868],[-80.101179,38.952597],[-80.102327,38.954107],[-80.100954,38.956237],[-80.102056,38.957319],[-80.10543,38.957525],[-80.107981,38.958832],[-80.111634,38.95845],[-80.115816,38.959692],[-80.115918,38.962915],[-80.113837,38.963926],[-80.112579,38.965383],[-80.111718,38.967667],[-80.114979,38.968511],[-80.117171,38.969757],[-80.116942,38.970664],[-80.113661,38.969281],[-80.108448,38.969423],[-80.103442,38.970347],[-80.100452,38.971392],[-80.09667,38.973482],[-80.090583,38.979037],[-80.087774,38.97987],[-80.085452,38.979673],[-80.077206,38.977793],[-80.067987,38.976346],[-80.062274,38.974922],[-80.062621,38.971821],[-80.064939,38.968431],[-80.068031,38.966969],[-80.071015,38.968566],[-80.07225,38.968919],[-80.072283,38.968564],[-80.068705,38.966749],[-80.067482,38.966858],[-80.064268,38.968663],[-80.062382,38.971755],[-80.06199,38.974813],[-80.061066,38.975147],[-80.054071,38.974721],[-80.052651,38.975163],[-80.052212,38.979013],[-80.052837,38.982102],[-80.053816,38.98413],[-80.053677,38.985363],[-80.052501,38.986971],[-80.051562,38.989726],[-80.051256,38.992053],[-80.05165,38.994145],[-80.047369,38.995789],[-80.047049,38.997047],[-80.049199,38.998203],[-80.051013,39.000544],[-80.05283,39.001465],[-80.054089,39.001358],[-80.055121,39.002468],[-80.054939,39.005345],[-80.051624,39.006604],[-80.04815,39.008771],[-80.046101,39.009314],[-80.044432,39.010644],[-80.045463,39.013078],[-80.046687,39.013779],[-80.051076,39.014573],[-80.053,39.015287],[-80.056285,39.020154],[-80.059128,39.022028],[-80.057804,39.023871],[-80.05482,39.026204],[-80.05401,39.02802],[-80.053766,39.030113],[-80.054294,39.034602],[-80.055196,39.036539],[-80.056939,39.036975],[-80.058833,39.034773],[-80.061634,39.034236],[-80.06324,39.034972],[-80.067139,39.038037],[-80.068503,39.040507],[-80.067467,39.041474],[-80.063261,39.041432],[-80.063155,39.043211],[-80.06529,39.04517],[-80.065315,39.047675],[-80.061083,39.048908],[-80.059482,39.049834],[-80.057859,39.049861],[-80.053267,39.048728],[-80.051632,39.049113],[-80.049886,39.050689],[-80.049844,39.051888],[-80.052713,39.055694],[-80.052751,39.057358],[-80.05368,39.059518],[-80.052979,39.060266],[-80.050258,39.060722],[-80.047425,39.061744],[-80.048163,39.064359],[-80.047151,39.066682],[-80.043778,39.070192],[-80.040379,39.072565],[-80.039319,39.073971],[-80.038651,39.076225],[-80.043474,39.078726],[-80.045443,39.079061],[-80.048573,39.078831],[-80.050111,39.07931],[-80.055383,39.082866],[-80.057572,39.083863],[-80.059726,39.085588],[-80.060524,39.086893],[-80.061193,39.087886],[-80.061873,39.088531],[-80.062632,39.089589],[-80.063055,39.090321],[-80.063868,39.092251],[-80.06428,39.092678],[-80.064787,39.093034],[-80.071614,39.095272],[-80.076042,39.096523],[-80.074081,39.095544],[-80.070542,39.094903],[-80.064522,39.092814],[-80.063825,39.092047],[-80.063458,39.090832],[-80.062183,39.088731],[-80.065256,39.085971],[-80.066221,39.084452],[-80.064339,39.082369],[-80.06242,39.079036],[-80.059821,39.07758],[-80.059114,39.075159],[-80.060712,39.073364],[-80.065566,39.07221],[-80.067708,39.070984],[-80.07207,39.06971],[-80.075216,39.070319],[-80.076386,39.071245],[-80.075829,39.073231],[-80.076187,39.074647],[-80.074741,39.075801],[-80.079142,39.078539],[-80.080604,39.07847],[-80.080566,39.080308],[-80.084036,39.081594],[-80.084731,39.085935],[-80.086085,39.089803],[-80.087291,39.088921],[-80.090495,39.08762],[-80.091261,39.086202],[-80.089942,39.08362],[-80.090669,39.081995],[-80.092415,39.081762],[-80.095234,39.08314],[-80.098959,39.085434],[-80.102639,39.084803],[-80.104455,39.083174],[-80.104556,39.077315],[-80.106557,39.075188],[-80.109036,39.075314],[-80.111046,39.076126],[-80.11621,39.079047],[-80.117534,39.077585],[-80.116982,39.07429],[-80.118053,39.073],[-80.119791,39.072439],[-80.118137,39.072067],[-80.117484,39.070156],[-80.11603,39.068367],[-80.122327,39.06773],[-80.124376,39.065895],[-80.126423,39.065299],[-80.129708,39.063019],[-80.132415,39.063074],[-80.13264,39.064706],[-80.134335,39.066554],[-80.135106,39.069111],[-80.136694,39.071444],[-80.13411,39.073862],[-80.134072,39.075883],[-80.131295,39.078025],[-80.130054,39.078328],[-80.128912,39.081474],[-80.131423,39.081735],[-80.13303,39.0827],[-80.135243,39.082743],[-80.135828,39.080162],[-80.135447,39.078578],[-80.136321,39.078242],[-80.138819,39.083015],[-80.141582,39.084938],[-80.146418,39.086928],[-80.151247,39.08935],[-80.153862,39.091379],[-80.157895,39.088259],[-80.159854,39.085967],[-80.159966,39.083029],[-80.157715,39.082019],[-80.156886,39.07941],[-80.156126,39.078713],[-80.158277,39.078125],[-80.167831,39.087583],[-80.179728,39.091428],[-80.178492,39.090198],[-80.17693,39.087245],[-80.176999,39.081671],[-80.175313,39.080696],[-80.171762,39.08139],[-80.170467,39.081107],[-80.184085,39.067645],[-80.185415,39.071776],[-80.18646,39.073122],[-80.186974,39.075753],[-80.188376,39.077812],[-80.191062,39.079624],[-80.193606,39.082746],[-80.196119,39.083916],[-80.19791,39.086935],[-80.198617,39.084519],[-80.204292,39.084257],[-80.205409,39.083456],[-80.205231,39.082031],[-80.206191,39.079472],[-80.207406,39.078008],[-80.213756,39.082512],[-80.213604,39.085445],[-80.211519,39.087829],[-80.209505,39.088615],[-80.209585,39.090249],[-80.211362,39.090243],[-80.211907,39.095478],[-80.211042,39.094967],[-80.209895,39.097763],[-80.212927,39.102031],[-80.215773,39.105097],[-80.216428,39.106796],[-80.218289,39.108268],[-80.221034,39.108804],[-80.223208,39.111299],[-80.227173,39.112792],[-80.228716,39.114393],[-80.234188,39.113491],[-80.236162,39.114648],[-80.240394,39.113145],[-80.248771,39.100809],[-80.300209,39.103857],[-80.302936,39.079619],[-80.309061,39.078563],[-80.315054,39.07823],[-80.317335,39.077717],[-80.325236,39.079352],[-80.326371,39.080021],[-80.327292,39.078369],[-80.326603,39.077341],[-80.326721,39.075342],[-80.325057,39.076604],[-80.325456,39.075122],[-80.327662,39.073393],[-80.329382,39.073602],[-80.334552,39.072788],[-80.33534,39.070188],[-80.338003,39.06964],[-80.337678,39.06769],[-80.340191,39.065856],[-80.340096,39.063051],[-80.342607,39.062412],[-80.343976,39.06031],[-80.345758,39.058901],[-80.346189,39.053572],[-80.350158,39.055445],[-80.350118,39.052439],[-80.348562,39.052633],[-80.347497,39.049865],[-80.346215,39.049714],[-80.341586,39.047561],[-80.337097,39.021234],[-80.338285,39.018191]]]]}},{"type":"Feature","properties":{"zcta5":"26452","AFFGEOID10":"8600000US26452","GEOID10":"26452","ALAND10":323717578,"AWATER10":1471107,"county_name":"Lewis","state_code":"WV","county_state":"Lewis County, WV","county_fips":"54041","risk_level_county":"Lower Risk (80–84% vaccinated)","mean_vaccination_rate_county":81.47,"risk_level_zcta":"Medium Risk (70–79% vaccinated)","mean_vaccination_rate_zips":74.29,"cases":0},"geometry":{"type":"Polygon","coordinates":[[[-80.670636,39.000402],[-80.669306,39.000618],[-80.669712,38.999099],[-80.668018,38.997775],[-80.668188,38.995641],[-80.666551,38.993027],[-80.663605,38.990131],[-80.663684,38.988365],[-80.665349,38.985585],[-80.66816,38.984896],[-80.669882,38.983281],[-80.670338,38.981957],[-80.669228,38.980247],[-80.670676,38.975777],[-80.670381,38.97458],[-80.671426,38.970893],[-80.670929,38.969303],[-80.669968,38.968979],[-80.668264,38.966226],[-80.669124,38.963668],[-80.655033,38.950435],[-80.653477,38.951559],[-80.648069,38.950416],[-80.645052,38.947501],[-80.643172,38.946555],[-80.639587,38.946415],[-80.637058,38.947597],[-80.635806,38.947126],[-80.632693,38.947498],[-80.628944,38.94845],[-80.628167,38.949194],[-80.624505,38.949835],[-80.618505,38.948687],[-80.617965,38.949468],[-80.614291,38.951187],[-80.611455,38.951169],[-80.609528,38.952152],[-80.605858,38.951964],[-80.603757,38.953373],[-80.601331,38.953409],[-80.596274,38.954789],[-80.593867,38.954831],[-80.589894,38.956834],[-80.588349,38.95718],[-80.58815,38.959509],[-80.588723,38.960848],[-80.584706,38.963748],[-80.585055,38.965847],[-80.584465,38.966735],[-80.587016,38.968928],[-80.583616,38.969657],[-80.57843,38.967468],[-80.579082,38.966073],[-80.578369,38.963872],[-80.578336,38.961176],[-80.576838,38.959296],[-80.577291,38.956982],[-80.578783,38.955626],[-80.5787,38.954853],[-80.571356,38.960217],[-80.567718,38.963145],[-80.567353,38.960808],[-80.565854,38.958347],[-80.562149,38.95672],[-80.562333,38.957306],[-80.5591,38.95676],[-80.555576,38.954502],[-80.553639,38.954129],[-80.549443,38.956259],[-80.547185,38.957876],[-80.54977,38.959899],[-80.552338,38.96081],[-80.540484,38.976873],[-80.517761,38.974464],[-80.51523,38.979898],[-80.511812,38.978969],[-80.512148,38.97373],[-80.513317,38.970434],[-80.51509,38.968771],[-80.515827,38.967093],[-80.515687,38.964052],[-80.517385,38.963584],[-80.51707,38.962538],[-80.515659,38.963071],[-80.517132,38.961594],[-80.5205,38.960527],[-80.524676,38.96079],[-80.527438,38.960091],[-80.530646,38.957584],[-80.532862,38.956239],[-80.53351,38.954026],[-80.531658,38.952985],[-80.52854,38.952694],[-80.526525,38.953929],[-80.525472,38.953247],[-80.521616,38.953062],[-80.517332,38.954218],[-80.515244,38.954029],[-80.515889,38.950934],[-80.517372,38.948435],[-80.517633,38.946671],[-80.517088,38.943491],[-80.516058,38.941307],[-80.509879,38.935998],[-80.508154,38.935679],[-80.500521,38.936438],[-80.497182,38.937002],[-80.498905,38.93853],[-80.498273,38.939234],[-80.494081,38.940262],[-80.490888,38.940162],[-80.489673,38.942392],[-80.489069,38.944863],[-80.489331,38.946743],[-80.487679,38.947497],[-80.485252,38.947748],[-80.486413,38.949082],[-80.486576,38.950421],[-80.491268,38.949117],[-80.492218,38.950405],[-80.492015,38.951783],[-80.49386,38.953949],[-80.496155,38.955252],[-80.494537,38.955871],[-80.490322,38.955348],[-80.489168,38.954699],[-80.487655,38.955053],[-80.487645,38.959464],[-80.489891,38.962443],[-80.489575,38.963171],[-80.486163,38.963855],[-80.485334,38.965608],[-80.48608,38.96631],[-80.490485,38.965518],[-80.49254,38.966883],[-80.492703,38.968632],[-80.490501,38.96801],[-80.489795,38.974896],[-80.49119,38.976596],[-80.495265,38.978096],[-80.49702,38.980604],[-80.49417,38.980835],[-80.492861,38.98179],[-80.491914,38.985124],[-80.491154,38.985815],[-80.488268,38.985135],[-80.48729,38.986172],[-80.487744,38.990076],[-80.489808,38.992234],[-80.48935,38.992827],[-80.486149,38.993493],[-80.485241,38.994989],[-80.486179,38.996715],[-80.488588,38.999082],[-80.484395,39.001406],[-80.48258,39.003529],[-80.480952,39.00108],[-80.476881,38.998453],[-80.474241,38.998049],[-80.473015,38.99616],[-80.473689,38.99369],[-80.473344,38.992814],[-80.47618,38.991831],[-80.476587,38.991018],[-80.474792,38.989231],[-80.474623,38.989936],[-80.470604,38.988972],[-80.469019,38.987532],[-80.468329,38.985267],[-80.464893,38.982548],[-80.461416,38.983668],[-80.459529,38.981753],[-80.458143,38.981382],[-80.45613,38.981751],[-80.455616,38.980699],[-80.451929,38.981015],[-80.451236,38.9798],[-80.451892,38.978569],[-80.44745,38.975505],[-80.445319,38.975212],[-80.441116,38.976227],[-80.438146,38.976308],[-80.43656,38.973803],[-80.436389,38.974327],[-80.433609,38.975507],[-80.424313,38.97689],[-80.423715,38.974252],[-80.421948,38.974193],[-80.418881,38.972304],[-80.418944,38.971236],[-80.416945,38.970882],[-80.418779,38.973156],[-80.420966,38.974901],[-80.419066,38.976333],[-80.41698,38.975795],[-80.415489,38.973987],[-80.414706,38.975005],[-80.41367,38.973276],[-80.41462,38.972118],[-80.412315,38.971828],[-80.408042,38.969745],[-80.405334,38.969693],[-80.403121,38.96908],[-80.393704,38.999145],[-80.395972,38.999135],[-80.393382,39.001432],[-80.394006,39.00181],[-80.394868,39.002059],[-80.395037,39.002339],[-80.394656,39.003108],[-80.394001,39.003893],[-80.392695,39.004757],[-80.392422,39.004938],[-80.391135,39.004814],[-80.391382,39.006353],[-80.368987,39.019916],[-80.361598,39.014513],[-80.356741,39.011683],[-80.355769,39.01074],[-80.355648,39.008759],[-80.352977,39.009231],[-80.351155,39.0114],[-80.348484,39.011589],[-80.341563,39.013098],[-80.336828,39.013098],[-80.336706,39.015456],[-80.338285,39.018191],[-80.337097,39.021234],[-80.341586,39.047561],[-80.346215,39.049714],[-80.347497,39.049865],[-80.348562,39.052633],[-80.350118,39.052439],[-80.350158,39.055445],[-80.346189,39.053572],[-80.345758,39.058901],[-80.343976,39.06031],[-80.342607,39.062412],[-80.340096,39.063051],[-80.340191,39.065856],[-80.337678,39.06769],[-80.338003,39.06964],[-80.33534,39.070188],[-80.334552,39.072788],[-80.329382,39.073602],[-80.327662,39.073393],[-80.325456,39.075122],[-80.325057,39.076604],[-80.326721,39.075342],[-80.329194,39.075792],[-80.341602,39.076244],[-80.342844,39.076635],[-80.347208,39.075392],[-80.350286,39.073674],[-80.352212,39.073266],[-80.356569,39.07359],[-80.362721,39.072592],[-80.364405,39.071459],[-80.371209,39.067353],[-80.374674,39.064277],[-80.373719,39.063397],[-80.384642,39.047851],[-80.388437,39.050471],[-80.389604,39.049054],[-80.392112,39.048334],[-80.393859,39.048609],[-80.395903,39.049962],[-80.397781,39.052617],[-80.398042,39.055236],[-80.400735,39.059811],[-80.400719,39.061696],[-80.402039,39.065867],[-80.403257,39.067564],[-80.403463,39.072769],[-80.405429,39.07288],[-80.405374,39.070389],[-80.402542,39.064438],[-80.40203,39.06086],[-80.400152,39.056361],[-80.400531,39.054165],[-80.404639,39.054195],[-80.406148,39.053262],[-80.40837,39.054141],[-80.406963,39.058575],[-80.410908,39.05714],[-80.420897,39.056936],[-80.425694,39.056324],[-80.430228,39.055405],[-80.43266,39.053364],[-80.439985,39.054837],[-80.443585,39.054084],[-80.446137,39.052705],[-80.449813,39.052724],[-80.451549,39.056483],[-80.453197,39.056349],[-80.45354,39.057881],[-80.451998,39.05973],[-80.453617,39.060616],[-80.45479,39.06344],[-80.455221,39.063716],[-80.45536,39.064207],[-80.457084,39.063437],[-80.459229,39.065796],[-80.458049,39.066687],[-80.456354,39.065933],[-80.455798,39.068038],[-80.457022,39.070188],[-80.459533,39.072673],[-80.461383,39.075338],[-80.464765,39.079166],[-80.46756,39.080751],[-80.468497,39.081799],[-80.469369,39.084484],[-80.468577,39.087901],[-80.467632,39.089305],[-80.467785,39.090597],[-80.46625,39.09499],[-80.466296,39.09606],[-80.468577,39.098975],[-80.47103,39.100014],[-80.472946,39.098857],[-80.474444,39.09918],[-80.473472,39.101746],[-80.47377,39.103869],[-80.474423,39.102797],[-80.476277,39.102411],[-80.47881,39.103817],[-80.479727,39.106585],[-80.47903,39.107443],[-80.478573,39.110597],[-80.476879,39.110856],[-80.478724,39.115811],[-80.481526,39.116121],[-80.483374,39.115735],[-80.488302,39.118616],[-80.485818,39.12055],[-80.485087,39.122455],[-80.483509,39.120803],[-80.481717,39.119844],[-80.479552,39.120151],[-80.476503,39.122754],[-80.480222,39.125714],[-80.484729,39.127112],[-80.487688,39.125961],[-80.488432,39.124898],[-80.490993,39.124027],[-80.491639,39.122214],[-80.493787,39.121335],[-80.491866,39.120927],[-80.492185,39.119664],[-80.495404,39.116983],[-80.498191,39.119997],[-80.499062,39.121749],[-80.498881,39.125293],[-80.500894,39.127941],[-80.50202,39.128317],[-80.503534,39.131174],[-80.507341,39.132532],[-80.506295,39.13436],[-80.503124,39.136356],[-80.50301,39.13802],[-80.504739,39.141142],[-80.504433,39.142789],[-80.498447,39.148639],[-80.495937,39.148221],[-80.496586,39.147471],[-80.495378,39.145957],[-80.493938,39.145545],[-80.492205,39.146037],[-80.493992,39.145677],[-80.496484,39.14736],[-80.496257,39.147599],[-80.495684,39.147761],[-80.495557,39.147863],[-80.495592,39.148066],[-80.495896,39.148277],[-80.498886,39.148867],[-80.50296,39.149076],[-80.504349,39.148563],[-80.507376,39.149446],[-80.510806,39.148266],[-80.511243,39.146957],[-80.516061,39.147914],[-80.517663,39.147547],[-80.517982,39.145989],[-80.523446,39.146526],[-80.524671,39.147122],[-80.53357,39.148022],[-80.535834,39.147447],[-80.537524,39.147975],[-80.539012,39.149967],[-80.541846,39.15002],[-80.543279,39.151205],[-80.546044,39.151257],[-80.54674,39.154414],[-80.548913,39.158755],[-80.550958,39.159596],[-80.555616,39.159208],[-80.564555,39.161202],[-80.570631,39.164338],[-80.57085,39.165086],[-80.57924,39.167568],[-80.58514,39.168499],[-80.585097,39.168389],[-80.586996,39.168812],[-80.594107,39.166414],[-80.596126,39.167069],[-80.597525,39.16403],[-80.596845,39.163027],[-80.598527,39.161647],[-80.599801,39.159698],[-80.602874,39.159302],[-80.604844,39.155535],[-80.607278,39.155191],[-80.609468,39.154188],[-80.610456,39.154932],[-80.613071,39.154144],[-80.6158,39.154515],[-80.617991,39.153455],[-80.619266,39.151796],[-80.619591,39.149956],[-80.622507,39.148142],[-80.621096,39.14624],[-80.62384,39.142541],[-80.624993,39.142096],[-80.624121,39.139652],[-80.622222,39.138669],[-80.619183,39.136017],[-80.614118,39.133462],[-80.611585,39.130416],[-80.609686,39.126879],[-80.604747,39.126093],[-80.600822,39.126486],[-80.597782,39.12629],[-80.59487,39.125209],[-80.590058,39.120002],[-80.591831,39.116367],[-80.590818,39.114991],[-80.587884,39.113185],[-80.586846,39.11356],[-80.584136,39.111442],[-80.585223,39.109956],[-80.58322,39.10831],[-80.579801,39.108998],[-80.577648,39.111749],[-80.576129,39.113026],[-80.57233,39.113812],[-80.570051,39.112633],[-80.564859,39.110865],[-80.560933,39.104282],[-80.558021,39.104086],[-80.552829,39.105658],[-80.550296,39.104872],[-80.54903,39.102907],[-80.545864,39.100745],[-80.543965,39.098878],[-80.534974,39.094948],[-80.529909,39.096029],[-80.525947,39.096567],[-80.530596,39.092011],[-80.530611,39.090221],[-80.529667,39.089253],[-80.530063,39.086439],[-80.53134,39.083587],[-80.532259,39.082554],[-80.532184,39.080242],[-80.532696,39.078972],[-80.534466,39.077232],[-80.542907,39.07311],[-80.544099,39.073727],[-80.545338,39.072765],[-80.548849,39.074208],[-80.55174,39.074929],[-80.553289,39.075971],[-80.556593,39.077094],[-80.561136,39.077013],[-80.565473,39.076613],[-80.568984,39.074929],[-80.570532,39.073647],[-80.572701,39.070681],[-80.574766,39.069318],[-80.576128,39.069326],[-80.574595,39.066441],[-80.569708,39.062341],[-80.568771,39.059735],[-80.566975,39.056287],[-80.566352,39.054241],[-80.56344,39.052146],[-80.560203,39.049162],[-80.558402,39.048866],[-80.560443,39.047556],[-80.561408,39.048074],[-80.562901,39.046538],[-80.563754,39.044392],[-80.567963,39.042222],[-80.566576,39.041145],[-80.567793,39.038336],[-80.571573,39.035696],[-80.57157,39.03266],[-80.572704,39.032508],[-80.575947,39.030537],[-80.576404,39.029429],[-80.575601,39.028262],[-80.577105,39.028644],[-80.580693,39.027261],[-80.582839,39.026969],[-80.585786,39.027139],[-80.586504,39.027601],[-80.587785,39.026433],[-80.591046,39.024985],[-80.593283,39.021228],[-80.596104,39.018318],[-80.600199,39.018022],[-80.605467,39.019146],[-80.609787,39.019044],[-80.612571,39.015824],[-80.617844,39.015264],[-80.618783,39.016269],[-80.618314,39.017653],[-80.619338,39.017397],[-80.621074,39.019185],[-80.619962,39.021338],[-80.620634,39.023662],[-80.624456,39.02327],[-80.625056,39.021598],[-80.627462,39.019329],[-80.625682,39.016786],[-80.627864,39.014975],[-80.629907,39.012356],[-80.632572,39.012276],[-80.634655,39.011383],[-80.636936,39.011672],[-80.639035,39.012981],[-80.642359,39.01006],[-80.648533,39.010256],[-80.65098,39.011209],[-80.65312,39.009455],[-80.655733,39.010287],[-80.657463,39.009796],[-80.660862,39.010329],[-80.663642,39.009518],[-80.663185,39.00765],[-80.665069,39.005387],[-80.665082,39.004177],[-80.666628,39.001862],[-80.66997,39.001374],[-80.670636,39.000402]]]}},{"type":"Feature","properties":{"zcta5":"26372","AFFGEOID10":"8600000US26372","GEOID10":"26372","ALAND10":79426431,"AWATER10":3724186,"county_name":"Lewis","state_code":"WV","county_state":"Lewis County, WV","county_fips":"54041","risk_level_county":"Lower Risk (80–84% vaccinated)","mean_vaccination_rate_county":81.47,"risk_level_zcta":"Medium Risk (70–79% vaccinated)","mean_vaccination_rate_zips":75.81,"cases":0},"geometry":{"type":"Polygon","coordinates":[[[-80.43656,38.973803],[-80.435786,38.971603],[-80.435669,38.969039],[-80.433117,38.967094],[-80.433059,38.965743],[-80.436489,38.96263],[-80.436635,38.960564],[-80.434671,38.958859],[-80.433,38.95575],[-80.432912,38.954484],[-80.431123,38.951927],[-80.429394,38.950451],[-80.427342,38.94656],[-80.4263,38.945739],[-80.427512,38.944893],[-80.425283,38.942585],[-80.424079,38.943083],[-80.422546,38.942152],[-80.422744,38.939842],[-80.421591,38.938246],[-80.417595,38.938478],[-80.417574,38.937207],[-80.415943,38.935415],[-80.415753,38.936306],[-80.414009,38.936167],[-80.41375,38.934561],[-80.411717,38.933745],[-80.410867,38.932006],[-80.408603,38.931062],[-80.406414,38.93197],[-80.403089,38.931911],[-80.402924,38.927862],[-80.406587,38.924017],[-80.406642,38.920681],[-80.407851,38.917206],[-80.407338,38.915791],[-80.407635,38.913664],[-80.409902,38.911466],[-80.408936,38.909868],[-80.405552,38.908158],[-80.404707,38.906837],[-80.402125,38.905729],[-80.400077,38.902709],[-80.396251,38.903021],[-80.393754,38.904163],[-80.3918,38.904174],[-80.390453,38.901614],[-80.391144,38.898728],[-80.390125,38.898028],[-80.389066,38.895257],[-80.386536,38.89443],[-80.385138,38.892925],[-80.38121,38.892931],[-80.376584,38.894116],[-80.373602,38.895559],[-80.371641,38.895642],[-80.367768,38.894552],[-80.36466,38.897509],[-80.36267,38.897904],[-80.360759,38.903333],[-80.361902,38.904667],[-80.362301,38.906775],[-80.358601,38.907309],[-80.355558,38.908214],[-80.354836,38.909824],[-80.355404,38.911933],[-80.353279,38.913914],[-80.351245,38.914141],[-80.348289,38.915461],[-80.348461,38.91844],[-80.349864,38.920345],[-80.348432,38.921806],[-80.348224,38.923249],[-80.346787,38.924315],[-80.343631,38.925339],[-80.344039,38.927518],[-80.340087,38.930657],[-80.338477,38.936847],[-80.33963,38.937707],[-80.343196,38.938927],[-80.346238,38.938613],[-80.348353,38.939901],[-80.345688,38.941913],[-80.343607,38.942624],[-80.340785,38.942811],[-80.334298,38.94738],[-80.333341,38.95009],[-80.331948,38.952394],[-80.329606,38.954592],[-80.325872,38.955133],[-80.322761,38.954922],[-80.320264,38.955902],[-80.31758,38.958799],[-80.319346,38.960919],[-80.319915,38.969515],[-80.325708,38.974261],[-80.334484,38.996586],[-80.31835,39.01306],[-80.325563,39.011837],[-80.328144,39.015601],[-80.332811,39.017601],[-80.338285,39.018191],[-80.336706,39.015456],[-80.336828,39.013098],[-80.341563,39.013098],[-80.348484,39.011589],[-80.351155,39.0114],[-80.352977,39.009231],[-80.355648,39.008759],[-80.355769,39.01074],[-80.356741,39.011683],[-80.361598,39.014513],[-80.368987,39.019916],[-80.391382,39.006353],[-80.391135,39.004814],[-80.392422,39.004938],[-80.392695,39.004757],[-80.394001,39.003893],[-80.394656,39.003108],[-80.395037,39.002339],[-80.394868,39.002059],[-80.394006,39.00181],[-80.393382,39.001432],[-80.395972,38.999135],[-80.393704,38.999145],[-80.403121,38.96908],[-80.405334,38.969693],[-80.408042,38.969745],[-80.412315,38.971828],[-80.41462,38.972118],[-80.41367,38.973276],[-80.414706,38.975005],[-80.415489,38.973987],[-80.41698,38.975795],[-80.419066,38.976333],[-80.420966,38.974901],[-80.418779,38.973156],[-80.416945,38.970882],[-80.418944,38.971236],[-80.418881,38.972304],[-80.421948,38.974193],[-80.423715,38.974252],[-80.424313,38.97689],[-80.433609,38.975507],[-80.436389,38.974327],[-80.43656,38.973803]]]}},{"type":"Feature","properties":{"zcta5":"26338","AFFGEOID10":"8600000US26338","GEOID10":"26338","ALAND10":102252752,"AWATER10":154973,"county_name":"Lewis","state_code":"WV","county_state":"Lewis County, WV","county_fips":"54041","risk_level_county":"Lower Risk (80–84% vaccinated)","mean_vaccination_rate_county":81.47,"risk_level_zcta":"Medium Risk (70–79% vaccinated)","mean_vaccination_rate_zips":73.76,"cases":0},"geometry":{"type":"Polygon","coordinates":[[[-80.624993,39.142096],[-80.626632,39.141577],[-80.62962,39.139239],[-80.633463,39.139504],[-80.637286,39.137595],[-80.639253,39.139144],[-80.642323,39.138823],[-80.644022,39.136907],[-80.647394,39.139501],[-80.650744,39.137555],[-80.653028,39.140512],[-80.656934,39.141119],[-80.658676,39.13855],[-80.662896,39.137847],[-80.663416,39.137343],[-80.662447,39.134924],[-80.66467,39.132875],[-80.66396,39.131333],[-80.664599,39.129618],[-80.669064,39.127987],[-80.670968,39.127657],[-80.671778,39.126482],[-80.674833,39.125917],[-80.676537,39.124778],[-80.676486,39.122082],[-80.681748,39.121198],[-80.682293,39.118422],[-80.681645,39.116208],[-80.681193,39.11204],[-80.683135,39.111131],[-80.686794,39.110319],[-80.687739,39.108838],[-80.687061,39.107695],[-80.688684,39.106061],[-80.690432,39.105659],[-80.690994,39.104195],[-80.690523,39.101837],[-80.692147,39.10075],[-80.693811,39.098505],[-80.698691,39.09564],[-80.698115,39.093901],[-80.699399,39.091274],[-80.701313,39.090325],[-80.695285,39.089398],[-80.693451,39.091459],[-80.693208,39.093174],[-80.689482,39.093423],[-80.68593,39.09405],[-80.685822,39.098004],[-80.683854,39.098977],[-80.681452,39.098005],[-80.680594,39.098634],[-80.679959,39.100895],[-80.679213,39.101301],[-80.675541,39.101431],[-80.673228,39.103695],[-80.671571,39.104443],[-80.669752,39.103334],[-80.666389,39.10455],[-80.665303,39.105962],[-80.663801,39.105241],[-80.660876,39.105629],[-80.659015,39.106494],[-80.6587,39.105383],[-80.65408,39.104144],[-80.652712,39.103064],[-80.65207,39.103892],[-80.648692,39.103807],[-80.648017,39.100795],[-80.648951,39.099342],[-80.650632,39.099076],[-80.652225,39.099961],[-80.653149,39.099557],[-80.654618,39.097308],[-80.657314,39.094581],[-80.657765,39.08791],[-80.656161,39.084365],[-80.658893,39.081927],[-80.660731,39.079082],[-80.662206,39.075851],[-80.662358,39.074548],[-80.655679,39.073857],[-80.649331,39.073478],[-80.644936,39.072973],[-80.641078,39.072855],[-80.641178,39.071283],[-80.642207,39.070804],[-80.644734,39.067284],[-80.642817,39.065482],[-80.642217,39.063745],[-80.645335,39.06277],[-80.649329,39.06315],[-80.651612,39.062743],[-80.65364,39.060645],[-80.655364,39.060676],[-80.658087,39.0596],[-80.657881,39.055803],[-80.659434,39.054461],[-80.659134,39.053174],[-80.657302,39.053074],[-80.656252,39.052031],[-80.657218,39.050727],[-80.657276,39.049007],[-80.66121,39.048057],[-80.662518,39.044655],[-80.66254,39.041348],[-80.660907,39.039262],[-80.65685,39.037984],[-80.655871,39.038576],[-80.652926,39.038932],[-80.650025,39.038027],[-80.647969,39.035939],[-80.646096,39.035314],[-80.646364,39.033909],[-80.643096,39.032316],[-80.639298,39.032302],[-80.636881,39.031727],[-80.634606,39.031934],[-80.632722,39.03348],[-80.631061,39.034009],[-80.629137,39.033723],[-80.62674,39.032704],[-80.623577,39.03269],[-80.62275,39.031611],[-80.618179,39.027914],[-80.615269,39.027786],[-80.617486,39.026769],[-80.617385,39.025403],[-80.620634,39.023662],[-80.619962,39.021338],[-80.621074,39.019185],[-80.619338,39.017397],[-80.618314,39.017653],[-80.618783,39.016269],[-80.617844,39.015264],[-80.612571,39.015824],[-80.609787,39.019044],[-80.605467,39.019146],[-80.600199,39.018022],[-80.596104,39.018318],[-80.593283,39.021228],[-80.591046,39.024985],[-80.587785,39.026433],[-80.586504,39.027601],[-80.585786,39.027139],[-80.582839,39.026969],[-80.580693,39.027261],[-80.577105,39.028644],[-80.575601,39.028262],[-80.576404,39.029429],[-80.575947,39.030537],[-80.572704,39.032508],[-80.57157,39.03266],[-80.571573,39.035696],[-80.567793,39.038336],[-80.566576,39.041145],[-80.567963,39.042222],[-80.563754,39.044392],[-80.562901,39.046538],[-80.561408,39.048074],[-80.560443,39.047556],[-80.558402,39.048866],[-80.560203,39.049162],[-80.56344,39.052146],[-80.566352,39.054241],[-80.566975,39.056287],[-80.568771,39.059735],[-80.569708,39.062341],[-80.574595,39.066441],[-80.576128,39.069326],[-80.574766,39.069318],[-80.572701,39.070681],[-80.570532,39.073647],[-80.568984,39.074929],[-80.565473,39.076613],[-80.561136,39.077013],[-80.556593,39.077094],[-80.553289,39.075971],[-80.55174,39.074929],[-80.548849,39.074208],[-80.545338,39.072765],[-80.544099,39.073727],[-80.542907,39.07311],[-80.534466,39.077232],[-80.532696,39.078972],[-80.532184,39.080242],[-80.532259,39.082554],[-80.53134,39.083587],[-80.530063,39.086439],[-80.529667,39.089253],[-80.530611,39.090221],[-80.530596,39.092011],[-80.525947,39.096567],[-80.529909,39.096029],[-80.534974,39.094948],[-80.543965,39.098878],[-80.545864,39.100745],[-80.54903,39.102907],[-80.550296,39.104872],[-80.552829,39.105658],[-80.558021,39.104086],[-80.560933,39.104282],[-80.564859,39.110865],[-80.570051,39.112633],[-80.57233,39.113812],[-80.576129,39.113026],[-80.577648,39.111749],[-80.579801,39.108998],[-80.58322,39.10831],[-80.585223,39.109956],[-80.584136,39.111442],[-80.586846,39.11356],[-80.587884,39.113185],[-80.590818,39.114991],[-80.591831,39.116367],[-80.590058,39.120002],[-80.59487,39.125209],[-80.597782,39.12629],[-80.600822,39.126486],[-80.604747,39.126093],[-80.609686,39.126879],[-80.611585,39.130416],[-80.614118,39.133462],[-80.619183,39.136017],[-80.622222,39.138669],[-80.624121,39.139652],[-80.624993,39.142096]]]}},{"type":"Feature","properties":{"zcta5":"26376","AFFGEOID10":"8600000US26376","GEOID10":"26376","ALAND10":81478315,"AWATER10":282740,"county_name":"Lewis","state_code":"WV","county_state":"Lewis County, WV","county_fips":"54041","risk_level_county":"Lower Risk (80–84% vaccinated)","mean_vaccination_rate_county":81.47,"risk_level_zcta":"Lower Risk (80–84% vaccinated)","mean_vaccination_rate_zips":81.22,"cases":0},"geometry":{"type":"Polygon","coordinates":[[[-80.479748,38.815186],[-80.481007,38.816376],[-80.48121,38.817274],[-80.484375,38.817101],[-80.483827,38.81645],[-80.487384,38.815726],[-80.490019,38.816211],[-80.492458,38.817064],[-80.493363,38.817786],[-80.494471,38.817973],[-80.495461,38.817587],[-80.496314,38.818157],[-80.502001,38.818768],[-80.505386,38.818575],[-80.509938,38.81703],[-80.511805,38.81693],[-80.513521,38.816384],[-80.513623,38.815719],[-80.512232,38.81291],[-80.51344,38.810665],[-80.514946,38.809646],[-80.516412,38.807895],[-80.516317,38.806159],[-80.51556,38.805338],[-80.512289,38.8039],[-80.510543,38.802184],[-80.511344,38.801431],[-80.511384,38.799912],[-80.50996,38.798977],[-80.509605,38.79799],[-80.509617,38.794453],[-80.507224,38.795297],[-80.50545,38.796804],[-80.504505,38.798598],[-80.503579,38.799419],[-80.50167,38.800246],[-80.500084,38.800476],[-80.499036,38.80027],[-80.496489,38.800662],[-80.501737,38.799788],[-80.504468,38.798178],[-80.505629,38.7962],[-80.506415,38.795541],[-80.51041,38.793872],[-80.514805,38.793828],[-80.51623,38.792865],[-80.518196,38.792116],[-80.519458,38.790994],[-80.519147,38.789488],[-80.517419,38.787083],[-80.517643,38.784729],[-80.518466,38.783977],[-80.520513,38.783397],[-80.521282,38.781385],[-80.521481,38.779801],[-80.522198,38.778903],[-80.5244,38.778456],[-80.524912,38.778588],[-80.526302,38.780132],[-80.527381,38.780837],[-80.528541,38.782145],[-80.53013,38.781552],[-80.532642,38.781333],[-80.533385,38.780683],[-80.533013,38.779033],[-80.53325,38.777916],[-80.534542,38.775975],[-80.533802,38.773731],[-80.533418,38.774624],[-80.532791,38.77423],[-80.529712,38.773345],[-80.528934,38.771292],[-80.53186,38.770078],[-80.534291,38.769299],[-80.537183,38.768142],[-80.534539,38.768172],[-80.532876,38.766934],[-80.533073,38.765367],[-80.53241,38.763847],[-80.530824,38.762333],[-80.529039,38.762475],[-80.527936,38.76288],[-80.526943,38.76269],[-80.525018,38.763405],[-80.523345,38.763349],[-80.521207,38.762686],[-80.519372,38.762935],[-80.51883,38.76392],[-80.516439,38.765365],[-80.514842,38.764784],[-80.512213,38.766121],[-80.510595,38.766377],[-80.508231,38.768226],[-80.503416,38.767896],[-80.499488,38.768212],[-80.497895,38.768551],[-80.497433,38.770336],[-80.496252,38.771076],[-80.493337,38.771776],[-80.492004,38.771568],[-80.489423,38.772004],[-80.488778,38.771103],[-80.486636,38.770308],[-80.483646,38.768835],[-80.482865,38.767444],[-80.4803,38.766764],[-80.480198,38.765573],[-80.482494,38.763654],[-80.481823,38.760317],[-80.483072,38.758858],[-80.484598,38.758465],[-80.486071,38.756993],[-80.487675,38.756421],[-80.488517,38.755248],[-80.487711,38.753473],[-80.487486,38.751888],[-80.486441,38.749503],[-80.487549,38.749255],[-80.492138,38.74759],[-80.493535,38.747616],[-80.496122,38.747265],[-80.496321,38.746624],[-80.497845,38.745607],[-80.498861,38.744517],[-80.502238,38.743535],[-80.50388,38.743299],[-80.505968,38.741742],[-80.505898,38.739892],[-80.507488,38.73826],[-80.507123,38.736934],[-80.503929,38.736988],[-80.501828,38.738623],[-80.49971,38.738736],[-80.497119,38.737729],[-80.4952,38.737795],[-80.490346,38.739337],[-80.485313,38.739269],[-80.484829,38.737359],[-80.483196,38.736052],[-80.480543,38.736834],[-80.479796,38.739124],[-80.480164,38.743024],[-80.478446,38.746561],[-80.474996,38.747751],[-80.473298,38.745432],[-80.473683,38.743883],[-80.475477,38.742879],[-80.47533,38.740632],[-80.473671,38.739904],[-80.472371,38.74043],[-80.472331,38.743332],[-80.47155,38.745916],[-80.466233,38.747472],[-80.461231,38.74443],[-80.458019,38.743768],[-80.455356,38.743805],[-80.458329,38.739595],[-80.457824,38.738273],[-80.457332,38.739169],[-80.455026,38.737951],[-80.452779,38.737762],[-80.451469,38.736515],[-80.452818,38.733579],[-80.451567,38.732637],[-80.447456,38.732548],[-80.446239,38.727901],[-80.444673,38.726729],[-80.442944,38.72714],[-80.44043,38.728291],[-80.435782,38.725632],[-80.435226,38.727715],[-80.432939,38.729635],[-80.431721,38.729639],[-80.430017,38.728568],[-80.42846,38.72881],[-80.428183,38.730684],[-80.426641,38.731004],[-80.425095,38.728714],[-80.423491,38.727992],[-80.417192,38.72955],[-80.414635,38.728634],[-80.412301,38.728411],[-80.411907,38.727415],[-80.412553,38.725338],[-80.413677,38.724473],[-80.412079,38.723605],[-80.410064,38.724604],[-80.408109,38.724402],[-80.407207,38.722944],[-80.406133,38.722801],[-80.404387,38.724275],[-80.405392,38.726683],[-80.403144,38.729318],[-80.400969,38.730055],[-80.396785,38.729343],[-80.395371,38.726384],[-80.394585,38.726042],[-80.393063,38.727571],[-80.409541,38.768327],[-80.409103,38.770511],[-80.407267,38.778809],[-80.399935,38.813817],[-80.401496,38.813214],[-80.402829,38.813956],[-80.403769,38.815632],[-80.403565,38.81692],[-80.40913,38.816278],[-80.410757,38.815105],[-80.412515,38.812297],[-80.416329,38.809725],[-80.417937,38.807425],[-80.420868,38.806335],[-80.423424,38.806019],[-80.42461,38.804301],[-80.428305,38.803295],[-80.433817,38.802655],[-80.436278,38.802986],[-80.435834,38.806863],[-80.437062,38.808818],[-80.438675,38.809555],[-80.439443,38.812826],[-80.440585,38.815137],[-80.442284,38.817346],[-80.445943,38.818867],[-80.450774,38.822283],[-80.453071,38.825203],[-80.458942,38.821223],[-80.460167,38.823493],[-80.461339,38.824349],[-80.464247,38.82469],[-80.463643,38.82575],[-80.466016,38.825198],[-80.466613,38.824161],[-80.469333,38.823647],[-80.468776,38.822981],[-80.472448,38.809347],[-80.473553,38.809615],[-80.474242,38.811326],[-80.475695,38.812201],[-80.476409,38.811077],[-80.47775,38.813681],[-80.477652,38.815433],[-80.479748,38.815186]]]}},{"type":"Feature","properties":{"zcta5":"26321","AFFGEOID10":"8600000US26321","GEOID10":"26321","ALAND10":64288459,"AWATER10":319350,"county_name":"Lewis","state_code":"WV","county_state":"Lewis County, WV","county_fips":"54041","risk_level_county":"Lower Risk (80–84% vaccinated)","mean_vaccination_rate_county":81.47,"risk_level_zcta":"Medium Risk (70–79% vaccinated)","mean_vaccination_rate_zips":72.08,"cases":0},"geometry":{"type":"Polygon","coordinates":[[[-80.708421,39.091714],[-80.728326,39.095679],[-80.728877,39.083527],[-80.725741,39.064114],[-80.723101,39.048683],[-80.722802,39.045529],[-80.721719,39.039942],[-80.71705,39.009933],[-80.714457,39.010226],[-80.712127,39.012022],[-80.711021,39.012186],[-80.710521,39.010716],[-80.708253,39.010413],[-80.704522,39.012039],[-80.701052,39.014229],[-80.697333,39.014161],[-80.695985,39.015966],[-80.694809,39.015806],[-80.694869,39.015095],[-80.693424,39.01571],[-80.691973,39.015349],[-80.692076,39.013621],[-80.689635,39.011811],[-80.689914,39.009219],[-80.688405,39.008464],[-80.683688,39.008782],[-80.68174,39.008463],[-80.681125,39.007656],[-80.681602,39.006054],[-80.679251,39.00545],[-80.678784,39.006745],[-80.677098,39.006559],[-80.675955,39.004918],[-80.672151,39.003636],[-80.670636,39.000402],[-80.66997,39.001374],[-80.666628,39.001862],[-80.665082,39.004177],[-80.665069,39.005387],[-80.663185,39.00765],[-80.663642,39.009518],[-80.660862,39.010329],[-80.657463,39.009796],[-80.655733,39.010287],[-80.65312,39.009455],[-80.65098,39.011209],[-80.648533,39.010256],[-80.642359,39.01006],[-80.639035,39.012981],[-80.636936,39.011672],[-80.634655,39.011383],[-80.632572,39.012276],[-80.629907,39.012356],[-80.627864,39.014975],[-80.625682,39.016786],[-80.627462,39.019329],[-80.625056,39.021598],[-80.624456,39.02327],[-80.620634,39.023662],[-80.617385,39.025403],[-80.617486,39.026769],[-80.615269,39.027786],[-80.618179,39.027914],[-80.62275,39.031611],[-80.623577,39.03269],[-80.62674,39.032704],[-80.629137,39.033723],[-80.631061,39.034009],[-80.632722,39.03348],[-80.634606,39.031934],[-80.636881,39.031727],[-80.639298,39.032302],[-80.643096,39.032316],[-80.646364,39.033909],[-80.646096,39.035314],[-80.647969,39.035939],[-80.650025,39.038027],[-80.652926,39.038932],[-80.655871,39.038576],[-80.65685,39.037984],[-80.660907,39.039262],[-80.66254,39.041348],[-80.662518,39.044655],[-80.66121,39.048057],[-80.657276,39.049007],[-80.657218,39.050727],[-80.656252,39.052031],[-80.657302,39.053074],[-80.659134,39.053174],[-80.659434,39.054461],[-80.657881,39.055803],[-80.658087,39.0596],[-80.655364,39.060676],[-80.65364,39.060645],[-80.651612,39.062743],[-80.649329,39.06315],[-80.645335,39.06277],[-80.642217,39.063745],[-80.642817,39.065482],[-80.644734,39.067284],[-80.642207,39.070804],[-80.641178,39.071283],[-80.641078,39.072855],[-80.644936,39.072973],[-80.649331,39.073478],[-80.655679,39.073857],[-80.662358,39.074548],[-80.662206,39.075851],[-80.660731,39.079082],[-80.658893,39.081927],[-80.656161,39.084365],[-80.657765,39.08791],[-80.657314,39.094581],[-80.654618,39.097308],[-80.653149,39.099557],[-80.652225,39.099961],[-80.650632,39.099076],[-80.648951,39.099342],[-80.648017,39.100795],[-80.648692,39.103807],[-80.65207,39.103892],[-80.652712,39.103064],[-80.65408,39.104144],[-80.6587,39.105383],[-80.659015,39.106494],[-80.660876,39.105629],[-80.663801,39.105241],[-80.665303,39.105962],[-80.666389,39.10455],[-80.669752,39.103334],[-80.671571,39.104443],[-80.673228,39.103695],[-80.675541,39.101431],[-80.679213,39.101301],[-80.679959,39.100895],[-80.680594,39.098634],[-80.681452,39.098005],[-80.683854,39.098977],[-80.685822,39.098004],[-80.68593,39.09405],[-80.689482,39.093423],[-80.693208,39.093174],[-80.693451,39.091459],[-80.695285,39.089398],[-80.701313,39.090325],[-80.708421,39.091714]]]}},{"type":"Feature","properties":{"zcta5":"26378","AFFGEOID10":"8600000US26378","GEOID10":"26378","ALAND10":160975831,"AWATER10":791134,"county_name":"Lewis","state_code":"WV","county_state":"Lewis County, WV","county_fips":"54041","risk_level_county":"Lower Risk (80–84% vaccinated)","mean_vaccination_rate_county":81.47,"risk_level_zcta":"Medium Risk (70–79% vaccinated)","mean_vaccination_rate_zips":75.67,"cases":0},"geometry":{"type":"Polygon","coordinates":[[[-80.59604,39.167198],[-80.596126,39.167069],[-80.594107,39.166414],[-80.586996,39.168812],[-80.585097,39.168389],[-80.58514,39.168499],[-80.57924,39.167568],[-80.57085,39.165086],[-80.570631,39.164338],[-80.564555,39.161202],[-80.555616,39.159208],[-80.550958,39.159596],[-80.548913,39.158755],[-80.54674,39.154414],[-80.546044,39.151257],[-80.543279,39.151205],[-80.541846,39.15002],[-80.539012,39.149967],[-80.537524,39.147975],[-80.535834,39.147447],[-80.53357,39.148022],[-80.524671,39.147122],[-80.523446,39.146526],[-80.517982,39.145989],[-80.517663,39.147547],[-80.516061,39.147914],[-80.511243,39.146957],[-80.510806,39.148266],[-80.507376,39.149446],[-80.504349,39.148563],[-80.50296,39.149076],[-80.498886,39.148867],[-80.495896,39.148277],[-80.495592,39.148066],[-80.495557,39.147863],[-80.495684,39.147761],[-80.496257,39.147599],[-80.496484,39.14736],[-80.493992,39.145677],[-80.492205,39.146037],[-80.493938,39.145545],[-80.495378,39.145957],[-80.496586,39.147471],[-80.495937,39.148221],[-80.498447,39.148639],[-80.504433,39.142789],[-80.504739,39.141142],[-80.50301,39.13802],[-80.503124,39.136356],[-80.506295,39.13436],[-80.507341,39.132532],[-80.503534,39.131174],[-80.50202,39.128317],[-80.500894,39.127941],[-80.498881,39.125293],[-80.499062,39.121749],[-80.498191,39.119997],[-80.495404,39.116983],[-80.492185,39.119664],[-80.491866,39.120927],[-80.493787,39.121335],[-80.491639,39.122214],[-80.490993,39.124027],[-80.488432,39.124898],[-80.487688,39.125961],[-80.484729,39.127112],[-80.480222,39.125714],[-80.476503,39.122754],[-80.479552,39.120151],[-80.481717,39.119844],[-80.483509,39.120803],[-80.485087,39.122455],[-80.485818,39.12055],[-80.488302,39.118616],[-80.483374,39.115735],[-80.481526,39.116121],[-80.478724,39.115811],[-80.476879,39.110856],[-80.478573,39.110597],[-80.47903,39.107443],[-80.479727,39.106585],[-80.47881,39.103817],[-80.476277,39.102411],[-80.474423,39.102797],[-80.47377,39.103869],[-80.473472,39.101746],[-80.474444,39.09918],[-80.472946,39.098857],[-80.47103,39.100014],[-80.468577,39.098975],[-80.466296,39.09606],[-80.46625,39.09499],[-80.467785,39.090597],[-80.467632,39.089305],[-80.468577,39.087901],[-80.469369,39.084484],[-80.468497,39.081799],[-80.46756,39.080751],[-80.464765,39.079166],[-80.461383,39.075338],[-80.459533,39.072673],[-80.457022,39.070188],[-80.455798,39.068038],[-80.456354,39.065933],[-80.458049,39.066687],[-80.459229,39.065796],[-80.457084,39.063437],[-80.45536,39.064207],[-80.455221,39.063716],[-80.45479,39.06344],[-80.453617,39.060616],[-80.451998,39.05973],[-80.45354,39.057881],[-80.453197,39.056349],[-80.451549,39.056483],[-80.449813,39.052724],[-80.446137,39.052705],[-80.443585,39.054084],[-80.439985,39.054837],[-80.43266,39.053364],[-80.430228,39.055405],[-80.425694,39.056324],[-80.420897,39.056936],[-80.410908,39.05714],[-80.406963,39.058575],[-80.40837,39.054141],[-80.406148,39.053262],[-80.404639,39.054195],[-80.400531,39.054165],[-80.400152,39.056361],[-80.40203,39.06086],[-80.402542,39.064438],[-80.405374,39.070389],[-80.405429,39.07288],[-80.403463,39.072769],[-80.403257,39.067564],[-80.402039,39.065867],[-80.400719,39.061696],[-80.400735,39.059811],[-80.398042,39.055236],[-80.397781,39.052617],[-80.395903,39.049962],[-80.393859,39.048609],[-80.392112,39.048334],[-80.389604,39.049054],[-80.388437,39.050471],[-80.384642,39.047851],[-80.373719,39.063397],[-80.374674,39.064277],[-80.371209,39.067353],[-80.364405,39.071459],[-80.362721,39.072592],[-80.356569,39.07359],[-80.352212,39.073266],[-80.350286,39.073674],[-80.347208,39.075392],[-80.342844,39.076635],[-80.341602,39.076244],[-80.329194,39.075792],[-80.326721,39.075342],[-80.326603,39.077341],[-80.327292,39.078369],[-80.326371,39.080021],[-80.325236,39.079352],[-80.317335,39.077717],[-80.315054,39.07823],[-80.309061,39.078563],[-80.302936,39.079619],[-80.300209,39.103857],[-80.30132,39.103997],[-80.338867,39.11264],[-80.420752,39.131402],[-80.421538,39.134168],[-80.41687,39.134918],[-80.416228,39.135966],[-80.41737,39.139363],[-80.413713,39.141948],[-80.409004,39.141645],[-80.402842,39.143339],[-80.402983,39.145011],[-80.404213,39.145636],[-80.398924,39.147181],[-80.397384,39.14912],[-80.394639,39.151139],[-80.395477,39.153696],[-80.394461,39.155187],[-80.39506,39.157244],[-80.397661,39.16088],[-80.400722,39.162432],[-80.402632,39.164857],[-80.408165,39.168441],[-80.411311,39.169949],[-80.412682,39.171421],[-80.416306,39.170312],[-80.417832,39.171289],[-80.420306,39.171341],[-80.427561,39.168605],[-80.429804,39.1683],[-80.430425,39.166712],[-80.432314,39.166351],[-80.433791,39.166477],[-80.43501,39.169524],[-80.435888,39.169721],[-80.434922,39.17305],[-80.436224,39.173147],[-80.437532,39.175527],[-80.438949,39.176589],[-80.440937,39.175328],[-80.444566,39.170876],[-80.446548,39.170581],[-80.448014,39.172229],[-80.450154,39.172555],[-80.452244,39.174223],[-80.456652,39.174884],[-80.457011,39.173926],[-80.455675,39.173217],[-80.455899,39.172157],[-80.479612,39.180774],[-80.480972,39.179921],[-80.481931,39.177237],[-80.481249,39.180695],[-80.482397,39.181918],[-80.493127,39.185872],[-80.495421,39.185433],[-80.495807,39.186858],[-80.502692,39.189384],[-80.500348,39.190724],[-80.501165,39.192518],[-80.505891,39.193367],[-80.509194,39.19168],[-80.511042,39.190193],[-80.51,39.187916],[-80.511428,39.181984],[-80.512779,39.180381],[-80.516577,39.179772],[-80.518127,39.181911],[-80.524501,39.186691],[-80.527442,39.187974],[-80.530748,39.190158],[-80.533692,39.19124],[-80.534663,39.194821],[-80.538207,39.195351],[-80.540862,39.19251],[-80.541107,39.189825],[-80.543759,39.188241],[-80.547898,39.186551],[-80.551267,39.186575],[-80.551838,39.18824],[-80.551249,39.189452],[-80.552999,39.19],[-80.554441,39.192193],[-80.558429,39.189713],[-80.558811,39.188389],[-80.558034,39.186814],[-80.559571,39.185258],[-80.560163,39.181797],[-80.561369,39.178881],[-80.566516,39.178115],[-80.570279,39.177209],[-80.575808,39.175189],[-80.577207,39.177068],[-80.579575,39.178635],[-80.584141,39.179892],[-80.587387,39.180359],[-80.591766,39.182697],[-80.591084,39.177816],[-80.589911,39.177129],[-80.59104,39.174987],[-80.589666,39.171278],[-80.591356,39.169527],[-80.593732,39.168602],[-80.595004,39.168748],[-80.59604,39.167198]]]}},{"type":"Feature","properties":{"zcta5":"26412","AFFGEOID10":"8600000US26412","GEOID10":"26412","ALAND10":118834466,"AWATER10":788190,"county_name":"Lewis","state_code":"WV","county_state":"Lewis County, WV","county_fips":"54041","risk_level_county":"Lower Risk (80–84% vaccinated)","mean_vaccination_rate_county":81.47,"risk_level_zcta":"Lower Risk (80–84% vaccinated)","mean_vaccination_rate_zips":84.67,"cases":0},"geometry":{"type":"Polygon","coordinates":[[[-80.676484,38.925307],[-80.675245,38.923352],[-80.671659,38.919113],[-80.672082,38.917102],[-80.671394,38.915077],[-80.667888,38.913059],[-80.666757,38.911158],[-80.66434,38.909265],[-80.662386,38.909084],[-80.659974,38.907025],[-80.658264,38.903925],[-80.656042,38.902353],[-80.655314,38.90071],[-80.654006,38.89945],[-80.652207,38.898895],[-80.649838,38.896645],[-80.647662,38.892354],[-80.646766,38.891301],[-80.644663,38.890719],[-80.641015,38.891236],[-80.638614,38.892563],[-80.636557,38.89254],[-80.634086,38.893759],[-80.633461,38.895811],[-80.6312,38.89759],[-80.628093,38.896634],[-80.622341,38.897824],[-80.623062,38.896454],[-80.62552,38.893459],[-80.627239,38.890551],[-80.62898,38.888718],[-80.629749,38.886917],[-80.629564,38.882926],[-80.630049,38.88117],[-80.631758,38.878417],[-80.634245,38.875872],[-80.6362,38.87318],[-80.638527,38.871764],[-80.64438,38.869531],[-80.647247,38.86733],[-80.64979,38.864366],[-80.642825,38.862022],[-80.638223,38.861637],[-80.636001,38.86311],[-80.634692,38.862092],[-80.630134,38.861271],[-80.628265,38.861359],[-80.6259,38.860349],[-80.622177,38.860443],[-80.617446,38.861133],[-80.614662,38.859267],[-80.615599,38.858766],[-80.617268,38.856196],[-80.617644,38.854984],[-80.61526,38.854422],[-80.616387,38.8535],[-80.615867,38.850043],[-80.619174,38.848161],[-80.62065,38.845026],[-80.619335,38.844676],[-80.62061,38.842719],[-80.619333,38.842139],[-80.620269,38.839134],[-80.619727,38.837425],[-80.617301,38.833574],[-80.617765,38.831501],[-80.620624,38.827343],[-80.619986,38.826612],[-80.618721,38.826072],[-80.613537,38.825622],[-80.609386,38.824221],[-80.605701,38.823867],[-80.605261,38.824803],[-80.600608,38.825331],[-80.59815,38.824413],[-80.595712,38.822501],[-80.593394,38.824561],[-80.58913,38.825854],[-80.585064,38.824709],[-80.581476,38.825622],[-80.58013,38.822689],[-80.577704,38.822663],[-80.576292,38.821404],[-80.573771,38.820275],[-80.569865,38.819478],[-80.569349,38.822795],[-80.567879,38.824993],[-80.564814,38.825912],[-80.562326,38.828035],[-80.560019,38.82867],[-80.556171,38.828436],[-80.555421,38.827557],[-80.549615,38.830774],[-80.548443,38.832063],[-80.545781,38.83276],[-80.542396,38.829962],[-80.539819,38.830434],[-80.538927,38.829142],[-80.539075,38.827642],[-80.534931,38.826806],[-80.533028,38.827393],[-80.532889,38.825063],[-80.530051,38.826647],[-80.529131,38.826328],[-80.528619,38.824487],[-80.524379,38.824152],[-80.517322,38.826909],[-80.507736,38.831384],[-80.504512,38.831615],[-80.50372,38.832118],[-80.501766,38.836861],[-80.500653,38.838081],[-80.496696,38.84091],[-80.49615,38.842459],[-80.497023,38.845441],[-80.500481,38.844854],[-80.503829,38.849183],[-80.504876,38.849603],[-80.505301,38.852164],[-80.50423,38.852838],[-80.502505,38.855375],[-80.502025,38.857913],[-80.501929,38.863511],[-80.502792,38.867691],[-80.504616,38.872525],[-80.500031,38.87048],[-80.497828,38.872162],[-80.496684,38.873685],[-80.495475,38.877465],[-80.496533,38.878755],[-80.495553,38.879503],[-80.495116,38.881157],[-80.493654,38.883464],[-80.495143,38.885575],[-80.495147,38.887015],[-80.493763,38.885286],[-80.491275,38.886091],[-80.491361,38.888277],[-80.490645,38.888553],[-80.491389,38.890206],[-80.493977,38.891241],[-80.494069,38.892346],[-80.492342,38.895065],[-80.496258,38.895481],[-80.498388,38.894509],[-80.501274,38.894298],[-80.502935,38.891789],[-80.505813,38.890948],[-80.507715,38.890991],[-80.510076,38.889685],[-80.509957,38.88777],[-80.508458,38.884853],[-80.512075,38.882835],[-80.514604,38.882134],[-80.516451,38.881071],[-80.518857,38.878381],[-80.522965,38.877281],[-80.52425,38.874184],[-80.527662,38.872759],[-80.530584,38.873441],[-80.532527,38.872957],[-80.536147,38.8811],[-80.559963,38.875923],[-80.57663,38.87686],[-80.578268,38.877129],[-80.583639,38.877253],[-80.588719,38.87536],[-80.590309,38.87528],[-80.591799,38.878076],[-80.591928,38.879584],[-80.590102,38.883549],[-80.590253,38.884477],[-80.594146,38.886777],[-80.596124,38.889661],[-80.598435,38.891631],[-80.598406,38.89297],[-80.596544,38.896325],[-80.592354,38.900194],[-80.59062,38.900984],[-80.588259,38.903948],[-80.583916,38.90639],[-80.578155,38.909195],[-80.576864,38.911285],[-80.572501,38.913266],[-80.569798,38.915378],[-80.56738,38.916533],[-80.565732,38.918016],[-80.563498,38.91801],[-80.563686,38.919038],[-80.565212,38.920738],[-80.569054,38.922088],[-80.568476,38.924431],[-80.569246,38.925412],[-80.569401,38.927219],[-80.573063,38.92827],[-80.574488,38.930677],[-80.574367,38.9319],[-80.576535,38.933719],[-80.581082,38.934158],[-80.580863,38.93638],[-80.579918,38.93781],[-80.576716,38.93968],[-80.573336,38.940712],[-80.563444,38.946161],[-80.557554,38.948479],[-80.55545,38.948101],[-80.556232,38.950912],[-80.553475,38.94962],[-80.551934,38.949383],[-80.549975,38.951031],[-80.548299,38.950131],[-80.546948,38.948606],[-80.543063,38.948314],[-80.537038,38.947424],[-80.535746,38.947781],[-80.53488,38.950051],[-80.53583,38.954518],[-80.530538,38.958452],[-80.530543,38.960379],[-80.531956,38.962433],[-80.531617,38.963483],[-80.533189,38.963224],[-80.536418,38.964543],[-80.537095,38.965798],[-80.538323,38.964634],[-80.542704,38.963675],[-80.543341,38.962465],[-80.542861,38.960662],[-80.544054,38.958689],[-80.547185,38.957876],[-80.549443,38.956259],[-80.553639,38.954129],[-80.555576,38.954502],[-80.5591,38.95676],[-80.562333,38.957306],[-80.562149,38.95672],[-80.565854,38.958347],[-80.567353,38.960808],[-80.567718,38.963145],[-80.571356,38.960217],[-80.5787,38.954853],[-80.578783,38.955626],[-80.577291,38.956982],[-80.576838,38.959296],[-80.578336,38.961176],[-80.578369,38.963872],[-80.579082,38.966073],[-80.57843,38.967468],[-80.583616,38.969657],[-80.587016,38.968928],[-80.584465,38.966735],[-80.585055,38.965847],[-80.584706,38.963748],[-80.588723,38.960848],[-80.58815,38.959509],[-80.588349,38.95718],[-80.589894,38.956834],[-80.593867,38.954831],[-80.596274,38.954789],[-80.601331,38.953409],[-80.603757,38.953373],[-80.605858,38.951964],[-80.609528,38.952152],[-80.611455,38.951169],[-80.614291,38.951187],[-80.617965,38.949468],[-80.618505,38.948687],[-80.624505,38.949835],[-80.628167,38.949194],[-80.628944,38.94845],[-80.632693,38.947498],[-80.635806,38.947126],[-80.637058,38.947597],[-80.639587,38.946415],[-80.643172,38.946555],[-80.645052,38.947501],[-80.648069,38.950416],[-80.653477,38.951559],[-80.655033,38.950435],[-80.636191,38.932725],[-80.639018,38.930175],[-80.641609,38.927074],[-80.642304,38.928494],[-80.644817,38.929836],[-80.650123,38.929112],[-80.652014,38.931259],[-80.654894,38.931498],[-80.658393,38.932403],[-80.659827,38.932149],[-80.662249,38.930726],[-80.664656,38.930802],[-80.668119,38.931801],[-80.669622,38.931467],[-80.673085,38.928711],[-80.673398,38.927952],[-80.676484,38.925307]]]}},{"type":"Feature","properties":{"zcta5":"26384","AFFGEOID10":"8600000US26384","GEOID10":"26384","ALAND10":86898320,"AWATER10":433410,"county_name":"Lewis","state_code":"WV","county_state":"Lewis County, WV","county_fips":"54041","risk_level_county":"Lower Risk (80–84% vaccinated)","mean_vaccination_rate_county":81.47,"risk_level_zcta":"Uninhabited","mean_vaccination_rate_zips":null,"cases":0},"geometry":{"type":"Polygon","coordinates":[[[-80.725741,39.064114],[-80.736754,39.052449],[-80.735884,39.050632],[-80.736156,39.048507],[-80.735499,39.046374],[-80.736433,39.042474],[-80.740182,39.044204],[-80.742916,39.04503],[-80.74401,39.044766],[-80.765495,39.021913],[-80.762991,39.021083],[-80.762994,39.019978],[-80.764983,39.019281],[-80.766482,39.020645],[-80.767628,39.02294],[-80.770966,39.022893],[-80.771179,39.020316],[-80.772708,39.017661],[-80.771556,39.013175],[-80.772601,39.012223],[-80.769273,39.011452],[-80.767937,39.009934],[-80.768277,39.007378],[-80.76719,39.005824],[-80.766926,39.004222],[-80.764858,39.002163],[-80.763251,38.999351],[-80.765055,38.998622],[-80.766932,39.000372],[-80.768865,38.999156],[-80.767451,38.998057],[-80.76829,38.996347],[-80.766498,38.9957],[-80.76657,38.994599],[-80.764636,38.992673],[-80.76475,38.989905],[-80.76398,38.991051],[-80.761603,38.991255],[-80.758831,38.990624],[-80.758446,38.99176],[-80.755475,38.991792],[-80.753881,38.993811],[-80.751334,38.994206],[-80.74899,38.993654],[-80.747677,38.992443],[-80.744371,38.993585],[-80.742877,38.992149],[-80.739177,38.991572],[-80.737173,38.98934],[-80.733863,38.990469],[-80.73203,38.992122],[-80.72994,38.990809],[-80.726796,38.989732],[-80.725626,38.987944],[-80.725858,38.986985],[-80.728217,38.98597],[-80.729896,38.985995],[-80.729972,38.98477],[-80.73487,38.975619],[-80.732526,38.972622],[-80.731045,38.969373],[-80.734233,38.969565],[-80.734397,38.967794],[-80.735987,38.968152],[-80.737311,38.96677],[-80.739278,38.967323],[-80.743214,38.959851],[-80.73885,38.957224],[-80.735383,38.956599],[-80.739953,38.956801],[-80.742608,38.9581],[-80.74479,38.95695],[-80.745137,38.957754],[-80.748829,38.956593],[-80.751259,38.956832],[-80.753472,38.956175],[-80.755589,38.956974],[-80.756873,38.954894],[-80.756828,38.953686],[-80.758307,38.954136],[-80.759036,38.95282],[-80.758314,38.948075],[-80.754991,38.945859],[-80.755799,38.943122],[-80.758202,38.939968],[-80.757924,38.935261],[-80.760539,38.934064],[-80.761554,38.932853],[-80.766976,38.929586],[-80.768409,38.927772],[-80.765852,38.925875],[-80.765604,38.924418],[-80.766368,38.921411],[-80.769384,38.91634],[-80.76577,38.915494],[-80.757412,38.91559],[-80.754469,38.917409],[-80.752704,38.917126],[-80.748699,38.917941],[-80.744952,38.920195],[-80.745512,38.922621],[-80.744733,38.924287],[-80.743657,38.924082],[-80.742059,38.921289],[-80.741158,38.921292],[-80.739804,38.925524],[-80.738411,38.925309],[-80.736153,38.923835],[-80.732673,38.924165],[-80.729359,38.922689],[-80.727917,38.922447],[-80.727411,38.923117],[-80.727708,38.925195],[-80.724228,38.927791],[-80.723005,38.9295],[-80.722711,38.931978],[-80.724359,38.935383],[-80.723206,38.937543],[-80.716222,38.937932],[-80.714323,38.93722],[-80.71494,38.933703],[-80.713089,38.931531],[-80.708468,38.930375],[-80.70548,38.930318],[-80.703207,38.930686],[-80.699354,38.930055],[-80.699417,38.929352],[-80.701948,38.927962],[-80.700007,38.926907],[-80.69585,38.923855],[-80.694415,38.924081],[-80.693678,38.9258],[-80.691427,38.923321],[-80.690323,38.924093],[-80.690161,38.9263],[-80.688346,38.927251],[-80.686539,38.927453],[-80.683867,38.925225],[-80.679725,38.925394],[-80.677158,38.924661],[-80.676484,38.925307],[-80.673398,38.927952],[-80.673085,38.928711],[-80.669622,38.931467],[-80.668119,38.931801],[-80.664656,38.930802],[-80.662249,38.930726],[-80.659827,38.932149],[-80.658393,38.932403],[-80.654894,38.931498],[-80.652014,38.931259],[-80.650123,38.929112],[-80.644817,38.929836],[-80.642304,38.928494],[-80.641609,38.927074],[-80.639018,38.930175],[-80.636191,38.932725],[-80.655033,38.950435],[-80.669124,38.963668],[-80.668264,38.966226],[-80.669968,38.968979],[-80.670929,38.969303],[-80.671426,38.970893],[-80.670381,38.97458],[-80.670676,38.975777],[-80.669228,38.980247],[-80.670338,38.981957],[-80.669882,38.983281],[-80.66816,38.984896],[-80.665349,38.985585],[-80.663684,38.988365],[-80.663605,38.990131],[-80.666551,38.993027],[-80.668188,38.995641],[-80.668018,38.997775],[-80.669712,38.999099],[-80.669306,39.000618],[-80.670636,39.000402],[-80.672151,39.003636],[-80.675955,39.004918],[-80.677098,39.006559],[-80.678784,39.006745],[-80.679251,39.00545],[-80.681602,39.006054],[-80.681125,39.007656],[-80.68174,39.008463],[-80.683688,39.008782],[-80.688405,39.008464],[-80.689914,39.009219],[-80.689635,39.011811],[-80.692076,39.013621],[-80.691973,39.015349],[-80.693424,39.01571],[-80.694869,39.015095],[-80.694809,39.015806],[-80.695985,39.015966],[-80.697333,39.014161],[-80.701052,39.014229],[-80.704522,39.012039],[-80.708253,39.010413],[-80.710521,39.010716],[-80.711021,39.012186],[-80.712127,39.012022],[-80.714457,39.010226],[-80.71705,39.009933],[-80.721719,39.039942],[-80.722802,39.045529],[-80.723101,39.048683],[-80.725741,39.064114]]]}},{"type":"Feature","properties":{"zcta5":"26343","AFFGEOID10":"8600000US26343","GEOID10":"26343","ALAND10":54922839,"AWATER10":4364,"county_name":"Lewis","state_code":"WV","county_state":"Lewis County, WV","county_fips":"54041","risk_level_county":"Lower Risk (80–84% vaccinated)","mean_vaccination_rate_county":81.47,"risk_level_zcta":"Medium Risk (70–79% vaccinated)","mean_vaccination_rate_zips":76.35,"cases":0},"geometry":{"type":"MultiPolygon","coordinates":[[[[-80.407267,38.778809],[-80.409103,38.770511],[-80.406959,38.768902],[-80.404986,38.768397],[-80.401443,38.768919],[-80.398166,38.76899],[-80.398038,38.766966],[-80.394995,38.767577],[-80.392423,38.769398],[-80.39019,38.768065],[-80.387386,38.767842],[-80.384571,38.769889],[-80.381414,38.769878],[-80.378472,38.77034],[-80.375419,38.773215],[-80.370702,38.774222],[-80.368235,38.776085],[-80.365,38.776559],[-80.364106,38.777999],[-80.367845,38.781278],[-80.367387,38.782129],[-80.367444,38.784318],[-80.366761,38.785595],[-80.366901,38.786362],[-80.366491,38.787006],[-80.364966,38.786649],[-80.363566,38.788471],[-80.36163,38.788537],[-80.361388,38.790596],[-80.360231,38.791065],[-80.359254,38.790861],[-80.358387,38.791642],[-80.356996,38.792127],[-80.355583,38.792083],[-80.354574,38.7929],[-80.352981,38.793054],[-80.352102,38.793931],[-80.351376,38.796026],[-80.351623,38.797054],[-80.350858,38.797635],[-80.347994,38.798556],[-80.345885,38.799588],[-80.344999,38.80035],[-80.343292,38.800138],[-80.34473,38.800533],[-80.346185,38.799623],[-80.347685,38.799503],[-80.350362,38.798419],[-80.351955,38.798263],[-80.354313,38.798665],[-80.355511,38.800004],[-80.355352,38.801891],[-80.354408,38.803297],[-80.355306,38.80597],[-80.356,38.806208],[-80.357516,38.807663],[-80.357107,38.80901],[-80.356273,38.809602],[-80.357739,38.809855],[-80.359297,38.808123],[-80.360268,38.807717],[-80.362913,38.807701],[-80.366066,38.8068],[-80.367569,38.807041],[-80.370156,38.809215],[-80.371233,38.809486],[-80.372569,38.809228],[-80.37551,38.809314],[-80.377427,38.809723],[-80.379728,38.809737],[-80.381939,38.809033],[-80.384721,38.809288],[-80.387097,38.810628],[-80.390703,38.809463],[-80.390526,38.807965],[-80.392008,38.806561],[-80.39632,38.804781],[-80.397335,38.804566],[-80.3979,38.802703],[-80.39885,38.801575],[-80.397795,38.800856],[-80.397357,38.800022],[-80.398343,38.799581],[-80.40003,38.797969],[-80.400671,38.796336],[-80.39954,38.794909],[-80.399891,38.793708],[-80.399594,38.792695],[-80.398103,38.791123],[-80.39815,38.789814],[-80.39653,38.786474],[-80.395055,38.7865],[-80.397551,38.78587],[-80.400004,38.783918],[-80.402589,38.782675],[-80.404757,38.780089],[-80.407267,38.778809]]],[[[-80.387573,38.872033],[-80.389433,38.873057],[-80.389906,38.87401],[-80.394729,38.87402],[-80.396294,38.873555],[-80.398263,38.874112],[-80.400339,38.877273],[-80.40262,38.879206],[-80.404403,38.883457],[-80.405364,38.883439],[-80.405176,38.885527],[-80.406122,38.886581],[-80.409802,38.892179],[-80.412269,38.893474],[-80.417245,38.893206],[-80.422861,38.888408],[-80.432934,38.881039],[-80.438861,38.877884],[-80.442406,38.875331],[-80.448328,38.87345],[-80.451309,38.874214],[-80.453543,38.873087],[-80.454401,38.871317],[-80.457665,38.868964],[-80.454946,38.868112],[-80.453415,38.869425],[-80.454831,38.869751],[-80.45233,38.871383],[-80.45115,38.87311],[-80.449833,38.873015],[-80.446473,38.873768],[-80.440337,38.872807],[-80.437107,38.87161],[-80.441037,38.87255],[-80.445927,38.872729],[-80.42688,38.845866],[-80.446964,38.835182],[-80.448229,38.835266],[-80.447667,38.833845],[-80.451186,38.832238],[-80.449997,38.830443],[-80.45198,38.828426],[-80.453071,38.825203],[-80.450774,38.822283],[-80.445943,38.818867],[-80.442284,38.817346],[-80.440585,38.815137],[-80.439443,38.812826],[-80.438675,38.809555],[-80.437062,38.808818],[-80.435834,38.806863],[-80.436278,38.802986],[-80.433817,38.802655],[-80.428305,38.803295],[-80.42461,38.804301],[-80.423424,38.806019],[-80.420868,38.806335],[-80.417937,38.807425],[-80.416329,38.809725],[-80.412515,38.812297],[-80.410757,38.815105],[-80.40913,38.816278],[-80.403565,38.81692],[-80.403769,38.815632],[-80.402829,38.813956],[-80.401496,38.813214],[-80.399935,38.813817],[-80.399907,38.813955],[-80.397916,38.813144],[-80.395285,38.814337],[-80.393917,38.817481],[-80.39159,38.820326],[-80.386718,38.823722],[-80.383805,38.824289],[-80.380595,38.826002],[-80.378614,38.826316],[-80.381542,38.826606],[-80.382849,38.82739],[-80.3821,38.82861],[-80.382577,38.829822],[-80.388011,38.834056],[-80.392474,38.836708],[-80.391424,38.837559],[-80.391189,38.839291],[-80.389047,38.840797],[-80.388459,38.842426],[-80.388591,38.844483],[-80.386766,38.846103],[-80.383417,38.846937],[-80.379519,38.847044],[-80.377047,38.848475],[-80.37128,38.847311],[-80.366178,38.849276],[-80.363918,38.850838],[-80.359099,38.852272],[-80.3595,38.853729],[-80.361538,38.853353],[-80.363301,38.853723],[-80.364475,38.855428],[-80.36598,38.856315],[-80.368446,38.856288],[-80.369817,38.857908],[-80.371777,38.858126],[-80.372488,38.859391],[-80.376829,38.860293],[-80.379379,38.861217],[-80.380679,38.860773],[-80.389774,38.861581],[-80.389503,38.862876],[-80.387573,38.872033]]]]}}]}