{"type":"FeatureCollection","features":[{"type":"Feature","properties":{"zcta5":"78611","AFFGEOID10":"8600000US78611","GEOID10":"78611","ALAND10":719311860,"AWATER10":38087547,"county_name":"Llano","state_code":"TX","county_state":"Llano County, TX","county_fips":"48299","risk_level_county":"Medium Risk (70–79% vaccinated)","mean_vaccination_rate_county":70.57,"risk_level_zcta":"Higher Risk (60–69% vaccinated)","mean_vaccination_rate_zips":64.85,"cases":803},"geometry":{"type":"Polygon","coordinates":[[[-98.44862,30.910089],[-98.449173,30.907026],[-98.449463,30.903162],[-98.449356,30.896605],[-98.448471,30.892838],[-98.448593,30.890785],[-98.449493,30.889439],[-98.454178,30.885838],[-98.456436,30.883095],[-98.457207,30.881147],[-98.457382,30.878897],[-98.456352,30.876455],[-98.452493,30.87231],[-98.448326,30.870588],[-98.445867,30.870327],[-98.437782,30.870567],[-98.434113,30.870127],[-98.431557,30.869432],[-98.426871,30.867293],[-98.423683,30.865404],[-98.420738,30.862213],[-98.41935,30.859121],[-98.419632,30.850876],[-98.421026,30.845025],[-98.422211,30.83923],[-98.422256,30.836498],[-98.421593,30.834997],[-98.415718,30.834728],[-98.412468,30.835114],[-98.408851,30.836559],[-98.406903,30.839051],[-98.405769,30.842984],[-98.403542,30.843981],[-98.397636,30.843813],[-98.393646,30.84296],[-98.388229,30.840576],[-98.381371,30.838202],[-98.379578,30.837223],[-98.376877,30.83489],[-98.376587,30.833776],[-98.377595,30.829507],[-98.380074,30.825998],[-98.383899,30.822005],[-98.385666,30.82058],[-98.388184,30.819061],[-98.390053,30.818436],[-98.395378,30.818176],[-98.400887,30.818901],[-98.403336,30.817936],[-98.404948,30.815745],[-98.405434,30.813951],[-98.408159,30.809008],[-98.408653,30.80732],[-98.408958,30.80162],[-98.409721,30.799131],[-98.411224,30.796371],[-98.412552,30.794991],[-98.415596,30.79427],[-98.419941,30.7953],[-98.425369,30.795567],[-98.428482,30.79394],[-98.431996,30.790436],[-98.432543,30.78858],[-98.432098,30.78631],[-98.42971,30.783209],[-98.423546,30.777578],[-98.422531,30.775042],[-98.42289,30.773052],[-98.424355,30.77033],[-98.426907,30.767828],[-98.42923,30.763807],[-98.430214,30.76096],[-98.43029,30.757783],[-98.428956,30.754272],[-98.42663,30.751527],[-98.425842,30.751099],[-98.42234,30.750463],[-98.420204,30.751141],[-98.414504,30.751957],[-98.411769,30.751496],[-98.406853,30.751492],[-98.401703,30.750284],[-98.400156,30.75022],[-98.396324,30.747223],[-98.394249,30.746489],[-98.391408,30.746034],[-98.384781,30.746143],[-98.379555,30.747374],[-98.377777,30.747238],[-98.374878,30.746384],[-98.371628,30.742922],[-98.371472,30.741378],[-98.374062,30.738295],[-98.376249,30.737055],[-98.385521,30.730331],[-98.386101,30.728905],[-98.390656,30.722862],[-98.392654,30.721233],[-98.397476,30.721252],[-98.402107,30.72184],[-98.404152,30.721083],[-98.407708,30.716541],[-98.408508,30.714973],[-98.408603,30.71309],[-98.409073,30.710403],[-98.410448,30.707891],[-98.413962,30.704392],[-98.414436,30.702959],[-98.413376,30.700977],[-98.410118,30.697535],[-98.407738,30.694563],[-98.40546,30.690226],[-98.404888,30.68782],[-98.402176,30.680794],[-98.402374,30.678497],[-98.40332,30.676851],[-98.406123,30.67529],[-98.407776,30.67502],[-98.411972,30.675806],[-98.415118,30.675779],[-98.408405,30.674368],[-98.402562,30.675436],[-98.402006,30.672153],[-98.402908,30.670097],[-98.395179,30.672283],[-98.393263,30.674411],[-98.391659,30.681407],[-98.389459,30.68647],[-98.383461,30.692886],[-98.381817,30.696859],[-98.380936,30.700649],[-98.380064,30.697102],[-98.376765,30.696186],[-98.374354,30.696878],[-98.368495,30.696261],[-98.363904,30.696641],[-98.359346,30.69669],[-98.356462,30.695141],[-98.352717,30.688353],[-98.350856,30.685606],[-98.349376,30.684629],[-98.346058,30.683472],[-98.342601,30.683617],[-98.324591,30.675185],[-98.316431,30.670713],[-98.318917,30.67769],[-98.318891,30.67826],[-98.318152,30.679517],[-98.315664,30.67976],[-98.314075,30.680799],[-98.313203,30.679026],[-98.309494,30.679526],[-98.25876,30.645463],[-98.257341,30.649618],[-98.256659,30.653412],[-98.254809,30.654626],[-98.252067,30.657523],[-98.246787,30.659886],[-98.238596,30.662273],[-98.236715,30.663833],[-98.231851,30.666325],[-98.23203,30.668962],[-98.229171,30.664964],[-98.228882,30.664046],[-98.22487,30.665708],[-98.223031,30.665764],[-98.21992,30.668441],[-98.214535,30.669279],[-98.213057,30.671862],[-98.211421,30.672838],[-98.212129,30.670675],[-98.211394,30.6681],[-98.209953,30.668931],[-98.202763,30.670342],[-98.200277,30.66846],[-98.198673,30.666001],[-98.19797,30.663686],[-98.19631,30.66249],[-98.191099,30.65758],[-98.190244,30.65492],[-98.187756,30.652039],[-98.182475,30.650064],[-98.178314,30.651014],[-98.17429,30.649007],[-98.170031,30.647245],[-98.16679,30.64516],[-98.164163,30.644725],[-98.162146,30.643353],[-98.163384,30.641656],[-98.160279,30.638068],[-98.160235,30.636374],[-98.162339,30.635942],[-98.163548,30.634101],[-98.162982,30.63034],[-98.159522,30.627972],[-98.156314,30.629714],[-98.156473,30.632326],[-98.152523,30.633013],[-98.150906,30.634731],[-98.149342,30.634777],[-98.146931,30.633493],[-98.144546,30.633377],[-98.143936,30.635073],[-98.135271,30.631906],[-98.132706,30.63133],[-98.136628,30.625166],[-98.137102,30.624043],[-98.126977,30.618707],[-98.12907,30.614427],[-98.122345,30.611226],[-98.117241,30.612604],[-98.116848,30.61271],[-98.121956,30.615889],[-98.118125,30.621973],[-98.115933,30.61971],[-98.112844,30.620152],[-98.112536,30.620793],[-98.114309,30.624019],[-98.116107,30.624889],[-98.114352,30.626773],[-98.113904,30.626847],[-98.102359,30.625143],[-98.101891,30.626593],[-98.103069,30.630555],[-98.104405,30.632682],[-98.104209,30.634159],[-98.102508,30.634575],[-98.102478,30.635597],[-98.104131,30.636509],[-98.10315,30.637675],[-98.10462,30.639807],[-98.105614,30.640139],[-98.106691,30.642004],[-98.108455,30.642666],[-98.111779,30.644711],[-98.117729,30.65153],[-98.119666,30.655259],[-98.11952,30.659212],[-98.117024,30.660758],[-98.115245,30.663676],[-98.115218,30.668879],[-98.114368,30.670828],[-98.11785,30.67834],[-98.119728,30.677003],[-98.122192,30.676523],[-98.124131,30.677535],[-98.129937,30.675685],[-98.130764,30.676549],[-98.135118,30.676002],[-98.138505,30.674704],[-98.142962,30.674906],[-98.151113,30.693936],[-98.144129,30.69635],[-98.145392,30.698684],[-98.147197,30.700744],[-98.152747,30.703391],[-98.157754,30.705216],[-98.161303,30.70682],[-98.159682,30.706568],[-98.158337,30.708356],[-98.154981,30.711336],[-98.154969,30.712275],[-98.14558,30.717603],[-98.143638,30.721882],[-98.142319,30.723081],[-98.139278,30.724522],[-98.141634,30.72632],[-98.147434,30.729603],[-98.149635,30.73222],[-98.152042,30.732173],[-98.155511,30.733007],[-98.154718,30.735532],[-98.155203,30.736145],[-98.161477,30.738591],[-98.162877,30.740405],[-98.161904,30.743615],[-98.160871,30.749411],[-98.164532,30.749435],[-98.165617,30.750455],[-98.163766,30.752356],[-98.163744,30.754223],[-98.162343,30.756703],[-98.162193,30.759577],[-98.157163,30.761096],[-98.156489,30.764309],[-98.154731,30.769222],[-98.155178,30.770011],[-98.15428,30.775038],[-98.154503,30.776554],[-98.153358,30.77872],[-98.152288,30.778921],[-98.15178,30.781173],[-98.148461,30.782783],[-98.14721,30.785112],[-98.142336,30.786636],[-98.139133,30.785468],[-98.13687,30.785783],[-98.133024,30.785061],[-98.129635,30.787046],[-98.12833,30.787142],[-98.12824,30.784534],[-98.124587,30.784821],[-98.121317,30.787459],[-98.120327,30.789714],[-98.118726,30.790235],[-98.116896,30.78927],[-98.11375,30.78934],[-98.112598,30.790308],[-98.110106,30.790812],[-98.10864,30.790043],[-98.109046,30.79191],[-98.110251,30.792621],[-98.113997,30.801348],[-98.117136,30.800627],[-98.119479,30.806159],[-98.104849,30.810506],[-98.080445,30.818271],[-98.082457,30.823025],[-98.083958,30.824478],[-98.088442,30.826524],[-98.090147,30.828153],[-98.091759,30.832843],[-98.094926,30.837587],[-98.096235,30.841058],[-98.098096,30.84345],[-98.096057,30.844452],[-98.096112,30.846845],[-98.090173,30.847204],[-98.08632,30.849868],[-98.077274,30.849613],[-98.062673,30.853933],[-98.066363,30.862436],[-98.069671,30.862026],[-98.101141,30.860732],[-98.101618,30.865438],[-98.099995,30.866249],[-98.098476,30.865224],[-98.095646,30.866159],[-98.095134,30.866962],[-98.095336,30.870038],[-98.09144,30.877685],[-98.088902,30.879768],[-98.087685,30.882966],[-98.085733,30.883422],[-98.084806,30.884653],[-98.082826,30.885231],[-98.083359,30.886132],[-98.08268,30.889016],[-98.083933,30.89376],[-98.084974,30.896498],[-98.083526,30.897829],[-98.080916,30.8991],[-98.080601,30.901241],[-98.07846,30.903852],[-98.080755,30.904488],[-98.081858,30.903051],[-98.083971,30.902008],[-98.087664,30.903701],[-98.090079,30.902935],[-98.097604,30.905113],[-98.099664,30.904931],[-98.102373,30.905762],[-98.10295,30.903899],[-98.105268,30.902597],[-98.111672,30.903731],[-98.115166,30.903612],[-98.118625,30.902755],[-98.118521,30.90479],[-98.119124,30.907041],[-98.122599,30.910924],[-98.126076,30.915333],[-98.128099,30.916665],[-98.128961,30.91813],[-98.13245,30.920409],[-98.134348,30.923914],[-98.137585,30.92447],[-98.142789,30.922848],[-98.144997,30.919866],[-98.14749,30.915544],[-98.151553,30.910134],[-98.153506,30.905995],[-98.154727,30.906308],[-98.161734,30.904787],[-98.179479,30.905574],[-98.18744,30.904081],[-98.188342,30.905158],[-98.192814,30.90881],[-98.19334,30.90614],[-98.194455,30.906183],[-98.194238,30.907907],[-98.195178,30.909314],[-98.198259,30.90978],[-98.201231,30.908966],[-98.205618,30.908615],[-98.21052,30.906066],[-98.23403,30.896776],[-98.237614,30.895766],[-98.242479,30.895026],[-98.246163,30.897225],[-98.248592,30.900222],[-98.263056,30.894093],[-98.268328,30.899838],[-98.27164,30.902308],[-98.273687,30.904453],[-98.273762,30.907116],[-98.27606,30.912779],[-98.28095,30.911974],[-98.283687,30.911916],[-98.29173,30.900126],[-98.292607,30.898269],[-98.294607,30.895803],[-98.313188,30.895335],[-98.340352,30.895187],[-98.344161,30.911706],[-98.403129,30.910734],[-98.403042,30.912658],[-98.404265,30.911352],[-98.406232,30.910573],[-98.408146,30.911903],[-98.409714,30.911811],[-98.413935,30.910577],[-98.444232,30.910264],[-98.44862,30.910089]]]}},{"type":"Feature","properties":{"zcta5":"78643","AFFGEOID10":"8600000US78643","GEOID10":"78643","ALAND10":1823411994,"AWATER10":14702227,"county_name":"Llano","state_code":"TX","county_state":"Llano County, TX","county_fips":"48299","risk_level_county":"Medium Risk (70–79% vaccinated)","mean_vaccination_rate_county":70.57,"risk_level_zcta":"Higher Risk (60–69% vaccinated)","mean_vaccination_rate_zips":66.44,"cases":803},"geometry":{"type":"Polygon","coordinates":[[[-98.964304,30.586599],[-98.964112,30.500742],[-98.964204,30.500188],[-98.964232,30.498482],[-98.757521,30.498867],[-98.750292,30.498766],[-98.749693,30.498853],[-98.59167,30.499875],[-98.495814,30.501415],[-98.495794,30.500185],[-98.489488,30.499468],[-98.484995,30.499429],[-98.482109,30.499771],[-98.473411,30.499633],[-98.471484,30.498973],[-98.470089,30.499538],[-98.469283,30.501628],[-98.440983,30.501862],[-98.441155,30.504724],[-98.440192,30.509053],[-98.440499,30.511101],[-98.447204,30.52216],[-98.447664,30.523971],[-98.445807,30.529531],[-98.445023,30.532863],[-98.443005,30.536642],[-98.447986,30.540265],[-98.449929,30.541338],[-98.455422,30.543665],[-98.457587,30.544943],[-98.472815,30.558069],[-98.469398,30.559868],[-98.467797,30.562155],[-98.467807,30.563997],[-98.470251,30.569844],[-98.469911,30.571529],[-98.468181,30.573274],[-98.465298,30.574329],[-98.463893,30.574164],[-98.461359,30.572439],[-98.459486,30.570379],[-98.456506,30.570486],[-98.453254,30.571903],[-98.450976,30.570765],[-98.4458,30.570249],[-98.444798,30.569329],[-98.445559,30.565368],[-98.444546,30.563662],[-98.442819,30.563972],[-98.438756,30.566127],[-98.436603,30.56664],[-98.433422,30.566216],[-98.431659,30.565146],[-98.430715,30.563041],[-98.42683,30.559195],[-98.424918,30.55841],[-98.423432,30.558828],[-98.422778,30.561556],[-98.421864,30.56154],[-98.419054,30.567667],[-98.420634,30.573875],[-98.413089,30.581562],[-98.413813,30.585081],[-98.4132,30.586906],[-98.411835,30.588182],[-98.407944,30.5905],[-98.402795,30.592956],[-98.400696,30.594644],[-98.400132,30.596178],[-98.399996,30.597305],[-98.400608,30.599476],[-98.403242,30.603694],[-98.407112,30.60841],[-98.411928,30.616419],[-98.41981,30.613564],[-98.418413,30.61102],[-98.413822,30.606844],[-98.413919,30.604044],[-98.417956,30.603837],[-98.420611,30.600659],[-98.424178,30.594661],[-98.426574,30.59418],[-98.431237,30.595359],[-98.433911,30.595033],[-98.441402,30.592029],[-98.449039,30.587002],[-98.452272,30.591019],[-98.453033,30.593403],[-98.453185,30.598291],[-98.456851,30.601181],[-98.460807,30.602802],[-98.462584,30.602042],[-98.463825,30.600401],[-98.466326,30.600958],[-98.470381,30.600288],[-98.472649,30.601708],[-98.474646,30.603959],[-98.474133,30.607558],[-98.474559,30.609913],[-98.477349,30.608432],[-98.477532,30.606575],[-98.48082,30.608658],[-98.482913,30.608244],[-98.484371,30.608953],[-98.487498,30.608859],[-98.488957,30.609935],[-98.494044,30.609747],[-98.494979,30.61044],[-98.489547,30.610305],[-98.485809,30.609649],[-98.480683,30.611458],[-98.478212,30.613516],[-98.47684,30.616719],[-98.472638,30.62267],[-98.470562,30.626895],[-98.469084,30.628616],[-98.470398,30.629476],[-98.471154,30.628709],[-98.47382,30.628847],[-98.476524,30.63027],[-98.474025,30.632675],[-98.471888,30.636498],[-98.47053,30.637412],[-98.469402,30.63982],[-98.475032,30.640348],[-98.47916,30.641263],[-98.481097,30.642354],[-98.486191,30.646146],[-98.488174,30.648748],[-98.488817,30.650624],[-98.48862,30.653779],[-98.487403,30.657083],[-98.487976,30.661481],[-98.49167,30.663427],[-98.492677,30.663036],[-98.49331,30.660148],[-98.495201,30.658626],[-98.496042,30.660101],[-98.495569,30.662865],[-98.493566,30.662934],[-98.492754,30.664398],[-98.491821,30.668657],[-98.492743,30.668586],[-98.493359,30.670024],[-98.49467,30.670753],[-98.495915,30.672761],[-98.495277,30.673128],[-98.488904,30.679343],[-98.483786,30.682253],[-98.484206,30.683302],[-98.480827,30.688258],[-98.475298,30.692162],[-98.474719,30.693974],[-98.474866,30.697085],[-98.475958,30.69846],[-98.478875,30.700612],[-98.480617,30.700974],[-98.483892,30.702511],[-98.487229,30.70214],[-98.490083,30.70233],[-98.497157,30.702041],[-98.502373,30.702407],[-98.507981,30.705159],[-98.511996,30.708426],[-98.514599,30.71],[-98.516698,30.710325],[-98.521441,30.712351],[-98.522155,30.713382],[-98.528305,30.714902],[-98.533909,30.718718],[-98.534958,30.720997],[-98.537068,30.723141],[-98.542777,30.72788],[-98.545348,30.730439],[-98.550573,30.733641],[-98.552021,30.734853],[-98.527416,30.734792],[-98.529937,30.73351],[-98.531953,30.733946],[-98.534155,30.733579],[-98.538986,30.731082],[-98.539438,30.72785],[-98.538243,30.726681],[-98.532381,30.722738],[-98.528562,30.719276],[-98.527847,30.718152],[-98.526228,30.718358],[-98.523258,30.716891],[-98.519432,30.717464],[-98.514808,30.716539],[-98.508715,30.716624],[-98.502968,30.714933],[-98.502261,30.717652],[-98.500055,30.721387],[-98.508466,30.726753],[-98.510736,30.728963],[-98.511752,30.732633],[-98.510909,30.734613],[-98.507257,30.732862],[-98.506384,30.734158],[-98.504511,30.735287],[-98.484271,30.735421],[-98.484892,30.738361],[-98.484723,30.740691],[-98.483641,30.744462],[-98.482652,30.746547],[-98.483,30.747922],[-98.484357,30.748978],[-98.484417,30.750438],[-98.482768,30.752915],[-98.481788,30.757392],[-98.480965,30.759089],[-98.50174,30.759509],[-98.503154,30.761379],[-98.504879,30.765722],[-98.505287,30.77063],[-98.504133,30.771073],[-98.504301,30.772735],[-98.505441,30.775945],[-98.505573,30.778875],[-98.502053,30.786426],[-98.501981,30.791097],[-98.503278,30.792721],[-98.504337,30.796797],[-98.50732,30.794601],[-98.508517,30.794366],[-98.508764,30.792083],[-98.508428,30.788855],[-98.508989,30.788093],[-98.513833,30.786098],[-98.514804,30.786181],[-98.516358,30.787984],[-98.517143,30.791036],[-98.518404,30.791406],[-98.520892,30.800098],[-98.524541,30.801811],[-98.525911,30.803133],[-98.525519,30.815937],[-98.526292,30.820664],[-98.547603,30.82099],[-98.546011,30.823827],[-98.540917,30.827792],[-98.538682,30.831021],[-98.538,30.832991],[-98.534134,30.832959],[-98.533328,30.833699],[-98.529969,30.840188],[-98.529069,30.846009],[-98.527711,30.848478],[-98.526172,30.850109],[-98.526002,30.862901],[-98.509055,30.863026],[-98.509102,30.857794],[-98.506976,30.856963],[-98.503567,30.854258],[-98.501677,30.851477],[-98.491702,30.851354],[-98.491436,30.860573],[-98.493333,30.861594],[-98.492212,30.862423],[-98.488852,30.863031],[-98.485679,30.864213],[-98.482453,30.86342],[-98.479948,30.864325],[-98.477654,30.8661],[-98.476977,30.869528],[-98.478378,30.871439],[-98.47704,30.873281],[-98.4736,30.874952],[-98.472532,30.876714],[-98.472886,30.88138],[-98.475057,30.880448],[-98.477079,30.881339],[-98.479489,30.881041],[-98.481766,30.881915],[-98.483061,30.881612],[-98.485594,30.884174],[-98.483397,30.886728],[-98.481075,30.886756],[-98.479168,30.885422],[-98.475616,30.884795],[-98.472848,30.884892],[-98.472798,30.898796],[-98.470155,30.899523],[-98.462596,30.902147],[-98.457055,30.902126],[-98.456003,30.902548],[-98.455372,30.90824],[-98.458644,30.909249],[-98.460454,30.911085],[-98.461124,30.912736],[-98.465195,30.9129],[-98.465981,30.913551],[-98.466608,30.916328],[-98.462842,30.920903],[-98.463118,30.921575],[-98.500955,30.921944],[-98.51552,30.921843],[-98.516771,30.922042],[-98.523681,30.922121],[-98.529989,30.92175],[-98.53406,30.921874],[-98.536695,30.921702],[-98.624386,30.921779],[-98.625306,30.921894],[-98.732318,30.920994],[-98.734125,30.919091],[-98.735302,30.91595],[-98.738592,30.914008],[-98.736068,30.912776],[-98.734252,30.912504],[-98.734147,30.910198],[-98.73194,30.90887],[-98.728829,30.906327],[-98.729175,30.905398],[-98.726169,30.903662],[-98.723249,30.901003],[-98.723379,30.898731],[-98.722512,30.896403],[-98.72246,30.89143],[-98.721577,30.890852],[-98.720559,30.888294],[-98.724343,30.883906],[-98.725648,30.881889],[-98.725564,30.875463],[-98.727586,30.873598],[-98.732718,30.87411],[-98.733903,30.872985],[-98.73363,30.871622],[-98.735022,30.869174],[-98.737161,30.866589],[-98.738734,30.863717],[-98.740927,30.861024],[-98.739885,30.856823],[-98.739982,30.85482],[-98.741591,30.85399],[-98.742412,30.851415],[-98.74719,30.852466],[-98.749899,30.855742],[-98.752858,30.857324],[-98.753627,30.859158],[-98.759818,30.858244],[-98.765864,30.855991],[-98.817038,30.856069],[-98.818231,30.85717],[-98.823257,30.859793],[-98.825585,30.86027],[-98.830751,30.860735],[-98.842658,30.858095],[-98.849081,30.857306],[-98.851434,30.855814],[-98.856655,30.848598],[-98.85834,30.846932],[-98.864443,30.843489],[-98.87223,30.838535],[-98.87788,30.836408],[-98.879917,30.835037],[-98.882468,30.834083],[-98.88518,30.832255],[-98.886252,30.828301],[-98.888504,30.826103],[-98.890193,30.823357],[-98.89203,30.821833],[-98.893451,30.819157],[-98.893817,30.811565],[-98.91037,30.811836],[-98.922924,30.811666],[-98.927192,30.810996],[-98.93168,30.810986],[-98.933553,30.812422],[-98.935643,30.812042],[-98.940428,30.807262],[-98.942995,30.806033],[-98.946305,30.806027],[-98.946354,30.804468],[-98.948084,30.802449],[-98.949491,30.80176],[-98.95324,30.801583],[-98.955192,30.799867],[-98.958691,30.798403],[-98.960002,30.797007],[-98.963864,30.795351],[-98.964014,30.705688],[-98.964016,30.705236],[-98.962371,30.704907],[-98.95874,30.703434],[-98.958387,30.702248],[-98.956918,30.701013],[-98.955195,30.7007],[-98.955155,30.698189],[-98.954526,30.697687],[-98.951939,30.698001],[-98.948526,30.697331],[-98.943487,30.696838],[-98.939208,30.696886],[-98.937147,30.69737],[-98.93448,30.697135],[-98.932044,30.697872],[-98.923887,30.701523],[-98.9196,30.702427],[-98.916621,30.703829],[-98.913758,30.704573],[-98.903489,30.70456],[-98.893554,30.706135],[-98.890845,30.704668],[-98.886371,30.704207],[-98.885762,30.68662],[-98.885522,30.671355],[-98.880464,30.667384],[-98.876077,30.667271],[-98.874254,30.665972],[-98.87322,30.663223],[-98.869592,30.663169],[-98.868262,30.660728],[-98.8646,30.658719],[-98.864638,30.656874],[-98.868803,30.654217],[-98.874146,30.653655],[-98.874964,30.651933],[-98.873922,30.650059],[-98.870777,30.647782],[-98.86859,30.642793],[-98.868697,30.64081],[-98.868131,30.637771],[-98.8657,30.632167],[-98.865816,30.631486],[-98.868286,30.630556],[-98.869065,30.628873],[-98.866174,30.629882],[-98.865615,30.628944],[-98.865691,30.627976],[-98.869158,30.626628],[-98.873991,30.626463],[-98.874831,30.625515],[-98.875817,30.621052],[-98.877154,30.619433],[-98.877483,30.616718],[-98.878358,30.613887],[-98.879076,30.612872],[-98.882102,30.611104],[-98.882607,30.608632],[-98.884987,30.606351],[-98.88639,30.60387],[-98.885573,30.60083],[-98.884217,30.598051],[-98.879618,30.595751],[-98.877223,30.59496],[-98.875241,30.589833],[-98.875191,30.582134],[-98.875345,30.580674],[-98.880466,30.576265],[-98.891173,30.577985],[-98.895588,30.577648],[-98.896418,30.577933],[-98.902766,30.577794],[-98.906267,30.577428],[-98.910273,30.575992],[-98.915025,30.575973],[-98.917525,30.576728],[-98.922798,30.576927],[-98.926872,30.57782],[-98.928034,30.579745],[-98.931114,30.581757],[-98.935108,30.580278],[-98.937977,30.578417],[-98.941632,30.577037],[-98.944162,30.578417],[-98.947162,30.581032],[-98.948365,30.582622],[-98.948548,30.584306],[-98.946763,30.587287],[-98.947155,30.587759],[-98.950048,30.587453],[-98.955313,30.589267],[-98.957067,30.588243],[-98.961906,30.586975],[-98.964304,30.586599]],[[-98.577271,30.82126],[-98.577353,30.835363],[-98.577021,30.836067],[-98.576564,30.840621],[-98.57356,30.841522],[-98.570936,30.843884],[-98.563841,30.846373],[-98.562075,30.842036],[-98.562115,30.837126],[-98.560607,30.835566],[-98.558562,30.83536],[-98.551693,30.827979],[-98.552121,30.821009],[-98.561242,30.821038],[-98.563559,30.820429],[-98.571702,30.815828],[-98.573982,30.814142],[-98.574264,30.820643],[-98.577271,30.82126]]]}},{"type":"Feature","properties":{"zcta5":"78609","AFFGEOID10":"8600000US78609","GEOID10":"78609","ALAND10":60788625,"AWATER10":32525410,"county_name":"Llano","state_code":"TX","county_state":"Llano County, TX","county_fips":"48299","risk_level_county":"Medium Risk (70–79% vaccinated)","mean_vaccination_rate_county":70.57,"risk_level_zcta":"Very High Risk (<60% vaccinated)","mean_vaccination_rate_zips":46.42,"cases":803},"geometry":{"type":"Polygon","coordinates":[[[-98.404948,30.815745],[-98.447781,30.829327],[-98.449496,30.829451],[-98.449515,30.82801],[-98.447978,30.827091],[-98.448208,30.826151],[-98.442637,30.824666],[-98.441611,30.825992],[-98.441573,30.824435],[-98.443077,30.824121],[-98.441318,30.822059],[-98.440534,30.823181],[-98.439514,30.822631],[-98.440508,30.822372],[-98.440954,30.820799],[-98.439514,30.821047],[-98.439227,30.820123],[-98.440444,30.818786],[-98.439297,30.817064],[-98.441158,30.817653],[-98.442184,30.816663],[-98.442484,30.817845],[-98.44444,30.817141],[-98.445677,30.818076],[-98.447359,30.817339],[-98.445772,30.816349],[-98.44488,30.814396],[-98.445963,30.813263],[-98.443427,30.812653],[-98.444026,30.811811],[-98.447824,30.81131],[-98.446849,30.810524],[-98.446103,30.808307],[-98.444542,30.807735],[-98.443274,30.808164],[-98.443325,30.806971],[-98.44198,30.804792],[-98.442968,30.80312],[-98.445988,30.802488],[-98.447008,30.803995],[-98.446288,30.804297],[-98.447734,30.805733],[-98.449914,30.804897],[-98.450411,30.805909],[-98.452278,30.806645],[-98.451774,30.805012],[-98.449773,30.803103],[-98.4502,30.801882],[-98.452048,30.801832],[-98.453998,30.803378],[-98.454272,30.804682],[-98.455623,30.806056],[-98.456891,30.805292],[-98.456949,30.80753],[-98.460881,30.808778],[-98.464094,30.810197],[-98.464444,30.811418],[-98.466535,30.811566],[-98.468441,30.813254],[-98.468639,30.814206],[-98.467473,30.816016],[-98.468289,30.81656],[-98.470092,30.814888],[-98.4734,30.815017],[-98.473375,30.810879],[-98.475754,30.813718],[-98.478012,30.814842],[-98.483166,30.815969],[-98.490854,30.819054],[-98.493285,30.817845],[-98.493825,30.815752],[-98.493517,30.814397],[-98.495077,30.811457],[-98.496801,30.809482],[-98.502203,30.807072],[-98.504211,30.805834],[-98.504591,30.80357],[-98.50587,30.800305],[-98.504337,30.796797],[-98.503278,30.792721],[-98.501981,30.791097],[-98.502053,30.786426],[-98.505573,30.778875],[-98.505441,30.775945],[-98.504301,30.772735],[-98.504133,30.771073],[-98.505287,30.77063],[-98.504879,30.765722],[-98.503154,30.761379],[-98.50174,30.759509],[-98.480965,30.759089],[-98.481788,30.757392],[-98.482768,30.752915],[-98.484417,30.750438],[-98.484357,30.748978],[-98.483,30.747922],[-98.482652,30.746547],[-98.483641,30.744462],[-98.484723,30.740691],[-98.484892,30.738361],[-98.484271,30.735421],[-98.484279,30.732921],[-98.465898,30.733213],[-98.46804,30.717506],[-98.468017,30.714432],[-98.466995,30.710692],[-98.464261,30.709119],[-98.465036,30.707935],[-98.467555,30.709081],[-98.467692,30.707644],[-98.466686,30.706488],[-98.462089,30.699138],[-98.461102,30.696682],[-98.458503,30.694736],[-98.456705,30.694957],[-98.449731,30.69897],[-98.446448,30.701362],[-98.441108,30.705704],[-98.439637,30.711809],[-98.43701,30.711657],[-98.436036,30.709793],[-98.431136,30.708699],[-98.428898,30.707705],[-98.425477,30.709538],[-98.424226,30.713135],[-98.421644,30.714384],[-98.419171,30.713532],[-98.418676,30.715374],[-98.417192,30.715356],[-98.414815,30.712987],[-98.408603,30.71309],[-98.408508,30.714973],[-98.407708,30.716541],[-98.404152,30.721083],[-98.402107,30.72184],[-98.397476,30.721252],[-98.392654,30.721233],[-98.390656,30.722862],[-98.386101,30.728905],[-98.385521,30.730331],[-98.376249,30.737055],[-98.374062,30.738295],[-98.371472,30.741378],[-98.371628,30.742922],[-98.374878,30.746384],[-98.377777,30.747238],[-98.379555,30.747374],[-98.384781,30.746143],[-98.391408,30.746034],[-98.394249,30.746489],[-98.396324,30.747223],[-98.400156,30.75022],[-98.401703,30.750284],[-98.406853,30.751492],[-98.411769,30.751496],[-98.414504,30.751957],[-98.420204,30.751141],[-98.42234,30.750463],[-98.425842,30.751099],[-98.42663,30.751527],[-98.428956,30.754272],[-98.43029,30.757783],[-98.430214,30.76096],[-98.42923,30.763807],[-98.426907,30.767828],[-98.424355,30.77033],[-98.42289,30.773052],[-98.422531,30.775042],[-98.423546,30.777578],[-98.42971,30.783209],[-98.432098,30.78631],[-98.432543,30.78858],[-98.431996,30.790436],[-98.428482,30.79394],[-98.425369,30.795567],[-98.419941,30.7953],[-98.415596,30.79427],[-98.412552,30.794991],[-98.411224,30.796371],[-98.409721,30.799131],[-98.408958,30.80162],[-98.408653,30.80732],[-98.408159,30.809008],[-98.405434,30.813951],[-98.404948,30.815745]]]}},{"type":"Feature","properties":{"zcta5":"78672","AFFGEOID10":"8600000US78672","GEOID10":"78672","ALAND10":34293221,"AWATER10":9859894,"county_name":"Llano","state_code":"TX","county_state":"Llano County, TX","county_fips":"48299","risk_level_county":"Medium Risk (70–79% vaccinated)","mean_vaccination_rate_county":70.57,"risk_level_zcta":"Very High Risk (<60% vaccinated)","mean_vaccination_rate_zips":57.65,"cases":803},"geometry":{"type":"Polygon","coordinates":[[[-98.533328,30.833699],[-98.531991,30.834495],[-98.528579,30.834638],[-98.508633,30.834757],[-98.506039,30.83509],[-98.505759,30.83599],[-98.50309,30.838062],[-98.500993,30.84064],[-98.49837,30.841811],[-98.495779,30.837776],[-98.496136,30.831023],[-98.4915,30.827693],[-98.491513,30.820647],[-98.486804,30.82199],[-98.481589,30.825514],[-98.481942,30.826703],[-98.478602,30.827814],[-98.47507,30.82809],[-98.473465,30.827724],[-98.471279,30.83024],[-98.471255,30.832876],[-98.469823,30.83255],[-98.469077,30.830972],[-98.463384,30.826622],[-98.460541,30.827739],[-98.457702,30.828914],[-98.454853,30.831854],[-98.455041,30.835246],[-98.451485,30.838804],[-98.450202,30.838743],[-98.448768,30.845018],[-98.421026,30.845025],[-98.419632,30.850876],[-98.41935,30.859121],[-98.420738,30.862213],[-98.423683,30.865404],[-98.426871,30.867293],[-98.431557,30.869432],[-98.434113,30.870127],[-98.437782,30.870567],[-98.445867,30.870327],[-98.448326,30.870588],[-98.452493,30.87231],[-98.456352,30.876455],[-98.457382,30.878897],[-98.457207,30.881147],[-98.456436,30.883095],[-98.454178,30.885838],[-98.449493,30.889439],[-98.448593,30.890785],[-98.448471,30.892838],[-98.449356,30.896605],[-98.449463,30.903162],[-98.449173,30.907026],[-98.44862,30.910089],[-98.447322,30.917073],[-98.445782,30.921439],[-98.463118,30.921575],[-98.462842,30.920903],[-98.466608,30.916328],[-98.465981,30.913551],[-98.465195,30.9129],[-98.461124,30.912736],[-98.460454,30.911085],[-98.458644,30.909249],[-98.455372,30.90824],[-98.456003,30.902548],[-98.457055,30.902126],[-98.462596,30.902147],[-98.470155,30.899523],[-98.472798,30.898796],[-98.472848,30.884892],[-98.475616,30.884795],[-98.479168,30.885422],[-98.481075,30.886756],[-98.483397,30.886728],[-98.485594,30.884174],[-98.483061,30.881612],[-98.481766,30.881915],[-98.479489,30.881041],[-98.477079,30.881339],[-98.475057,30.880448],[-98.472886,30.88138],[-98.472532,30.876714],[-98.4736,30.874952],[-98.47704,30.873281],[-98.478378,30.871439],[-98.476977,30.869528],[-98.477654,30.8661],[-98.479948,30.864325],[-98.482453,30.86342],[-98.485679,30.864213],[-98.488852,30.863031],[-98.492212,30.862423],[-98.493333,30.861594],[-98.491436,30.860573],[-98.491702,30.851354],[-98.501677,30.851477],[-98.503567,30.854258],[-98.506976,30.856963],[-98.509102,30.857794],[-98.509055,30.863026],[-98.526002,30.862901],[-98.526172,30.850109],[-98.527711,30.848478],[-98.529069,30.846009],[-98.529969,30.840188],[-98.533328,30.833699]]]}},{"type":"Feature","properties":{"zcta5":"76831","AFFGEOID10":"8600000US76831","GEOID10":"76831","ALAND10":112297488,"AWATER10":23383,"county_name":"Llano","state_code":"TX","county_state":"Llano County, TX","county_fips":"48299","risk_level_county":"Medium Risk (70–79% vaccinated)","mean_vaccination_rate_county":70.57,"risk_level_zcta":"Uninhabited","mean_vaccination_rate_zips":null,"cases":803},"geometry":{"type":"Polygon","coordinates":[[[-98.964016,30.705236],[-98.964304,30.586599],[-98.961906,30.586975],[-98.957067,30.588243],[-98.955313,30.589267],[-98.950048,30.587453],[-98.947155,30.587759],[-98.946763,30.587287],[-98.948548,30.584306],[-98.948365,30.582622],[-98.947162,30.581032],[-98.944162,30.578417],[-98.941632,30.577037],[-98.937977,30.578417],[-98.935108,30.580278],[-98.931114,30.581757],[-98.928034,30.579745],[-98.926872,30.57782],[-98.922798,30.576927],[-98.917525,30.576728],[-98.915025,30.575973],[-98.910273,30.575992],[-98.906267,30.577428],[-98.902766,30.577794],[-98.896418,30.577933],[-98.895588,30.577648],[-98.891173,30.577985],[-98.880466,30.576265],[-98.875345,30.580674],[-98.875191,30.582134],[-98.875241,30.589833],[-98.877223,30.59496],[-98.879618,30.595751],[-98.884217,30.598051],[-98.885573,30.60083],[-98.88639,30.60387],[-98.884987,30.606351],[-98.882607,30.608632],[-98.882102,30.611104],[-98.879076,30.612872],[-98.878358,30.613887],[-98.877483,30.616718],[-98.877154,30.619433],[-98.875817,30.621052],[-98.874831,30.625515],[-98.873991,30.626463],[-98.869158,30.626628],[-98.865691,30.627976],[-98.865615,30.628944],[-98.866174,30.629882],[-98.869065,30.628873],[-98.868286,30.630556],[-98.865816,30.631486],[-98.8657,30.632167],[-98.868131,30.637771],[-98.868697,30.64081],[-98.86859,30.642793],[-98.870777,30.647782],[-98.873922,30.650059],[-98.874964,30.651933],[-98.874146,30.653655],[-98.868803,30.654217],[-98.864638,30.656874],[-98.8646,30.658719],[-98.868262,30.660728],[-98.869592,30.663169],[-98.87322,30.663223],[-98.874254,30.665972],[-98.876077,30.667271],[-98.880464,30.667384],[-98.885522,30.671355],[-98.885762,30.68662],[-98.886371,30.704207],[-98.890845,30.704668],[-98.893554,30.706135],[-98.903489,30.70456],[-98.913758,30.704573],[-98.916621,30.703829],[-98.9196,30.702427],[-98.923887,30.701523],[-98.932044,30.697872],[-98.93448,30.697135],[-98.937147,30.69737],[-98.939208,30.696886],[-98.943487,30.696838],[-98.948526,30.697331],[-98.951939,30.698001],[-98.954526,30.697687],[-98.955155,30.698189],[-98.955195,30.7007],[-98.956918,30.701013],[-98.958387,30.702248],[-98.95874,30.703434],[-98.962371,30.704907],[-98.964016,30.705236]]]}},{"type":"Feature","properties":{"zcta5":"76885","AFFGEOID10":"8600000US76885","GEOID10":"76885","ALAND10":203719456,"AWATER10":25686,"county_name":"Llano","state_code":"TX","county_state":"Llano County, TX","county_fips":"48299","risk_level_county":"Medium Risk (70–79% vaccinated)","mean_vaccination_rate_county":70.57,"risk_level_zcta":"Higher Risk (60–69% vaccinated)","mean_vaccination_rate_zips":68.16,"cases":803},"geometry":{"type":"Polygon","coordinates":[[[-98.964612,30.921368],[-98.963864,30.795351],[-98.960002,30.797007],[-98.958691,30.798403],[-98.955192,30.799867],[-98.95324,30.801583],[-98.949491,30.80176],[-98.948084,30.802449],[-98.946354,30.804468],[-98.946305,30.806027],[-98.942995,30.806033],[-98.940428,30.807262],[-98.935643,30.812042],[-98.933553,30.812422],[-98.93168,30.810986],[-98.927192,30.810996],[-98.922924,30.811666],[-98.91037,30.811836],[-98.893817,30.811565],[-98.893451,30.819157],[-98.89203,30.821833],[-98.890193,30.823357],[-98.888504,30.826103],[-98.886252,30.828301],[-98.88518,30.832255],[-98.882468,30.834083],[-98.879917,30.835037],[-98.87788,30.836408],[-98.87223,30.838535],[-98.864443,30.843489],[-98.85834,30.846932],[-98.856655,30.848598],[-98.851434,30.855814],[-98.849081,30.857306],[-98.842658,30.858095],[-98.830751,30.860735],[-98.825585,30.86027],[-98.823257,30.859793],[-98.818231,30.85717],[-98.817038,30.856069],[-98.765864,30.855991],[-98.759818,30.858244],[-98.753627,30.859158],[-98.752858,30.857324],[-98.749899,30.855742],[-98.74719,30.852466],[-98.742412,30.851415],[-98.741591,30.85399],[-98.739982,30.85482],[-98.739885,30.856823],[-98.740927,30.861024],[-98.738734,30.863717],[-98.737161,30.866589],[-98.735022,30.869174],[-98.73363,30.871622],[-98.733903,30.872985],[-98.732718,30.87411],[-98.727586,30.873598],[-98.725564,30.875463],[-98.725648,30.881889],[-98.724343,30.883906],[-98.720559,30.888294],[-98.721577,30.890852],[-98.72246,30.89143],[-98.722512,30.896403],[-98.723379,30.898731],[-98.723249,30.901003],[-98.726169,30.903662],[-98.729175,30.905398],[-98.728829,30.906327],[-98.73194,30.90887],[-98.734147,30.910198],[-98.734252,30.912504],[-98.736068,30.912776],[-98.738592,30.914008],[-98.735302,30.91595],[-98.734125,30.919091],[-98.732318,30.920994],[-98.747007,30.920871],[-98.750312,30.920343],[-98.870281,30.921097],[-98.875437,30.920744],[-98.92991,30.921139],[-98.953363,30.921312],[-98.964612,30.921368]]]}},{"type":"Feature","properties":{"zcta5":"76869","AFFGEOID10":"8600000US76869","GEOID10":"76869","ALAND10":190836249,"AWATER10":245465,"county_name":"Llano","state_code":"TX","county_state":"Llano County, TX","county_fips":"48299","risk_level_county":"Medium Risk (70–79% vaccinated)","mean_vaccination_rate_county":70.57,"risk_level_zcta":"Uninhabited","mean_vaccination_rate_zips":null,"cases":803},"geometry":{"type":"MultiPolygon","coordinates":[[[[-98.934801,30.936226],[-98.93781,30.934933],[-98.941195,30.928811],[-98.945411,30.928783],[-98.946971,30.928265],[-98.951057,30.924565],[-98.953151,30.924342],[-98.95285,30.922507],[-98.953363,30.921312],[-98.92991,30.921139],[-98.931428,30.92257],[-98.929307,30.925367],[-98.929299,30.931442],[-98.935614,30.933762],[-98.934801,30.936226]]],[[[-98.960683,31.043853],[-98.961301,31.046844],[-98.964339,31.056744],[-98.965031,31.057591],[-98.963807,31.058852],[-98.964236,31.060568],[-98.965054,31.061335],[-98.968251,31.061318],[-98.973239,31.062925],[-98.975399,31.062916],[-98.977328,31.061428],[-98.982862,31.060905],[-98.985985,31.06198],[-98.987495,31.063135],[-98.990251,31.063676],[-98.993511,31.065409],[-98.999884,31.07491],[-99.000503,31.079494],[-99.002107,31.081606],[-99.002137,31.082883],[-99.004001,31.083365],[-99.003246,31.082062],[-99.004208,31.080741],[-99.012499,31.077411],[-99.01756,31.074754],[-99.015885,31.068909],[-99.015113,31.068313],[-99.014902,31.06609],[-99.014104,31.064691],[-99.012267,31.063911],[-99.009949,31.064231],[-99.00782,31.063451],[-99.007742,31.060976],[-99.006837,31.059921],[-99.003936,31.059278],[-99.005667,31.057651],[-99.005774,31.056345],[-99.008809,31.055728],[-99.009744,31.05323],[-99.013205,31.052521],[-99.016615,31.050004],[-99.015828,31.049756],[-99.016454,31.045273],[-99.015953,31.04387],[-99.017353,31.041479],[-99.016599,31.040937],[-99.014995,31.037897],[-99.015538,31.034214],[-99.012522,31.032122],[-99.01295,31.029738],[-99.010422,31.029577],[-99.009092,31.027857],[-99.006165,31.026252],[-99.003717,31.025425],[-99.002547,31.022927],[-99.005387,31.022789],[-99.006095,31.024236],[-99.007455,31.024363],[-99.008396,31.021239],[-99.006705,31.018785],[-99.009113,31.017752],[-99.014452,31.018508],[-99.014765,31.017892],[-99.013605,31.013304],[-99.017176,31.012078],[-99.01733,31.010588],[-99.015587,31.010186],[-99.013946,31.008568],[-99.014023,31.007572],[-99.017096,31.005747],[-99.016892,31.004823],[-99.011108,31.002302],[-99.00879,31.001844],[-99.00526,31.001992],[-99.005397,30.99901],[-99.00477,30.998267],[-99.001675,30.997004],[-98.999783,30.995484],[-98.996446,30.994465],[-98.992101,30.994311],[-98.989425,30.993596],[-98.987698,30.991187],[-98.98809,30.989559],[-98.990814,30.988035],[-98.991422,30.98549],[-98.991181,30.980104],[-98.990114,30.976214],[-98.989423,30.975411],[-98.989611,30.973228],[-98.990617,30.972362],[-98.991528,30.969447],[-98.991444,30.96757],[-98.991989,30.96185],[-98.9771,30.960846],[-98.973546,30.960499],[-98.957251,30.964273],[-98.954862,30.964451],[-98.938787,30.963216],[-98.938047,30.963288],[-98.938708,30.964448],[-98.93937,30.968134],[-98.941587,30.971997],[-98.943983,30.973433],[-98.943815,30.977219],[-98.94283,30.979297],[-98.939763,30.980329],[-98.939445,30.98171],[-98.941176,30.983539],[-98.94144,30.984763],[-98.94277,30.986206],[-98.944312,30.989482],[-98.943567,30.990262],[-98.942582,30.993698],[-98.943194,30.994384],[-98.942407,30.995637],[-98.943978,30.996063],[-98.945647,30.99896],[-98.946194,31.001408],[-98.94599,31.003265],[-98.947775,31.014502],[-98.951739,31.018022],[-98.953842,31.018709],[-98.955093,31.020496],[-98.952246,31.022192],[-98.950383,31.024987],[-98.949133,31.025858],[-98.946631,31.026361],[-98.945034,31.028035],[-98.94562,31.029088],[-98.948256,31.031563],[-98.949267,31.03296],[-98.952808,31.035113],[-98.955256,31.035869],[-98.957146,31.035822],[-98.957732,31.037129],[-98.959515,31.038434],[-98.95925,31.03974],[-98.960683,31.043853]]],[[[-99.038946,30.957168],[-99.038122,30.954555],[-99.036447,30.953683],[-99.034851,30.951299],[-99.03541,30.947654],[-99.034108,30.945247],[-99.031503,30.944559],[-99.03315,30.942706],[-99.033303,30.939047],[-99.011072,30.939034],[-99.00898,30.943152],[-99.010468,30.944849],[-99.011876,30.948196],[-99.012345,30.96164],[-99.012261,30.963221],[-99.016287,30.96326],[-99.016285,30.970549],[-99.02273,30.970524],[-99.025697,30.966788],[-99.02672,30.963273],[-99.030323,30.963281],[-99.034689,30.96097],[-99.038887,30.960471],[-99.038946,30.957168]]],[[[-98.964612,30.921368],[-98.965032,30.921359],[-98.96577,30.92299],[-98.968472,30.923577],[-98.973237,30.925486],[-98.975809,30.925887],[-98.977861,30.928332],[-98.9778,30.921447],[-99.073281,30.921924],[-99.073543,30.910062],[-99.072806,30.909791],[-99.072609,30.907822],[-99.07104,30.907845],[-99.067744,30.90537],[-99.065299,30.905897],[-99.06094,30.904797],[-99.061418,30.901932],[-99.060568,30.900305],[-99.059292,30.895973],[-99.059957,30.893681],[-99.061498,30.892672],[-99.061498,30.889143],[-99.062934,30.885682],[-99.062101,30.886701],[-99.04713,30.886273],[-99.046637,30.88957],[-99.043602,30.889119],[-99.038967,30.889976],[-99.037462,30.889693],[-99.038011,30.88581],[-99.039022,30.882996],[-99.041058,30.880154],[-99.041434,30.878461],[-99.042917,30.87681],[-99.044174,30.872482],[-99.043355,30.868669],[-99.042972,30.865196],[-99.043459,30.861553],[-99.045778,30.858678],[-99.046687,30.855526],[-99.047604,30.84903],[-99.048364,30.847442],[-99.045126,30.843885],[-99.045285,30.841477],[-99.044007,30.839935],[-99.037307,30.838275],[-99.037132,30.835353],[-99.037717,30.834289],[-99.039881,30.832995],[-99.037914,30.829484],[-99.036178,30.828605],[-99.035841,30.825333],[-99.036441,30.823605],[-99.036634,30.820104],[-99.037369,30.818469],[-99.038873,30.81729],[-99.038067,30.816207],[-99.040011,30.813289],[-99.040342,30.811631],[-99.043814,30.80898],[-99.046903,30.805654],[-99.047631,30.80439],[-99.047502,30.80266],[-99.04862,30.800327],[-99.04987,30.799892],[-99.047549,30.798652],[-99.042627,30.799294],[-99.040794,30.798964],[-99.037492,30.799393],[-99.03355,30.799275],[-99.032554,30.797538],[-99.032226,30.794706],[-99.030584,30.789646],[-99.029296,30.782612],[-99.026821,30.782077],[-99.02524,30.782853],[-99.021342,30.782544],[-99.018863,30.780968],[-99.016443,30.780739],[-99.00778,30.781916],[-99.006808,30.781667],[-99.006671,30.775538],[-99.003743,30.777196],[-99.001915,30.779457],[-98.997585,30.782382],[-98.99293,30.783266],[-98.988902,30.783577],[-98.988895,30.789738],[-98.986959,30.789816],[-98.981599,30.786491],[-98.978923,30.787409],[-98.97478,30.790387],[-98.972234,30.79068],[-98.970004,30.792798],[-98.963864,30.795351],[-98.964612,30.921368]]]]}},{"type":"Feature","properties":{"zcta5":"78657","AFFGEOID10":"8600000US78657","GEOID10":"78657","ALAND10":102240577,"AWATER10":8369937,"county_name":"Llano","state_code":"TX","county_state":"Llano County, TX","county_fips":"48299","risk_level_county":"Medium Risk (70–79% vaccinated)","mean_vaccination_rate_county":70.57,"risk_level_zcta":"Higher Risk (60–69% vaccinated)","mean_vaccination_rate_zips":65.25,"cases":803},"geometry":{"type":"Polygon","coordinates":[[[-98.413089,30.581562],[-98.420634,30.573875],[-98.419054,30.567667],[-98.421864,30.56154],[-98.422778,30.561556],[-98.423432,30.558828],[-98.424918,30.55841],[-98.42683,30.559195],[-98.430715,30.563041],[-98.431659,30.565146],[-98.433422,30.566216],[-98.436603,30.56664],[-98.438756,30.566127],[-98.442819,30.563972],[-98.444546,30.563662],[-98.445559,30.565368],[-98.444798,30.569329],[-98.4458,30.570249],[-98.450976,30.570765],[-98.453254,30.571903],[-98.456506,30.570486],[-98.459486,30.570379],[-98.461359,30.572439],[-98.463893,30.574164],[-98.465298,30.574329],[-98.468181,30.573274],[-98.469911,30.571529],[-98.470251,30.569844],[-98.467807,30.563997],[-98.467797,30.562155],[-98.469398,30.559868],[-98.472815,30.558069],[-98.457587,30.544943],[-98.455422,30.543665],[-98.449929,30.541338],[-98.447986,30.540265],[-98.443005,30.536642],[-98.445023,30.532863],[-98.445807,30.529531],[-98.447664,30.523971],[-98.447204,30.52216],[-98.440499,30.511101],[-98.440192,30.509053],[-98.441155,30.504724],[-98.440983,30.501862],[-98.411462,30.502095],[-98.400964,30.499589],[-98.351041,30.486096],[-98.320882,30.478013],[-98.296048,30.509232],[-98.313021,30.513592],[-98.315357,30.514116],[-98.340444,30.51679],[-98.339556,30.528268],[-98.334126,30.528157],[-98.324381,30.527977],[-98.31901,30.532068],[-98.319248,30.537283],[-98.326786,30.537246],[-98.326786,30.538819],[-98.324201,30.541704],[-98.323799,30.542683],[-98.318978,30.54269],[-98.31894,30.549157],[-98.315329,30.548972],[-98.313548,30.548359],[-98.308219,30.545713],[-98.304262,30.544981],[-98.298301,30.5463],[-98.298181,30.545526],[-98.291015,30.54717],[-98.291346,30.545481],[-98.302667,30.545115],[-98.302747,30.534941],[-98.30313,30.526415],[-98.291381,30.522129],[-98.291109,30.532628],[-98.288304,30.534286],[-98.285938,30.534671],[-98.284145,30.53428],[-98.282308,30.532926],[-98.278645,30.539909],[-98.281252,30.540576],[-98.284666,30.539827],[-98.286819,30.540777],[-98.288129,30.542894],[-98.289333,30.547795],[-98.285335,30.551931],[-98.286957,30.552771],[-98.288732,30.551902],[-98.284247,30.556418],[-98.284786,30.55713],[-98.286024,30.555609],[-98.289054,30.55306],[-98.294824,30.553256],[-98.300403,30.554697],[-98.309329,30.558929],[-98.315016,30.562902],[-98.31686,30.564769],[-98.322248,30.566955],[-98.325862,30.566085],[-98.327753,30.564566],[-98.33276,30.559444],[-98.334226,30.558422],[-98.33418,30.557422],[-98.334071,30.550891],[-98.334393,30.550874],[-98.334304,30.550267],[-98.334426,30.549947],[-98.334859,30.549481],[-98.335146,30.549081],[-98.335146,30.548542],[-98.337019,30.548316],[-98.341855,30.549095],[-98.341868,30.550307],[-98.341941,30.55029],[-98.342816,30.551154],[-98.342612,30.551341],[-98.343159,30.552465],[-98.344748,30.552602],[-98.344632,30.551883],[-98.343876,30.551213],[-98.343283,30.550004],[-98.345812,30.548964],[-98.346287,30.547474],[-98.348978,30.545464],[-98.349122,30.54472],[-98.350038,30.547517],[-98.350012,30.550748],[-98.351946,30.550771],[-98.351983,30.558393],[-98.364288,30.571592],[-98.365379,30.57247],[-98.367333,30.573546],[-98.370311,30.574438],[-98.372147,30.574526],[-98.375946,30.573894],[-98.381343,30.570976],[-98.386299,30.568833],[-98.390198,30.567787],[-98.394722,30.56542],[-98.398758,30.56373],[-98.401312,30.563608],[-98.402904,30.563968],[-98.405358,30.566164],[-98.408172,30.569671],[-98.411148,30.574644],[-98.413089,30.581562]]]}},{"type":"Feature","properties":{"zcta5":"78639","AFFGEOID10":"8600000US78639","GEOID10":"78639","ALAND10":113971236,"AWATER10":7114668,"county_name":"Llano","state_code":"TX","county_state":"Llano County, TX","county_fips":"48299","risk_level_county":"Medium Risk (70–79% vaccinated)","mean_vaccination_rate_county":70.57,"risk_level_zcta":"Higher Risk (60–69% vaccinated)","mean_vaccination_rate_zips":61.12,"cases":803},"geometry":{"type":"Polygon","coordinates":[[[-98.484271,30.735421],[-98.504511,30.735287],[-98.506384,30.734158],[-98.507257,30.732862],[-98.510909,30.734613],[-98.511752,30.732633],[-98.510736,30.728963],[-98.508466,30.726753],[-98.500055,30.721387],[-98.502261,30.717652],[-98.502968,30.714933],[-98.508715,30.716624],[-98.514808,30.716539],[-98.519432,30.717464],[-98.523258,30.716891],[-98.526228,30.718358],[-98.527847,30.718152],[-98.528562,30.719276],[-98.532381,30.722738],[-98.538243,30.726681],[-98.539438,30.72785],[-98.538986,30.731082],[-98.534155,30.733579],[-98.531953,30.733946],[-98.529937,30.73351],[-98.527416,30.734792],[-98.552021,30.734853],[-98.550573,30.733641],[-98.545348,30.730439],[-98.542777,30.72788],[-98.537068,30.723141],[-98.534958,30.720997],[-98.533909,30.718718],[-98.528305,30.714902],[-98.522155,30.713382],[-98.521441,30.712351],[-98.516698,30.710325],[-98.514599,30.71],[-98.511996,30.708426],[-98.507981,30.705159],[-98.502373,30.702407],[-98.497157,30.702041],[-98.490083,30.70233],[-98.487229,30.70214],[-98.483892,30.702511],[-98.480617,30.700974],[-98.478875,30.700612],[-98.475958,30.69846],[-98.474866,30.697085],[-98.474719,30.693974],[-98.475298,30.692162],[-98.480827,30.688258],[-98.484206,30.683302],[-98.483786,30.682253],[-98.488904,30.679343],[-98.495277,30.673128],[-98.495915,30.672761],[-98.49467,30.670753],[-98.493359,30.670024],[-98.492743,30.668586],[-98.491821,30.668657],[-98.492754,30.664398],[-98.493566,30.662934],[-98.495569,30.662865],[-98.496042,30.660101],[-98.495201,30.658626],[-98.49331,30.660148],[-98.492677,30.663036],[-98.49167,30.663427],[-98.487976,30.661481],[-98.487403,30.657083],[-98.48862,30.653779],[-98.488817,30.650624],[-98.488174,30.648748],[-98.486191,30.646146],[-98.481097,30.642354],[-98.47916,30.641263],[-98.475032,30.640348],[-98.469402,30.63982],[-98.47053,30.637412],[-98.471888,30.636498],[-98.474025,30.632675],[-98.476524,30.63027],[-98.47382,30.628847],[-98.471154,30.628709],[-98.470398,30.629476],[-98.469084,30.628616],[-98.470562,30.626895],[-98.472638,30.62267],[-98.47684,30.616719],[-98.478212,30.613516],[-98.480683,30.611458],[-98.485809,30.609649],[-98.489547,30.610305],[-98.494979,30.61044],[-98.494044,30.609747],[-98.488957,30.609935],[-98.487498,30.608859],[-98.484371,30.608953],[-98.482913,30.608244],[-98.48082,30.608658],[-98.477532,30.606575],[-98.477349,30.608432],[-98.474559,30.609913],[-98.474133,30.607558],[-98.474646,30.603959],[-98.472649,30.601708],[-98.470381,30.600288],[-98.466326,30.600958],[-98.463825,30.600401],[-98.462584,30.602042],[-98.460807,30.602802],[-98.456851,30.601181],[-98.453185,30.598291],[-98.453033,30.593403],[-98.452272,30.591019],[-98.449039,30.587002],[-98.441402,30.592029],[-98.433911,30.595033],[-98.431237,30.595359],[-98.426574,30.59418],[-98.424178,30.594661],[-98.420611,30.600659],[-98.417956,30.603837],[-98.413919,30.604044],[-98.413822,30.606844],[-98.418413,30.61102],[-98.41981,30.613564],[-98.411928,30.616419],[-98.407112,30.60841],[-98.403242,30.603694],[-98.400608,30.599476],[-98.400588,30.599482],[-98.400739,30.601128],[-98.401407,30.603753],[-98.400507,30.605423],[-98.396858,30.613114],[-98.39504,30.614876],[-98.392634,30.618415],[-98.408149,30.628258],[-98.409889,30.631191],[-98.409679,30.632783],[-98.408569,30.634815],[-98.408331,30.635996],[-98.408539,30.63753],[-98.40633,30.637365],[-98.341684,30.643497],[-98.342623,30.644662],[-98.349894,30.64619],[-98.352652,30.648158],[-98.357718,30.649976],[-98.360966,30.652714],[-98.363713,30.651278],[-98.365468,30.652477],[-98.371089,30.653905],[-98.371142,30.654846],[-98.368915,30.656637],[-98.367807,30.658835],[-98.3689,30.660369],[-98.370493,30.661032],[-98.371475,30.661032],[-98.373674,30.659243],[-98.375708,30.659562],[-98.377467,30.659059],[-98.380169,30.661627],[-98.386178,30.663909],[-98.386428,30.669869],[-98.379586,30.677799],[-98.379709,30.67885],[-98.375889,30.678566],[-98.375558,30.684359],[-98.356853,30.684319],[-98.357305,30.687657],[-98.356935,30.690324],[-98.352717,30.688353],[-98.356462,30.695141],[-98.359346,30.69669],[-98.363904,30.696641],[-98.368495,30.696261],[-98.374354,30.696878],[-98.376765,30.696186],[-98.380064,30.697102],[-98.380936,30.700649],[-98.381817,30.696859],[-98.383461,30.692886],[-98.389459,30.68647],[-98.391659,30.681407],[-98.393263,30.674411],[-98.395179,30.672283],[-98.402908,30.670097],[-98.402006,30.672153],[-98.402562,30.675436],[-98.408405,30.674368],[-98.415118,30.675779],[-98.411972,30.675806],[-98.407776,30.67502],[-98.406123,30.67529],[-98.40332,30.676851],[-98.402374,30.678497],[-98.402176,30.680794],[-98.404888,30.68782],[-98.40546,30.690226],[-98.407738,30.694563],[-98.410118,30.697535],[-98.413376,30.700977],[-98.414436,30.702959],[-98.413962,30.704392],[-98.410448,30.707891],[-98.409073,30.710403],[-98.408603,30.71309],[-98.414815,30.712987],[-98.417192,30.715356],[-98.418676,30.715374],[-98.419171,30.713532],[-98.421644,30.714384],[-98.424226,30.713135],[-98.425477,30.709538],[-98.428898,30.707705],[-98.431136,30.708699],[-98.436036,30.709793],[-98.43701,30.711657],[-98.439637,30.711809],[-98.441108,30.705704],[-98.446448,30.701362],[-98.449731,30.69897],[-98.456705,30.694957],[-98.458503,30.694736],[-98.461102,30.696682],[-98.462089,30.699138],[-98.466686,30.706488],[-98.467692,30.707644],[-98.467555,30.709081],[-98.465036,30.707935],[-98.464261,30.709119],[-98.466995,30.710692],[-98.468017,30.714432],[-98.46804,30.717506],[-98.465898,30.733213],[-98.484279,30.732921],[-98.484271,30.735421]]]}},{"type":"Feature","properties":{"zcta5":"78607","AFFGEOID10":"8600000US78607","GEOID10":"78607","ALAND10":31611225,"AWATER10":12724054,"county_name":"Llano","state_code":"TX","county_state":"Llano County, TX","county_fips":"48299","risk_level_county":"Medium Risk (70–79% vaccinated)","mean_vaccination_rate_county":70.57,"risk_level_zcta":"Medium Risk (70–79% vaccinated)","mean_vaccination_rate_zips":71.32,"cases":803},"geometry":{"type":"MultiPolygon","coordinates":[[[[-98.533328,30.833699],[-98.534134,30.832959],[-98.538,30.832991],[-98.538682,30.831021],[-98.540917,30.827792],[-98.546011,30.823827],[-98.547603,30.82099],[-98.526292,30.820664],[-98.525519,30.815937],[-98.525911,30.803133],[-98.524541,30.801811],[-98.520892,30.800098],[-98.518404,30.791406],[-98.517143,30.791036],[-98.516358,30.787984],[-98.514804,30.786181],[-98.513833,30.786098],[-98.508989,30.788093],[-98.508428,30.788855],[-98.508764,30.792083],[-98.508517,30.794366],[-98.50732,30.794601],[-98.504337,30.796797],[-98.50587,30.800305],[-98.504591,30.80357],[-98.504211,30.805834],[-98.502203,30.807072],[-98.496801,30.809482],[-98.495077,30.811457],[-98.493517,30.814397],[-98.493825,30.815752],[-98.493285,30.817845],[-98.490854,30.819054],[-98.483166,30.815969],[-98.478012,30.814842],[-98.475754,30.813718],[-98.473375,30.810879],[-98.4734,30.815017],[-98.470092,30.814888],[-98.468289,30.81656],[-98.467473,30.816016],[-98.468639,30.814206],[-98.468441,30.813254],[-98.466535,30.811566],[-98.464444,30.811418],[-98.464094,30.810197],[-98.460881,30.808778],[-98.456949,30.80753],[-98.456891,30.805292],[-98.455623,30.806056],[-98.454272,30.804682],[-98.453998,30.803378],[-98.452048,30.801832],[-98.4502,30.801882],[-98.449773,30.803103],[-98.451774,30.805012],[-98.452278,30.806645],[-98.450411,30.805909],[-98.449914,30.804897],[-98.447734,30.805733],[-98.446288,30.804297],[-98.447008,30.803995],[-98.445988,30.802488],[-98.442968,30.80312],[-98.44198,30.804792],[-98.443325,30.806971],[-98.443274,30.808164],[-98.444542,30.807735],[-98.446103,30.808307],[-98.446849,30.810524],[-98.447824,30.81131],[-98.444026,30.811811],[-98.443427,30.812653],[-98.445963,30.813263],[-98.44488,30.814396],[-98.445772,30.816349],[-98.447359,30.817339],[-98.445677,30.818076],[-98.44444,30.817141],[-98.442484,30.817845],[-98.442184,30.816663],[-98.441158,30.817653],[-98.439297,30.817064],[-98.440444,30.818786],[-98.439227,30.820123],[-98.439514,30.821047],[-98.440954,30.820799],[-98.440508,30.822372],[-98.439514,30.822631],[-98.440534,30.823181],[-98.441318,30.822059],[-98.443077,30.824121],[-98.441573,30.824435],[-98.441611,30.825992],[-98.442637,30.824666],[-98.448208,30.826151],[-98.447978,30.827091],[-98.449515,30.82801],[-98.449496,30.829451],[-98.447781,30.829327],[-98.404948,30.815745],[-98.403336,30.817936],[-98.400887,30.818901],[-98.395378,30.818176],[-98.390053,30.818436],[-98.388184,30.819061],[-98.385666,30.82058],[-98.383899,30.822005],[-98.380074,30.825998],[-98.377595,30.829507],[-98.376587,30.833776],[-98.376877,30.83489],[-98.379578,30.837223],[-98.381371,30.838202],[-98.388229,30.840576],[-98.393646,30.84296],[-98.397636,30.843813],[-98.403542,30.843981],[-98.405769,30.842984],[-98.406903,30.839051],[-98.408851,30.836559],[-98.412468,30.835114],[-98.415718,30.834728],[-98.421593,30.834997],[-98.422256,30.836498],[-98.422211,30.83923],[-98.421026,30.845025],[-98.448768,30.845018],[-98.450202,30.838743],[-98.451485,30.838804],[-98.455041,30.835246],[-98.454853,30.831854],[-98.457702,30.828914],[-98.460541,30.827739],[-98.463384,30.826622],[-98.469077,30.830972],[-98.469823,30.83255],[-98.471255,30.832876],[-98.471279,30.83024],[-98.473465,30.827724],[-98.47507,30.82809],[-98.478602,30.827814],[-98.481942,30.826703],[-98.481589,30.825514],[-98.486804,30.82199],[-98.491513,30.820647],[-98.4915,30.827693],[-98.496136,30.831023],[-98.495779,30.837776],[-98.49837,30.841811],[-98.500993,30.84064],[-98.50309,30.838062],[-98.505759,30.83599],[-98.506039,30.83509],[-98.508633,30.834757],[-98.528579,30.834638],[-98.531991,30.834495],[-98.533328,30.833699]]],[[[-98.577271,30.82126],[-98.574264,30.820643],[-98.573982,30.814142],[-98.571702,30.815828],[-98.563559,30.820429],[-98.561242,30.821038],[-98.552121,30.821009],[-98.551693,30.827979],[-98.558562,30.83536],[-98.560607,30.835566],[-98.562115,30.837126],[-98.562075,30.842036],[-98.563841,30.846373],[-98.570936,30.843884],[-98.57356,30.841522],[-98.576564,30.840621],[-98.577021,30.836067],[-98.577353,30.835363],[-98.577271,30.82126]]]]}}]}