{"type":"FeatureCollection","features":[{"type":"Feature","properties":{"zcta5":"61321","AFFGEOID10":"8600000US61321","GEOID10":"61321","ALAND10":72555582,"AWATER10":0,"county_name":"Marshall","state_code":"IL","county_state":"Marshall County, IL","county_fips":"17123","risk_level_county":"Higher Risk (60–69% vaccinated)","mean_vaccination_rate_county":62.06,"risk_level_zcta":"Higher Risk (60–69% vaccinated)","mean_vaccination_rate_zips":61.04,"cases":14},"geometry":{"type":"Polygon","coordinates":[[[-88.988388,41.014412],[-88.969141,41.014703],[-88.969444,40.985707],[-89.008094,40.984919],[-89.008245,40.955775],[-89.04753,40.955072],[-89.047718,40.925749],[-88.93139,40.92774],[-88.93092,40.97189],[-88.930654,41.030573],[-88.930631,41.044499],[-88.949892,41.044171],[-88.949845,41.029581],[-88.96909,41.02929],[-88.969087,41.023337],[-88.988367,41.020584],[-88.988388,41.014412]]]}},{"type":"Feature","properties":{"zcta5":"61424","AFFGEOID10":"8600000US61424","GEOID10":"61424","ALAND10":1891796,"AWATER10":0,"county_name":"Marshall","state_code":"IL","county_state":"Marshall County, IL","county_fips":"17123","risk_level_county":"Higher Risk (60–69% vaccinated)","mean_vaccination_rate_county":62.06,"risk_level_zcta":"Uninhabited","mean_vaccination_rate_zips":null,"cases":14},"geometry":{"type":"Polygon","coordinates":[[[-89.631568,41.0758],[-89.63041,41.086814],[-89.630476,41.090397],[-89.638516,41.090395],[-89.638565,41.06135],[-89.632789,41.06132],[-89.631568,41.0758]]]}},{"type":"Feature","properties":{"zcta5":"61541","AFFGEOID10":"8600000US61541","GEOID10":"61541","ALAND10":425089,"AWATER10":0,"county_name":"Marshall","state_code":"IL","county_state":"Marshall County, IL","county_fips":"17123","risk_level_county":"Higher Risk (60–69% vaccinated)","mean_vaccination_rate_county":62.06,"risk_level_zcta":"Very High Risk (<60% vaccinated)","mean_vaccination_rate_zips":44.79,"cases":14},"geometry":{"type":"Polygon","coordinates":[[[-89.237973,40.98389],[-89.238104,40.976743],[-89.23656,40.9767],[-89.23167,40.976823],[-89.232308,40.984756],[-89.234167,40.984378],[-89.23436,40.98395],[-89.237973,40.98389]]]}},{"type":"Feature","properties":{"zcta5":"61336","AFFGEOID10":"8600000US61336","GEOID10":"61336","ALAND10":101922670,"AWATER10":2862341,"county_name":"Marshall","state_code":"IL","county_state":"Marshall County, IL","county_fips":"17123","risk_level_county":"Higher Risk (60–69% vaccinated)","mean_vaccination_rate_county":62.06,"risk_level_zcta":"Medium Risk (70–79% vaccinated)","mean_vaccination_rate_zips":71.59,"cases":14},"geometry":{"type":"Polygon","coordinates":[[[-89.333027,41.132961],[-89.333484,41.123673],[-89.334271,41.120578],[-89.335892,41.117269],[-89.337946,41.114735],[-89.339987,41.112751],[-89.342248,41.11138],[-89.346474,41.10996],[-89.349971,41.109142],[-89.355666,41.106494],[-89.358437,41.103849],[-89.29773,41.10392],[-89.29791,41.10078],[-89.29553,41.09937],[-89.29514,41.09672],[-89.28954,41.09713],[-89.28796,41.09693],[-89.28469,41.09411],[-89.28245,41.09372],[-89.278836,41.093809],[-89.278812,41.091391],[-89.277015,41.091162],[-89.276106,41.09239],[-89.272015,41.092312],[-89.269602,41.093155],[-89.267733,41.092177],[-89.26667,41.09284],[-89.263094,41.091582],[-89.263082,41.089277],[-89.226524,41.089391],[-89.230211,41.086911],[-89.234012,41.08587],[-89.232736,41.085702],[-89.233242,41.083886],[-89.230861,41.084167],[-89.229257,41.082784],[-89.231216,41.078893],[-89.234261,41.077702],[-89.232221,41.07527],[-89.231663,41.073533],[-89.229535,41.073599],[-89.229376,41.071952],[-89.227616,41.070303],[-89.225205,41.071054],[-89.225161,41.069669],[-89.221595,41.069182],[-89.218605,41.070387],[-89.219077,41.070894],[-89.216394,41.071115],[-89.215107,41.072095],[-89.214006,41.070957],[-89.212296,41.070518],[-89.210895,41.071978],[-89.20893,41.07133],[-89.208316,41.070106],[-89.206276,41.070092],[-89.204553,41.069389],[-89.202538,41.066586],[-89.20328,41.065273],[-89.200397,41.063866],[-89.200419,41.061991],[-89.198466,41.060588],[-89.197773,41.0587],[-89.196132,41.058444],[-89.194387,41.059447],[-89.1912,41.05826],[-89.19135,41.07285],[-89.1815,41.07306],[-89.16204,41.07449],[-89.16192,41.05941],[-89.16027,41.05886],[-89.144885,41.058813],[-89.14475,41.059579],[-89.146892,41.060057],[-89.148485,41.061982],[-89.146258,41.063295],[-89.146397,41.065321],[-89.145164,41.066052],[-89.147023,41.067779],[-89.149431,41.067383],[-89.150023,41.069464],[-89.149092,41.069308],[-89.149504,41.07256],[-89.151389,41.073667],[-89.152405,41.076314],[-89.153457,41.075916],[-89.154956,41.077906],[-89.154412,41.079772],[-89.156075,41.080274],[-89.156078,41.081867],[-89.15186,41.08177],[-89.14957,41.08235],[-89.14559,41.08264],[-89.13946,41.08227],[-89.13869,41.07303],[-89.13873,41.05874],[-89.12425,41.05847],[-89.12436,41.08414],[-89.12285,41.08473],[-89.1243,41.08582],[-89.123946,41.087854],[-89.118649,41.08722],[-89.117481,41.088061],[-89.115145,41.087211],[-89.114471,41.088112],[-89.111866,41.087668],[-89.110459,41.088723],[-89.108701,41.086462],[-89.107672,41.087593],[-89.105109,41.08707],[-89.104896,41.104299],[-89.162237,41.103996],[-89.162434,41.147122],[-89.172175,41.147125],[-89.172142,41.140613],[-89.186683,41.140422],[-89.186738,41.147123],[-89.188449,41.147129],[-89.188606,41.14471],[-89.189998,41.14352],[-89.191778,41.14064],[-89.196963,41.140399],[-89.209684,41.140343],[-89.211038,41.141829],[-89.213927,41.141808],[-89.213359,41.140327],[-89.250297,41.14036],[-89.250338,41.146809],[-89.254152,41.147129],[-89.256599,41.146401],[-89.258458,41.147037],[-89.278918,41.147034],[-89.279486,41.132999],[-89.302688,41.132873],[-89.304662,41.134066],[-89.305992,41.135778],[-89.307173,41.136924],[-89.308352,41.137113],[-89.311405,41.133002],[-89.328424,41.133132],[-89.333027,41.132961]]]}},{"type":"Feature","properties":{"zcta5":"61537","AFFGEOID10":"8600000US61537","GEOID10":"61537","ALAND10":152869878,"AWATER10":2909512,"county_name":"Marshall","state_code":"IL","county_state":"Marshall County, IL","county_fips":"17123","risk_level_county":"Higher Risk (60–69% vaccinated)","mean_vaccination_rate_county":62.06,"risk_level_zcta":"Lower Risk (80–84% vaccinated)","mean_vaccination_rate_zips":80.24,"cases":14},"geometry":{"type":"Polygon","coordinates":[[[-89.592,41.1122],[-89.59215,41.09022],[-89.588547,41.090277],[-89.582529,41.087173],[-89.579547,41.087168],[-89.577342,41.086477],[-89.574179,41.086972],[-89.572835,41.08427],[-89.57279,41.07568],[-89.54403,41.07504],[-89.544022,41.077062],[-89.54109,41.077169],[-89.536223,41.077877],[-89.53256,41.077772],[-89.529529,41.076563],[-89.528717,41.074972],[-89.524709,41.075127],[-89.52397,41.08996],[-89.48598,41.08978],[-89.485957,41.083603],[-89.429564,41.083032],[-89.42934,41.07842],[-89.42884,41.07667],[-89.42856,41.07121],[-89.42776,41.0699],[-89.42393,41.07021],[-89.42101,41.06856],[-89.41919,41.070006],[-89.416802,41.068512],[-89.411366,41.06438],[-89.410189,41.064562],[-89.408208,41.067355],[-89.410041,41.073146],[-89.405776,41.075022],[-89.403847,41.073929],[-89.401388,41.075081],[-89.39961,41.077194],[-89.390417,41.080819],[-89.385882,41.083265],[-89.387658,41.084929],[-89.385997,41.084727],[-89.383307,41.083342],[-89.380875,41.084664],[-89.381481,41.080164],[-89.379322,41.081901],[-89.372281,41.086216],[-89.369339,41.089694],[-89.368811,41.092057],[-89.367194,41.093748],[-89.362528,41.097786],[-89.361251,41.100362],[-89.358437,41.103849],[-89.355666,41.106494],[-89.349971,41.109142],[-89.346474,41.10996],[-89.342248,41.11138],[-89.339987,41.112751],[-89.337946,41.114735],[-89.335892,41.117269],[-89.334271,41.120578],[-89.333484,41.123673],[-89.333027,41.132961],[-89.333036,41.139416],[-89.32927,41.147931],[-89.34997,41.14797],[-89.35059,41.14806],[-89.466101,41.148524],[-89.477453,41.148589],[-89.481184,41.149445],[-89.478523,41.151413],[-89.479129,41.152853],[-89.47538,41.156513],[-89.476925,41.15912],[-89.478256,41.159531],[-89.482068,41.157906],[-89.481976,41.156648],[-89.485365,41.15699],[-89.486788,41.15795],[-89.486941,41.161015],[-89.483281,41.162022],[-89.482731,41.163092],[-89.494398,41.163093],[-89.494398,41.161629],[-89.50162,41.16195],[-89.50404,41.163346],[-89.508215,41.163897],[-89.509909,41.164515],[-89.511449,41.168129],[-89.508392,41.169889],[-89.508966,41.170529],[-89.513414,41.171789],[-89.519769,41.17314],[-89.520708,41.172318],[-89.51968,41.171037],[-89.520558,41.169253],[-89.519439,41.167469],[-89.522739,41.165686],[-89.522407,41.164337],[-89.519472,41.162895],[-89.517537,41.160882],[-89.519415,41.156858],[-89.520475,41.155898],[-89.527012,41.154871],[-89.528917,41.155558],[-89.529251,41.154552],[-89.540232,41.157687],[-89.542501,41.159471],[-89.543529,41.161392],[-89.5439,41.14864],[-89.56316,41.14868],[-89.56318,41.134281],[-89.5723,41.134373],[-89.572295,41.126717],[-89.58236,41.12712],[-89.58923,41.127],[-89.59133,41.12621],[-89.59194,41.12488],[-89.592,41.1122]]]}},{"type":"Feature","properties":{"zcta5":"61526","AFFGEOID10":"8600000US61526","GEOID10":"61526","ALAND10":82677287,"AWATER10":21098,"county_name":"Marshall","state_code":"IL","county_state":"Marshall County, IL","county_fips":"17123","risk_level_county":"Higher Risk (60–69% vaccinated)","mean_vaccination_rate_county":62.06,"risk_level_zcta":"Very High Risk (<60% vaccinated)","mean_vaccination_rate_zips":58.51,"cases":14},"geometry":{"type":"MultiPolygon","coordinates":[[[[-89.601374,40.857248],[-89.601389,40.850196],[-89.606775,40.850196],[-89.605848,40.847961],[-89.597691,40.849982],[-89.59154,40.850015],[-89.591256,40.851395],[-89.591658,40.853222],[-89.590868,40.853985],[-89.591788,40.855535],[-89.593002,40.855982],[-89.595786,40.856019],[-89.599278,40.857097],[-89.601374,40.857248]]],[[[-89.677212,40.973781],[-89.677264,40.959437],[-89.657789,40.95935],[-89.657872,40.944674],[-89.677362,40.944882],[-89.677506,40.930694],[-89.678327,40.929861],[-89.677126,40.926803],[-89.677575,40.915795],[-89.668041,40.915719],[-89.668396,40.901045],[-89.664652,40.901075],[-89.654494,40.901113],[-89.653218,40.886446],[-89.639663,40.886353],[-89.639928,40.87164],[-89.630267,40.871647],[-89.630412,40.864429],[-89.616461,40.864381],[-89.614037,40.86479],[-89.611149,40.864373],[-89.611188,40.860918],[-89.608478,40.860296],[-89.605198,40.85714],[-89.601374,40.857248],[-89.601149,40.881686],[-89.598989,40.881908],[-89.593869,40.884585],[-89.589233,40.884742],[-89.586946,40.885384],[-89.583486,40.88533],[-89.580808,40.885853],[-89.601113,40.886277],[-89.600999,40.901016],[-89.591556,40.901012],[-89.591513,40.904058],[-89.587609,40.904139],[-89.58547,40.905169],[-89.582426,40.905375],[-89.581978,40.907395],[-89.579808,40.907459],[-89.578593,40.908219],[-89.574531,40.908795],[-89.56994,40.908104],[-89.567066,40.906559],[-89.562969,40.907276],[-89.562245,40.909718],[-89.556918,40.914592],[-89.558993,40.915849],[-89.56334,40.917219],[-89.565577,40.919914],[-89.567721,40.920301],[-89.572491,40.919087],[-89.574212,40.919679],[-89.577141,40.919287],[-89.580284,40.922074],[-89.581341,40.92205],[-89.581317,40.926868],[-89.584699,40.927397],[-89.590715,40.929582],[-89.59274,40.929898],[-89.610418,40.930137],[-89.610343,40.944665],[-89.599304,40.944514],[-89.593293,40.944757],[-89.585228,40.943278],[-89.580965,40.942987],[-89.580661,40.959455],[-89.583087,40.96037],[-89.584212,40.962581],[-89.579914,40.963631],[-89.57611,40.960216],[-89.572789,40.958744],[-89.57257,40.973281],[-89.59127,40.97331],[-89.59135,40.98794],[-89.61053,40.98807],[-89.63868,40.988311],[-89.638727,40.973707],[-89.677212,40.973781]]]]}},{"type":"Feature","properties":{"zcta5":"61760","AFFGEOID10":"8600000US61760","GEOID10":"61760","ALAND10":189353937,"AWATER10":131090,"county_name":"Marshall","state_code":"IL","county_state":"Marshall County, IL","county_fips":"17123","risk_level_county":"Higher Risk (60–69% vaccinated)","mean_vaccination_rate_county":62.06,"risk_level_zcta":"Medium Risk (70–79% vaccinated)","mean_vaccination_rate_zips":76.95,"cases":14},"geometry":{"type":"MultiPolygon","coordinates":[[[[-89.007007,40.810094],[-89.007431,40.810082],[-89.011899,40.809968],[-89.012751,40.810901],[-89.015484,40.809897],[-89.016465,40.802053],[-89.016141,40.788064],[-89.006533,40.788271],[-89.006904,40.805434],[-89.007007,40.810094]]],[[[-89.025386,40.7806],[-89.025029,40.766079],[-89.005977,40.766447],[-89.006362,40.780994],[-89.020329,40.780704],[-89.022446,40.78113],[-89.025386,40.7806]]],[[[-89.12446,40.94123],[-89.124462,40.926764],[-89.160448,40.92709],[-89.169993,40.926896],[-89.169968,40.93434],[-89.16052,40.93448],[-89.1606,40.9419],[-89.18628,40.9412],[-89.18461,40.93792],[-89.184729,40.926572],[-89.183815,40.925262],[-89.183703,40.922452],[-89.1817,40.921721],[-89.178266,40.919345],[-89.17888,40.916656],[-89.178178,40.914024],[-89.183197,40.912515],[-89.183806,40.911445],[-89.179499,40.911531],[-89.179452,40.906923],[-89.178819,40.906323],[-89.178765,40.903647],[-89.17727,40.902029],[-89.175267,40.901582],[-89.171684,40.901809],[-89.169008,40.900417],[-89.1668,40.89739],[-89.160095,40.897679],[-89.143168,40.897032],[-89.143339,40.911578],[-89.124274,40.911423],[-89.124037,40.896809],[-89.10503,40.89677],[-89.104489,40.867554],[-89.066339,40.867427],[-89.065766,40.838186],[-89.046658,40.838217],[-89.046309,40.823784],[-89.03611,40.824028],[-89.035574,40.809024],[-89.035355,40.800344],[-89.033013,40.800359],[-89.030065,40.801182],[-89.028436,40.802966],[-89.025985,40.803875],[-89.026175,40.811378],[-89.023635,40.81137],[-89.02281,40.804951],[-89.0201,40.807764],[-89.017932,40.807557],[-89.016125,40.80902],[-89.017142,40.810552],[-89.023415,40.81579],[-89.021922,40.81809],[-89.023713,40.819821],[-89.023945,40.821188],[-89.022462,40.82187],[-89.020887,40.825327],[-89.018106,40.825149],[-89.015384,40.825544],[-89.012514,40.824749],[-89.008115,40.824904],[-89.00679,40.825771],[-89.006846,40.829081],[-89.003826,40.832427],[-88.988113,40.832458],[-88.988085,40.824946],[-89.007282,40.824644],[-89.007007,40.810094],[-88.946199,40.811177],[-88.944954,40.813133],[-88.944141,40.815799],[-88.942694,40.818442],[-88.942212,40.821494],[-88.938717,40.824248],[-88.938778,40.825817],[-88.949582,40.825682],[-88.949793,40.840188],[-88.93071,40.84048],[-88.93144,40.913128],[-88.931469,40.913458],[-88.93139,40.92774],[-89.047718,40.925749],[-89.056472,40.925879],[-89.056411,40.940493],[-89.12376,40.94132],[-89.12446,40.94123]]]]}},{"type":"Feature","properties":{"zcta5":"61479","AFFGEOID10":"8600000US61479","GEOID10":"61479","ALAND10":31106766,"AWATER10":0,"county_name":"Marshall","state_code":"IL","county_state":"Marshall County, IL","county_fips":"17123","risk_level_county":"Higher Risk (60–69% vaccinated)","mean_vaccination_rate_county":62.06,"risk_level_zcta":"Very High Risk (<60% vaccinated)","mean_vaccination_rate_zips":29.59,"cases":14},"geometry":{"type":"Polygon","coordinates":[[[-89.638565,41.06135],[-89.638612,41.032107],[-89.657936,41.032275],[-89.65798,41.017746],[-89.645215,41.017611],[-89.65041,41.003041],[-89.657958,41.003138],[-89.677381,41.00273],[-89.677372,40.988328],[-89.696647,40.988308],[-89.696564,40.973793],[-89.677212,40.973781],[-89.638727,40.973707],[-89.63868,40.988311],[-89.61053,40.98807],[-89.61099,41.03189],[-89.63001,41.03202],[-89.63038,41.06877],[-89.62828,41.07436],[-89.62845,41.075],[-89.62911,41.07558],[-89.631568,41.0758],[-89.632789,41.06132],[-89.638565,41.06135]]]}},{"type":"Feature","properties":{"zcta5":"61358","AFFGEOID10":"8600000US61358","GEOID10":"61358","ALAND10":64474178,"AWATER10":0,"county_name":"Marshall","state_code":"IL","county_state":"Marshall County, IL","county_fips":"17123","risk_level_county":"Higher Risk (60–69% vaccinated)","mean_vaccination_rate_county":62.06,"risk_level_zcta":"Higher Risk (60–69% vaccinated)","mean_vaccination_rate_zips":61.72,"cases":14},"geometry":{"type":"Polygon","coordinates":[[[-89.066592,41.009358],[-89.06664,40.98443],[-89.08595,40.98475],[-89.085965,40.976711],[-89.09033,40.976823],[-89.093045,40.975724],[-89.095566,40.9758],[-89.098998,40.97447],[-89.102323,40.975721],[-89.104243,40.975528],[-89.105176,40.974617],[-89.10517,40.95572],[-89.12445,40.95594],[-89.12446,40.94123],[-89.12376,40.94132],[-89.056411,40.940493],[-89.056472,40.925879],[-89.047718,40.925749],[-89.04753,40.955072],[-89.008245,40.955775],[-89.008094,40.984919],[-88.969444,40.985707],[-88.969141,41.014703],[-88.988388,41.014412],[-89.004454,41.014534],[-89.005446,41.016144],[-89.007666,41.017933],[-89.038862,41.013398],[-89.04724,41.0133],[-89.047163,41.027871],[-89.04752,41.02677],[-89.05194,41.02686],[-89.05191,41.02796],[-89.05651,41.02805],[-89.056526,41.013483],[-89.056204,41.010843],[-89.066592,41.009358]]]}},{"type":"Feature","properties":{"zcta5":"61377","AFFGEOID10":"8600000US61377","GEOID10":"61377","ALAND10":141435007,"AWATER10":95387,"county_name":"Marshall","state_code":"IL","county_state":"Marshall County, IL","county_fips":"17123","risk_level_county":"Higher Risk (60–69% vaccinated)","mean_vaccination_rate_county":62.06,"risk_level_zcta":"Very High Risk (<60% vaccinated)","mean_vaccination_rate_zips":58.63,"cases":14},"geometry":{"type":"Polygon","coordinates":[[[-89.104896,41.104299],[-89.105109,41.08707],[-89.107672,41.087593],[-89.108701,41.086462],[-89.110459,41.088723],[-89.111866,41.087668],[-89.114471,41.088112],[-89.115145,41.087211],[-89.117481,41.088061],[-89.118649,41.08722],[-89.123946,41.087854],[-89.1243,41.08582],[-89.12285,41.08473],[-89.12436,41.08414],[-89.12425,41.05847],[-89.13873,41.05874],[-89.13869,41.07303],[-89.13946,41.08227],[-89.14559,41.08264],[-89.14957,41.08235],[-89.15186,41.08177],[-89.156078,41.081867],[-89.156075,41.080274],[-89.154412,41.079772],[-89.154956,41.077906],[-89.153457,41.075916],[-89.152405,41.076314],[-89.151389,41.073667],[-89.149504,41.07256],[-89.149092,41.069308],[-89.150023,41.069464],[-89.149431,41.067383],[-89.147023,41.067779],[-89.145164,41.066052],[-89.146397,41.065321],[-89.146258,41.063295],[-89.148485,41.061982],[-89.146892,41.060057],[-89.14475,41.059579],[-89.144885,41.058813],[-89.14352,41.05881],[-89.14354,41.04428],[-89.12423,41.04391],[-89.12422,41.02932],[-89.08574,41.0286],[-89.085924,41.013971],[-89.085944,41.006582],[-89.066592,41.009358],[-89.056204,41.010843],[-89.056526,41.013483],[-89.05651,41.02805],[-89.05191,41.02796],[-89.05194,41.02686],[-89.04752,41.02677],[-89.047163,41.027871],[-89.04724,41.0133],[-89.038862,41.013398],[-89.007666,41.017933],[-89.005446,41.016144],[-89.004454,41.014534],[-88.988388,41.014412],[-88.988367,41.020584],[-88.969087,41.023337],[-88.96909,41.02929],[-88.949845,41.029581],[-88.949892,41.044171],[-88.930631,41.044499],[-88.930802,41.088214],[-88.955153,41.087795],[-88.955125,41.085343],[-88.956816,41.085333],[-88.956837,41.087766],[-88.988708,41.087291],[-88.988914,41.105413],[-89.047356,41.104787],[-89.047856,41.104781],[-89.104896,41.104299]]]}},{"type":"Feature","properties":{"zcta5":"61523","AFFGEOID10":"8600000US61523","GEOID10":"61523","ALAND10":138267252,"AWATER10":5968296,"county_name":"Marshall","state_code":"IL","county_state":"Marshall County, IL","county_fips":"17123","risk_level_county":"Higher Risk (60–69% vaccinated)","mean_vaccination_rate_county":62.06,"risk_level_zcta":"Medium Risk (70–79% vaccinated)","mean_vaccination_rate_zips":74.17,"cases":14},"geometry":{"type":"Polygon","coordinates":[[[-89.57257,40.973281],[-89.572789,40.958744],[-89.57611,40.960216],[-89.579914,40.963631],[-89.584212,40.962581],[-89.583087,40.96037],[-89.580661,40.959455],[-89.580965,40.942987],[-89.585228,40.943278],[-89.593293,40.944757],[-89.599304,40.944514],[-89.610343,40.944665],[-89.610418,40.930137],[-89.59274,40.929898],[-89.590715,40.929582],[-89.584699,40.927397],[-89.581317,40.926868],[-89.581341,40.92205],[-89.580284,40.922074],[-89.577141,40.919287],[-89.574212,40.919679],[-89.572491,40.919087],[-89.567721,40.920301],[-89.565577,40.919914],[-89.56334,40.917219],[-89.558993,40.915849],[-89.556918,40.914592],[-89.562245,40.909718],[-89.562969,40.907276],[-89.567066,40.906559],[-89.56994,40.908104],[-89.574531,40.908795],[-89.578593,40.908219],[-89.579808,40.907459],[-89.581978,40.907395],[-89.582426,40.905375],[-89.58547,40.905169],[-89.587609,40.904139],[-89.591513,40.904058],[-89.591556,40.901012],[-89.600999,40.901016],[-89.601113,40.886277],[-89.580808,40.885853],[-89.583486,40.88533],[-89.586946,40.885384],[-89.589233,40.884742],[-89.593869,40.884585],[-89.598989,40.881908],[-89.601149,40.881686],[-89.601374,40.857248],[-89.599278,40.857097],[-89.595786,40.856019],[-89.593002,40.855982],[-89.591788,40.855535],[-89.590868,40.853985],[-89.591658,40.853222],[-89.591256,40.851395],[-89.59154,40.850015],[-89.586186,40.849972],[-89.584036,40.849532],[-89.563099,40.849468],[-89.563156,40.842164],[-89.573924,40.842287],[-89.582522,40.842378],[-89.58316,40.842412],[-89.582775,40.832304],[-89.592712,40.832397],[-89.592677,40.828194],[-89.582514,40.827787],[-89.582585,40.824385],[-89.573261,40.824337],[-89.570071,40.824096],[-89.565891,40.822918],[-89.564074,40.822265],[-89.558833,40.820794],[-89.559094,40.821837],[-89.556494,40.823937],[-89.556302,40.827717],[-89.554206,40.828965],[-89.553694,40.831509],[-89.550046,40.834853],[-89.54707,40.836949],[-89.544749,40.837941],[-89.544189,40.839092],[-89.544381,40.841828],[-89.541949,40.842692],[-89.540733,40.843716],[-89.540365,40.845476],[-89.537629,40.847684],[-89.535421,40.848132],[-89.534173,40.849124],[-89.524973,40.849236],[-89.506252,40.868932],[-89.503116,40.871476],[-89.499571,40.875036],[-89.497514,40.87873],[-89.493417,40.887846],[-89.491908,40.892733],[-89.488469,40.899299],[-89.487437,40.90599],[-89.479,40.91977],[-89.478804,40.922405],[-89.477085,40.921674],[-89.471525,40.926675],[-89.465801,40.926618],[-89.46337,40.929865],[-89.462565,40.928217],[-89.46157,40.929204],[-89.458861,40.932978],[-89.455306,40.935507],[-89.453994,40.939538],[-89.455163,40.943136],[-89.455313,40.94539],[-89.455063,40.946471],[-89.452873,40.950848],[-89.448126,40.959179],[-89.447979,40.962974],[-89.449231,40.967119],[-89.44852,40.971635],[-89.447693,40.973246],[-89.456425,40.973233],[-89.463046,40.965495],[-89.466402,40.962521],[-89.474748,40.95666],[-89.476299,40.959143],[-89.47623,40.97321],[-89.495486,40.973182],[-89.49568,40.98708],[-89.49534,40.99202],[-89.49539,41.00216],[-89.501853,41.002481],[-89.504367,41.001989],[-89.506766,41.000849],[-89.506914,40.99911],[-89.505184,40.998522],[-89.501328,40.995865],[-89.503292,40.994286],[-89.50739,40.993586],[-89.508863,40.990427],[-89.507208,40.987288],[-89.504993,40.986717],[-89.503786,40.985087],[-89.505742,40.98409],[-89.51503,40.98415],[-89.51524,40.98761],[-89.53404,40.98778],[-89.534011,40.984655],[-89.540745,40.99107],[-89.542094,40.991189],[-89.543514,40.989576],[-89.543554,40.978114],[-89.545422,40.977719],[-89.546746,40.978987],[-89.549099,40.978066],[-89.549235,40.980896],[-89.548424,40.98156],[-89.549633,40.98269],[-89.549813,40.984473],[-89.551457,40.983557],[-89.555018,40.984408],[-89.557429,40.986186],[-89.555677,40.987064],[-89.55535,40.989203],[-89.553895,40.990349],[-89.551201,40.990585],[-89.549456,40.992175],[-89.551229,40.994123],[-89.550939,40.996926],[-89.54999,40.998325],[-89.552524,40.999774],[-89.550666,41.000524],[-89.55051,41.00273],[-89.56304,41.00277],[-89.56298,40.98614],[-89.56524,40.98285],[-89.56774,40.98094],[-89.56738,40.97325],[-89.57257,40.973281]],[[-89.545404,40.973297],[-89.544655,40.974856],[-89.54266,40.97577],[-89.54001,40.97616],[-89.53943,40.9768],[-89.53401,40.97639],[-89.53399,40.97412],[-89.53982,40.97388],[-89.541124,40.973284],[-89.545404,40.973297]],[[-89.501527,40.880733],[-89.502288,40.882368],[-89.499889,40.881731],[-89.501134,40.878596],[-89.503583,40.879076],[-89.501527,40.880733]]]}},{"type":"Feature","properties":{"zcta5":"61565","AFFGEOID10":"8600000US61565","GEOID10":"61565","ALAND10":170596855,"AWATER10":8750493,"county_name":"Marshall","state_code":"IL","county_state":"Marshall County, IL","county_fips":"17123","risk_level_county":"Higher Risk (60–69% vaccinated)","mean_vaccination_rate_county":62.06,"risk_level_zcta":"Medium Risk (70–79% vaccinated)","mean_vaccination_rate_zips":71.32,"cases":14},"geometry":{"type":"MultiPolygon","coordinates":[[[[-89.545404,40.973297],[-89.541124,40.973284],[-89.53982,40.97388],[-89.53399,40.97412],[-89.53401,40.97639],[-89.53943,40.9768],[-89.54001,40.97616],[-89.54266,40.97577],[-89.544655,40.974856],[-89.545404,40.973297]]],[[[-89.57279,41.07568],[-89.581046,41.07562],[-89.581117,41.068447],[-89.59214,41.068406],[-89.59216,41.07552],[-89.61147,41.07564],[-89.611301,41.061157],[-89.61099,41.03189],[-89.61053,40.98807],[-89.59135,40.98794],[-89.59127,40.97331],[-89.57257,40.973281],[-89.56738,40.97325],[-89.56774,40.98094],[-89.56524,40.98285],[-89.56298,40.98614],[-89.56304,41.00277],[-89.55051,41.00273],[-89.550666,41.000524],[-89.552524,40.999774],[-89.54999,40.998325],[-89.550939,40.996926],[-89.551229,40.994123],[-89.549456,40.992175],[-89.551201,40.990585],[-89.553895,40.990349],[-89.55535,40.989203],[-89.555677,40.987064],[-89.557429,40.986186],[-89.555018,40.984408],[-89.551457,40.983557],[-89.549813,40.984473],[-89.549633,40.98269],[-89.548424,40.98156],[-89.549235,40.980896],[-89.549099,40.978066],[-89.546746,40.978987],[-89.545422,40.977719],[-89.543554,40.978114],[-89.543514,40.989576],[-89.542094,40.991189],[-89.540745,40.99107],[-89.534011,40.984655],[-89.53404,40.98778],[-89.51524,40.98761],[-89.51503,40.98415],[-89.505742,40.98409],[-89.503786,40.985087],[-89.504993,40.986717],[-89.507208,40.987288],[-89.508863,40.990427],[-89.50739,40.993586],[-89.503292,40.994286],[-89.501328,40.995865],[-89.505184,40.998522],[-89.506914,40.99911],[-89.506766,41.000849],[-89.504367,41.001989],[-89.501853,41.002481],[-89.49539,41.00216],[-89.49534,40.99202],[-89.49568,40.98708],[-89.495486,40.973182],[-89.47623,40.97321],[-89.476299,40.959143],[-89.474748,40.95666],[-89.466402,40.962521],[-89.463046,40.965495],[-89.456425,40.973233],[-89.447693,40.973246],[-89.444469,40.978604],[-89.442757,40.984246],[-89.44179,40.985427],[-89.438798,40.987467],[-89.437298,40.990262],[-89.433733,40.994457],[-89.430816,41.000036],[-89.430465,41.002642],[-89.427487,41.009058],[-89.424062,41.014928],[-89.422659,41.01671],[-89.419349,41.02001],[-89.417834,41.023129],[-89.417291,41.027233],[-89.41775,41.03044],[-89.416988,41.033787],[-89.415131,41.039067],[-89.410134,41.045734],[-89.409204,41.047467],[-89.402606,41.055664],[-89.392786,41.066985],[-89.390831,41.069638],[-89.386429,41.076877],[-89.383361,41.078623],[-89.381481,41.080164],[-89.380875,41.084664],[-89.383307,41.083342],[-89.385997,41.084727],[-89.387658,41.084929],[-89.385882,41.083265],[-89.390417,41.080819],[-89.39961,41.077194],[-89.401388,41.075081],[-89.403847,41.073929],[-89.405776,41.075022],[-89.410041,41.073146],[-89.408208,41.067355],[-89.410189,41.064562],[-89.411366,41.06438],[-89.416802,41.068512],[-89.41919,41.070006],[-89.42101,41.06856],[-89.42393,41.07021],[-89.42776,41.0699],[-89.42856,41.07121],[-89.42884,41.07667],[-89.42934,41.07842],[-89.429564,41.083032],[-89.485957,41.083603],[-89.48598,41.08978],[-89.52397,41.08996],[-89.524709,41.075127],[-89.528717,41.074972],[-89.529529,41.076563],[-89.53256,41.077772],[-89.536223,41.077877],[-89.54109,41.077169],[-89.544022,41.077062],[-89.54403,41.07504],[-89.57279,41.07568]]]]}},{"type":"Feature","properties":{"zcta5":"61540","AFFGEOID10":"8600000US61540","GEOID10":"61540","ALAND10":135160036,"AWATER10":16469663,"county_name":"Marshall","state_code":"IL","county_state":"Marshall County, IL","county_fips":"17123","risk_level_county":"Higher Risk (60–69% vaccinated)","mean_vaccination_rate_county":62.06,"risk_level_zcta":"Medium Risk (70–79% vaccinated)","mean_vaccination_rate_zips":74.3,"cases":14},"geometry":{"type":"Polygon","coordinates":[[[-89.447693,40.973246],[-89.44852,40.971635],[-89.449231,40.967119],[-89.447979,40.962974],[-89.448126,40.959179],[-89.452873,40.950848],[-89.455063,40.946471],[-89.455313,40.94539],[-89.455163,40.943136],[-89.453994,40.939538],[-89.455306,40.935507],[-89.458861,40.932978],[-89.46157,40.929204],[-89.445575,40.927278],[-89.439486,40.92809],[-89.433514,40.929153],[-89.404801,40.933519],[-89.4017,40.93465],[-89.40019,40.9362],[-89.40015,40.93925],[-89.39743,40.94035],[-89.39484,40.93998],[-89.38699,40.94015],[-89.38425,40.93892],[-89.38248,40.94297],[-89.38168,40.94342],[-89.37156,40.94431],[-89.3716,40.95094],[-89.36868,40.95137],[-89.36743,40.95258],[-89.36222,40.95434],[-89.35726,40.95521],[-89.357706,40.965994],[-89.354177,40.96598],[-89.333962,40.966443],[-89.3344,40.9809],[-89.324679,40.981181],[-89.31543,40.98149],[-89.31649,41.0552],[-89.29261,41.05617],[-89.292675,41.062323],[-89.311852,41.061988],[-89.31193,41.06722],[-89.30972,41.06757],[-89.30673,41.07256],[-89.30556,41.07756],[-89.30274,41.08148],[-89.30251,41.08624],[-89.30267,41.09114],[-89.29984,41.09278],[-89.29808,41.09322],[-89.29618,41.09474],[-89.29632,41.09583],[-89.29514,41.09672],[-89.29553,41.09937],[-89.29791,41.10078],[-89.29773,41.10392],[-89.358437,41.103849],[-89.361251,41.100362],[-89.362528,41.097786],[-89.367194,41.093748],[-89.368811,41.092057],[-89.369339,41.089694],[-89.372281,41.086216],[-89.379322,41.081901],[-89.381481,41.080164],[-89.383361,41.078623],[-89.386429,41.076877],[-89.390831,41.069638],[-89.392786,41.066985],[-89.402606,41.055664],[-89.409204,41.047467],[-89.410134,41.045734],[-89.415131,41.039067],[-89.416988,41.033787],[-89.41775,41.03044],[-89.417291,41.027233],[-89.417834,41.023129],[-89.419349,41.02001],[-89.422659,41.01671],[-89.424062,41.014928],[-89.427487,41.009058],[-89.430465,41.002642],[-89.430816,41.000036],[-89.433733,40.994457],[-89.437298,40.990262],[-89.438798,40.987467],[-89.44179,40.985427],[-89.442757,40.984246],[-89.444469,40.978604],[-89.447693,40.973246]]]}},{"type":"Feature","properties":{"zcta5":"61491","AFFGEOID10":"8600000US61491","GEOID10":"61491","ALAND10":258290373,"AWATER10":626675,"county_name":"Marshall","state_code":"IL","county_state":"Marshall County, IL","county_fips":"17123","risk_level_county":"Higher Risk (60–69% vaccinated)","mean_vaccination_rate_county":62.06,"risk_level_zcta":"Medium Risk (70–79% vaccinated)","mean_vaccination_rate_zips":74.46,"cases":14},"geometry":{"type":"MultiPolygon","coordinates":[[[[-89.75452,40.98488],[-89.754616,40.973939],[-89.735148,40.973872],[-89.735115,40.984521],[-89.735932,40.985792],[-89.743873,40.9858],[-89.744097,40.984787],[-89.75452,40.98488]]],[[[-89.777415,41.15527],[-89.782601,41.155366],[-89.782686,41.148259],[-89.792899,41.148201],[-89.792917,41.144832],[-89.795312,41.145297],[-89.801688,41.143246],[-89.801759,41.134864],[-89.8112,41.135054],[-89.811332,41.061853],[-89.829822,41.062049],[-89.828402,41.060289],[-89.823629,41.059924],[-89.820789,41.057912],[-89.822057,41.055534],[-89.827252,41.054618],[-89.830574,41.053155],[-89.833352,41.051073],[-89.833924,41.045883],[-89.831326,41.043414],[-89.834075,41.040921],[-89.859253,41.0407],[-89.859572,41.004472],[-89.849918,41.004125],[-89.850095,40.989542],[-89.832171,40.989514],[-89.829492,40.988924],[-89.824401,40.98531],[-89.822252,40.98834],[-89.820423,40.991653],[-89.815694,40.991869],[-89.813142,40.991436],[-89.811086,40.989236],[-89.792537,40.9891],[-89.792458,40.995665],[-89.791756,40.996367],[-89.786725,40.996356],[-89.773512,40.98536],[-89.77334,40.996278],[-89.764093,40.996156],[-89.765737,40.99961],[-89.766964,41.003651],[-89.768805,41.004375],[-89.772757,41.008218],[-89.775745,41.00799],[-89.779216,41.009295],[-89.782776,41.008265],[-89.782669,41.02387],[-89.78277,41.026416],[-89.776145,41.023177],[-89.770452,41.020002],[-89.769325,41.018165],[-89.754315,41.017575],[-89.753454,41.01735],[-89.734406,41.017429],[-89.733139,41.016621],[-89.731802,41.013281],[-89.731822,41.01194],[-89.730283,41.01313],[-89.722676,41.014207],[-89.71586,41.014376],[-89.715925,41.002873],[-89.735064,41.002836],[-89.735121,40.986811],[-89.733787,40.982281],[-89.727415,40.978884],[-89.723294,40.978195],[-89.721395,40.977067],[-89.71996,40.977286],[-89.715949,40.979235],[-89.715933,40.973845],[-89.696564,40.973793],[-89.696647,40.988308],[-89.677372,40.988328],[-89.677381,41.00273],[-89.657958,41.003138],[-89.65041,41.003041],[-89.645215,41.017611],[-89.65798,41.017746],[-89.657936,41.032275],[-89.638612,41.032107],[-89.638565,41.06135],[-89.638516,41.090395],[-89.630476,41.090397],[-89.63041,41.086814],[-89.631568,41.0758],[-89.62911,41.07558],[-89.62845,41.075],[-89.62828,41.07436],[-89.63038,41.06877],[-89.63001,41.03202],[-89.61099,41.03189],[-89.611301,41.061157],[-89.61147,41.07564],[-89.59216,41.07552],[-89.59214,41.068406],[-89.581117,41.068447],[-89.581046,41.07562],[-89.57279,41.07568],[-89.572835,41.08427],[-89.574179,41.086972],[-89.577342,41.086477],[-89.579547,41.087168],[-89.582529,41.087173],[-89.588547,41.090277],[-89.59215,41.09022],[-89.592,41.1122],[-89.60276,41.11206],[-89.638471,41.11228],[-89.677015,41.112366],[-89.735147,41.112286],[-89.735061,41.130408],[-89.725178,41.130282],[-89.725233,41.126902],[-89.715537,41.127052],[-89.705904,41.126932],[-89.705864,41.141579],[-89.735021,41.141283],[-89.735011,41.134006],[-89.750965,41.133993],[-89.756206,41.136023],[-89.758544,41.136254],[-89.758626,41.144948],[-89.759091,41.147612],[-89.769827,41.147707],[-89.769556,41.149269],[-89.770766,41.148972],[-89.771401,41.150502],[-89.770221,41.151415],[-89.77131,41.152488],[-89.772401,41.151847],[-89.777181,41.153401],[-89.777415,41.15527]]]]}},{"type":"Feature","properties":{"zcta5":"61560","AFFGEOID10":"8600000US61560","GEOID10":"61560","ALAND10":85744200,"AWATER10":21187689,"county_name":"Marshall","state_code":"IL","county_state":"Marshall County, IL","county_fips":"17123","risk_level_county":"Higher Risk (60–69% vaccinated)","mean_vaccination_rate_county":62.06,"risk_level_zcta":"Higher Risk (60–69% vaccinated)","mean_vaccination_rate_zips":68.36,"cases":14},"geometry":{"type":"Polygon","coordinates":[[[-89.482731,41.163092],[-89.483281,41.162022],[-89.486941,41.161015],[-89.486788,41.15795],[-89.485365,41.15699],[-89.481976,41.156648],[-89.482068,41.157906],[-89.478256,41.159531],[-89.476925,41.15912],[-89.47538,41.156513],[-89.479129,41.152853],[-89.478523,41.151413],[-89.481184,41.149445],[-89.477453,41.148589],[-89.466101,41.148524],[-89.35059,41.14806],[-89.34997,41.14797],[-89.32927,41.147931],[-89.327531,41.152303],[-89.325443,41.154509],[-89.320816,41.158733],[-89.319903,41.160573],[-89.319728,41.162695],[-89.320341,41.165297],[-89.323018,41.170373],[-89.325433,41.176016],[-89.327504,41.187371],[-89.328818,41.190269],[-89.333566,41.196256],[-89.336695,41.1988],[-89.342154,41.205595],[-89.344358,41.209219],[-89.34717,41.211265],[-89.35228,41.213886],[-89.353978,41.215221],[-89.356998,41.218988],[-89.358157,41.22119],[-89.358866,41.224032],[-89.358535,41.227189],[-89.356729,41.233039],[-89.395625,41.233452],[-89.399657,41.233539],[-89.466389,41.233872],[-89.466457,41.177493],[-89.476363,41.177599],[-89.476396,41.163075],[-89.482731,41.163092]]]}},{"type":"Feature","properties":{"zcta5":"61570","AFFGEOID10":"8600000US61570","GEOID10":"61570","ALAND10":172437819,"AWATER10":12681919,"county_name":"Marshall","state_code":"IL","county_state":"Marshall County, IL","county_fips":"17123","risk_level_county":"Higher Risk (60–69% vaccinated)","mean_vaccination_rate_county":62.06,"risk_level_zcta":"Higher Risk (60–69% vaccinated)","mean_vaccination_rate_zips":68.1,"cases":14},"geometry":{"type":"Polygon","coordinates":[[[-89.488469,40.899299],[-89.491908,40.892733],[-89.493417,40.887846],[-89.497514,40.87873],[-89.4611,40.878738],[-89.460581,40.880508],[-89.461299,40.883625],[-89.461411,40.88678],[-89.459784,40.888918],[-89.458355,40.892275],[-89.458457,40.893764],[-89.459942,40.895178],[-89.457259,40.895967],[-89.457551,40.89903],[-89.458814,40.901415],[-89.461465,40.903091],[-89.457029,40.902217],[-89.452054,40.896524],[-89.445846,40.893871],[-89.437136,40.893986],[-89.434695,40.895152],[-89.430535,40.898011],[-89.425864,40.898286],[-89.423084,40.899361],[-89.417977,40.899154],[-89.415921,40.900343],[-89.411873,40.900914],[-89.409909,40.901806],[-89.405224,40.899699],[-89.403865,40.899539],[-89.400692,40.90043],[-89.39634,40.899308],[-89.393832,40.899696],[-89.389917,40.899381],[-89.389944,40.901115],[-89.384989,40.901091],[-89.383666,40.89912],[-89.380291,40.898592],[-89.377849,40.8993],[-89.377426,40.900718],[-89.375437,40.902249],[-89.371936,40.902269],[-89.371787,40.904099],[-89.370521,40.904946],[-89.364524,40.906389],[-89.363742,40.907945],[-89.343112,40.90844],[-89.342878,40.894128],[-89.294435,40.894634],[-89.293961,40.872771],[-89.274708,40.873243],[-89.274296,40.851309],[-89.255329,40.851623],[-89.255536,40.866208],[-89.235572,40.866551],[-89.23564,40.873865],[-89.217341,40.874239],[-89.19815,40.874576],[-89.198235,40.881905],[-89.179135,40.882149],[-89.179284,40.896847],[-89.1668,40.89739],[-89.169008,40.900417],[-89.171684,40.901809],[-89.175267,40.901582],[-89.17727,40.902029],[-89.178765,40.903647],[-89.178819,40.906323],[-89.179452,40.906923],[-89.179499,40.911531],[-89.183806,40.911445],[-89.183197,40.912515],[-89.178178,40.914024],[-89.17888,40.916656],[-89.178266,40.919345],[-89.1817,40.921721],[-89.183703,40.922452],[-89.183815,40.925262],[-89.184729,40.926572],[-89.21812,40.92585],[-89.21828,40.94049],[-89.21351,40.94046],[-89.21368,40.95696],[-89.21444,40.95764],[-89.21864,40.95763],[-89.218698,40.960862],[-89.220349,40.960401],[-89.223517,40.958218],[-89.224937,40.958201],[-89.225348,40.95985],[-89.226534,40.960206],[-89.226481,40.962148],[-89.229255,40.963196],[-89.232167,40.962927],[-89.234655,40.961219],[-89.235352,40.962664],[-89.237875,40.962216],[-89.238026,40.971972],[-89.228374,40.975141],[-89.22836,40.97645],[-89.23167,40.976823],[-89.23656,40.9767],[-89.238104,40.976743],[-89.237973,40.98389],[-89.26247,40.98325],[-89.26266,40.97603],[-89.26962,40.97593],[-89.2718,40.97331],[-89.27186,40.96579],[-89.27327,40.96575],[-89.273833,40.963145],[-89.276787,40.96326],[-89.27764,40.98123],[-89.28684,40.98143],[-89.28701,40.9737],[-89.292998,40.973479],[-89.292985,40.972513],[-89.296666,40.972518],[-89.29793,40.97429],[-89.30292,40.97416],[-89.30426,40.97461],[-89.31531,40.97426],[-89.31515,40.96694],[-89.316255,40.967407],[-89.32459,40.96733],[-89.324679,40.981181],[-89.3344,40.9809],[-89.333962,40.966443],[-89.354177,40.96598],[-89.357706,40.965994],[-89.35726,40.95521],[-89.36222,40.95434],[-89.36743,40.95258],[-89.36868,40.95137],[-89.3716,40.95094],[-89.37156,40.94431],[-89.38168,40.94342],[-89.38248,40.94297],[-89.38425,40.93892],[-89.38699,40.94015],[-89.39484,40.93998],[-89.39743,40.94035],[-89.40015,40.93925],[-89.40019,40.9362],[-89.4017,40.93465],[-89.404801,40.933519],[-89.433514,40.929153],[-89.439486,40.92809],[-89.445575,40.927278],[-89.46157,40.929204],[-89.462565,40.928217],[-89.464375,40.926042],[-89.472959,40.921203],[-89.47233,40.921206],[-89.474232,40.914363],[-89.475225,40.912741],[-89.47963,40.909347],[-89.483496,40.903184],[-89.488469,40.899299]]]}},{"type":"Feature","properties":{"zcta5":"61375","AFFGEOID10":"8600000US61375","GEOID10":"61375","ALAND10":124184396,"AWATER10":915694,"county_name":"Marshall","state_code":"IL","county_state":"Marshall County, IL","county_fips":"17123","risk_level_county":"Higher Risk (60–69% vaccinated)","mean_vaccination_rate_county":62.06,"risk_level_zcta":"Higher Risk (60–69% vaccinated)","mean_vaccination_rate_zips":67.11,"cases":14},"geometry":{"type":"Polygon","coordinates":[[[-89.324679,40.981181],[-89.32459,40.96733],[-89.316255,40.967407],[-89.31515,40.96694],[-89.31531,40.97426],[-89.30426,40.97461],[-89.30292,40.97416],[-89.29793,40.97429],[-89.296666,40.972518],[-89.292985,40.972513],[-89.292998,40.973479],[-89.28701,40.9737],[-89.28684,40.98143],[-89.27764,40.98123],[-89.276787,40.96326],[-89.273833,40.963145],[-89.27327,40.96575],[-89.27186,40.96579],[-89.2718,40.97331],[-89.26962,40.97593],[-89.26266,40.97603],[-89.26247,40.98325],[-89.237973,40.98389],[-89.23436,40.98395],[-89.234167,40.984378],[-89.23373,40.98603],[-89.23397,40.99861],[-89.218362,40.998957],[-89.218403,41.006519],[-89.190417,41.007402],[-89.19081,41.02927],[-89.163,41.0302],[-89.16162,41.03008],[-89.161815,41.044309],[-89.14354,41.04428],[-89.14352,41.05881],[-89.144885,41.058813],[-89.16027,41.05886],[-89.16192,41.05941],[-89.16204,41.07449],[-89.1815,41.07306],[-89.19135,41.07285],[-89.1912,41.05826],[-89.194387,41.059447],[-89.196132,41.058444],[-89.197773,41.0587],[-89.198466,41.060588],[-89.200419,41.061991],[-89.200397,41.063866],[-89.20328,41.065273],[-89.202538,41.066586],[-89.204553,41.069389],[-89.206276,41.070092],[-89.208316,41.070106],[-89.20893,41.07133],[-89.210895,41.071978],[-89.212296,41.070518],[-89.214006,41.070957],[-89.215107,41.072095],[-89.216394,41.071115],[-89.219077,41.070894],[-89.218605,41.070387],[-89.221595,41.069182],[-89.225161,41.069669],[-89.225205,41.071054],[-89.227616,41.070303],[-89.229376,41.071952],[-89.229535,41.073599],[-89.231663,41.073533],[-89.232221,41.07527],[-89.234261,41.077702],[-89.231216,41.078893],[-89.229257,41.082784],[-89.230861,41.084167],[-89.233242,41.083886],[-89.232736,41.085702],[-89.234012,41.08587],[-89.230211,41.086911],[-89.226524,41.089391],[-89.263082,41.089277],[-89.263094,41.091582],[-89.26667,41.09284],[-89.267733,41.092177],[-89.269602,41.093155],[-89.272015,41.092312],[-89.276106,41.09239],[-89.277015,41.091162],[-89.278812,41.091391],[-89.278836,41.093809],[-89.28245,41.09372],[-89.28469,41.09411],[-89.28796,41.09693],[-89.28954,41.09713],[-89.29514,41.09672],[-89.29632,41.09583],[-89.29618,41.09474],[-89.29808,41.09322],[-89.29984,41.09278],[-89.30267,41.09114],[-89.30251,41.08624],[-89.30274,41.08148],[-89.30556,41.07756],[-89.30673,41.07256],[-89.30972,41.06757],[-89.31193,41.06722],[-89.311852,41.061988],[-89.292675,41.062323],[-89.29261,41.05617],[-89.31649,41.0552],[-89.31543,40.98149],[-89.324679,40.981181]]]}},{"type":"Feature","properties":{"zcta5":"61369","AFFGEOID10":"8600000US61369","GEOID10":"61369","ALAND10":118766172,"AWATER10":0,"county_name":"Marshall","state_code":"IL","county_state":"Marshall County, IL","county_fips":"17123","risk_level_county":"Higher Risk (60–69% vaccinated)","mean_vaccination_rate_county":62.06,"risk_level_zcta":"Higher Risk (60–69% vaccinated)","mean_vaccination_rate_zips":68.71,"cases":14},"geometry":{"type":"Polygon","coordinates":[[[-89.23167,40.976823],[-89.22836,40.97645],[-89.228374,40.975141],[-89.238026,40.971972],[-89.237875,40.962216],[-89.235352,40.962664],[-89.234655,40.961219],[-89.232167,40.962927],[-89.229255,40.963196],[-89.226481,40.962148],[-89.226534,40.960206],[-89.225348,40.95985],[-89.224937,40.958201],[-89.223517,40.958218],[-89.220349,40.960401],[-89.218698,40.960862],[-89.21864,40.95763],[-89.21444,40.95764],[-89.21368,40.95696],[-89.21351,40.94046],[-89.21828,40.94049],[-89.21812,40.92585],[-89.184729,40.926572],[-89.18461,40.93792],[-89.18628,40.9412],[-89.1606,40.9419],[-89.16052,40.93448],[-89.169968,40.93434],[-89.169993,40.926896],[-89.160448,40.92709],[-89.124462,40.926764],[-89.12446,40.94123],[-89.12445,40.95594],[-89.10517,40.95572],[-89.105176,40.974617],[-89.104243,40.975528],[-89.102323,40.975721],[-89.098998,40.97447],[-89.095566,40.9758],[-89.093045,40.975724],[-89.09033,40.976823],[-89.085965,40.976711],[-89.08595,40.98475],[-89.06664,40.98443],[-89.066592,41.009358],[-89.085944,41.006582],[-89.085924,41.013971],[-89.08574,41.0286],[-89.12422,41.02932],[-89.12423,41.04391],[-89.14354,41.04428],[-89.161815,41.044309],[-89.16162,41.03008],[-89.163,41.0302],[-89.19081,41.02927],[-89.190417,41.007402],[-89.218403,41.006519],[-89.218362,40.998957],[-89.23397,40.99861],[-89.23373,40.98603],[-89.234167,40.984378],[-89.232308,40.984756],[-89.23167,40.976823]]]}},{"type":"Feature","properties":{"zcta5":"61421","AFFGEOID10":"8600000US61421","GEOID10":"61421","ALAND10":245233965,"AWATER10":209610,"county_name":"Marshall","state_code":"IL","county_state":"Marshall County, IL","county_fips":"17123","risk_level_county":"Higher Risk (60–69% vaccinated)","mean_vaccination_rate_county":62.06,"risk_level_zcta":"Medium Risk (70–79% vaccinated)","mean_vaccination_rate_zips":78.99,"cases":14},"geometry":{"type":"Polygon","coordinates":[[[-89.780143,41.212694],[-89.781821,41.209642],[-89.782291,41.207821],[-89.782319,41.198965],[-89.796243,41.199281],[-89.798781,41.197164],[-89.800067,41.194621],[-89.800437,41.19242],[-89.80349,41.192105],[-89.803736,41.190859],[-89.805983,41.188106],[-89.805952,41.187258],[-89.801977,41.185677],[-89.801755,41.180675],[-89.788394,41.180684],[-89.786463,41.178143],[-89.786982,41.177268],[-89.782443,41.175386],[-89.782468,41.169953],[-89.779141,41.16984],[-89.779751,41.167421],[-89.777213,41.165819],[-89.775974,41.165651],[-89.773164,41.167407],[-89.771865,41.167535],[-89.770447,41.166169],[-89.767638,41.166259],[-89.768759,41.16443],[-89.770817,41.162945],[-89.770364,41.160795],[-89.767703,41.159354],[-89.768037,41.157799],[-89.771274,41.158166],[-89.77433,41.157595],[-89.777415,41.15527],[-89.777181,41.153401],[-89.772401,41.151847],[-89.77131,41.152488],[-89.770221,41.151415],[-89.771401,41.150502],[-89.770766,41.148972],[-89.769556,41.149269],[-89.769827,41.147707],[-89.759091,41.147612],[-89.758626,41.144948],[-89.758544,41.136254],[-89.756206,41.136023],[-89.750965,41.133993],[-89.735011,41.134006],[-89.735021,41.141283],[-89.705864,41.141579],[-89.705904,41.126932],[-89.676778,41.126931],[-89.677015,41.112366],[-89.638471,41.11228],[-89.60276,41.11206],[-89.592,41.1122],[-89.59194,41.12488],[-89.59133,41.12621],[-89.58923,41.127],[-89.58236,41.12712],[-89.572295,41.126717],[-89.5723,41.134373],[-89.56318,41.134281],[-89.56316,41.14868],[-89.5439,41.14864],[-89.543529,41.161392],[-89.542501,41.159471],[-89.540232,41.157687],[-89.529251,41.154552],[-89.528917,41.155558],[-89.527012,41.154871],[-89.520475,41.155898],[-89.519415,41.156858],[-89.517537,41.160882],[-89.519472,41.162895],[-89.522407,41.164337],[-89.522739,41.165686],[-89.519439,41.167469],[-89.520558,41.169253],[-89.51968,41.171037],[-89.520708,41.172318],[-89.522856,41.173279],[-89.522432,41.174513],[-89.524482,41.175468],[-89.52416,41.192116],[-89.514469,41.192136],[-89.514577,41.214203],[-89.524567,41.214261],[-89.524548,41.233954],[-89.58474,41.233918],[-89.582508,41.232162],[-89.58252,41.227284],[-89.592092,41.227256],[-89.591929,41.233893],[-89.616103,41.233876],[-89.61611,41.241189],[-89.625656,41.241191],[-89.625575,41.233865],[-89.620697,41.233871],[-89.621055,41.226253],[-89.625936,41.226825],[-89.625555,41.224812],[-89.628058,41.22463],[-89.630482,41.223077],[-89.633754,41.222186],[-89.634946,41.221279],[-89.638673,41.221274],[-89.638864,41.233862],[-89.747559,41.233922],[-89.74735,41.228365],[-89.751312,41.228079],[-89.753573,41.227468],[-89.753614,41.221012],[-89.752788,41.220151],[-89.753603,41.218662],[-89.753608,41.215143],[-89.754854,41.213443],[-89.756143,41.213217],[-89.763348,41.213531],[-89.779681,41.213531],[-89.780143,41.212694]]]}}]}