{"type":"FeatureCollection","features":[{"type":"Feature","properties":{"zcta5":"37174","AFFGEOID10":"8600000US37174","GEOID10":"37174","ALAND10":177635552,"AWATER10":219653,"county_name":"Maury","state_code":"TN","county_state":"Maury County, TN","county_fips":"47119","risk_level_county":"Higher Risk (60–69% vaccinated)","mean_vaccination_rate_county":68.38,"risk_level_zcta":"Medium Risk (70–79% vaccinated)","mean_vaccination_rate_zips":78.09,"cases":8},"geometry":{"type":"MultiPolygon","coordinates":[[[[-86.902113,35.769411],[-86.900037,35.764022],[-86.897781,35.763867],[-86.898913,35.76548],[-86.897448,35.768309],[-86.896751,35.770593],[-86.899477,35.770754],[-86.902113,35.769411]]],[[[-86.912209,35.785431],[-86.912806,35.783762],[-86.908922,35.78281],[-86.908306,35.784499],[-86.909107,35.78467],[-86.910337,35.785004],[-86.912209,35.785431]]],[[[-87.000427,35.778679],[-87.001423,35.775467],[-87.002329,35.775127],[-87.002203,35.77322],[-87.003112,35.76999],[-87.001608,35.768997],[-87.00224,35.767911],[-87.001379,35.766025],[-86.999559,35.764579],[-87.000295,35.763359],[-86.999036,35.760781],[-86.998634,35.754763],[-86.996676,35.752829],[-87.000691,35.752953],[-86.99702,35.751818],[-86.995623,35.74977],[-86.995594,35.747972],[-86.991897,35.74417],[-86.992193,35.742368],[-86.990679,35.739037],[-86.985247,35.739093],[-86.983987,35.741305],[-86.981345,35.743334],[-86.980248,35.744916],[-86.976508,35.744535],[-86.977682,35.738036],[-86.977235,35.735705],[-86.977758,35.734314],[-86.973681,35.737445],[-86.973174,35.73727],[-86.971909,35.737039],[-86.970034,35.739051],[-86.968288,35.738277],[-86.972295,35.735226],[-86.972537,35.733408],[-86.967793,35.729685],[-86.966334,35.730872],[-86.965027,35.72837],[-86.963341,35.726745],[-86.961368,35.726684],[-86.963029,35.724991],[-86.96291,35.724877],[-86.967611,35.720106],[-86.965051,35.71859],[-86.963139,35.718662],[-86.960492,35.717626],[-86.95853,35.717561],[-86.956766,35.717187],[-86.954573,35.71625],[-86.954426,35.7156],[-86.952821,35.713841],[-86.952005,35.711395],[-86.952052,35.708823],[-86.951371,35.707779],[-86.951499,35.706888],[-86.950778,35.706311],[-86.949733,35.703866],[-86.950643,35.702546],[-86.950429,35.701927],[-86.953447,35.700723],[-86.954271,35.698944],[-86.953001,35.697526],[-86.953261,35.696241],[-86.952228,35.696158],[-86.951571,35.695197],[-86.948623,35.696361],[-86.947329,35.696215],[-86.946485,35.69369],[-86.946737,35.691567],[-86.947401,35.691413],[-86.949663,35.692182],[-86.95173,35.693439],[-86.951441,35.692838],[-86.948191,35.691221],[-86.946939,35.691326],[-86.9463,35.691862],[-86.942623,35.691413],[-86.942696,35.690424],[-86.941815,35.68979],[-86.939753,35.688965],[-86.937873,35.688234],[-86.935903,35.688175],[-86.937187,35.680024],[-86.940473,35.680382],[-86.942288,35.681498],[-86.951842,35.682455],[-86.952835,35.676374],[-86.955311,35.676203],[-86.955514,35.674389],[-86.954157,35.67085],[-86.952418,35.66888],[-86.95233,35.667205],[-86.951316,35.666587],[-86.951957,35.664381],[-86.951749,35.661237],[-86.954215,35.660541],[-86.95623,35.661097],[-86.956779,35.659135],[-86.947218,35.659022],[-86.942298,35.659223],[-86.940215,35.658192],[-86.938752,35.656224],[-86.939187,35.655001],[-86.938668,35.651835],[-86.939085,35.651085],[-86.941223,35.650967],[-86.943049,35.646127],[-86.943317,35.643985],[-86.934129,35.64593],[-86.931865,35.644911],[-86.925612,35.644221],[-86.924133,35.645469],[-86.921244,35.645912],[-86.918001,35.646946],[-86.912882,35.644802],[-86.908587,35.644838],[-86.903198,35.645724],[-86.89724,35.644169],[-86.895757,35.643294],[-86.894369,35.645017],[-86.893879,35.648448],[-86.8931,35.649303],[-86.892966,35.651306],[-86.889442,35.65051],[-86.881807,35.649643],[-86.872519,35.64898],[-86.870697,35.661209],[-86.872062,35.663351],[-86.871748,35.665982],[-86.873184,35.66747],[-86.874567,35.670751],[-86.873628,35.675613],[-86.870865,35.678683],[-86.870621,35.676963],[-86.866421,35.671859],[-86.865525,35.671348],[-86.866369,35.67425],[-86.864023,35.67766],[-86.861177,35.676858],[-86.856944,35.674595],[-86.852659,35.672652],[-86.851226,35.680188],[-86.849215,35.681785],[-86.84869,35.68106],[-86.845575,35.68038],[-86.845613,35.676987],[-86.843538,35.676222],[-86.837518,35.676119],[-86.836764,35.675672],[-86.834333,35.679283],[-86.833182,35.682763],[-86.834766,35.686082],[-86.835918,35.687368],[-86.83511,35.688253],[-86.83505,35.690441],[-86.837193,35.690979],[-86.836628,35.692931],[-86.837949,35.69459],[-86.838872,35.697405],[-86.832674,35.697133],[-86.832083,35.695474],[-86.828153,35.699016],[-86.824946,35.701243],[-86.824637,35.702252],[-86.810548,35.698797],[-86.809452,35.697251],[-86.803233,35.699415],[-86.803369,35.697201],[-86.802266,35.697158],[-86.802792,35.692042],[-86.796935,35.691479],[-86.796727,35.693728],[-86.794866,35.696867],[-86.795243,35.698318],[-86.793424,35.699917],[-86.792579,35.70153],[-86.794002,35.702575],[-86.782016,35.706595],[-86.790448,35.707219],[-86.797898,35.707988],[-86.799868,35.709696],[-86.797621,35.709942],[-86.793965,35.710911],[-86.790203,35.710828],[-86.7878,35.714124],[-86.786938,35.714535],[-86.778383,35.713823],[-86.777526,35.719574],[-86.776345,35.722058],[-86.776985,35.723509],[-86.776249,35.726614],[-86.776318,35.72991],[-86.782615,35.731082],[-86.7829,35.726899],[-86.785672,35.727491],[-86.784837,35.733464],[-86.798525,35.733458],[-86.796041,35.730405],[-86.797449,35.729117],[-86.799484,35.729572],[-86.802399,35.731863],[-86.807571,35.732472],[-86.807976,35.737164],[-86.832777,35.745349],[-86.834081,35.744449],[-86.838864,35.743067],[-86.837374,35.74659],[-86.840646,35.746592],[-86.841936,35.751141],[-86.855836,35.753901],[-86.856474,35.752683],[-86.858313,35.754601],[-86.86175,35.754878],[-86.862889,35.752957],[-86.86542,35.752501],[-86.868743,35.752565],[-86.867652,35.754943],[-86.867953,35.755649],[-86.866568,35.758907],[-86.86517,35.763308],[-86.864728,35.765774],[-86.863237,35.779345],[-86.862738,35.789866],[-86.864449,35.790047],[-86.871261,35.7905],[-86.877514,35.790775],[-86.88049,35.77168],[-86.88091,35.775317],[-86.886864,35.775594],[-86.887761,35.775258],[-86.886879,35.773185],[-86.883273,35.770104],[-86.883467,35.768869],[-86.881021,35.768614],[-86.882656,35.759567],[-86.883774,35.75976],[-86.884077,35.761197],[-86.886214,35.761117],[-86.889178,35.762153],[-86.888012,35.76295],[-86.889685,35.763581],[-86.890457,35.758341],[-86.893162,35.758821],[-86.893637,35.760101],[-86.892874,35.762508],[-86.893831,35.763509],[-86.900216,35.763492],[-86.901033,35.763258],[-86.902232,35.766386],[-86.902299,35.767953],[-86.903499,35.769085],[-86.904223,35.774027],[-86.905294,35.774829],[-86.905345,35.77771],[-86.909948,35.779063],[-86.906726,35.778994],[-86.906227,35.782359],[-86.907516,35.782066],[-86.907708,35.780702],[-86.908906,35.780248],[-86.913895,35.780825],[-86.917871,35.770078],[-86.919128,35.770396],[-86.922463,35.769952],[-86.921026,35.771837],[-86.918151,35.777737],[-86.921414,35.778273],[-86.919925,35.779642],[-86.91925,35.781599],[-86.918164,35.782967],[-86.922332,35.783601],[-86.928565,35.778548],[-86.928779,35.778095],[-86.941723,35.779551],[-86.942293,35.775152],[-86.944302,35.77265],[-86.952242,35.773499],[-86.951993,35.774842],[-86.949675,35.778178],[-86.950433,35.782682],[-86.949192,35.784656],[-86.947407,35.785248],[-86.947461,35.786654],[-86.953192,35.787008],[-86.96093,35.790145],[-86.963497,35.790375],[-86.963027,35.793617],[-86.964542,35.793784],[-86.963952,35.796618],[-86.976835,35.797977],[-86.977704,35.793269],[-86.979305,35.790674],[-86.98486,35.791386],[-86.987151,35.788219],[-86.987171,35.787213],[-86.989799,35.783925],[-86.992551,35.782781],[-86.994869,35.779766],[-86.996868,35.780472],[-86.997457,35.778528],[-87.000427,35.778679]],[[-86.925579,35.772833],[-86.925212,35.774668],[-86.924118,35.774972],[-86.923372,35.774677],[-86.924785,35.772516],[-86.925579,35.772833]]]]}},{"type":"Feature","properties":{"zcta5":"38483","AFFGEOID10":"8600000US38483","GEOID10":"38483","ALAND10":252714418,"AWATER10":527102,"county_name":"Maury","state_code":"TN","county_state":"Maury County, TN","county_fips":"47119","risk_level_county":"Higher Risk (60–69% vaccinated)","mean_vaccination_rate_county":68.38,"risk_level_zcta":"Medium Risk (70–79% vaccinated)","mean_vaccination_rate_zips":72.81,"cases":8},"geometry":{"type":"Polygon","coordinates":[[[-87.385963,35.505635],[-87.387262,35.505258],[-87.387507,35.503414],[-87.389496,35.503901],[-87.394176,35.503578],[-87.393912,35.506692],[-87.402315,35.508237],[-87.405179,35.510646],[-87.409813,35.513922],[-87.411894,35.514938],[-87.413801,35.516948],[-87.413985,35.518059],[-87.413489,35.521781],[-87.414078,35.522664],[-87.417449,35.525252],[-87.419947,35.526426],[-87.420251,35.528122],[-87.424843,35.529132],[-87.429968,35.532445],[-87.428874,35.534921],[-87.431258,35.535089],[-87.432599,35.53274],[-87.437019,35.52877],[-87.43835,35.527288],[-87.440952,35.522733],[-87.442754,35.520261],[-87.446451,35.5169],[-87.449407,35.512508],[-87.451526,35.510075],[-87.458407,35.503609],[-87.456092,35.501645],[-87.452699,35.498157],[-87.448827,35.494769],[-87.442951,35.490604],[-87.440851,35.48963],[-87.436368,35.489105],[-87.436518,35.485771],[-87.439146,35.481365],[-87.440173,35.480725],[-87.443128,35.48013],[-87.444249,35.477812],[-87.446415,35.476077],[-87.452589,35.475394],[-87.45433,35.473163],[-87.455041,35.469494],[-87.455987,35.468884],[-87.45626,35.466362],[-87.4585,35.46388],[-87.462383,35.466361],[-87.463076,35.467777],[-87.464619,35.46778],[-87.465628,35.465144],[-87.471004,35.464719],[-87.470316,35.461686],[-87.468423,35.460136],[-87.467713,35.457166],[-87.468344,35.455643],[-87.468074,35.453778],[-87.468796,35.453612],[-87.468225,35.451072],[-87.468772,35.447423],[-87.470238,35.444871],[-87.47538,35.439966],[-87.475005,35.437716],[-87.475531,35.435974],[-87.47367,35.435315],[-87.472138,35.436027],[-87.470237,35.435258],[-87.469752,35.43196],[-87.47092,35.431361],[-87.471081,35.430228],[-87.469584,35.431339],[-87.468657,35.430317],[-87.469489,35.429481],[-87.469757,35.427557],[-87.46875,35.429399],[-87.467146,35.430092],[-87.466087,35.429696],[-87.466905,35.428214],[-87.467992,35.428078],[-87.46831,35.426832],[-87.467529,35.423651],[-87.46485,35.423331],[-87.464955,35.422286],[-87.462104,35.422208],[-87.461938,35.42066],[-87.44882,35.420622],[-87.448511,35.423461],[-87.44839,35.43282],[-87.444998,35.434537],[-87.442574,35.434982],[-87.437234,35.434966],[-87.432251,35.43673],[-87.428857,35.439859],[-87.426122,35.437924],[-87.4238,35.43741],[-87.421453,35.435789],[-87.421825,35.433972],[-87.420655,35.431391],[-87.418521,35.429737],[-87.415216,35.429551],[-87.416524,35.426869],[-87.414542,35.421741],[-87.412074,35.41993],[-87.410434,35.420658],[-87.409823,35.423294],[-87.411168,35.426044],[-87.409759,35.427339],[-87.406704,35.428607],[-87.404768,35.427944],[-87.404689,35.426016],[-87.406015,35.425638],[-87.406384,35.423983],[-87.406031,35.418737],[-87.405068,35.41655],[-87.405145,35.414936],[-87.404129,35.413936],[-87.403331,35.410525],[-87.400758,35.409156],[-87.400508,35.407798],[-87.397572,35.406733],[-87.395641,35.402744],[-87.394022,35.400967],[-87.395754,35.399725],[-87.401607,35.399831],[-87.400119,35.395469],[-87.397706,35.391327],[-87.395142,35.390234],[-87.394599,35.388385],[-87.389316,35.388598],[-87.390653,35.387526],[-87.391191,35.385526],[-87.392151,35.384707],[-87.39646,35.384077],[-87.39977,35.382165],[-87.402388,35.381891],[-87.403415,35.380396],[-87.4039,35.376488],[-87.404638,35.375199],[-87.403682,35.371128],[-87.404241,35.36791],[-87.402711,35.366447],[-87.401597,35.366001],[-87.396075,35.365307],[-87.394619,35.364477],[-87.388473,35.363436],[-87.385822,35.365474],[-87.384305,35.365907],[-87.381429,35.369189],[-87.383169,35.371366],[-87.382961,35.376572],[-87.384376,35.379815],[-87.38166,35.380461],[-87.381233,35.381493],[-87.38119,35.385582],[-87.382753,35.386374],[-87.382544,35.387611],[-87.380852,35.389501],[-87.380097,35.392925],[-87.380768,35.393898],[-87.380391,35.395663],[-87.377954,35.396173],[-87.376209,35.395298],[-87.375342,35.396155],[-87.37123,35.397392],[-87.36909,35.394895],[-87.367035,35.395548],[-87.364075,35.392969],[-87.360505,35.391034],[-87.358039,35.39045],[-87.355608,35.388918],[-87.353697,35.386376],[-87.353992,35.38549],[-87.351846,35.383017],[-87.349406,35.382185],[-87.347998,35.381065],[-87.34777,35.376179],[-87.346272,35.374934],[-87.342553,35.373281],[-87.344241,35.358795],[-87.343239,35.357895],[-87.34,35.357529],[-87.339581,35.361068],[-87.340847,35.367812],[-87.341305,35.372996],[-87.338283,35.372532],[-87.336022,35.371002],[-87.323566,35.37002],[-87.319698,35.370519],[-87.313761,35.370083],[-87.311918,35.371727],[-87.30599,35.3714],[-87.302971,35.368132],[-87.301333,35.364824],[-87.302254,35.367856],[-87.295141,35.367177],[-87.294206,35.3659],[-87.291571,35.365386],[-87.290265,35.366313],[-87.290921,35.367951],[-87.289786,35.368853],[-87.290517,35.371035],[-87.29159,35.371953],[-87.291637,35.37491],[-87.290211,35.377257],[-87.288585,35.382319],[-87.287593,35.382355],[-87.286456,35.380062],[-87.281966,35.376682],[-87.278832,35.374935],[-87.275658,35.373873],[-87.272619,35.373358],[-87.273905,35.37898],[-87.270425,35.378794],[-87.269095,35.377367],[-87.267305,35.377523],[-87.259648,35.374809],[-87.257647,35.37359],[-87.25238,35.372979],[-87.251843,35.371017],[-87.24821,35.369751],[-87.245703,35.367269],[-87.24027,35.375972],[-87.236821,35.375633],[-87.235414,35.376254],[-87.234927,35.380723],[-87.233544,35.381225],[-87.229856,35.38081],[-87.227203,35.381149],[-87.222274,35.384108],[-87.218886,35.386941],[-87.21467,35.385212],[-87.214994,35.381302],[-87.214344,35.373176],[-87.212383,35.376799],[-87.211534,35.377331],[-87.20638,35.375731],[-87.204564,35.377523],[-87.202094,35.377832],[-87.199416,35.379657],[-87.197162,35.380643],[-87.193044,35.378836],[-87.18555,35.371354],[-87.1694,35.382032],[-87.171845,35.384544],[-87.17416,35.387931],[-87.174973,35.390757],[-87.178093,35.392747],[-87.180825,35.393561],[-87.182845,35.396583],[-87.185858,35.399668],[-87.18764,35.402685],[-87.189926,35.404485],[-87.190986,35.406295],[-87.193711,35.408159],[-87.196576,35.40918],[-87.19655,35.41088],[-87.197653,35.412584],[-87.200002,35.414295],[-87.201025,35.415854],[-87.202005,35.415987],[-87.207741,35.417934],[-87.207665,35.420753],[-87.209324,35.420475],[-87.206578,35.433207],[-87.217328,35.438403],[-87.226272,35.440408],[-87.225723,35.4337],[-87.227932,35.429332],[-87.232595,35.427065],[-87.234324,35.428338],[-87.242722,35.429839],[-87.245606,35.430702],[-87.249608,35.431195],[-87.255389,35.431026],[-87.257693,35.430448],[-87.264887,35.43036],[-87.271606,35.430972],[-87.275062,35.431782],[-87.280942,35.432322],[-87.279735,35.43929],[-87.280368,35.439406],[-87.278126,35.443418],[-87.28119,35.456959],[-87.281813,35.457843],[-87.282787,35.458594],[-87.281483,35.458658],[-87.279299,35.469982],[-87.276791,35.470104],[-87.274808,35.483115],[-87.275806,35.48247],[-87.279072,35.481697],[-87.284159,35.482818],[-87.289285,35.486451],[-87.302369,35.475205],[-87.305731,35.475469],[-87.308174,35.476262],[-87.311292,35.476414],[-87.310079,35.478276],[-87.310057,35.480841],[-87.311103,35.483374],[-87.310524,35.489093],[-87.311468,35.491164],[-87.31156,35.493172],[-87.314004,35.496821],[-87.317201,35.497759],[-87.320516,35.504422],[-87.322892,35.505092],[-87.330695,35.504639],[-87.35078,35.505082],[-87.37205,35.504316],[-87.371475,35.505521],[-87.371011,35.513282],[-87.376905,35.51303],[-87.383311,35.505957],[-87.385963,35.505635]]]}},{"type":"Feature","properties":{"zcta5":"38474","AFFGEOID10":"8600000US38474","GEOID10":"38474","ALAND10":281546494,"AWATER10":395869,"county_name":"Maury","state_code":"TN","county_state":"Maury County, TN","county_fips":"47119","risk_level_county":"Higher Risk (60–69% vaccinated)","mean_vaccination_rate_county":68.38,"risk_level_zcta":"Medium Risk (70–79% vaccinated)","mean_vaccination_rate_zips":72.34,"cases":8},"geometry":{"type":"Polygon","coordinates":[[[-87.256875,35.659508],[-87.258762,35.658677],[-87.260485,35.656134],[-87.259429,35.655],[-87.258426,35.651647],[-87.258858,35.649457],[-87.260561,35.646969],[-87.262297,35.64675],[-87.265693,35.645053],[-87.265965,35.643774],[-87.267211,35.64248],[-87.266764,35.640677],[-87.267,35.638195],[-87.268515,35.637669],[-87.26948,35.63581],[-87.271536,35.634349],[-87.273383,35.633642],[-87.274069,35.632267],[-87.272694,35.630424],[-87.272582,35.626111],[-87.27026,35.619619],[-87.270033,35.617729],[-87.267786,35.61203],[-87.263755,35.611138],[-87.260127,35.609467],[-87.261963,35.609473],[-87.264226,35.60829],[-87.265953,35.606192],[-87.267853,35.604897],[-87.270847,35.603813],[-87.27103,35.603055],[-87.27353,35.599375],[-87.273375,35.598478],[-87.275392,35.595844],[-87.276759,35.59603],[-87.278537,35.594908],[-87.280071,35.594629],[-87.284026,35.594941],[-87.286081,35.594799],[-87.291366,35.595801],[-87.291269,35.594666],[-87.289925,35.591858],[-87.289704,35.586946],[-87.290647,35.584617],[-87.291687,35.58436],[-87.305134,35.574577],[-87.303997,35.57406],[-87.302943,35.572442],[-87.300173,35.570706],[-87.300587,35.570147],[-87.304821,35.570556],[-87.30733,35.570514],[-87.312101,35.571589],[-87.313283,35.572423],[-87.316593,35.571988],[-87.316516,35.571489],[-87.311695,35.568802],[-87.300246,35.561681],[-87.303285,35.559366],[-87.303658,35.558649],[-87.30593,35.557536],[-87.305766,35.555932],[-87.304573,35.555174],[-87.304131,35.553538],[-87.302974,35.552095],[-87.302846,35.549739],[-87.303984,35.548789],[-87.308531,35.543316],[-87.309147,35.540589],[-87.308775,35.538385],[-87.306813,35.534771],[-87.304974,35.533407],[-87.303707,35.530054],[-87.302523,35.52841],[-87.303064,35.527968],[-87.306307,35.529141],[-87.308586,35.528519],[-87.311212,35.528769],[-87.314239,35.527687],[-87.316459,35.526448],[-87.317705,35.525014],[-87.32052,35.524847],[-87.322579,35.523935],[-87.327026,35.524641],[-87.328549,35.525761],[-87.330825,35.526352],[-87.331451,35.522846],[-87.3302,35.518106],[-87.326001,35.517754],[-87.325258,35.51611],[-87.322996,35.514531],[-87.322342,35.513483],[-87.319932,35.512529],[-87.319094,35.511416],[-87.325362,35.507609],[-87.323421,35.506347],[-87.322892,35.505092],[-87.320516,35.504422],[-87.317201,35.497759],[-87.314004,35.496821],[-87.31156,35.493172],[-87.311468,35.491164],[-87.310524,35.489093],[-87.311103,35.483374],[-87.310057,35.480841],[-87.310079,35.478276],[-87.311292,35.476414],[-87.308174,35.476262],[-87.305731,35.475469],[-87.302369,35.475205],[-87.289285,35.486451],[-87.284159,35.482818],[-87.279072,35.481697],[-87.275806,35.48247],[-87.274808,35.483115],[-87.276791,35.470104],[-87.279299,35.469982],[-87.281483,35.458658],[-87.282787,35.458594],[-87.281813,35.457843],[-87.28119,35.456959],[-87.278126,35.443418],[-87.280368,35.439406],[-87.279735,35.43929],[-87.280942,35.432322],[-87.275062,35.431782],[-87.271606,35.430972],[-87.264887,35.43036],[-87.257693,35.430448],[-87.255389,35.431026],[-87.249608,35.431195],[-87.245606,35.430702],[-87.242722,35.429839],[-87.234324,35.428338],[-87.232595,35.427065],[-87.227932,35.429332],[-87.225723,35.4337],[-87.226272,35.440408],[-87.217328,35.438403],[-87.206578,35.433207],[-87.209324,35.420475],[-87.207665,35.420753],[-87.207741,35.417934],[-87.202005,35.415987],[-87.201025,35.415854],[-87.200002,35.414295],[-87.197653,35.412584],[-87.19655,35.41088],[-87.196576,35.40918],[-87.193711,35.408159],[-87.190986,35.406295],[-87.189926,35.404485],[-87.18764,35.402685],[-87.185858,35.399668],[-87.182845,35.396583],[-87.180825,35.393561],[-87.178093,35.392747],[-87.174973,35.390757],[-87.17416,35.387931],[-87.171845,35.384544],[-87.1694,35.382032],[-87.168139,35.380289],[-87.168192,35.378992],[-87.170737,35.375],[-87.169926,35.374018],[-87.164431,35.372183],[-87.163669,35.369707],[-87.164395,35.368927],[-87.162672,35.368499],[-87.159669,35.366921],[-87.156395,35.367716],[-87.154445,35.368913],[-87.151173,35.369245],[-87.151967,35.370499],[-87.152158,35.371841],[-87.153285,35.374076],[-87.156276,35.377514],[-87.157393,35.379247],[-87.157659,35.380423],[-87.158982,35.38065],[-87.1608,35.383124],[-87.161541,35.384768],[-87.161955,35.388527],[-87.160738,35.389383],[-87.159459,35.388805],[-87.159571,35.390238],[-87.158766,35.393373],[-87.157825,35.401615],[-87.157906,35.409579],[-87.158901,35.409006],[-87.159962,35.409073],[-87.161341,35.410732],[-87.165094,35.413845],[-87.167195,35.4153],[-87.166329,35.416116],[-87.167421,35.417231],[-87.17007,35.419002],[-87.171052,35.420368],[-87.171879,35.420614],[-87.1688,35.417653],[-87.170569,35.418571],[-87.170629,35.41925],[-87.172074,35.420298],[-87.171771,35.420854],[-87.173633,35.42274],[-87.174219,35.424499],[-87.176867,35.426986],[-87.177233,35.427709],[-87.178596,35.428591],[-87.179032,35.430721],[-87.178768,35.432075],[-87.177833,35.434341],[-87.165744,35.436923],[-87.163684,35.435055],[-87.160192,35.435377],[-87.157918,35.437881],[-87.157516,35.439312],[-87.155812,35.439676],[-87.154952,35.442289],[-87.152277,35.443518],[-87.151884,35.445608],[-87.150267,35.445738],[-87.149904,35.446918],[-87.146867,35.447635],[-87.143202,35.447433],[-87.140858,35.449231],[-87.13834,35.448365],[-87.137289,35.448729],[-87.136728,35.450751],[-87.133875,35.453161],[-87.130036,35.454025],[-87.128552,35.456004],[-87.127488,35.459374],[-87.123485,35.460475],[-87.122308,35.46222],[-87.127007,35.465953],[-87.126109,35.467686],[-87.12952,35.471947],[-87.132741,35.472662],[-87.135262,35.472318],[-87.137157,35.474109],[-87.137319,35.473168],[-87.146588,35.479042],[-87.145964,35.491779],[-87.147207,35.494236],[-87.146385,35.494733],[-87.141511,35.500964],[-87.141883,35.501804],[-87.141576,35.505083],[-87.143447,35.507979],[-87.149589,35.509684],[-87.150567,35.512404],[-87.156129,35.523762],[-87.158447,35.523982],[-87.159496,35.529179],[-87.160115,35.529179],[-87.160218,35.53078],[-87.157576,35.530598],[-87.156974,35.534797],[-87.157917,35.534922],[-87.156504,35.544828],[-87.15785,35.544988],[-87.156705,35.552307],[-87.149586,35.55173],[-87.152547,35.561321],[-87.157267,35.56468],[-87.157853,35.566773],[-87.155841,35.567637],[-87.156976,35.568149],[-87.159193,35.571723],[-87.160037,35.571645],[-87.17516,35.563541],[-87.175558,35.563999],[-87.178096,35.562695],[-87.182064,35.561514],[-87.189138,35.562068],[-87.190214,35.561851],[-87.188577,35.561858],[-87.188895,35.559609],[-87.190543,35.559655],[-87.190627,35.558013],[-87.197667,35.555589],[-87.206534,35.552531],[-87.206196,35.553061],[-87.203632,35.553952],[-87.202697,35.555306],[-87.192121,35.5619],[-87.198202,35.56244],[-87.197033,35.563973],[-87.195147,35.564786],[-87.195687,35.567977],[-87.19708,35.569501],[-87.195768,35.571626],[-87.194203,35.571187],[-87.194071,35.572124],[-87.192166,35.57316],[-87.190659,35.575549],[-87.191196,35.578087],[-87.189812,35.579839],[-87.188413,35.579777],[-87.186119,35.581734],[-87.184142,35.582806],[-87.183615,35.584052],[-87.184301,35.586958],[-87.183598,35.588665],[-87.183998,35.589936],[-87.185842,35.59179],[-87.189913,35.592594],[-87.193246,35.591883],[-87.197703,35.59453],[-87.199255,35.594151],[-87.200545,35.592211],[-87.201596,35.591714],[-87.204534,35.592687],[-87.203442,35.595854],[-87.203924,35.59678],[-87.208446,35.599976],[-87.209445,35.601941],[-87.20864,35.605205],[-87.20658,35.606426],[-87.202428,35.606963],[-87.202386,35.606061],[-87.200688,35.605761],[-87.201212,35.606672],[-87.201238,35.611539],[-87.201509,35.614183],[-87.202202,35.616391],[-87.204003,35.616692],[-87.206439,35.617874],[-87.21186,35.617457],[-87.224288,35.618406],[-87.22823,35.617449],[-87.227455,35.618844],[-87.22402,35.621304],[-87.22114,35.621796],[-87.221805,35.624948],[-87.223333,35.626835],[-87.220945,35.63066],[-87.220065,35.633666],[-87.21835,35.634052],[-87.219792,35.637706],[-87.222786,35.639458],[-87.224258,35.639377],[-87.22679,35.63927],[-87.228967,35.640539],[-87.229036,35.641835],[-87.227984,35.644926],[-87.229265,35.645545],[-87.232017,35.645533],[-87.233712,35.647336],[-87.237118,35.647847],[-87.238123,35.651321],[-87.240125,35.650511],[-87.241856,35.650902],[-87.242327,35.649646],[-87.246058,35.650385],[-87.246867,35.651848],[-87.250452,35.652804],[-87.252025,35.653875],[-87.25386,35.656278],[-87.256875,35.659508]],[[-87.160063,35.546123],[-87.159735,35.55025],[-87.158397,35.54989],[-87.159557,35.549802],[-87.158331,35.548437],[-87.158197,35.543442],[-87.159273,35.543102],[-87.158948,35.546146],[-87.160063,35.546123]]]}},{"type":"Feature","properties":{"zcta5":"38401","AFFGEOID10":"8600000US38401","GEOID10":"38401","ALAND10":778252734,"AWATER10":5608218,"county_name":"Maury","state_code":"TN","county_state":"Maury County, TN","county_fips":"47119","risk_level_county":"Higher Risk (60–69% vaccinated)","mean_vaccination_rate_county":68.38,"risk_level_zcta":"Medium Risk (70–79% vaccinated)","mean_vaccination_rate_zips":70.74,"cases":8},"geometry":{"type":"MultiPolygon","coordinates":[[[[-87.160063,35.546123],[-87.158948,35.546146],[-87.159273,35.543102],[-87.158197,35.543442],[-87.158331,35.548437],[-87.159557,35.549802],[-87.158397,35.54989],[-87.159735,35.55025],[-87.160063,35.546123]]],[[[-87.224258,35.639377],[-87.222786,35.639458],[-87.219792,35.637706],[-87.21835,35.634052],[-87.220065,35.633666],[-87.220945,35.63066],[-87.223333,35.626835],[-87.221805,35.624948],[-87.22114,35.621796],[-87.22402,35.621304],[-87.227455,35.618844],[-87.22823,35.617449],[-87.224288,35.618406],[-87.21186,35.617457],[-87.206439,35.617874],[-87.204003,35.616692],[-87.202202,35.616391],[-87.201509,35.614183],[-87.201238,35.611539],[-87.201212,35.606672],[-87.200688,35.605761],[-87.202386,35.606061],[-87.202428,35.606963],[-87.20658,35.606426],[-87.20864,35.605205],[-87.209445,35.601941],[-87.208446,35.599976],[-87.203924,35.59678],[-87.203442,35.595854],[-87.204534,35.592687],[-87.201596,35.591714],[-87.200545,35.592211],[-87.199255,35.594151],[-87.197703,35.59453],[-87.193246,35.591883],[-87.189913,35.592594],[-87.185842,35.59179],[-87.183998,35.589936],[-87.183598,35.588665],[-87.184301,35.586958],[-87.183615,35.584052],[-87.184142,35.582806],[-87.186119,35.581734],[-87.188413,35.579777],[-87.189812,35.579839],[-87.191196,35.578087],[-87.190659,35.575549],[-87.192166,35.57316],[-87.194071,35.572124],[-87.194203,35.571187],[-87.195768,35.571626],[-87.19708,35.569501],[-87.195687,35.567977],[-87.195147,35.564786],[-87.197033,35.563973],[-87.198202,35.56244],[-87.192121,35.5619],[-87.202697,35.555306],[-87.203632,35.553952],[-87.206196,35.553061],[-87.206534,35.552531],[-87.197667,35.555589],[-87.190627,35.558013],[-87.190543,35.559655],[-87.188895,35.559609],[-87.188577,35.561858],[-87.190214,35.561851],[-87.189138,35.562068],[-87.182064,35.561514],[-87.178096,35.562695],[-87.175558,35.563999],[-87.17516,35.563541],[-87.160037,35.571645],[-87.159193,35.571723],[-87.156976,35.568149],[-87.155841,35.567637],[-87.157853,35.566773],[-87.157267,35.56468],[-87.152547,35.561321],[-87.149586,35.55173],[-87.156705,35.552307],[-87.15785,35.544988],[-87.156504,35.544828],[-87.157917,35.534922],[-87.156974,35.534797],[-87.157576,35.530598],[-87.160218,35.53078],[-87.160115,35.529179],[-87.159496,35.529179],[-87.158447,35.523982],[-87.156129,35.523762],[-87.150567,35.512404],[-87.149589,35.509684],[-87.143447,35.507979],[-87.141576,35.505083],[-87.141883,35.501804],[-87.141511,35.500964],[-87.146385,35.494733],[-87.145685,35.494263],[-87.130575,35.487235],[-87.12876,35.48616],[-87.121388,35.488977],[-87.119991,35.489068],[-87.098027,35.486642],[-87.098812,35.48383],[-87.097872,35.481331],[-87.088778,35.481663],[-87.083506,35.479195],[-87.079402,35.479388],[-87.07652,35.47879],[-87.075432,35.476861],[-87.065307,35.475758],[-87.06554,35.480786],[-87.066847,35.48277],[-87.069344,35.488168],[-87.070997,35.489741],[-87.071617,35.49395],[-87.071466,35.497085],[-87.06716,35.496613],[-87.066309,35.50044],[-87.067889,35.501784],[-87.068657,35.503909],[-87.070336,35.503283],[-87.072049,35.50353],[-87.073334,35.504902],[-87.073444,35.510131],[-87.069146,35.509618],[-87.065751,35.509884],[-87.064395,35.510465],[-87.060896,35.510048],[-87.055757,35.510846],[-87.055568,35.513496],[-87.042076,35.512874],[-87.037774,35.513076],[-87.035118,35.512613],[-87.031566,35.510447],[-87.027858,35.513574],[-87.027241,35.51605],[-87.025963,35.516204],[-87.017531,35.522824],[-87.016456,35.524324],[-87.014459,35.524127],[-87.014359,35.525482],[-87.013252,35.525243],[-87.01335,35.528795],[-87.01198,35.528794],[-87.011029,35.527725],[-87.009495,35.527977],[-87.004375,35.527785],[-87.003196,35.529889],[-86.999686,35.526174],[-86.986379,35.524282],[-86.987126,35.536615],[-86.988538,35.540657],[-86.986524,35.541004],[-86.983476,35.53951],[-86.979519,35.538618],[-86.980911,35.537299],[-86.980668,35.533143],[-86.982049,35.527514],[-86.977882,35.527444],[-86.978129,35.525427],[-86.976324,35.524124],[-86.97278,35.52388],[-86.972834,35.525199],[-86.96913,35.527284],[-86.96779,35.526472],[-86.963766,35.526509],[-86.962997,35.525771],[-86.963298,35.523152],[-86.964413,35.521134],[-86.965696,35.520587],[-86.965766,35.518359],[-86.963245,35.521448],[-86.96248,35.52308],[-86.959459,35.526872],[-86.959489,35.528363],[-86.956318,35.527662],[-86.954628,35.528055],[-86.954053,35.530857],[-86.952523,35.529937],[-86.951659,35.528416],[-86.95693,35.525892],[-86.957274,35.525092],[-86.956717,35.523703],[-86.956781,35.520399],[-86.954399,35.518485],[-86.952734,35.513212],[-86.949418,35.510976],[-86.950885,35.509599],[-86.949438,35.50912],[-86.949839,35.507996],[-86.948546,35.506755],[-86.949079,35.504318],[-86.946894,35.502692],[-86.944776,35.504267],[-86.943541,35.504008],[-86.94047,35.501714],[-86.939789,35.503995],[-86.935922,35.506411],[-86.935422,35.510391],[-86.935989,35.511978],[-86.935309,35.515124],[-86.936493,35.516413],[-86.94159,35.518573],[-86.936092,35.516812],[-86.933956,35.515462],[-86.928847,35.513853],[-86.926807,35.513891],[-86.924486,35.514556],[-86.922593,35.519929],[-86.919689,35.521451],[-86.917462,35.522092],[-86.916696,35.523475],[-86.913416,35.521472],[-86.911227,35.520723],[-86.909824,35.519537],[-86.908698,35.51689],[-86.90777,35.516309],[-86.906321,35.513097],[-86.903821,35.512739],[-86.902723,35.513699],[-86.901356,35.512636],[-86.895101,35.510014],[-86.892016,35.508913],[-86.890156,35.512111],[-86.885184,35.50807],[-86.878332,35.505892],[-86.877143,35.509669],[-86.875589,35.521251],[-86.870568,35.520796],[-86.872777,35.503451],[-86.87128,35.502486],[-86.849573,35.525515],[-86.8381,35.550776],[-86.84213,35.551036],[-86.839048,35.552055],[-86.838216,35.559388],[-86.841704,35.559657],[-86.840489,35.567286],[-86.834354,35.566837],[-86.836789,35.573211],[-86.836381,35.575465],[-86.829905,35.57411],[-86.827501,35.580812],[-86.827394,35.58211],[-86.840755,35.583247],[-86.839767,35.59154],[-86.837104,35.592339],[-86.835988,35.594544],[-86.833917,35.594278],[-86.82843,35.596246],[-86.825844,35.599414],[-86.824795,35.600934],[-86.823765,35.60869],[-86.82238,35.608564],[-86.823127,35.614026],[-86.816961,35.658251],[-86.814996,35.658026],[-86.813745,35.65907],[-86.814324,35.662103],[-86.81438,35.666731],[-86.812319,35.666812],[-86.80328,35.665848],[-86.800164,35.666747],[-86.797688,35.667873],[-86.794697,35.66759],[-86.790724,35.66758],[-86.78656,35.66987],[-86.783895,35.670022],[-86.777294,35.671403],[-86.775479,35.672319],[-86.768336,35.672522],[-86.767141,35.679951],[-86.76621,35.68195],[-86.771149,35.682161],[-86.77433,35.681444],[-86.775091,35.68007],[-86.777261,35.678999],[-86.778676,35.679024],[-86.774396,35.682251],[-86.773596,35.684109],[-86.773437,35.692408],[-86.76748,35.702365],[-86.769278,35.702465],[-86.769524,35.700289],[-86.773169,35.700446],[-86.772643,35.705802],[-86.774347,35.705909],[-86.774677,35.702832],[-86.782284,35.703376],[-86.782016,35.706595],[-86.794002,35.702575],[-86.792579,35.70153],[-86.793424,35.699917],[-86.795243,35.698318],[-86.794866,35.696867],[-86.796727,35.693728],[-86.796935,35.691479],[-86.802792,35.692042],[-86.802266,35.697158],[-86.803369,35.697201],[-86.803233,35.699415],[-86.809452,35.697251],[-86.810548,35.698797],[-86.824637,35.702252],[-86.824946,35.701243],[-86.828153,35.699016],[-86.832083,35.695474],[-86.832674,35.697133],[-86.838872,35.697405],[-86.837949,35.69459],[-86.836628,35.692931],[-86.837193,35.690979],[-86.83505,35.690441],[-86.83511,35.688253],[-86.835918,35.687368],[-86.834766,35.686082],[-86.833182,35.682763],[-86.834333,35.679283],[-86.836764,35.675672],[-86.837518,35.676119],[-86.843538,35.676222],[-86.845613,35.676987],[-86.845575,35.68038],[-86.84869,35.68106],[-86.849215,35.681785],[-86.851226,35.680188],[-86.852659,35.672652],[-86.856944,35.674595],[-86.861177,35.676858],[-86.864023,35.67766],[-86.866369,35.67425],[-86.865525,35.671348],[-86.866421,35.671859],[-86.870621,35.676963],[-86.870865,35.678683],[-86.873628,35.675613],[-86.874567,35.670751],[-86.873184,35.66747],[-86.871748,35.665982],[-86.872062,35.663351],[-86.870697,35.661209],[-86.872519,35.64898],[-86.881807,35.649643],[-86.889442,35.65051],[-86.892966,35.651306],[-86.8931,35.649303],[-86.893879,35.648448],[-86.894369,35.645017],[-86.895757,35.643294],[-86.89724,35.644169],[-86.903198,35.645724],[-86.908587,35.644838],[-86.912882,35.644802],[-86.918001,35.646946],[-86.921244,35.645912],[-86.924133,35.645469],[-86.925612,35.644221],[-86.931865,35.644911],[-86.934129,35.64593],[-86.943317,35.643985],[-86.943049,35.646127],[-86.941223,35.650967],[-86.939085,35.651085],[-86.938668,35.651835],[-86.939187,35.655001],[-86.938752,35.656224],[-86.940215,35.658192],[-86.942298,35.659223],[-86.947218,35.659022],[-86.956779,35.659135],[-86.95623,35.661097],[-86.954215,35.660541],[-86.951749,35.661237],[-86.951957,35.664381],[-86.951316,35.666587],[-86.95233,35.667205],[-86.952418,35.66888],[-86.954157,35.67085],[-86.955514,35.674389],[-86.955311,35.676203],[-86.952835,35.676374],[-86.951842,35.682455],[-86.942288,35.681498],[-86.940473,35.680382],[-86.937187,35.680024],[-86.935903,35.688175],[-86.937873,35.688234],[-86.939753,35.688965],[-86.941815,35.68979],[-86.942696,35.690424],[-86.942623,35.691413],[-86.9463,35.691862],[-86.946939,35.691326],[-86.948191,35.691221],[-86.951441,35.692838],[-86.95173,35.693439],[-86.949663,35.692182],[-86.947401,35.691413],[-86.946737,35.691567],[-86.946485,35.69369],[-86.947329,35.696215],[-86.948623,35.696361],[-86.951571,35.695197],[-86.952228,35.696158],[-86.953261,35.696241],[-86.953001,35.697526],[-86.954271,35.698944],[-86.953447,35.700723],[-86.950429,35.701927],[-86.950643,35.702546],[-86.949733,35.703866],[-86.950778,35.706311],[-86.951499,35.706888],[-86.951371,35.707779],[-86.952052,35.708823],[-86.952005,35.711395],[-86.952821,35.713841],[-86.954426,35.7156],[-86.954573,35.71625],[-86.956766,35.717187],[-86.95853,35.717561],[-86.960492,35.717626],[-86.963139,35.718662],[-86.965051,35.71859],[-86.967611,35.720106],[-86.96291,35.724877],[-86.963029,35.724991],[-86.961368,35.726684],[-86.963341,35.726745],[-86.965027,35.72837],[-86.966334,35.730872],[-86.967793,35.729685],[-86.972537,35.733408],[-86.972295,35.735226],[-86.968288,35.738277],[-86.970034,35.739051],[-86.971909,35.737039],[-86.973174,35.73727],[-86.973681,35.737445],[-86.977758,35.734314],[-86.977235,35.735705],[-86.977682,35.738036],[-86.976508,35.744535],[-86.980248,35.744916],[-86.981345,35.743334],[-86.983987,35.741305],[-86.985247,35.739093],[-86.990679,35.739037],[-86.992193,35.742368],[-86.991897,35.74417],[-86.995594,35.747972],[-86.995623,35.74977],[-86.99702,35.751818],[-87.000691,35.752953],[-86.996676,35.752829],[-86.998634,35.754763],[-86.999036,35.760781],[-87.000295,35.763359],[-86.999559,35.764579],[-87.001379,35.766025],[-87.00224,35.767911],[-87.001608,35.768997],[-87.003112,35.76999],[-87.002203,35.77322],[-87.002329,35.775127],[-87.001423,35.775467],[-87.000427,35.778679],[-87.003959,35.779028],[-87.003662,35.780706],[-87.01137,35.78122],[-87.01125,35.78193],[-87.016078,35.785728],[-87.015524,35.786969],[-87.03303,35.792507],[-87.034465,35.79529],[-87.035681,35.796213],[-87.036896,35.797905],[-87.037143,35.799703],[-87.036536,35.80069],[-87.03641,35.803273],[-87.03511,35.80632],[-87.035279,35.807841],[-87.03665,35.810173],[-87.036466,35.81177],[-87.035466,35.812976],[-87.03516,35.814848],[-87.034064,35.816598],[-87.033727,35.818213],[-87.032937,35.819178],[-87.030859,35.820186],[-87.02903,35.823056],[-87.02584,35.823758],[-87.023249,35.824791],[-87.02197,35.824795],[-87.021181,35.826614],[-87.021896,35.827856],[-87.023718,35.828786],[-87.02454,35.831045],[-87.027265,35.834355],[-87.029093,35.837153],[-87.030065,35.837901],[-87.032999,35.842853],[-87.034869,35.842172],[-87.038455,35.838886],[-87.039704,35.837106],[-87.043869,35.835392],[-87.045698,35.835562],[-87.046387,35.834386],[-87.051875,35.833211],[-87.053805,35.831227],[-87.054548,35.830521],[-87.054869,35.827615],[-87.053208,35.824661],[-87.05338,35.823313],[-87.056445,35.824568],[-87.058169,35.823698],[-87.092361,35.824209],[-87.09294,35.819109],[-87.093858,35.817691],[-87.09356,35.815157],[-87.095571,35.812433],[-87.09569,35.812471],[-87.100139,35.806124],[-87.100738,35.804424],[-87.106668,35.804253],[-87.110637,35.803868],[-87.1153,35.802489],[-87.11765,35.801211],[-87.11535,35.801024],[-87.112385,35.801707],[-87.10742,35.802214],[-87.103662,35.803936],[-87.100214,35.802761],[-87.098035,35.802674],[-87.095552,35.803889],[-87.092037,35.803],[-87.089844,35.803506],[-87.088502,35.802997],[-87.085828,35.800693],[-87.083805,35.798119],[-87.084306,35.7969],[-87.083271,35.794162],[-87.084349,35.79287],[-87.084391,35.787841],[-87.085427,35.787866],[-87.087717,35.783605],[-87.087211,35.78191],[-87.089296,35.781287],[-87.089625,35.779649],[-87.091838,35.77947],[-87.094757,35.778417],[-87.094406,35.77555],[-87.093486,35.772506],[-87.090796,35.769607],[-87.091025,35.76683],[-87.09314,35.764964],[-87.089524,35.759014],[-87.086164,35.757474],[-87.091444,35.749775],[-87.092461,35.747208],[-87.094915,35.745217],[-87.097469,35.743848],[-87.099242,35.743485],[-87.101197,35.741918],[-87.103326,35.739075],[-87.104822,35.738327],[-87.107438,35.738156],[-87.113075,35.734106],[-87.114516,35.733851],[-87.117907,35.731054],[-87.121093,35.729278],[-87.124038,35.726675],[-87.126699,35.725511],[-87.124251,35.719901],[-87.124919,35.721076],[-87.127359,35.722463],[-87.130036,35.720782],[-87.130115,35.720077],[-87.118327,35.713345],[-87.117693,35.708924],[-87.125766,35.703116],[-87.125007,35.696112],[-87.128374,35.696089],[-87.13079,35.699056],[-87.133398,35.70026],[-87.138816,35.698645],[-87.141438,35.697234],[-87.147893,35.69167],[-87.150981,35.691443],[-87.157056,35.694493],[-87.159299,35.694945],[-87.163055,35.694673],[-87.170112,35.69146],[-87.174411,35.68843],[-87.178813,35.687028],[-87.177443,35.685047],[-87.17721,35.682916],[-87.176259,35.680818],[-87.176051,35.67829],[-87.176376,35.676514],[-87.179691,35.676795],[-87.184087,35.676807],[-87.185022,35.671565],[-87.187143,35.670155],[-87.188654,35.670174],[-87.19087,35.669036],[-87.194693,35.669178],[-87.196696,35.670097],[-87.198609,35.671872],[-87.200684,35.672922],[-87.202247,35.673026],[-87.206592,35.675647],[-87.208915,35.676115],[-87.209143,35.673613],[-87.210548,35.671512],[-87.210552,35.670245],[-87.209113,35.668023],[-87.209679,35.665034],[-87.209152,35.660805],[-87.210027,35.655131],[-87.210855,35.652355],[-87.213269,35.652488],[-87.215919,35.648834],[-87.216262,35.647438],[-87.219487,35.644562],[-87.222792,35.642901],[-87.224535,35.640757],[-87.224258,35.639377]]]]}},{"type":"Feature","properties":{"zcta5":"38451","AFFGEOID10":"8600000US38451","GEOID10":"38451","ALAND10":209649028,"AWATER10":36512,"county_name":"Maury","state_code":"TN","county_state":"Maury County, TN","county_fips":"47119","risk_level_county":"Higher Risk (60–69% vaccinated)","mean_vaccination_rate_county":68.38,"risk_level_zcta":"Medium Risk (70–79% vaccinated)","mean_vaccination_rate_zips":76.07,"cases":8},"geometry":{"type":"Polygon","coordinates":[[[-87.146385,35.494733],[-87.147207,35.494236],[-87.145964,35.491779],[-87.146588,35.479042],[-87.137319,35.473168],[-87.137157,35.474109],[-87.135262,35.472318],[-87.132741,35.472662],[-87.12952,35.471947],[-87.126109,35.467686],[-87.127007,35.465953],[-87.122308,35.46222],[-87.123485,35.460475],[-87.127488,35.459374],[-87.128552,35.456004],[-87.127671,35.455046],[-87.123386,35.455387],[-87.122529,35.456061],[-87.120883,35.45566],[-87.119261,35.454333],[-87.117809,35.454554],[-87.118025,35.452379],[-87.117253,35.451723],[-87.114703,35.451731],[-87.113641,35.452356],[-87.110577,35.451024],[-87.109204,35.448996],[-87.107098,35.450512],[-87.106014,35.449574],[-87.103331,35.450451],[-87.101706,35.449704],[-87.102393,35.447651],[-87.101765,35.44569],[-87.096574,35.444222],[-87.096424,35.442843],[-87.094708,35.442926],[-87.094477,35.441967],[-87.09506,35.441166],[-87.094562,35.438768],[-87.095371,35.435301],[-87.09539,35.433572],[-87.096269,35.430193],[-87.097566,35.427362],[-87.095168,35.430087],[-87.091375,35.431802],[-87.089218,35.433474],[-87.087425,35.436269],[-87.077996,35.434507],[-87.062248,35.429989],[-87.058902,35.430825],[-87.058199,35.4314],[-87.055944,35.431129],[-87.053256,35.431667],[-87.053221,35.430732],[-87.050721,35.430707],[-87.050483,35.429368],[-87.047796,35.429599],[-87.045321,35.428413],[-87.043864,35.429447],[-87.040292,35.428248],[-87.037003,35.428811],[-87.032728,35.431709],[-87.030114,35.432201],[-87.025608,35.429451],[-87.025384,35.427295],[-87.0243,35.424985],[-87.022205,35.424371],[-87.021499,35.422724],[-87.01949,35.424005],[-87.018521,35.422035],[-87.019024,35.420062],[-87.016527,35.419447],[-87.016221,35.418744],[-87.01804,35.417156],[-87.017499,35.415816],[-87.011852,35.414269],[-87.00923,35.412974],[-87.005419,35.413302],[-87.001413,35.412482],[-86.999605,35.411173],[-86.998805,35.409573],[-86.995604,35.409271],[-86.992005,35.409975],[-86.990705,35.408175],[-86.986705,35.409375],[-86.985805,35.413475],[-86.986105,35.416475],[-86.987005,35.417975],[-86.985105,35.418575],[-86.984405,35.420075],[-86.982905,35.419975],[-86.981805,35.417075],[-86.979704,35.416875],[-86.978504,35.415675],[-86.976004,35.416275],[-86.974704,35.414775],[-86.972204,35.415075],[-86.971404,35.416075],[-86.970204,35.413975],[-86.968204,35.412075],[-86.964911,35.411913],[-86.960565,35.413064],[-86.960804,35.417021],[-86.958054,35.417934],[-86.956704,35.419475],[-86.953704,35.419075],[-86.951804,35.416775],[-86.949804,35.415675],[-86.947704,35.415375],[-86.945404,35.413675],[-86.943304,35.413575],[-86.941903,35.415575],[-86.940003,35.415475],[-86.939803,35.413075],[-86.938203,35.411875],[-86.937703,35.409775],[-86.934903,35.408276],[-86.931203,35.412076],[-86.927903,35.409876],[-86.924802,35.409075],[-86.924502,35.407875],[-86.922802,35.406775],[-86.924202,35.405575],[-86.924502,35.403575],[-86.925903,35.401345],[-86.924354,35.401256],[-86.917363,35.401803],[-86.914494,35.400893],[-86.915673,35.397741],[-86.915416,35.396564],[-86.914166,35.395757],[-86.914936,35.39435],[-86.914738,35.390165],[-86.912623,35.387058],[-86.91095,35.385895],[-86.909036,35.383387],[-86.909373,35.380437],[-86.907526,35.380296],[-86.90409,35.381868],[-86.902481,35.385907],[-86.903015,35.386868],[-86.903604,35.392066],[-86.904965,35.394855],[-86.907452,35.398991],[-86.904387,35.401105],[-86.901188,35.403768],[-86.900973,35.405601],[-86.901368,35.407991],[-86.900511,35.407318],[-86.897393,35.407826],[-86.893891,35.40745],[-86.891727,35.407712],[-86.892978,35.410605],[-86.882026,35.407604],[-86.882518,35.40913],[-86.881771,35.410297],[-86.881871,35.412586],[-86.884592,35.413896],[-86.889555,35.429871],[-86.911427,35.438661],[-86.913615,35.441059],[-86.914442,35.443434],[-86.914087,35.445745],[-86.912898,35.446426],[-86.913022,35.450649],[-86.914599,35.453699],[-86.914697,35.456149],[-86.914231,35.459584],[-86.913174,35.460788],[-86.911145,35.45907],[-86.910558,35.457655],[-86.910951,35.455318],[-86.906575,35.453751],[-86.904791,35.453999],[-86.9006,35.452762],[-86.898506,35.453318],[-86.897412,35.45202],[-86.893376,35.449387],[-86.89165,35.448934],[-86.88979,35.449386],[-86.884826,35.44943],[-86.88485,35.452245],[-86.886108,35.458127],[-86.887849,35.47246],[-86.889133,35.486706],[-86.890159,35.494341],[-86.895101,35.510014],[-86.901356,35.512636],[-86.902723,35.513699],[-86.903821,35.512739],[-86.906321,35.513097],[-86.90777,35.516309],[-86.908698,35.51689],[-86.909824,35.519537],[-86.911227,35.520723],[-86.913416,35.521472],[-86.916696,35.523475],[-86.917462,35.522092],[-86.919689,35.521451],[-86.922593,35.519929],[-86.924486,35.514556],[-86.926807,35.513891],[-86.928847,35.513853],[-86.933956,35.515462],[-86.936092,35.516812],[-86.94159,35.518573],[-86.936493,35.516413],[-86.935309,35.515124],[-86.935989,35.511978],[-86.935422,35.510391],[-86.935922,35.506411],[-86.939789,35.503995],[-86.94047,35.501714],[-86.943541,35.504008],[-86.944776,35.504267],[-86.946894,35.502692],[-86.949079,35.504318],[-86.948546,35.506755],[-86.949839,35.507996],[-86.949438,35.50912],[-86.950885,35.509599],[-86.949418,35.510976],[-86.952734,35.513212],[-86.954399,35.518485],[-86.956781,35.520399],[-86.956717,35.523703],[-86.957274,35.525092],[-86.95693,35.525892],[-86.951659,35.528416],[-86.952523,35.529937],[-86.954053,35.530857],[-86.954628,35.528055],[-86.956318,35.527662],[-86.959489,35.528363],[-86.959459,35.526872],[-86.96248,35.52308],[-86.963245,35.521448],[-86.965766,35.518359],[-86.965696,35.520587],[-86.964413,35.521134],[-86.963298,35.523152],[-86.962997,35.525771],[-86.963766,35.526509],[-86.96779,35.526472],[-86.96913,35.527284],[-86.972834,35.525199],[-86.97278,35.52388],[-86.976324,35.524124],[-86.978129,35.525427],[-86.977882,35.527444],[-86.982049,35.527514],[-86.980668,35.533143],[-86.980911,35.537299],[-86.979519,35.538618],[-86.983476,35.53951],[-86.986524,35.541004],[-86.988538,35.540657],[-86.987126,35.536615],[-86.986379,35.524282],[-86.999686,35.526174],[-87.003196,35.529889],[-87.004375,35.527785],[-87.009495,35.527977],[-87.011029,35.527725],[-87.01198,35.528794],[-87.01335,35.528795],[-87.013252,35.525243],[-87.014359,35.525482],[-87.014459,35.524127],[-87.016456,35.524324],[-87.017531,35.522824],[-87.025963,35.516204],[-87.027241,35.51605],[-87.027858,35.513574],[-87.031566,35.510447],[-87.035118,35.512613],[-87.037774,35.513076],[-87.042076,35.512874],[-87.055568,35.513496],[-87.055757,35.510846],[-87.060896,35.510048],[-87.064395,35.510465],[-87.065751,35.509884],[-87.069146,35.509618],[-87.073444,35.510131],[-87.073334,35.504902],[-87.072049,35.50353],[-87.070336,35.503283],[-87.068657,35.503909],[-87.067889,35.501784],[-87.066309,35.50044],[-87.06716,35.496613],[-87.071466,35.497085],[-87.071617,35.49395],[-87.070997,35.489741],[-87.069344,35.488168],[-87.066847,35.48277],[-87.06554,35.480786],[-87.065307,35.475758],[-87.075432,35.476861],[-87.07652,35.47879],[-87.079402,35.479388],[-87.083506,35.479195],[-87.088778,35.481663],[-87.097872,35.481331],[-87.098812,35.48383],[-87.098027,35.486642],[-87.119991,35.489068],[-87.121388,35.488977],[-87.12876,35.48616],[-87.130575,35.487235],[-87.145685,35.494263],[-87.146385,35.494733]]]}},{"type":"Feature","properties":{"zcta5":"37091","AFFGEOID10":"8600000US37091","GEOID10":"37091","ALAND10":536352715,"AWATER10":1841316,"county_name":"Maury","state_code":"TN","county_state":"Maury County, TN","county_fips":"47119","risk_level_county":"Higher Risk (60–69% vaccinated)","mean_vaccination_rate_county":68.38,"risk_level_zcta":"Medium Risk (70–79% vaccinated)","mean_vaccination_rate_zips":71.26,"cases":8},"geometry":{"type":"Polygon","coordinates":[[[-86.895101,35.510014],[-86.890159,35.494341],[-86.889133,35.486706],[-86.887849,35.47246],[-86.886108,35.458127],[-86.88485,35.452245],[-86.884826,35.44943],[-86.88979,35.449386],[-86.89165,35.448934],[-86.893376,35.449387],[-86.897412,35.45202],[-86.898506,35.453318],[-86.9006,35.452762],[-86.904791,35.453999],[-86.906575,35.453751],[-86.910951,35.455318],[-86.910558,35.457655],[-86.911145,35.45907],[-86.913174,35.460788],[-86.914231,35.459584],[-86.914697,35.456149],[-86.914599,35.453699],[-86.913022,35.450649],[-86.912898,35.446426],[-86.914087,35.445745],[-86.914442,35.443434],[-86.913615,35.441059],[-86.911427,35.438661],[-86.889555,35.429871],[-86.884592,35.413896],[-86.881871,35.412586],[-86.881771,35.410297],[-86.882518,35.40913],[-86.882026,35.407604],[-86.881734,35.404657],[-86.882085,35.402487],[-86.881313,35.399594],[-86.88151,35.398685],[-86.876602,35.398117],[-86.873177,35.396287],[-86.870182,35.39666],[-86.866808,35.393399],[-86.864362,35.389388],[-86.863537,35.38326],[-86.864112,35.382607],[-86.861339,35.38136],[-86.853985,35.380119],[-86.850776,35.377559],[-86.851009,35.376794],[-86.850229,35.378882],[-86.847592,35.378816],[-86.847508,35.380807],[-86.845099,35.383315],[-86.844068,35.385158],[-86.840589,35.387435],[-86.839544,35.387747],[-86.834816,35.387277],[-86.83338,35.387952],[-86.828037,35.388256],[-86.825888,35.388046],[-86.826964,35.385687],[-86.830724,35.384142],[-86.834437,35.381453],[-86.8358,35.379905],[-86.837396,35.377116],[-86.838142,35.374383],[-86.832129,35.373963],[-86.833155,35.370326],[-86.834434,35.366977],[-86.832565,35.366644],[-86.83308,35.363118],[-86.830579,35.363475],[-86.828469,35.362716],[-86.817107,35.362262],[-86.815831,35.362395],[-86.814763,35.359426],[-86.811459,35.358307],[-86.808936,35.354863],[-86.807046,35.353786],[-86.805635,35.351939],[-86.804879,35.351783],[-86.803645,35.348581],[-86.801769,35.346488],[-86.800438,35.343786],[-86.800264,35.341962],[-86.799399,35.340385],[-86.81242,35.341523],[-86.81363,35.334412],[-86.815078,35.330696],[-86.814111,35.329311],[-86.814723,35.326603],[-86.814873,35.322795],[-86.810627,35.322422],[-86.802712,35.322169],[-86.792959,35.323143],[-86.788601,35.322626],[-86.781634,35.325104],[-86.773288,35.327003],[-86.765524,35.32746],[-86.765209,35.323052],[-86.762329,35.321708],[-86.760821,35.321857],[-86.760456,35.320787],[-86.752783,35.320667],[-86.747856,35.321774],[-86.744763,35.324177],[-86.74769,35.324777],[-86.75,35.327585],[-86.751828,35.328498],[-86.756434,35.329295],[-86.755331,35.335923],[-86.754749,35.336443],[-86.752474,35.335847],[-86.749237,35.33636],[-86.72851,35.35924],[-86.729647,35.360437],[-86.732154,35.359605],[-86.739766,35.358472],[-86.738158,35.359475],[-86.737759,35.361266],[-86.73349,35.363934],[-86.731294,35.367322],[-86.73191,35.37034],[-86.731142,35.376487],[-86.733528,35.381082],[-86.733334,35.382129],[-86.73521,35.384635],[-86.738657,35.387505],[-86.741445,35.389079],[-86.743267,35.39063],[-86.744439,35.393208],[-86.743073,35.397168],[-86.739933,35.400399],[-86.738691,35.400897],[-86.737855,35.402679],[-86.738457,35.404985],[-86.741049,35.406242],[-86.74234,35.408076],[-86.741794,35.416607],[-86.7412,35.419214],[-86.741399,35.42424],[-86.74211,35.42673],[-86.741559,35.429151],[-86.741331,35.435597],[-86.746332,35.437063],[-86.745355,35.438895],[-86.74276,35.44107],[-86.741472,35.445033],[-86.741018,35.449984],[-86.736464,35.448849],[-86.734024,35.447031],[-86.728954,35.446584],[-86.729573,35.443835],[-86.730992,35.442213],[-86.729671,35.439977],[-86.728027,35.438307],[-86.728497,35.437263],[-86.733461,35.43589],[-86.734094,35.433458],[-86.712916,35.427227],[-86.710168,35.426017],[-86.703973,35.421786],[-86.702715,35.42116],[-86.703175,35.425556],[-86.702315,35.430535],[-86.70416,35.434797],[-86.702961,35.436833],[-86.70149,35.436321],[-86.700116,35.434376],[-86.699586,35.431781],[-86.698356,35.430944],[-86.699636,35.427407],[-86.698537,35.42446],[-86.699153,35.421749],[-86.698625,35.418023],[-86.696837,35.416357],[-86.694704,35.415332],[-86.693375,35.413017],[-86.694084,35.412207],[-86.694605,35.406106],[-86.690114,35.403356],[-86.689027,35.403179],[-86.685635,35.398388],[-86.681496,35.396514],[-86.681713,35.400837],[-86.680261,35.403104],[-86.678078,35.405049],[-86.675728,35.406168],[-86.669481,35.410077],[-86.667716,35.410607],[-86.659339,35.411827],[-86.658662,35.411011],[-86.654915,35.409245],[-86.649514,35.408772],[-86.649447,35.410241],[-86.647956,35.410009],[-86.646522,35.412329],[-86.645226,35.411939],[-86.64201,35.412351],[-86.638347,35.417941],[-86.637904,35.423722],[-86.638913,35.425743],[-86.637752,35.427753],[-86.638547,35.428073],[-86.639133,35.429056],[-86.639648,35.436393],[-86.640448,35.437139],[-86.640615,35.441583],[-86.63991,35.444441],[-86.641034,35.45014],[-86.637224,35.451308],[-86.633495,35.451788],[-86.628146,35.451568],[-86.626306,35.451889],[-86.627445,35.454211],[-86.627226,35.459954],[-86.626855,35.462223],[-86.632859,35.462962],[-86.638651,35.462775],[-86.640357,35.464105],[-86.641896,35.464159],[-86.64268,35.465773],[-86.64233,35.469409],[-86.64337,35.473172],[-86.643765,35.476526],[-86.645336,35.478174],[-86.645745,35.480532],[-86.647217,35.480558],[-86.64805,35.483256],[-86.649556,35.48371],[-86.651793,35.485716],[-86.649021,35.484911],[-86.645996,35.485366],[-86.642255,35.485478],[-86.640077,35.488313],[-86.63751,35.489826],[-86.633341,35.488731],[-86.62806,35.48839],[-86.627985,35.491272],[-86.62168,35.495738],[-86.621447,35.49833],[-86.620663,35.49948],[-86.620715,35.50117],[-86.619648,35.505976],[-86.620803,35.509129],[-86.622761,35.510753],[-86.62289,35.513022],[-86.624956,35.515364],[-86.625743,35.51686],[-86.623473,35.532129],[-86.617568,35.532108],[-86.613527,35.531413],[-86.608157,35.53093],[-86.60602,35.52966],[-86.603577,35.52746],[-86.600044,35.532664],[-86.599213,35.532951],[-86.596012,35.532384],[-86.594653,35.53269],[-86.590248,35.535515],[-86.590319,35.536436],[-86.58913,35.53768],[-86.589486,35.539905],[-86.591829,35.542053],[-86.593328,35.540893],[-86.594034,35.541668],[-86.594275,35.543697],[-86.595825,35.543882],[-86.5962,35.542854],[-86.598139,35.542658],[-86.596393,35.542605],[-86.595492,35.541827],[-86.594745,35.539202],[-86.594415,35.535825],[-86.595102,35.533023],[-86.595946,35.532809],[-86.601705,35.534939],[-86.603858,35.536122],[-86.607177,35.53933],[-86.611489,35.538605],[-86.614166,35.537445],[-86.6161,35.535829],[-86.61883,35.532765],[-86.62315,35.534347],[-86.623795,35.53519],[-86.625795,35.540192],[-86.62586,35.542222],[-86.62913,35.544356],[-86.630246,35.548948],[-86.631088,35.549309],[-86.637454,35.54921],[-86.643187,35.548551],[-86.645428,35.548688],[-86.646062,35.549997],[-86.644962,35.554952],[-86.642062,35.559024],[-86.639053,35.559767],[-86.636453,35.560812],[-86.631861,35.560642],[-86.627741,35.562086],[-86.626212,35.564081],[-86.626146,35.567987],[-86.626907,35.569419],[-86.629177,35.570451],[-86.631864,35.572911],[-86.633758,35.575906],[-86.635207,35.577415],[-86.641148,35.579807],[-86.641548,35.580651],[-86.642314,35.582538],[-86.644349,35.583024],[-86.648639,35.582337],[-86.650096,35.58119],[-86.650916,35.579315],[-86.656322,35.578112],[-86.661965,35.579891],[-86.663707,35.581296],[-86.662625,35.585744],[-86.660983,35.588359],[-86.661035,35.589994],[-86.663288,35.593194],[-86.664204,35.595521],[-86.663874,35.598325],[-86.664956,35.60061],[-86.666271,35.601055],[-86.66741,35.600333],[-86.6693,35.597944],[-86.670097,35.594202],[-86.669684,35.592383],[-86.670275,35.591194],[-86.674242,35.589548],[-86.676982,35.589769],[-86.679605,35.590562],[-86.68435,35.588074],[-86.685952,35.58777],[-86.687339,35.588709],[-86.688994,35.592877],[-86.690498,35.593876],[-86.693149,35.593961],[-86.695809,35.592375],[-86.698892,35.591523],[-86.699859,35.590805],[-86.70086,35.588447],[-86.701059,35.586756],[-86.702807,35.585242],[-86.709264,35.582625],[-86.712144,35.58097],[-86.71318,35.580899],[-86.718878,35.585562],[-86.721398,35.586743],[-86.723047,35.58614],[-86.72496,35.58423],[-86.728135,35.583362],[-86.730715,35.583471],[-86.732813,35.58236],[-86.732708,35.577456],[-86.73526,35.576194],[-86.737003,35.576113],[-86.740932,35.579799],[-86.742471,35.580668],[-86.747402,35.582149],[-86.750967,35.581527],[-86.753587,35.579461],[-86.754402,35.578011],[-86.758993,35.578881],[-86.761928,35.578382],[-86.764455,35.574951],[-86.76677,35.574733],[-86.769205,35.57566],[-86.771324,35.577255],[-86.772809,35.577446],[-86.775363,35.576539],[-86.778571,35.576443],[-86.777591,35.578292],[-86.7716,35.586628],[-86.769376,35.587843],[-86.767774,35.586117],[-86.765941,35.584907],[-86.762797,35.584617],[-86.762131,35.585626],[-86.757519,35.585232],[-86.757378,35.586678],[-86.756287,35.587339],[-86.755598,35.592915],[-86.74772,35.59225],[-86.746505,35.593172],[-86.744139,35.593984],[-86.744602,35.597476],[-86.745894,35.597958],[-86.757147,35.606017],[-86.758988,35.606091],[-86.763729,35.607494],[-86.763228,35.612423],[-86.764077,35.61395],[-86.764457,35.61694],[-86.766071,35.620466],[-86.767615,35.622524],[-86.76849,35.624488],[-86.768964,35.627286],[-86.768567,35.631629],[-86.771346,35.637205],[-86.771379,35.638662],[-86.770188,35.646371],[-86.771688,35.650847],[-86.773438,35.650386],[-86.797972,35.656473],[-86.794697,35.66759],[-86.797688,35.667873],[-86.800164,35.666747],[-86.80328,35.665848],[-86.812319,35.666812],[-86.81438,35.666731],[-86.814324,35.662103],[-86.813745,35.65907],[-86.814996,35.658026],[-86.816961,35.658251],[-86.823127,35.614026],[-86.82238,35.608564],[-86.823765,35.60869],[-86.824795,35.600934],[-86.825844,35.599414],[-86.82843,35.596246],[-86.833917,35.594278],[-86.835988,35.594544],[-86.837104,35.592339],[-86.839767,35.59154],[-86.840755,35.583247],[-86.827394,35.58211],[-86.827501,35.580812],[-86.829905,35.57411],[-86.836381,35.575465],[-86.836789,35.573211],[-86.834354,35.566837],[-86.840489,35.567286],[-86.841704,35.559657],[-86.838216,35.559388],[-86.839048,35.552055],[-86.84213,35.551036],[-86.8381,35.550776],[-86.849573,35.525515],[-86.87128,35.502486],[-86.872777,35.503451],[-86.870568,35.520796],[-86.875589,35.521251],[-86.877143,35.509669],[-86.878332,35.505892],[-86.885184,35.50807],[-86.890156,35.512111],[-86.892016,35.508913],[-86.895101,35.510014]]]}},{"type":"Feature","properties":{"zcta5":"38476","AFFGEOID10":"8600000US38476","GEOID10":"38476","ALAND10":108010963,"AWATER10":0,"county_name":"Maury","state_code":"TN","county_state":"Maury County, TN","county_fips":"47119","risk_level_county":"Higher Risk (60–69% vaccinated)","mean_vaccination_rate_county":68.38,"risk_level_zcta":"Medium Risk (70–79% vaccinated)","mean_vaccination_rate_zips":77.4,"cases":8},"geometry":{"type":"Polygon","coordinates":[[[-87.229448,35.871022],[-87.229057,35.869089],[-87.229446,35.86434],[-87.231687,35.862289],[-87.23353,35.862003],[-87.234395,35.863404],[-87.239456,35.862678],[-87.2418,35.861322],[-87.244988,35.860321],[-87.245519,35.859047],[-87.244281,35.854766],[-87.242183,35.852096],[-87.242069,35.847152],[-87.245556,35.844769],[-87.251994,35.845559],[-87.253037,35.84492],[-87.254653,35.841069],[-87.263102,35.84654],[-87.263716,35.843673],[-87.263326,35.842265],[-87.264907,35.841344],[-87.266285,35.839509],[-87.266768,35.837383],[-87.266373,35.835131],[-87.266634,35.832885],[-87.269411,35.831043],[-87.271046,35.832079],[-87.272242,35.835131],[-87.272642,35.838711],[-87.273361,35.840618],[-87.275412,35.840175],[-87.278336,35.838753],[-87.281449,35.834888],[-87.284237,35.837314],[-87.282783,35.839527],[-87.282035,35.842061],[-87.282367,35.843053],[-87.286478,35.843516],[-87.287657,35.845321],[-87.290613,35.84526],[-87.29289,35.846902],[-87.293792,35.846567],[-87.297435,35.847182],[-87.29964,35.848919],[-87.29974,35.850456],[-87.300665,35.848894],[-87.303183,35.847287],[-87.305543,35.846586],[-87.305178,35.845495],[-87.30235,35.844132],[-87.299409,35.841506],[-87.297001,35.840287],[-87.296145,35.838831],[-87.29416,35.837683],[-87.291278,35.833296],[-87.290029,35.832546],[-87.29051,35.82986],[-87.293239,35.826119],[-87.293415,35.827604],[-87.296405,35.823049],[-87.296743,35.821981],[-87.290957,35.81822],[-87.292263,35.815308],[-87.294221,35.814484],[-87.29244,35.814418],[-87.290383,35.812688],[-87.290742,35.808023],[-87.289198,35.806575],[-87.28802,35.803756],[-87.288218,35.801769],[-87.291067,35.799777],[-87.285084,35.795491],[-87.284005,35.795717],[-87.280849,35.794744],[-87.279386,35.795786],[-87.273655,35.793628],[-87.271008,35.79403],[-87.2696,35.793241],[-87.265883,35.792451],[-87.263842,35.790353],[-87.260679,35.790195],[-87.25948,35.790872],[-87.2538,35.791],[-87.250595,35.78981],[-87.248402,35.789658],[-87.244863,35.785995],[-87.242501,35.781473],[-87.24016,35.780221],[-87.237805,35.778144],[-87.237966,35.777237],[-87.236232,35.774563],[-87.234902,35.774713],[-87.232114,35.776463],[-87.228628,35.775473],[-87.225744,35.775193],[-87.220953,35.776493],[-87.21862,35.776483],[-87.215395,35.777219],[-87.21037,35.775768],[-87.207978,35.775661],[-87.205886,35.774303],[-87.204105,35.777108],[-87.203526,35.775598],[-87.202537,35.776003],[-87.20078,35.777853],[-87.1997,35.780376],[-87.197501,35.782368],[-87.196915,35.784418],[-87.197574,35.785251],[-87.195553,35.78902],[-87.190131,35.795406],[-87.18787,35.79984],[-87.190427,35.798319],[-87.191594,35.798886],[-87.19648,35.803128],[-87.1921,35.802474],[-87.194275,35.809041],[-87.197689,35.811154],[-87.200089,35.813437],[-87.201605,35.815943],[-87.201237,35.819587],[-87.198201,35.819633],[-87.193707,35.818673],[-87.188042,35.814422],[-87.185742,35.813739],[-87.186628,35.816908],[-87.187994,35.818725],[-87.186715,35.81991],[-87.180981,35.823464],[-87.181735,35.827436],[-87.179627,35.830624],[-87.184003,35.833093],[-87.186181,35.835162],[-87.189063,35.836451],[-87.192801,35.840929],[-87.191159,35.843158],[-87.177627,35.838738],[-87.178398,35.84111],[-87.180668,35.840957],[-87.176273,35.844077],[-87.174027,35.843761],[-87.168431,35.839778],[-87.163831,35.838619],[-87.161696,35.838644],[-87.159664,35.839584],[-87.157077,35.843074],[-87.159236,35.845877],[-87.157884,35.852543],[-87.154082,35.85451],[-87.15261,35.855801],[-87.151569,35.85789],[-87.151203,35.861341],[-87.149711,35.863989],[-87.15161,35.864265],[-87.147576,35.867986],[-87.148812,35.870107],[-87.150636,35.870963],[-87.151313,35.872685],[-87.147689,35.876146],[-87.146614,35.884455],[-87.145274,35.884981],[-87.139352,35.888864],[-87.146678,35.895492],[-87.148415,35.898827],[-87.147547,35.900025],[-87.145531,35.900067],[-87.142781,35.901028],[-87.14039,35.900538],[-87.138417,35.900944],[-87.136525,35.902531],[-87.136436,35.903988],[-87.13428,35.905889],[-87.134043,35.910318],[-87.136284,35.909594],[-87.138952,35.909743],[-87.142291,35.911153],[-87.145565,35.912068],[-87.148717,35.913477],[-87.153441,35.916188],[-87.160505,35.912378],[-87.165611,35.91127],[-87.166435,35.90868],[-87.17409,35.908093],[-87.183373,35.911831],[-87.184708,35.911129],[-87.186047,35.909332],[-87.185927,35.908242],[-87.189278,35.910325],[-87.194406,35.908467],[-87.195601,35.907197],[-87.197378,35.903526],[-87.198398,35.902366],[-87.198897,35.89925],[-87.200254,35.895369],[-87.204381,35.893934],[-87.206373,35.891636],[-87.208427,35.891509],[-87.210844,35.875065],[-87.21201,35.869031],[-87.215342,35.867318],[-87.21955,35.870867],[-87.222421,35.872218],[-87.229484,35.872694],[-87.229448,35.871022]]]}},{"type":"Feature","properties":{"zcta5":"38482","AFFGEOID10":"8600000US38482","GEOID10":"38482","ALAND10":111240595,"AWATER10":11042,"county_name":"Maury","state_code":"TN","county_state":"Maury County, TN","county_fips":"47119","risk_level_county":"Higher Risk (60–69% vaccinated)","mean_vaccination_rate_county":68.38,"risk_level_zcta":"Lowest Risk (85%+)","mean_vaccination_rate_zips":87.03,"cases":8},"geometry":{"type":"Polygon","coordinates":[[[-87.177627,35.838738],[-87.191159,35.843158],[-87.192801,35.840929],[-87.189063,35.836451],[-87.186181,35.835162],[-87.184003,35.833093],[-87.179627,35.830624],[-87.181735,35.827436],[-87.180981,35.823464],[-87.186715,35.81991],[-87.187994,35.818725],[-87.186628,35.816908],[-87.185742,35.813739],[-87.188042,35.814422],[-87.193707,35.818673],[-87.198201,35.819633],[-87.201237,35.819587],[-87.201605,35.815943],[-87.200089,35.813437],[-87.197689,35.811154],[-87.194275,35.809041],[-87.1921,35.802474],[-87.19648,35.803128],[-87.191594,35.798886],[-87.190427,35.798319],[-87.18787,35.79984],[-87.190131,35.795406],[-87.195553,35.78902],[-87.197574,35.785251],[-87.196915,35.784418],[-87.197501,35.782368],[-87.1997,35.780376],[-87.20078,35.777853],[-87.19095,35.763319],[-87.191679,35.759623],[-87.189695,35.759377],[-87.190959,35.756445],[-87.190147,35.75265],[-87.188053,35.750922],[-87.184326,35.751261],[-87.183237,35.752263],[-87.17426,35.748581],[-87.162164,35.739802],[-87.16652,35.738145],[-87.165848,35.736549],[-87.166774,35.733434],[-87.168438,35.730474],[-87.163067,35.727598],[-87.165649,35.726686],[-87.168682,35.726912],[-87.172019,35.725692],[-87.173802,35.722196],[-87.176835,35.720724],[-87.181125,35.717796],[-87.181292,35.715349],[-87.17912,35.714691],[-87.180008,35.712276],[-87.181935,35.71104],[-87.182319,35.709286],[-87.181882,35.707286],[-87.182441,35.706351],[-87.181565,35.70517],[-87.181942,35.703867],[-87.18044,35.701009],[-87.183519,35.699822],[-87.18705,35.697557],[-87.188265,35.694868],[-87.181267,35.691828],[-87.179818,35.690555],[-87.178813,35.687028],[-87.174411,35.68843],[-87.170112,35.69146],[-87.163055,35.694673],[-87.159299,35.694945],[-87.157056,35.694493],[-87.150981,35.691443],[-87.147893,35.69167],[-87.141438,35.697234],[-87.138816,35.698645],[-87.133398,35.70026],[-87.13079,35.699056],[-87.128374,35.696089],[-87.125007,35.696112],[-87.125766,35.703116],[-87.117693,35.708924],[-87.118327,35.713345],[-87.130115,35.720077],[-87.130036,35.720782],[-87.127359,35.722463],[-87.124919,35.721076],[-87.124251,35.719901],[-87.126699,35.725511],[-87.124038,35.726675],[-87.121093,35.729278],[-87.117907,35.731054],[-87.114516,35.733851],[-87.113075,35.734106],[-87.107438,35.738156],[-87.104822,35.738327],[-87.103326,35.739075],[-87.101197,35.741918],[-87.099242,35.743485],[-87.097469,35.743848],[-87.094915,35.745217],[-87.092461,35.747208],[-87.091444,35.749775],[-87.086164,35.757474],[-87.089524,35.759014],[-87.09314,35.764964],[-87.091025,35.76683],[-87.090796,35.769607],[-87.093486,35.772506],[-87.094406,35.77555],[-87.094757,35.778417],[-87.091838,35.77947],[-87.089625,35.779649],[-87.089296,35.781287],[-87.087211,35.78191],[-87.087717,35.783605],[-87.085427,35.787866],[-87.084391,35.787841],[-87.084349,35.79287],[-87.083271,35.794162],[-87.084306,35.7969],[-87.083805,35.798119],[-87.085828,35.800693],[-87.088502,35.802997],[-87.089844,35.803506],[-87.092037,35.803],[-87.095552,35.803889],[-87.098035,35.802674],[-87.100214,35.802761],[-87.103662,35.803936],[-87.10742,35.802214],[-87.112385,35.801707],[-87.11535,35.801024],[-87.11765,35.801211],[-87.1153,35.802489],[-87.110637,35.803868],[-87.106668,35.804253],[-87.100738,35.804424],[-87.100139,35.806124],[-87.09569,35.812471],[-87.123633,35.821396],[-87.124998,35.821759],[-87.128147,35.8229],[-87.157351,35.832152],[-87.158559,35.83271],[-87.177627,35.838738]]]}},{"type":"Feature","properties":{"zcta5":"38487","AFFGEOID10":"8600000US38487","GEOID10":"38487","ALAND10":126279391,"AWATER10":93923,"county_name":"Maury","state_code":"TN","county_state":"Maury County, TN","county_fips":"47119","risk_level_county":"Higher Risk (60–69% vaccinated)","mean_vaccination_rate_county":68.38,"risk_level_zcta":"Medium Risk (70–79% vaccinated)","mean_vaccination_rate_zips":78.13,"cases":8},"geometry":{"type":"Polygon","coordinates":[[[-87.298927,35.781492],[-87.292329,35.778915],[-87.290371,35.777133],[-87.287915,35.771939],[-87.287685,35.770371],[-87.288922,35.767175],[-87.291664,35.766492],[-87.295015,35.765007],[-87.294899,35.764003],[-87.296538,35.762144],[-87.301516,35.757958],[-87.303037,35.754593],[-87.303032,35.750094],[-87.300992,35.746751],[-87.29767,35.74582],[-87.298114,35.741816],[-87.295301,35.740059],[-87.294058,35.738685],[-87.292956,35.739371],[-87.291336,35.736447],[-87.291727,35.73417],[-87.280107,35.732191],[-87.279298,35.733252],[-87.275563,35.735196],[-87.272927,35.735085],[-87.270131,35.732507],[-87.271323,35.730703],[-87.2668,35.729941],[-87.267727,35.725726],[-87.266642,35.721487],[-87.266917,35.720501],[-87.263956,35.716457],[-87.264088,35.712193],[-87.262435,35.708419],[-87.260385,35.708504],[-87.258837,35.70716],[-87.253095,35.707233],[-87.250341,35.708399],[-87.250898,35.70638],[-87.253775,35.703939],[-87.255769,35.700344],[-87.25987,35.696926],[-87.261496,35.69627],[-87.265994,35.695765],[-87.2713,35.696283],[-87.279284,35.696198],[-87.284141,35.69719],[-87.289409,35.696904],[-87.294946,35.695252],[-87.297118,35.692879],[-87.298037,35.68948],[-87.296859,35.687729],[-87.294815,35.686951],[-87.28641,35.685204],[-87.284832,35.68441],[-87.283394,35.682666],[-87.283646,35.681574],[-87.289623,35.675802],[-87.292418,35.672323],[-87.29401,35.668927],[-87.293978,35.665831],[-87.293419,35.664793],[-87.292099,35.663986],[-87.288021,35.662853],[-87.285283,35.663704],[-87.283299,35.665669],[-87.282439,35.667807],[-87.280954,35.669648],[-87.276994,35.67235],[-87.272126,35.673797],[-87.26884,35.673891],[-87.263106,35.672881],[-87.261233,35.671553],[-87.260602,35.670191],[-87.260111,35.666123],[-87.256875,35.659508],[-87.25386,35.656278],[-87.252025,35.653875],[-87.250452,35.652804],[-87.246867,35.651848],[-87.246058,35.650385],[-87.242327,35.649646],[-87.241856,35.650902],[-87.240125,35.650511],[-87.238123,35.651321],[-87.237118,35.647847],[-87.233712,35.647336],[-87.232017,35.645533],[-87.229265,35.645545],[-87.227984,35.644926],[-87.229036,35.641835],[-87.228967,35.640539],[-87.22679,35.63927],[-87.224258,35.639377],[-87.224535,35.640757],[-87.222792,35.642901],[-87.219487,35.644562],[-87.216262,35.647438],[-87.215919,35.648834],[-87.213269,35.652488],[-87.210855,35.652355],[-87.210027,35.655131],[-87.209152,35.660805],[-87.209679,35.665034],[-87.209113,35.668023],[-87.210552,35.670245],[-87.210548,35.671512],[-87.209143,35.673613],[-87.208915,35.676115],[-87.206592,35.675647],[-87.202247,35.673026],[-87.200684,35.672922],[-87.198609,35.671872],[-87.196696,35.670097],[-87.194693,35.669178],[-87.19087,35.669036],[-87.188654,35.670174],[-87.187143,35.670155],[-87.185022,35.671565],[-87.184087,35.676807],[-87.179691,35.676795],[-87.176376,35.676514],[-87.176051,35.67829],[-87.176259,35.680818],[-87.17721,35.682916],[-87.177443,35.685047],[-87.178813,35.687028],[-87.179818,35.690555],[-87.181267,35.691828],[-87.188265,35.694868],[-87.18705,35.697557],[-87.183519,35.699822],[-87.18044,35.701009],[-87.181942,35.703867],[-87.181565,35.70517],[-87.182441,35.706351],[-87.181882,35.707286],[-87.182319,35.709286],[-87.181935,35.71104],[-87.180008,35.712276],[-87.17912,35.714691],[-87.181292,35.715349],[-87.181125,35.717796],[-87.176835,35.720724],[-87.173802,35.722196],[-87.172019,35.725692],[-87.168682,35.726912],[-87.165649,35.726686],[-87.163067,35.727598],[-87.168438,35.730474],[-87.166774,35.733434],[-87.165848,35.736549],[-87.16652,35.738145],[-87.162164,35.739802],[-87.17426,35.748581],[-87.183237,35.752263],[-87.184326,35.751261],[-87.188053,35.750922],[-87.190147,35.75265],[-87.190959,35.756445],[-87.189695,35.759377],[-87.191679,35.759623],[-87.19095,35.763319],[-87.20078,35.777853],[-87.202537,35.776003],[-87.203526,35.775598],[-87.204105,35.777108],[-87.205886,35.774303],[-87.207978,35.775661],[-87.21037,35.775768],[-87.215395,35.777219],[-87.21862,35.776483],[-87.220953,35.776493],[-87.225744,35.775193],[-87.228628,35.775473],[-87.232114,35.776463],[-87.234902,35.774713],[-87.236232,35.774563],[-87.237966,35.777237],[-87.237805,35.778144],[-87.24016,35.780221],[-87.242501,35.781473],[-87.244863,35.785995],[-87.248402,35.789658],[-87.250595,35.78981],[-87.2538,35.791],[-87.25948,35.790872],[-87.260679,35.790195],[-87.263842,35.790353],[-87.265883,35.792451],[-87.2696,35.793241],[-87.271008,35.79403],[-87.273655,35.793628],[-87.279386,35.795786],[-87.280849,35.794744],[-87.284005,35.795717],[-87.285084,35.795491],[-87.274922,35.788353],[-87.280185,35.787208],[-87.290209,35.783111],[-87.294006,35.783764],[-87.297181,35.782662],[-87.298927,35.781492]]]}},{"type":"Feature","properties":{"zcta5":"38461","AFFGEOID10":"8600000US38461","GEOID10":"38461","ALAND10":181336480,"AWATER10":0,"county_name":"Maury","state_code":"TN","county_state":"Maury County, TN","county_fips":"47119","risk_level_county":"Higher Risk (60–69% vaccinated)","mean_vaccination_rate_county":68.38,"risk_level_zcta":"Lower Risk (80–84% vaccinated)","mean_vaccination_rate_zips":80.42,"cases":8},"geometry":{"type":"Polygon","coordinates":[[[-87.404428,35.633028],[-87.39068,35.620302],[-87.394224,35.61828],[-87.395222,35.617083],[-87.396525,35.613268],[-87.397676,35.611594],[-87.402562,35.607924],[-87.404301,35.606107],[-87.405585,35.603569],[-87.40754,35.59531],[-87.408868,35.592668],[-87.411991,35.590527],[-87.417082,35.586356],[-87.418669,35.582899],[-87.418451,35.580681],[-87.421384,35.578487],[-87.421671,35.577699],[-87.420897,35.575241],[-87.42222,35.573304],[-87.424635,35.572213],[-87.42491,35.570883],[-87.423019,35.5691],[-87.420639,35.568242],[-87.412924,35.567167],[-87.406124,35.566986],[-87.402825,35.566269],[-87.401691,35.565622],[-87.411887,35.566147],[-87.410518,35.563492],[-87.40878,35.561378],[-87.409765,35.557802],[-87.408952,35.555945],[-87.406139,35.553528],[-87.406173,35.552275],[-87.405286,35.549928],[-87.404035,35.54896],[-87.405556,35.54779],[-87.409,35.547076],[-87.410049,35.54535],[-87.40981,35.538326],[-87.410638,35.534143],[-87.412783,35.532254],[-87.385963,35.505635],[-87.383311,35.505957],[-87.376905,35.51303],[-87.371011,35.513282],[-87.371475,35.505521],[-87.37205,35.504316],[-87.35078,35.505082],[-87.330695,35.504639],[-87.322892,35.505092],[-87.323421,35.506347],[-87.325362,35.507609],[-87.319094,35.511416],[-87.319932,35.512529],[-87.322342,35.513483],[-87.322996,35.514531],[-87.325258,35.51611],[-87.326001,35.517754],[-87.3302,35.518106],[-87.331451,35.522846],[-87.330825,35.526352],[-87.328549,35.525761],[-87.327026,35.524641],[-87.322579,35.523935],[-87.32052,35.524847],[-87.317705,35.525014],[-87.316459,35.526448],[-87.314239,35.527687],[-87.311212,35.528769],[-87.308586,35.528519],[-87.306307,35.529141],[-87.303064,35.527968],[-87.302523,35.52841],[-87.303707,35.530054],[-87.304974,35.533407],[-87.306813,35.534771],[-87.308775,35.538385],[-87.309147,35.540589],[-87.308531,35.543316],[-87.303984,35.548789],[-87.302846,35.549739],[-87.302974,35.552095],[-87.304131,35.553538],[-87.304573,35.555174],[-87.305766,35.555932],[-87.30593,35.557536],[-87.303658,35.558649],[-87.303285,35.559366],[-87.300246,35.561681],[-87.311695,35.568802],[-87.316516,35.571489],[-87.316593,35.571988],[-87.313283,35.572423],[-87.312101,35.571589],[-87.30733,35.570514],[-87.304821,35.570556],[-87.300587,35.570147],[-87.300173,35.570706],[-87.302943,35.572442],[-87.303997,35.57406],[-87.305134,35.574577],[-87.291687,35.58436],[-87.290647,35.584617],[-87.289704,35.586946],[-87.289925,35.591858],[-87.291269,35.594666],[-87.291366,35.595801],[-87.286081,35.594799],[-87.284026,35.594941],[-87.280071,35.594629],[-87.278537,35.594908],[-87.276759,35.59603],[-87.275392,35.595844],[-87.273375,35.598478],[-87.27353,35.599375],[-87.27103,35.603055],[-87.270847,35.603813],[-87.267853,35.604897],[-87.265953,35.606192],[-87.264226,35.60829],[-87.261963,35.609473],[-87.260127,35.609467],[-87.263755,35.611138],[-87.267786,35.61203],[-87.270033,35.617729],[-87.27026,35.619619],[-87.272582,35.626111],[-87.272694,35.630424],[-87.274069,35.632267],[-87.273383,35.633642],[-87.271536,35.634349],[-87.26948,35.63581],[-87.268515,35.637669],[-87.267,35.638195],[-87.266764,35.640677],[-87.267211,35.64248],[-87.265965,35.643774],[-87.265693,35.645053],[-87.262297,35.64675],[-87.260561,35.646969],[-87.258858,35.649457],[-87.258426,35.651647],[-87.259429,35.655],[-87.260485,35.656134],[-87.258762,35.658677],[-87.256875,35.659508],[-87.260111,35.666123],[-87.260602,35.670191],[-87.261233,35.671553],[-87.263106,35.672881],[-87.26884,35.673891],[-87.272126,35.673797],[-87.276994,35.67235],[-87.280954,35.669648],[-87.282439,35.667807],[-87.283299,35.665669],[-87.285283,35.663704],[-87.288021,35.662853],[-87.292099,35.663986],[-87.293419,35.664793],[-87.293978,35.665831],[-87.29401,35.668927],[-87.292418,35.672323],[-87.289623,35.675802],[-87.283646,35.681574],[-87.283394,35.682666],[-87.284832,35.68441],[-87.28641,35.685204],[-87.294815,35.686951],[-87.296859,35.687729],[-87.298037,35.68948],[-87.300695,35.687929],[-87.302944,35.687708],[-87.304039,35.68634],[-87.306048,35.686679],[-87.307867,35.686128],[-87.309785,35.680405],[-87.31936,35.674238],[-87.317786,35.67154],[-87.317858,35.670008],[-87.319163,35.668092],[-87.31951,35.664841],[-87.321631,35.660883],[-87.325284,35.657768],[-87.327513,35.657881],[-87.329087,35.658982],[-87.335139,35.657482],[-87.336955,35.65771],[-87.339232,35.65911],[-87.344068,35.658533],[-87.346223,35.659657],[-87.348243,35.659392],[-87.348688,35.658435],[-87.351285,35.658225],[-87.352427,35.656687],[-87.352393,35.654832],[-87.35425,35.655693],[-87.356639,35.655976],[-87.357709,35.65688],[-87.357379,35.659514],[-87.389849,35.641354],[-87.404428,35.633028]]]}}]}