{"type":"FeatureCollection","features":[{"type":"Feature","properties":{"zcta5":"58581","AFFGEOID10":"8600000US58581","GEOID10":"58581","ALAND10":353575340,"AWATER10":406433,"county_name":"Mcintosh","state_code":"ND","county_state":"Mcintosh County, ND","county_fips":"38051","risk_level_county":"Medium Risk (70–79% vaccinated)","mean_vaccination_rate_county":77.92,"risk_level_zcta":"Higher Risk (60–69% vaccinated)","mean_vaccination_rate_zips":67.15,"cases":36},"geometry":{"type":"Polygon","coordinates":[[[-99.878763,46.173505],[-99.878875,46.17333],[-99.879014,46.124983],[-99.879376,46.124044],[-99.8800620862737,45.9416699059574],[-99.83868,45.941293],[-99.750396,45.940935],[-99.749494,45.940956],[-99.749325,45.940935],[-99.74787,45.940933],[-99.718073,45.940907],[-99.692975,45.940949],[-99.671938,45.941062],[-99.67189326723239,45.9410620264961],[-99.671181,45.984381],[-99.65032,45.984461],[-99.649681,46.027908],[-99.608075,46.027897],[-99.607928,46.056847],[-99.732568,46.056744],[-99.732523,46.071182],[-99.75342,46.071315],[-99.753427,46.100312],[-99.732078,46.100171],[-99.732021,46.106728],[-99.735798,46.107619],[-99.745437,46.107545],[-99.74543,46.113251],[-99.747889,46.114814],[-99.753457,46.114847],[-99.753275,46.129322],[-99.753106,46.14381],[-99.774048,46.143885],[-99.773918,46.158352],[-99.81565,46.158645],[-99.815315,46.187604],[-99.836174,46.187809],[-99.8363,46.173297],[-99.878763,46.173505]]]}},{"type":"Feature","properties":{"zcta5":"58456","AFFGEOID10":"8600000US58456","GEOID10":"58456","ALAND10":581850054,"AWATER10":7155467,"county_name":"Mcintosh","state_code":"ND","county_state":"Mcintosh County, ND","county_fips":"38051","risk_level_county":"Medium Risk (70–79% vaccinated)","mean_vaccination_rate_county":77.92,"risk_level_zcta":"Higher Risk (60–69% vaccinated)","mean_vaccination_rate_zips":67.78,"cases":36},"geometry":{"type":"Polygon","coordinates":[[[-99.037292,46.3992],[-99.037001,46.391114],[-99.037435,46.384064],[-99.037446,46.326423],[-99.03714,46.297475],[-99.037423,46.295041],[-99.037367,46.283151],[-99.038035,46.282969],[-99.086522,46.283016],[-99.086677,46.25873],[-99.074777,46.258732],[-99.074384,46.257461],[-99.072717,46.258259],[-99.070692,46.258037],[-99.070228,46.258793],[-99.044976,46.25874],[-99.045059,46.229722],[-99.086735,46.229737],[-99.08683,46.200722],[-99.065974,46.200705],[-99.066153,46.144298],[-99.06574,46.143523],[-99.063862,46.142574],[-99.024593,46.142643],[-99.024613,46.130089],[-99.022154,46.127608],[-99.024277,46.125328],[-99.024639,46.124585],[-99.024702,46.113673],[-99.017502,46.113472],[-99.01441,46.113699],[-99.003722,46.113696],[-99.00093,46.113637],[-98.998955,46.113632],[-98.880943,46.112871],[-98.828773,46.112549],[-98.82859,46.141865],[-98.849072,46.142041],[-98.853627,46.141292],[-98.856193,46.141991],[-98.859611,46.142125],[-98.859532,46.156575],[-98.838878,46.156357],[-98.838696,46.185337],[-98.796832,46.185069],[-98.796775,46.200041],[-98.817836,46.200299],[-98.817731,46.201728],[-98.817881,46.228753],[-98.796722,46.228777],[-98.796519,46.27231],[-98.801337,46.272577],[-98.801541,46.273611],[-98.800877,46.275391],[-98.799295,46.276094],[-98.796788,46.278362],[-98.796297,46.282869],[-98.808254,46.28285],[-98.807821,46.285524],[-98.807986,46.297334],[-98.818086,46.297361],[-98.818123,46.311835],[-98.828916,46.311879],[-98.82894,46.319561],[-98.849824,46.319687],[-98.849885,46.340971],[-98.850053,46.355376],[-98.912409,46.355384],[-98.912832,46.442436],[-98.954495,46.442339],[-98.955049,46.456979],[-99.018022,46.457092],[-99.017964,46.486159],[-99.036931,46.486198],[-99.036711,46.480897],[-99.036844,46.479777],[-99.037292,46.3992]]]}},{"type":"Feature","properties":{"zcta5":"58495","AFFGEOID10":"8600000US58495","GEOID10":"58495","ALAND10":925498616,"AWATER10":15052942,"county_name":"Mcintosh","state_code":"ND","county_state":"Mcintosh County, ND","county_fips":"38051","risk_level_county":"Medium Risk (70–79% vaccinated)","mean_vaccination_rate_county":77.92,"risk_level_zcta":"Higher Risk (60–69% vaccinated)","mean_vaccination_rate_zips":69.45,"cases":36},"geometry":{"type":"Polygon","coordinates":[[[-99.878431,46.282811],[-99.878652,46.230304],[-99.878918,46.229357],[-99.878624,46.222961],[-99.878647,46.216946],[-99.878763,46.173505],[-99.8363,46.173297],[-99.836174,46.187809],[-99.815315,46.187604],[-99.81565,46.158645],[-99.773918,46.158352],[-99.774048,46.143885],[-99.753106,46.14381],[-99.753275,46.129322],[-99.721408,46.129368],[-99.721426,46.143838],[-99.69018,46.143875],[-99.69015,46.129397],[-99.648456,46.129404],[-99.648472,46.14388],[-99.595259,46.143634],[-99.594247,46.141907],[-99.592673,46.143612],[-99.58656,46.143562],[-99.58689,46.085729],[-99.576955,46.085659],[-99.576305,46.083633],[-99.576489,46.071166],[-99.545288,46.07104],[-99.545208,46.085531],[-99.482485,46.085381],[-99.48242,46.099844],[-99.535136,46.099986],[-99.535115,46.11008],[-99.544997,46.110131],[-99.545077,46.100014],[-99.565814,46.100088],[-99.565694,46.114379],[-99.544976,46.114362],[-99.544583,46.143101],[-99.542626,46.143303],[-99.513526,46.143126],[-99.513621,46.147396],[-99.503164,46.147419],[-99.503112,46.157546],[-99.467778,46.157523],[-99.466863,46.156913],[-99.463468,46.156876],[-99.461575,46.157541],[-99.461471,46.164307],[-99.458571,46.163281],[-99.457661,46.163558],[-99.456026,46.166172],[-99.45567,46.168534],[-99.453913,46.168698],[-99.452795,46.170573],[-99.454784,46.172],[-99.419779,46.17201],[-99.419741,46.20112],[-99.406134,46.201043],[-99.40488,46.201748],[-99.399046,46.202059],[-99.39775,46.201138],[-99.388279,46.201249],[-99.388238,46.200336],[-99.382954,46.201208],[-99.379601,46.201329],[-99.379931,46.202538],[-99.377675,46.201521],[-99.37822,46.230171],[-99.383881,46.230849],[-99.385566,46.230008],[-99.387129,46.228912],[-99.388415,46.224982],[-99.388401,46.215684],[-99.409064,46.215569],[-99.409008,46.222881],[-99.440723,46.222915],[-99.441077,46.249792],[-99.443208,46.256519],[-99.440444,46.256168],[-99.432885,46.254402],[-99.4294,46.254982],[-99.422884,46.25828],[-99.415336,46.261356],[-99.401796,46.26587],[-99.39915,46.268],[-99.395411,46.273691],[-99.393266,46.274926],[-99.379618,46.278146],[-99.374194,46.278655],[-99.358218,46.278181],[-99.358212,46.283294],[-99.359109,46.283485],[-99.364725,46.283358],[-99.413949,46.28337],[-99.414334,46.291357],[-99.414211,46.326785],[-99.456096,46.326613],[-99.455892,46.355757],[-99.414077,46.355708],[-99.413787,46.442314],[-99.455711,46.442413],[-99.455641,46.44806],[-99.455086,46.450092],[-99.455689,46.452231],[-99.455726,46.457048],[-99.455759,46.477539],[-99.454575,46.482831],[-99.455766,46.485995],[-99.455688,46.493076],[-99.476738,46.493019],[-99.476994,46.474496],[-99.479634,46.474028],[-99.485328,46.473817],[-99.486623,46.473021],[-99.486664,46.486215],[-99.518321,46.486285],[-99.518425,46.472274],[-99.528842,46.472323],[-99.528877,46.465009],[-99.539257,46.465023],[-99.539372,46.457398],[-99.597574,46.456875],[-99.602042,46.456692],[-99.622986,46.457047],[-99.623265,46.443033],[-99.628405,46.442852],[-99.643921,46.442888],[-99.643941,46.4284],[-99.664703,46.42845],[-99.664922,46.40311],[-99.664698,46.402136],[-99.664967,46.39167],[-99.668426,46.391965],[-99.670327,46.392786],[-99.675797,46.391822],[-99.676425,46.390611],[-99.678407,46.391319],[-99.680224,46.39036],[-99.682001,46.388143],[-99.685892,46.387508],[-99.685941,46.385041],[-99.720641,46.385133],[-99.723906,46.383493],[-99.726124,46.383388],[-99.72786,46.381658],[-99.728303,46.335526],[-99.710351,46.326148],[-99.707421,46.326158],[-99.70721,46.35522],[-99.675659,46.355081],[-99.675122,46.353668],[-99.675782,46.351673],[-99.676006,46.34793],[-99.670587,46.348125],[-99.67098,46.355523],[-99.659267,46.355609],[-99.655378,46.355394],[-99.644224,46.35543],[-99.644539,46.34991],[-99.644655,46.326376],[-99.665429,46.326295],[-99.665684,46.282965],[-99.671272,46.282798],[-99.874793,46.282948],[-99.875388,46.282751],[-99.878431,46.282811]]]}},{"type":"Feature","properties":{"zcta5":"58413","AFFGEOID10":"8600000US58413","GEOID10":"58413","ALAND10":1174000751,"AWATER10":43473500,"county_name":"Mcintosh","state_code":"ND","county_state":"Mcintosh County, ND","county_fips":"38051","risk_level_county":"Medium Risk (70–79% vaccinated)","mean_vaccination_rate_county":77.92,"risk_level_zcta":"Higher Risk (60–69% vaccinated)","mean_vaccination_rate_zips":67.14,"cases":36},"geometry":{"type":"Polygon","coordinates":[[[-99.753275,46.129322],[-99.753457,46.114847],[-99.747889,46.114814],[-99.74543,46.113251],[-99.745437,46.107545],[-99.735798,46.107619],[-99.732021,46.106728],[-99.732078,46.100171],[-99.753427,46.100312],[-99.75342,46.071315],[-99.732523,46.071182],[-99.732568,46.056744],[-99.607928,46.056847],[-99.608075,46.027897],[-99.649681,46.027908],[-99.65032,45.984461],[-99.671181,45.984381],[-99.67189326723239,45.9410620264961],[-99.61116,45.941098],[-99.58878,45.941104],[-99.49314,45.940383],[-99.490254,45.940362],[-99.40126,45.940367],[-99.385565,45.940407],[-99.378486,45.940403],[-99.34496,45.940299],[-99.344774,45.940299],[-99.317875,45.940263],[-99.30481352970669,45.940200871956094],[-99.297272,45.940165],[-99.283968,45.940195],[-99.276266,45.940188],[-99.257745,45.94006],[-99.222269,45.940071],[-99.221672,45.940069],[-99.213644,45.940116],[-99.212571,45.940108],[-99.102372,45.940158],[-99.092868,45.940184],[-99.0057543501525,45.9399443091284],[-99.005642,45.939944],[-98.97345901045259,45.939807768905595],[-98.905477,45.93952],[-98.904429,45.93952],[-98.8803248690827,45.9394083980034],[-98.880487,45.941646],[-98.880516,45.995344],[-98.880991,45.996603],[-98.882193,45.997054],[-98.888805,45.997305],[-98.891432,45.999639],[-98.893454,45.998144],[-98.896053,45.997154],[-98.922671,45.997394],[-98.92315,45.998937],[-98.922603,46.000168],[-98.92257,46.008061],[-98.921621,46.009536],[-98.922169,46.010669],[-98.922002,46.013449],[-98.919409,46.015431],[-98.920721,46.017597],[-98.922191,46.018177],[-98.922602,46.019734],[-98.934662,46.019755],[-98.934726,46.012365],[-98.985464,46.012484],[-98.984649,46.026425],[-98.954949,46.026439],[-98.954917,46.040228],[-98.881116,46.040036],[-98.881185,46.060252],[-98.881135,46.069982],[-98.881087,46.080124],[-98.88149,46.082417],[-98.88105,46.085057],[-98.880943,46.112871],[-98.998955,46.113632],[-99.00093,46.113637],[-99.003722,46.113696],[-99.01441,46.113699],[-99.017502,46.113472],[-99.024702,46.113673],[-99.06623,46.113544],[-99.066412,46.099243],[-99.147914,46.099425],[-99.149325,46.099332],[-99.15597,46.097999],[-99.162558,46.097335],[-99.175651,46.099347],[-99.180866,46.099325],[-99.185668,46.098846],[-99.188971,46.099308],[-99.20088,46.099372],[-99.203069,46.099796],[-99.206648,46.099392],[-99.25362,46.099248],[-99.253741,46.084885],[-99.316362,46.085007],[-99.315952,46.142891],[-99.339082,46.143096],[-99.344412,46.14476],[-99.348023,46.144374],[-99.351554,46.143133],[-99.39891,46.143093],[-99.398902,46.157645],[-99.419722,46.157586],[-99.419779,46.17201],[-99.454784,46.172],[-99.452795,46.170573],[-99.453913,46.168698],[-99.45567,46.168534],[-99.456026,46.166172],[-99.457661,46.163558],[-99.458571,46.163281],[-99.461471,46.164307],[-99.461575,46.157541],[-99.463468,46.156876],[-99.466863,46.156913],[-99.467778,46.157523],[-99.503112,46.157546],[-99.503164,46.147419],[-99.513621,46.147396],[-99.513526,46.143126],[-99.542626,46.143303],[-99.544583,46.143101],[-99.544976,46.114362],[-99.565694,46.114379],[-99.565814,46.100088],[-99.545077,46.100014],[-99.544997,46.110131],[-99.535115,46.11008],[-99.535136,46.099986],[-99.48242,46.099844],[-99.482485,46.085381],[-99.545208,46.085531],[-99.545288,46.07104],[-99.576489,46.071166],[-99.576305,46.083633],[-99.576955,46.085659],[-99.58689,46.085729],[-99.58656,46.143562],[-99.592673,46.143612],[-99.594247,46.141907],[-99.595259,46.143634],[-99.648472,46.14388],[-99.648456,46.129404],[-99.69015,46.129397],[-99.69018,46.143875],[-99.721426,46.143838],[-99.721408,46.129368],[-99.753275,46.129322]]]}},{"type":"Feature","properties":{"zcta5":"58460","AFFGEOID10":"8600000US58460","GEOID10":"58460","ALAND10":463986448,"AWATER10":17106636,"county_name":"Mcintosh","state_code":"ND","county_state":"Mcintosh County, ND","county_fips":"38051","risk_level_county":"Medium Risk (70–79% vaccinated)","mean_vaccination_rate_county":77.92,"risk_level_zcta":"Very High Risk (<60% vaccinated)","mean_vaccination_rate_zips":28.2,"cases":36},"geometry":{"type":"Polygon","coordinates":[[[-99.455726,46.457048],[-99.455689,46.452231],[-99.455086,46.450092],[-99.455641,46.44806],[-99.455711,46.442413],[-99.413787,46.442314],[-99.414077,46.355708],[-99.455892,46.355757],[-99.456096,46.326613],[-99.414211,46.326785],[-99.414334,46.291357],[-99.413949,46.28337],[-99.364725,46.283358],[-99.359109,46.283485],[-99.358212,46.283294],[-99.358218,46.278181],[-99.374194,46.278655],[-99.379618,46.278146],[-99.393266,46.274926],[-99.395411,46.273691],[-99.39915,46.268],[-99.401796,46.26587],[-99.415336,46.261356],[-99.422884,46.25828],[-99.4294,46.254982],[-99.432885,46.254402],[-99.440444,46.256168],[-99.443208,46.256519],[-99.441077,46.249792],[-99.440723,46.222915],[-99.409008,46.222881],[-99.409064,46.215569],[-99.388401,46.215684],[-99.388415,46.224982],[-99.387129,46.228912],[-99.385566,46.230008],[-99.383881,46.230849],[-99.37822,46.230171],[-99.377675,46.201521],[-99.379931,46.202538],[-99.379601,46.201329],[-99.382954,46.201208],[-99.388238,46.200336],[-99.388279,46.201249],[-99.39775,46.201138],[-99.399046,46.202059],[-99.40488,46.201748],[-99.406134,46.201043],[-99.419741,46.20112],[-99.419779,46.17201],[-99.419722,46.157586],[-99.398902,46.157645],[-99.39891,46.143093],[-99.351554,46.143133],[-99.348023,46.144374],[-99.344412,46.14476],[-99.339082,46.143096],[-99.315952,46.142891],[-99.274781,46.142714],[-99.274378,46.146301],[-99.274324,46.156598],[-99.273229,46.157229],[-99.255873,46.157133],[-99.25356,46.157776],[-99.253446,46.172192],[-99.251886,46.173094],[-99.253498,46.176823],[-99.25346,46.186097],[-99.190995,46.186169],[-99.190926,46.21511],[-99.211753,46.215155],[-99.211757,46.229151],[-99.222428,46.229558],[-99.225141,46.229364],[-99.229463,46.227354],[-99.232405,46.227473],[-99.232552,46.229513],[-99.253547,46.229547],[-99.253577,46.244041],[-99.232396,46.243791],[-99.232461,46.234976],[-99.231122,46.234762],[-99.220421,46.234972],[-99.220447,46.240835],[-99.21922,46.242576],[-99.216386,46.244222],[-99.211275,46.244243],[-99.211317,46.265212],[-99.222017,46.265205],[-99.221924,46.269002],[-99.225946,46.271659],[-99.224503,46.277473],[-99.224959,46.283147],[-99.204715,46.283123],[-99.204809,46.298452],[-99.209177,46.298439],[-99.211889,46.297978],[-99.228228,46.292732],[-99.234244,46.292292],[-99.243996,46.292748],[-99.246707,46.292423],[-99.251235,46.291238],[-99.255863,46.291015],[-99.255863,46.297434],[-99.267539,46.29749],[-99.2683,46.293838],[-99.272825,46.294201],[-99.278727,46.293469],[-99.283613,46.293758],[-99.288522,46.293421],[-99.288511,46.312277],[-99.277379,46.312327],[-99.277529,46.334503],[-99.268079,46.334551],[-99.267743,46.338375],[-99.267951,46.341272],[-99.288467,46.34117],[-99.288132,46.384529],[-99.288148,46.427855],[-99.287356,46.428447],[-99.287747,46.456794],[-99.288278,46.473005],[-99.288799,46.477835],[-99.288402,46.478338],[-99.288931,46.480052],[-99.288183,46.481505],[-99.28843,46.490796],[-99.288433,46.500319],[-99.361526,46.500124],[-99.361581,46.500158],[-99.372498,46.500107],[-99.372763,46.498975],[-99.374479,46.500166],[-99.401572,46.500128],[-99.401564,46.49315],[-99.411828,46.493124],[-99.412243,46.491325],[-99.413675,46.490398],[-99.413767,46.489677],[-99.413862,46.456883],[-99.455726,46.457048]]]}},{"type":"Feature","properties":{"zcta5":"58440","AFFGEOID10":"8600000US58440","GEOID10":"58440","ALAND10":598484010,"AWATER10":8325673,"county_name":"Mcintosh","state_code":"ND","county_state":"Mcintosh County, ND","county_fips":"38051","risk_level_county":"Medium Risk (70–79% vaccinated)","mean_vaccination_rate_county":77.92,"risk_level_zcta":"Very High Risk (<60% vaccinated)","mean_vaccination_rate_zips":51.32,"cases":36},"geometry":{"type":"Polygon","coordinates":[[[-99.315952,46.142891],[-99.316362,46.085007],[-99.253741,46.084885],[-99.25362,46.099248],[-99.206648,46.099392],[-99.203069,46.099796],[-99.20088,46.099372],[-99.188971,46.099308],[-99.185668,46.098846],[-99.180866,46.099325],[-99.175651,46.099347],[-99.162558,46.097335],[-99.15597,46.097999],[-99.149325,46.099332],[-99.147914,46.099425],[-99.066412,46.099243],[-99.06623,46.113544],[-99.024702,46.113673],[-99.024639,46.124585],[-99.024277,46.125328],[-99.022154,46.127608],[-99.024613,46.130089],[-99.024593,46.142643],[-99.063862,46.142574],[-99.06574,46.143523],[-99.066153,46.144298],[-99.065974,46.200705],[-99.08683,46.200722],[-99.086735,46.229737],[-99.045059,46.229722],[-99.044976,46.25874],[-99.070228,46.258793],[-99.070692,46.258037],[-99.072717,46.258259],[-99.074384,46.257461],[-99.074777,46.258732],[-99.086677,46.25873],[-99.086522,46.283016],[-99.038035,46.282969],[-99.037367,46.283151],[-99.037423,46.295041],[-99.03714,46.297475],[-99.037446,46.326423],[-99.037435,46.384064],[-99.037001,46.391114],[-99.037292,46.3992],[-99.046971,46.399026],[-99.099958,46.399099],[-99.100003,46.406561],[-99.141701,46.406451],[-99.142267,46.413665],[-99.161378,46.413952],[-99.161648,46.414978],[-99.159955,46.417387],[-99.1628,46.418445],[-99.163043,46.427735],[-99.162849,46.457146],[-99.287747,46.456794],[-99.287356,46.428447],[-99.288148,46.427855],[-99.288132,46.384529],[-99.288467,46.34117],[-99.267951,46.341272],[-99.267743,46.338375],[-99.268079,46.334551],[-99.277529,46.334503],[-99.277379,46.312327],[-99.288511,46.312277],[-99.288522,46.293421],[-99.283613,46.293758],[-99.278727,46.293469],[-99.272825,46.294201],[-99.2683,46.293838],[-99.267539,46.29749],[-99.255863,46.297434],[-99.255863,46.291015],[-99.251235,46.291238],[-99.246707,46.292423],[-99.243996,46.292748],[-99.234244,46.292292],[-99.228228,46.292732],[-99.211889,46.297978],[-99.209177,46.298439],[-99.204809,46.298452],[-99.204715,46.283123],[-99.224959,46.283147],[-99.224503,46.277473],[-99.225946,46.271659],[-99.221924,46.269002],[-99.222017,46.265205],[-99.211317,46.265212],[-99.211275,46.244243],[-99.216386,46.244222],[-99.21922,46.242576],[-99.220447,46.240835],[-99.220421,46.234972],[-99.231122,46.234762],[-99.232461,46.234976],[-99.232396,46.243791],[-99.253577,46.244041],[-99.253547,46.229547],[-99.232552,46.229513],[-99.232405,46.227473],[-99.229463,46.227354],[-99.225141,46.229364],[-99.222428,46.229558],[-99.211757,46.229151],[-99.211753,46.215155],[-99.190926,46.21511],[-99.190995,46.186169],[-99.25346,46.186097],[-99.253498,46.176823],[-99.251886,46.173094],[-99.253446,46.172192],[-99.25356,46.157776],[-99.255873,46.157133],[-99.273229,46.157229],[-99.274324,46.156598],[-99.274378,46.146301],[-99.274781,46.142714],[-99.315952,46.142891]]]}}]}