{"type":"FeatureCollection","features":[{"type":"Feature","properties":{"zcta5":"49821","AFFGEOID10":"8600000US49821","GEOID10":"49821","ALAND10":373735517,"AWATER10":1864658,"county_name":"Menominee","state_code":"MI","county_state":"Menominee County, MI","county_fips":"26109","risk_level_county":"Medium Risk (70–79% vaccinated)","mean_vaccination_rate_county":73.37,"risk_level_zcta":"Higher Risk (60–69% vaccinated)","mean_vaccination_rate_zips":67.53,"cases":29},"geometry":{"type":"MultiPolygon","coordinates":[[[[-87.449802,45.492916],[-87.45001,45.492898],[-87.453917,45.492878],[-87.453774,45.488743],[-87.453967,45.485661],[-87.449819,45.487155],[-87.449797,45.491994],[-87.449802,45.492916]]],[[[-87.777199,45.588499],[-87.779809,45.587125],[-87.781255,45.585682],[-87.785647,45.58396],[-87.786767,45.58283],[-87.787534,45.581376],[-87.787292,45.574906],[-87.78844,45.56963],[-87.788326,45.567941],[-87.788798,45.565947],[-87.790874,45.564096],[-87.792372,45.563055],[-87.794737,45.562372],[-87.797536,45.562124],[-87.806104,45.562863],[-87.808211,45.563712],[-87.81042,45.565308],[-87.81176,45.565554],[-87.813745,45.565175],[-87.819821,45.567079],[-87.825801,45.56755],[-87.829346,45.568776],[-87.831689,45.568035],[-87.831645,45.566225],[-87.832681,45.563412],[-87.833591,45.562529],[-87.832968,45.559461],[-87.832296,45.558767],[-87.827215,45.55562],[-87.818791,45.5521],[-87.817089,45.549512],[-87.813737,45.548616],[-87.811517,45.546403],[-87.807159,45.543523],[-87.806358,45.541662],[-87.80345311671019,45.538344090851595],[-87.80339,45.538272],[-87.803364,45.537016],[-87.804528,45.534373],[-87.80472,45.531244],[-87.804203,45.524676],[-87.802624,45.518562],[-87.802267,45.514233],[-87.802241,45.513059],[-87.8018350217947,45.512261412414894],[-87.800719,45.516433],[-87.800893,45.521595],[-87.801491,45.523647],[-87.799049,45.522946],[-87.798752,45.517003],[-87.799685,45.514568],[-87.798895,45.512724],[-87.797064,45.510921],[-87.792343,45.508057],[-87.787122,45.505499],[-87.783447,45.501856],[-87.782675,45.501896],[-87.779815,45.505063],[-87.776298,45.507745],[-87.773972,45.510759],[-87.774287,45.513584],[-87.762914,45.514386],[-87.74727,45.51476],[-87.733679,45.514484],[-87.737431,45.511795],[-87.738764,45.510132],[-87.743816,45.508275],[-87.746823,45.50453],[-87.746544,45.503468],[-87.752718,45.503966],[-87.753621,45.502205],[-87.755075,45.502082],[-87.757584,45.500165],[-87.75852,45.498507],[-87.759747,45.497233],[-87.757447,45.496218],[-87.756426,45.494433],[-87.75925,45.491532],[-87.76021,45.489628],[-87.759303,45.487118],[-87.75825,45.486923],[-87.758712,45.484231],[-87.74859,45.483449],[-87.74493,45.485627],[-87.744014,45.487055],[-87.741936,45.488006],[-87.741023,45.489481],[-87.738417,45.490961],[-87.737458,45.490623],[-87.735671,45.492465],[-87.733411,45.493765],[-87.729174,45.493296],[-87.726724,45.493537],[-87.724918,45.49452],[-87.723288,45.496927],[-87.719166,45.498371],[-87.717108,45.500241],[-87.709128,45.475197],[-87.707948,45.474745],[-87.708025,45.46389],[-87.677541,45.463721],[-87.677367,45.437801],[-87.670323,45.439416],[-87.666857,45.44016],[-87.665744,45.438441],[-87.659981,45.439801],[-87.658944,45.438377],[-87.660126,45.437117],[-87.659165,45.435535],[-87.657301,45.435004],[-87.635636,45.43544],[-87.614697,45.435196],[-87.614496,45.449829],[-87.60593,45.449732],[-87.606317,45.442393],[-87.583501,45.442326],[-87.583232,45.435163],[-87.583571,45.42764],[-87.583073,45.426943],[-87.581781,45.427627],[-87.560716,45.427717],[-87.558377,45.429382],[-87.558375,45.433624],[-87.556339,45.43497],[-87.553274,45.434968],[-87.553306,45.449866],[-87.543284,45.4497],[-87.532822,45.449203],[-87.515607,45.449336],[-87.514926,45.450681],[-87.513817,45.450366],[-87.512143,45.452208],[-87.512659,45.452669],[-87.510293,45.455936],[-87.50956,45.458169],[-87.510092,45.460837],[-87.508944,45.463894],[-87.519551,45.464059],[-87.532819,45.463687],[-87.53193,45.499362],[-87.530941,45.4999],[-87.523439,45.500009],[-87.522299,45.500374],[-87.521922,45.500862],[-87.521748,45.506516],[-87.520999,45.507188],[-87.513003,45.507414],[-87.449569,45.507039],[-87.449802,45.492916],[-87.440952,45.49402],[-87.440194,45.494474],[-87.440347,45.502643],[-87.435424,45.501876],[-87.432232,45.502524],[-87.429304,45.50236],[-87.427639,45.502955],[-87.425597,45.505533],[-87.424219,45.508785],[-87.421235,45.512086],[-87.418621,45.514026],[-87.415802,45.511183],[-87.413331,45.510177],[-87.409755,45.509856],[-87.408389,45.51045],[-87.405691,45.509079],[-87.400099,45.509374],[-87.400261,45.508254],[-87.398376,45.507728],[-87.396816,45.508646],[-87.397565,45.510549],[-87.396297,45.511352],[-87.398411,45.513647],[-87.397534,45.517108],[-87.398705,45.518187],[-87.397989,45.519425],[-87.395844,45.520297],[-87.393912,45.52929],[-87.392359,45.530743],[-87.392402,45.534291],[-87.392929,45.535789],[-87.390818,45.538039],[-87.391135,45.539625],[-87.388821,45.539934],[-87.38559,45.542271],[-87.386848,45.545134],[-87.384468,45.544022],[-87.38352,45.54509],[-87.383252,45.547272],[-87.380579,45.545999],[-87.378981,45.546036],[-87.377924,45.549142],[-87.382098,45.551025],[-87.449665,45.550863],[-87.44971,45.567093],[-87.454212,45.564955],[-87.457847,45.562416],[-87.4609,45.561409],[-87.467592,45.559852],[-87.470071,45.562612],[-87.468626,45.559784],[-87.467369,45.558974],[-87.464921,45.559146],[-87.465475,45.557459],[-87.46476,45.554856],[-87.465157,45.551626],[-87.509625,45.544184],[-87.521818,45.572974],[-87.527057,45.572979],[-87.527233,45.558971],[-87.532407,45.55858],[-87.532469,45.55201],[-87.553176,45.551696],[-87.553082,45.562311],[-87.556029,45.561568],[-87.5572,45.562983],[-87.557148,45.564907],[-87.556081,45.565907],[-87.561886,45.566003],[-87.559282,45.569255],[-87.558017,45.572313],[-87.563761,45.572382],[-87.566236,45.569687],[-87.57561,45.556003],[-87.578992,45.561538],[-87.581279,45.56126],[-87.586132,45.561421],[-87.588359,45.560438],[-87.590511,45.561679],[-87.592955,45.561192],[-87.593533,45.559492],[-87.595352,45.558561],[-87.597096,45.55891],[-87.599161,45.558134],[-87.603334,45.558555],[-87.606842,45.55802],[-87.609532,45.554605],[-87.611218,45.554679],[-87.6123,45.553383],[-87.614076,45.554106],[-87.613297,45.555513],[-87.616821,45.554273],[-87.619874,45.55602],[-87.620001,45.55705],[-87.622684,45.560284],[-87.625876,45.560504],[-87.627175,45.563174],[-87.629178,45.565534],[-87.635163,45.565463],[-87.635275,45.575612],[-87.634959,45.579827],[-87.633074,45.579844],[-87.632974,45.58191],[-87.629358,45.583612],[-87.626653,45.585661],[-87.627873,45.587056],[-87.626927,45.588556],[-87.628059,45.591141],[-87.624064,45.595608],[-87.62637,45.596926],[-87.627915,45.59689],[-87.627822,45.599977],[-87.629254,45.599839],[-87.63148,45.597019],[-87.633158,45.597525],[-87.635477,45.596712],[-87.634686,45.624292],[-87.634919,45.637134],[-87.677149,45.636793],[-87.679201,45.636689],[-87.680525,45.63416],[-87.683931,45.632526],[-87.68442,45.629763],[-87.687993,45.626541],[-87.692054,45.62734],[-87.694085,45.626446],[-87.696373,45.625982],[-87.699287,45.622725],[-87.703802,45.619442],[-87.705907,45.616311],[-87.711313,45.613857],[-87.71694,45.613097],[-87.719968,45.613587],[-87.722322,45.611747],[-87.723317,45.606695],[-87.724787,45.605941],[-87.725819,45.600781],[-87.72842,45.601278],[-87.732778,45.599066],[-87.732652,45.595892],[-87.734473,45.595451],[-87.733942,45.594188],[-87.742815,45.59398],[-87.741776,45.595926],[-87.744734,45.598486],[-87.744526,45.600167],[-87.742903,45.601293],[-87.741766,45.603153],[-87.742608,45.603836],[-87.74162,45.605785],[-87.738895,45.607042],[-87.738154,45.608833],[-87.739835,45.613474],[-87.742925,45.614434],[-87.744786,45.619142],[-87.747081,45.619643],[-87.748595,45.621711],[-87.748174,45.625212],[-87.751081,45.626535],[-87.7528,45.626512],[-87.754181,45.627755],[-87.75409,45.62917],[-87.751335,45.632378],[-87.751006,45.634222],[-87.74894,45.635301],[-87.748462,45.6364],[-87.76106,45.636432],[-87.76586,45.635569],[-87.768892,45.634427],[-87.771216,45.634835],[-87.772538,45.636332],[-87.775568,45.636313],[-87.774643,45.634099],[-87.777867,45.631043],[-87.778516,45.629024],[-87.781509,45.626891],[-87.781336,45.622398],[-87.780189,45.615996],[-87.779288,45.614111],[-87.777499,45.612878],[-87.772994,45.611982],[-87.772503,45.611106],[-87.77302,45.602097],[-87.774042,45.600094],[-87.773128,45.595228],[-87.773606,45.592784],[-87.775578,45.588317],[-87.777199,45.588499]]]]}},{"type":"Feature","properties":{"zcta5":"49887","AFFGEOID10":"8600000US49887","GEOID10":"49887","ALAND10":556122986,"AWATER10":35533034,"county_name":"Menominee","state_code":"MI","county_state":"Menominee County, MI","county_fips":"26109","risk_level_county":"Medium Risk (70–79% vaccinated)","mean_vaccination_rate_county":73.37,"risk_level_zcta":"Higher Risk (60–69% vaccinated)","mean_vaccination_rate_zips":65.06,"cases":29},"geometry":{"type":"Polygon","coordinates":[[[-87.8347573151717,45.452023531371594],[-87.836008,45.450877],[-87.844815,45.448411],[-87.847429,45.444177],[-87.855298,45.441379],[-87.856603,45.439963],[-87.857212,45.437934],[-87.858482,45.436477],[-87.860129,45.435568],[-87.861697,45.434473],[-87.86195,45.433072],[-87.860127,45.429584],[-87.860432,45.423504],[-87.858847,45.421393],[-87.858009,45.421078],[-87.857124,45.420192],[-87.857253,45.417922],[-87.856216,45.416101],[-87.85181,45.413103],[-87.850533,45.411685],[-87.849668,45.409518],[-87.849322,45.403872],[-87.850969,45.401925],[-87.855992,45.400359],[-87.859131,45.398967],[-87.859773,45.397278],[-87.859603,45.396409],[-87.85683,45.393106],[-87.859418,45.388227],[-87.861316,45.386829],[-87.864677,45.385232],[-87.870905,45.383116],[-87.873568,45.381357],[-87.875424,45.379373],[-87.875692,45.377052],[-87.874429,45.375589],[-87.871572,45.373478],[-87.871268,45.371467],[-87.875111,45.369842],[-87.876862,45.368535],[-87.877835,45.366987],[-87.879169,45.365754],[-87.883007,45.364042],[-87.884855,45.362792],[-87.887828,45.358122],[-87.888052,45.354697],[-87.886949,45.35311],[-87.88517,45.351736],[-87.881114,45.351278],[-87.879835,45.35149],[-87.877461,45.352832],[-87.87546,45.354626],[-87.871685,45.355729],[-87.870367,45.356267],[-87.869613,45.357481],[-87.870084,45.359022],[-87.871204,45.360056],[-87.87567,45.364228],[-87.875797,45.365314],[-87.875111,45.365947],[-87.87295,45.366526],[-87.870238,45.366436],[-87.868177,45.365365],[-87.865999,45.363194],[-87.865163,45.361115],[-87.865675,45.358213],[-87.865763,45.35628],[-87.864873,45.354767],[-87.863489,45.35302],[-87.860871,45.351192],[-87.858617,45.350378],[-87.852784,45.349497],[-87.850418,45.347492],[-87.849899,45.344651],[-87.851475,45.342335],[-87.851318,45.341346],[-87.850133,45.340435],[-87.848368,45.340676],[-87.838141,45.345101],[-87.836782,45.346451],[-87.835303,45.35098],[-87.832612,45.352249],[-87.829775,45.352005],[-87.826918,45.350538],[-87.824855,45.350713],[-87.823554,45.351637],[-87.823028,45.35265],[-87.810076,45.351269],[-87.800464,45.353608],[-87.790324,45.353444],[-87.787967,45.352612],[-87.783076,45.349725],[-87.781532,45.349695],[-87.773901,45.351226],[-87.771384,45.35121],[-87.769172,45.351195],[-87.762128,45.348401],[-87.754104,45.349442],[-87.751452,45.351755],[-87.751626,45.354169],[-87.750928,45.355037],[-87.744956,45.356559],[-87.739634,45.35644],[-87.738457,45.357156],[-87.738352,45.358243],[-87.737801,45.359635],[-87.733409,45.364432],[-87.718891,45.377462],[-87.71361,45.37909],[-87.708329,45.381218],[-87.706767,45.383827],[-87.704337,45.385462],[-87.699797,45.387927],[-87.693956,45.389893],[-87.690281,45.389822],[-87.685934,45.388711],[-87.682866,45.38495],[-87.676466,45.383219],[-87.675017,45.382454],[-87.67455,45.381649],[-87.674403,45.378065],[-87.673513,45.376946],[-87.658698,45.369723],[-87.657349,45.368752],[-87.656624,45.367295],[-87.656938,45.364568],[-87.655807,45.362706],[-87.656632,45.358617],[-87.653568,45.354204],[-87.6510946358749,45.353858562836294],[-87.649872,45.35509],[-87.653367,45.363496],[-87.652174,45.363757],[-87.65117,45.361258],[-87.649276,45.360668],[-87.646552,45.362249],[-87.646626,45.375473],[-87.646877,45.375958],[-87.648415,45.376816],[-87.653203,45.376776],[-87.656745,45.378799],[-87.672561,45.387256],[-87.67266,45.388849],[-87.670238,45.391077],[-87.610215,45.391417],[-87.610467,45.376838],[-87.610757,45.374716],[-87.614841,45.36737],[-87.61572,45.36462],[-87.61534,45.358422],[-87.615294,45.347701],[-87.604924,45.347644],[-87.604863,45.357301],[-87.605182,45.36232],[-87.533505,45.36181],[-87.533627,45.351569],[-87.532468,45.35266],[-87.528808,45.352403],[-87.527512,45.351233],[-87.526216,45.351505],[-87.521422,45.351792],[-87.518343,45.353387],[-87.516886,45.353154],[-87.507002,45.354873],[-87.505933,45.356217],[-87.502334,45.355164],[-87.496277,45.356376],[-87.494139,45.358206],[-87.491676,45.359007],[-87.486165,45.36157],[-87.484577,45.363469],[-87.485356,45.364269],[-87.485132,45.367264],[-87.48283,45.368934],[-87.480748,45.375698],[-87.458914,45.375019],[-87.461654,45.372391],[-87.462243,45.360777],[-87.432461,45.36033],[-87.431254,45.359297],[-87.431249,45.353036],[-87.40403,45.352946],[-87.399878,45.35824],[-87.395847,45.366599],[-87.394422,45.368572],[-87.389399,45.372679],[-87.388638,45.37193],[-87.3901456729995,45.370447168022196],[-87.389871,45.370592],[-87.38601,45.372889],[-87.380578,45.373479],[-87.379865,45.374231],[-87.381863,45.375654],[-87.37705,45.378652],[-87.373768,45.379612],[-87.372148,45.381853],[-87.370627,45.384917],[-87.368942,45.38725],[-87.366861,45.388115],[-87.364368,45.388532],[-87.3621,45.391871],[-87.36138,45.394286],[-87.359512,45.399829],[-87.358704,45.404287],[-87.356466,45.406072],[-87.352183,45.407605],[-87.350852,45.407743],[-87.34287,45.412638],[-87.340356,45.413182],[-87.336152,45.41536],[-87.333688,45.419522],[-87.330589,45.421946],[-87.327749,45.425307],[-87.325834,45.43004],[-87.329861,45.432668],[-87.33324,45.436897],[-87.334249,45.442315],[-87.333147,45.447208],[-87.328277,45.452696],[-87.325191,45.453199],[-87.323535,45.456652],[-87.321911,45.459739],[-87.321397,45.462697],[-87.319703,45.464929],[-87.316104,45.467456],[-87.312405,45.468917],[-87.309957,45.470255],[-87.306967,45.473364],[-87.306122,45.475513],[-87.306382,45.479743],[-87.304919,45.482944],[-87.303391,45.484201],[-87.298808,45.488733],[-87.297457,45.491175],[-87.294494,45.494387],[-87.29315,45.496569],[-87.292239,45.498512],[-87.29,45.499864],[-87.288239,45.500897],[-87.288075,45.503069],[-87.286544,45.509195],[-87.284787,45.512647],[-87.281186,45.517064],[-87.278868,45.518974],[-87.276945,45.522362],[-87.276261,45.524259],[-87.275576,45.52746],[-87.272612,45.532786],[-87.268153,45.537517],[-87.26669357801688,45.539094],[-87.269869,45.537939],[-87.275024,45.538193],[-87.278396,45.540749],[-87.281946,45.537377],[-87.291157,45.537504],[-87.298449,45.538114],[-87.298088,45.542778],[-87.296212,45.547015],[-87.294517,45.547397],[-87.291946,45.547127],[-87.291292,45.548529],[-87.29154,45.55097],[-87.30691,45.550893],[-87.327502,45.55125],[-87.327167,45.567807],[-87.329492,45.563413],[-87.33255,45.562433],[-87.334919,45.560797],[-87.337452,45.559782],[-87.340204,45.556878],[-87.342424,45.5561],[-87.344982,45.552927],[-87.349223,45.550487],[-87.364363,45.551102],[-87.382098,45.551025],[-87.377924,45.549142],[-87.378981,45.546036],[-87.380579,45.545999],[-87.383252,45.547272],[-87.38352,45.54509],[-87.384468,45.544022],[-87.386848,45.545134],[-87.38559,45.542271],[-87.388821,45.539934],[-87.391135,45.539625],[-87.390818,45.538039],[-87.392929,45.535789],[-87.392402,45.534291],[-87.392359,45.530743],[-87.393912,45.52929],[-87.395844,45.520297],[-87.397989,45.519425],[-87.398705,45.518187],[-87.397534,45.517108],[-87.398411,45.513647],[-87.396297,45.511352],[-87.397565,45.510549],[-87.396816,45.508646],[-87.398376,45.507728],[-87.400261,45.508254],[-87.400099,45.509374],[-87.405691,45.509079],[-87.408389,45.51045],[-87.409755,45.509856],[-87.413331,45.510177],[-87.415802,45.511183],[-87.418621,45.514026],[-87.421235,45.512086],[-87.424219,45.508785],[-87.425597,45.505533],[-87.427639,45.502955],[-87.429304,45.50236],[-87.432232,45.502524],[-87.435424,45.501876],[-87.440347,45.502643],[-87.440194,45.494474],[-87.440952,45.49402],[-87.449802,45.492916],[-87.449569,45.507039],[-87.513003,45.507414],[-87.520999,45.507188],[-87.521748,45.506516],[-87.521922,45.500862],[-87.522299,45.500374],[-87.523439,45.500009],[-87.530941,45.4999],[-87.53193,45.499362],[-87.532819,45.463687],[-87.519551,45.464059],[-87.508944,45.463894],[-87.510092,45.460837],[-87.50956,45.458169],[-87.510293,45.455936],[-87.512659,45.452669],[-87.512143,45.452208],[-87.513817,45.450366],[-87.514926,45.450681],[-87.515607,45.449336],[-87.532822,45.449203],[-87.543284,45.4497],[-87.553306,45.449866],[-87.553274,45.434968],[-87.556339,45.43497],[-87.558375,45.433624],[-87.558377,45.429382],[-87.560716,45.427717],[-87.581781,45.427627],[-87.583073,45.426943],[-87.583571,45.42764],[-87.583232,45.435163],[-87.583501,45.442326],[-87.606317,45.442393],[-87.60593,45.449732],[-87.614496,45.449829],[-87.614697,45.435196],[-87.635636,45.43544],[-87.657301,45.435004],[-87.659165,45.435535],[-87.660126,45.437117],[-87.658944,45.438377],[-87.659981,45.439801],[-87.665744,45.438441],[-87.666857,45.44016],[-87.670323,45.439416],[-87.677367,45.437801],[-87.677541,45.463721],[-87.708025,45.46389],[-87.707948,45.474745],[-87.709128,45.475197],[-87.717108,45.500241],[-87.719166,45.498371],[-87.723288,45.496927],[-87.724918,45.49452],[-87.726724,45.493537],[-87.729174,45.493296],[-87.733411,45.493765],[-87.735671,45.492465],[-87.737458,45.490623],[-87.738417,45.490961],[-87.741023,45.489481],[-87.741936,45.488006],[-87.744014,45.487055],[-87.74493,45.485627],[-87.74859,45.483449],[-87.758712,45.484231],[-87.75825,45.486923],[-87.759303,45.487118],[-87.76021,45.489628],[-87.75925,45.491532],[-87.756426,45.494433],[-87.757447,45.496218],[-87.759747,45.497233],[-87.75852,45.498507],[-87.757584,45.500165],[-87.755075,45.502082],[-87.753621,45.502205],[-87.752718,45.503966],[-87.746544,45.503468],[-87.746823,45.50453],[-87.743816,45.508275],[-87.738764,45.510132],[-87.737431,45.511795],[-87.733679,45.514484],[-87.74727,45.51476],[-87.762914,45.514386],[-87.774287,45.513584],[-87.773972,45.510759],[-87.776298,45.507745],[-87.779815,45.505063],[-87.782675,45.501896],[-87.783447,45.501856],[-87.787122,45.505499],[-87.792343,45.508057],[-87.797064,45.510921],[-87.798895,45.512724],[-87.799685,45.514568],[-87.798752,45.517003],[-87.799049,45.522946],[-87.801491,45.523647],[-87.800893,45.521595],[-87.800719,45.516433],[-87.8018350217947,45.512261412414894],[-87.798794,45.506287],[-87.793215,45.505028],[-87.792769,45.499967],[-87.793447,45.498372],[-87.794639,45.497439],[-87.796409,45.494679],[-87.797943,45.494044],[-87.798243,45.493264],[-87.797824,45.491468],[-87.798362,45.486564],[-87.79896,45.485147],[-87.806891,45.479092],[-87.807388,45.477031],[-87.805873,45.47438],[-87.805773,45.473139],[-87.811469,45.467991],[-87.812971,45.4661],[-87.812976,45.464159],[-87.815551,45.462795],[-87.820264,45.462314],[-87.820407,45.461271],[-87.819834,45.460591],[-87.821057,45.459955],[-87.824661,45.459137],[-87.825509,45.458026],[-87.82743,45.458076],[-87.829134,45.457925],[-87.831217,45.457185],[-87.832694,45.455922],[-87.832456,45.45502],[-87.833042,45.453596],[-87.8347573151717,45.452023531371594]],[[-87.449802,45.492916],[-87.449797,45.491994],[-87.449819,45.487155],[-87.453967,45.485661],[-87.453774,45.488743],[-87.453917,45.492878],[-87.45001,45.492898],[-87.449802,45.492916]]]}},{"type":"Feature","properties":{"zcta5":"49807","AFFGEOID10":"8600000US49807","GEOID10":"49807","ALAND10":543130330,"AWATER10":31534579,"county_name":"Menominee","state_code":"MI","county_state":"Menominee County, MI","county_fips":"26109","risk_level_county":"Medium Risk (70–79% vaccinated)","mean_vaccination_rate_county":73.37,"risk_level_zcta":"Higher Risk (60–69% vaccinated)","mean_vaccination_rate_zips":64.57,"cases":29},"geometry":{"type":"MultiPolygon","coordinates":[[[[-87.367935,45.92505],[-87.36973,45.925437],[-87.373822,45.922714],[-87.37664,45.924452],[-87.380015,45.923951],[-87.382044,45.925164],[-87.385058,45.925234],[-87.385155,45.92672],[-87.388004,45.927794],[-87.398816,45.924964],[-87.401961,45.925765],[-87.405138,45.925126],[-87.407497,45.925675],[-87.410936,45.925745],[-87.413851,45.924122],[-87.417062,45.923094],[-87.420076,45.921334],[-87.422139,45.922317],[-87.422466,45.924969],[-87.423711,45.92641],[-87.427347,45.92705],[-87.426822,45.928422],[-87.427575,45.930068],[-87.42728,45.931691],[-87.424561,45.932056],[-87.423873,45.933039],[-87.425478,45.936446],[-87.426723,45.935966],[-87.429016,45.937681],[-87.427018,45.939235],[-87.429901,45.939967],[-87.43203,45.939487],[-87.436552,45.937018],[-87.440844,45.938138],[-87.444121,45.940012],[-87.445268,45.942023],[-87.450314,45.942869],[-87.451952,45.941863],[-87.455065,45.941702],[-87.455917,45.942319],[-87.460176,45.940535],[-87.464927,45.939208],[-87.468926,45.942133],[-87.468402,45.943665],[-87.471548,45.944076],[-87.474433,45.945584],[-87.476989,45.94588],[-87.48115,45.944941],[-87.4841,45.946175],[-87.48882,45.946721],[-87.492655,45.947565],[-87.4927,45.898668],[-87.448965,45.898549],[-87.448913,45.872519],[-87.448744,45.86897],[-87.428269,45.868878],[-87.428533,45.898291],[-87.420751,45.894023],[-87.420465,45.892768],[-87.421502,45.889598],[-87.424182,45.885493],[-87.426291,45.884217],[-87.427789,45.880409],[-87.427931,45.876905],[-87.418107,45.876897],[-87.418046,45.869329],[-87.427886,45.868883],[-87.427849,45.867627],[-87.426343,45.865675],[-87.423169,45.866201],[-87.418588,45.865926],[-87.41872,45.863274],[-87.420356,45.862405],[-87.420979,45.85724],[-87.420096,45.856051],[-87.41918,45.855296],[-87.413913,45.856324],[-87.413161,45.854084],[-87.409301,45.853374],[-87.400534,45.852228],[-87.398701,45.854377],[-87.396771,45.853828],[-87.391969,45.853349],[-87.385777,45.851822],[-87.38205,45.849872],[-87.378942,45.849342],[-87.375869,45.847461],[-87.373401,45.843134],[-87.37398,45.834365],[-87.374564,45.831938],[-87.372307,45.831205],[-87.370506,45.829625],[-87.364652,45.828548],[-87.362134,45.828637],[-87.358568,45.825844],[-87.357252,45.81877],[-87.361728,45.816363],[-87.363591,45.816679],[-87.366724,45.810747],[-87.36916,45.809522],[-87.372886,45.812244],[-87.387107,45.821973],[-87.403219,45.833145],[-87.406473,45.835049],[-87.41035,45.829268],[-87.409761,45.827057],[-87.409244,45.821347],[-87.421332,45.8137],[-87.418947,45.81165],[-87.428727,45.811464],[-87.431365,45.809615],[-87.433499,45.806527],[-87.434594,45.806429],[-87.439612,45.807727],[-87.445922,45.806138],[-87.448245,45.806378],[-87.448805,45.773974],[-87.44277,45.777057],[-87.438764,45.778132],[-87.438787,45.768399],[-87.407627,45.768477],[-87.403314,45.769339],[-87.395814,45.768566],[-87.380791,45.76866],[-87.382901,45.766011],[-87.383093,45.76474],[-87.388967,45.757264],[-87.388401,45.754781],[-87.389625,45.753969],[-87.392993,45.748744],[-87.39116,45.746399],[-87.391867,45.742787],[-87.390651,45.740179],[-87.386835,45.739674],[-87.385279,45.738298],[-87.382908,45.738488],[-87.380069,45.740061],[-87.376407,45.742736],[-87.374821,45.746863],[-87.374365,45.750044],[-87.372002,45.753001],[-87.368014,45.755285],[-87.365642,45.753475],[-87.362597,45.75339],[-87.361298,45.754353],[-87.354775,45.75441],[-87.356142,45.710246],[-87.325964,45.709894],[-87.325863,45.709308],[-87.325957,45.704033],[-87.330216,45.703866],[-87.330251,45.699652],[-87.333698,45.699674],[-87.33394,45.694211],[-87.330043,45.6942],[-87.330036,45.690217],[-87.334122,45.690213],[-87.334337,45.681948],[-87.330096,45.6819],[-87.330261,45.677896],[-87.346681,45.677849],[-87.346686,45.673299],[-87.326109,45.673146],[-87.326817,45.602046],[-87.327167,45.567807],[-87.327502,45.55125],[-87.30691,45.550893],[-87.29154,45.55097],[-87.291292,45.548529],[-87.291946,45.547127],[-87.294517,45.547397],[-87.296212,45.547015],[-87.298088,45.542778],[-87.298449,45.538114],[-87.291157,45.537504],[-87.281946,45.537377],[-87.278396,45.540749],[-87.275024,45.538193],[-87.269869,45.537939],[-87.26669357801688,45.539094],[-87.265745,45.540119],[-87.265284,45.544603],[-87.2638603891879,45.550491644055],[-87.263488,45.552032],[-87.260671,45.555323],[-87.260517,45.556969],[-87.256868,45.561849],[-87.25539,45.562611],[-87.253779,45.564716],[-87.252216,45.567703],[-87.248071,45.570019],[-87.243188,45.572541],[-87.241371,45.573772],[-87.239322,45.576127],[-87.237665,45.579694],[-87.237504,45.582232],[-87.235423,45.585319],[-87.234612,45.588817],[-87.227516,45.594354],[-87.223647,45.599338],[-87.221467,45.603682],[-87.217821,45.606701],[-87.215608,45.610496],[-87.213168,45.613903],[-87.211801,45.616053],[-87.209372,45.617609],[-87.207176,45.62042],[-87.207036,45.621782],[-87.205353,45.624056],[-87.202611,45.62572],[-87.200703,45.627224],[-87.20001,45.629165],[-87.197112,45.633692],[-87.196852,45.636275],[-87.197243,45.638218],[-87.196022,45.639618],[-87.193087,45.641289],[-87.189566,45.642484],[-87.186767,45.644166],[-87.186032,45.645626],[-87.185478,45.646998],[-87.183367,45.647885],[-87.179904,45.648232],[-87.177124,45.647305],[-87.1742,45.646426],[-87.170825,45.64473],[-87.169518,45.643234],[-87.168237,45.641555],[-87.168106,45.642973],[-87.169399,45.645228],[-87.17237,45.647471],[-87.174866,45.648967],[-87.176612,45.650015],[-87.176495,45.65378],[-87.174512,45.659434],[-87.172241,45.661788],[-87.166338,45.664965],[-87.157835,45.668022],[-87.152479,45.669648],[-87.151109,45.670951],[-87.146672,45.673487],[-87.14266,45.673386],[-87.138973,45.675244],[-87.1376437368051,45.67689824566],[-87.142821,45.677167],[-87.142937,45.678304],[-87.142066,45.685008],[-87.142814,45.686815],[-87.142029,45.689786],[-87.141017,45.690838],[-87.137852,45.691728],[-87.134032,45.691514],[-87.13237,45.693646],[-87.129466,45.694262],[-87.129822,45.696388],[-87.131943,45.697986],[-87.133015,45.700665],[-87.134645,45.702174],[-87.1336,45.704231],[-87.13376,45.707729],[-87.135915,45.706038],[-87.138775,45.705391],[-87.14289,45.705835],[-87.145147,45.706869],[-87.147336,45.705654],[-87.150109,45.705106],[-87.157417,45.707852],[-87.162995,45.711717],[-87.165899,45.712975],[-87.168151,45.712495],[-87.169783,45.710735],[-87.171545,45.710804],[-87.170696,45.713867],[-87.174938,45.716108],[-87.180225,45.716749],[-87.182346,45.718578],[-87.187078,45.718143],[-87.193802,45.721161],[-87.194781,45.72363],[-87.194455,45.724956],[-87.196479,45.725002],[-87.197589,45.726488],[-87.197589,45.728202],[-87.196577,45.729757],[-87.193168,45.730959],[-87.197311,45.732097],[-87.197834,45.734018],[-87.202465,45.73324],[-87.202491,45.738788],[-87.24116,45.738944],[-87.241176,45.740514],[-87.246155,45.757722],[-87.262086,45.756485],[-87.264257,45.755816],[-87.264227,45.753858],[-87.264696,45.764833],[-87.264521,45.768489],[-87.264666,45.792383],[-87.263425,45.792548],[-87.26461,45.801348],[-87.264428,45.811693],[-87.253653,45.811767],[-87.254436,45.812575],[-87.254008,45.825993],[-87.264212,45.826214],[-87.264096,45.833434],[-87.262092,45.835082],[-87.258175,45.833527],[-87.258522,45.831997],[-87.255665,45.835166],[-87.253195,45.834026],[-87.251,45.835077],[-87.250673,45.836939],[-87.252772,45.83997],[-87.257341,45.842304],[-87.255439,45.843084],[-87.258492,45.844797],[-87.261885,45.847449],[-87.26701,45.846929],[-87.269441,45.844935],[-87.274748,45.844512],[-87.28084,45.84342],[-87.282453,45.843672],[-87.283385,45.847353],[-87.281545,45.851254],[-87.284293,45.854918],[-87.290601,45.855198],[-87.29244,45.855777],[-87.299191,45.855688],[-87.299843,45.854946],[-87.299153,45.851629],[-87.300963,45.85194],[-87.303877,45.853414],[-87.307419,45.853982],[-87.310803,45.852624],[-87.314077,45.852903],[-87.315553,45.85416],[-87.323196,45.850888],[-87.325371,45.851362],[-87.325391,45.898665],[-87.367673,45.898969],[-87.367935,45.92505]]],[[[-87.690432,46.001306],[-87.689674,45.999851],[-87.693021,45.997454],[-87.695242,45.99419],[-87.700237,45.993215],[-87.702342,45.992166],[-87.705644,45.991427],[-87.71191,45.98838],[-87.720539,45.988667],[-87.720669,45.970612],[-87.719932,45.96979],[-87.720697,45.967372],[-87.71986,45.966555],[-87.722551,45.964418],[-87.725482,45.963175],[-87.724558,45.961591],[-87.718462,45.965095],[-87.71196,45.966252],[-87.710118,45.966262],[-87.706384,45.965247],[-87.725895,45.943763],[-87.725944,45.942275],[-87.721001,45.942289],[-87.720711,45.941147],[-87.71846,45.938628],[-87.715952,45.93811],[-87.716368,45.935582],[-87.715527,45.934968],[-87.711355,45.934573],[-87.709948,45.93322],[-87.706343,45.932514],[-87.702546,45.933038],[-87.699545,45.931692],[-87.697764,45.92917],[-87.694295,45.926912],[-87.693274,45.924248],[-87.693883,45.921974],[-87.69345,45.918165],[-87.689472,45.915583],[-87.687985,45.912828],[-87.686955,45.909575],[-87.684959,45.907202],[-87.683222,45.90734],[-87.681278,45.906409],[-87.681561,45.905294],[-87.683251,45.904271],[-87.687879,45.902667],[-87.688398,45.900633],[-87.691297,45.900506],[-87.693291,45.898829],[-87.649443,45.898927],[-87.648971,45.901203],[-87.644396,45.904261],[-87.6452,45.906266],[-87.640168,45.908243],[-87.638475,45.910268],[-87.640236,45.913928],[-87.643968,45.915068],[-87.643763,45.916769],[-87.64203,45.91766],[-87.641759,45.919427],[-87.643903,45.919273],[-87.642462,45.920599],[-87.64232,45.924201],[-87.644423,45.925582],[-87.642833,45.927098],[-87.642239,45.929613],[-87.640646,45.931624],[-87.638006,45.93207],[-87.637763,45.949157],[-87.635045,45.949678],[-87.629256,45.949938],[-87.624477,45.951316],[-87.623255,45.952189],[-87.620804,45.952015],[-87.620253,45.953541],[-87.617155,45.954022],[-87.617091,45.986014],[-87.617087,46.043676],[-87.621194,46.043963],[-87.625295,46.043823],[-87.632431,46.04868],[-87.63605,46.049307],[-87.637277,46.051639],[-87.641201,46.052089],[-87.64389,46.053004],[-87.645899,46.052911],[-87.652656,46.055782],[-87.654886,46.056197],[-87.655639,46.05596],[-87.65618,46.053899],[-87.657827,46.053263],[-87.658432,46.050943],[-87.660517,46.049767],[-87.662348,46.045908],[-87.661109,46.044585],[-87.661422,46.041844],[-87.662179,46.041238],[-87.666704,46.039634],[-87.670305,46.037678],[-87.674159,46.03705],[-87.675608,46.036364],[-87.676103,46.034922],[-87.678182,46.034124],[-87.683055,46.031134],[-87.683819,46.0298],[-87.68615,46.027774],[-87.687473,46.027477],[-87.689355,46.025995],[-87.690029,46.021701],[-87.687865,46.019189],[-87.690141,46.017586],[-87.691022,46.011623],[-87.691132,46.008252],[-87.693889,46.007662],[-87.69724,46.006175],[-87.697325,46.005284],[-87.69556,46.002919],[-87.694203,46.002182],[-87.690432,46.001306]]]]}},{"type":"Feature","properties":{"zcta5":"49892","AFFGEOID10":"8600000US49892","GEOID10":"49892","ALAND10":421827369,"AWATER10":8958939,"county_name":"Menominee","state_code":"MI","county_state":"Menominee County, MI","county_fips":"26109","risk_level_county":"Medium Risk (70–79% vaccinated)","mean_vaccination_rate_county":73.37,"risk_level_zcta":"Medium Risk (70–79% vaccinated)","mean_vaccination_rate_zips":71.97,"cases":29},"geometry":{"type":"Polygon","coordinates":[[[-87.951373,45.907502],[-87.951312,45.898929],[-87.944682,45.898927],[-87.944148,45.898467],[-87.944495,45.869048],[-87.944325,45.867687],[-87.939364,45.865481],[-87.937716,45.865517],[-87.936542,45.866773],[-87.930628,45.866967],[-87.928512,45.86942],[-87.928768,45.871421],[-87.927664,45.873383],[-87.92487,45.874554],[-87.921975,45.877247],[-87.921426,45.879696],[-87.91839,45.882366],[-87.915735,45.882497],[-87.914698,45.881106],[-87.911406,45.880217],[-87.910795,45.878924],[-87.907803,45.878119],[-87.905586,45.878767],[-87.903905,45.876756],[-87.902221,45.877301],[-87.898765,45.876135],[-87.895931,45.877965],[-87.890653,45.878457],[-87.885884,45.877725],[-87.885256,45.879055],[-87.883492,45.87981],[-87.882903,45.881637],[-87.881578,45.881956],[-87.880157,45.883791],[-87.877734,45.884322],[-87.880482,45.888219],[-87.881203,45.890956],[-87.879188,45.894679],[-87.877159,45.894979],[-87.873189,45.896882],[-87.875028,45.901105],[-87.873582,45.902863],[-87.873258,45.904897],[-87.86442,45.905961],[-87.860634,45.906217],[-87.857745,45.906984],[-87.85579,45.906143],[-87.85136,45.905826],[-87.848124,45.906453],[-87.846762,45.90613],[-87.847616,45.904786],[-87.846595,45.902729],[-87.847048,45.901711],[-87.849525,45.900049],[-87.850787,45.897769],[-87.8502,45.896364],[-87.851058,45.893742],[-87.849777,45.892536],[-87.852294,45.890313],[-87.85333,45.88774],[-87.85273,45.884534],[-87.849273,45.880482],[-87.851575,45.875921],[-87.853583,45.874991],[-87.854127,45.873809],[-87.850919,45.872178],[-87.851455,45.871291],[-87.850188,45.869308],[-87.850927,45.868388],[-87.848981,45.866786],[-87.84861,45.865391],[-87.846061,45.863113],[-87.84348,45.862259],[-87.843237,45.860216],[-87.846057,45.857199],[-87.845472,45.855592],[-87.847359,45.853665],[-87.844504,45.850019],[-87.844727,45.848982],[-87.842531,45.846545],[-87.842358,45.844474],[-87.843346,45.844021],[-87.843045,45.839887],[-87.846991,45.839049],[-87.845977,45.83673],[-87.846379,45.833299],[-87.845915,45.830422],[-87.846792,45.829443],[-87.846742,45.826736],[-87.850097,45.825525],[-87.850708,45.824632],[-87.854466,45.822971],[-87.854762,45.822134],[-87.858045,45.823996],[-87.861724,45.824254],[-87.864708,45.82527],[-87.866011,45.824877],[-87.867477,45.822231],[-87.870305,45.821035],[-87.872386,45.817521],[-87.874429,45.817004],[-87.876171,45.815711],[-87.876307,45.817543],[-87.877877,45.817899],[-87.880063,45.82015],[-87.882674,45.820323],[-87.883059,45.795543],[-87.884558,45.795138],[-87.886749,45.793091],[-87.886725,45.790077],[-87.886104,45.789336],[-87.883086,45.788621],[-87.883109,45.786662],[-87.883115,45.783745],[-87.883129,45.780354],[-87.886797,45.780348],[-87.891904,45.779581],[-87.893537,45.778366],[-87.892739,45.775124],[-87.889046,45.773853],[-87.897899,45.762959],[-87.896283,45.760926],[-87.893634,45.760244],[-87.893026,45.759236],[-87.894033,45.760118],[-87.900047,45.761709],[-87.903043,45.761858],[-87.9057305692367,45.759340456757094],[-87.904657,45.759163],[-87.902707,45.757932],[-87.901299,45.756553],[-87.900005,45.753497],[-87.898363,45.752503],[-87.896032,45.752285],[-87.891905,45.754055],[-87.885675,45.753957],[-87.882261,45.754779],[-87.879812,45.754843],[-87.877583,45.754488],[-87.875813,45.753888],[-87.874436,45.751551],[-87.873339,45.750439],[-87.868111,45.749477],[-87.865992,45.746537],[-87.864141,45.745697],[-87.862211,45.745018],[-87.861783,45.744359],[-87.86195,45.743367],[-87.86305,45.74309],[-87.863874,45.74266],[-87.863514,45.741573],[-87.86432,45.737139],[-87.85548,45.726943],[-87.853337,45.725974],[-87.850429,45.725266],[-87.8465664373957,45.72252603538549],[-87.843317,45.720221],[-87.837343,45.716919],[-87.831442,45.714938],[-87.827919,45.714699],[-87.825982,45.714199],[-87.82418,45.712655],[-87.822421,45.712701],[-87.817168,45.712222],[-87.812338,45.711303],[-87.810144,45.71023],[-87.805867,45.706841],[-87.805081,45.704974],[-87.805076,45.703556],[-87.809181,45.700337],[-87.809075,45.699717],[-87.806007,45.697437],[-87.804993,45.695796],[-87.80188,45.693862],[-87.787727,45.68718],[-87.78473,45.685262],[-87.782226,45.683053],[-87.780808,45.680349],[-87.780737,45.675458],[-87.781007,45.673934],[-87.781623,45.67328],[-87.788024,45.672095],[-87.795355,45.671334],[-87.798903,45.67014],[-87.801312,45.667749],[-87.80329,45.666494],[-87.806624,45.66565],[-87.81428,45.665127],[-87.816587,45.663898],[-87.819901,45.663054],[-87.823164,45.662732],[-87.823868,45.66192],[-87.822731,45.661408],[-87.822512,45.660697],[-87.823672,45.659817],[-87.822425,45.658012],[-87.822693,45.656077],[-87.824676,45.653211],[-87.824102,45.647138],[-87.821818,45.645589],[-87.817277,45.643926],[-87.810194,45.638732],[-87.804481,45.628933],[-87.799617,45.625837],[-87.7993811581073,45.6256378685006],[-87.796983,45.623613],[-87.796179,45.622074],[-87.79588,45.618846],[-87.793984,45.617576],[-87.792016,45.616756],[-87.782906,45.61529],[-87.780845,45.614599],[-87.779243,45.610908],[-87.777671,45.609204],[-87.777618,45.608568],[-87.778415,45.607782],[-87.777566,45.604011],[-87.775709,45.602824],[-87.774682,45.602024],[-87.775855,45.600009],[-87.776238,45.597797],[-87.777494,45.593835],[-87.777199,45.588499],[-87.775578,45.588317],[-87.773606,45.592784],[-87.773128,45.595228],[-87.774042,45.600094],[-87.77302,45.602097],[-87.772503,45.611106],[-87.772994,45.611982],[-87.777499,45.612878],[-87.779288,45.614111],[-87.780189,45.615996],[-87.781336,45.622398],[-87.781509,45.626891],[-87.778516,45.629024],[-87.777867,45.631043],[-87.774643,45.634099],[-87.775568,45.636313],[-87.772538,45.636332],[-87.771216,45.634835],[-87.768892,45.634427],[-87.76586,45.635569],[-87.76106,45.636432],[-87.748462,45.6364],[-87.74894,45.635301],[-87.751006,45.634222],[-87.751335,45.632378],[-87.75409,45.62917],[-87.754181,45.627755],[-87.7528,45.626512],[-87.751081,45.626535],[-87.748174,45.625212],[-87.748595,45.621711],[-87.747081,45.619643],[-87.744786,45.619142],[-87.742925,45.614434],[-87.739835,45.613474],[-87.738154,45.608833],[-87.738895,45.607042],[-87.74162,45.605785],[-87.742608,45.603836],[-87.741766,45.603153],[-87.742903,45.601293],[-87.744526,45.600167],[-87.744734,45.598486],[-87.741776,45.595926],[-87.742815,45.59398],[-87.733942,45.594188],[-87.734473,45.595451],[-87.732652,45.595892],[-87.732778,45.599066],[-87.72842,45.601278],[-87.725819,45.600781],[-87.724787,45.605941],[-87.723317,45.606695],[-87.722322,45.611747],[-87.719968,45.613587],[-87.71694,45.613097],[-87.711313,45.613857],[-87.705907,45.616311],[-87.703802,45.619442],[-87.699287,45.622725],[-87.696373,45.625982],[-87.694085,45.626446],[-87.692997,45.630808],[-87.690195,45.632934],[-87.693616,45.635243],[-87.694149,45.636415],[-87.697361,45.636331],[-87.697339,45.708468],[-87.731935,45.708223],[-87.732412,45.709427],[-87.730484,45.710652],[-87.730718,45.714031],[-87.72915,45.71569],[-87.725381,45.716644],[-87.722192,45.715983],[-87.718882,45.719022],[-87.715959,45.720833],[-87.716297,45.721914],[-87.714945,45.722876],[-87.697159,45.72296],[-87.697198,45.742434],[-87.671276,45.737848],[-87.666524,45.73778],[-87.666192,45.741386],[-87.668108,45.743294],[-87.672441,45.746717],[-87.672961,45.748456],[-87.675306,45.749931],[-87.676205,45.751539],[-87.674691,45.754848],[-87.672255,45.755945],[-87.671619,45.757043],[-87.668358,45.759708],[-87.665755,45.759459],[-87.662852,45.760657],[-87.66237,45.762986],[-87.660307,45.765781],[-87.658323,45.766815],[-87.658386,45.768072],[-87.655685,45.76903],[-87.654099,45.770622],[-87.653673,45.772112],[-87.655061,45.772572],[-87.654281,45.774641],[-87.654341,45.776672],[-87.649879,45.779465],[-87.649264,45.78073],[-87.651999,45.781873],[-87.652902,45.783471],[-87.652193,45.785953],[-87.650609,45.788605],[-87.649541,45.789435],[-87.649687,45.792193],[-87.64859,45.794523],[-87.65213,45.794839],[-87.654701,45.793643],[-87.658918,45.792653],[-87.662006,45.792577],[-87.659314,45.795927],[-87.657252,45.801316],[-87.656184,45.802254],[-87.656215,45.806118],[-87.657064,45.806872],[-87.660236,45.805181],[-87.664092,45.806554],[-87.666806,45.804954],[-87.66929,45.804909],[-87.672232,45.803926],[-87.674095,45.803926],[-87.674259,45.802189],[-87.676481,45.801252],[-87.677135,45.800018],[-87.676809,45.796177],[-87.679161,45.796086],[-87.680305,45.794783],[-87.685403,45.796109],[-87.689031,45.79444],[-87.69305,45.794371],[-87.694423,45.795285],[-87.6978,45.795866],[-87.696885,45.886697],[-87.701855,45.886961],[-87.703446,45.888254],[-87.7056,45.888598],[-87.707452,45.888261],[-87.709196,45.885478],[-87.707651,45.884283],[-87.708149,45.883533],[-87.711905,45.883061],[-87.717178,45.881674],[-87.71888,45.880709],[-87.721201,45.881763],[-87.723044,45.881758],[-87.72521,45.880205],[-87.727869,45.880658],[-87.726024,45.881506],[-87.726934,45.882543],[-87.728353,45.882746],[-87.729109,45.880846],[-87.731787,45.8792],[-87.734887,45.878598],[-87.736182,45.879481],[-87.734597,45.880469],[-87.738079,45.881232],[-87.740628,45.879893],[-87.74074,45.881218],[-87.747119,45.882821],[-87.749442,45.880782],[-87.751619,45.881353],[-87.74977,45.882663],[-87.750826,45.883859],[-87.751771,45.882868],[-87.75633,45.881249],[-87.756521,45.880061],[-87.760009,45.880212],[-87.763898,45.884712],[-87.766398,45.890677],[-87.766949,45.89459],[-87.766586,45.896617],[-87.765227,45.897678],[-87.761422,45.899186],[-87.759443,45.901282],[-87.757937,45.907886],[-87.756562,45.910311],[-87.757772,45.913418],[-87.762132,45.91338],[-87.764161,45.912092],[-87.770105,45.911539],[-87.771485,45.912461],[-87.77406,45.912456],[-87.775023,45.913285],[-87.778291,45.912822],[-87.780341,45.914022],[-87.782149,45.912295],[-87.785019,45.913214],[-87.785714,45.91473],[-87.787512,45.915563],[-87.787946,45.916968],[-87.789527,45.918024],[-87.786861,45.919102],[-87.790391,45.920159],[-87.7923,45.922015],[-87.795064,45.923072],[-87.796558,45.922616],[-87.797913,45.924369],[-87.797297,45.925102],[-87.798345,45.927516],[-87.797753,45.928977],[-87.792796,45.934744],[-87.78929,45.941005],[-87.787915,45.942067],[-87.867017,45.942238],[-87.866942,45.927018],[-87.871157,45.926388],[-87.874356,45.926824],[-87.876906,45.926558],[-87.879074,45.928309],[-87.883736,45.928787],[-87.884203,45.929665],[-87.889121,45.931482],[-87.890529,45.932426],[-87.892786,45.932669],[-87.898017,45.93446],[-87.905673,45.935958],[-87.908521,45.937351],[-87.910339,45.94056],[-87.91312,45.939637],[-87.915594,45.939565],[-87.91833,45.940924],[-87.921673,45.941347],[-87.925671,45.940722],[-87.928566,45.941819],[-87.930175,45.940841],[-87.928751,45.939352],[-87.927806,45.936736],[-87.92556,45.934594],[-87.928157,45.932163],[-87.929848,45.931348],[-87.936043,45.930081],[-87.938905,45.930636],[-87.940878,45.931835],[-87.940365,45.933563],[-87.943106,45.933466],[-87.947894,45.928998],[-87.949723,45.928227],[-87.949772,45.926569],[-87.948299,45.925328],[-87.947622,45.92276],[-87.947723,45.920562],[-87.946515,45.918997],[-87.947541,45.918484],[-87.949195,45.915671],[-87.949592,45.913586],[-87.94598,45.912545],[-87.946093,45.911267],[-87.94465,45.910119],[-87.942117,45.909471],[-87.94756,45.906467],[-87.951373,45.907502]],[[-87.8236,45.786433],[-87.823147,45.788128],[-87.816698,45.790169],[-87.813055,45.787991],[-87.81242,45.786686],[-87.815714,45.78394],[-87.816021,45.782341],[-87.81378,45.781512],[-87.815988,45.78164],[-87.815333,45.778701],[-87.81505,45.776847],[-87.820746,45.777336],[-87.821046,45.785456],[-87.8236,45.786433]]]}},{"type":"Feature","properties":{"zcta5":"49812","AFFGEOID10":"8600000US49812","GEOID10":"49812","ALAND10":184733924,"AWATER10":69400,"county_name":"Menominee","state_code":"MI","county_state":"Menominee County, MI","county_fips":"26109","risk_level_county":"Medium Risk (70–79% vaccinated)","mean_vaccination_rate_county":73.37,"risk_level_zcta":"Higher Risk (60–69% vaccinated)","mean_vaccination_rate_zips":64.52,"cases":29},"geometry":{"type":"Polygon","coordinates":[[[-87.634919,45.637134],[-87.634686,45.624292],[-87.635477,45.596712],[-87.633158,45.597525],[-87.63148,45.597019],[-87.629254,45.599839],[-87.627822,45.599977],[-87.627915,45.59689],[-87.62637,45.596926],[-87.624064,45.595608],[-87.628059,45.591141],[-87.626927,45.588556],[-87.627873,45.587056],[-87.626653,45.585661],[-87.629358,45.583612],[-87.632974,45.58191],[-87.633074,45.579844],[-87.634959,45.579827],[-87.635275,45.575612],[-87.635163,45.565463],[-87.629178,45.565534],[-87.627175,45.563174],[-87.625876,45.560504],[-87.622684,45.560284],[-87.620001,45.55705],[-87.619874,45.55602],[-87.616821,45.554273],[-87.613297,45.555513],[-87.614076,45.554106],[-87.6123,45.553383],[-87.611218,45.554679],[-87.609532,45.554605],[-87.606842,45.55802],[-87.603334,45.558555],[-87.599161,45.558134],[-87.597096,45.55891],[-87.595352,45.558561],[-87.593533,45.559492],[-87.592955,45.561192],[-87.590511,45.561679],[-87.588359,45.560438],[-87.586132,45.561421],[-87.581279,45.56126],[-87.578992,45.561538],[-87.57561,45.556003],[-87.566236,45.569687],[-87.563761,45.572382],[-87.558017,45.572313],[-87.559282,45.569255],[-87.561886,45.566003],[-87.556081,45.565907],[-87.557148,45.564907],[-87.5572,45.562983],[-87.556029,45.561568],[-87.553082,45.562311],[-87.553176,45.551696],[-87.532469,45.55201],[-87.532407,45.55858],[-87.527233,45.558971],[-87.527057,45.572979],[-87.521818,45.572974],[-87.509625,45.544184],[-87.465157,45.551626],[-87.46476,45.554856],[-87.465475,45.557459],[-87.464921,45.559146],[-87.467369,45.558974],[-87.468626,45.559784],[-87.470071,45.562612],[-87.467592,45.559852],[-87.4609,45.561409],[-87.457847,45.562416],[-87.454212,45.564955],[-87.44971,45.567093],[-87.449665,45.550863],[-87.382098,45.551025],[-87.364363,45.551102],[-87.349223,45.550487],[-87.344982,45.552927],[-87.342424,45.5561],[-87.340204,45.556878],[-87.337452,45.559782],[-87.334919,45.560797],[-87.33255,45.562433],[-87.329492,45.563413],[-87.327167,45.567807],[-87.326817,45.602046],[-87.333647,45.599046],[-87.339494,45.597716],[-87.341704,45.592549],[-87.341964,45.590857],[-87.34333,45.588593],[-87.345119,45.584249],[-87.346973,45.581756],[-87.350683,45.579194],[-87.35358,45.579102],[-87.355567,45.580724],[-87.357488,45.580929],[-87.362141,45.579144],[-87.363771,45.580492],[-87.368167,45.581273],[-87.368147,45.589025],[-87.374496,45.587194],[-87.374617,45.589852],[-87.373855,45.590583],[-87.373868,45.593461],[-87.377609,45.593942],[-87.380155,45.594902],[-87.381168,45.596045],[-87.382221,45.600455],[-87.38024,45.602145],[-87.381419,45.604659],[-87.383999,45.605824],[-87.388607,45.603835],[-87.388802,45.601977],[-87.424455,45.601958],[-87.424282,45.615062],[-87.425357,45.615841],[-87.428839,45.6161],[-87.429404,45.616977],[-87.429352,45.622545],[-87.430307,45.623094],[-87.439581,45.622995],[-87.439635,45.637667],[-87.449196,45.637478],[-87.449329,45.647539],[-87.451458,45.648962],[-87.451248,45.65061],[-87.455529,45.649421],[-87.460072,45.650383],[-87.462534,45.649104],[-87.462037,45.648075],[-87.463625,45.647664],[-87.461748,45.644717],[-87.526542,45.644278],[-87.524191,45.651557],[-87.528375,45.651522],[-87.532556,45.646168],[-87.539025,45.637059],[-87.573563,45.636913],[-87.625124,45.63673],[-87.624217,45.639204],[-87.625963,45.639273],[-87.628179,45.638772],[-87.630451,45.637171],[-87.634919,45.637134]],[[-87.56223,45.614851],[-87.561635,45.616095],[-87.557603,45.616087],[-87.554618,45.61583],[-87.555226,45.614828],[-87.55842,45.614717],[-87.56223,45.614851]],[[-87.558042,45.601709],[-87.558058,45.608889],[-87.556022,45.608899],[-87.555109,45.614803],[-87.548743,45.623283],[-87.54782,45.623279],[-87.541014,45.623172],[-87.545192,45.617677],[-87.551799,45.606212],[-87.55296,45.601719],[-87.558042,45.601709]]]}},{"type":"Feature","properties":{"zcta5":"49863","AFFGEOID10":"8600000US49863","GEOID10":"49863","ALAND10":1408928,"AWATER10":0,"county_name":"Menominee","state_code":"MI","county_state":"Menominee County, MI","county_fips":"26109","risk_level_county":"Medium Risk (70–79% vaccinated)","mean_vaccination_rate_county":73.37,"risk_level_zcta":"Medium Risk (70–79% vaccinated)","mean_vaccination_rate_zips":74.47,"cases":29},"geometry":{"type":"MultiPolygon","coordinates":[[[[-87.558042,45.601709],[-87.55296,45.601719],[-87.551799,45.606212],[-87.545192,45.617677],[-87.541014,45.623172],[-87.54782,45.623279],[-87.548743,45.623283],[-87.555109,45.614803],[-87.556022,45.608899],[-87.558058,45.608889],[-87.558042,45.601709]]],[[[-87.56223,45.614851],[-87.55842,45.614717],[-87.555226,45.614828],[-87.554618,45.61583],[-87.557603,45.616087],[-87.561635,45.616095],[-87.56223,45.614851]]]]}},{"type":"Feature","properties":{"zcta5":"49847","AFFGEOID10":"8600000US49847","GEOID10":"49847","ALAND10":153037898,"AWATER10":780300,"county_name":"Menominee","state_code":"MI","county_state":"Menominee County, MI","county_fips":"26109","risk_level_county":"Medium Risk (70–79% vaccinated)","mean_vaccination_rate_county":73.37,"risk_level_zcta":"Higher Risk (60–69% vaccinated)","mean_vaccination_rate_zips":64.74,"cases":29},"geometry":{"type":"Polygon","coordinates":[[[-87.64859,45.794523],[-87.649687,45.792193],[-87.649541,45.789435],[-87.650609,45.788605],[-87.652193,45.785953],[-87.652902,45.783471],[-87.651999,45.781873],[-87.649264,45.78073],[-87.649879,45.779465],[-87.654341,45.776672],[-87.654281,45.774641],[-87.655061,45.772572],[-87.653673,45.772112],[-87.654099,45.770622],[-87.655685,45.76903],[-87.658386,45.768072],[-87.658323,45.766815],[-87.660307,45.765781],[-87.66237,45.762986],[-87.662852,45.760657],[-87.665755,45.759459],[-87.668358,45.759708],[-87.671619,45.757043],[-87.672255,45.755945],[-87.674691,45.754848],[-87.676205,45.751539],[-87.675306,45.749931],[-87.672961,45.748456],[-87.672441,45.746717],[-87.668108,45.743294],[-87.666192,45.741386],[-87.666524,45.73778],[-87.671276,45.737848],[-87.697198,45.742434],[-87.697159,45.72296],[-87.714945,45.722876],[-87.716297,45.721914],[-87.715959,45.720833],[-87.718882,45.719022],[-87.722192,45.715983],[-87.725381,45.716644],[-87.72915,45.71569],[-87.730718,45.714031],[-87.730484,45.710652],[-87.732412,45.709427],[-87.731935,45.708223],[-87.697339,45.708468],[-87.697361,45.636331],[-87.694149,45.636415],[-87.693616,45.635243],[-87.690195,45.632934],[-87.692997,45.630808],[-87.694085,45.626446],[-87.692054,45.62734],[-87.687993,45.626541],[-87.68442,45.629763],[-87.683931,45.632526],[-87.680525,45.63416],[-87.679201,45.636689],[-87.677149,45.636793],[-87.634919,45.637134],[-87.630451,45.637171],[-87.628179,45.638772],[-87.625963,45.639273],[-87.624217,45.639204],[-87.625124,45.63673],[-87.573563,45.636913],[-87.573388,45.680535],[-87.547923,45.680618],[-87.546738,45.68519],[-87.545377,45.685847],[-87.544259,45.687903],[-87.538957,45.690896],[-87.573249,45.702653],[-87.573058,45.718654],[-87.57351,45.781841],[-87.587126,45.783575],[-87.588259,45.783322],[-87.59453,45.779804],[-87.596145,45.779884],[-87.59854,45.778926],[-87.600668,45.778742],[-87.602459,45.77708],[-87.605807,45.777104],[-87.609417,45.777928],[-87.611081,45.777524],[-87.612975,45.776149],[-87.614659,45.775892],[-87.614535,45.786628],[-87.623486,45.788395],[-87.625127,45.788964],[-87.646674,45.794175],[-87.64859,45.794523]]]}},{"type":"Feature","properties":{"zcta5":"49886","AFFGEOID10":"8600000US49886","GEOID10":"49886","ALAND10":40294083,"AWATER10":0,"county_name":"Menominee","state_code":"MI","county_state":"Menominee County, MI","county_fips":"26109","risk_level_county":"Medium Risk (70–79% vaccinated)","mean_vaccination_rate_county":73.37,"risk_level_zcta":"Medium Risk (70–79% vaccinated)","mean_vaccination_rate_zips":74.06,"cases":29},"geometry":{"type":"MultiPolygon","coordinates":[[[[-87.479391,45.759432],[-87.479844,45.733411],[-87.461745,45.742222],[-87.459858,45.74363],[-87.458149,45.746949],[-87.458397,45.750717],[-87.456559,45.753191],[-87.457334,45.755891],[-87.457416,45.760903],[-87.453605,45.767449],[-87.454581,45.768388],[-87.460022,45.768894],[-87.461941,45.766953],[-87.464383,45.766292],[-87.471289,45.769361],[-87.473342,45.76927],[-87.479343,45.765548],[-87.479391,45.759432]]],[[[-87.461036,45.704291],[-87.466065,45.704201],[-87.492767,45.696738],[-87.500516,45.695137],[-87.500536,45.69658],[-87.490168,45.698024],[-87.490298,45.709655],[-87.521461,45.709614],[-87.521301,45.698885],[-87.520757,45.698134],[-87.516183,45.696703],[-87.512765,45.696484],[-87.51198,45.695888],[-87.517003,45.694728],[-87.521396,45.693316],[-87.520501,45.691976],[-87.517068,45.69302],[-87.51655,45.684366],[-87.510611,45.684305],[-87.510982,45.692902],[-87.508661,45.692743],[-87.503523,45.693431],[-87.500532,45.692082],[-87.49846,45.688472],[-87.498164,45.686597],[-87.500494,45.684288],[-87.499007,45.682071],[-87.49943,45.680676],[-87.49734,45.678574],[-87.494276,45.679422],[-87.488111,45.683928],[-87.486476,45.684502],[-87.486506,45.686033],[-87.483826,45.689053],[-87.480821,45.69086],[-87.480555,45.693307],[-87.470948,45.695324],[-87.468471,45.694891],[-87.463551,45.696786],[-87.461508,45.698454],[-87.459942,45.698455],[-87.458149,45.700969],[-87.456094,45.701701],[-87.453753,45.701287],[-87.453712,45.704012],[-87.455887,45.70396],[-87.457639,45.703993],[-87.461036,45.704291]]],[[[-87.57351,45.781841],[-87.573058,45.718654],[-87.542294,45.719479],[-87.542203,45.709681],[-87.533406,45.709649],[-87.532034,45.711324],[-87.531188,45.715],[-87.529256,45.716936],[-87.525566,45.719555],[-87.526545,45.722362],[-87.52562,45.725173],[-87.529383,45.727359],[-87.530692,45.730976],[-87.526191,45.735746],[-87.526438,45.737427],[-87.52822,45.738299],[-87.526863,45.73923],[-87.52722,45.741244],[-87.523362,45.746555],[-87.523033,45.748798],[-87.52463,45.751562],[-87.522507,45.752227],[-87.51924,45.752274],[-87.517639,45.753258],[-87.519335,45.754542],[-87.517764,45.757517],[-87.515705,45.758662],[-87.515769,45.759532],[-87.518119,45.761159],[-87.524422,45.760573],[-87.526737,45.764191],[-87.525787,45.76728],[-87.526076,45.770989],[-87.529343,45.771976],[-87.531529,45.774404],[-87.529501,45.777219],[-87.528787,45.779783],[-87.531198,45.780341],[-87.57351,45.781841]]]]}},{"type":"Feature","properties":{"zcta5":"49858","AFFGEOID10":"8600000US49858","GEOID10":"49858","ALAND10":222280084,"AWATER10":20411997,"county_name":"Menominee","state_code":"MI","county_state":"Menominee County, MI","county_fips":"26109","risk_level_county":"Medium Risk (70–79% vaccinated)","mean_vaccination_rate_county":73.37,"risk_level_zcta":"Medium Risk (70–79% vaccinated)","mean_vaccination_rate_zips":70.51,"cases":29},"geometry":{"type":"Polygon","coordinates":[[[-87.462243,45.360777],[-87.472381,45.360787],[-87.473283,45.30985],[-87.473016,45.303459],[-87.489436,45.303566],[-87.489401,45.301519],[-87.490354,45.289221],[-87.519444,45.289412],[-87.519823,45.265307],[-87.52208,45.261275],[-87.523071,45.260671],[-87.529265,45.260719],[-87.529302,45.25701],[-87.532254,45.255591],[-87.532088,45.252562],[-87.553365,45.252769],[-87.57266,45.253515],[-87.572845,45.260758],[-87.582797,45.260375],[-87.582779,45.253511],[-87.605789,45.253783],[-87.606301,45.255772],[-87.605009,45.255964],[-87.60631,45.257873],[-87.607871,45.258059],[-87.610595,45.256625],[-87.61279,45.2574],[-87.612677,45.258409],[-87.610255,45.259168],[-87.612084,45.260356],[-87.610778,45.261056],[-87.624125,45.260955],[-87.634473,45.261747],[-87.644758,45.261437],[-87.657906,45.261618],[-87.660937,45.257099],[-87.665281,45.252819],[-87.665697,45.249836],[-87.664569,45.245977],[-87.66429,45.224031],[-87.664808,45.222055],[-87.725556,45.186419],[-87.736602,45.18628],[-87.736448,45.183427],[-87.7342,45.178333],[-87.734294,45.174105],[-87.733236,45.172473],[-87.727412,45.170733],[-87.722209,45.169754],[-87.719765,45.16726],[-87.72385899640189,45.1662933714086],[-87.723121,45.165141],[-87.717945,45.161156],[-87.711322,45.158946],[-87.710108,45.159013],[-87.708201,45.157688],[-87.708134,45.156004],[-87.707391,45.154679],[-87.703492,45.152206],[-87.700618,45.151188],[-87.695055,45.150522],[-87.692375,45.149505],[-87.688425,45.147433],[-87.683902,45.144135],[-87.681327,45.141381],[-87.680375,45.139637],[-87.677362,45.136795],[-87.675816,45.135059],[-87.676024,45.134089],[-87.678511,45.131204],[-87.678209,45.130084],[-87.675326,45.127545],[-87.674499,45.126566],[-87.674127,45.123858],[-87.672447,45.121294],[-87.671,45.120069],[-87.667102,45.118109],[-87.661296,45.112566],[-87.661211,45.108279],[-87.659952,45.107512],[-87.657135,45.107568],[-87.654452,45.108332],[-87.651412,45.108558],[-87.648191,45.106368],[-87.645757,45.106124],[-87.638287,45.106551],[-87.6380300322895,45.1064893749265],[-87.6380283869553,45.1064889803484],[-87.634801,45.105715],[-87.631535,45.106224],[-87.629571,45.105324],[-87.628829,45.104039],[-87.62764,45.103328],[-87.621609,45.102399],[-87.614897,45.100064],[-87.593925,45.095167],[-87.592041,45.094252],[-87.59027,45.096406],[-87.60012,45.103011],[-87.610073,45.114141],[-87.610754,45.116885],[-87.61075992486901,45.1170245486203],[-87.61087030750289,45.11962439413939],[-87.610886,45.119994],[-87.612019,45.123377],[-87.611003,45.124984],[-87.609339,45.125622],[-87.607918,45.12608],[-87.608824,45.127428],[-87.60974,45.130819],[-87.60928,45.13232],[-87.608054,45.133555],[-87.607183,45.135522],[-87.605084,45.137077],[-87.602366,45.137535],[-87.601337,45.136919],[-87.599134,45.135822],[-87.598139,45.136165],[-87.597838,45.138175],[-87.595912,45.139161],[-87.596688,45.140441],[-87.598497,45.14114],[-87.599307,45.143001],[-87.600796,45.146842],[-87.599814,45.150474],[-87.597374,45.152307],[-87.59517,45.15253],[-87.592336,45.155395],[-87.590332,45.155647],[-87.586068,45.158644],[-87.587458,45.160335],[-87.588401,45.16114],[-87.588055,45.163291],[-87.585651,45.166394],[-87.578251,45.171105],[-87.576442,45.171448],[-87.573468,45.1717],[-87.568783,45.176776],[-87.567426,45.179996],[-87.5674049458561,45.1800117158126],[-87.563837,45.182675],[-87.563417,45.18407],[-87.557307,45.187499],[-87.554429,45.188208],[-87.552893,45.189546],[-87.548964,45.191591],[-87.54476,45.193351],[-87.541397,45.194265],[-87.539748,45.19415],[-87.537732,45.197124],[-87.536286,45.200756],[-87.5358,45.20302],[-87.53292,45.206334],[-87.52441,45.212116],[-87.520799,45.214264],[-87.517031,45.21847],[-87.514247,45.220092],[-87.512502,45.219931],[-87.511885,45.222332],[-87.512336,45.224252],[-87.499323,45.23849],[-87.495645,45.240901],[-87.492712,45.243827],[-87.48309,45.253934],[-87.477714,45.258512],[-87.475682,45.260522],[-87.474517,45.261094],[-87.472704,45.261369],[-87.470117,45.265119],[-87.468757,45.265943],[-87.46782,45.269258],[-87.467634,45.270817],[-87.465201,45.273351],[-87.460863,45.277491],[-87.456336,45.280429],[-87.442828,45.291211],[-87.438908,45.293405],[-87.436544,45.294046],[-87.436412,45.296187],[-87.436836,45.299693],[-87.437646,45.302651],[-87.437257,45.3055],[-87.432429,45.313045],[-87.431684,45.316383],[-87.427503,45.320818],[-87.426305,45.320749],[-87.423614,45.324042],[-87.421961,45.325939],[-87.42021,45.326693],[-87.414667,45.330145],[-87.413079,45.330487],[-87.410972,45.330464],[-87.409221,45.331264],[-87.407989,45.332887],[-87.408863,45.334762],[-87.409704,45.33723],[-87.410125,45.339814],[-87.409952,45.34234],[-87.408288,45.344327],[-87.405291,45.347175],[-87.403215,45.34834],[-87.399973,45.349322],[-87.398287,45.349185],[-87.397509,45.348453],[-87.395725,45.349527],[-87.393835,45.353286],[-87.393353,45.355333],[-87.393579,45.357917],[-87.394094,45.36265],[-87.394775,45.364492],[-87.393831,45.367245],[-87.392143,45.369394],[-87.3901456729995,45.370447168022196],[-87.388638,45.37193],[-87.389399,45.372679],[-87.394422,45.368572],[-87.395847,45.366599],[-87.399878,45.35824],[-87.40403,45.352946],[-87.431249,45.353036],[-87.431254,45.359297],[-87.432461,45.36033],[-87.462243,45.360777]]]}},{"type":"Feature","properties":{"zcta5":"49874","AFFGEOID10":"8600000US49874","GEOID10":"49874","ALAND10":102445827,"AWATER10":334083,"county_name":"Menominee","state_code":"MI","county_state":"Menominee County, MI","county_fips":"26109","risk_level_county":"Medium Risk (70–79% vaccinated)","mean_vaccination_rate_county":73.37,"risk_level_zcta":"Higher Risk (60–69% vaccinated)","mean_vaccination_rate_zips":69.26,"cases":29},"geometry":{"type":"Polygon","coordinates":[[[-87.573058,45.718654],[-87.573249,45.702653],[-87.538957,45.690896],[-87.544259,45.687903],[-87.545377,45.685847],[-87.546738,45.68519],[-87.547923,45.680618],[-87.573388,45.680535],[-87.573563,45.636913],[-87.539025,45.637059],[-87.532556,45.646168],[-87.528375,45.651522],[-87.524191,45.651557],[-87.526542,45.644278],[-87.461748,45.644717],[-87.463625,45.647664],[-87.462037,45.648075],[-87.462534,45.649104],[-87.460072,45.650383],[-87.455529,45.649421],[-87.451248,45.65061],[-87.451458,45.648962],[-87.449329,45.647539],[-87.449022,45.665853],[-87.447303,45.669604],[-87.447267,45.671135],[-87.448982,45.67277],[-87.448788,45.680917],[-87.449483,45.689963],[-87.44868,45.704184],[-87.453712,45.704012],[-87.453753,45.701287],[-87.456094,45.701701],[-87.458149,45.700969],[-87.459942,45.698455],[-87.461508,45.698454],[-87.463551,45.696786],[-87.468471,45.694891],[-87.470948,45.695324],[-87.480555,45.693307],[-87.480821,45.69086],[-87.483826,45.689053],[-87.486506,45.686033],[-87.486476,45.684502],[-87.488111,45.683928],[-87.494276,45.679422],[-87.49734,45.678574],[-87.49943,45.680676],[-87.499007,45.682071],[-87.500494,45.684288],[-87.498164,45.686597],[-87.49846,45.688472],[-87.500532,45.692082],[-87.503523,45.693431],[-87.508661,45.692743],[-87.510982,45.692902],[-87.510611,45.684305],[-87.51655,45.684366],[-87.517068,45.69302],[-87.520501,45.691976],[-87.521396,45.693316],[-87.517003,45.694728],[-87.51198,45.695888],[-87.512765,45.696484],[-87.516183,45.696703],[-87.520757,45.698134],[-87.521301,45.698885],[-87.521461,45.709614],[-87.490298,45.709655],[-87.490168,45.698024],[-87.500536,45.69658],[-87.500516,45.695137],[-87.492767,45.696738],[-87.466065,45.704201],[-87.461036,45.704291],[-87.458961,45.704787],[-87.45886,45.709674],[-87.459469,45.719236],[-87.459084,45.727923],[-87.456147,45.727946],[-87.453011,45.729799],[-87.451506,45.728153],[-87.452971,45.725226],[-87.448641,45.724598],[-87.448642,45.736137],[-87.444115,45.736157],[-87.444148,45.743007],[-87.438671,45.742993],[-87.438649,45.74672],[-87.433982,45.746707],[-87.433801,45.757182],[-87.437159,45.757194],[-87.432154,45.761961],[-87.430133,45.763245],[-87.429121,45.763521],[-87.404314,45.768357],[-87.400309,45.768797],[-87.382901,45.766011],[-87.380791,45.76866],[-87.395814,45.768566],[-87.403314,45.769339],[-87.407627,45.768477],[-87.438787,45.768399],[-87.438764,45.778132],[-87.44277,45.777057],[-87.448805,45.773974],[-87.453827,45.771232],[-87.457056,45.770413],[-87.469932,45.77051],[-87.47335,45.770852],[-87.479324,45.772384],[-87.479337,45.775159],[-87.490945,45.77502],[-87.495858,45.77635],[-87.504441,45.777628],[-87.516663,45.778737],[-87.520489,45.778862],[-87.528787,45.779783],[-87.529501,45.777219],[-87.531529,45.774404],[-87.529343,45.771976],[-87.526076,45.770989],[-87.525787,45.76728],[-87.526737,45.764191],[-87.524422,45.760573],[-87.518119,45.761159],[-87.515769,45.759532],[-87.515705,45.758662],[-87.517764,45.757517],[-87.519335,45.754542],[-87.517639,45.753258],[-87.51924,45.752274],[-87.522507,45.752227],[-87.52463,45.751562],[-87.523033,45.748798],[-87.523362,45.746555],[-87.52722,45.741244],[-87.526863,45.73923],[-87.52822,45.738299],[-87.526438,45.737427],[-87.526191,45.735746],[-87.530692,45.730976],[-87.529383,45.727359],[-87.52562,45.725173],[-87.526545,45.722362],[-87.525566,45.719555],[-87.529256,45.716936],[-87.531188,45.715],[-87.532034,45.711324],[-87.533406,45.709649],[-87.542203,45.709681],[-87.542294,45.719479],[-87.573058,45.718654]],[[-87.479391,45.759432],[-87.479343,45.765548],[-87.473342,45.76927],[-87.471289,45.769361],[-87.464383,45.766292],[-87.461941,45.766953],[-87.460022,45.768894],[-87.454581,45.768388],[-87.453605,45.767449],[-87.457416,45.760903],[-87.457334,45.755891],[-87.456559,45.753191],[-87.458397,45.750717],[-87.458149,45.746949],[-87.459858,45.74363],[-87.461745,45.742222],[-87.479844,45.733411],[-87.479391,45.759432]]]}},{"type":"Feature","properties":{"zcta5":"49873","AFFGEOID10":"8600000US49873","GEOID10":"49873","ALAND10":435231947,"AWATER10":738048,"county_name":"Menominee","state_code":"MI","county_state":"Menominee County, MI","county_fips":"26109","risk_level_county":"Medium Risk (70–79% vaccinated)","mean_vaccination_rate_county":73.37,"risk_level_zcta":"Medium Risk (70–79% vaccinated)","mean_vaccination_rate_zips":77.14,"cases":29},"geometry":{"type":"Polygon","coordinates":[[[-87.696885,45.886697],[-87.6978,45.795866],[-87.694423,45.795285],[-87.69305,45.794371],[-87.689031,45.79444],[-87.685403,45.796109],[-87.680305,45.794783],[-87.679161,45.796086],[-87.676809,45.796177],[-87.677135,45.800018],[-87.676481,45.801252],[-87.674259,45.802189],[-87.674095,45.803926],[-87.672232,45.803926],[-87.66929,45.804909],[-87.666806,45.804954],[-87.664092,45.806554],[-87.660236,45.805181],[-87.657064,45.806872],[-87.656215,45.806118],[-87.656184,45.802254],[-87.657252,45.801316],[-87.659314,45.795927],[-87.662006,45.792577],[-87.658918,45.792653],[-87.654701,45.793643],[-87.65213,45.794839],[-87.64859,45.794523],[-87.646674,45.794175],[-87.625127,45.788964],[-87.623486,45.788395],[-87.614535,45.786628],[-87.614659,45.775892],[-87.612975,45.776149],[-87.611081,45.777524],[-87.609417,45.777928],[-87.605807,45.777104],[-87.602459,45.77708],[-87.600668,45.778742],[-87.59854,45.778926],[-87.596145,45.779884],[-87.59453,45.779804],[-87.588259,45.783322],[-87.587126,45.783575],[-87.57351,45.781841],[-87.531198,45.780341],[-87.528787,45.779783],[-87.520489,45.778862],[-87.516663,45.778737],[-87.504441,45.777628],[-87.495858,45.77635],[-87.490945,45.77502],[-87.479337,45.775159],[-87.479324,45.772384],[-87.47335,45.770852],[-87.469932,45.77051],[-87.457056,45.770413],[-87.453827,45.771232],[-87.448805,45.773974],[-87.448245,45.806378],[-87.445922,45.806138],[-87.439612,45.807727],[-87.434594,45.806429],[-87.433499,45.806527],[-87.431365,45.809615],[-87.428727,45.811464],[-87.418947,45.81165],[-87.421332,45.8137],[-87.409244,45.821347],[-87.409761,45.827057],[-87.41035,45.829268],[-87.406473,45.835049],[-87.403219,45.833145],[-87.387107,45.821973],[-87.372886,45.812244],[-87.36916,45.809522],[-87.366724,45.810747],[-87.363591,45.816679],[-87.361728,45.816363],[-87.357252,45.81877],[-87.358568,45.825844],[-87.362134,45.828637],[-87.364652,45.828548],[-87.370506,45.829625],[-87.372307,45.831205],[-87.374564,45.831938],[-87.37398,45.834365],[-87.373401,45.843134],[-87.375869,45.847461],[-87.378942,45.849342],[-87.38205,45.849872],[-87.385777,45.851822],[-87.391969,45.853349],[-87.396771,45.853828],[-87.398701,45.854377],[-87.400534,45.852228],[-87.409301,45.853374],[-87.413161,45.854084],[-87.413913,45.856324],[-87.41918,45.855296],[-87.420096,45.856051],[-87.420979,45.85724],[-87.420356,45.862405],[-87.41872,45.863274],[-87.418588,45.865926],[-87.423169,45.866201],[-87.426343,45.865675],[-87.427849,45.867627],[-87.427886,45.868883],[-87.418046,45.869329],[-87.418107,45.876897],[-87.427931,45.876905],[-87.427789,45.880409],[-87.426291,45.884217],[-87.424182,45.885493],[-87.421502,45.889598],[-87.420465,45.892768],[-87.420751,45.894023],[-87.428533,45.898291],[-87.428269,45.868878],[-87.448744,45.86897],[-87.448913,45.872519],[-87.448965,45.898549],[-87.4927,45.898668],[-87.492655,45.947565],[-87.48882,45.946721],[-87.4841,45.946175],[-87.48115,45.944941],[-87.476989,45.94588],[-87.474433,45.945584],[-87.471548,45.944076],[-87.468402,45.943665],[-87.468926,45.942133],[-87.464927,45.939208],[-87.460176,45.940535],[-87.455917,45.942319],[-87.455065,45.941702],[-87.451952,45.941863],[-87.450314,45.942869],[-87.445268,45.942023],[-87.444121,45.940012],[-87.440844,45.938138],[-87.436552,45.937018],[-87.43203,45.939487],[-87.429901,45.939967],[-87.427018,45.939235],[-87.429016,45.937681],[-87.426723,45.935966],[-87.425478,45.936446],[-87.423873,45.933039],[-87.424561,45.932056],[-87.42728,45.931691],[-87.427575,45.930068],[-87.426822,45.928422],[-87.427347,45.92705],[-87.423711,45.92641],[-87.422466,45.924969],[-87.422139,45.922317],[-87.420076,45.921334],[-87.417062,45.923094],[-87.413851,45.924122],[-87.410936,45.925745],[-87.407497,45.925675],[-87.405138,45.925126],[-87.401961,45.925765],[-87.398816,45.924964],[-87.388004,45.927794],[-87.385155,45.92672],[-87.385058,45.925234],[-87.382044,45.925164],[-87.380015,45.923951],[-87.37664,45.924452],[-87.373822,45.922714],[-87.36973,45.925437],[-87.367935,45.92505],[-87.367849,45.985321],[-87.449484,45.985742],[-87.450661,45.98566],[-87.617091,45.986014],[-87.617155,45.954022],[-87.620253,45.953541],[-87.620804,45.952015],[-87.623255,45.952189],[-87.624477,45.951316],[-87.629256,45.949938],[-87.635045,45.949678],[-87.637763,45.949157],[-87.638006,45.93207],[-87.640646,45.931624],[-87.642239,45.929613],[-87.642833,45.927098],[-87.644423,45.925582],[-87.64232,45.924201],[-87.642462,45.920599],[-87.643903,45.919273],[-87.641759,45.919427],[-87.64203,45.91766],[-87.643763,45.916769],[-87.643968,45.915068],[-87.640236,45.913928],[-87.638475,45.910268],[-87.640168,45.908243],[-87.6452,45.906266],[-87.644396,45.904261],[-87.648971,45.901203],[-87.649443,45.898927],[-87.693291,45.898829],[-87.696946,45.898842],[-87.696885,45.886697]]]}},{"type":"Feature","properties":{"zcta5":"49896","AFFGEOID10":"8600000US49896","GEOID10":"49896","ALAND10":152109607,"AWATER10":226558,"county_name":"Menominee","state_code":"MI","county_state":"Menominee County, MI","county_fips":"26109","risk_level_county":"Medium Risk (70–79% vaccinated)","mean_vaccination_rate_county":73.37,"risk_level_zcta":"Medium Risk (70–79% vaccinated)","mean_vaccination_rate_zips":74.19,"cases":29},"geometry":{"type":"Polygon","coordinates":[[[-87.382901,45.766011],[-87.400309,45.768797],[-87.404314,45.768357],[-87.429121,45.763521],[-87.430133,45.763245],[-87.432154,45.761961],[-87.437159,45.757194],[-87.433801,45.757182],[-87.433982,45.746707],[-87.438649,45.74672],[-87.438671,45.742993],[-87.444148,45.743007],[-87.444115,45.736157],[-87.448642,45.736137],[-87.448641,45.724598],[-87.452971,45.725226],[-87.451506,45.728153],[-87.453011,45.729799],[-87.456147,45.727946],[-87.459084,45.727923],[-87.459469,45.719236],[-87.45886,45.709674],[-87.458961,45.704787],[-87.461036,45.704291],[-87.457639,45.703993],[-87.455887,45.70396],[-87.453712,45.704012],[-87.44868,45.704184],[-87.449483,45.689963],[-87.448788,45.680917],[-87.448982,45.67277],[-87.447267,45.671135],[-87.447303,45.669604],[-87.449022,45.665853],[-87.449329,45.647539],[-87.449196,45.637478],[-87.439635,45.637667],[-87.439581,45.622995],[-87.430307,45.623094],[-87.429352,45.622545],[-87.429404,45.616977],[-87.428839,45.6161],[-87.425357,45.615841],[-87.424282,45.615062],[-87.424455,45.601958],[-87.388802,45.601977],[-87.388607,45.603835],[-87.383999,45.605824],[-87.381419,45.604659],[-87.38024,45.602145],[-87.382221,45.600455],[-87.381168,45.596045],[-87.380155,45.594902],[-87.377609,45.593942],[-87.373868,45.593461],[-87.373855,45.590583],[-87.374617,45.589852],[-87.374496,45.587194],[-87.368147,45.589025],[-87.368167,45.581273],[-87.363771,45.580492],[-87.362141,45.579144],[-87.357488,45.580929],[-87.355567,45.580724],[-87.35358,45.579102],[-87.350683,45.579194],[-87.346973,45.581756],[-87.345119,45.584249],[-87.34333,45.588593],[-87.341964,45.590857],[-87.341704,45.592549],[-87.339494,45.597716],[-87.333647,45.599046],[-87.326817,45.602046],[-87.326109,45.673146],[-87.346686,45.673299],[-87.346681,45.677849],[-87.330261,45.677896],[-87.330096,45.6819],[-87.334337,45.681948],[-87.334122,45.690213],[-87.330036,45.690217],[-87.330043,45.6942],[-87.33394,45.694211],[-87.333698,45.699674],[-87.330251,45.699652],[-87.330216,45.703866],[-87.325957,45.704033],[-87.325863,45.709308],[-87.325964,45.709894],[-87.356142,45.710246],[-87.354775,45.75441],[-87.361298,45.754353],[-87.362597,45.75339],[-87.365642,45.753475],[-87.368014,45.755285],[-87.372002,45.753001],[-87.374365,45.750044],[-87.374821,45.746863],[-87.376407,45.742736],[-87.380069,45.740061],[-87.382908,45.738488],[-87.385279,45.738298],[-87.386835,45.739674],[-87.390651,45.740179],[-87.391867,45.742787],[-87.39116,45.746399],[-87.392993,45.748744],[-87.389625,45.753969],[-87.388401,45.754781],[-87.388967,45.757264],[-87.383093,45.76474],[-87.382901,45.766011]]]}},{"type":"Feature","properties":{"zcta5":"49848","AFFGEOID10":"8600000US49848","GEOID10":"49848","ALAND10":11088468,"AWATER10":0,"county_name":"Menominee","state_code":"MI","county_state":"Menominee County, MI","county_fips":"26109","risk_level_county":"Medium Risk (70–79% vaccinated)","mean_vaccination_rate_county":73.37,"risk_level_zcta":"Higher Risk (60–69% vaccinated)","mean_vaccination_rate_zips":67.78,"cases":29},"geometry":{"type":"Polygon","coordinates":[[[-87.610757,45.374716],[-87.610467,45.376838],[-87.610215,45.391417],[-87.670238,45.391077],[-87.67266,45.388849],[-87.672561,45.387256],[-87.656745,45.378799],[-87.653203,45.376776],[-87.648415,45.376816],[-87.646877,45.375958],[-87.646626,45.375473],[-87.646552,45.362249],[-87.641319,45.362244],[-87.641171,45.354198],[-87.642713,45.351265],[-87.641471,45.352677],[-87.637575,45.354178],[-87.636713,45.353904],[-87.635365,45.356549],[-87.63407,45.357035],[-87.632192,45.356063],[-87.630004,45.355766],[-87.629674,45.357369],[-87.627894,45.358098],[-87.62889,45.359343],[-87.627276,45.36025],[-87.62767,45.361304],[-87.629253,45.361283],[-87.629148,45.362354],[-87.626232,45.362796],[-87.624915,45.362126],[-87.623954,45.362738],[-87.62547,45.364435],[-87.625159,45.365409],[-87.622632,45.364524],[-87.620934,45.365825],[-87.622284,45.366308],[-87.619078,45.369685],[-87.620379,45.370242],[-87.619532,45.37268],[-87.61489,45.377021],[-87.612282,45.376899],[-87.612475,45.374388],[-87.610757,45.374716]]]}},{"type":"Feature","properties":{"zcta5":"49893","AFFGEOID10":"8600000US49893","GEOID10":"49893","ALAND10":194414683,"AWATER10":1860159,"county_name":"Menominee","state_code":"MI","county_state":"Menominee County, MI","county_fips":"26109","risk_level_county":"Medium Risk (70–79% vaccinated)","mean_vaccination_rate_county":73.37,"risk_level_zcta":"Higher Risk (60–69% vaccinated)","mean_vaccination_rate_zips":63.81,"cases":29},"geometry":{"type":"Polygon","coordinates":[[[-87.738588208213,45.202850351996695],[-87.739492,45.202126],[-87.74074969081029,45.1999222337363],[-87.741732,45.198201],[-87.741805,45.197051],[-87.741158,45.195147],[-87.739495,45.193666],[-87.739051,45.192396],[-87.739471,45.190497],[-87.737494,45.18611],[-87.737686,45.183771],[-87.736506,45.181457],[-87.73521,45.177642],[-87.736509,45.173389],[-87.736104,45.172244],[-87.735135,45.171538],[-87.730866,45.170913],[-87.727768,45.169596],[-87.724601,45.167452],[-87.72385899640189,45.1662933714086],[-87.719765,45.16726],[-87.722209,45.169754],[-87.727412,45.170733],[-87.733236,45.172473],[-87.734294,45.174105],[-87.7342,45.178333],[-87.736448,45.183427],[-87.736602,45.18628],[-87.725556,45.186419],[-87.664808,45.222055],[-87.66429,45.224031],[-87.664569,45.245977],[-87.665697,45.249836],[-87.665281,45.252819],[-87.660937,45.257099],[-87.657906,45.261618],[-87.644758,45.261437],[-87.634473,45.261747],[-87.624125,45.260955],[-87.610778,45.261056],[-87.612084,45.260356],[-87.610255,45.259168],[-87.612677,45.258409],[-87.61279,45.2574],[-87.610595,45.256625],[-87.607871,45.258059],[-87.60631,45.257873],[-87.605009,45.255964],[-87.606301,45.255772],[-87.605789,45.253783],[-87.582779,45.253511],[-87.582797,45.260375],[-87.572845,45.260758],[-87.57266,45.253515],[-87.553365,45.252769],[-87.532088,45.252562],[-87.532254,45.255591],[-87.529302,45.25701],[-87.529265,45.260719],[-87.523071,45.260671],[-87.52208,45.261275],[-87.519823,45.265307],[-87.519444,45.289412],[-87.490354,45.289221],[-87.489401,45.301519],[-87.489436,45.303566],[-87.473016,45.303459],[-87.473283,45.30985],[-87.472381,45.360787],[-87.462243,45.360777],[-87.461654,45.372391],[-87.458914,45.375019],[-87.480748,45.375698],[-87.48283,45.368934],[-87.485132,45.367264],[-87.485356,45.364269],[-87.484577,45.363469],[-87.486165,45.36157],[-87.491676,45.359007],[-87.494139,45.358206],[-87.496277,45.356376],[-87.502334,45.355164],[-87.505933,45.356217],[-87.507002,45.354873],[-87.516886,45.353154],[-87.518343,45.353387],[-87.521422,45.351792],[-87.526216,45.351505],[-87.527512,45.351233],[-87.528808,45.352403],[-87.532468,45.35266],[-87.533627,45.351569],[-87.533505,45.36181],[-87.605182,45.36232],[-87.604863,45.357301],[-87.604924,45.347644],[-87.615294,45.347701],[-87.61534,45.358422],[-87.61572,45.36462],[-87.614841,45.36737],[-87.610757,45.374716],[-87.612475,45.374388],[-87.612282,45.376899],[-87.61489,45.377021],[-87.619532,45.37268],[-87.620379,45.370242],[-87.619078,45.369685],[-87.622284,45.366308],[-87.620934,45.365825],[-87.622632,45.364524],[-87.625159,45.365409],[-87.62547,45.364435],[-87.623954,45.362738],[-87.624915,45.362126],[-87.626232,45.362796],[-87.629148,45.362354],[-87.629253,45.361283],[-87.62767,45.361304],[-87.627276,45.36025],[-87.62889,45.359343],[-87.627894,45.358098],[-87.629674,45.357369],[-87.630004,45.355766],[-87.632192,45.356063],[-87.63407,45.357035],[-87.635365,45.356549],[-87.636713,45.353904],[-87.637575,45.354178],[-87.641471,45.352677],[-87.642713,45.351265],[-87.641171,45.354198],[-87.641319,45.362244],[-87.646552,45.362249],[-87.649276,45.360668],[-87.65117,45.361258],[-87.652174,45.363757],[-87.653367,45.363496],[-87.649872,45.35509],[-87.6510946358749,45.353858562836294],[-87.650661,45.353798],[-87.648476,45.352243],[-87.647729,45.350721],[-87.648128,45.34788],[-87.647518,45.34651],[-87.647454,45.345232],[-87.648237,45.343292],[-87.647798,45.342245],[-87.648126,45.339396],[-87.648975,45.338166],[-87.651798,45.336414],[-87.653794,45.333061],[-87.655775,45.330847],[-87.65983,45.329144],[-87.661603,45.327608],[-87.662029,45.326434],[-87.6615,45.321386],[-87.663666,45.318257],[-87.665243,45.317115],[-87.667423,45.31636],[-87.669356,45.313445],[-87.67133,45.311782],[-87.672669,45.310213],[-87.671935,45.308204],[-87.673653,45.307546],[-87.675328,45.307907],[-87.679085,45.305841],[-87.679731,45.304844],[-87.68033,45.3028],[-87.68404,45.301255],[-87.687498,45.298055],[-87.687578,45.296283],[-87.690364,45.29027],[-87.691586,45.288739],[-87.693468,45.287675],[-87.694922,45.28485],[-87.696478,45.283795],[-87.698248,45.281512],[-87.698583,45.279991],[-87.697539,45.278471],[-87.699492,45.276659],[-87.699109,45.274963],[-87.698456,45.272072],[-87.69878,45.26942],[-87.703053,45.267041],[-87.704858,45.266492],[-87.705837,45.265875],[-87.705781,45.264037],[-87.709137,45.260341],[-87.71045,45.259324],[-87.709815,45.258457],[-87.707779,45.258343],[-87.708922,45.257104],[-87.70899332454019,45.2563187903758],[-87.709145,45.254649],[-87.711131,45.252928],[-87.711204,45.251076],[-87.709933,45.249033],[-87.7100608362947,45.2484479198936],[-87.710226,45.247692],[-87.71148,45.245224],[-87.711339,45.239965],[-87.712184,45.239014],[-87.713398,45.238564],[-87.717051,45.238743],[-87.718264,45.238333],[-87.719974,45.235844],[-87.724156,45.233236],[-87.725205,45.231539],[-87.72492,45.229977],[-87.721935,45.228444],[-87.721354,45.226847],[-87.722473,45.223309],[-87.726952,45.218949],[-87.727276,45.216129],[-87.726175,45.21264],[-87.726198,45.209391],[-87.72796,45.207956],[-87.734594,45.205654],[-87.736339,45.204653],[-87.738588208213,45.202850351996695]]]}}]}