{"type":"FeatureCollection","features":[{"type":"Feature","properties":{"zcta5":"72358","AFFGEOID10":"8600000US72358","GEOID10":"72358","ALAND10":153040987,"AWATER10":5221595,"county_name":"Mississippi","state_code":"AR","county_state":"Mississippi County, AR","county_fips":"05093","risk_level_county":"Higher Risk (60–69% vaccinated)","mean_vaccination_rate_county":67.06,"risk_level_zcta":"Higher Risk (60–69% vaccinated)","mean_vaccination_rate_zips":65.36,"cases":8},"geometry":{"type":"MultiPolygon","coordinates":[[[[-89.923585,35.823312],[-89.927586,35.822202],[-89.935244,35.819179],[-89.935242,35.819672],[-89.936367,35.819702],[-89.936408,35.817812],[-89.92662,35.821667],[-89.924067,35.822284],[-89.923585,35.823312]]],[[[-89.994316,35.785172],[-89.991084,35.785174],[-90.010803,35.75616],[-89.954642,35.755944],[-89.954958,35.741725],[-89.954769,35.741047],[-89.954422,35.741332],[-89.953754,35.7413],[-89.953034,35.741125],[-89.952626,35.741156],[-89.952634,35.74093],[-89.94458825405749,35.7411793019909],[-89.9385934539951,35.7440096293036],[-89.915491,35.754917],[-89.913132,35.757302],[-89.909996,35.759396],[-89.905538,35.759063],[-89.888163,35.750077],[-89.883535,35.744984],[-89.877256,35.741369],[-89.872845,35.741299],[-89.863874,35.747592],[-89.857707,35.750077],[-89.846343,35.755732],[-89.832895,35.754905],[-89.824923,35.755715],[-89.821216,35.756716],[-89.814456,35.759941],[-89.812891,35.761154],[-89.80928,35.764379],[-89.799249,35.775439],[-89.797231,35.780117],[-89.797053,35.782648],[-89.799331,35.788503],[-89.796324,35.792807],[-89.781793,35.805084],[-89.765457,35.809513],[-89.765442,35.811214],[-89.757874,35.810415],[-89.743025,35.805817],[-89.734044,35.806174],[-89.723426,35.809382],[-89.719915,35.811557],[-89.706085,35.81826],[-89.703875,35.820281],[-89.70196362236759,35.8238402100194],[-89.711088,35.823918],[-89.767526,35.825649],[-89.770239,35.825471],[-89.770588,35.826606],[-89.773957,35.825802],[-89.801791,35.826416],[-89.810875,35.826342],[-89.81084,35.824664],[-89.833012,35.825347],[-89.891611,35.827764],[-89.891612,35.835039],[-89.917643,35.83558],[-89.920943,35.828389],[-89.926204,35.817101],[-89.927022,35.814832],[-89.927126,35.806743],[-89.934886,35.806731],[-89.937252,35.81025],[-89.937201,35.811946],[-89.944383,35.811974],[-89.945278,35.81055],[-89.945302,35.814048],[-89.950378,35.814088],[-89.950109,35.814935],[-89.963644,35.81498],[-89.963626,35.814058],[-89.97147,35.813984],[-89.981309,35.814],[-89.981407,35.828274],[-89.999191,35.828386],[-89.999041,35.799843],[-89.981713,35.799659],[-89.990728,35.786459],[-89.994316,35.785172]]]]}},{"type":"Feature","properties":{"zcta5":"72386","AFFGEOID10":"8600000US72386","GEOID10":"72386","ALAND10":303143923,"AWATER10":2163052,"county_name":"Mississippi","state_code":"AR","county_state":"Mississippi County, AR","county_fips":"05093","risk_level_county":"Higher Risk (60–69% vaccinated)","mean_vaccination_rate_county":67.06,"risk_level_zcta":"Higher Risk (60–69% vaccinated)","mean_vaccination_rate_zips":65.57,"cases":8},"geometry":{"type":"Polygon","coordinates":[[[-90.322657,35.547799],[-90.32271,35.526142],[-90.349944,35.526649],[-90.35821,35.526521],[-90.358235,35.509533],[-90.359731,35.509719],[-90.366346,35.508376],[-90.372385,35.50636],[-90.377701,35.505992],[-90.384109,35.503059],[-90.391714,35.509711],[-90.397174,35.514822],[-90.402341,35.513551],[-90.409463,35.510796],[-90.41245,35.510172],[-90.414679,35.50837],[-90.413909,35.505676],[-90.412493,35.505657],[-90.412794,35.483944],[-90.426998,35.484139],[-90.430859,35.484382],[-90.431116,35.485999],[-90.43489,35.489925],[-90.435206,35.490794],[-90.436955,35.489256],[-90.441193,35.487812],[-90.4431,35.486592],[-90.443476,35.485373],[-90.44255,35.484043],[-90.438251,35.483087],[-90.43439,35.480676],[-90.433962,35.478779],[-90.440233,35.472602],[-90.440965,35.471426],[-90.444631,35.468493],[-90.451929,35.463944],[-90.454353,35.460615],[-90.455407,35.458242],[-90.457904,35.456341],[-90.460311,35.456255],[-90.46204,35.458285],[-90.461926,35.459873],[-90.458053,35.462669],[-90.455488,35.466053],[-90.455209,35.468678],[-90.455921,35.469402],[-90.458406,35.469975],[-90.460585,35.469696],[-90.462352,35.467914],[-90.468196,35.466507],[-90.47195,35.464518],[-90.475856,35.461689],[-90.480596,35.456835],[-90.482898,35.456267],[-90.484696,35.456825],[-90.485156,35.459168],[-90.483865,35.460793],[-90.482811,35.464087],[-90.483252,35.46606],[-90.486351,35.467753],[-90.489542,35.467266],[-90.491251,35.465211],[-90.490045,35.462313],[-90.489546,35.457953],[-90.49033,35.455706],[-90.492531,35.453129],[-90.49582,35.451958],[-90.498331,35.452078],[-90.501486,35.453216],[-90.505948,35.455564],[-90.510236,35.45889],[-90.5127,35.459264],[-90.515392,35.458826],[-90.518019,35.45596],[-90.51688,35.452746],[-90.512344,35.449717],[-90.509613,35.448304],[-90.50719,35.447594],[-90.499375,35.448193],[-90.496743,35.447112],[-90.496319,35.446179],[-90.49764,35.443377],[-90.499702,35.441702],[-90.502429,35.441726],[-90.502481,35.439298],[-90.503,35.397847],[-90.497729,35.398012],[-90.495769,35.397839],[-90.483931,35.397584],[-90.474362,35.397587],[-90.472907,35.398592],[-90.47109,35.398566],[-90.468525,35.396861],[-90.466319,35.396564],[-90.46819,35.395667],[-90.473405,35.395733],[-90.475407,35.391217],[-90.475519,35.388416],[-90.471579,35.384508],[-90.472055,35.383681],[-90.466639,35.380635],[-90.466671,35.378514],[-90.467364,35.377241],[-90.469967,35.375522],[-90.467913,35.374893],[-90.465649,35.376332],[-90.465763,35.378594],[-90.464815,35.380919],[-90.4632,35.381868],[-90.458137,35.381304],[-90.456714,35.380522],[-90.456701,35.378251],[-90.455542,35.376976],[-90.453116,35.376831],[-90.451924,35.373512],[-90.452457,35.370108],[-90.452155,35.368619],[-90.452286,35.365367],[-90.454653,35.36408],[-90.457074,35.361517],[-90.458115,35.358568],[-90.459373,35.356831],[-90.459685,35.355282],[-90.458625,35.349525],[-90.457575,35.347202],[-90.454444,35.344485],[-90.451261,35.342596],[-90.447511,35.342472],[-90.446286,35.339554],[-90.443481,35.339878],[-90.44014,35.341807],[-90.43992,35.340464],[-90.441045,35.339404],[-90.440441,35.338604],[-90.416698,35.33826],[-90.398331,35.345779],[-90.397196,35.347977],[-90.396087,35.352507],[-90.394477,35.352854],[-90.394065,35.359382],[-90.393295,35.360333],[-90.395668,35.360143],[-90.395589,35.367199],[-90.389517,35.367095],[-90.386945,35.366849],[-90.386398,35.368317],[-90.386245,35.381517],[-90.381508,35.381616],[-90.359344,35.381297],[-90.359071,35.403255],[-90.354785,35.403456],[-90.35449,35.410228],[-90.351237,35.410161],[-90.358823,35.420966],[-90.358704,35.437952],[-90.358416,35.439419],[-90.301995,35.438726],[-90.286899,35.438573],[-90.223734,35.437731],[-90.215505,35.437609],[-90.215215,35.453378],[-90.215493,35.460018],[-90.214741,35.481227],[-90.241515,35.481511],[-90.241388,35.488505],[-90.228135,35.496023],[-90.22315,35.503394],[-90.222958,35.512406],[-90.221926,35.514001],[-90.232001,35.514172],[-90.231839,35.524324],[-90.231512,35.525791],[-90.231384,35.539526],[-90.249033,35.539563],[-90.257532,35.53984],[-90.257904,35.541845],[-90.262517,35.541303],[-90.266621,35.540054],[-90.28689,35.539862],[-90.292584,35.54015],[-90.304558,35.540308],[-90.304818,35.547559],[-90.322657,35.547799]]]}},{"type":"Feature","properties":{"zcta5":"72395","AFFGEOID10":"8600000US72395","GEOID10":"72395","ALAND10":62318113,"AWATER10":16075,"county_name":"Mississippi","state_code":"AR","county_state":"Mississippi County, AR","county_fips":"05093","risk_level_county":"Higher Risk (60–69% vaccinated)","mean_vaccination_rate_county":67.06,"risk_level_zcta":"Very High Risk (<60% vaccinated)","mean_vaccination_rate_zips":53.55,"cases":8},"geometry":{"type":"Polygon","coordinates":[[[-90.142771,35.647882],[-90.176405,35.611178],[-90.174943,35.61108],[-90.160158,35.611089],[-90.160387,35.616033],[-90.161062,35.622127],[-90.16059,35.625769],[-90.142729,35.625789],[-90.142728,35.640295],[-90.111556,35.640248],[-90.111747,35.61491],[-90.110197,35.614865],[-90.111557,35.613015],[-90.113199,35.612012],[-90.115903,35.61197],[-90.116586,35.611294],[-90.10667,35.61132],[-90.106677,35.590647],[-90.106643,35.555809],[-90.106969,35.552417],[-90.107099,35.543249],[-90.089325,35.54992],[-90.089286,35.548012],[-90.08598,35.549454],[-90.080998,35.551096],[-90.076841,35.551799],[-90.06812,35.552349],[-90.061766,35.549431],[-90.054572,35.546731],[-90.050657,35.546042],[-90.047618,35.546265],[-90.04566,35.550587],[-90.043407,35.557461],[-90.041272,35.556901],[-90.035867,35.557109],[-90.030438,35.558889],[-90.028356,35.564294],[-90.0184,35.566088],[-90.016107,35.566108],[-90.014692,35.565625],[-90.015053,35.56655],[-90.018086,35.566985],[-90.017991,35.581133],[-90.00935,35.581115],[-90.010309,35.581936],[-90.010454,35.585555],[-90.012892,35.588582],[-90.01964,35.591638],[-90.022146,35.595231],[-90.022586,35.601816],[-90.025257,35.603984],[-90.026596,35.602284],[-90.028266,35.598929],[-90.029793,35.594289],[-90.03553,35.595874],[-90.044626,35.595891],[-90.044124,35.61048],[-90.057817,35.610691],[-90.057384,35.608802],[-90.05554,35.608633],[-90.056352,35.601119],[-90.04888,35.600957],[-90.04913,35.588407],[-90.04904,35.58663],[-90.04781,35.584805],[-90.052104,35.583798],[-90.053912,35.581446],[-90.060823,35.581615],[-90.062751,35.583664],[-90.076209,35.594858],[-90.077668,35.596921],[-90.079842,35.603523],[-90.080831,35.609277],[-90.081942,35.611842],[-90.080807,35.612398],[-90.08073,35.625807],[-90.089164,35.625837],[-90.089345,35.642037],[-90.086208,35.646311],[-90.08562,35.648214],[-90.080866,35.65487],[-90.081218,35.654885],[-90.128462,35.654778],[-90.128085,35.663926],[-90.142771,35.647882]]]}},{"type":"Feature","properties":{"zcta5":"72438","AFFGEOID10":"8600000US72438","GEOID10":"72438","ALAND10":144437841,"AWATER10":663,"county_name":"Mississippi","state_code":"AR","county_state":"Mississippi County, AR","county_fips":"05093","risk_level_county":"Higher Risk (60–69% vaccinated)","mean_vaccination_rate_county":67.06,"risk_level_zcta":"Medium Risk (70–79% vaccinated)","mean_vaccination_rate_zips":70.39,"cases":8},"geometry":{"type":"Polygon","coordinates":[[[-90.1860719447437,35.997174516054],[-90.2888,35.996419],[-90.2889470498035,35.9964180953312],[-90.287186,35.859737],[-90.286742,35.845026],[-90.275292,35.844824],[-90.275048,35.866734],[-90.265162,35.866579],[-90.26618,35.867387],[-90.266135,35.874022],[-90.257461,35.87397],[-90.257613,35.888385],[-90.243215,35.888241],[-90.243579,35.892333],[-90.243111,35.895496],[-90.244473,35.89563],[-90.244144,35.902738],[-90.236788,35.902743],[-90.237837,35.90313],[-90.231034,35.908499],[-90.231168,35.916411],[-90.195904,35.916675],[-90.194457,35.91627],[-90.15916,35.916025],[-90.159234,35.901926],[-90.156496,35.90174],[-90.141494,35.901719],[-90.141364,35.915985],[-90.141858,35.917227],[-90.145417,35.919074],[-90.147923,35.922057],[-90.148966,35.924509],[-90.146051,35.929166],[-90.145507,35.934867],[-90.146082,35.939688],[-90.145668,35.945424],[-90.142241,35.954478],[-90.138116,35.960085],[-90.138171,35.963316],[-90.139591,35.964938],[-90.13979,35.974526],[-90.139286,35.978121],[-90.138097,35.979963],[-90.136432,35.980705],[-90.129836,35.987856],[-90.127036,35.989921],[-90.127092,35.994985],[-90.1267516723715,35.9976119686264],[-90.127331,35.997635],[-90.158812,35.997375],[-90.1860719447437,35.997174516054]]]}},{"type":"Feature","properties":{"zcta5":"72338","AFFGEOID10":"8600000US72338","GEOID10":"72338","ALAND10":74370536,"AWATER10":6004104,"county_name":"Mississippi","state_code":"AR","county_state":"Mississippi County, AR","county_fips":"05093","risk_level_county":"Higher Risk (60–69% vaccinated)","mean_vaccination_rate_county":67.06,"risk_level_zcta":"Uninhabited","mean_vaccination_rate_zips":null,"cases":8},"geometry":{"type":"MultiPolygon","coordinates":[[[[-90.1401796054271,35.436483531380794],[-90.169002,35.421853],[-90.170599,35.418352],[-90.1707,35.410065],[-90.179265,35.385194],[-90.178341,35.382092],[-90.172388,35.377681],[-90.166246,35.374745],[-90.144924,35.374633],[-90.13551,35.376668],[-90.143475,35.387602],[-90.14587,35.395079],[-90.146191,35.399468],[-90.145085,35.403757],[-90.143448,35.406671],[-90.14166,35.408563],[-90.137881,35.41151],[-90.135125,35.412977],[-90.130475,35.413745],[-90.116902,35.411692],[-90.112504,35.410153],[-90.110543,35.408595],[-90.106775,35.403339],[-90.104842,35.401487],[-90.09665,35.395257],[-90.093589,35.393333],[-90.087743,35.390838],[-90.07993,35.385272],[-90.077971,35.384501],[-90.074992,35.384152],[-90.0667,35.385167],[-90.061788,35.386184],[-90.054322,35.389277],[-90.0544509241044,35.3896503043488],[-90.054585,35.389604],[-90.069283,35.408306],[-90.062018,35.41518],[-90.070549,35.423291],[-90.074082,35.433983],[-90.074063,35.439611],[-90.071327,35.450338],[-90.067206,35.460957],[-90.067138,35.464833],[-90.067798,35.466224],[-90.072154,35.470752],[-90.080128,35.476844],[-90.085009,35.478835],[-90.098719,35.478595],[-90.101759,35.476889],[-90.107723,35.476935],[-90.114412,35.472467],[-90.11839,35.468791],[-90.120619,35.465741],[-90.123142,35.459853],[-90.129448,35.441931],[-90.1401796054271,35.436483531380794]]],[[[-90.214741,35.481227],[-90.215493,35.460018],[-90.215215,35.453378],[-90.215505,35.437609],[-90.17478,35.437074],[-90.174307,35.437911],[-90.174237,35.448161],[-90.181239,35.466161],[-90.196978,35.466299],[-90.196761,35.477619],[-90.20086,35.474635],[-90.202779,35.474046],[-90.199567,35.479594],[-90.201267,35.481076],[-90.201222,35.484902],[-90.206522,35.484991],[-90.210229,35.484685],[-90.210322,35.481205],[-90.214741,35.481227]]]]}},{"type":"Feature","properties":{"zcta5":"72315","AFFGEOID10":"8600000US72315","GEOID10":"72315","ALAND10":652370294,"AWATER10":22578608,"county_name":"Mississippi","state_code":"AR","county_state":"Mississippi County, AR","county_fips":"05093","risk_level_county":"Higher Risk (60–69% vaccinated)","mean_vaccination_rate_county":67.06,"risk_level_zcta":"Higher Risk (60–69% vaccinated)","mean_vaccination_rate_zips":68.08,"cases":8},"geometry":{"type":"MultiPolygon","coordinates":[[[[-90.081683,35.8871],[-90.078128,35.887105],[-90.083019,35.880487],[-90.083172,35.872915],[-90.07453,35.872848],[-90.091027,35.856532],[-90.09393,35.854482],[-90.096094,35.852033],[-90.100133,35.849994],[-90.100593,35.846268],[-90.074089,35.846954],[-90.073713,35.78486],[-90.074476,35.784835],[-90.098805,35.756482],[-90.090833,35.756633],[-90.07357,35.756501],[-90.059091,35.756459],[-90.059194,35.755395],[-90.059455,35.754955],[-90.059279,35.754627],[-90.05794,35.755542],[-90.054364,35.757074],[-90.052859,35.758333],[-90.050328,35.762291],[-90.048673,35.765477],[-90.042225,35.780176],[-90.043396,35.785483],[-89.994316,35.785172],[-89.990728,35.786459],[-89.981713,35.799659],[-89.999041,35.799843],[-89.999191,35.828386],[-89.981407,35.828274],[-89.981309,35.814],[-89.97147,35.813984],[-89.966569,35.821161],[-89.963223,35.82138],[-89.946312,35.821317],[-89.944563,35.821398],[-89.944539,35.819466],[-89.940809,35.819615],[-89.940851,35.818327],[-89.938972,35.817604],[-89.936408,35.817812],[-89.936367,35.819702],[-89.935242,35.819672],[-89.935244,35.819179],[-89.927586,35.822202],[-89.923585,35.823312],[-89.920943,35.828389],[-89.917643,35.83558],[-89.891612,35.835039],[-89.891611,35.827764],[-89.833012,35.825347],[-89.81084,35.824664],[-89.810875,35.826342],[-89.801791,35.826416],[-89.773957,35.825802],[-89.770588,35.826606],[-89.770239,35.825471],[-89.767526,35.825649],[-89.711088,35.823918],[-89.70196362236759,35.8238402100194],[-89.70175,35.824238],[-89.701045,35.828227],[-89.701407,35.830985],[-89.702883,35.834153],[-89.704351,35.835726],[-89.709261,35.838911],[-89.729517,35.847632],[-89.749424,35.852955],[-89.764343,35.858313],[-89.769413,35.861558],[-89.772467,35.865098],[-89.773294,35.867426],[-89.773564,35.871697],[-89.772855,35.876244],[-89.771726,35.879724],[-89.768743,35.886663],[-89.765689,35.891299],[-89.756312,35.89806],[-89.741241,35.906749],[-89.714934,35.906247],[-89.688141,35.896946],[-89.68182,35.88999],[-89.677012,35.88572],[-89.669553,35.883281],[-89.66599,35.882868],[-89.656229,35.888119],[-89.648365,35.893767],[-89.645346,35.891419],[-89.644395,35.894782],[-89.646556,35.899802],[-89.644838,35.904351],[-89.646711,35.908008],[-89.65034,35.917795],[-89.652279,35.921462],[-89.656147,35.92581],[-89.671117,35.935795],[-89.676621,35.940539],[-89.686924,35.947716],[-89.699871,35.954063],[-89.710227,35.959826],[-89.714565,35.963034],[-89.718796,35.968283],[-89.719679,35.970939],[-89.71997,35.97462],[-89.718801,35.985015],[-89.719168,35.985976],[-89.728442,35.993568],[-89.731218,35.996879],[-89.733095,36.000608],[-89.737564,36.000522],[-89.737648,36.000567],[-89.769973,36.000536],[-89.770255,36.000524],[-89.86901,35.99964],[-89.87459,35.999575],[-89.875085,35.999578],[-89.875586,35.999562],[-89.896508,35.999432],[-89.901183,35.999365],[-89.959377,35.99902],[-89.959893,35.99902],[-89.961075,35.999135],[-89.965327,35.998813],[-89.972563,35.998994],[-89.99563075840489,35.9988444660882],[-90.05469111249378,35.9984616145939],[-90.063819,35.989272],[-90.062986,35.913295],[-90.063062,35.912318],[-90.081683,35.8871]],[[-90.044263,35.861413],[-90.044263,35.861376],[-90.044128,35.859296],[-90.037498,35.859361],[-90.035573,35.860698],[-90.035583,35.857841],[-90.036947,35.857807],[-90.040913,35.855471],[-90.040925,35.854],[-90.048591,35.84963],[-90.048845,35.857967],[-90.044342,35.861333],[-90.044263,35.861413]],[[-90.044263,35.861413],[-90.044264,35.861492],[-90.044517,35.884952],[-90.043854,35.886228],[-90.042086,35.886904],[-90.036914,35.887127],[-90.035651,35.886909],[-90.035634,35.882188],[-90.039088,35.877521],[-90.038066,35.869766],[-90.038484,35.867335],[-90.040974,35.864331],[-90.04373,35.861955],[-90.044263,35.861413]]],[[[-90.083435,35.887004],[-90.100096,35.887045],[-90.103937,35.887513],[-90.104561,35.886865],[-90.12249,35.886899],[-90.124353,35.885685],[-90.124486,35.884281],[-90.122579,35.881215],[-90.119181,35.879397],[-90.117586,35.877878],[-90.115914,35.87895],[-90.116028,35.876715],[-90.115342,35.879856],[-90.113744,35.883267],[-90.113992,35.879994],[-90.112636,35.880736],[-90.114342,35.87839],[-90.115028,35.875551],[-90.117208,35.875726],[-90.117997,35.875072],[-90.120831,35.875075],[-90.120801,35.871588],[-90.123368,35.866739],[-90.123272,35.86364],[-90.123757,35.862075],[-90.12691,35.860291],[-90.127452,35.859102],[-90.127744,35.84954],[-90.126055,35.849388],[-90.123248,35.850457],[-90.117659,35.850536],[-90.111584,35.854457],[-90.10506,35.859854],[-90.10363,35.86083],[-90.102045,35.863959],[-90.100138,35.864241],[-90.099109,35.865271],[-90.094496,35.872399],[-90.085814,35.882319],[-90.083829,35.884972],[-90.083435,35.887004]]]]}},{"type":"Feature","properties":{"zcta5":"72370","AFFGEOID10":"8600000US72370","GEOID10":"72370","ALAND10":293526208,"AWATER10":382190,"county_name":"Mississippi","state_code":"AR","county_state":"Mississippi County, AR","county_fips":"05093","risk_level_county":"Higher Risk (60–69% vaccinated)","mean_vaccination_rate_county":67.06,"risk_level_zcta":"Higher Risk (60–69% vaccinated)","mean_vaccination_rate_zips":65.61,"cases":8},"geometry":{"type":"MultiPolygon","coordinates":[[[[-90.07357,35.756501],[-90.073455,35.741962],[-90.062306,35.741927],[-90.060705,35.752307],[-90.059279,35.754627],[-90.059455,35.754955],[-90.059194,35.755395],[-90.059091,35.756459],[-90.07357,35.756501]]],[[[-90.072789,35.705623],[-90.072636,35.698433],[-90.085548,35.698118],[-90.085621,35.684065],[-90.098751,35.683903],[-90.098646,35.678812],[-90.096532,35.678808],[-90.096503,35.677334],[-90.094385,35.677843],[-90.089939,35.679954],[-90.089807,35.676703],[-90.072017,35.676789],[-90.071305,35.67732],[-90.070933,35.679658],[-90.067092,35.68207],[-90.060398,35.68387],[-90.055378,35.690638],[-90.061619,35.681383],[-90.080866,35.65487],[-90.08562,35.648214],[-90.086208,35.646311],[-90.089345,35.642037],[-90.089164,35.625837],[-90.08073,35.625807],[-90.080807,35.612398],[-90.081942,35.611842],[-90.080831,35.609277],[-90.079842,35.603523],[-90.077668,35.596921],[-90.076209,35.594858],[-90.062751,35.583664],[-90.060823,35.581615],[-90.053912,35.581446],[-90.052104,35.583798],[-90.04781,35.584805],[-90.04904,35.58663],[-90.04913,35.588407],[-90.04888,35.600957],[-90.056352,35.601119],[-90.05554,35.608633],[-90.057384,35.608802],[-90.057817,35.610691],[-90.044124,35.61048],[-90.044626,35.595891],[-90.03553,35.595874],[-90.029793,35.594289],[-90.028266,35.598929],[-90.026596,35.602284],[-90.025257,35.603984],[-90.022667,35.606358],[-90.016964,35.609722],[-90.017541,35.610707],[-90.017642,35.623524],[-90.018791,35.6248],[-90.017721,35.624801],[-90.017871,35.643691],[-90.014752,35.642164],[-90.012676,35.640448],[-90.011314,35.640041],[-90.001631,35.641416],[-89.997668,35.641453],[-89.986034,35.644076],[-89.981199,35.643112],[-89.976746,35.642967],[-89.975375,35.643686],[-89.961177,35.653456],[-89.959547,35.653965],[-89.949729,35.654006],[-89.949073,35.657052],[-89.950081,35.659647],[-89.961295,35.677597],[-89.963875,35.683534],[-89.963836,35.689636],[-89.961118,35.689191],[-89.960352,35.686907],[-89.959599,35.686467],[-89.9535088280989,35.686771100204005],[-89.955753,35.690621],[-89.956589,35.695486],[-89.956933,35.711677],[-89.958882,35.723834],[-89.958687,35.727706],[-89.956254,35.733386],[-89.953983,35.73616],[-89.950278,35.738493],[-89.94458825405749,35.7411793019909],[-89.952634,35.74093],[-89.952626,35.741156],[-89.953034,35.741125],[-89.953754,35.7413],[-89.954422,35.741332],[-89.954769,35.741047],[-89.954958,35.741725],[-89.954642,35.755944],[-90.010803,35.75616],[-90.045268,35.705511],[-90.072789,35.705623]]],[[[-90.286537,35.69496],[-90.286281,35.656074],[-90.276139,35.655996],[-90.276362,35.669446],[-90.275462,35.670618],[-90.24956,35.669946],[-90.249466,35.655421],[-90.234159,35.655658],[-90.222836,35.655481],[-90.225883,35.653715],[-90.231215,35.650056],[-90.233322,35.648998],[-90.240478,35.643758],[-90.24121,35.641016],[-90.248914,35.640864],[-90.248993,35.637725],[-90.246027,35.633595],[-90.242571,35.631556],[-90.237405,35.630586],[-90.232053,35.631328],[-90.228793,35.632314],[-90.225977,35.633939],[-90.223995,35.636201],[-90.221944,35.637205],[-90.221193,35.639134],[-90.222048,35.64084],[-90.201474,35.640652],[-90.186822,35.64051],[-90.186875,35.646773],[-90.18591,35.647757],[-90.178174,35.647745],[-90.177305,35.65492],[-90.177438,35.640474],[-90.169915,35.64072],[-90.155047,35.658998],[-90.15346,35.660285],[-90.149014,35.658671],[-90.146879,35.659286],[-90.145924,35.660436],[-90.144098,35.661104],[-90.142787,35.660359],[-90.142771,35.647882],[-90.128085,35.663926],[-90.09665,35.698485],[-90.090136,35.69851],[-90.090237,35.70546],[-90.089933,35.705825],[-90.073186,35.724141],[-90.073446,35.741918],[-90.143876,35.742125],[-90.177878,35.742162],[-90.177825,35.733571],[-90.177773,35.729908],[-90.17817,35.727309],[-90.181225,35.726807],[-90.183618,35.72758],[-90.187841,35.727598],[-90.19163,35.727236],[-90.213135,35.727404],[-90.213142,35.728302],[-90.223293,35.728359],[-90.226774,35.729244],[-90.231115,35.729064],[-90.234016,35.727748],[-90.237208,35.727076],[-90.240481,35.727405],[-90.241044,35.711942],[-90.245992,35.71093],[-90.248013,35.711752],[-90.250164,35.713683],[-90.250786,35.715231],[-90.250416,35.728329],[-90.250034,35.73461],[-90.249769,35.736763],[-90.258966,35.729518],[-90.259665,35.727605],[-90.260096,35.714813],[-90.264228,35.704013],[-90.267465,35.700954],[-90.2682,35.702926],[-90.274708,35.696394],[-90.275874,35.69584],[-90.286537,35.69496]]]]}},{"type":"Feature","properties":{"zcta5":"72354","AFFGEOID10":"8600000US72354","GEOID10":"72354","ALAND10":130475079,"AWATER10":50183,"county_name":"Mississippi","state_code":"AR","county_state":"Mississippi County, AR","county_fips":"05093","risk_level_county":"Higher Risk (60–69% vaccinated)","mean_vaccination_rate_county":67.06,"risk_level_zcta":"Higher Risk (60–69% vaccinated)","mean_vaccination_rate_zips":69.48,"cases":8},"geometry":{"type":"MultiPolygon","coordinates":[[[[-90.331998,35.686081],[-90.339705,35.685875],[-90.340075,35.684979],[-90.340097,35.677861],[-90.338747,35.676153],[-90.339403,35.674727],[-90.33906,35.673101],[-90.338298,35.673524],[-90.337509,35.674344],[-90.331643,35.682928],[-90.328325,35.686296],[-90.328985,35.686037],[-90.331998,35.686081]]],[[[-90.286281,35.656074],[-90.286397,35.649707],[-90.296601,35.649718],[-90.307021,35.649427],[-90.323384,35.649556],[-90.3234,35.652387],[-90.32976,35.648026],[-90.33232,35.648141],[-90.336919,35.646526],[-90.339968,35.64338],[-90.34066,35.639815],[-90.339582,35.636284],[-90.337517,35.632086],[-90.337463,35.628015],[-90.337076,35.62625],[-90.337966,35.622528],[-90.342161,35.616489],[-90.343183,35.61674],[-90.346149,35.613616],[-90.358624,35.613685],[-90.358668,35.620971],[-90.371472,35.614134],[-90.375445,35.613996],[-90.393824,35.614319],[-90.393984,35.599855],[-90.379509,35.599688],[-90.379848,35.596034],[-90.375906,35.595982],[-90.37521,35.593377],[-90.37562,35.592329],[-90.379822,35.592398],[-90.379933,35.585099],[-90.368102,35.585006],[-90.366922,35.584205],[-90.364121,35.58009],[-90.36222,35.57808],[-90.361469,35.574013],[-90.363323,35.570155],[-90.367118,35.567271],[-90.368322,35.567222],[-90.370165,35.567812],[-90.372194,35.569246],[-90.37344,35.571015],[-90.374325,35.577462],[-90.376209,35.579488],[-90.37945,35.580039],[-90.383006,35.578592],[-90.384654,35.577432],[-90.384361,35.576183],[-90.384462,35.570786],[-90.375757,35.570585],[-90.37576,35.556037],[-90.357936,35.556007],[-90.358103,35.549432],[-90.359461,35.548175],[-90.358083,35.547668],[-90.355789,35.547888],[-90.332766,35.548032],[-90.322657,35.547799],[-90.304818,35.547559],[-90.304558,35.540308],[-90.292584,35.54015],[-90.28689,35.539862],[-90.286784,35.566909],[-90.283518,35.568915],[-90.281236,35.575889],[-90.271132,35.597097],[-90.258528,35.6123],[-90.257422,35.612294],[-90.252091,35.618751],[-90.24892,35.61897],[-90.234664,35.618726],[-90.230278,35.621808],[-90.201474,35.640652],[-90.222048,35.64084],[-90.221193,35.639134],[-90.221944,35.637205],[-90.223995,35.636201],[-90.225977,35.633939],[-90.228793,35.632314],[-90.232053,35.631328],[-90.237405,35.630586],[-90.242571,35.631556],[-90.246027,35.633595],[-90.248993,35.637725],[-90.248914,35.640864],[-90.24121,35.641016],[-90.240478,35.643758],[-90.233322,35.648998],[-90.231215,35.650056],[-90.225883,35.653715],[-90.222836,35.655481],[-90.234159,35.655658],[-90.249466,35.655421],[-90.24956,35.669946],[-90.275462,35.670618],[-90.276362,35.669446],[-90.276139,35.655996],[-90.286281,35.656074]]],[[[-90.397716,35.701519],[-90.398294,35.700972],[-90.398587,35.672665],[-90.396905,35.672756],[-90.396554,35.672042],[-90.393349,35.67176],[-90.353236,35.671454],[-90.345483,35.67141],[-90.340598,35.673195],[-90.341303,35.676094],[-90.34122,35.678447],[-90.342113,35.679364],[-90.341229,35.682477],[-90.341146,35.700513],[-90.375691,35.700932],[-90.376473,35.701106],[-90.389918,35.701352],[-90.391779,35.701234],[-90.397716,35.701519]]]]}},{"type":"Feature","properties":{"zcta5":"72428","AFFGEOID10":"8600000US72428","GEOID10":"72428","ALAND10":16491970,"AWATER10":0,"county_name":"Mississippi","state_code":"AR","county_state":"Mississippi County, AR","county_fips":"05093","risk_level_county":"Higher Risk (60–69% vaccinated)","mean_vaccination_rate_county":67.06,"risk_level_zcta":"Very High Risk (<60% vaccinated)","mean_vaccination_rate_zips":58.51,"cases":8},"geometry":{"type":"Polygon","coordinates":[[[-90.177825,35.733571],[-90.179464,35.733696],[-90.182016,35.735021],[-90.19558,35.735357],[-90.195588,35.748882],[-90.195468,35.749839],[-90.212942,35.749763],[-90.212983,35.757403],[-90.216119,35.757493],[-90.241845,35.757484],[-90.257622,35.743024],[-90.24102,35.74293],[-90.249769,35.736763],[-90.250034,35.73461],[-90.250416,35.728329],[-90.250786,35.715231],[-90.250164,35.713683],[-90.248013,35.711752],[-90.245992,35.71093],[-90.241044,35.711942],[-90.240481,35.727405],[-90.237208,35.727076],[-90.234016,35.727748],[-90.231115,35.729064],[-90.226774,35.729244],[-90.223293,35.728359],[-90.213142,35.728302],[-90.213178,35.742921],[-90.212086,35.742907],[-90.212055,35.729211],[-90.205359,35.729158],[-90.205438,35.731914],[-90.204314,35.731954],[-90.204265,35.735305],[-90.203212,35.735456],[-90.203142,35.729137],[-90.190628,35.729084],[-90.18399,35.729427],[-90.18067,35.728564],[-90.177773,35.729908],[-90.177825,35.733571]]]}},{"type":"Feature","properties":{"zcta5":"72350","AFFGEOID10":"8600000US72350","GEOID10":"72350","ALAND10":200673936,"AWATER10":2952974,"county_name":"Mississippi","state_code":"AR","county_state":"Mississippi County, AR","county_fips":"05093","risk_level_county":"Higher Risk (60–69% vaccinated)","mean_vaccination_rate_county":67.06,"risk_level_zcta":"Higher Risk (60–69% vaccinated)","mean_vaccination_rate_zips":67.37,"cases":8},"geometry":{"type":"Polygon","coordinates":[[[-90.133174,35.582152],[-90.143632,35.567643],[-90.160956,35.544103],[-90.16434,35.538596],[-90.178505,35.538631],[-90.178198,35.553089],[-90.195691,35.553645],[-90.195998,35.538985],[-90.213875,35.538891],[-90.213876,35.55371],[-90.249112,35.554039],[-90.249033,35.539563],[-90.231384,35.539526],[-90.231512,35.525791],[-90.231839,35.524324],[-90.232001,35.514172],[-90.221926,35.514001],[-90.222958,35.512406],[-90.22315,35.503394],[-90.228135,35.496023],[-90.241388,35.488505],[-90.241515,35.481511],[-90.214741,35.481227],[-90.210322,35.481205],[-90.210229,35.484685],[-90.206522,35.484991],[-90.201222,35.484902],[-90.201267,35.481076],[-90.199567,35.479594],[-90.202779,35.474046],[-90.20086,35.474635],[-90.196761,35.477619],[-90.196978,35.466299],[-90.181239,35.466161],[-90.174237,35.448161],[-90.174307,35.437911],[-90.17478,35.437074],[-90.1401796054271,35.436483531380794],[-90.129448,35.441931],[-90.123142,35.459853],[-90.120619,35.465741],[-90.11839,35.468791],[-90.114412,35.472467],[-90.107723,35.476935],[-90.101759,35.476889],[-90.098719,35.478595],[-90.085009,35.478835],[-90.080128,35.476844],[-90.072154,35.470752],[-90.067798,35.466224],[-90.067138,35.464833],[-90.067206,35.460957],[-90.071327,35.450338],[-90.074063,35.439611],[-90.074082,35.433983],[-90.070549,35.423291],[-90.062018,35.41518],[-90.069283,35.408306],[-90.054585,35.389604],[-90.0544509241044,35.3896503043488],[-90.044856,35.392964],[-90.041563,35.39662],[-90.045104,35.397317],[-90.056644,35.403786],[-90.046598,35.412966],[-90.045306,35.415435],[-90.044216,35.419231],[-90.04264,35.421237],[-90.04057,35.422925],[-90.031584,35.427662],[-90.031267,35.431576],[-90.02931,35.435245],[-90.02737,35.43789],[-90.026584,35.440103],[-90.026899,35.444869],[-90.026604,35.447788],[-90.024247,35.45426],[-90.022064,35.457375],[-90.018842,35.464816],[-90.018998,35.467803],[-90.020386,35.470257],[-90.034976,35.480705],[-90.043517,35.492298],[-90.045805,35.496533],[-90.048519,35.504357],[-90.050277,35.515275],[-90.04909,35.522257],[-90.046227,35.529592],[-90.044748,35.531657],[-90.041962,35.537468],[-90.039744,35.548041],[-90.037615,35.550329],[-90.032938,35.55344],[-90.02862,35.555249],[-90.023903,35.556336],[-90.01918760635971,35.5560927540832],[-90.019838,35.557391],[-90.024192,35.557147],[-90.025365,35.558962],[-90.030438,35.558889],[-90.035867,35.557109],[-90.041272,35.556901],[-90.043407,35.557461],[-90.04566,35.550587],[-90.047618,35.546265],[-90.050657,35.546042],[-90.054572,35.546731],[-90.061766,35.549431],[-90.06812,35.552349],[-90.076841,35.551799],[-90.080998,35.551096],[-90.08598,35.549454],[-90.089286,35.548012],[-90.089325,35.54992],[-90.107099,35.543249],[-90.106969,35.552417],[-90.106643,35.555809],[-90.106677,35.590647],[-90.126976,35.590696],[-90.133174,35.582152]]]}},{"type":"Feature","properties":{"zcta5":"72329","AFFGEOID10":"8600000US72329","GEOID10":"72329","ALAND10":35513998,"AWATER10":0,"county_name":"Mississippi","state_code":"AR","county_state":"Mississippi County, AR","county_fips":"05093","risk_level_county":"Higher Risk (60–69% vaccinated)","mean_vaccination_rate_county":67.06,"risk_level_zcta":"Uninhabited","mean_vaccination_rate_zips":null,"cases":8},"geometry":{"type":"Polygon","coordinates":[[[-89.949729,35.654006],[-89.959547,35.653965],[-89.961177,35.653456],[-89.975375,35.643686],[-89.976746,35.642967],[-89.981199,35.643112],[-89.986034,35.644076],[-89.997668,35.641453],[-90.001631,35.641416],[-90.011314,35.640041],[-90.012676,35.640448],[-90.014752,35.642164],[-90.017871,35.643691],[-90.017721,35.624801],[-90.018791,35.6248],[-90.017642,35.623524],[-90.017541,35.610707],[-90.016964,35.609722],[-90.022667,35.606358],[-90.025257,35.603984],[-90.022586,35.601816],[-90.022146,35.595231],[-90.01964,35.591638],[-90.012892,35.588582],[-90.010454,35.585555],[-90.010309,35.581936],[-90.00935,35.581115],[-90.017991,35.581133],[-90.018086,35.566985],[-90.015053,35.56655],[-90.014692,35.565625],[-90.010261,35.563952],[-90.006657,35.564835],[-90.004259,35.566362],[-89.994179,35.566292],[-89.982614,35.564183],[-89.982071,35.56396],[-89.982432,35.564645],[-89.98234,35.580029],[-89.982792,35.581096],[-90.000184,35.581108],[-89.99996,35.610289],[-89.939102,35.610408],[-89.937972,35.611619],[-89.94009,35.617195],[-89.941796,35.61765],[-89.950508,35.617626],[-89.950797,35.649626],[-89.949729,35.654006]]]}},{"type":"Feature","properties":{"zcta5":"72351","AFFGEOID10":"8600000US72351","GEOID10":"72351","ALAND10":16949375,"AWATER10":0,"county_name":"Mississippi","state_code":"AR","county_state":"Mississippi County, AR","county_fips":"05093","risk_level_county":"Higher Risk (60–69% vaccinated)","mean_vaccination_rate_county":67.06,"risk_level_zcta":"Higher Risk (60–69% vaccinated)","mean_vaccination_rate_zips":62.3,"cases":8},"geometry":{"type":"Polygon","coordinates":[[[-90.128085,35.663926],[-90.128462,35.654778],[-90.081218,35.654885],[-90.080866,35.65487],[-90.061619,35.681383],[-90.055378,35.690638],[-90.060398,35.68387],[-90.067092,35.68207],[-90.070933,35.679658],[-90.071305,35.67732],[-90.072017,35.676789],[-90.089807,35.676703],[-90.089939,35.679954],[-90.094385,35.677843],[-90.096503,35.677334],[-90.096532,35.678808],[-90.098646,35.678812],[-90.098751,35.683903],[-90.085621,35.684065],[-90.085548,35.698118],[-90.072636,35.698433],[-90.072789,35.705623],[-90.089933,35.705825],[-90.090237,35.70546],[-90.090136,35.69851],[-90.09665,35.698485],[-90.128085,35.663926]]]}},{"type":"Feature","properties":{"zcta5":"72330","AFFGEOID10":"8600000US72330","GEOID10":"72330","ALAND10":106283660,"AWATER10":0,"county_name":"Mississippi","state_code":"AR","county_state":"Mississippi County, AR","county_fips":"05093","risk_level_county":"Higher Risk (60–69% vaccinated)","mean_vaccination_rate_county":67.06,"risk_level_zcta":"Higher Risk (60–69% vaccinated)","mean_vaccination_rate_zips":61.42,"cases":8},"geometry":{"type":"Polygon","coordinates":[[[-90.201474,35.640652],[-90.230278,35.621808],[-90.234664,35.618726],[-90.24892,35.61897],[-90.252091,35.618751],[-90.257422,35.612294],[-90.258528,35.6123],[-90.271132,35.597097],[-90.281236,35.575889],[-90.283518,35.568915],[-90.286784,35.566909],[-90.28689,35.539862],[-90.266621,35.540054],[-90.262517,35.541303],[-90.257904,35.541845],[-90.257532,35.53984],[-90.249033,35.539563],[-90.249112,35.554039],[-90.213876,35.55371],[-90.213875,35.538891],[-90.195998,35.538985],[-90.195691,35.553645],[-90.178198,35.553089],[-90.178505,35.538631],[-90.16434,35.538596],[-90.160956,35.544103],[-90.143632,35.567643],[-90.133174,35.582152],[-90.160608,35.582284],[-90.160316,35.595003],[-90.160483,35.596538],[-90.160158,35.611089],[-90.174943,35.61108],[-90.176405,35.611178],[-90.142771,35.647882],[-90.142787,35.660359],[-90.144098,35.661104],[-90.145924,35.660436],[-90.146879,35.659286],[-90.149014,35.658671],[-90.15346,35.660285],[-90.155047,35.658998],[-90.169915,35.64072],[-90.177438,35.640474],[-90.177305,35.65492],[-90.178174,35.647745],[-90.18591,35.647757],[-90.186875,35.646773],[-90.186822,35.64051],[-90.201474,35.640652]]]}},{"type":"Feature","properties":{"zcta5":"72442","AFFGEOID10":"8600000US72442","GEOID10":"72442","ALAND10":291142868,"AWATER10":129239,"county_name":"Mississippi","state_code":"AR","county_state":"Mississippi County, AR","county_fips":"05093","risk_level_county":"Higher Risk (60–69% vaccinated)","mean_vaccination_rate_county":67.06,"risk_level_zcta":"Medium Risk (70–79% vaccinated)","mean_vaccination_rate_zips":74.26,"cases":8},"geometry":{"type":"MultiPolygon","coordinates":[[[[-90.177773,35.729908],[-90.18067,35.728564],[-90.18399,35.729427],[-90.190628,35.729084],[-90.203142,35.729137],[-90.203212,35.735456],[-90.204265,35.735305],[-90.204314,35.731954],[-90.205438,35.731914],[-90.205359,35.729158],[-90.212055,35.729211],[-90.212086,35.742907],[-90.213178,35.742921],[-90.213142,35.728302],[-90.213135,35.727404],[-90.19163,35.727236],[-90.187841,35.727598],[-90.183618,35.72758],[-90.181225,35.726807],[-90.17817,35.727309],[-90.177773,35.729908]]],[[[-90.286727,35.830511],[-90.286707,35.816185],[-90.287201,35.808895],[-90.286736,35.699914],[-90.286537,35.69496],[-90.275874,35.69584],[-90.274708,35.696394],[-90.2682,35.702926],[-90.267465,35.700954],[-90.264228,35.704013],[-90.260096,35.714813],[-90.259665,35.727605],[-90.258966,35.729518],[-90.249769,35.736763],[-90.24102,35.74293],[-90.257622,35.743024],[-90.241845,35.757484],[-90.216119,35.757493],[-90.212983,35.757403],[-90.212942,35.749763],[-90.195468,35.749839],[-90.195588,35.748882],[-90.19558,35.735357],[-90.182016,35.735021],[-90.179464,35.733696],[-90.177825,35.733571],[-90.177878,35.742162],[-90.143876,35.742125],[-90.143644,35.756626],[-90.136879,35.756449],[-90.137948,35.757464],[-90.140649,35.758056],[-90.144277,35.757623],[-90.147161,35.758905],[-90.148474,35.760312],[-90.150079,35.763975],[-90.150301,35.767698],[-90.148879,35.771078],[-90.126254,35.771101],[-90.126171,35.777284],[-90.121982,35.779557],[-90.120113,35.780093],[-90.118109,35.781573],[-90.114034,35.783176],[-90.110118,35.784057],[-90.108726,35.785314],[-90.101411,35.78567],[-90.074476,35.784835],[-90.073713,35.78486],[-90.074089,35.846954],[-90.100593,35.846268],[-90.100133,35.849994],[-90.096094,35.852033],[-90.09393,35.854482],[-90.091027,35.856532],[-90.07453,35.872848],[-90.083172,35.872915],[-90.083019,35.880487],[-90.078128,35.887105],[-90.081683,35.8871],[-90.083435,35.887004],[-90.083829,35.884972],[-90.085814,35.882319],[-90.094496,35.872399],[-90.099109,35.865271],[-90.100138,35.864241],[-90.102045,35.863959],[-90.10363,35.86083],[-90.10506,35.859854],[-90.111584,35.854457],[-90.117659,35.850536],[-90.123248,35.850457],[-90.126055,35.849388],[-90.127744,35.84954],[-90.138181,35.854488],[-90.140022,35.85563],[-90.139586,35.856165],[-90.13977,35.861797],[-90.135645,35.86543],[-90.133018,35.868995],[-90.1325,35.872901],[-90.132657,35.87971],[-90.13319,35.88561],[-90.13308,35.890064],[-90.135617,35.892376],[-90.136023,35.894065],[-90.135857,35.898269],[-90.134842,35.902263],[-90.135441,35.907976],[-90.136396,35.911774],[-90.139789,35.915977],[-90.141364,35.915985],[-90.141494,35.901719],[-90.156496,35.90174],[-90.159234,35.901926],[-90.15916,35.916025],[-90.194457,35.91627],[-90.195904,35.916675],[-90.231168,35.916411],[-90.231034,35.908499],[-90.237837,35.90313],[-90.236788,35.902743],[-90.244144,35.902738],[-90.244473,35.89563],[-90.243111,35.895496],[-90.243579,35.892333],[-90.243215,35.888241],[-90.257613,35.888385],[-90.257461,35.87397],[-90.266135,35.874022],[-90.26618,35.867387],[-90.265162,35.866579],[-90.275048,35.866734],[-90.275292,35.844824],[-90.286742,35.845026],[-90.286727,35.830511]]]]}},{"type":"Feature","properties":{"zcta5":"72426","AFFGEOID10":"8600000US72426","GEOID10":"72426","ALAND10":2271881,"AWATER10":13022,"county_name":"Mississippi","state_code":"AR","county_state":"Mississippi County, AR","county_fips":"05093","risk_level_county":"Higher Risk (60–69% vaccinated)","mean_vaccination_rate_county":67.06,"risk_level_zcta":"Uninhabited","mean_vaccination_rate_zips":null,"cases":8},"geometry":{"type":"MultiPolygon","coordinates":[[[[-90.044263,35.861413],[-90.04373,35.861955],[-90.040974,35.864331],[-90.038484,35.867335],[-90.038066,35.869766],[-90.039088,35.877521],[-90.035634,35.882188],[-90.035651,35.886909],[-90.036914,35.887127],[-90.042086,35.886904],[-90.043854,35.886228],[-90.044517,35.884952],[-90.044264,35.861492],[-90.044263,35.861413]]],[[[-90.044263,35.861413],[-90.044342,35.861333],[-90.048845,35.857967],[-90.048591,35.84963],[-90.040925,35.854],[-90.040913,35.855471],[-90.036947,35.857807],[-90.035583,35.857841],[-90.035573,35.860698],[-90.037498,35.859361],[-90.044128,35.859296],[-90.044263,35.861376],[-90.044263,35.861413]]]]}}]}