{"type":"FeatureCollection","features":[{"type":"Feature","properties":{"zcta5":"75568","AFFGEOID10":"8600000US75568","GEOID10":"75568","ALAND10":347325129,"AWATER10":3061437,"county_name":"Morris","state_code":"TX","county_state":"Morris County, TX","county_fips":"48343","risk_level_county":"Higher Risk (60–69% vaccinated)","mean_vaccination_rate_county":64.2,"risk_level_zcta":"Higher Risk (60–69% vaccinated)","mean_vaccination_rate_zips":61.35,"cases":188},"geometry":{"type":"Polygon","coordinates":[[[-94.707458,33.311943],[-94.696052,33.194909],[-94.692704,33.199675],[-94.688794,33.199899],[-94.687741,33.196921],[-94.698558,33.188858],[-94.706719,33.185426],[-94.706514,33.184851],[-94.695923,33.18936],[-94.692955,33.191373],[-94.689842,33.187932],[-94.690057,33.18694],[-94.706241,33.180031],[-94.708414,33.17967],[-94.70849,33.17555],[-94.708732,33.169283],[-94.711152,33.169293],[-94.71144,33.168492],[-94.716304,33.168505],[-94.717344,33.16819],[-94.717365,33.165489],[-94.718763,33.164445],[-94.718764,33.157349],[-94.72078,33.157018],[-94.720331,33.156008],[-94.720454,33.142984],[-94.719968,33.139142],[-94.720439,33.135823],[-94.719665,33.1315],[-94.71967,33.121094],[-94.71716,33.120485],[-94.715936,33.115855],[-94.712669,33.115828],[-94.710576,33.114154],[-94.710711,33.111328],[-94.698936,33.111649],[-94.697221,33.117569],[-94.69115,33.117668],[-94.691013,33.122014],[-94.675293,33.122061],[-94.674616,33.120434],[-94.674445,33.112094],[-94.670274,33.111947],[-94.669863,33.108694],[-94.666811,33.108694],[-94.666799,33.107143],[-94.664274,33.107414],[-94.664197,33.106253],[-94.665441,33.099327],[-94.658715,33.099274],[-94.658629,33.104855],[-94.653485,33.105108],[-94.643113,33.107816],[-94.639467,33.107813],[-94.634994,33.109555],[-94.635061,33.113114],[-94.628431,33.112395],[-94.627103,33.111961],[-94.620517,33.107988],[-94.62013,33.108804],[-94.617138,33.111096],[-94.616376,33.111188],[-94.613516,33.109976],[-94.604888,33.108513],[-94.603717,33.107436],[-94.600859,33.106774],[-94.599118,33.106935],[-94.594517,33.10476],[-94.589401,33.10483],[-94.588556,33.101602],[-94.586378,33.102358],[-94.586161,33.103229],[-94.583277,33.104923],[-94.5808,33.105383],[-94.579386,33.107284],[-94.579577,33.110216],[-94.578135,33.111224],[-94.575903,33.110812],[-94.575521,33.106277],[-94.574938,33.105792],[-94.575245,33.102834],[-94.580412,33.099086],[-94.582754,33.095733],[-94.583698,33.092791],[-94.582194,33.087851],[-94.574081,33.092064],[-94.572966,33.092205],[-94.561546,33.092253],[-94.560143,33.09208],[-94.557003,33.092816],[-94.556351,33.094457],[-94.552946,33.095126],[-94.551573,33.096804],[-94.550579,33.099477],[-94.54481,33.099384],[-94.543682,33.099836],[-94.543649,33.104467],[-94.538435,33.104515],[-94.53823,33.108207],[-94.538607,33.110653],[-94.541078,33.111396],[-94.54453,33.113548],[-94.547814,33.116898],[-94.556994,33.117117],[-94.55816,33.11771],[-94.557776,33.118831],[-94.559709,33.119816],[-94.558922,33.123181],[-94.559435,33.125467],[-94.560443,33.126182],[-94.559844,33.128085],[-94.55881,33.12868],[-94.559817,33.130421],[-94.559734,33.133971],[-94.560388,33.135506],[-94.560713,33.138621],[-94.56006,33.139767],[-94.560223,33.143914],[-94.558562,33.144852],[-94.559514,33.147005],[-94.558371,33.148999],[-94.556328,33.149777],[-94.555784,33.152113],[-94.556519,33.153832],[-94.555729,33.155113],[-94.55611,33.156717],[-94.554449,33.158641],[-94.554939,33.160244],[-94.552624,33.161115],[-94.550632,33.162833],[-94.54973,33.162743],[-94.545658,33.16467],[-94.539868,33.16527],[-94.53745,33.165993],[-94.537614,33.166939],[-94.538558,33.169175],[-94.551033,33.169272],[-94.550738,33.177926],[-94.54125,33.177867],[-94.541244,33.183664],[-94.543026,33.183072],[-94.549117,33.183028],[-94.553131,33.185177],[-94.563848,33.185277],[-94.56399,33.189857],[-94.563657,33.190579],[-94.561557,33.190179],[-94.541206,33.190339],[-94.541214,33.19487],[-94.531116,33.196191],[-94.527997,33.197314],[-94.527898,33.193616],[-94.516829,33.194943],[-94.496597,33.195062],[-94.495809,33.198971],[-94.467463,33.198408],[-94.467436,33.20104],[-94.467206,33.205413],[-94.462661,33.205573],[-94.457848,33.213609],[-94.455564,33.215016],[-94.450021,33.215099],[-94.449715,33.215601],[-94.449747,33.223543],[-94.454662,33.22354],[-94.45565,33.224097],[-94.455655,33.229125],[-94.456014,33.233285],[-94.450752,33.234575],[-94.449447,33.23682],[-94.449938,33.238926],[-94.44814,33.242409],[-94.446777,33.243715],[-94.441653,33.246097],[-94.439417,33.245502],[-94.439636,33.247127],[-94.438136,33.248274],[-94.4359,33.246785],[-94.433198,33.250838],[-94.430008,33.251067],[-94.429899,33.253037],[-94.433444,33.256495],[-94.430253,33.256106],[-94.428617,33.257731],[-94.430171,33.259107],[-94.428072,33.260527],[-94.43129,33.261764],[-94.429244,33.263022],[-94.430281,33.264535],[-94.433498,33.265818],[-94.435625,33.268544],[-94.437888,33.267697],[-94.438994,33.26626],[-94.43905,33.270634],[-94.432625,33.276882],[-94.427695,33.277473],[-94.42908,33.278508],[-94.43257,33.278669],[-94.434534,33.277501],[-94.436606,33.275118],[-94.439033,33.276355],[-94.436934,33.279035],[-94.436934,33.280433],[-94.435625,33.282082],[-94.437234,33.284326],[-94.436606,33.28593],[-94.434779,33.286938],[-94.432843,33.286457],[-94.434725,33.28499],[-94.43377,33.282196],[-94.430307,33.282905],[-94.429107,33.28467],[-94.428125,33.284922],[-94.419644,33.283661],[-94.415743,33.283499],[-94.415252,33.28098],[-94.414298,33.280521],[-94.41359,33.277613],[-94.415663,33.276445],[-94.415199,33.275413],[-94.413345,33.275298],[-94.414905,33.274226],[-94.414464,33.273238],[-94.412173,33.272802],[-94.409973,33.273348],[-94.410388,33.273783],[-94.41389,33.273632],[-94.412651,33.275252],[-94.413953,33.276515],[-94.412943,33.278011],[-94.413203,33.279877],[-94.41494,33.283552],[-94.415739,33.284017],[-94.420885,33.284264],[-94.428915,33.285471],[-94.430002,33.28407],[-94.431886,33.282868],[-94.433353,33.282597],[-94.433945,33.283895],[-94.432414,33.286355],[-94.432995,33.28745],[-94.434291,33.287509],[-94.43722,33.286054],[-94.437825,33.284348],[-94.436295,33.281858],[-94.436513,33.281342],[-94.438478,33.281052],[-94.439998,33.283299],[-94.440956,33.283085],[-94.441322,33.281492],[-94.443824,33.281169],[-94.448222,33.283292],[-94.451986,33.283493],[-94.453789,33.284844],[-94.453984,33.287095],[-94.455299,33.287123],[-94.45759,33.285007],[-94.458957,33.285623],[-94.459082,33.289118],[-94.460774,33.289523],[-94.462009,33.287363],[-94.463592,33.287276],[-94.463927,33.288767],[-94.462833,33.290331],[-94.465615,33.293501],[-94.468442,33.294313],[-94.469735,33.293864],[-94.470906,33.292195],[-94.471325,33.290038],[-94.472247,33.288541],[-94.473464,33.288238],[-94.474587,33.289879],[-94.476869,33.289394],[-94.479896,33.289931],[-94.480109,33.288614],[-94.478754,33.286844],[-94.482279,33.284157],[-94.483849,33.284958],[-94.482719,33.287013],[-94.48523,33.287939],[-94.48892,33.284065],[-94.488814,33.282427],[-94.486303,33.281331],[-94.486661,33.280296],[-94.491811,33.27979],[-94.4957,33.284747],[-94.496671,33.284985],[-94.496457,33.281563],[-94.498328,33.281466],[-94.498874,33.28282],[-94.5002,33.283336],[-94.503971,33.282781],[-94.504177,33.283946],[-94.505376,33.284405],[-94.506931,33.284039],[-94.506141,33.28191],[-94.507014,33.281314],[-94.508541,33.282826],[-94.510068,33.281774],[-94.513478,33.282691],[-94.51495,33.282738],[-94.515578,33.281753],[-94.513697,33.280149],[-94.514516,33.279027],[-94.516288,33.280172],[-94.51656,33.281433],[-94.517868,33.282096],[-94.519233,33.280723],[-94.519288,33.279006],[-94.517543,33.278225],[-94.516971,33.277012],[-94.518499,33.274241],[-94.520299,33.275387],[-94.51918,33.277172],[-94.522616,33.276578],[-94.524117,33.273853],[-94.526626,33.270968],[-94.528863,33.26909],[-94.529954,33.26735],[-94.531372,33.267442],[-94.534154,33.266205],[-94.535108,33.266755],[-94.534698,33.269664],[-94.537534,33.269184],[-94.540833,33.269367],[-94.541187,33.26813],[-94.539443,33.267902],[-94.539198,33.265703],[-94.540016,33.264649],[-94.541188,33.264741],[-94.542442,33.266596],[-94.54356,33.265154],[-94.54506,33.265543],[-94.545877,33.26836],[-94.548767,33.267535],[-94.549258,33.265566],[-94.55114,33.26568],[-94.553131,33.267192],[-94.55384,33.268704],[-94.554957,33.269115],[-94.556893,33.267215],[-94.555721,33.266092],[-94.557984,33.263299],[-94.558311,33.261466],[-94.559347,33.261054],[-94.562565,33.262152],[-94.565018,33.265177],[-94.566381,33.263253],[-94.568972,33.264328],[-94.570962,33.260893],[-94.569925,33.258992],[-94.570007,33.257664],[-94.571779,33.257686],[-94.573306,33.257022],[-94.569789,33.254593],[-94.56968,33.253884],[-94.57077,33.253174],[-94.572406,33.253334],[-94.573005,33.252074],[-94.571969,33.250653],[-94.572463,33.249826],[-94.574711,33.250121],[-94.575867,33.251547],[-94.57693,33.250929],[-94.578294,33.251478],[-94.579438,33.251066],[-94.578406,33.247717],[-94.583967,33.249342],[-94.586039,33.249722],[-94.586444,33.250743],[-94.584945,33.252119],[-94.585573,33.253493],[-94.587862,33.251339],[-94.588734,33.251522],[-94.58789,33.253194],[-94.588299,33.254294],[-94.589827,33.255302],[-94.593043,33.255118],[-94.59318,33.255713],[-94.591354,33.256332],[-94.589773,33.258737],[-94.590455,33.259424],[-94.598143,33.258392],[-94.604085,33.257222],[-94.605121,33.256603],[-94.605147,33.253923],[-94.606509,33.253211],[-94.608009,33.254174],[-94.609508,33.253601],[-94.608826,33.25179],[-94.607108,33.250599],[-94.605418,33.250473],[-94.604767,33.249673],[-94.607601,33.247663],[-94.609045,33.247571],[-94.61319,33.249218],[-94.614743,33.248942],[-94.617168,33.247086],[-94.61864,33.246833],[-94.618968,33.24862],[-94.620358,33.250121],[-94.623423,33.251807],[-94.625204,33.251841],[-94.626725,33.250638],[-94.62847,33.250593],[-94.630296,33.252194],[-94.634839,33.251351],[-94.635963,33.252401],[-94.64136,33.253597],[-94.641523,33.256737],[-94.643212,33.258043],[-94.645421,33.257447],[-94.649101,33.25871],[-94.649726,33.259604],[-94.648582,33.260268],[-94.650162,33.262905],[-94.649561,33.265149],[-94.651443,33.265379],[-94.650134,33.267577],[-94.650706,33.268653],[-94.65226,33.268861],[-94.652751,33.268265],[-94.654031,33.271289],[-94.65354,33.272526],[-94.654521,33.274701],[-94.65253,33.274701],[-94.652448,33.275709],[-94.654847,33.276328],[-94.658337,33.276397],[-94.659428,33.275388],[-94.662264,33.277679],[-94.659809,33.280589],[-94.661036,33.280566],[-94.660463,33.282444],[-94.663707,33.283796],[-94.666598,33.283247],[-94.668779,33.284141],[-94.669652,33.285171],[-94.672271,33.284805],[-94.675134,33.286248],[-94.674752,33.287416],[-94.673143,33.287416],[-94.672352,33.28973],[-94.67497,33.28918],[-94.675869,33.290715],[-94.67456,33.291448],[-94.673769,33.293028],[-94.675733,33.293418],[-94.676769,33.29486],[-94.678105,33.294632],[-94.67876,33.293624],[-94.677778,33.291677],[-94.678542,33.290624],[-94.68056,33.292845],[-94.68206,33.293692],[-94.684514,33.293762],[-94.686314,33.292777],[-94.687214,33.293464],[-94.687951,33.296028],[-94.690542,33.300311],[-94.690406,33.302945],[-94.691333,33.304778],[-94.691306,33.307823],[-94.690051,33.309496],[-94.690571,33.310847],[-94.692262,33.312405],[-94.693762,33.311328],[-94.694771,33.309381],[-94.694989,33.307228],[-94.696408,33.307411],[-94.697963,33.309266],[-94.698727,33.311487],[-94.702082,33.311396],[-94.701318,33.313114],[-94.701483,33.31545],[-94.702792,33.315815],[-94.704047,33.314923],[-94.702874,33.313983],[-94.703501,33.313114],[-94.707458,33.311943]]]}},{"type":"Feature","properties":{"zcta5":"75686","AFFGEOID10":"8600000US75686","GEOID10":"75686","ALAND10":600681979,"AWATER10":32418730,"county_name":"Morris","state_code":"TX","county_state":"Morris County, TX","county_fips":"48343","risk_level_county":"Higher Risk (60–69% vaccinated)","mean_vaccination_rate_county":64.2,"risk_level_zcta":"Higher Risk (60–69% vaccinated)","mean_vaccination_rate_zips":61.31,"cases":188},"geometry":{"type":"Polygon","coordinates":[[[-95.146789,32.902621],[-95.146643,32.898791],[-95.145374,32.8988],[-95.145414,32.901485],[-95.136779,32.901573],[-95.136748,32.900132],[-95.132642,32.899724],[-95.135334,32.897872],[-95.131253,32.897456],[-95.132164,32.895964],[-95.134667,32.89593],[-95.135255,32.886228],[-95.134642,32.875541],[-95.134596,32.86856],[-95.127039,32.870088],[-95.127247,32.869269],[-95.127268,32.865812],[-95.130787,32.861866],[-95.131499,32.859178],[-95.126575,32.85891],[-95.123216,32.855555],[-95.118001,32.853541],[-95.116594,32.852725],[-95.113546,32.852612],[-95.111679,32.851909],[-95.108115,32.851691],[-95.104475,32.850715],[-95.104675,32.867356],[-95.097233,32.867258],[-95.093365,32.866782],[-95.082622,32.86254],[-95.077191,32.861347],[-95.072613,32.861545],[-95.068279,32.860714],[-95.066674,32.86592],[-95.059802,32.866146],[-95.059342,32.869659],[-95.050016,32.869725],[-95.049217,32.870064],[-95.049203,32.872087],[-95.044186,32.872123],[-95.043154,32.872526],[-95.03762,32.872532],[-95.036831,32.867587],[-95.035921,32.867126],[-95.035894,32.863946],[-95.035329,32.86206],[-95.033261,32.861635],[-95.029268,32.862993],[-95.027816,32.862701],[-95.025073,32.865157],[-95.020097,32.86665],[-95.01544,32.866721],[-95.013094,32.867697],[-95.012526,32.871023],[-95.008239,32.873556],[-95.007692,32.87433],[-95.004462,32.873675],[-95.00086,32.875721],[-94.998951,32.877873],[-94.995459,32.876692],[-94.996774,32.875351],[-94.996003,32.874347],[-94.995851,32.871859],[-94.994483,32.871755],[-94.993021,32.867325],[-94.990142,32.867475],[-94.989692,32.866447],[-94.987699,32.865271],[-94.985889,32.867224],[-94.983708,32.868709],[-94.983018,32.868473],[-94.982576,32.870314],[-94.979848,32.872304],[-94.980331,32.874834],[-94.982155,32.874986],[-94.981793,32.876455],[-94.982875,32.877352],[-94.981703,32.878242],[-94.98115,32.880936],[-94.983589,32.885146],[-94.98239,32.884932],[-94.982157,32.887994],[-94.983232,32.888554],[-94.98251,32.889609],[-94.983742,32.890554],[-94.983795,32.892572],[-94.98564,32.894593],[-94.988031,32.89463],[-94.986787,32.895823],[-94.988456,32.897506],[-94.989765,32.899073],[-94.985878,32.900832],[-94.986321,32.901634],[-94.984365,32.902621],[-94.981774,32.902703],[-94.968707,32.902621],[-94.969185,32.896138],[-94.969131,32.890315],[-94.966788,32.890397],[-94.966591,32.887639],[-94.967486,32.87551],[-94.967459,32.871826],[-94.967271,32.874245],[-94.966264,32.875554],[-94.966298,32.880066],[-94.966852,32.882512],[-94.965387,32.884338],[-94.962274,32.886169],[-94.959832,32.889418],[-94.960177,32.891122],[-94.961402,32.892583],[-94.96152,32.895001],[-94.962355,32.895881],[-94.96145,32.89781],[-94.959301,32.898474],[-94.952644,32.898496],[-94.952635,32.893422],[-94.941805,32.893397],[-94.937337,32.893653],[-94.937049,32.902777],[-94.900412,32.902597],[-94.892537,32.879419],[-94.891474,32.881276],[-94.89249,32.883398],[-94.890691,32.884497],[-94.890123,32.886349],[-94.884962,32.889606],[-94.883945,32.890085],[-94.881548,32.889347],[-94.88059,32.889913],[-94.879092,32.888872],[-94.877795,32.889879],[-94.874712,32.888984],[-94.873559,32.890034],[-94.870093,32.890189],[-94.866059,32.887504],[-94.864476,32.88762],[-94.863055,32.886741],[-94.860025,32.886176],[-94.859842,32.885011],[-94.857828,32.88378],[-94.851398,32.882491],[-94.848843,32.881166],[-94.848641,32.880282],[-94.845853,32.880882],[-94.84483,32.880332],[-94.841632,32.881574],[-94.838707,32.881712],[-94.837887,32.883868],[-94.83751,32.886809],[-94.836728,32.88759],[-94.838565,32.887969],[-94.838429,32.889832],[-94.836463,32.893532],[-94.835401,32.893465],[-94.83501,32.892719],[-94.836442,32.890487],[-94.834415,32.887611],[-94.836349,32.882714],[-94.836283,32.881104],[-94.835475,32.879438],[-94.831631,32.87657],[-94.83114,32.874893],[-94.829455,32.875174],[-94.828866,32.873156],[-94.831389,32.868572],[-94.833369,32.867322],[-94.836587,32.867015],[-94.836182,32.865715],[-94.836474,32.861796],[-94.835605,32.861718],[-94.828527,32.863861],[-94.825365,32.863017],[-94.820338,32.860536],[-94.815906,32.859583],[-94.813877,32.85803],[-94.810162,32.857652],[-94.806219,32.855572],[-94.793858,32.859657],[-94.79366,32.861182],[-94.791978,32.862557],[-94.791353,32.864592],[-94.783423,32.866936],[-94.785574,32.872234],[-94.771587,32.872283],[-94.771511,32.871342],[-94.761434,32.87133],[-94.763508,32.87422],[-94.748396,32.879919],[-94.747166,32.879158],[-94.745808,32.884805],[-94.745404,32.888592],[-94.745767,32.890136],[-94.743835,32.891423],[-94.743976,32.893338],[-94.747399,32.897349],[-94.750989,32.897833],[-94.752689,32.898472],[-94.758565,32.903869],[-94.757312,32.903652],[-94.719942,32.904502],[-94.722102,32.906542],[-94.72348,32.906125],[-94.724788,32.910218],[-94.726482,32.91087],[-94.727829,32.913539],[-94.729764,32.913047],[-94.733869,32.91364],[-94.736642,32.912365],[-94.735697,32.914326],[-94.736803,32.915016],[-94.735843,32.916143],[-94.737784,32.915899],[-94.737594,32.917707],[-94.740257,32.917945],[-94.74155,32.919254],[-94.743666,32.919027],[-94.746117,32.919528],[-94.747637,32.918652],[-94.74813,32.920879],[-94.749347,32.921376],[-94.750452,32.920093],[-94.752186,32.919939],[-94.750557,32.918801],[-94.751555,32.917872],[-94.753269,32.917817],[-94.755921,32.918413],[-94.756415,32.919958],[-94.757309,32.9197],[-94.758585,32.921273],[-94.760006,32.921146],[-94.763453,32.922907],[-94.765746,32.92525],[-94.767968,32.926377],[-94.769057,32.926009],[-94.77092,32.927439],[-94.770867,32.930056],[-94.772136,32.934773],[-94.774164,32.933993],[-94.775376,32.934312],[-94.775395,32.936615],[-94.776437,32.938397],[-94.773784,32.939186],[-94.775576,32.940551],[-94.773144,32.940787],[-94.774369,32.942755],[-94.773919,32.943827],[-94.776481,32.944432],[-94.776336,32.946235],[-94.779916,32.946494],[-94.779185,32.947291],[-94.7812,32.947446],[-94.781505,32.949661],[-94.783943,32.952058],[-94.785703,32.95224],[-94.786577,32.953153],[-94.78554,32.954048],[-94.787919,32.956578],[-94.786654,32.95721],[-94.786081,32.956198],[-94.784731,32.956823],[-94.785813,32.958236],[-94.787202,32.957924],[-94.786386,32.959293],[-94.789685,32.960184],[-94.790304,32.96224],[-94.791719,32.962531],[-94.792306,32.961421],[-94.793721,32.963009],[-94.796519,32.962345],[-94.797529,32.962719],[-94.798605,32.96494],[-94.802817,32.965868],[-94.8039,32.968667],[-94.804767,32.9696],[-94.803919,32.971064],[-94.804662,32.971722],[-94.806521,32.971151],[-94.809097,32.971629],[-94.81061,32.973449],[-94.812651,32.974472],[-94.811973,32.975406],[-94.815488,32.976087],[-94.814751,32.977148],[-94.815815,32.977935],[-94.818508,32.977896],[-94.817517,32.980188],[-94.815723,32.980984],[-94.819828,32.982886],[-94.817646,33.040322],[-94.815609,33.040292],[-94.815632,33.042789],[-94.813209,33.044556],[-94.808135,33.044646],[-94.807008,33.045443],[-94.806874,33.049672],[-94.796113,33.049633],[-94.795554,33.053482],[-94.794566,33.055855],[-94.792642,33.057009],[-94.792687,33.063834],[-94.806472,33.063797],[-94.806656,33.064894],[-94.80662,33.072449],[-94.811267,33.072222],[-94.811303,33.070072],[-94.816993,33.070161],[-94.81749,33.050586],[-94.819824,33.050598],[-94.819574,33.068604],[-94.821743,33.070075],[-94.823661,33.074236],[-94.829358,33.073971],[-94.829573,33.070611],[-94.832383,33.070665],[-94.834126,33.072567],[-94.837138,33.074716],[-94.840908,33.075815],[-94.84658,33.073349],[-94.847761,33.071904],[-94.84816,33.073416],[-94.845725,33.074708],[-94.852936,33.077084],[-94.856594,33.074137],[-94.858447,33.071727],[-94.85855,33.069594],[-94.872859,33.069619],[-94.876703,33.069024],[-94.878081,33.067615],[-94.877442,33.065664],[-94.879135,33.063587],[-94.881041,33.062196],[-94.88032,33.057678],[-94.881353,33.054502],[-94.87901,33.053357],[-94.878495,33.052263],[-94.876199,33.050998],[-94.877216,33.048228],[-94.886896,33.051974],[-94.886812,33.050573],[-94.887812,33.0482],[-94.891024,33.045831],[-94.893308,33.045617],[-94.896064,33.042354],[-94.898133,33.042189],[-94.898382,33.038826],[-94.897763,33.036737],[-94.900869,33.037639],[-94.900503,33.040277],[-94.901123,33.039788],[-94.901905,33.041597],[-94.905449,33.042476],[-94.905507,33.044334],[-94.906303,33.043467],[-94.908567,33.045209],[-94.910793,33.045924],[-94.912301,33.044507],[-94.914441,33.044496],[-94.917058,33.04558],[-94.917998,33.046706],[-94.916633,33.048223],[-94.918657,33.047949],[-94.921469,33.050725],[-94.921143,33.052737],[-94.922024,33.053913],[-94.920868,33.054974],[-94.924269,33.057024],[-94.922304,33.057442],[-94.92451,33.058624],[-94.922838,33.062449],[-94.924483,33.06185],[-94.926063,33.062285],[-94.926331,33.063944],[-94.924281,33.06617],[-94.924176,33.067549],[-94.925815,33.066583],[-94.926924,33.067484],[-94.926121,33.067456],[-94.927172,33.070739],[-94.929059,33.070639],[-94.930188,33.069744],[-94.930489,33.070864],[-94.933779,33.071596],[-94.933276,33.072646],[-94.934725,33.072657],[-94.936129,33.073833],[-94.937657,33.073531],[-94.939152,33.074514],[-94.941019,33.07441],[-94.941535,33.072937],[-94.943252,33.07441],[-94.945295,33.074998],[-94.945817,33.073437],[-94.948938,33.074437],[-94.950146,33.073596],[-94.953312,33.074326],[-94.954781,33.073002],[-94.957412,33.073666],[-94.959474,33.072297],[-94.962543,33.073307],[-94.967361,33.072735],[-94.970351,33.0733],[-94.972276,33.071925],[-94.972733,33.072733],[-94.97481,33.07282],[-94.977154,33.074061],[-94.977357,33.075342],[-94.979414,33.077343],[-94.980968,33.077348],[-94.982508,33.076154],[-94.985746,33.076109],[-94.987429,33.073371],[-94.989093,33.072809],[-94.991248,33.073886],[-94.993565,33.073022],[-94.995668,33.074439],[-94.998633,33.074613],[-94.998634,33.076482],[-95.002753,33.074962],[-95.003828,33.073532],[-95.003166,33.072405],[-95.007223,33.071149],[-95.006527,33.072847],[-95.007678,33.072499],[-95.010167,33.073154],[-95.010044,33.074984],[-95.011292,33.074542],[-95.011413,33.075785],[-95.014203,33.076045],[-95.014032,33.074939],[-95.015488,33.074747],[-95.01827,33.075742],[-95.021388,33.074745],[-95.022291,33.075167],[-95.024196,33.07407],[-95.025686,33.074306],[-95.025744,33.0732],[-95.030058,33.073043],[-95.030475,33.07144],[-95.031178,33.072994],[-95.032798,33.071624],[-95.033445,33.072719],[-95.03491,33.074275],[-95.035935,33.079317],[-95.035818,33.080723],[-95.03696,33.079859],[-95.038997,33.079904],[-95.039911,33.081806],[-95.045454,33.082071],[-95.048894,33.082489],[-95.050141,33.085782],[-95.052302,33.083649],[-95.054183,33.084248],[-95.055306,33.083731],[-95.056507,33.084764],[-95.058733,33.085248],[-95.058723,33.086826],[-95.059989,33.086281],[-95.059912,33.084367],[-95.062279,33.084074],[-95.062158,33.081412],[-95.060909,33.08052],[-95.060637,33.078204],[-95.066728,33.08094],[-95.069683,33.080972],[-95.0723,33.083292],[-95.075059,33.084909],[-95.083326,33.085075],[-95.083649,33.090086],[-95.088444,33.092215],[-95.094754,33.084735],[-95.100132,33.080396],[-95.106984,33.073735],[-95.108468,33.068647],[-95.111939,33.074137],[-95.114348,33.077101],[-95.115685,33.07987],[-95.117512,33.082551],[-95.117981,33.084252],[-95.118003,33.087676],[-95.123561,33.087707],[-95.125769,33.088025],[-95.125949,33.053024],[-95.12613,33.034581],[-95.125217,33.035362],[-95.122222,33.035756],[-95.120935,33.034239],[-95.118656,33.034743],[-95.115039,33.034076],[-95.11477,33.033138],[-95.113063,33.032635],[-95.113252,33.031838],[-95.115009,33.031953],[-95.113617,33.030509],[-95.112614,33.031568],[-95.110405,33.031757],[-95.109588,33.031073],[-95.109276,33.032871],[-95.10833,33.031664],[-95.107535,33.033006],[-95.104969,33.032466],[-95.105238,33.03342],[-95.103043,33.032956],[-95.103228,33.034773],[-95.102161,33.035117],[-95.099708,33.029471],[-95.100475,33.02637],[-95.102844,33.023345],[-95.103208,33.020708],[-95.102476,33.018991],[-95.100355,33.018487],[-95.098062,33.01565],[-95.09481,33.014359],[-95.092657,33.012479],[-95.092349,33.009819],[-95.090026,33.007412],[-95.089764,33.003152],[-95.088599,33.000985],[-95.08044,33.003425],[-95.080545,32.992016],[-95.08651,32.989009],[-95.087331,32.988335],[-95.084719,32.988332],[-95.084382,32.98718],[-95.083137,32.987167],[-95.083185,32.98399],[-95.078486,32.976806],[-95.074559,32.972738],[-95.07295,32.967259],[-95.071698,32.9653],[-95.068588,32.962632],[-95.066911,32.9624],[-95.066778,32.95931],[-95.067153,32.957442],[-95.068888,32.956466],[-95.072446,32.957714],[-95.075374,32.957666],[-95.076246,32.956777],[-95.076158,32.953228],[-95.076732,32.951977],[-95.076109,32.950001],[-95.079891,32.946841],[-95.083497,32.94773],[-95.085296,32.946872],[-95.08819,32.947224],[-95.09325,32.95046],[-95.093545,32.953978],[-95.093226,32.956034],[-95.094928,32.956637],[-95.096297,32.956797],[-95.09938,32.954619],[-95.101368,32.953888],[-95.103943,32.954552],[-95.103989,32.946603],[-95.104706,32.940828],[-95.101154,32.940983],[-95.100131,32.94146],[-95.096206,32.941094],[-95.091017,32.939949],[-95.087803,32.938671],[-95.083293,32.938144],[-95.079799,32.936737],[-95.077748,32.936335],[-95.075295,32.936563],[-95.074044,32.937888],[-95.071294,32.937886],[-95.067445,32.939833],[-95.063984,32.940783],[-95.062826,32.93766],[-95.062497,32.933369],[-95.062476,32.925069],[-95.06362,32.925472],[-95.066722,32.923978],[-95.06725,32.924973],[-95.070074,32.925109],[-95.074647,32.92666],[-95.078584,32.927329],[-95.079197,32.927995],[-95.080129,32.927835],[-95.080825,32.925109],[-95.083054,32.923498],[-95.083548,32.92103],[-95.086767,32.919474],[-95.094306,32.917389],[-95.095707,32.917394],[-95.098378,32.915981],[-95.103153,32.91211],[-95.103557,32.911043],[-95.106045,32.90957],[-95.107947,32.909194],[-95.11176,32.909841],[-95.113701,32.910604],[-95.113794,32.907784],[-95.114432,32.908295],[-95.121359,32.908203],[-95.122296,32.90759],[-95.122568,32.902586],[-95.142798,32.902444],[-95.146789,32.902621]]]}},{"type":"Feature","properties":{"zcta5":"75656","AFFGEOID10":"8600000US75656","GEOID10":"75656","ALAND10":277475508,"AWATER10":1220043,"county_name":"Morris","state_code":"TX","county_state":"Morris County, TX","county_fips":"48343","risk_level_county":"Higher Risk (60–69% vaccinated)","mean_vaccination_rate_county":64.2,"risk_level_zcta":"Higher Risk (60–69% vaccinated)","mean_vaccination_rate_zips":66.13,"cases":188},"geometry":{"type":"Polygon","coordinates":[[[-94.620517,33.107988],[-94.618427,33.106651],[-94.617218,33.1053],[-94.616564,33.103544],[-94.615683,33.098289],[-94.612734,33.090865],[-94.612379,33.089011],[-94.616099,33.089365],[-94.618671,33.091138],[-94.623457,33.091233],[-94.624738,33.092953],[-94.627724,33.09243],[-94.632787,33.092464],[-94.636137,33.091336],[-94.641966,33.091197],[-94.641737,33.077351],[-94.641282,33.07667],[-94.638087,33.074652],[-94.636424,33.074117],[-94.635066,33.07246],[-94.637296,33.072277],[-94.640698,33.06937],[-94.645497,33.069324],[-94.648007,33.06826],[-94.653909,33.067791],[-94.653963,33.07304],[-94.655166,33.075567],[-94.65784,33.076831],[-94.659185,33.078974],[-94.67165,33.08887],[-94.682981,33.074261],[-94.682617,33.073253],[-94.684405,33.072529],[-94.68434,33.066467],[-94.686553,33.062857],[-94.691494,33.058743],[-94.69153,33.054129],[-94.686418,33.055065],[-94.68184,33.0553],[-94.678465,33.056099],[-94.671129,33.056528],[-94.671012,33.050769],[-94.672695,33.049405],[-94.676322,33.047688],[-94.678918,33.044095],[-94.680043,33.04383],[-94.678867,33.040405],[-94.679079,33.038984],[-94.682618,33.039189],[-94.690255,33.039181],[-94.692268,33.041322],[-94.693482,33.041404],[-94.693547,33.04289],[-94.701994,33.043004],[-94.700931,33.039344],[-94.702014,33.036651],[-94.689638,33.032198],[-94.682744,33.032055],[-94.681505,33.031267],[-94.677993,33.030825],[-94.676651,33.029418],[-94.676516,33.027512],[-94.675017,33.026622],[-94.667147,33.026294],[-94.666788,33.014336],[-94.666792,33.012822],[-94.660693,33.009287],[-94.66038,33.008702],[-94.653596,33.005682],[-94.653589,33.004891],[-94.653572,32.986931],[-94.657655,32.986677],[-94.661808,32.985489],[-94.665258,32.981209],[-94.66708,32.977865],[-94.667515,32.973743],[-94.664977,32.968595],[-94.664922,32.962702],[-94.664299,32.958677],[-94.661249,32.960274],[-94.658053,32.964038],[-94.656733,32.96409],[-94.654709,32.960821],[-94.653673,32.954302],[-94.653994,32.879506],[-94.626842,32.879501],[-94.614969,32.87961],[-94.618629,32.880944],[-94.618635,32.883771],[-94.619699,32.886958],[-94.620449,32.887403],[-94.6217,32.887628],[-94.622487,32.886017],[-94.623426,32.886384],[-94.625085,32.889592],[-94.625724,32.88984],[-94.620786,32.89199],[-94.621604,32.89519],[-94.620122,32.901249],[-94.619299,32.910562],[-94.615959,32.910486],[-94.612935,32.909179],[-94.611306,32.907916],[-94.607917,32.906447],[-94.604866,32.904376],[-94.602185,32.903278],[-94.594746,32.901766],[-94.5911,32.902231],[-94.589844,32.901899],[-94.589408,32.904849],[-94.588411,32.907114],[-94.586784,32.909004],[-94.585577,32.912746],[-94.580696,32.918259],[-94.579534,32.918647],[-94.580897,32.925347],[-94.580509,32.928233],[-94.582305,32.935843],[-94.58473,32.938466],[-94.588463,32.945956],[-94.590189,32.946376],[-94.591685,32.945628],[-94.59212,32.946415],[-94.591225,32.94717],[-94.588536,32.947035],[-94.587178,32.94841],[-94.584543,32.949693],[-94.579784,32.950403],[-94.578614,32.952669],[-94.57487,32.953682],[-94.571696,32.956398],[-94.569657,32.957448],[-94.547119,32.957414],[-94.545934,32.956727],[-94.54319,32.952769],[-94.540449,32.953198],[-94.536321,32.955126],[-94.533523,32.955436],[-94.531149,32.954891],[-94.531307,32.958714],[-94.525206,32.960157],[-94.524721,32.968608],[-94.531195,32.968525],[-94.531347,32.973731],[-94.52234,32.973792],[-94.506261,32.974632],[-94.506122,32.972454],[-94.506965,32.971172],[-94.505117,32.971055],[-94.503597,32.969085],[-94.49626,32.970756],[-94.495118,32.970779],[-94.491639,32.969338],[-94.489001,32.966338],[-94.486554,32.965217],[-94.484353,32.965195],[-94.483457,32.966501],[-94.482072,32.966707],[-94.481121,32.968013],[-94.478676,32.96877],[-94.482293,32.973236],[-94.482321,32.975183],[-94.480935,32.976191],[-94.481018,32.977612],[-94.479795,32.978001],[-94.475093,32.977545],[-94.472648,32.978416],[-94.470935,32.977775],[-94.470474,32.980455],[-94.469361,32.982334],[-94.469443,32.983961],[-94.468166,32.984671],[-94.469798,32.988382],[-94.473197,32.990533],[-94.473686,32.991633],[-94.472165,32.992939],[-94.472519,32.994473],[-94.471894,32.996192],[-94.466648,32.998942],[-94.461834,33.00013],[-94.460149,33.001436],[-94.45841,33.003909],[-94.456942,33.004826],[-94.455284,33.008606],[-94.456019,33.009202],[-94.456427,33.011584],[-94.462136,33.011217],[-94.463795,33.012042],[-94.464909,33.011699],[-94.468471,33.013396],[-94.469152,33.014955],[-94.469316,33.01782],[-94.471925,33.018624],[-94.475923,33.020665],[-94.47663,33.022041],[-94.479078,33.023439],[-94.479296,33.026418],[-94.481499,33.02658],[-94.483784,33.028185],[-94.485687,33.030684],[-94.485685,33.032801],[-94.487181,33.03314],[-94.492721,33.035975],[-94.494282,33.036473],[-94.498743,33.03698],[-94.499531,33.032925],[-94.504266,33.032998],[-94.504321,33.036107],[-94.516717,33.036124],[-94.516602,33.034218],[-94.521247,33.034385],[-94.524439,33.033398],[-94.525932,33.037098],[-94.524327,33.038106],[-94.527209,33.039938],[-94.529193,33.043124],[-94.529084,33.044658],[-94.531313,33.045484],[-94.532401,33.047407],[-94.533842,33.047888],[-94.538797,33.052838],[-94.54105,33.051257],[-94.542545,33.053205],[-94.541462,33.05427],[-94.542895,33.056135],[-94.542073,33.059622],[-94.540824,33.060173],[-94.540916,33.06133],[-94.538027,33.06452],[-94.537265,33.066992],[-94.536013,33.067932],[-94.53604,33.068917],[-94.537509,33.070544],[-94.540582,33.072422],[-94.542759,33.07256],[-94.542704,33.073683],[-94.544418,33.074461],[-94.543221,33.075195],[-94.546485,33.078974],[-94.546104,33.08044],[-94.547464,33.080692],[-94.549015,33.08209],[-94.547464,33.083945],[-94.547572,33.084999],[-94.549531,33.085296],[-94.550783,33.086351],[-94.550429,33.090519],[-94.551028,33.093494],[-94.549506,33.095782],[-94.551573,33.096804],[-94.552946,33.095126],[-94.556351,33.094457],[-94.557003,33.092816],[-94.560143,33.09208],[-94.561546,33.092253],[-94.572966,33.092205],[-94.574081,33.092064],[-94.582194,33.087851],[-94.583698,33.092791],[-94.582754,33.095733],[-94.580412,33.099086],[-94.575245,33.102834],[-94.574938,33.105792],[-94.575521,33.106277],[-94.575903,33.110812],[-94.578135,33.111224],[-94.579577,33.110216],[-94.579386,33.107284],[-94.5808,33.105383],[-94.583277,33.104923],[-94.586161,33.103229],[-94.586378,33.102358],[-94.588556,33.101602],[-94.589401,33.10483],[-94.594517,33.10476],[-94.599118,33.106935],[-94.600859,33.106774],[-94.603717,33.107436],[-94.604888,33.108513],[-94.613516,33.109976],[-94.616376,33.111188],[-94.617138,33.111096],[-94.62013,33.108804],[-94.620517,33.107988]]]}},{"type":"Feature","properties":{"zcta5":"75638","AFFGEOID10":"8600000US75638","GEOID10":"75638","ALAND10":229391489,"AWATER10":7172237,"county_name":"Morris","state_code":"TX","county_state":"Morris County, TX","county_fips":"48343","risk_level_county":"Higher Risk (60–69% vaccinated)","mean_vaccination_rate_county":64.2,"risk_level_zcta":"Higher Risk (60–69% vaccinated)","mean_vaccination_rate_zips":60.42,"cases":188},"geometry":{"type":"Polygon","coordinates":[[[-94.816993,33.070161],[-94.811303,33.070072],[-94.811267,33.072222],[-94.80662,33.072449],[-94.806656,33.064894],[-94.806472,33.063797],[-94.792687,33.063834],[-94.792642,33.057009],[-94.794566,33.055855],[-94.795554,33.053482],[-94.796113,33.049633],[-94.806874,33.049672],[-94.807008,33.045443],[-94.808135,33.044646],[-94.813209,33.044556],[-94.815632,33.042789],[-94.815609,33.040292],[-94.817646,33.040322],[-94.819828,32.982886],[-94.815723,32.980984],[-94.817517,32.980188],[-94.818508,32.977896],[-94.815815,32.977935],[-94.814751,32.977148],[-94.815488,32.976087],[-94.811973,32.975406],[-94.812651,32.974472],[-94.81061,32.973449],[-94.809097,32.971629],[-94.806521,32.971151],[-94.804662,32.971722],[-94.803919,32.971064],[-94.804767,32.9696],[-94.8039,32.968667],[-94.802817,32.965868],[-94.798605,32.96494],[-94.797529,32.962719],[-94.796519,32.962345],[-94.793721,32.963009],[-94.792306,32.961421],[-94.791719,32.962531],[-94.790304,32.96224],[-94.789685,32.960184],[-94.786386,32.959293],[-94.787202,32.957924],[-94.785813,32.958236],[-94.784731,32.956823],[-94.786081,32.956198],[-94.786654,32.95721],[-94.787919,32.956578],[-94.78554,32.954048],[-94.786577,32.953153],[-94.785703,32.95224],[-94.783943,32.952058],[-94.781505,32.949661],[-94.7812,32.947446],[-94.779185,32.947291],[-94.779916,32.946494],[-94.776336,32.946235],[-94.776481,32.944432],[-94.773919,32.943827],[-94.774369,32.942755],[-94.773144,32.940787],[-94.775576,32.940551],[-94.773784,32.939186],[-94.776437,32.938397],[-94.775395,32.936615],[-94.775376,32.934312],[-94.774164,32.933993],[-94.772136,32.934773],[-94.770867,32.930056],[-94.77092,32.927439],[-94.769057,32.926009],[-94.767968,32.926377],[-94.765746,32.92525],[-94.763453,32.922907],[-94.760006,32.921146],[-94.758585,32.921273],[-94.757309,32.9197],[-94.756415,32.919958],[-94.755921,32.918413],[-94.753269,32.917817],[-94.751555,32.917872],[-94.750557,32.918801],[-94.752186,32.919939],[-94.750452,32.920093],[-94.749347,32.921376],[-94.74813,32.920879],[-94.747637,32.918652],[-94.746117,32.919528],[-94.743666,32.919027],[-94.74155,32.919254],[-94.740257,32.917945],[-94.737594,32.917707],[-94.737784,32.915899],[-94.735843,32.916143],[-94.736803,32.915016],[-94.735697,32.914326],[-94.736642,32.912365],[-94.733869,32.91364],[-94.729764,32.913047],[-94.727829,32.913539],[-94.726482,32.91087],[-94.724788,32.910218],[-94.723492,32.917645],[-94.724405,32.917653],[-94.726343,32.920397],[-94.727326,32.924118],[-94.724065,32.930886],[-94.724016,32.932446],[-94.719227,32.945566],[-94.722139,32.948887],[-94.722541,32.955728],[-94.719932,32.960365],[-94.719606,32.961767],[-94.716249,32.961391],[-94.713057,32.961501],[-94.712163,32.96302],[-94.708687,32.962277],[-94.706738,32.963966],[-94.704573,32.964962],[-94.703458,32.963928],[-94.700543,32.964686],[-94.700362,32.942417],[-94.698121,32.943678],[-94.688264,32.942597],[-94.687534,32.943374],[-94.684411,32.943762],[-94.681435,32.946872],[-94.679561,32.948262],[-94.675443,32.950505],[-94.672033,32.95357],[-94.668998,32.955302],[-94.666202,32.957926],[-94.664299,32.958677],[-94.664922,32.962702],[-94.664977,32.968595],[-94.667515,32.973743],[-94.66708,32.977865],[-94.665258,32.981209],[-94.661808,32.985489],[-94.657655,32.986677],[-94.653572,32.986931],[-94.653589,33.004891],[-94.653596,33.005682],[-94.66038,33.008702],[-94.660693,33.009287],[-94.666792,33.012822],[-94.666788,33.014336],[-94.667147,33.026294],[-94.675017,33.026622],[-94.676516,33.027512],[-94.676651,33.029418],[-94.677993,33.030825],[-94.681505,33.031267],[-94.682744,33.032055],[-94.689638,33.032198],[-94.702014,33.036651],[-94.700931,33.039344],[-94.701994,33.043004],[-94.693547,33.04289],[-94.693482,33.041404],[-94.692268,33.041322],[-94.690255,33.039181],[-94.682618,33.039189],[-94.679079,33.038984],[-94.678867,33.040405],[-94.680043,33.04383],[-94.678918,33.044095],[-94.676322,33.047688],[-94.672695,33.049405],[-94.671012,33.050769],[-94.671129,33.056528],[-94.678465,33.056099],[-94.68184,33.0553],[-94.686418,33.055065],[-94.69153,33.054129],[-94.691494,33.058743],[-94.686553,33.062857],[-94.68434,33.066467],[-94.684405,33.072529],[-94.682617,33.073253],[-94.682981,33.074261],[-94.67165,33.08887],[-94.659185,33.078974],[-94.65784,33.076831],[-94.655166,33.075567],[-94.653963,33.07304],[-94.653909,33.067791],[-94.648007,33.06826],[-94.645497,33.069324],[-94.640698,33.06937],[-94.637296,33.072277],[-94.635066,33.07246],[-94.636424,33.074117],[-94.638087,33.074652],[-94.641282,33.07667],[-94.641737,33.077351],[-94.641966,33.091197],[-94.636137,33.091336],[-94.632787,33.092464],[-94.627724,33.09243],[-94.624738,33.092953],[-94.623457,33.091233],[-94.618671,33.091138],[-94.616099,33.089365],[-94.612379,33.089011],[-94.612734,33.090865],[-94.615683,33.098289],[-94.616564,33.103544],[-94.617218,33.1053],[-94.618427,33.106651],[-94.620517,33.107988],[-94.627103,33.111961],[-94.628431,33.112395],[-94.635061,33.113114],[-94.634994,33.109555],[-94.639467,33.107813],[-94.643113,33.107816],[-94.653485,33.105108],[-94.658629,33.104855],[-94.658715,33.099274],[-94.665441,33.099327],[-94.664197,33.106253],[-94.664274,33.107414],[-94.666799,33.107143],[-94.666811,33.108694],[-94.669863,33.108694],[-94.670274,33.111947],[-94.674445,33.112094],[-94.674616,33.120434],[-94.675293,33.122061],[-94.691013,33.122014],[-94.69115,33.117668],[-94.697221,33.117569],[-94.698936,33.111649],[-94.710711,33.111328],[-94.710576,33.114154],[-94.712669,33.115828],[-94.715936,33.115855],[-94.71716,33.120485],[-94.71967,33.121094],[-94.726735,33.121218],[-94.727077,33.112676],[-94.732772,33.112553],[-94.73285,33.101447],[-94.730713,33.10109],[-94.730577,33.097037],[-94.730787,33.091883],[-94.730628,33.08616],[-94.73675,33.085864],[-94.740793,33.085959],[-94.740746,33.072418],[-94.738756,33.072162],[-94.736027,33.069684],[-94.733983,33.06859],[-94.731807,33.066091],[-94.728783,33.063414],[-94.730775,33.06183],[-94.735352,33.063204],[-94.738302,33.062994],[-94.737799,33.060938],[-94.736819,33.059801],[-94.736628,33.056474],[-94.737311,33.054896],[-94.738533,33.056049],[-94.738563,33.058199],[-94.73986,33.057285],[-94.753123,33.069661],[-94.754794,33.070843],[-94.763686,33.076124],[-94.767138,33.077536],[-94.777919,33.079745],[-94.800356,33.081145],[-94.802717,33.081636],[-94.8054,33.083314],[-94.812681,33.091788],[-94.816276,33.094074],[-94.816993,33.070161]]]}},{"type":"Feature","properties":{"zcta5":"75571","AFFGEOID10":"8600000US75571","GEOID10":"75571","ALAND10":268382389,"AWATER10":3504326,"county_name":"Morris","state_code":"TX","county_state":"Morris County, TX","county_fips":"48343","risk_level_county":"Higher Risk (60–69% vaccinated)","mean_vaccination_rate_county":64.2,"risk_level_zcta":"Higher Risk (60–69% vaccinated)","mean_vaccination_rate_zips":60.09,"cases":188},"geometry":{"type":"MultiPolygon","coordinates":[[[[-94.825296,33.136998],[-94.825382,33.126548],[-94.821952,33.12585],[-94.819393,33.123224],[-94.815206,33.12229],[-94.816276,33.094074],[-94.812681,33.091788],[-94.8054,33.083314],[-94.802717,33.081636],[-94.800356,33.081145],[-94.777919,33.079745],[-94.767138,33.077536],[-94.763686,33.076124],[-94.754794,33.070843],[-94.753123,33.069661],[-94.73986,33.057285],[-94.738563,33.058199],[-94.738533,33.056049],[-94.737311,33.054896],[-94.736628,33.056474],[-94.736819,33.059801],[-94.737799,33.060938],[-94.738302,33.062994],[-94.735352,33.063204],[-94.730775,33.06183],[-94.728783,33.063414],[-94.731807,33.066091],[-94.733983,33.06859],[-94.736027,33.069684],[-94.738756,33.072162],[-94.740746,33.072418],[-94.740793,33.085959],[-94.73675,33.085864],[-94.730628,33.08616],[-94.730787,33.091883],[-94.730577,33.097037],[-94.730713,33.10109],[-94.73285,33.101447],[-94.732772,33.112553],[-94.727077,33.112676],[-94.726735,33.121218],[-94.71967,33.121094],[-94.719665,33.1315],[-94.720439,33.135823],[-94.719968,33.139142],[-94.720454,33.142984],[-94.720331,33.156008],[-94.72078,33.157018],[-94.718764,33.157349],[-94.718763,33.164445],[-94.717365,33.165489],[-94.717344,33.16819],[-94.716304,33.168505],[-94.71144,33.168492],[-94.711152,33.169293],[-94.708732,33.169283],[-94.70849,33.17555],[-94.708414,33.17967],[-94.706241,33.180031],[-94.690057,33.18694],[-94.689842,33.187932],[-94.692955,33.191373],[-94.695923,33.18936],[-94.706514,33.184851],[-94.706719,33.185426],[-94.698558,33.188858],[-94.687741,33.196921],[-94.688794,33.199899],[-94.692704,33.199675],[-94.696052,33.194909],[-94.707458,33.311943],[-94.710593,33.311715],[-94.709747,33.310271],[-94.710783,33.308531],[-94.714793,33.311897],[-94.717385,33.311667],[-94.718011,33.310248],[-94.716729,33.308484],[-94.717656,33.307156],[-94.719184,33.30798],[-94.719974,33.306537],[-94.721175,33.308529],[-94.723084,33.308826],[-94.722865,33.307085],[-94.726221,33.30729],[-94.727813,33.308888],[-94.73031,33.308814],[-94.732055,33.311475],[-94.732168,33.314397],[-94.731295,33.316304],[-94.732097,33.317359],[-94.734822,33.316513],[-94.73754,33.316708],[-94.737746,33.31747],[-94.735012,33.318437],[-94.736746,33.31917],[-94.736449,33.321163],[-94.737598,33.322491],[-94.736892,33.324119],[-94.738775,33.323659],[-94.740032,33.324233],[-94.739544,33.326821],[-94.742573,33.327965],[-94.744484,33.329453],[-94.746013,33.329842],[-94.746925,33.328938],[-94.749476,33.327046],[-94.749837,33.323633],[-94.752339,33.321919],[-94.752422,33.319398],[-94.754251,33.31798],[-94.756242,33.317615],[-94.758751,33.3186],[-94.761671,33.317456],[-94.76227,33.318533],[-94.760087,33.3208],[-94.762595,33.322747],[-94.763959,33.322885],[-94.76527,33.320847],[-94.767015,33.322062],[-94.769171,33.320528],[-94.770126,33.321032],[-94.772936,33.320048],[-94.772936,33.318857],[-94.774655,33.318285],[-94.778174,33.319615],[-94.781447,33.318722],[-94.781311,33.320165],[-94.779455,33.320714],[-94.777546,33.320027],[-94.776236,33.320599],[-94.776481,33.322065],[-94.778036,33.322546],[-94.782456,33.322477],[-94.78401,33.323829],[-94.781717,33.327607],[-94.779699,33.327675],[-94.778907,33.329279],[-94.779998,33.331043],[-94.777214,33.331637],[-94.777569,33.333149],[-94.778987,33.333011],[-94.780898,33.334983],[-94.780215,33.336379],[-94.781688,33.337913],[-94.782289,33.335051],[-94.783462,33.335327],[-94.784444,33.337457],[-94.786054,33.337617],[-94.788346,33.33677],[-94.789409,33.33842],[-94.787308,33.338876],[-94.788126,33.341282],[-94.786918,33.34218],[-94.782809,33.342015],[-94.781867,33.344261],[-94.783611,33.34422],[-94.784881,33.343162],[-94.786188,33.344443],[-94.784878,33.345312],[-94.785205,33.349092],[-94.786815,33.349252],[-94.788016,33.346069],[-94.790418,33.344946],[-94.790991,33.345748],[-94.789981,33.347237],[-94.790663,33.348681],[-94.792218,33.348795],[-94.79653,33.347903],[-94.797566,33.348613],[-94.795465,33.352414],[-94.794619,33.352964],[-94.791753,33.352277],[-94.791043,33.355322],[-94.792653,33.356696],[-94.794345,33.355849],[-94.794837,33.353856],[-94.79672,33.354566],[-94.797675,33.356375],[-94.794945,33.357658],[-94.79489,33.360086],[-94.795927,33.361552],[-94.797401,33.361024],[-94.800131,33.361873],[-94.799558,33.363132],[-94.800813,33.365354],[-94.802779,33.364849],[-94.805644,33.364873],[-94.805644,33.365651],[-94.808428,33.365606],[-94.808783,33.363636],[-94.809952,33.301029],[-94.810269,33.28289],[-94.810445,33.272171],[-94.810752,33.269391],[-94.814481,33.137011],[-94.825296,33.136998]]],[[[-94.847403,33.165045],[-94.847439,33.160608],[-94.848332,33.15926],[-94.848305,33.150523],[-94.840664,33.149925],[-94.840824,33.135728],[-94.838237,33.135196],[-94.830048,33.135171],[-94.830156,33.136989],[-94.825296,33.136998],[-94.825302,33.150365],[-94.823839,33.152697],[-94.82372,33.160452],[-94.826285,33.161105],[-94.831113,33.163373],[-94.83327,33.163463],[-94.83468,33.164856],[-94.836703,33.165005],[-94.847403,33.165045]]]]}},{"type":"Feature","properties":{"zcta5":"75558","AFFGEOID10":"8600000US75558","GEOID10":"75558","ALAND10":130173820,"AWATER10":1828310,"county_name":"Morris","state_code":"TX","county_state":"Morris County, TX","county_fips":"48343","risk_level_county":"Higher Risk (60–69% vaccinated)","mean_vaccination_rate_county":64.2,"risk_level_zcta":"Higher Risk (60–69% vaccinated)","mean_vaccination_rate_zips":62.99,"cases":188},"geometry":{"type":"Polygon","coordinates":[[[-94.810269,33.28289],[-94.812041,33.284222],[-94.812518,33.285489],[-94.811591,33.286876],[-94.813008,33.287933],[-94.814884,33.28723],[-94.817729,33.289374],[-94.819767,33.290072],[-94.818889,33.291908],[-94.819184,33.29374],[-94.818489,33.296507],[-94.820347,33.299723],[-94.824099,33.301706],[-94.824377,33.304373],[-94.825143,33.305234],[-94.82738,33.305522],[-94.828448,33.30689],[-94.82874,33.30863],[-94.829893,33.308099],[-94.82981,33.306171],[-94.830879,33.307695],[-94.833283,33.307952],[-94.833991,33.308923],[-94.833571,33.310685],[-94.835489,33.310972],[-94.835827,33.309703],[-94.836988,33.309831],[-94.837949,33.311414],[-94.837745,33.313581],[-94.838949,33.314573],[-94.840086,33.313692],[-94.84066,33.315162],[-94.841875,33.314394],[-94.843086,33.31555],[-94.845142,33.315334],[-94.847489,33.316719],[-94.84621,33.315467],[-94.846821,33.314138],[-94.84814,33.314953],[-94.851256,33.313761],[-94.852146,33.315029],[-94.856738,33.316163],[-94.858017,33.314058],[-94.857114,33.313281],[-94.855587,33.314306],[-94.855738,33.311937],[-94.856996,33.310657],[-94.859486,33.311577],[-94.860118,33.309724],[-94.861155,33.311118],[-94.862819,33.309595],[-94.867325,33.30905],[-94.867825,33.30762],[-94.868799,33.308169],[-94.870774,33.306151],[-94.869425,33.30467],[-94.871096,33.304383],[-94.871977,33.303172],[-94.874522,33.30511],[-94.875849,33.30359],[-94.877489,33.304719],[-94.878367,33.303209],[-94.88025,33.303952],[-94.879539,33.305418],[-94.881215,33.305163],[-94.881403,33.306358],[-94.883094,33.305917],[-94.883228,33.307367],[-94.884927,33.306223],[-94.885336,33.30737],[-94.886705,33.307113],[-94.886405,33.308368],[-94.890558,33.30742],[-94.891243,33.308864],[-94.893203,33.309644],[-94.89153,33.310803],[-94.893268,33.310688],[-94.894179,33.312016],[-94.893382,33.312787],[-94.895301,33.313422],[-94.895076,33.314208],[-94.89714,33.313912],[-94.898558,33.315202],[-94.899828,33.314881],[-94.90058,33.316208],[-94.901617,33.314479],[-94.902684,33.314445],[-94.905049,33.316032],[-94.906434,33.317559],[-94.90672,33.318973],[-94.910922,33.318744],[-94.909928,33.3213],[-94.911765,33.323082],[-94.910897,33.324664],[-94.912975,33.326008],[-94.915165,33.326507],[-94.916429,33.32609],[-94.914856,33.325764],[-94.914776,33.312302],[-94.913876,33.311408],[-94.908174,33.308914],[-94.901632,33.300486],[-94.900951,33.297075],[-94.899452,33.293892],[-94.896728,33.290082],[-94.909606,33.29034],[-94.909393,33.265281],[-94.926094,33.265261],[-94.925654,33.226203],[-94.901378,33.22628],[-94.899261,33.22867],[-94.899653,33.234738],[-94.897855,33.233955],[-94.898055,33.23228],[-94.892876,33.232312],[-94.892718,33.236424],[-94.89104,33.238428],[-94.889531,33.238526],[-94.885415,33.240372],[-94.884843,33.242385],[-94.880361,33.242359],[-94.879299,33.242804],[-94.879372,33.24626],[-94.877728,33.246527],[-94.876697,33.244918],[-94.876512,33.243088],[-94.874009,33.242815],[-94.873948,33.240392],[-94.874506,33.236817],[-94.863707,33.242838],[-94.861501,33.245191],[-94.860964,33.244643],[-94.863492,33.242612],[-94.875351,33.235788],[-94.883283,33.2309],[-94.887152,33.227611],[-94.890832,33.223449],[-94.889598,33.22278],[-94.892356,33.219445],[-94.892838,33.216526],[-94.891511,33.215822],[-94.890717,33.211168],[-94.888984,33.21085],[-94.889181,33.205674],[-94.890287,33.205112],[-94.88989,33.202948],[-94.890148,33.200386],[-94.877889,33.204433],[-94.875374,33.204738],[-94.875061,33.203409],[-94.87524,33.199247],[-94.874369,33.199129],[-94.874289,33.196052],[-94.872881,33.19254],[-94.872107,33.189402],[-94.872204,33.187846],[-94.872828,33.186585],[-94.875427,33.186411],[-94.870911,33.184823],[-94.86568,33.184984],[-94.857159,33.18495],[-94.857075,33.186476],[-94.854836,33.186459],[-94.854075,33.18443],[-94.854938,33.184106],[-94.859263,33.180818],[-94.862978,33.179628],[-94.863224,33.176586],[-94.865391,33.176363],[-94.866341,33.174534],[-94.874045,33.174684],[-94.8745,33.170322],[-94.87533,33.169126],[-94.874937,33.164909],[-94.870168,33.164949],[-94.870206,33.160057],[-94.854996,33.159829],[-94.855056,33.163786],[-94.852758,33.165273],[-94.847403,33.165045],[-94.836703,33.165005],[-94.83468,33.164856],[-94.83327,33.163463],[-94.831113,33.163373],[-94.826285,33.161105],[-94.82372,33.160452],[-94.823839,33.152697],[-94.825302,33.150365],[-94.825296,33.136998],[-94.814481,33.137011],[-94.810752,33.269391],[-94.810445,33.272171],[-94.810269,33.28289]]]}},{"type":"Feature","properties":{"zcta5":"75668","AFFGEOID10":"8600000US75668","GEOID10":"75668","ALAND10":59017367,"AWATER10":10300177,"county_name":"Morris","state_code":"TX","county_state":"Morris County, TX","county_fips":"48343","risk_level_county":"Higher Risk (60–69% vaccinated)","mean_vaccination_rate_county":64.2,"risk_level_zcta":"Higher Risk (60–69% vaccinated)","mean_vaccination_rate_zips":61.7,"cases":188},"geometry":{"type":"Polygon","coordinates":[[[-94.664299,32.958677],[-94.666202,32.957926],[-94.668998,32.955302],[-94.672033,32.95357],[-94.675443,32.950505],[-94.679561,32.948262],[-94.681435,32.946872],[-94.684411,32.943762],[-94.687534,32.943374],[-94.688264,32.942597],[-94.698121,32.943678],[-94.700362,32.942417],[-94.700543,32.964686],[-94.703458,32.963928],[-94.704573,32.964962],[-94.706738,32.963966],[-94.708687,32.962277],[-94.712163,32.96302],[-94.713057,32.961501],[-94.716249,32.961391],[-94.719606,32.961767],[-94.719932,32.960365],[-94.722541,32.955728],[-94.722139,32.948887],[-94.719227,32.945566],[-94.724016,32.932446],[-94.724065,32.930886],[-94.727326,32.924118],[-94.726343,32.920397],[-94.724405,32.917653],[-94.723492,32.917645],[-94.724788,32.910218],[-94.72348,32.906125],[-94.722102,32.906542],[-94.719942,32.904502],[-94.723136,32.903149],[-94.721664,32.900865],[-94.720065,32.90045],[-94.718393,32.90121],[-94.718264,32.899862],[-94.71565,32.900235],[-94.71586,32.898152],[-94.713608,32.897706],[-94.7122,32.898535],[-94.711662,32.897213],[-94.7083,32.896054],[-94.708821,32.894337],[-94.706822,32.894928],[-94.70704,32.893669],[-94.705569,32.892106],[-94.704864,32.889733],[-94.705657,32.887628],[-94.70576,32.885328],[-94.707604,32.884655],[-94.707923,32.882134],[-94.705878,32.879177],[-94.707988,32.875132],[-94.707621,32.873534],[-94.709446,32.871308],[-94.709329,32.869889],[-94.707873,32.871077],[-94.706826,32.867421],[-94.706318,32.861379],[-94.705449,32.860616],[-94.7023,32.862637],[-94.699994,32.861941],[-94.698022,32.859164],[-94.698926,32.858317],[-94.698332,32.856682],[-94.699744,32.85609],[-94.700131,32.85036],[-94.698489,32.851011],[-94.69505,32.851128],[-94.692789,32.850425],[-94.68629,32.850717],[-94.683372,32.849969],[-94.681236,32.849919],[-94.680448,32.850793],[-94.679074,32.849573],[-94.678194,32.85065],[-94.673577,32.852459],[-94.669429,32.849583],[-94.667065,32.846296],[-94.668322,32.84385],[-94.667483,32.842057],[-94.665783,32.840754],[-94.666064,32.838352],[-94.664553,32.836812],[-94.665035,32.836037],[-94.664887,32.829617],[-94.662359,32.830485],[-94.662202,32.83226],[-94.661269,32.833503],[-94.660243,32.836554],[-94.659421,32.837576],[-94.65748,32.83789],[-94.654194,32.841623],[-94.651547,32.844143],[-94.65089,32.847727],[-94.647897,32.84885],[-94.651501,32.851965],[-94.654583,32.852856],[-94.65874,32.858719],[-94.662771,32.8612],[-94.664648,32.863626],[-94.659429,32.865429],[-94.649604,32.867861],[-94.647086,32.869361],[-94.644297,32.872246],[-94.641432,32.873704],[-94.625575,32.877481],[-94.626842,32.879501],[-94.653994,32.879506],[-94.653673,32.954302],[-94.654709,32.960821],[-94.656733,32.96409],[-94.658053,32.964038],[-94.661249,32.960274],[-94.664299,32.958677]]]}}]}