{"type":"FeatureCollection","features":[{"type":"Feature","properties":{"zcta5":"39332","AFFGEOID10":"8600000US39332","GEOID10":"39332","ALAND10":185047238,"AWATER10":410662,"county_name":"Newton","state_code":"MS","county_state":"Newton County, MS","county_fips":"28101","risk_level_county":"Higher Risk (60–69% vaccinated)","mean_vaccination_rate_county":64.7,"risk_level_zcta":"Higher Risk (60–69% vaccinated)","mean_vaccination_rate_zips":66.97,"cases":0},"geometry":{"type":"Polygon","coordinates":[[[-89.053566,32.380365],[-89.054667,32.378549],[-89.056646,32.378009],[-89.059081,32.373593],[-89.060912,32.371417],[-89.062486,32.370708],[-89.066904,32.370941],[-89.068033,32.369955],[-89.066912,32.368796],[-89.067183,32.366569],[-89.069403,32.364081],[-89.06961,32.362506],[-89.069372,32.357469],[-89.070656,32.35501],[-89.070663,32.352465],[-89.069501,32.351544],[-89.066324,32.34565],[-89.066352,32.339038],[-89.067337,32.337599],[-89.070493,32.334449],[-89.070617,32.327436],[-89.049623,32.327126],[-89.049284,32.325281],[-89.048185,32.324215],[-89.048125,32.321856],[-89.049877,32.321172],[-89.050497,32.317765],[-89.049909,32.316682],[-89.047779,32.316085],[-89.048969,32.314126],[-89.045908,32.312732],[-89.045314,32.311717],[-89.04425,32.314176],[-89.04232,32.314389],[-89.041399,32.313269],[-89.040067,32.31401],[-89.037986,32.311596],[-89.035714,32.312409],[-89.034603,32.311963],[-89.033823,32.30949],[-89.032143,32.309315],[-89.030691,32.308955],[-89.029688,32.309836],[-89.027625,32.309046],[-89.026186,32.310007],[-89.026073,32.309128],[-89.027978,32.305614],[-89.033312,32.288434],[-89.034109,32.286204],[-89.036306,32.282597],[-89.038739,32.279685],[-89.043352,32.275104],[-89.044446,32.273507],[-89.046146,32.267889],[-89.048583,32.26336],[-89.045023,32.261254],[-89.042592,32.258816],[-89.041556,32.258635],[-89.039049,32.256737],[-89.037596,32.255052],[-89.036978,32.251998],[-89.034451,32.248684],[-89.032424,32.248371],[-89.03114,32.246142],[-89.031267,32.244074],[-89.026628,32.240976],[-89.02614,32.239457],[-89.024451,32.237425],[-89.02329,32.22833],[-89.024887,32.224006],[-89.098599,32.223957],[-89.098173,32.222752],[-89.09217,32.22103],[-89.08568,32.21875],[-89.07777,32.21686],[-89.06608,32.21468],[-89.06117,32.21332],[-89.05867,32.21321],[-89.05176,32.21442],[-89.0424,32.21928],[-89.04081,32.2197],[-89.03714,32.21912],[-89.03434,32.21911],[-89.02957,32.22002],[-89.027907,32.219723],[-89.028414,32.217402],[-89.026731,32.212811],[-89.027951,32.212003],[-89.02627,32.209523],[-89.025446,32.209571],[-89.026193,32.207756],[-89.024413,32.207209],[-89.023701,32.205834],[-89.021495,32.205517],[-89.019449,32.204367],[-89.01735,32.206098],[-89.016993,32.207227],[-89.013955,32.20684],[-89.013113,32.205799],[-89.010904,32.206561],[-89.009614,32.205638],[-89.007075,32.206472],[-89.006264,32.20507],[-89.005265,32.206014],[-89.003533,32.204035],[-89.002282,32.204343],[-89.0006,32.203086],[-89.001083,32.200826],[-88.9996,32.201075],[-88.999716,32.199466],[-88.997735,32.199225],[-88.998094,32.198165],[-88.996578,32.197105],[-88.995205,32.197233],[-88.994667,32.196114],[-88.992732,32.196836],[-88.991741,32.195595],[-88.992157,32.193563],[-88.99145,32.190763],[-88.993373,32.19152],[-88.995672,32.19088],[-88.998784,32.191118],[-89.000055,32.192356],[-89.001708,32.192362],[-89.003017,32.191275],[-89.006107,32.190735],[-89.009603,32.189037],[-89.011865,32.190082],[-89.016066,32.190602],[-89.016066,32.187067],[-89.01982,32.18701],[-89.01793,32.18382],[-89.01272,32.17979],[-89.01012,32.18037],[-89.00778,32.18],[-89.00725,32.17861],[-89.00719,32.17399],[-89.00316,32.17433],[-88.99857,32.17392],[-88.9949,32.17573],[-88.99455,32.17669],[-88.994803,32.180534],[-88.976192,32.180475],[-88.976472,32.18167],[-88.974988,32.182403],[-88.973881,32.184338],[-88.971756,32.184152],[-88.970375,32.185246],[-88.968707,32.185251],[-88.965794,32.183198],[-88.964134,32.181261],[-88.961483,32.18087],[-88.958002,32.178943],[-88.954053,32.179277],[-88.952511,32.179749],[-88.952889,32.181254],[-88.954443,32.181786],[-88.953558,32.182778],[-88.955172,32.182526],[-88.958548,32.184365],[-88.959776,32.184237],[-88.961211,32.185498],[-88.961839,32.187049],[-88.963091,32.187004],[-88.966371,32.188988],[-88.968002,32.189065],[-88.9685,32.188252],[-88.970221,32.190124],[-88.971678,32.190848],[-88.972413,32.192804],[-88.971466,32.196036],[-88.972962,32.198701],[-88.973054,32.201],[-88.97151,32.20105],[-88.96655,32.20222],[-88.963829,32.201909],[-88.96477,32.20479],[-88.96519,32.20772],[-88.96704,32.21031],[-88.97698,32.21689],[-88.97997,32.21945],[-88.980904,32.222893],[-88.980343,32.224054],[-88.939875,32.224157],[-88.940348,32.228841],[-88.938883,32.230983],[-88.936003,32.231523],[-88.93557,32.23415],[-88.933856,32.236389],[-88.937756,32.237969],[-88.943693,32.23899],[-88.944402,32.239356],[-88.946641,32.242113],[-88.947773,32.244737],[-88.947707,32.252153],[-88.949224,32.254253],[-88.950398,32.256784],[-88.951971,32.256953],[-88.952789,32.258634],[-88.956129,32.260482],[-88.95649,32.262073],[-88.957853,32.262819],[-88.958709,32.26458],[-88.961374,32.264388],[-88.963513,32.26538],[-88.966529,32.265356],[-88.968459,32.266055],[-88.968971,32.26768],[-88.965084,32.26768],[-88.965151,32.282654],[-88.962273,32.283691],[-88.960389,32.28547],[-88.957208,32.285057],[-88.955617,32.28382],[-88.950468,32.283523],[-88.947987,32.284232],[-88.948043,32.291997],[-88.950602,32.293159],[-88.954672,32.293119],[-88.959258,32.290766],[-88.961877,32.292596],[-88.965042,32.293832],[-88.965305,32.29609],[-88.965319,32.32001],[-88.958755,32.320745],[-88.939691,32.323554],[-88.940219,32.32595],[-88.956715,32.325888],[-88.956855,32.328454],[-88.958175,32.330441],[-88.960537,32.331826],[-88.962003,32.334208],[-88.964954,32.337131],[-88.965385,32.339148],[-88.965391,32.347294],[-88.968112,32.347649],[-88.966712,32.351084],[-88.963583,32.353731],[-88.963874,32.356785],[-88.965401,32.3592],[-88.965422,32.383243],[-88.96727,32.383822],[-88.968197,32.38626],[-88.969656,32.38753],[-88.969267,32.390208],[-88.969909,32.391421],[-88.969284,32.393045],[-88.971421,32.392533],[-88.974528,32.394658],[-88.97907,32.396435],[-88.977848,32.399758],[-88.98049,32.401861],[-88.982469,32.405316],[-88.982962,32.409133],[-88.985669,32.410364],[-88.986795,32.408187],[-88.988303,32.4074],[-88.989816,32.405506],[-88.992443,32.404151],[-88.991952,32.403386],[-88.994449,32.40025],[-88.995051,32.398718],[-89.000045,32.39852],[-88.999999,32.422911],[-89.002772,32.422187],[-89.003099,32.418509],[-89.008205,32.410987],[-89.008444,32.405506],[-89.009252,32.404244],[-89.012573,32.402318],[-89.014529,32.406117],[-89.019837,32.412565],[-89.022258,32.417789],[-89.027853,32.413564],[-89.029807,32.412839],[-89.031883,32.413009],[-89.034648,32.414187],[-89.036755,32.415625],[-89.040298,32.416263],[-89.042276,32.415547],[-89.045495,32.41622],[-89.046987,32.413568],[-89.048114,32.413129],[-89.046958,32.409994],[-89.044513,32.406931],[-89.039237,32.402626],[-89.038206,32.400861],[-89.036874,32.397044],[-89.033415,32.395444],[-89.032383,32.393965],[-89.032438,32.399034],[-89.023832,32.398652],[-89.024027,32.39498],[-89.021437,32.392316],[-89.022909,32.388165],[-89.024585,32.386521],[-89.027232,32.384803],[-89.025687,32.382405],[-89.022345,32.378524],[-89.032619,32.37068],[-89.033802,32.374173],[-89.034587,32.375099],[-89.033909,32.376269],[-89.035245,32.377103],[-89.036439,32.379272],[-89.039109,32.379565],[-89.040085,32.380817],[-89.042631,32.378818],[-89.045864,32.378806],[-89.048754,32.377773],[-89.049355,32.380336],[-89.053566,32.380365]],[[-88.965385,32.339148],[-88.96538,32.333683],[-88.965344,32.325805],[-88.976008,32.324402],[-88.975696,32.327268],[-88.976965,32.327819],[-88.972808,32.332751],[-88.974006,32.333499],[-88.969869,32.33893],[-88.967977,32.342064],[-88.965487,32.33933],[-88.965385,32.339148]]]}},{"type":"Feature","properties":{"zcta5":"39365","AFFGEOID10":"8600000US39365","GEOID10":"39365","ALAND10":486468559,"AWATER10":1528818,"county_name":"Newton","state_code":"MS","county_state":"Newton County, MS","county_fips":"28101","risk_level_county":"Higher Risk (60–69% vaccinated)","mean_vaccination_rate_county":64.7,"risk_level_zcta":"Medium Risk (70–79% vaccinated)","mean_vaccination_rate_zips":72.4,"cases":0},"geometry":{"type":"MultiPolygon","coordinates":[[[[-89.163296,32.713381],[-89.16236,32.713357],[-89.155041,32.71334],[-89.152058,32.714712],[-89.152527,32.715532],[-89.15924,32.714874],[-89.162977,32.715409],[-89.163296,32.713806],[-89.163296,32.713381]]],[[[-89.317883,32.620138],[-89.319463,32.620356],[-89.321292,32.619032],[-89.322126,32.617422],[-89.321773,32.613257],[-89.32203,32.601942],[-89.322684,32.600358],[-89.322043,32.599499],[-89.323809,32.596363],[-89.322887,32.593358],[-89.324136,32.592692],[-89.325614,32.593146],[-89.327189,32.591849],[-89.326165,32.587235],[-89.326153,32.580432],[-89.325311,32.578092],[-89.325478,32.576431],[-89.322598,32.576433],[-89.322591,32.571919],[-89.318429,32.571903],[-89.310855,32.572634],[-89.3003,32.576483],[-89.252811,32.576464],[-89.252715,32.570312],[-89.25115,32.570047],[-89.248943,32.568467],[-89.247532,32.568356],[-89.239139,32.564758],[-89.239089,32.557638],[-89.239899,32.555334],[-89.240405,32.552266],[-89.238501,32.550142],[-89.238464,32.547998],[-89.239125,32.545117],[-89.238925,32.544023],[-89.240297,32.54492],[-89.243567,32.548216],[-89.245172,32.549098],[-89.252284,32.549324],[-89.252279,32.534088],[-89.252118,32.532202],[-89.243353,32.532025],[-89.244267,32.530873],[-89.243894,32.529248],[-89.240283,32.526036],[-89.239185,32.523426],[-89.235828,32.51885],[-89.233795,32.516516],[-89.237311,32.516425],[-89.237872,32.515659],[-89.238119,32.512296],[-89.239566,32.507692],[-89.237916,32.505425],[-89.234542,32.503723],[-89.22894,32.501412],[-89.223926,32.501415],[-89.21916,32.49881],[-89.216638,32.49653],[-89.214234,32.495925],[-89.210947,32.498404],[-89.212717,32.501271],[-89.211185,32.502936],[-89.210822,32.504745],[-89.212506,32.510425],[-89.212161,32.513031],[-89.213101,32.514066],[-89.212013,32.514386],[-89.208442,32.513823],[-89.203736,32.512531],[-89.200787,32.509803],[-89.197542,32.508498],[-89.195036,32.508041],[-89.189628,32.511521],[-89.187484,32.51215],[-89.181189,32.513255],[-89.17757,32.509645],[-89.174459,32.507252],[-89.172277,32.504231],[-89.170003,32.503326],[-89.165441,32.498203],[-89.16378,32.497311],[-89.159836,32.498426],[-89.151195,32.498396],[-89.146856,32.49872],[-89.142321,32.498137],[-89.137361,32.499194],[-89.13599,32.499988],[-89.130152,32.500229],[-89.12754,32.498949],[-89.125516,32.499212],[-89.122603,32.500647],[-89.119426,32.500347],[-89.118203,32.498303],[-89.11577,32.497105],[-89.11387,32.518028],[-89.110234,32.517231],[-89.107601,32.515837],[-89.105006,32.515626],[-89.100581,32.516061],[-89.100098,32.514902],[-89.098648,32.516195],[-89.097232,32.516223],[-89.096543,32.515761],[-89.094387,32.511332],[-89.093489,32.510601],[-89.090636,32.510242],[-89.088398,32.509206],[-89.086156,32.507087],[-89.085463,32.505136],[-89.081767,32.498729],[-89.079231,32.496769],[-89.075396,32.495603],[-89.072798,32.491886],[-89.070988,32.492007],[-89.065563,32.494957],[-89.064767,32.494535],[-89.062411,32.49662],[-89.060697,32.497255],[-89.060532,32.498376],[-89.058587,32.501564],[-89.059372,32.503912],[-89.058951,32.507337],[-89.057838,32.509332],[-89.062563,32.508593],[-89.062501,32.513413],[-89.061061,32.515799],[-89.062419,32.520177],[-89.061168,32.523966],[-89.059292,32.527359],[-89.05863,32.529824],[-89.058728,32.533042],[-89.061629,32.535424],[-89.063777,32.536613],[-89.065751,32.539455],[-89.066839,32.540017],[-89.066879,32.559649],[-89.049576,32.559564],[-89.049576,32.562505],[-89.046919,32.562783],[-89.044832,32.558111],[-89.044958,32.555588],[-89.046096,32.554617],[-89.043633,32.552011],[-89.043821,32.55017],[-89.042636,32.549233],[-89.04344,32.547651],[-89.043404,32.545051],[-89.04209,32.543975],[-89.042276,32.540598],[-89.040894,32.538486],[-89.040395,32.53495],[-89.037338,32.533166],[-89.036811,32.53173],[-89.032285,32.529033],[-89.03192,32.527668],[-89.030366,32.52665],[-89.029288,32.528885],[-89.028122,32.52909],[-89.028484,32.531326],[-89.031436,32.536534],[-89.032383,32.537679],[-89.032609,32.540863],[-89.033633,32.543536],[-89.032164,32.545685],[-89.031769,32.547763],[-89.029764,32.554084],[-89.030302,32.557316],[-89.029454,32.559942],[-89.029753,32.562507],[-89.027672,32.562382],[-89.024713,32.561392],[-89.020723,32.561163],[-89.019486,32.560215],[-89.017033,32.561184],[-89.015581,32.562788],[-89.008661,32.567861],[-89.008401,32.57273],[-89.007493,32.574375],[-89.00909,32.576894],[-88.994173,32.577002],[-88.995151,32.578184],[-88.99536,32.580078],[-88.992611,32.581108],[-88.991128,32.582543],[-88.991664,32.584543],[-88.98985,32.585558],[-88.990396,32.587167],[-88.987691,32.588757],[-88.985458,32.589064],[-88.985353,32.59038],[-88.983735,32.59245],[-88.981726,32.593319],[-88.981247,32.594384],[-88.981772,32.597284],[-88.978171,32.601259],[-88.977957,32.603038],[-88.976656,32.60274],[-88.972747,32.604171],[-88.971002,32.603653],[-88.970578,32.605316],[-88.965421,32.607809],[-88.962846,32.606014],[-88.959869,32.603065],[-88.948587,32.59039],[-88.946984,32.591591],[-88.947241,32.595447],[-88.948258,32.599161],[-88.947496,32.602821],[-88.945488,32.607287],[-88.944445,32.610843],[-88.94445,32.612601],[-88.945831,32.614602],[-88.948859,32.616721],[-88.948866,32.64399],[-88.94623,32.644115],[-88.94342,32.643533],[-88.940048,32.642253],[-88.936514,32.641493],[-88.935755,32.640882],[-88.933742,32.634827],[-88.931811,32.63243],[-88.930091,32.63344],[-88.928641,32.635385],[-88.924919,32.635255],[-88.920826,32.635535],[-88.917692,32.635124],[-88.914818,32.637736],[-88.914891,32.657321],[-88.912504,32.659321],[-88.910302,32.661479],[-88.909658,32.662598],[-88.910506,32.663408],[-88.914919,32.665154],[-88.916589,32.666127],[-88.919135,32.666232],[-88.921115,32.667304],[-88.926771,32.667819],[-88.930143,32.669337],[-88.931401,32.669406],[-88.934378,32.67072],[-88.93792,32.67159],[-88.948876,32.671538],[-88.94887,32.65704],[-88.952419,32.657778],[-88.953726,32.659241],[-88.954024,32.662878],[-88.955974,32.664328],[-88.958403,32.664746],[-88.961715,32.666425],[-88.963367,32.670525],[-88.964763,32.671884],[-88.965025,32.675803],[-88.968262,32.677856],[-88.970319,32.677916],[-88.974209,32.68013],[-88.976201,32.683964],[-88.977682,32.689046],[-88.979061,32.691036],[-88.979769,32.693431],[-88.98595,32.693395],[-88.988264,32.69273],[-88.990663,32.693281],[-88.993923,32.692884],[-88.996864,32.69383],[-88.999069,32.691152],[-89.007453,32.690202],[-89.009123,32.691162],[-89.012844,32.692439],[-89.013391,32.691157],[-89.013441,32.686752],[-89.013853,32.685083],[-89.014496,32.68461],[-89.018759,32.684204],[-89.021536,32.682383],[-89.022729,32.680781],[-89.025109,32.679495],[-89.027093,32.677101],[-89.029047,32.676263],[-89.03086,32.676733],[-89.034144,32.676339],[-89.0325,32.672787],[-89.02899,32.668673],[-89.027967,32.666519],[-89.0281,32.661322],[-89.031143,32.663629],[-89.034478,32.661671],[-89.034024,32.659427],[-89.03522,32.65657],[-89.038145,32.652835],[-89.038111,32.650417],[-89.040689,32.650136],[-89.048464,32.654927],[-89.050069,32.655176],[-89.055053,32.654931],[-89.054993,32.638816],[-89.057311,32.641708],[-89.0607,32.642271],[-89.064169,32.646223],[-89.066865,32.646473],[-89.069667,32.644438],[-89.069898,32.643279],[-89.069044,32.640533],[-89.069772,32.635382],[-89.068933,32.632527],[-89.069876,32.628242],[-89.069822,32.626341],[-89.074542,32.626438],[-89.07758,32.627594],[-89.080236,32.627902],[-89.08013,32.627014],[-89.091926,32.626983],[-89.090421,32.628824],[-89.089665,32.631128],[-89.093844,32.632616],[-89.097786,32.632948],[-89.099566,32.633719],[-89.103467,32.636805],[-89.108776,32.638663],[-89.109607,32.63932],[-89.111164,32.643391],[-89.11131,32.662762],[-89.110558,32.664213],[-89.111182,32.666506],[-89.111617,32.672009],[-89.1109,32.6731],[-89.125088,32.686751],[-89.133556,32.694326],[-89.134702,32.70561],[-89.134543,32.708095],[-89.136027,32.707665],[-89.136436,32.706374],[-89.13852,32.705335],[-89.138605,32.70362],[-89.139565,32.716285],[-89.145391,32.716327],[-89.1512,32.712852],[-89.156354,32.698781],[-89.163621,32.698785],[-89.161383,32.70247],[-89.161637,32.706468],[-89.163262,32.710619],[-89.163296,32.713381],[-89.166779,32.714214],[-89.172039,32.712287],[-89.176825,32.711527],[-89.177837,32.710971],[-89.178437,32.709201],[-89.180039,32.707627],[-89.181,32.705498],[-89.183025,32.702534],[-89.191544,32.702495],[-89.193109,32.700557],[-89.198243,32.695742],[-89.199514,32.694183],[-89.204223,32.689759],[-89.203482,32.688203],[-89.199662,32.684277],[-89.198004,32.68064],[-89.198231,32.677389],[-89.197789,32.676459],[-89.197787,32.666774],[-89.205333,32.670437],[-89.208853,32.67323],[-89.2128,32.672875],[-89.215893,32.673426],[-89.216944,32.668507],[-89.219809,32.665589],[-89.221041,32.663193],[-89.221406,32.660756],[-89.225133,32.657397],[-89.227933,32.65559],[-89.232478,32.651008],[-89.23458,32.649511],[-89.237534,32.644521],[-89.242376,32.642586],[-89.246466,32.642492],[-89.249378,32.636638],[-89.248365,32.634901],[-89.249308,32.633422],[-89.253748,32.634956],[-89.253819,32.633564],[-89.255956,32.627683],[-89.257813,32.625305],[-89.262604,32.615958],[-89.270461,32.621152],[-89.2722,32.625776],[-89.274936,32.627968],[-89.283554,32.632342],[-89.28365,32.625911],[-89.284649,32.623998],[-89.288505,32.623439],[-89.290699,32.620193],[-89.292045,32.619716],[-89.292076,32.615941],[-89.29288,32.616678],[-89.299284,32.61923],[-89.302648,32.621621],[-89.307525,32.622751],[-89.306847,32.619123],[-89.307723,32.616433],[-89.310972,32.616469],[-89.312928,32.618189],[-89.31612,32.620144],[-89.317883,32.620138]]]]}},{"type":"Feature","properties":{"zcta5":"39345","AFFGEOID10":"8600000US39345","GEOID10":"39345","ALAND10":319519568,"AWATER10":453016,"county_name":"Newton","state_code":"MS","county_state":"Newton County, MS","county_fips":"28101","risk_level_county":"Higher Risk (60–69% vaccinated)","mean_vaccination_rate_county":64.7,"risk_level_zcta":"Medium Risk (70–79% vaccinated)","mean_vaccination_rate_zips":72.61,"cases":0},"geometry":{"type":"MultiPolygon","coordinates":[[[[-89.098173,32.222752],[-89.092366,32.206827],[-89.092377,32.206483],[-89.093289,32.205657],[-89.094482,32.206449],[-89.096539,32.206533],[-89.096752,32.205547],[-89.098456,32.205875],[-89.100472,32.205938],[-89.101304,32.207064],[-89.103767,32.205365],[-89.104872,32.203873],[-89.11013,32.203561],[-89.112226,32.201684],[-89.114495,32.201284],[-89.114699,32.200189],[-89.116413,32.198893],[-89.117702,32.198958],[-89.11749,32.17301],[-89.11492,32.17094],[-89.11144,32.17035],[-89.1076,32.17065],[-89.1054,32.17046],[-89.0996,32.16824],[-89.09768,32.16779],[-89.09302,32.16576],[-89.077408,32.16572],[-89.06585,32.16587],[-89.06381,32.16487],[-89.06131,32.16252],[-89.06021,32.16223],[-89.05299,32.16218],[-89.05309,32.17921],[-89.05849,32.19359],[-89.06211,32.19967],[-89.06255,32.20529],[-89.06552,32.21222],[-89.06608,32.21468],[-89.07777,32.21686],[-89.08568,32.21875],[-89.09217,32.22103],[-89.098173,32.222752]]],[[[-89.053566,32.380365],[-89.056552,32.382917],[-89.057962,32.38354],[-89.062508,32.383846],[-89.074871,32.383844],[-89.07229,32.377136],[-89.073762,32.377193],[-89.078633,32.380213],[-89.085892,32.380316],[-89.087921,32.382352],[-89.091629,32.383991],[-89.09217,32.387781],[-89.094422,32.39032],[-89.095994,32.39334],[-89.100367,32.393717],[-89.103491,32.396998],[-89.105276,32.398031],[-89.106414,32.400357],[-89.107617,32.400778],[-89.107524,32.403434],[-89.106728,32.40585],[-89.107448,32.407231],[-89.110324,32.407474],[-89.111994,32.408842],[-89.114465,32.409672],[-89.117534,32.39114],[-89.125699,32.391131],[-89.125653,32.388672],[-89.128552,32.390652],[-89.134365,32.391183],[-89.134918,32.385835],[-89.13661,32.385767],[-89.138942,32.386305],[-89.139229,32.389577],[-89.140443,32.391924],[-89.147358,32.394412],[-89.152192,32.395025],[-89.154348,32.399055],[-89.155313,32.399769],[-89.159846,32.398925],[-89.161519,32.398085],[-89.162775,32.395768],[-89.163499,32.39555],[-89.168648,32.398284],[-89.169896,32.398313],[-89.171769,32.396511],[-89.172128,32.394623],[-89.17314,32.393958],[-89.17476,32.391252],[-89.176718,32.389978],[-89.180443,32.38588],[-89.185048,32.382416],[-89.18577,32.383225],[-89.190341,32.385925],[-89.191131,32.386989],[-89.197161,32.391006],[-89.198427,32.392875],[-89.200415,32.39409],[-89.203044,32.392752],[-89.203049,32.387119],[-89.212812,32.390691],[-89.213641,32.387162],[-89.217029,32.383001],[-89.217006,32.381924],[-89.219051,32.378734],[-89.220997,32.377629],[-89.221123,32.379285],[-89.222719,32.382815],[-89.22163,32.386986],[-89.220121,32.39071],[-89.223302,32.393183],[-89.226426,32.393233],[-89.228693,32.394222],[-89.231929,32.393949],[-89.234897,32.394237],[-89.235506,32.392625],[-89.235092,32.391263],[-89.236327,32.385277],[-89.2347,32.383052],[-89.233438,32.378354],[-89.233227,32.375654],[-89.229884,32.371841],[-89.228871,32.369747],[-89.227746,32.365528],[-89.228091,32.363128],[-89.227368,32.360791],[-89.22687,32.352982],[-89.225099,32.350502],[-89.223367,32.346947],[-89.22109,32.344574],[-89.219032,32.343165],[-89.21673,32.338881],[-89.202898,32.338823],[-89.201896,32.336661],[-89.199607,32.334038],[-89.19552,32.333728],[-89.194323,32.332133],[-89.194337,32.325165],[-89.193529,32.324708],[-89.191923,32.325203],[-89.186551,32.325581],[-89.185226,32.32524],[-89.187492,32.324138],[-89.188606,32.322868],[-89.190475,32.322742],[-89.190803,32.321597],[-89.193908,32.3204],[-89.195739,32.320201],[-89.197776,32.318858],[-89.201042,32.319728],[-89.202118,32.318214],[-89.204941,32.317806],[-89.205147,32.317108],[-89.206398,32.317584],[-89.209602,32.317012],[-89.211433,32.317938],[-89.211688,32.315748],[-89.211372,32.310317],[-89.211807,32.311333],[-89.21917,32.300854],[-89.216835,32.299995],[-89.213699,32.295578],[-89.213768,32.293598],[-89.211739,32.291966],[-89.209885,32.292061],[-89.207458,32.290791],[-89.205963,32.288983],[-89.20945,32.288624],[-89.214371,32.291473],[-89.217484,32.292023],[-89.219513,32.291535],[-89.221154,32.290325],[-89.224957,32.28978],[-89.21225,32.269574],[-89.209053,32.269356],[-89.207039,32.270093],[-89.202849,32.268872],[-89.202837,32.267307],[-89.185792,32.267566],[-89.185732,32.232434],[-89.186464,32.231508],[-89.187498,32.231098],[-89.189588,32.231775],[-89.194325,32.231115],[-89.19667,32.23126],[-89.19848,32.229523],[-89.200379,32.228906],[-89.20406,32.228647],[-89.207094,32.230276],[-89.209431,32.230399],[-89.214067,32.231362],[-89.223498,32.230407],[-89.224339,32.230988],[-89.227592,32.230857],[-89.230315,32.22742],[-89.228555,32.226109],[-89.228396,32.22366],[-89.157494,32.223832],[-89.15928,32.21557],[-89.15954,32.21335],[-89.16003,32.20209],[-89.15889,32.20266],[-89.15038,32.20555],[-89.14188,32.20577],[-89.13981,32.20657],[-89.13713,32.21021],[-89.13273,32.21312],[-89.13001,32.21393],[-89.12561,32.21247],[-89.12304,32.21627],[-89.12267,32.21942],[-89.12061,32.21972],[-89.11896,32.22055],[-89.11506,32.22028],[-89.10562,32.22161],[-89.10178,32.22285],[-89.098173,32.222752],[-89.098599,32.223957],[-89.024887,32.224006],[-89.02329,32.22833],[-89.024451,32.237425],[-89.02614,32.239457],[-89.026628,32.240976],[-89.031267,32.244074],[-89.03114,32.246142],[-89.032424,32.248371],[-89.034451,32.248684],[-89.036978,32.251998],[-89.037596,32.255052],[-89.039049,32.256737],[-89.041556,32.258635],[-89.042592,32.258816],[-89.045023,32.261254],[-89.048583,32.26336],[-89.046146,32.267889],[-89.044446,32.273507],[-89.043352,32.275104],[-89.038739,32.279685],[-89.036306,32.282597],[-89.034109,32.286204],[-89.033312,32.288434],[-89.027978,32.305614],[-89.026073,32.309128],[-89.026186,32.310007],[-89.027625,32.309046],[-89.029688,32.309836],[-89.030691,32.308955],[-89.032143,32.309315],[-89.033823,32.30949],[-89.034603,32.311963],[-89.035714,32.312409],[-89.037986,32.311596],[-89.040067,32.31401],[-89.041399,32.313269],[-89.04232,32.314389],[-89.04425,32.314176],[-89.045314,32.311717],[-89.045908,32.312732],[-89.048969,32.314126],[-89.047779,32.316085],[-89.049909,32.316682],[-89.050497,32.317765],[-89.049877,32.321172],[-89.048125,32.321856],[-89.048185,32.324215],[-89.049284,32.325281],[-89.049623,32.327126],[-89.070617,32.327436],[-89.070493,32.334449],[-89.067337,32.337599],[-89.066352,32.339038],[-89.066324,32.34565],[-89.069501,32.351544],[-89.070663,32.352465],[-89.070656,32.35501],[-89.069372,32.357469],[-89.06961,32.362506],[-89.069403,32.364081],[-89.067183,32.366569],[-89.066912,32.368796],[-89.068033,32.369955],[-89.066904,32.370941],[-89.062486,32.370708],[-89.060912,32.371417],[-89.059081,32.373593],[-89.056646,32.378009],[-89.054667,32.378549],[-89.053566,32.380365]]]]}},{"type":"Feature","properties":{"zcta5":"39330","AFFGEOID10":"8600000US39330","GEOID10":"39330","ALAND10":342470647,"AWATER10":1149361,"county_name":"Newton","state_code":"MS","county_state":"Newton County, MS","county_fips":"28101","risk_level_county":"Higher Risk (60–69% vaccinated)","mean_vaccination_rate_county":64.7,"risk_level_zcta":"Higher Risk (60–69% vaccinated)","mean_vaccination_rate_zips":63.67,"cases":0},"geometry":{"type":"Polygon","coordinates":[[[-88.95649,32.262073],[-88.956129,32.260482],[-88.952789,32.258634],[-88.951971,32.256953],[-88.950398,32.256784],[-88.949224,32.254253],[-88.947707,32.252153],[-88.947773,32.244737],[-88.946641,32.242113],[-88.944402,32.239356],[-88.943693,32.23899],[-88.937756,32.237969],[-88.933856,32.236389],[-88.93557,32.23415],[-88.936003,32.231523],[-88.938883,32.230983],[-88.940348,32.228841],[-88.939875,32.224157],[-88.980343,32.224054],[-88.980904,32.222893],[-88.97997,32.21945],[-88.97698,32.21689],[-88.96704,32.21031],[-88.96519,32.20772],[-88.96477,32.20479],[-88.963829,32.201909],[-88.96655,32.20222],[-88.97151,32.20105],[-88.973054,32.201],[-88.972962,32.198701],[-88.971466,32.196036],[-88.972413,32.192804],[-88.971678,32.190848],[-88.970221,32.190124],[-88.9685,32.188252],[-88.968002,32.189065],[-88.966371,32.188988],[-88.963091,32.187004],[-88.961839,32.187049],[-88.961211,32.185498],[-88.959776,32.184237],[-88.958548,32.184365],[-88.955172,32.182526],[-88.953558,32.182778],[-88.954443,32.181786],[-88.952889,32.181254],[-88.952511,32.179749],[-88.954053,32.179277],[-88.95092,32.175437],[-88.94894,32.175303],[-88.94648,32.172186],[-88.944223,32.171409],[-88.941958,32.171673],[-88.939237,32.170976],[-88.938047,32.169976],[-88.936803,32.170069],[-88.935917,32.168806],[-88.93467,32.170109],[-88.934684,32.171532],[-88.932898,32.171427],[-88.931394,32.170649],[-88.929566,32.170233],[-88.927704,32.171297],[-88.925986,32.1699],[-88.923654,32.170532],[-88.922111,32.168418],[-88.922979,32.167509],[-88.918269,32.167295],[-88.916828,32.16635],[-88.913697,32.166387],[-88.91365,32.143348],[-88.913947,32.140341],[-88.913664,32.138922],[-88.913499,32.096292],[-88.91164,32.09308],[-88.906657,32.089725],[-88.902391,32.097142],[-88.89536,32.107315],[-88.894876,32.106491],[-88.89055,32.104929],[-88.890823,32.103134],[-88.889631,32.101278],[-88.89247,32.0961],[-88.89315,32.09201],[-88.89283,32.07569],[-88.893428,32.07215],[-88.891855,32.072305],[-88.888681,32.071268],[-88.886727,32.071165],[-88.886249,32.068501],[-88.884634,32.067461],[-88.886505,32.066451],[-88.884285,32.066071],[-88.880949,32.063561],[-88.880095,32.063564],[-88.880602,32.057438],[-88.878271,32.058954],[-88.875725,32.05983],[-88.873661,32.059414],[-88.87427,32.057901],[-88.873101,32.056863],[-88.874904,32.055211],[-88.87419,32.052795],[-88.872252,32.050786],[-88.86915,32.049385],[-88.868076,32.050001],[-88.866885,32.049083],[-88.865503,32.049739],[-88.864718,32.047318],[-88.863794,32.047911],[-88.862576,32.046823],[-88.8593,32.046673],[-88.856145,32.045163],[-88.853123,32.044415],[-88.851621,32.044837],[-88.85204,32.046093],[-88.849805,32.044715],[-88.84816,32.044046],[-88.847867,32.04168],[-88.846578,32.041176],[-88.845546,32.038993],[-88.845984,32.037856],[-88.845011,32.036037],[-88.814755,32.036143],[-88.817438,32.038572],[-88.817348,32.03963],[-88.819289,32.042142],[-88.821636,32.043027],[-88.822592,32.044835],[-88.823666,32.044096],[-88.824837,32.04611],[-88.82782,32.047571],[-88.827707,32.050063],[-88.826561,32.052777],[-88.825096,32.054437],[-88.825521,32.05702],[-88.823711,32.058338],[-88.823873,32.059436],[-88.810211,32.059531],[-88.810203,32.065545],[-88.810402,32.103513],[-88.81293,32.104701],[-88.810395,32.108813],[-88.810729,32.126449],[-88.812202,32.126485],[-88.811422,32.133241],[-88.811922,32.138972],[-88.810965,32.141961],[-88.810624,32.14126],[-88.803265,32.141366],[-88.802747,32.143727],[-88.801889,32.14417],[-88.806953,32.15078],[-88.807599,32.152564],[-88.806158,32.152581],[-88.80684,32.15468],[-88.80687,32.15954],[-88.80877,32.16306],[-88.80875,32.16683],[-88.795523,32.166767],[-88.795499,32.173094],[-88.79153,32.17356],[-88.7916,32.174509],[-88.79332,32.175669],[-88.788,32.17444],[-88.78202,32.17458],[-88.78484,32.166068],[-88.776708,32.169395],[-88.774896,32.166605],[-88.767152,32.166535],[-88.76383,32.16925],[-88.76098,32.17084],[-88.75594,32.17151],[-88.75375,32.17294],[-88.75283,32.17717],[-88.75137,32.18009],[-88.75092,32.18267],[-88.7518,32.18683],[-88.7515,32.18904],[-88.75191,32.19259],[-88.7533,32.19535],[-88.75318,32.19662],[-88.75176,32.19888],[-88.74772,32.2029],[-88.75486,32.2075],[-88.75779,32.21296],[-88.75639,32.2132],[-88.75368,32.21558],[-88.75393,32.21723],[-88.75516,32.21921],[-88.75414,32.22021],[-88.75223,32.22061],[-88.74985,32.22205],[-88.74605,32.22247],[-88.74363,32.22162],[-88.74207,32.22295],[-88.73609,32.22333],[-88.73323,32.22502],[-88.73193,32.22533],[-88.746252,32.225269],[-88.772848,32.225553],[-88.772077,32.229566],[-88.769875,32.228621],[-88.769848,32.233809],[-88.771198,32.23894],[-88.770875,32.24178],[-88.769675,32.246153],[-88.769513,32.253971],[-88.768554,32.267904],[-88.769286,32.271348],[-88.774249,32.268793],[-88.778354,32.268209],[-88.780204,32.26542],[-88.781271,32.264857],[-88.783494,32.265384],[-88.787521,32.267546],[-88.790929,32.266417],[-88.794835,32.263446],[-88.796797,32.262952],[-88.799149,32.263542],[-88.803869,32.263467],[-88.808181,32.262047],[-88.811088,32.264033],[-88.812322,32.265623],[-88.810003,32.268595],[-88.806099,32.272176],[-88.804306,32.275006],[-88.800974,32.282102],[-88.800593,32.283604],[-88.80086,32.286577],[-88.803046,32.29208],[-88.805564,32.297624],[-88.807988,32.297368],[-88.810991,32.295397],[-88.812862,32.295813],[-88.814023,32.294899],[-88.821622,32.285928],[-88.822879,32.28688],[-88.825304,32.287479],[-88.827551,32.288794],[-88.828911,32.290878],[-88.83136,32.291069],[-88.832305,32.292416],[-88.832117,32.293951],[-88.833927,32.296333],[-88.83533,32.29734],[-88.836501,32.296096],[-88.839261,32.296378],[-88.839822,32.294821],[-88.839472,32.292763],[-88.842031,32.290357],[-88.843662,32.290041],[-88.84606,32.288336],[-88.847781,32.283965],[-88.850614,32.282796],[-88.851995,32.279965],[-88.854833,32.284454],[-88.857435,32.289064],[-88.85912,32.290833],[-88.859525,32.293894],[-88.8577,32.296422],[-88.855187,32.296528],[-88.85451,32.297718],[-88.850496,32.301389],[-88.850145,32.30291],[-88.847318,32.307044],[-88.84917,32.308204],[-88.85075,32.308412],[-88.855761,32.307693],[-88.859964,32.308381],[-88.861605,32.309924],[-88.865335,32.310655],[-88.86463,32.311464],[-88.864989,32.313577],[-88.863837,32.31757],[-88.864856,32.320814],[-88.863169,32.324168],[-88.862795,32.326625],[-88.862913,32.329883],[-88.865123,32.328311],[-88.868341,32.327185],[-88.872516,32.327057],[-88.872841,32.323828],[-88.872225,32.320506],[-88.869864,32.318882],[-88.867828,32.320058],[-88.867332,32.318992],[-88.866094,32.318983],[-88.872586,32.309748],[-88.873744,32.308485],[-88.87629,32.307087],[-88.879092,32.306497],[-88.881676,32.306956],[-88.882578,32.306154],[-88.880131,32.301743],[-88.878713,32.297852],[-88.878009,32.2972],[-88.877131,32.294646],[-88.87799,32.291866],[-88.879861,32.290461],[-88.877753,32.28813],[-88.879848,32.28426],[-88.881676,32.282873],[-88.883316,32.282276],[-88.88507,32.279857],[-88.884563,32.279157],[-88.881576,32.278215],[-88.880881,32.276571],[-88.879285,32.275685],[-88.876305,32.275525],[-88.874196,32.271815],[-88.872222,32.270913],[-88.871936,32.269756],[-88.874517,32.268325],[-88.876586,32.26891],[-88.877587,32.268101],[-88.876713,32.266203],[-88.877839,32.264154],[-88.877379,32.262987],[-88.879392,32.262217],[-88.876448,32.260877],[-88.871909,32.261318],[-88.868113,32.259146],[-88.86382,32.257562],[-88.8577,32.257988],[-88.855822,32.258641],[-88.855232,32.255706],[-88.856801,32.254902],[-88.860884,32.249416],[-88.866396,32.248774],[-88.867502,32.249413],[-88.868335,32.248746],[-88.869862,32.250375],[-88.871143,32.248662],[-88.873449,32.249113],[-88.874355,32.247782],[-88.873835,32.245736],[-88.874981,32.245518],[-88.878353,32.242735],[-88.879142,32.242799],[-88.883075,32.245268],[-88.885192,32.247034],[-88.893285,32.256318],[-88.89734,32.260399],[-88.898736,32.26364],[-88.900096,32.265368],[-88.902208,32.267104],[-88.903532,32.268764],[-88.906242,32.270101],[-88.907753,32.269634],[-88.909233,32.270047],[-88.910995,32.272172],[-88.912171,32.272154],[-88.914533,32.271069],[-88.914444,32.283155],[-88.914686,32.286019],[-88.914706,32.300508],[-88.917924,32.298225],[-88.919522,32.297941],[-88.921899,32.295868],[-88.924076,32.295717],[-88.927112,32.294776],[-88.926387,32.29301],[-88.923836,32.290554],[-88.924226,32.287454],[-88.922434,32.286752],[-88.922209,32.285611],[-88.918648,32.282501],[-88.917963,32.280913],[-88.918683,32.279951],[-88.923457,32.279982],[-88.927391,32.279524],[-88.929339,32.278062],[-88.929656,32.275683],[-88.93049,32.27389],[-88.934821,32.271941],[-88.935408,32.273442],[-88.934128,32.275311],[-88.937018,32.27509],[-88.940233,32.273802],[-88.943343,32.271733],[-88.945451,32.271316],[-88.947236,32.269548],[-88.948461,32.264613],[-88.951055,32.26502],[-88.955324,32.264599],[-88.95649,32.262073]]]}},{"type":"Feature","properties":{"zcta5":"39327","AFFGEOID10":"8600000US39327","GEOID10":"39327","ALAND10":268947223,"AWATER10":1727394,"county_name":"Newton","state_code":"MS","county_state":"Newton County, MS","county_fips":"28101","risk_level_county":"Higher Risk (60–69% vaccinated)","mean_vaccination_rate_county":64.7,"risk_level_zcta":"Higher Risk (60–69% vaccinated)","mean_vaccination_rate_zips":61.35,"cases":0},"geometry":{"type":"Polygon","coordinates":[[[-89.252279,32.534088],[-89.253736,32.531144],[-89.253845,32.529719],[-89.251958,32.526491],[-89.252544,32.523901],[-89.251198,32.522912],[-89.252539,32.520259],[-89.25397,32.518559],[-89.251736,32.517518],[-89.251393,32.5155],[-89.249711,32.514429],[-89.248945,32.510545],[-89.247019,32.509479],[-89.246809,32.505855],[-89.245559,32.504455],[-89.245939,32.503167],[-89.247762,32.500816],[-89.247264,32.49856],[-89.248236,32.497024],[-89.246977,32.49422],[-89.245919,32.493026],[-89.239859,32.493299],[-89.238732,32.49162],[-89.238311,32.48909],[-89.239826,32.487075],[-89.239939,32.485865],[-89.237342,32.480334],[-89.235992,32.478806],[-89.234742,32.480444],[-89.230252,32.483344],[-89.227558,32.481334],[-89.227421,32.478817],[-89.22827,32.4774],[-89.228514,32.473992],[-89.227684,32.471985],[-89.225792,32.47097],[-89.227012,32.46803],[-89.225136,32.467373],[-89.224503,32.46496],[-89.225628,32.463056],[-89.225715,32.460841],[-89.224947,32.459379],[-89.227579,32.458919],[-89.226692,32.456297],[-89.225036,32.455051],[-89.226688,32.454236],[-89.225165,32.452997],[-89.225212,32.451427],[-89.228296,32.450467],[-89.229542,32.451038],[-89.230435,32.450261],[-89.226847,32.449273],[-89.219697,32.450283],[-89.216085,32.449861],[-89.203043,32.449772],[-89.203141,32.430123],[-89.204377,32.429093],[-89.207359,32.429227],[-89.210788,32.42681],[-89.213807,32.427455],[-89.215717,32.426585],[-89.217843,32.427171],[-89.219574,32.426878],[-89.219378,32.425695],[-89.220576,32.425199],[-89.223105,32.425928],[-89.227537,32.424796],[-89.229719,32.426284],[-89.230919,32.424632],[-89.232107,32.42568],[-89.234403,32.426079],[-89.236026,32.424197],[-89.240721,32.424551],[-89.240876,32.422437],[-89.243066,32.416877],[-89.244087,32.415824],[-89.247986,32.414286],[-89.249992,32.414353],[-89.252848,32.413743],[-89.254375,32.412784],[-89.254206,32.409227],[-89.250142,32.40692],[-89.242487,32.405305],[-89.237256,32.403449],[-89.235656,32.400211],[-89.235201,32.398639],[-89.25382,32.39843],[-89.253606,32.393867],[-89.25194,32.394604],[-89.250062,32.392344],[-89.247531,32.392126],[-89.245074,32.388544],[-89.243342,32.387309],[-89.241573,32.386916],[-89.239327,32.38457],[-89.237202,32.384593],[-89.236327,32.385277],[-89.235092,32.391263],[-89.235506,32.392625],[-89.234897,32.394237],[-89.231929,32.393949],[-89.228693,32.394222],[-89.226426,32.393233],[-89.223302,32.393183],[-89.220121,32.39071],[-89.22163,32.386986],[-89.222719,32.382815],[-89.221123,32.379285],[-89.220997,32.377629],[-89.219051,32.378734],[-89.217006,32.381924],[-89.217029,32.383001],[-89.213641,32.387162],[-89.212812,32.390691],[-89.203049,32.387119],[-89.203044,32.392752],[-89.200415,32.39409],[-89.198427,32.392875],[-89.197161,32.391006],[-89.191131,32.386989],[-89.190341,32.385925],[-89.18577,32.383225],[-89.185048,32.382416],[-89.180443,32.38588],[-89.176718,32.389978],[-89.17476,32.391252],[-89.17314,32.393958],[-89.172128,32.394623],[-89.171769,32.396511],[-89.169896,32.398313],[-89.168648,32.398284],[-89.163499,32.39555],[-89.162775,32.395768],[-89.161519,32.398085],[-89.159846,32.398925],[-89.155313,32.399769],[-89.154348,32.399055],[-89.152192,32.395025],[-89.147358,32.394412],[-89.140443,32.391924],[-89.139229,32.389577],[-89.138942,32.386305],[-89.13661,32.385767],[-89.134918,32.385835],[-89.134365,32.391183],[-89.128552,32.390652],[-89.125653,32.388672],[-89.125699,32.391131],[-89.117534,32.39114],[-89.114465,32.409672],[-89.111994,32.408842],[-89.110324,32.407474],[-89.107448,32.407231],[-89.106728,32.40585],[-89.107524,32.403434],[-89.107617,32.400778],[-89.106414,32.400357],[-89.105276,32.398031],[-89.103491,32.396998],[-89.100367,32.393717],[-89.095994,32.39334],[-89.094422,32.39032],[-89.09217,32.387781],[-89.091629,32.383991],[-89.087921,32.382352],[-89.085892,32.380316],[-89.078633,32.380213],[-89.073762,32.377193],[-89.07229,32.377136],[-89.074871,32.383844],[-89.062508,32.383846],[-89.057962,32.38354],[-89.056552,32.382917],[-89.053566,32.380365],[-89.049355,32.380336],[-89.048754,32.377773],[-89.045864,32.378806],[-89.042631,32.378818],[-89.040085,32.380817],[-89.039109,32.379565],[-89.036439,32.379272],[-89.035245,32.377103],[-89.033909,32.376269],[-89.034587,32.375099],[-89.033802,32.374173],[-89.032619,32.37068],[-89.022345,32.378524],[-89.025687,32.382405],[-89.027232,32.384803],[-89.024585,32.386521],[-89.022909,32.388165],[-89.021437,32.392316],[-89.024027,32.39498],[-89.023832,32.398652],[-89.032438,32.399034],[-89.032383,32.393965],[-89.033415,32.395444],[-89.036874,32.397044],[-89.038206,32.400861],[-89.039237,32.402626],[-89.044513,32.406931],[-89.046958,32.409994],[-89.048114,32.413129],[-89.046987,32.413568],[-89.045495,32.41622],[-89.042276,32.415547],[-89.040298,32.416263],[-89.036755,32.415625],[-89.034648,32.414187],[-89.031883,32.413009],[-89.029807,32.412839],[-89.027853,32.413564],[-89.022258,32.417789],[-89.019837,32.412565],[-89.014529,32.406117],[-89.012573,32.402318],[-89.009252,32.404244],[-89.008444,32.405506],[-89.008205,32.410987],[-89.003099,32.418509],[-89.002772,32.422187],[-88.999999,32.422911],[-89.000045,32.39852],[-88.995051,32.398718],[-88.994449,32.40025],[-88.991952,32.403386],[-88.992443,32.404151],[-88.989816,32.405506],[-88.988303,32.4074],[-88.986795,32.408187],[-88.985669,32.410364],[-88.982962,32.409133],[-88.982803,32.415786],[-88.984155,32.416254],[-88.986025,32.415997],[-88.986815,32.416349],[-88.987456,32.419638],[-88.98836,32.420308],[-88.98752,32.421695],[-88.988423,32.422446],[-88.987452,32.423068],[-88.988918,32.423761],[-88.988394,32.425266],[-88.989723,32.429447],[-88.989016,32.431057],[-88.990517,32.433928],[-88.989021,32.433657],[-88.988608,32.435725],[-88.98701,32.434834],[-88.987261,32.436699],[-88.98566,32.437368],[-88.983984,32.438788],[-88.983627,32.440898],[-88.984769,32.440585],[-88.987919,32.443364],[-88.988124,32.444616],[-88.987051,32.445823],[-88.985895,32.445642],[-88.986672,32.447362],[-88.986062,32.448338],[-88.987286,32.45136],[-88.985658,32.451781],[-88.985987,32.453622],[-88.983764,32.454177],[-88.983733,32.456429],[-88.986149,32.457897],[-88.986911,32.459583],[-88.989606,32.460958],[-88.98981,32.462348],[-88.991589,32.464223],[-88.993206,32.466705],[-88.994692,32.466672],[-88.995314,32.470573],[-88.997654,32.471872],[-88.999445,32.474661],[-89.000013,32.477847],[-89.006359,32.480626],[-89.006797,32.482203],[-89.006505,32.485612],[-89.013924,32.481974],[-89.01658,32.481618],[-89.017006,32.479994],[-89.01903,32.484715],[-89.019627,32.48551],[-89.02546,32.485076],[-89.03344,32.486175],[-89.039378,32.488461],[-89.045724,32.489444],[-89.049648,32.489055],[-89.053182,32.489107],[-89.061732,32.491648],[-89.063098,32.493394],[-89.064767,32.494535],[-89.065563,32.494957],[-89.070988,32.492007],[-89.072798,32.491886],[-89.075396,32.495603],[-89.079231,32.496769],[-89.081767,32.498729],[-89.085463,32.505136],[-89.086156,32.507087],[-89.088398,32.509206],[-89.090636,32.510242],[-89.093489,32.510601],[-89.094387,32.511332],[-89.096543,32.515761],[-89.097232,32.516223],[-89.098648,32.516195],[-89.100098,32.514902],[-89.100581,32.516061],[-89.105006,32.515626],[-89.107601,32.515837],[-89.110234,32.517231],[-89.11387,32.518028],[-89.11577,32.497105],[-89.118203,32.498303],[-89.119426,32.500347],[-89.122603,32.500647],[-89.125516,32.499212],[-89.12754,32.498949],[-89.130152,32.500229],[-89.13599,32.499988],[-89.137361,32.499194],[-89.142321,32.498137],[-89.146856,32.49872],[-89.151195,32.498396],[-89.159836,32.498426],[-89.16378,32.497311],[-89.165441,32.498203],[-89.170003,32.503326],[-89.172277,32.504231],[-89.174459,32.507252],[-89.17757,32.509645],[-89.181189,32.513255],[-89.187484,32.51215],[-89.189628,32.511521],[-89.195036,32.508041],[-89.197542,32.508498],[-89.200787,32.509803],[-89.203736,32.512531],[-89.208442,32.513823],[-89.212013,32.514386],[-89.213101,32.514066],[-89.212161,32.513031],[-89.212506,32.510425],[-89.210822,32.504745],[-89.211185,32.502936],[-89.212717,32.501271],[-89.210947,32.498404],[-89.214234,32.495925],[-89.216638,32.49653],[-89.21916,32.49881],[-89.223926,32.501415],[-89.22894,32.501412],[-89.234542,32.503723],[-89.237916,32.505425],[-89.239566,32.507692],[-89.238119,32.512296],[-89.237872,32.515659],[-89.237311,32.516425],[-89.233795,32.516516],[-89.235828,32.51885],[-89.239185,32.523426],[-89.240283,32.526036],[-89.243894,32.529248],[-89.244267,32.530873],[-89.243353,32.532025],[-89.252118,32.532202],[-89.252279,32.534088]]]}},{"type":"Feature","properties":{"zcta5":"39336","AFFGEOID10":"8600000US39336","GEOID10":"39336","ALAND10":200923645,"AWATER10":345635,"county_name":"Newton","state_code":"MS","county_state":"Newton County, MS","county_fips":"28101","risk_level_county":"Higher Risk (60–69% vaccinated)","mean_vaccination_rate_county":64.7,"risk_level_zcta":"Medium Risk (70–79% vaccinated)","mean_vaccination_rate_zips":78.48,"cases":0},"geometry":{"type":"Polygon","coordinates":[[[-89.35024,32.20396],[-89.356173,32.186691],[-89.337045,32.186494],[-89.322634,32.187251],[-89.322729,32.199528],[-89.29106,32.2015],[-89.27941,32.20383],[-89.256435,32.20351],[-89.257188,32.204623],[-89.256471,32.206274],[-89.256448,32.208262],[-89.255067,32.209216],[-89.255235,32.210295],[-89.253488,32.210562],[-89.254037,32.212504],[-89.250207,32.214625],[-89.250016,32.216723],[-89.249208,32.219275],[-89.248033,32.221193],[-89.249207,32.223544],[-89.248629,32.223662],[-89.228396,32.22366],[-89.228555,32.226109],[-89.230315,32.22742],[-89.227592,32.230857],[-89.224339,32.230988],[-89.223498,32.230407],[-89.214067,32.231362],[-89.209431,32.230399],[-89.207094,32.230276],[-89.20406,32.228647],[-89.200379,32.228906],[-89.19848,32.229523],[-89.19667,32.23126],[-89.194325,32.231115],[-89.189588,32.231775],[-89.187498,32.231098],[-89.186464,32.231508],[-89.185732,32.232434],[-89.185792,32.267566],[-89.202837,32.267307],[-89.202849,32.268872],[-89.207039,32.270093],[-89.209053,32.269356],[-89.21225,32.269574],[-89.224957,32.28978],[-89.221154,32.290325],[-89.219513,32.291535],[-89.217484,32.292023],[-89.214371,32.291473],[-89.20945,32.288624],[-89.205963,32.288983],[-89.207458,32.290791],[-89.209885,32.292061],[-89.211739,32.291966],[-89.213768,32.293598],[-89.213699,32.295578],[-89.216835,32.299995],[-89.21917,32.300854],[-89.211807,32.311333],[-89.211372,32.310317],[-89.211688,32.315748],[-89.211433,32.317938],[-89.209602,32.317012],[-89.206398,32.317584],[-89.205147,32.317108],[-89.204941,32.317806],[-89.202118,32.318214],[-89.201042,32.319728],[-89.197776,32.318858],[-89.195739,32.320201],[-89.193908,32.3204],[-89.190803,32.321597],[-89.190475,32.322742],[-89.188606,32.322868],[-89.187492,32.324138],[-89.185226,32.32524],[-89.186551,32.325581],[-89.191923,32.325203],[-89.193529,32.324708],[-89.194337,32.325165],[-89.194323,32.332133],[-89.19552,32.333728],[-89.199607,32.334038],[-89.201896,32.336661],[-89.202898,32.338823],[-89.21673,32.338881],[-89.219032,32.343165],[-89.22109,32.344574],[-89.223367,32.346947],[-89.225099,32.350502],[-89.22687,32.352982],[-89.227368,32.360791],[-89.228091,32.363128],[-89.227746,32.365528],[-89.228871,32.369747],[-89.229884,32.371841],[-89.233227,32.375654],[-89.233438,32.378354],[-89.2347,32.383052],[-89.236327,32.385277],[-89.237202,32.384593],[-89.239327,32.38457],[-89.241573,32.386916],[-89.243342,32.387309],[-89.245074,32.388544],[-89.247531,32.392126],[-89.250062,32.392344],[-89.25194,32.394604],[-89.253606,32.393867],[-89.25382,32.39843],[-89.235201,32.398639],[-89.235656,32.400211],[-89.237,32.401041],[-89.239222,32.400945],[-89.241382,32.4018],[-89.245705,32.402262],[-89.247652,32.403964],[-89.251669,32.403117],[-89.25324,32.40408],[-89.255915,32.403573],[-89.258321,32.401943],[-89.26274,32.405533],[-89.268904,32.407841],[-89.273085,32.408718],[-89.276873,32.410649],[-89.276529,32.41213],[-89.277209,32.415227],[-89.280572,32.414304],[-89.281367,32.414998],[-89.283458,32.413912],[-89.284415,32.414881],[-89.286328,32.41495],[-89.286603,32.413074],[-89.289821,32.412936],[-89.291247,32.413513],[-89.29398,32.412627],[-89.293978,32.411083],[-89.282687,32.404696],[-89.282016,32.404458],[-89.288508,32.399206],[-89.293356,32.394782],[-89.29078,32.394565],[-89.288341,32.392614],[-89.289812,32.390597],[-89.288745,32.389748],[-89.288365,32.38379],[-89.284367,32.385201],[-89.282573,32.385404],[-89.279526,32.383201],[-89.279858,32.379932],[-89.276868,32.379489],[-89.273928,32.375967],[-89.271547,32.374262],[-89.270957,32.370261],[-89.271406,32.365696],[-89.270504,32.363941],[-89.287734,32.354294],[-89.305276,32.354305],[-89.305127,32.33995],[-89.30554,32.324921],[-89.314724,32.32479],[-89.322614,32.324137],[-89.322692,32.223472],[-89.328465,32.223489],[-89.328848,32.221021],[-89.327828,32.219934],[-89.327882,32.218599],[-89.326063,32.215478],[-89.328013,32.213735],[-89.33315,32.21161],[-89.33244,32.20899],[-89.32704,32.20448],[-89.32658,32.2034],[-89.32755,32.20092],[-89.3275,32.19925],[-89.33422,32.19883],[-89.33949,32.19887],[-89.34158,32.19961],[-89.34566,32.20316],[-89.35024,32.20396]]]}},{"type":"Feature","properties":{"zcta5":"39092","AFFGEOID10":"8600000US39092","GEOID10":"39092","ALAND10":277797069,"AWATER10":193502,"county_name":"Newton","state_code":"MS","county_state":"Newton County, MS","county_fips":"28101","risk_level_county":"Higher Risk (60–69% vaccinated)","mean_vaccination_rate_county":64.7,"risk_level_zcta":"Medium Risk (70–79% vaccinated)","mean_vaccination_rate_zips":79.98,"cases":0},"geometry":{"type":"Polygon","coordinates":[[[-89.337916,32.47109],[-89.338125,32.471091],[-89.346609,32.462972],[-89.344241,32.448169],[-89.341126,32.448152],[-89.3399,32.44534],[-89.341459,32.443051],[-89.339286,32.441598],[-89.338282,32.441655],[-89.334788,32.439432],[-89.334078,32.437339],[-89.330477,32.438422],[-89.328195,32.438358],[-89.325282,32.440321],[-89.323232,32.442727],[-89.322743,32.438855],[-89.324242,32.438852],[-89.333219,32.433968],[-89.336064,32.431759],[-89.3388,32.42892],[-89.341264,32.427793],[-89.342435,32.427555],[-89.344748,32.428682],[-89.348399,32.42849],[-89.352726,32.429919],[-89.355634,32.43157],[-89.36082,32.431294],[-89.362857,32.431927],[-89.366281,32.431783],[-89.371191,32.433533],[-89.37166,32.425171],[-89.371407,32.421046],[-89.368746,32.419216],[-89.367378,32.416593],[-89.358875,32.41654],[-89.360429,32.412415],[-89.361853,32.410951],[-89.362397,32.409382],[-89.365303,32.403953],[-89.366278,32.401241],[-89.36843,32.398595],[-89.37096,32.396666],[-89.372944,32.395834],[-89.374108,32.392167],[-89.37392,32.390609],[-89.374656,32.388792],[-89.377515,32.386859],[-89.380523,32.386831],[-89.380804,32.385344],[-89.382283,32.382543],[-89.385119,32.378145],[-89.386691,32.374523],[-89.386055,32.370613],[-89.384869,32.368376],[-89.384338,32.366012],[-89.384725,32.361672],[-89.38477,32.356201],[-89.392899,32.356991],[-89.392722,32.355453],[-89.421637,32.355442],[-89.421598,32.342725],[-89.431721,32.342799],[-89.432828,32.336068],[-89.433145,32.332725],[-89.437308,32.334673],[-89.439361,32.336534],[-89.441251,32.336733],[-89.452742,32.341725],[-89.456439,32.34365],[-89.459513,32.342741],[-89.464545,32.342096],[-89.468869,32.342574],[-89.469538,32.341582],[-89.466876,32.339212],[-89.46481,32.335828],[-89.460935,32.332288],[-89.45972,32.329222],[-89.455521,32.328311],[-89.455505,32.315341],[-89.455616,32.312967],[-89.456454,32.312992],[-89.45702,32.31516],[-89.457005,32.31288],[-89.461436,32.312875],[-89.462832,32.310626],[-89.474686,32.310766],[-89.474674,32.309713],[-89.476257,32.308122],[-89.47731,32.308213],[-89.478988,32.306718],[-89.479484,32.304856],[-89.477714,32.301976],[-89.479255,32.300367],[-89.479263,32.297624],[-89.478401,32.296731],[-89.480201,32.291784],[-89.48217,32.290735],[-89.482048,32.289251],[-89.480941,32.287611],[-89.479705,32.287241],[-89.480064,32.284341],[-89.478973,32.283613],[-89.479057,32.28203],[-89.480194,32.280683],[-89.48265,32.279333],[-89.482078,32.276499],[-89.483642,32.272825],[-89.482994,32.271677],[-89.484855,32.2698],[-89.486671,32.270796],[-89.488296,32.269453],[-89.488586,32.26747],[-89.490486,32.266115],[-89.488144,32.263174],[-89.48658,32.262884],[-89.486305,32.26166],[-89.487312,32.260943],[-89.485344,32.260249],[-89.482879,32.255713],[-89.481957,32.255518],[-89.472173,32.260027],[-89.471036,32.259114],[-89.46641,32.258605],[-89.466299,32.257993],[-89.469048,32.255404],[-89.4704,32.252293],[-89.47188,32.25005],[-89.474531,32.243842],[-89.47787,32.241696],[-89.48188,32.238201],[-89.477666,32.236962],[-89.47448,32.234799],[-89.472872,32.234207],[-89.464784,32.234238],[-89.461259,32.232869],[-89.464892,32.229882],[-89.464994,32.227916],[-89.463989,32.225735],[-89.464216,32.223413],[-89.443069,32.223454],[-89.440925,32.223367],[-89.439517,32.225874],[-89.438332,32.230208],[-89.439564,32.232773],[-89.440442,32.233355],[-89.440486,32.237959],[-89.423322,32.237986],[-89.423544,32.230816],[-89.421339,32.230998],[-89.422979,32.231738],[-89.421751,32.232283],[-89.421522,32.234382],[-89.419226,32.235686],[-89.420301,32.237673],[-89.419172,32.23757],[-89.419531,32.240557],[-89.418157,32.240397],[-89.418791,32.241679],[-89.418783,32.243922],[-89.417623,32.244631],[-89.419088,32.248049],[-89.418722,32.251295],[-89.41744,32.251124],[-89.417166,32.25236],[-89.415266,32.252417],[-89.415327,32.25524],[-89.414083,32.255739],[-89.415032,32.259512],[-89.4177,32.261114],[-89.42191,32.265342],[-89.423522,32.269197],[-89.42458,32.272652],[-89.427743,32.276361],[-89.428809,32.27844],[-89.424962,32.280119],[-89.420841,32.276747],[-89.419618,32.275084],[-89.415875,32.274562],[-89.407037,32.272079],[-89.403747,32.272182],[-89.401331,32.271144],[-89.391325,32.268117],[-89.3884,32.266742],[-89.387845,32.264615],[-89.38605,32.260832],[-89.381855,32.254333],[-89.378894,32.250994],[-89.378751,32.249469],[-89.379645,32.245735],[-89.378373,32.24458],[-89.378116,32.238208],[-89.381869,32.238132],[-89.383764,32.237643],[-89.387692,32.23742],[-89.390098,32.237949],[-89.397281,32.238142],[-89.397412,32.236731],[-89.399389,32.234004],[-89.401006,32.232932],[-89.401326,32.231261],[-89.403188,32.226119],[-89.402761,32.224713],[-89.403661,32.223284],[-89.387947,32.223232],[-89.389182,32.220536],[-89.392906,32.217677],[-89.394223,32.215284],[-89.396742,32.213566],[-89.397759,32.211623],[-89.400465,32.211519],[-89.40184,32.21073],[-89.39838,32.20836],[-89.38147,32.198971],[-89.378166,32.198617],[-89.369393,32.198409],[-89.36573,32.19883],[-89.36446,32.19948],[-89.36392,32.20066],[-89.364087,32.21014],[-89.36065,32.20803],[-89.35709,32.2051],[-89.35553,32.20441],[-89.35024,32.20396],[-89.34566,32.20316],[-89.34158,32.19961],[-89.33949,32.19887],[-89.33422,32.19883],[-89.3275,32.19925],[-89.32755,32.20092],[-89.32658,32.2034],[-89.32704,32.20448],[-89.33244,32.20899],[-89.33315,32.21161],[-89.328013,32.213735],[-89.326063,32.215478],[-89.327882,32.218599],[-89.327828,32.219934],[-89.328848,32.221021],[-89.328465,32.223489],[-89.322692,32.223472],[-89.322614,32.324137],[-89.314724,32.32479],[-89.30554,32.324921],[-89.305127,32.33995],[-89.305276,32.354305],[-89.287734,32.354294],[-89.270504,32.363941],[-89.271406,32.365696],[-89.270957,32.370261],[-89.271547,32.374262],[-89.273928,32.375967],[-89.276868,32.379489],[-89.279858,32.379932],[-89.279526,32.383201],[-89.282573,32.385404],[-89.284367,32.385201],[-89.288365,32.38379],[-89.288745,32.389748],[-89.289812,32.390597],[-89.288341,32.392614],[-89.29078,32.394565],[-89.293356,32.394782],[-89.288508,32.399206],[-89.282016,32.404458],[-89.282687,32.404696],[-89.293978,32.411083],[-89.299293,32.414083],[-89.302025,32.416391],[-89.313397,32.440607],[-89.3163,32.439563],[-89.319983,32.438885],[-89.322526,32.438839],[-89.322554,32.456563],[-89.323117,32.458032],[-89.325492,32.458622],[-89.327808,32.463757],[-89.32635,32.465546],[-89.325992,32.468335],[-89.331524,32.470825],[-89.337916,32.47109]]]}},{"type":"Feature","properties":{"zcta5":"39323","AFFGEOID10":"8600000US39323","GEOID10":"39323","ALAND10":137169881,"AWATER10":556588,"county_name":"Newton","state_code":"MS","county_state":"Newton County, MS","county_fips":"28101","risk_level_county":"Higher Risk (60–69% vaccinated)","mean_vaccination_rate_county":64.7,"risk_level_zcta":"Medium Risk (70–79% vaccinated)","mean_vaccination_rate_zips":78.42,"cases":0},"geometry":{"type":"MultiPolygon","coordinates":[[[[-88.965385,32.339148],[-88.965487,32.33933],[-88.967977,32.342064],[-88.969869,32.33893],[-88.974006,32.333499],[-88.972808,32.332751],[-88.976965,32.327819],[-88.975696,32.327268],[-88.976008,32.324402],[-88.965344,32.325805],[-88.96538,32.333683],[-88.965385,32.339148]]],[[[-88.986815,32.416349],[-88.986025,32.415997],[-88.984155,32.416254],[-88.982803,32.415786],[-88.982962,32.409133],[-88.982469,32.405316],[-88.98049,32.401861],[-88.977848,32.399758],[-88.97907,32.396435],[-88.974528,32.394658],[-88.971421,32.392533],[-88.969284,32.393045],[-88.969909,32.391421],[-88.969267,32.390208],[-88.969656,32.38753],[-88.968197,32.38626],[-88.96727,32.383822],[-88.965422,32.383243],[-88.965401,32.3592],[-88.963874,32.356785],[-88.963583,32.353731],[-88.966712,32.351084],[-88.968112,32.347649],[-88.965391,32.347294],[-88.965385,32.339148],[-88.964954,32.337131],[-88.962003,32.334208],[-88.960537,32.331826],[-88.958175,32.330441],[-88.956855,32.328454],[-88.956715,32.325888],[-88.940219,32.32595],[-88.939691,32.323554],[-88.958755,32.320745],[-88.965319,32.32001],[-88.965305,32.29609],[-88.965042,32.293832],[-88.961877,32.292596],[-88.959258,32.290766],[-88.954672,32.293119],[-88.950602,32.293159],[-88.948043,32.291997],[-88.947987,32.284232],[-88.950468,32.283523],[-88.955617,32.28382],[-88.957208,32.285057],[-88.960389,32.28547],[-88.962273,32.283691],[-88.965151,32.282654],[-88.965084,32.26768],[-88.968971,32.26768],[-88.968459,32.266055],[-88.966529,32.265356],[-88.963513,32.26538],[-88.961374,32.264388],[-88.958709,32.26458],[-88.957853,32.262819],[-88.95649,32.262073],[-88.955324,32.264599],[-88.951055,32.26502],[-88.948461,32.264613],[-88.947236,32.269548],[-88.945451,32.271316],[-88.943343,32.271733],[-88.940233,32.273802],[-88.937018,32.27509],[-88.934128,32.275311],[-88.935408,32.273442],[-88.934821,32.271941],[-88.93049,32.27389],[-88.929656,32.275683],[-88.929339,32.278062],[-88.927391,32.279524],[-88.923457,32.279982],[-88.918683,32.279951],[-88.917963,32.280913],[-88.918648,32.282501],[-88.922209,32.285611],[-88.922434,32.286752],[-88.924226,32.287454],[-88.923836,32.290554],[-88.926387,32.29301],[-88.927112,32.294776],[-88.924076,32.295717],[-88.921899,32.295868],[-88.919522,32.297941],[-88.917924,32.298225],[-88.914706,32.300508],[-88.914686,32.286019],[-88.914444,32.283155],[-88.914533,32.271069],[-88.912171,32.272154],[-88.910995,32.272172],[-88.909233,32.270047],[-88.907753,32.269634],[-88.906242,32.270101],[-88.903532,32.268764],[-88.902208,32.267104],[-88.900096,32.265368],[-88.898736,32.26364],[-88.89734,32.260399],[-88.893285,32.256318],[-88.885192,32.247034],[-88.883075,32.245268],[-88.879142,32.242799],[-88.878353,32.242735],[-88.874981,32.245518],[-88.873835,32.245736],[-88.874355,32.247782],[-88.873449,32.249113],[-88.871143,32.248662],[-88.869862,32.250375],[-88.868335,32.248746],[-88.867502,32.249413],[-88.866396,32.248774],[-88.860884,32.249416],[-88.856801,32.254902],[-88.855232,32.255706],[-88.855822,32.258641],[-88.8577,32.257988],[-88.86382,32.257562],[-88.868113,32.259146],[-88.871909,32.261318],[-88.876448,32.260877],[-88.879392,32.262217],[-88.877379,32.262987],[-88.877839,32.264154],[-88.876713,32.266203],[-88.877587,32.268101],[-88.876586,32.26891],[-88.874517,32.268325],[-88.871936,32.269756],[-88.872222,32.270913],[-88.874196,32.271815],[-88.876305,32.275525],[-88.879285,32.275685],[-88.880881,32.276571],[-88.881576,32.278215],[-88.884563,32.279157],[-88.88507,32.279857],[-88.883316,32.282276],[-88.881676,32.282873],[-88.879848,32.28426],[-88.877753,32.28813],[-88.879861,32.290461],[-88.87799,32.291866],[-88.877131,32.294646],[-88.878009,32.2972],[-88.878713,32.297852],[-88.880131,32.301743],[-88.882578,32.306154],[-88.881676,32.306956],[-88.879092,32.306497],[-88.87629,32.307087],[-88.873744,32.308485],[-88.872586,32.309748],[-88.866094,32.318983],[-88.867332,32.318992],[-88.867828,32.320058],[-88.869864,32.318882],[-88.872225,32.320506],[-88.872841,32.323828],[-88.872516,32.327057],[-88.873672,32.328934],[-88.875755,32.330793],[-88.877437,32.329426],[-88.878214,32.330528],[-88.881583,32.332393],[-88.882358,32.334386],[-88.881568,32.336864],[-88.881815,32.338988],[-88.882784,32.341246],[-88.885911,32.343181],[-88.885857,32.345745],[-88.900987,32.344277],[-88.906542,32.344075],[-88.914684,32.343316],[-88.91492,32.375142],[-88.915049,32.393859],[-88.913703,32.395932],[-88.90967,32.398957],[-88.904181,32.397847],[-88.902872,32.397921],[-88.903463,32.399222],[-88.902803,32.402383],[-88.901595,32.403245],[-88.89993,32.402835],[-88.897721,32.405024],[-88.897496,32.406182],[-88.898518,32.407563],[-88.899088,32.410209],[-88.900052,32.410833],[-88.901765,32.410406],[-88.90054,32.412795],[-88.900284,32.414618],[-88.900887,32.416819],[-88.901677,32.417763],[-88.9005,32.421565],[-88.900526,32.42316],[-88.899051,32.425947],[-88.897049,32.426834],[-88.894785,32.430745],[-88.894057,32.4326],[-88.892369,32.433859],[-88.890158,32.434725],[-88.889256,32.436009],[-88.889874,32.436917],[-88.88777,32.438264],[-88.885733,32.440754],[-88.884843,32.442707],[-88.886018,32.442873],[-88.889822,32.444383],[-88.892078,32.446394],[-88.893927,32.450451],[-88.893371,32.452486],[-88.893835,32.453644],[-88.89667,32.453692],[-88.898117,32.455442],[-88.899748,32.454438],[-88.900515,32.452259],[-88.907545,32.45267],[-88.908291,32.452305],[-88.909987,32.448797],[-88.910887,32.448616],[-88.915271,32.45024],[-88.915309,32.459946],[-88.917383,32.460568],[-88.917762,32.462755],[-88.918655,32.463885],[-88.920304,32.464111],[-88.924244,32.463392],[-88.925985,32.463406],[-88.927098,32.462302],[-88.926472,32.461049],[-88.927273,32.458844],[-88.926721,32.455549],[-88.927675,32.453648],[-88.927277,32.451955],[-88.930556,32.449559],[-88.929433,32.447998],[-88.93023,32.444344],[-88.932048,32.444564],[-88.933158,32.442402],[-88.932489,32.439856],[-88.933602,32.439991],[-88.934964,32.437897],[-88.936296,32.4385],[-88.936776,32.436504],[-88.941193,32.43261],[-88.941366,32.430223],[-88.93853,32.42554],[-88.941377,32.425006],[-88.943549,32.425187],[-88.950091,32.4248],[-88.956108,32.426978],[-88.95951,32.431965],[-88.960059,32.433548],[-88.959722,32.435189],[-88.966052,32.437264],[-88.970513,32.438118],[-88.971373,32.437949],[-88.97221,32.434077],[-88.971791,32.429103],[-88.97447,32.428713],[-88.976084,32.42726],[-88.976114,32.425469],[-88.977409,32.421184],[-88.977267,32.417246],[-88.981232,32.416704],[-88.986815,32.416349]]]]}},{"type":"Feature","properties":{"zcta5":"39325","AFFGEOID10":"8600000US39325","GEOID10":"39325","ALAND10":284293251,"AWATER10":9728903,"county_name":"Newton","state_code":"MS","county_state":"Newton County, MS","county_fips":"28101","risk_level_county":"Higher Risk (60–69% vaccinated)","mean_vaccination_rate_county":64.7,"risk_level_zcta":"Medium Risk (70–79% vaccinated)","mean_vaccination_rate_zips":70.92,"cases":0},"geometry":{"type":"Polygon","coordinates":[[[-88.930143,32.669337],[-88.926771,32.667819],[-88.921115,32.667304],[-88.919135,32.666232],[-88.916589,32.666127],[-88.914919,32.665154],[-88.910506,32.663408],[-88.909658,32.662598],[-88.910302,32.661479],[-88.912504,32.659321],[-88.914891,32.657321],[-88.914818,32.637736],[-88.917692,32.635124],[-88.920826,32.635535],[-88.924919,32.635255],[-88.928641,32.635385],[-88.930091,32.63344],[-88.931811,32.63243],[-88.933742,32.634827],[-88.935755,32.640882],[-88.936514,32.641493],[-88.940048,32.642253],[-88.94342,32.643533],[-88.94623,32.644115],[-88.948866,32.64399],[-88.948859,32.616721],[-88.945831,32.614602],[-88.94445,32.612601],[-88.944445,32.610843],[-88.945488,32.607287],[-88.947496,32.602821],[-88.948258,32.599161],[-88.947241,32.595447],[-88.946984,32.591591],[-88.948587,32.59039],[-88.936576,32.576939],[-88.934275,32.576953],[-88.937028,32.575151],[-88.939219,32.572883],[-88.937471,32.571788],[-88.93775,32.570112],[-88.936342,32.567568],[-88.936527,32.564737],[-88.938547,32.562097],[-88.941299,32.562152],[-88.942679,32.560565],[-88.943015,32.55885],[-88.941619,32.552846],[-88.941525,32.550565],[-88.939806,32.54506],[-88.937293,32.540346],[-88.936078,32.536528],[-88.931085,32.536673],[-88.930661,32.534213],[-88.92905,32.531703],[-88.929372,32.530394],[-88.928156,32.526836],[-88.926873,32.527161],[-88.92718,32.528759],[-88.926115,32.530808],[-88.922114,32.533244],[-88.922266,32.533883],[-88.919504,32.53478],[-88.919322,32.529856],[-88.91702,32.526545],[-88.917767,32.523953],[-88.916105,32.52129],[-88.91542,32.519195],[-88.915315,32.51616],[-88.915397,32.500449],[-88.914987,32.463201],[-88.915309,32.459946],[-88.915271,32.45024],[-88.910887,32.448616],[-88.909987,32.448797],[-88.908291,32.452305],[-88.907545,32.45267],[-88.900515,32.452259],[-88.899748,32.454438],[-88.898117,32.455442],[-88.89667,32.453692],[-88.893835,32.453644],[-88.893371,32.452486],[-88.893927,32.450451],[-88.892078,32.446394],[-88.889822,32.444383],[-88.886018,32.442873],[-88.884843,32.442707],[-88.88164,32.441379],[-88.880198,32.440348],[-88.878674,32.44014],[-88.873164,32.438608],[-88.872461,32.438203],[-88.870442,32.435923],[-88.86808,32.434433],[-88.863171,32.436174],[-88.857213,32.437645],[-88.852324,32.437772],[-88.848136,32.437497],[-88.844907,32.43829],[-88.842454,32.439322],[-88.835868,32.439849],[-88.83241,32.441223],[-88.826737,32.44259],[-88.824564,32.442467],[-88.827108,32.443967],[-88.830392,32.445365],[-88.831057,32.446516],[-88.831158,32.448095],[-88.829789,32.4494],[-88.829222,32.452616],[-88.827224,32.453054],[-88.825294,32.451979],[-88.825009,32.452817],[-88.821097,32.451891],[-88.819842,32.4525],[-88.818798,32.451998],[-88.818676,32.450313],[-88.817684,32.449033],[-88.818069,32.44728],[-88.816693,32.444632],[-88.814358,32.44328],[-88.811513,32.443058],[-88.808763,32.443336],[-88.807009,32.442762],[-88.803961,32.442566],[-88.803074,32.44165],[-88.800579,32.443111],[-88.798341,32.441839],[-88.799311,32.443117],[-88.797667,32.44334],[-88.796892,32.444346],[-88.796355,32.445663],[-88.796811,32.539578],[-88.79589,32.560846],[-88.794416,32.572623],[-88.795064,32.570376],[-88.796307,32.569895],[-88.795446,32.569079],[-88.79697,32.56565],[-88.799573,32.562227],[-88.799147,32.56076],[-88.79979,32.559169],[-88.798299,32.558137],[-88.799034,32.555027],[-88.801016,32.554399],[-88.805761,32.556184],[-88.808201,32.558383],[-88.808093,32.560946],[-88.809347,32.561303],[-88.809254,32.563519],[-88.810527,32.566191],[-88.809636,32.567224],[-88.811369,32.567398],[-88.811595,32.56975],[-88.812649,32.569728],[-88.815124,32.572669],[-88.815508,32.574698],[-88.814433,32.575977],[-88.812953,32.575964],[-88.811019,32.577041],[-88.814182,32.577039],[-88.81594,32.578634],[-88.815181,32.579483],[-88.816554,32.581236],[-88.819853,32.582339],[-88.820836,32.584359],[-88.822602,32.584347],[-88.822891,32.585909],[-88.828659,32.587575],[-88.828952,32.589542],[-88.831541,32.591418],[-88.834227,32.595454],[-88.833749,32.596052],[-88.836876,32.597887],[-88.838155,32.599413],[-88.838039,32.600828],[-88.839695,32.601911],[-88.840798,32.604932],[-88.84259,32.606096],[-88.842179,32.606706],[-88.843258,32.610155],[-88.844402,32.609914],[-88.847075,32.61192],[-88.84669,32.616434],[-88.848038,32.618524],[-88.849496,32.619349],[-88.850759,32.621191],[-88.851126,32.62307],[-88.849738,32.625479],[-88.848446,32.624991],[-88.84733,32.62594],[-88.847791,32.628506],[-88.845843,32.629995],[-88.844565,32.634277],[-88.845021,32.636014],[-88.848563,32.637233],[-88.850784,32.637597],[-88.852582,32.639767],[-88.854746,32.640803],[-88.858044,32.641462],[-88.859183,32.641935],[-88.859705,32.645932],[-88.861425,32.647958],[-88.86466,32.649965],[-88.865944,32.651927],[-88.86522,32.653594],[-88.86633,32.653944],[-88.867542,32.655633],[-88.867148,32.658056],[-88.867805,32.658567],[-88.866817,32.661389],[-88.86487,32.662553],[-88.866238,32.664222],[-88.866974,32.667135],[-88.868135,32.66908],[-88.870068,32.674287],[-88.87005,32.678771],[-88.871704,32.678862],[-88.871843,32.68334],[-88.871623,32.691867],[-88.87022,32.694405],[-88.870526,32.696776],[-88.87295,32.70343],[-88.873477,32.706455],[-88.875242,32.709192],[-88.875157,32.711992],[-88.876055,32.714583],[-88.879855,32.720517],[-88.880002,32.724342],[-88.880748,32.725234],[-88.884468,32.726685],[-88.887398,32.729245],[-88.889261,32.730265],[-88.89042,32.731795],[-88.89315,32.732656],[-88.893891,32.733461],[-88.89336,32.737153],[-88.895815,32.7359],[-88.896727,32.734797],[-88.900388,32.73284],[-88.90275,32.730782],[-88.904894,32.730083],[-88.906056,32.728783],[-88.906474,32.726643],[-88.906502,32.721317],[-88.908198,32.722715],[-88.91157,32.7241],[-88.915235,32.726407],[-88.915276,32.708716],[-88.91756,32.708436],[-88.918945,32.708991],[-88.921411,32.708463],[-88.923617,32.706774],[-88.926051,32.707154],[-88.927775,32.709124],[-88.92822,32.710697],[-88.935681,32.710225],[-88.940025,32.708393],[-88.942309,32.706686],[-88.942988,32.705182],[-88.944544,32.703545],[-88.944873,32.70112],[-88.94852,32.699183],[-88.948762,32.697152],[-88.948319,32.695776],[-88.94642,32.693861],[-88.945453,32.690576],[-88.943348,32.686255],[-88.942044,32.684705],[-88.939989,32.685688],[-88.93751,32.686052],[-88.93576,32.685638],[-88.933907,32.684485],[-88.931146,32.681975],[-88.927223,32.680138],[-88.923935,32.680103],[-88.922071,32.679449],[-88.922949,32.678551],[-88.92328,32.674894],[-88.925192,32.67359],[-88.928138,32.672456],[-88.928355,32.670612],[-88.930143,32.669337]]]}},{"type":"Feature","properties":{"zcta5":"39337","AFFGEOID10":"8600000US39337","GEOID10":"39337","ALAND10":166834117,"AWATER10":79722,"county_name":"Newton","state_code":"MS","county_state":"Newton County, MS","county_fips":"28101","risk_level_county":"Higher Risk (60–69% vaccinated)","mean_vaccination_rate_county":64.7,"risk_level_zcta":"Medium Risk (70–79% vaccinated)","mean_vaccination_rate_zips":70.87,"cases":0},"geometry":{"type":"Polygon","coordinates":[[[-88.948587,32.59039],[-88.959869,32.603065],[-88.962846,32.606014],[-88.965421,32.607809],[-88.970578,32.605316],[-88.971002,32.603653],[-88.972747,32.604171],[-88.976656,32.60274],[-88.977957,32.603038],[-88.978171,32.601259],[-88.981772,32.597284],[-88.981247,32.594384],[-88.981726,32.593319],[-88.983735,32.59245],[-88.985353,32.59038],[-88.985458,32.589064],[-88.987691,32.588757],[-88.990396,32.587167],[-88.98985,32.585558],[-88.991664,32.584543],[-88.991128,32.582543],[-88.992611,32.581108],[-88.99536,32.580078],[-88.995151,32.578184],[-88.994173,32.577002],[-89.00909,32.576894],[-89.007493,32.574375],[-89.008401,32.57273],[-89.008661,32.567861],[-89.015581,32.562788],[-89.017033,32.561184],[-89.019486,32.560215],[-89.020723,32.561163],[-89.024713,32.561392],[-89.027672,32.562382],[-89.029753,32.562507],[-89.029454,32.559942],[-89.030302,32.557316],[-89.029764,32.554084],[-89.031769,32.547763],[-89.032164,32.545685],[-89.033633,32.543536],[-89.032609,32.540863],[-89.032383,32.537679],[-89.031436,32.536534],[-89.028484,32.531326],[-89.028122,32.52909],[-89.029288,32.528885],[-89.030366,32.52665],[-89.03192,32.527668],[-89.032285,32.529033],[-89.036811,32.53173],[-89.037338,32.533166],[-89.040395,32.53495],[-89.040894,32.538486],[-89.042276,32.540598],[-89.04209,32.543975],[-89.043404,32.545051],[-89.04344,32.547651],[-89.042636,32.549233],[-89.043821,32.55017],[-89.043633,32.552011],[-89.046096,32.554617],[-89.044958,32.555588],[-89.044832,32.558111],[-89.046919,32.562783],[-89.049576,32.562505],[-89.049576,32.559564],[-89.066879,32.559649],[-89.066839,32.540017],[-89.065751,32.539455],[-89.063777,32.536613],[-89.061629,32.535424],[-89.058728,32.533042],[-89.05863,32.529824],[-89.059292,32.527359],[-89.061168,32.523966],[-89.062419,32.520177],[-89.061061,32.515799],[-89.062501,32.513413],[-89.062563,32.508593],[-89.057838,32.509332],[-89.058951,32.507337],[-89.059372,32.503912],[-89.058587,32.501564],[-89.060532,32.498376],[-89.060697,32.497255],[-89.062411,32.49662],[-89.064767,32.494535],[-89.063098,32.493394],[-89.061732,32.491648],[-89.053182,32.489107],[-89.049648,32.489055],[-89.045724,32.489444],[-89.039378,32.488461],[-89.03344,32.486175],[-89.02546,32.485076],[-89.019627,32.48551],[-89.01903,32.484715],[-89.017006,32.479994],[-89.01658,32.481618],[-89.013924,32.481974],[-89.006505,32.485612],[-89.006797,32.482203],[-89.006359,32.480626],[-89.000013,32.477847],[-88.999445,32.474661],[-88.997654,32.471872],[-88.995314,32.470573],[-88.994692,32.466672],[-88.993206,32.466705],[-88.991589,32.464223],[-88.98981,32.462348],[-88.989606,32.460958],[-88.986911,32.459583],[-88.986149,32.457897],[-88.983733,32.456429],[-88.983764,32.454177],[-88.985987,32.453622],[-88.985658,32.451781],[-88.987286,32.45136],[-88.986062,32.448338],[-88.986672,32.447362],[-88.985895,32.445642],[-88.987051,32.445823],[-88.988124,32.444616],[-88.987919,32.443364],[-88.984769,32.440585],[-88.983627,32.440898],[-88.983984,32.438788],[-88.98566,32.437368],[-88.987261,32.436699],[-88.98701,32.434834],[-88.988608,32.435725],[-88.989021,32.433657],[-88.990517,32.433928],[-88.989016,32.431057],[-88.989723,32.429447],[-88.988394,32.425266],[-88.988918,32.423761],[-88.987452,32.423068],[-88.988423,32.422446],[-88.98752,32.421695],[-88.98836,32.420308],[-88.987456,32.419638],[-88.986815,32.416349],[-88.981232,32.416704],[-88.977267,32.417246],[-88.977409,32.421184],[-88.976114,32.425469],[-88.976084,32.42726],[-88.97447,32.428713],[-88.971791,32.429103],[-88.97221,32.434077],[-88.971373,32.437949],[-88.970513,32.438118],[-88.966052,32.437264],[-88.959722,32.435189],[-88.960059,32.433548],[-88.95951,32.431965],[-88.956108,32.426978],[-88.950091,32.4248],[-88.943549,32.425187],[-88.941377,32.425006],[-88.93853,32.42554],[-88.941366,32.430223],[-88.941193,32.43261],[-88.936776,32.436504],[-88.936296,32.4385],[-88.934964,32.437897],[-88.933602,32.439991],[-88.932489,32.439856],[-88.933158,32.442402],[-88.932048,32.444564],[-88.93023,32.444344],[-88.929433,32.447998],[-88.930556,32.449559],[-88.927277,32.451955],[-88.927675,32.453648],[-88.926721,32.455549],[-88.927273,32.458844],[-88.926472,32.461049],[-88.927098,32.462302],[-88.925985,32.463406],[-88.924244,32.463392],[-88.920304,32.464111],[-88.918655,32.463885],[-88.917762,32.462755],[-88.917383,32.460568],[-88.915309,32.459946],[-88.914987,32.463201],[-88.915397,32.500449],[-88.915315,32.51616],[-88.91542,32.519195],[-88.916105,32.52129],[-88.917767,32.523953],[-88.91702,32.526545],[-88.919322,32.529856],[-88.919504,32.53478],[-88.922266,32.533883],[-88.922114,32.533244],[-88.926115,32.530808],[-88.92718,32.528759],[-88.926873,32.527161],[-88.928156,32.526836],[-88.929372,32.530394],[-88.92905,32.531703],[-88.930661,32.534213],[-88.931085,32.536673],[-88.936078,32.536528],[-88.937293,32.540346],[-88.939806,32.54506],[-88.941525,32.550565],[-88.941619,32.552846],[-88.943015,32.55885],[-88.942679,32.560565],[-88.941299,32.562152],[-88.938547,32.562097],[-88.936527,32.564737],[-88.936342,32.567568],[-88.93775,32.570112],[-88.937471,32.571788],[-88.939219,32.572883],[-88.937028,32.575151],[-88.934275,32.576953],[-88.936576,32.576939],[-88.948587,32.59039]]]}},{"type":"Feature","properties":{"zcta5":"39057","AFFGEOID10":"8600000US39057","GEOID10":"39057","ALAND10":167421554,"AWATER10":492285,"county_name":"Newton","state_code":"MS","county_state":"Newton County, MS","county_fips":"28101","risk_level_county":"Higher Risk (60–69% vaccinated)","mean_vaccination_rate_county":64.7,"risk_level_zcta":"Medium Risk (70–79% vaccinated)","mean_vaccination_rate_zips":74.15,"cases":0},"geometry":{"type":"Polygon","coordinates":[[[-89.368197,32.514266],[-89.367449,32.513236],[-89.365078,32.512645],[-89.362493,32.510525],[-89.36343,32.509918],[-89.363228,32.508598],[-89.359132,32.506698],[-89.357811,32.504179],[-89.358051,32.503556],[-89.361684,32.503266],[-89.36038,32.502068],[-89.361626,32.50049],[-89.360729,32.501081],[-89.359568,32.499877],[-89.360738,32.49956],[-89.358816,32.497829],[-89.356172,32.4971],[-89.356899,32.496695],[-89.355939,32.495411],[-89.353461,32.494513],[-89.353985,32.493069],[-89.352532,32.493977],[-89.351994,32.492585],[-89.3489,32.49376],[-89.348751,32.492068],[-89.346553,32.492603],[-89.347541,32.491429],[-89.352624,32.490506],[-89.354399,32.489879],[-89.353835,32.489432],[-89.344525,32.479553],[-89.337916,32.47109],[-89.331524,32.470825],[-89.325992,32.468335],[-89.32635,32.465546],[-89.327808,32.463757],[-89.325492,32.458622],[-89.323117,32.458032],[-89.322554,32.456563],[-89.322526,32.438839],[-89.319983,32.438885],[-89.3163,32.439563],[-89.313397,32.440607],[-89.302025,32.416391],[-89.299293,32.414083],[-89.293978,32.411083],[-89.29398,32.412627],[-89.291247,32.413513],[-89.289821,32.412936],[-89.286603,32.413074],[-89.286328,32.41495],[-89.284415,32.414881],[-89.283458,32.413912],[-89.281367,32.414998],[-89.280572,32.414304],[-89.277209,32.415227],[-89.276529,32.41213],[-89.276873,32.410649],[-89.273085,32.408718],[-89.268904,32.407841],[-89.26274,32.405533],[-89.258321,32.401943],[-89.255915,32.403573],[-89.25324,32.40408],[-89.251669,32.403117],[-89.247652,32.403964],[-89.245705,32.402262],[-89.241382,32.4018],[-89.239222,32.400945],[-89.237,32.401041],[-89.235656,32.400211],[-89.237256,32.403449],[-89.242487,32.405305],[-89.250142,32.40692],[-89.254206,32.409227],[-89.254375,32.412784],[-89.252848,32.413743],[-89.249992,32.414353],[-89.247986,32.414286],[-89.244087,32.415824],[-89.243066,32.416877],[-89.240876,32.422437],[-89.240721,32.424551],[-89.236026,32.424197],[-89.234403,32.426079],[-89.232107,32.42568],[-89.230919,32.424632],[-89.229719,32.426284],[-89.227537,32.424796],[-89.223105,32.425928],[-89.220576,32.425199],[-89.219378,32.425695],[-89.219574,32.426878],[-89.217843,32.427171],[-89.215717,32.426585],[-89.213807,32.427455],[-89.210788,32.42681],[-89.207359,32.429227],[-89.204377,32.429093],[-89.203141,32.430123],[-89.203043,32.449772],[-89.216085,32.449861],[-89.219697,32.450283],[-89.226847,32.449273],[-89.230435,32.450261],[-89.229542,32.451038],[-89.228296,32.450467],[-89.225212,32.451427],[-89.225165,32.452997],[-89.226688,32.454236],[-89.225036,32.455051],[-89.226692,32.456297],[-89.227579,32.458919],[-89.224947,32.459379],[-89.225715,32.460841],[-89.225628,32.463056],[-89.224503,32.46496],[-89.225136,32.467373],[-89.227012,32.46803],[-89.225792,32.47097],[-89.227684,32.471985],[-89.228514,32.473992],[-89.22827,32.4774],[-89.227421,32.478817],[-89.227558,32.481334],[-89.230252,32.483344],[-89.234742,32.480444],[-89.235992,32.478806],[-89.237342,32.480334],[-89.239939,32.485865],[-89.239826,32.487075],[-89.238311,32.48909],[-89.238732,32.49162],[-89.239859,32.493299],[-89.245919,32.493026],[-89.246977,32.49422],[-89.248236,32.497024],[-89.247264,32.49856],[-89.247762,32.500816],[-89.245939,32.503167],[-89.245559,32.504455],[-89.246809,32.505855],[-89.247019,32.509479],[-89.248945,32.510545],[-89.249711,32.514429],[-89.251393,32.5155],[-89.251736,32.517518],[-89.25397,32.518559],[-89.252539,32.520259],[-89.251198,32.522912],[-89.252544,32.523901],[-89.251958,32.526491],[-89.253845,32.529719],[-89.253736,32.531144],[-89.252279,32.534088],[-89.252284,32.549324],[-89.245172,32.549098],[-89.243567,32.548216],[-89.240297,32.54492],[-89.238925,32.544023],[-89.239125,32.545117],[-89.238464,32.547998],[-89.238501,32.550142],[-89.240405,32.552266],[-89.239899,32.555334],[-89.239089,32.557638],[-89.239139,32.564758],[-89.247532,32.568356],[-89.248943,32.568467],[-89.25115,32.570047],[-89.252715,32.570312],[-89.252811,32.576464],[-89.3003,32.576483],[-89.310855,32.572634],[-89.318429,32.571903],[-89.322591,32.571919],[-89.322599,32.559566],[-89.33861,32.559421],[-89.340115,32.557397],[-89.343512,32.554679],[-89.343163,32.54774],[-89.341876,32.545525],[-89.344021,32.545442],[-89.344446,32.546903],[-89.346798,32.545021],[-89.347274,32.545852],[-89.350458,32.544819],[-89.350335,32.543439],[-89.352787,32.542337],[-89.352551,32.541275],[-89.356195,32.540683],[-89.357784,32.543351],[-89.359632,32.539675],[-89.361329,32.537738],[-89.356401,32.535317],[-89.352864,32.534561],[-89.350567,32.5354],[-89.340841,32.536213],[-89.340111,32.530012],[-89.338136,32.528222],[-89.337929,32.526468],[-89.340273,32.523524],[-89.338476,32.521667],[-89.336755,32.518414],[-89.337246,32.517637],[-89.339146,32.515137],[-89.341324,32.515293],[-89.343494,32.514713],[-89.342808,32.513001],[-89.344653,32.509754],[-89.349297,32.512444],[-89.350421,32.512116],[-89.352621,32.514686],[-89.354633,32.514258],[-89.357991,32.516133],[-89.360183,32.514882],[-89.362498,32.515242],[-89.365404,32.513718],[-89.368197,32.514266]]]}}]}