{"type":"FeatureCollection","features":[{"type":"Feature","properties":{"zcta5":"74360","AFFGEOID10":"8600000US74360","GEOID10":"74360","ALAND10":16649404,"AWATER10":46325,"county_name":"Ottawa","state_code":"OK","county_state":"Ottawa County, OK","county_fips":"40115","risk_level_county":"Higher Risk (60–69% vaccinated)","mean_vaccination_rate_county":66.09,"risk_level_zcta":"Uninhabited","mean_vaccination_rate_zips":null,"cases":17},"geometry":{"type":"Polygon","coordinates":[[[-94.853197,36.998874],[-94.851071,36.998308],[-94.851015,36.99566],[-94.848768,36.994282],[-94.848971,36.989552],[-94.845765,36.987068],[-94.84885,36.98708],[-94.848825,36.977445],[-94.849807,36.977462],[-94.84988,36.97507],[-94.85121,36.97506],[-94.85225,36.97383],[-94.85224,36.97177],[-94.85427,36.97256],[-94.86327,36.95803],[-94.83077,36.95811],[-94.83061,36.94361],[-94.81943,36.94364],[-94.81257,36.94365],[-94.81287,36.98678],[-94.813911,36.984878],[-94.815635,36.983987],[-94.817968,36.984619],[-94.820412,36.979352],[-94.826199,36.977274],[-94.826275,36.980706],[-94.827216,36.980706],[-94.827211,36.983357],[-94.824845,36.983333],[-94.82337,36.983939],[-94.821863,36.985723],[-94.82185,36.98704],[-94.82037,36.987041],[-94.820401,36.993633],[-94.828899,36.993535],[-94.828916,36.994766],[-94.830318,36.994741],[-94.83033996075909,36.99881116476529],[-94.83128,36.998812],[-94.83536528693429,36.99882089394829],[-94.840926,36.998833],[-94.8467703797478,36.9988613164315],[-94.849801,36.998876],[-94.853197,36.998874]]]}},{"type":"Feature","properties":{"zcta5":"74331","AFFGEOID10":"8600000US74331","GEOID10":"74331","ALAND10":290970635,"AWATER10":55923197,"county_name":"Ottawa","state_code":"OK","county_state":"Ottawa County, OK","county_fips":"40115","risk_level_county":"Higher Risk (60–69% vaccinated)","mean_vaccination_rate_county":66.09,"risk_level_zcta":"Higher Risk (60–69% vaccinated)","mean_vaccination_rate_zips":61.32,"cases":17},"geometry":{"type":"Polygon","coordinates":[[[-95.054062,36.728817],[-95.053496,36.728862],[-95.053478,36.717362],[-95.054972,36.717879],[-95.056405,36.717516],[-95.056746,36.716319],[-95.059544,36.714391],[-95.058711,36.713446],[-95.06187,36.712677],[-95.061413,36.71154],[-95.062088,36.710337],[-95.061208,36.709469],[-95.062197,36.709062],[-95.061495,36.707261],[-95.065083,36.707068],[-95.065479,36.705942],[-95.067223,36.704829],[-95.065593,36.703329],[-95.065746,36.700942],[-95.066891,36.699647],[-95.05347,36.69966],[-95.05346,36.67618],[-94.999385,36.698369],[-94.999569,36.670632],[-94.999403,36.670631],[-94.99945,36.59803],[-95.00569,36.59766],[-95.00569,36.53907],[-95.02373,36.5391],[-95.02373,36.531043],[-95.02373,36.53026],[-95.021719,36.530278],[-95.02161,36.52826],[-95.02029,36.52826],[-95.0203,36.52625],[-95.01931,36.52624],[-95.01932,36.52455],[-95.02141,36.52525],[-95.02375,36.52526],[-95.02375,36.52379],[-95.02598,36.52376],[-95.02601,36.51716],[-95.025369,36.516059],[-95.025369,36.511717],[-95.023567,36.509992],[-95.018885,36.50999],[-95.01335,36.51],[-95.012265,36.509858],[-95.00573,36.50989],[-95.005469,36.501525],[-95.005779,36.500152],[-95.005719,36.491925],[-95.005718,36.491773],[-95.000245,36.492417],[-94.994089,36.493941],[-94.989563,36.49579],[-94.96357,36.510166],[-94.961439,36.511095],[-94.95847,36.513769],[-94.957517,36.515146],[-94.95587,36.517552],[-94.954823,36.520558],[-94.954132,36.524906],[-94.953734,36.529238],[-94.952071,36.533373],[-94.948524,36.538069],[-94.946183,36.539729],[-94.943397,36.541031],[-94.937065,36.542045],[-94.9337,36.542179],[-94.925663,36.543111],[-94.91938,36.544698],[-94.916173,36.546155],[-94.913463,36.547763],[-94.909864,36.550579],[-94.907735,36.553177],[-94.904064,36.558514],[-94.901487,36.561623],[-94.8991,36.563492],[-94.895786,36.565318],[-94.888863,36.567224],[-94.885671,36.567403],[-94.880912,36.567054],[-94.873354,36.565479],[-94.867206,36.562306],[-94.860437,36.558311],[-94.851004,36.553531],[-94.845814,36.550685],[-94.844758,36.550526],[-94.841424,36.55064],[-94.835685,36.551535],[-94.833406,36.552612],[-94.829673,36.555709],[-94.826968,36.56065],[-94.829946,36.567044],[-94.831258,36.569039],[-94.834322,36.57226],[-94.83776,36.574664],[-94.840675,36.578136],[-94.844264,36.58295],[-94.848613,36.590567],[-94.853582,36.600702],[-94.853904,36.604994],[-94.852875,36.611016],[-94.850544,36.618096],[-94.847415,36.621376],[-94.842329,36.62494],[-94.837053,36.630359],[-94.831393,36.634703],[-94.825999,36.637496],[-94.822276,36.63882],[-94.815931,36.640516],[-94.814569,36.640567],[-94.814315,36.64588],[-94.814612,36.647215],[-94.815805,36.649286],[-94.817551,36.648286],[-94.818601,36.650033],[-94.820885,36.649769],[-94.820496,36.648192],[-94.822384,36.646264],[-94.822998,36.64873],[-94.824253,36.649235],[-94.82413,36.650389],[-94.828094,36.650704],[-94.828455,36.656045],[-94.837401,36.656022],[-94.836733,36.659273],[-94.837939,36.661257],[-94.837395,36.665934],[-94.837409,36.670531],[-94.82863,36.670577],[-94.81939,36.670344],[-94.81937,36.68494],[-94.85545,36.68497],[-94.85544,36.67951],[-94.840798,36.670557],[-94.864507,36.670517],[-94.864487,36.699468],[-94.87345,36.69944],[-94.87342,36.67052],[-94.890987,36.670456],[-94.891139,36.729608],[-94.89411,36.72832],[-94.9093,36.72857],[-94.909274,36.74667],[-94.918262,36.746713],[-94.918239,36.757565],[-94.96334,36.75769],[-94.9814,36.7577],[-94.98146,36.74319],[-94.99932,36.74324],[-95.0354,36.74328],[-95.035125,36.763139],[-95.035582,36.762368],[-95.038506,36.760188],[-95.039238,36.758083],[-95.041342,36.755802],[-95.04336,36.752088],[-95.045489,36.7514],[-95.045743,36.749905],[-95.045221,36.747283],[-95.046963,36.746652],[-95.047617,36.743783],[-95.049657,36.741476],[-95.050832,36.741305],[-95.050988,36.738604],[-95.053225,36.738261],[-95.055784,36.736327],[-95.054947,36.734578],[-95.05532,36.733075],[-95.054268,36.731086],[-95.054062,36.728817]]]}},{"type":"Feature","properties":{"zcta5":"74370","AFFGEOID10":"8600000US74370","GEOID10":"74370","ALAND10":281643795,"AWATER10":16810368,"county_name":"Ottawa","state_code":"OK","county_state":"Ottawa County, OK","county_fips":"40115","risk_level_county":"Higher Risk (60–69% vaccinated)","mean_vaccination_rate_county":66.09,"risk_level_zcta":"Higher Risk (60–69% vaccinated)","mean_vaccination_rate_zips":61.48,"cases":17},"geometry":{"type":"Polygon","coordinates":[[[-94.752412,36.799877],[-94.753646,36.797775],[-94.752195,36.795412],[-94.753687,36.789746],[-94.756676,36.786369],[-94.758741,36.785339],[-94.765009,36.784246],[-94.769435,36.783199],[-94.773531,36.781453],[-94.778407,36.777875],[-94.780692,36.775306],[-94.78288,36.769782],[-94.782928,36.766899],[-94.781555,36.76519],[-94.777313,36.762157],[-94.774521,36.760441],[-94.763733,36.75462],[-94.760201,36.752899],[-94.754311,36.750706],[-94.742271,36.747391],[-94.733971,36.744617],[-94.730921,36.74299],[-94.729287,36.739678],[-94.729789,36.736632],[-94.731456,36.734411],[-94.735439,36.731555],[-94.737912,36.730599],[-94.740147,36.730109],[-94.743994,36.729925],[-94.746731,36.730182],[-94.750229,36.731317],[-94.75581,36.733509],[-94.760901,36.734994],[-94.766927,36.735749],[-94.769641,36.735398],[-94.772613,36.734228],[-94.774567,36.732095],[-94.775427,36.729246],[-94.775112,36.725778],[-94.773218,36.722748],[-94.766042,36.718965],[-94.758638,36.716443],[-94.750229,36.714648],[-94.745059,36.7111],[-94.742486,36.708696],[-94.740661,36.705753],[-94.740297,36.703711],[-94.740975,36.701439],[-94.743702,36.697845],[-94.749069,36.693402],[-94.754281,36.69092],[-94.761301,36.688507],[-94.768783,36.686856],[-94.774593,36.684918],[-94.777431,36.683384],[-94.779794,36.680234],[-94.779849,36.678591],[-94.77788,36.674086],[-94.773604,36.667819],[-94.764525,36.66783],[-94.752656,36.6532],[-94.750015,36.652421],[-94.748521,36.652617],[-94.748754,36.655498],[-94.747325,36.654719],[-94.746276,36.656246],[-94.74514,36.659555],[-94.7432,36.663301],[-94.7428,36.666802],[-94.742116,36.663939],[-94.74078,36.664804],[-94.738775,36.667511],[-94.749595,36.667472],[-94.75039,36.66974],[-94.75073,36.67223],[-94.75025,36.67467],[-94.74925,36.67568],[-94.7458,36.67596],[-94.74493,36.67712],[-94.74137,36.67927],[-94.73927,36.67988],[-94.73675,36.6795],[-94.73489,36.68066],[-94.73402,36.6819],[-94.72939,36.68228],[-94.72764,36.68182],[-94.72441,36.68258],[-94.72178,36.68496],[-94.71716,36.68562],[-94.71554,36.6877],[-94.71294,36.68913],[-94.71121,36.68895],[-94.70953,36.69005],[-94.7074,36.69035],[-94.70693,36.68655],[-94.70679,36.66775],[-94.6975,36.66777],[-94.69747,36.661795],[-94.689038,36.661171],[-94.688897,36.66053],[-94.689736,36.6574],[-94.691154,36.655739],[-94.695504,36.655711],[-94.700011,36.654646],[-94.703018,36.652771],[-94.706352,36.652266],[-94.706613,36.649344],[-94.694926,36.650543],[-94.691075,36.64913],[-94.688397,36.64549],[-94.684286,36.641721],[-94.67851,36.641232],[-94.675213,36.641748],[-94.672317,36.642598],[-94.670575,36.644447],[-94.669748,36.647561],[-94.668321,36.654852],[-94.665345,36.657549],[-94.662866,36.657804],[-94.659113,36.65614],[-94.654763,36.65687],[-94.653935,36.655943],[-94.65475,36.654613],[-94.658293,36.653431],[-94.655346,36.652016],[-94.653709,36.649301],[-94.650731,36.645312],[-94.648816,36.644155],[-94.648577,36.643183],[-94.643971,36.636527],[-94.640126,36.636281],[-94.632527,36.634748],[-94.630643,36.634131],[-94.626985,36.631804],[-94.624833,36.62865],[-94.622385,36.626493],[-94.620301,36.625426],[-94.6178624381614,36.6254407664784],[-94.61801942428959,36.6679212127705],[-94.6180195161587,36.6679460725462],[-94.618025,36.66943],[-94.61813,36.701423],[-94.618307,36.76656],[-94.61838,36.84732],[-94.618658,36.880064],[-94.618243,36.897027],[-94.618282,36.911472],[-94.6182818260502,36.911506242593596],[-94.630604,36.911373],[-94.631118,36.902649],[-94.66631,36.91314],[-94.671186,36.913455],[-94.67116,36.89317],[-94.6797,36.89311],[-94.68026,36.88586],[-94.698,36.88584],[-94.69816,36.85688],[-94.71174,36.8569],[-94.71166,36.84231],[-94.71737,36.83774],[-94.71742,36.8349],[-94.72046,36.83241],[-94.72446,36.8301],[-94.72515,36.82897],[-94.72517,36.80494],[-94.7341,36.80336],[-94.73411,36.82051],[-94.738126,36.821671],[-94.74028,36.821825],[-94.743718,36.817828],[-94.745511,36.81483],[-94.747551,36.813776],[-94.749318,36.807635],[-94.752316,36.80349],[-94.751905,36.801778],[-94.752412,36.799877]]]}},{"type":"Feature","properties":{"zcta5":"74354","AFFGEOID10":"8600000US74354","GEOID10":"74354","ALAND10":468231672,"AWATER10":7140011,"county_name":"Ottawa","state_code":"OK","county_state":"Ottawa County, OK","county_fips":"40115","risk_level_county":"Higher Risk (60–69% vaccinated)","mean_vaccination_rate_county":66.09,"risk_level_zcta":"Higher Risk (60–69% vaccinated)","mean_vaccination_rate_zips":65.01,"cases":17},"geometry":{"type":"Polygon","coordinates":[[[-95.00762,36.999514],[-95.008546,36.997965],[-95.012112,36.996591],[-95.014946,36.994999],[-95.017212,36.994616],[-95.021597,36.995341],[-95.025433,36.9948],[-95.034123,36.994225],[-95.034578,36.992476],[-95.034697,36.989268],[-95.03411,36.984653],[-95.033237,36.982308],[-95.03229,36.981133],[-95.028937,36.979222],[-95.027934,36.977788],[-95.028596,36.976093],[-95.031667,36.975307],[-95.034181,36.976991],[-95.036519,36.977086],[-95.037735,36.974899],[-95.036447,36.973294],[-95.034798,36.972665],[-95.030707,36.972433],[-95.028565,36.970045],[-95.028062,36.966503],[-95.022231,36.9608],[-95.019789,36.959534],[-95.013839,36.957187],[-95.0099,36.954864],[-95.004654,36.952629],[-95.000236,36.951605],[-94.996363,36.951803],[-94.994686,36.951179],[-94.993385,36.949941],[-94.993411,36.948043],[-94.995543,36.943224],[-94.999153,36.943238],[-94.99923,36.88821],[-95.0173,36.8883],[-95.0173,36.9028],[-95.03539,36.90282],[-95.03536,36.88832],[-95.02633,36.88836],[-95.02633,36.87408],[-95.03534,36.87463],[-95.03534,36.85931],[-95.01729,36.85928],[-94.99926,36.85926],[-94.9813,36.85921],[-94.9813,36.83027],[-94.96334,36.83021],[-94.96334,36.75769],[-94.918239,36.757565],[-94.90926,36.75758],[-94.90919,36.77203],[-94.89114,36.772],[-94.89101,36.775],[-94.88968,36.7778],[-94.89023,36.77966],[-94.87399,36.81443],[-94.87351,36.81297],[-94.87348,36.80098],[-94.83729,36.80092],[-94.837269,36.813445],[-94.834236,36.814987],[-94.831083,36.811948],[-94.831862,36.81074],[-94.832257,36.808207],[-94.831491,36.805944],[-94.828972,36.808936],[-94.826,36.810145],[-94.809027,36.813095],[-94.8045,36.814659],[-94.802581,36.817221],[-94.802322,36.821816],[-94.788449,36.821811],[-94.78828,36.81353],[-94.78778,36.81298],[-94.77515,36.81293],[-94.77266,36.81212],[-94.76611,36.8082],[-94.76087,36.80677],[-94.75569,36.80244],[-94.75398,36.80035],[-94.75474,36.79944],[-94.752412,36.799877],[-94.751905,36.801778],[-94.752316,36.80349],[-94.749318,36.807635],[-94.747551,36.813776],[-94.745511,36.81483],[-94.743718,36.817828],[-94.74028,36.821825],[-94.738126,36.821671],[-94.73411,36.82051],[-94.7341,36.80336],[-94.72517,36.80494],[-94.72515,36.82897],[-94.72446,36.8301],[-94.72046,36.83241],[-94.71742,36.8349],[-94.71737,36.83774],[-94.71166,36.84231],[-94.71174,36.8569],[-94.69816,36.85688],[-94.698,36.88584],[-94.68026,36.88586],[-94.6797,36.89311],[-94.729467,36.893238],[-94.72957,36.900724],[-94.729267,36.902767],[-94.730231,36.908298],[-94.731116,36.91162],[-94.735176,36.917481],[-94.739656,36.922259],[-94.741305,36.925922],[-94.76719,36.9185],[-94.77177,36.91692],[-94.78776,36.91034],[-94.787838,36.918669],[-94.81934,36.91918],[-94.81943,36.94364],[-94.83061,36.94361],[-94.83077,36.95811],[-94.86327,36.95803],[-94.85427,36.97256],[-94.85224,36.97177],[-94.85225,36.97383],[-94.85121,36.97506],[-94.84988,36.97507],[-94.849807,36.977462],[-94.848825,36.977445],[-94.84885,36.98708],[-94.845765,36.987068],[-94.848971,36.989552],[-94.848768,36.994282],[-94.851015,36.99566],[-94.851071,36.998308],[-94.853197,36.998874],[-94.9298797226157,36.999227473590494],[-94.9315293772202,36.9992350777719],[-94.995293,36.999529],[-95.00762,36.999514]],[[-94.87755,36.91997],[-94.87748,36.92906],[-94.878591,36.92905],[-94.88206,36.92905],[-94.91173,36.929004],[-94.91197,36.930099],[-94.910533,36.930631],[-94.910922,36.933213],[-94.90891,36.933542],[-94.906815,36.9353],[-94.907287,36.937541],[-94.905445,36.93882],[-94.906088,36.940167],[-94.90443,36.943527],[-94.90058,36.94317],[-94.89593,36.94351],[-94.89432,36.94307],[-94.8908,36.94355],[-94.87751,36.94357],[-94.86364,36.94361],[-94.853406,36.943406],[-94.854614,36.941695],[-94.856523,36.941361],[-94.856673,36.940284],[-94.858745,36.937455],[-94.856463,36.934049],[-94.857069,36.932868],[-94.856763,36.93136],[-94.859177,36.928676],[-94.858991,36.926512],[-94.861718,36.921731],[-94.861498,36.919435],[-94.862748,36.917144],[-94.865258,36.914797],[-94.866756,36.914346],[-94.86625,36.915088],[-94.867997,36.91868],[-94.86927,36.919014],[-94.869798,36.920222],[-94.869053,36.92158],[-94.870655,36.922919],[-94.870108,36.924018],[-94.871143,36.925256],[-94.87381,36.92353],[-94.8735,36.92159],[-94.87729,36.91983],[-94.87754,36.91914],[-94.87748,36.91814],[-94.87747,36.91451],[-94.88199,36.91446],[-94.88198,36.91808],[-94.884285,36.918081],[-94.885783,36.91815],[-94.885767,36.920128],[-94.88427,36.92012],[-94.881992,36.920094],[-94.8809,36.9181],[-94.87979,36.91811],[-94.880281,36.922002],[-94.87866,36.92196],[-94.87868,36.92],[-94.87755,36.91997]]]}},{"type":"Feature","properties":{"zcta5":"74343","AFFGEOID10":"8600000US74343","GEOID10":"74343","ALAND10":166743535,"AWATER10":13063635,"county_name":"Ottawa","state_code":"OK","county_state":"Ottawa County, OK","county_fips":"40115","risk_level_county":"Higher Risk (60–69% vaccinated)","mean_vaccination_rate_county":66.09,"risk_level_zcta":"Very High Risk (<60% vaccinated)","mean_vaccination_rate_zips":58.38,"cases":17},"geometry":{"type":"Polygon","coordinates":[[[-94.918239,36.757565],[-94.918262,36.746713],[-94.909274,36.74667],[-94.9093,36.72857],[-94.89411,36.72832],[-94.891139,36.729608],[-94.890987,36.670456],[-94.87342,36.67052],[-94.87345,36.69944],[-94.864487,36.699468],[-94.864507,36.670517],[-94.840798,36.670557],[-94.85544,36.67951],[-94.85545,36.68497],[-94.81937,36.68494],[-94.81939,36.670344],[-94.782235,36.670622],[-94.779243,36.667763],[-94.773604,36.667819],[-94.77788,36.674086],[-94.779849,36.678591],[-94.779794,36.680234],[-94.777431,36.683384],[-94.774593,36.684918],[-94.768783,36.686856],[-94.761301,36.688507],[-94.754281,36.69092],[-94.749069,36.693402],[-94.743702,36.697845],[-94.740975,36.701439],[-94.740297,36.703711],[-94.740661,36.705753],[-94.742486,36.708696],[-94.745059,36.7111],[-94.750229,36.714648],[-94.758638,36.716443],[-94.766042,36.718965],[-94.773218,36.722748],[-94.775112,36.725778],[-94.775427,36.729246],[-94.774567,36.732095],[-94.772613,36.734228],[-94.769641,36.735398],[-94.766927,36.735749],[-94.760901,36.734994],[-94.75581,36.733509],[-94.750229,36.731317],[-94.746731,36.730182],[-94.743994,36.729925],[-94.740147,36.730109],[-94.737912,36.730599],[-94.735439,36.731555],[-94.731456,36.734411],[-94.729789,36.736632],[-94.729287,36.739678],[-94.730921,36.74299],[-94.733971,36.744617],[-94.742271,36.747391],[-94.754311,36.750706],[-94.760201,36.752899],[-94.763733,36.75462],[-94.774521,36.760441],[-94.777313,36.762157],[-94.781555,36.76519],[-94.782928,36.766899],[-94.78288,36.769782],[-94.780692,36.775306],[-94.778407,36.777875],[-94.773531,36.781453],[-94.769435,36.783199],[-94.765009,36.784246],[-94.758741,36.785339],[-94.756676,36.786369],[-94.753687,36.789746],[-94.752195,36.795412],[-94.753646,36.797775],[-94.752412,36.799877],[-94.75474,36.79944],[-94.75398,36.80035],[-94.75569,36.80244],[-94.76087,36.80677],[-94.76611,36.8082],[-94.77266,36.81212],[-94.77515,36.81293],[-94.78778,36.81298],[-94.78828,36.81353],[-94.788449,36.821811],[-94.802322,36.821816],[-94.802581,36.817221],[-94.8045,36.814659],[-94.809027,36.813095],[-94.826,36.810145],[-94.828972,36.808936],[-94.831491,36.805944],[-94.832257,36.808207],[-94.831862,36.81074],[-94.831083,36.811948],[-94.834236,36.814987],[-94.837269,36.813445],[-94.83729,36.80092],[-94.87348,36.80098],[-94.87351,36.81297],[-94.87399,36.81443],[-94.89023,36.77966],[-94.88968,36.7778],[-94.89101,36.775],[-94.89114,36.772],[-94.90919,36.77203],[-94.90926,36.75758],[-94.918239,36.757565]]]}},{"type":"Feature","properties":{"zcta5":"74339","AFFGEOID10":"8600000US74339","GEOID10":"74339","ALAND10":8902460,"AWATER10":0,"county_name":"Ottawa","state_code":"OK","county_state":"Ottawa County, OK","county_fips":"40115","risk_level_county":"Higher Risk (60–69% vaccinated)","mean_vaccination_rate_county":66.09,"risk_level_zcta":"Higher Risk (60–69% vaccinated)","mean_vaccination_rate_zips":63.51,"cases":17},"geometry":{"type":"Polygon","coordinates":[[[-94.87754,36.91914],[-94.87729,36.91983],[-94.8735,36.92159],[-94.87381,36.92353],[-94.871143,36.925256],[-94.870108,36.924018],[-94.870655,36.922919],[-94.869053,36.92158],[-94.869798,36.920222],[-94.86927,36.919014],[-94.867997,36.91868],[-94.86625,36.915088],[-94.866756,36.914346],[-94.865258,36.914797],[-94.862748,36.917144],[-94.861498,36.919435],[-94.861718,36.921731],[-94.858991,36.926512],[-94.859177,36.928676],[-94.856763,36.93136],[-94.857069,36.932868],[-94.856463,36.934049],[-94.858745,36.937455],[-94.856673,36.940284],[-94.856523,36.941361],[-94.854614,36.941695],[-94.853406,36.943406],[-94.86364,36.94361],[-94.87751,36.94357],[-94.8908,36.94355],[-94.89432,36.94307],[-94.89593,36.94351],[-94.90058,36.94317],[-94.90443,36.943527],[-94.906088,36.940167],[-94.905445,36.93882],[-94.907287,36.937541],[-94.906815,36.9353],[-94.90891,36.933542],[-94.910922,36.933213],[-94.910533,36.930631],[-94.91197,36.930099],[-94.91173,36.929004],[-94.88206,36.92905],[-94.878591,36.92905],[-94.87748,36.92906],[-94.87755,36.91997],[-94.87754,36.91914]]]}},{"type":"Feature","properties":{"zcta5":"74333","AFFGEOID10":"8600000US74333","GEOID10":"74333","ALAND10":232201965,"AWATER10":319827,"county_name":"Ottawa","state_code":"OK","county_state":"Ottawa County, OK","county_fips":"40115","risk_level_county":"Higher Risk (60–69% vaccinated)","mean_vaccination_rate_county":66.09,"risk_level_zcta":"Lower Risk (80–84% vaccinated)","mean_vaccination_rate_zips":84.48,"cases":17},"geometry":{"type":"Polygon","coordinates":[[[-95.238274,36.815245],[-95.236007,36.814462],[-95.236552,36.812739],[-95.233743,36.810009],[-95.234165,36.808115],[-95.232804,36.806226],[-95.234477,36.803634],[-95.232716,36.802073],[-95.23359,36.79946],[-95.23367,36.77176],[-95.21563,36.77178],[-95.21526,36.74282],[-95.19244,36.74287],[-95.189437,36.741307],[-95.186227,36.741467],[-95.187469,36.742923],[-95.187954,36.745389],[-95.187387,36.746944],[-95.184685,36.749762],[-95.184284,36.751972],[-95.185259,36.754076],[-95.186747,36.754745],[-95.188132,36.756838],[-95.188767,36.760394],[-95.188518,36.762359],[-95.189789,36.764187],[-95.188745,36.764973],[-95.185975,36.765383],[-95.186227,36.767143],[-95.187726,36.767746],[-95.187417,36.770224],[-95.183361,36.771235],[-95.188596,36.774851],[-95.188498,36.777755],[-95.19039,36.779313],[-95.190419,36.780691],[-95.191997,36.781143],[-95.191984,36.783453],[-95.190103,36.784332],[-95.191842,36.786371],[-95.18276,36.78643],[-95.17961,36.78596],[-95.17957,36.75736],[-95.16156,36.75749],[-95.16158,36.77199],[-95.14353,36.77205],[-95.14353,36.74299],[-95.12556,36.74308],[-95.12555,36.72857],[-95.10755,36.72864],[-95.10752,36.75042],[-95.08951,36.75043],[-95.08925,36.74314],[-95.085135,36.743151],[-95.088191,36.737653],[-95.094082,36.728723],[-95.05541,36.72871],[-95.054062,36.728817],[-95.054268,36.731086],[-95.05532,36.733075],[-95.054947,36.734578],[-95.055784,36.736327],[-95.053225,36.738261],[-95.050988,36.738604],[-95.050832,36.741305],[-95.049657,36.741476],[-95.047617,36.743783],[-95.046963,36.746652],[-95.045221,36.747283],[-95.045743,36.749905],[-95.045489,36.7514],[-95.04336,36.752088],[-95.041342,36.755802],[-95.039238,36.758083],[-95.038506,36.760188],[-95.035582,36.762368],[-95.035125,36.763139],[-95.0354,36.74328],[-94.99932,36.74324],[-94.98146,36.74319],[-94.9814,36.7577],[-94.96334,36.75769],[-94.96334,36.83021],[-94.9813,36.83027],[-94.9813,36.85921],[-94.99926,36.85926],[-95.01729,36.85928],[-95.01741,36.84469],[-95.03546,36.84469],[-95.03549,36.83023],[-95.07157,36.83018],[-95.071571,36.837344],[-95.125298,36.837452],[-95.12549,36.84465],[-95.13666,36.83009],[-95.16165,36.83005],[-95.16173,36.84443],[-95.161358,36.845747],[-95.162532,36.844895],[-95.163208,36.846152],[-95.164565,36.846258],[-95.165329,36.847983],[-95.168242,36.850095],[-95.17159,36.849459],[-95.171555,36.850737],[-95.174393,36.85115],[-95.175452,36.850213],[-95.176411,36.851443],[-95.177349,36.850895],[-95.17964,36.852305],[-95.17966,36.81548],[-95.238274,36.815245]]]}},{"type":"Feature","properties":{"zcta5":"74363","AFFGEOID10":"8600000US74363","GEOID10":"74363","ALAND10":176206356,"AWATER10":1104691,"county_name":"Ottawa","state_code":"OK","county_state":"Ottawa County, OK","county_fips":"40115","risk_level_county":"Higher Risk (60–69% vaccinated)","mean_vaccination_rate_county":66.09,"risk_level_zcta":"Higher Risk (60–69% vaccinated)","mean_vaccination_rate_zips":66,"cases":17},"geometry":{"type":"Polygon","coordinates":[[[-94.83033996075909,36.99881116476529],[-94.830318,36.994741],[-94.828916,36.994766],[-94.828899,36.993535],[-94.820401,36.993633],[-94.82037,36.987041],[-94.82185,36.98704],[-94.821863,36.985723],[-94.82337,36.983939],[-94.824845,36.983333],[-94.827211,36.983357],[-94.827216,36.980706],[-94.826275,36.980706],[-94.826199,36.977274],[-94.820412,36.979352],[-94.817968,36.984619],[-94.815635,36.983987],[-94.813911,36.984878],[-94.81287,36.98678],[-94.81257,36.94365],[-94.81943,36.94364],[-94.81934,36.91918],[-94.787838,36.918669],[-94.78776,36.91034],[-94.77177,36.91692],[-94.76719,36.9185],[-94.741305,36.925922],[-94.739656,36.922259],[-94.735176,36.917481],[-94.731116,36.91162],[-94.730231,36.908298],[-94.729267,36.902767],[-94.72957,36.900724],[-94.729467,36.893238],[-94.6797,36.89311],[-94.67116,36.89317],[-94.671186,36.913455],[-94.66631,36.91314],[-94.631118,36.902649],[-94.630604,36.911373],[-94.6182818260502,36.911506242593596],[-94.618207,36.926236],[-94.618295,36.929647],[-94.618166,36.937584],[-94.618109,36.946564],[-94.618026,36.950158],[-94.61802835032239,36.971097492521004],[-94.618031,36.994704],[-94.618049,36.996208],[-94.617964,36.998905],[-94.625224,36.998672],[-94.6675162157479,36.9987474903933],[-94.699735,36.998805],[-94.701797,36.998814],[-94.71277,36.998794],[-94.7224643001301,36.9987427746399],[-94.731507,36.998694992381104],[-94.737183,36.998665],[-94.739324,36.998687],[-94.7449870812319,36.998698495459195],[-94.7476262813292,36.9987038527578],[-94.777257,36.998764],[-94.83033996075909,36.99881116476529]]]}},{"type":"Feature","properties":{"zcta5":"74358","AFFGEOID10":"8600000US74358","GEOID10":"74358","ALAND10":321135,"AWATER10":0,"county_name":"Ottawa","state_code":"OK","county_state":"Ottawa County, OK","county_fips":"40115","risk_level_county":"Higher Risk (60–69% vaccinated)","mean_vaccination_rate_county":66.09,"risk_level_zcta":"Higher Risk (60–69% vaccinated)","mean_vaccination_rate_zips":60.79,"cases":17},"geometry":{"type":"Polygon","coordinates":[[[-94.87755,36.91997],[-94.87868,36.92],[-94.87866,36.92196],[-94.880281,36.922002],[-94.87979,36.91811],[-94.8809,36.9181],[-94.881992,36.920094],[-94.88427,36.92012],[-94.885767,36.920128],[-94.885783,36.91815],[-94.884285,36.918081],[-94.88198,36.91808],[-94.88199,36.91446],[-94.87747,36.91451],[-94.87748,36.91814],[-94.87754,36.91914],[-94.87755,36.91997]]]}},{"type":"Feature","properties":{"zcta5":"74344","AFFGEOID10":"8600000US74344","GEOID10":"74344","ALAND10":231832456,"AWATER10":45760486,"county_name":"Ottawa","state_code":"OK","county_state":"Ottawa County, OK","county_fips":"40115","risk_level_county":"Higher Risk (60–69% vaccinated)","mean_vaccination_rate_county":66.09,"risk_level_zcta":"Higher Risk (60–69% vaccinated)","mean_vaccination_rate_zips":66.54,"cases":17},"geometry":{"type":"Polygon","coordinates":[[[-94.81939,36.670344],[-94.82863,36.670577],[-94.837409,36.670531],[-94.837395,36.665934],[-94.837939,36.661257],[-94.836733,36.659273],[-94.837401,36.656022],[-94.828455,36.656045],[-94.828094,36.650704],[-94.82413,36.650389],[-94.824253,36.649235],[-94.822998,36.64873],[-94.822384,36.646264],[-94.820496,36.648192],[-94.820885,36.649769],[-94.818601,36.650033],[-94.817551,36.648286],[-94.815805,36.649286],[-94.814612,36.647215],[-94.814315,36.64588],[-94.814569,36.640567],[-94.815931,36.640516],[-94.822276,36.63882],[-94.825999,36.637496],[-94.831393,36.634703],[-94.837053,36.630359],[-94.842329,36.62494],[-94.847415,36.621376],[-94.850544,36.618096],[-94.852875,36.611016],[-94.853904,36.604994],[-94.853582,36.600702],[-94.848613,36.590567],[-94.844264,36.58295],[-94.840675,36.578136],[-94.83776,36.574664],[-94.834322,36.57226],[-94.831258,36.569039],[-94.829946,36.567044],[-94.826968,36.56065],[-94.829673,36.555709],[-94.833406,36.552612],[-94.835685,36.551535],[-94.841424,36.55064],[-94.844758,36.550526],[-94.844226,36.545263],[-94.843521,36.543354],[-94.840374,36.541077],[-94.839087,36.538946],[-94.836221,36.538445],[-94.832153,36.537132],[-94.827869,36.536504],[-94.823203,36.53683],[-94.820461,36.535564],[-94.817394,36.530902],[-94.81706,36.527702],[-94.815501,36.527515],[-94.816467,36.526482],[-94.814296,36.5244],[-94.814153,36.522972],[-94.813002,36.522598],[-94.81143,36.519818],[-94.812036,36.518192],[-94.809687,36.520049],[-94.807074,36.520307],[-94.80866,36.517687],[-94.808149,36.516874],[-94.805509,36.515747],[-94.804141,36.512127],[-94.801911,36.510715],[-94.800321,36.511724],[-94.800241,36.513232],[-94.798098,36.515834],[-94.77801,36.515903],[-94.778059,36.508136],[-94.780259,36.50775],[-94.780254,36.506761],[-94.782304,36.50668],[-94.782274,36.487112],[-94.782032,36.481354],[-94.764177,36.481226],[-94.763484,36.497242],[-94.763643,36.505909],[-94.764036,36.507931],[-94.76279,36.508711],[-94.764026,36.513117],[-94.763276,36.516265],[-94.763007,36.520825],[-94.761625,36.521264],[-94.76285,36.523674],[-94.764313,36.524475],[-94.764187,36.529356],[-94.762741,36.532304],[-94.762468,36.534573],[-94.763194,36.53612],[-94.762767,36.539499],[-94.759208,36.539398],[-94.758807,36.541881],[-94.757744,36.542562],[-94.75852,36.543672],[-94.757129,36.546666],[-94.756862,36.549114],[-94.757853,36.550411],[-94.759191,36.556488],[-94.755907,36.554444],[-94.747422,36.55307],[-94.746477,36.554035],[-94.744292,36.553827],[-94.742029,36.550306],[-94.740292,36.549906],[-94.739357,36.54622],[-94.736396,36.547529],[-94.732984,36.546547],[-94.730063,36.54646],[-94.72768,36.547071],[-94.724377,36.546995],[-94.723282,36.548017],[-94.721539,36.548122],[-94.718358,36.546821],[-94.715996,36.547448],[-94.71364,36.547245],[-94.71214,36.544004],[-94.710335,36.541928],[-94.706332,36.541659],[-94.704602,36.539808],[-94.703547,36.540014],[-94.702199,36.54199],[-94.699857,36.542825],[-94.696527,36.542029],[-94.695928,36.540238],[-94.694342,36.539952],[-94.69345,36.541408],[-94.692313,36.541051],[-94.690641,36.54297],[-94.689115,36.543451],[-94.687247,36.54643],[-94.685416,36.546798],[-94.684571,36.548639],[-94.682488,36.548743],[-94.679648,36.550638],[-94.679096,36.550127],[-94.674432,36.55027],[-94.671225,36.548956],[-94.667901,36.550456],[-94.666028,36.552252],[-94.661323,36.552927],[-94.656869,36.552382],[-94.653798,36.553376],[-94.651176,36.552205],[-94.646677,36.548467],[-94.646882,36.546281],[-94.646134,36.544836],[-94.643009,36.543736],[-94.642309,36.542653],[-94.640641,36.542411],[-94.639328,36.54002],[-94.637008,36.537305],[-94.634374,36.535634],[-94.633692,36.537452],[-94.632439,36.537248],[-94.62931,36.533231],[-94.629536,36.531731],[-94.627467,36.530675],[-94.625332,36.528119],[-94.623591,36.528297],[-94.62111,36.531177],[-94.6179857917919,36.532659627392],[-94.617997,36.53428],[-94.617868,36.53609],[-94.617897,36.536983],[-94.617814,36.577732],[-94.617853,36.59912],[-94.617865,36.606851],[-94.617815,36.612604],[-94.617859864902,36.62474444248],[-94.6178624381614,36.6254407664784],[-94.620301,36.625426],[-94.622385,36.626493],[-94.624833,36.62865],[-94.626985,36.631804],[-94.630643,36.634131],[-94.632527,36.634748],[-94.640126,36.636281],[-94.643971,36.636527],[-94.648577,36.643183],[-94.648816,36.644155],[-94.650731,36.645312],[-94.653709,36.649301],[-94.655346,36.652016],[-94.658293,36.653431],[-94.65475,36.654613],[-94.653935,36.655943],[-94.654763,36.65687],[-94.659113,36.65614],[-94.662866,36.657804],[-94.665345,36.657549],[-94.668321,36.654852],[-94.669748,36.647561],[-94.670575,36.644447],[-94.672317,36.642598],[-94.675213,36.641748],[-94.67851,36.641232],[-94.684286,36.641721],[-94.688397,36.64549],[-94.691075,36.64913],[-94.694926,36.650543],[-94.706613,36.649344],[-94.706352,36.652266],[-94.703018,36.652771],[-94.700011,36.654646],[-94.695504,36.655711],[-94.691154,36.655739],[-94.689736,36.6574],[-94.688897,36.66053],[-94.689038,36.661171],[-94.69747,36.661795],[-94.6975,36.66777],[-94.70679,36.66775],[-94.70693,36.68655],[-94.7074,36.69035],[-94.70953,36.69005],[-94.71121,36.68895],[-94.71294,36.68913],[-94.71554,36.6877],[-94.71716,36.68562],[-94.72178,36.68496],[-94.72441,36.68258],[-94.72764,36.68182],[-94.72939,36.68228],[-94.73402,36.6819],[-94.73489,36.68066],[-94.73675,36.6795],[-94.73927,36.67988],[-94.74137,36.67927],[-94.74493,36.67712],[-94.7458,36.67596],[-94.74925,36.67568],[-94.75025,36.67467],[-94.75073,36.67223],[-94.75039,36.66974],[-94.749595,36.667472],[-94.738775,36.667511],[-94.74078,36.664804],[-94.742116,36.663939],[-94.7428,36.666802],[-94.7432,36.663301],[-94.74514,36.659555],[-94.746276,36.656246],[-94.747325,36.654719],[-94.748754,36.655498],[-94.748521,36.652617],[-94.750015,36.652421],[-94.752656,36.6532],[-94.764525,36.66783],[-94.773604,36.667819],[-94.779243,36.667763],[-94.782235,36.670622],[-94.81939,36.670344]]]}}]}