{"type":"FeatureCollection","features":[{"type":"Feature","properties":{"zcta5":"41083","AFFGEOID10":"8600000US41083","GEOID10":"41083","ALAND10":88943841,"AWATER10":1476043,"county_name":"Owen","state_code":"KY","county_state":"Owen County, KY","county_fips":"21187","risk_level_county":"Higher Risk (60–69% vaccinated)","mean_vaccination_rate_county":63.3,"risk_level_zcta":"Medium Risk (70–79% vaccinated)","mean_vaccination_rate_zips":75.45,"cases":13},"geometry":{"type":"MultiPolygon","coordinates":[[[[-84.925607,38.762793],[-84.925564,38.762755],[-84.924096,38.76265],[-84.924031,38.761758],[-84.923359,38.763985],[-84.923837,38.764166],[-84.925461,38.762855],[-84.925607,38.762793]]],[[[-84.920362,38.768221],[-84.923819,38.769715],[-84.926288,38.769721],[-84.92632,38.77048],[-84.928491,38.772405],[-84.930959,38.77202],[-84.931164,38.771189],[-84.933234,38.771497],[-84.935459,38.770196],[-84.938713,38.76929],[-84.931991,38.766978],[-84.933647,38.765646],[-84.935976,38.765536],[-84.93786,38.763686],[-84.934236,38.763516],[-84.92503,38.764324],[-84.925607,38.762793],[-84.923223,38.765584],[-84.919377,38.766665],[-84.920362,38.768221]]],[[[-85.074364,38.676416],[-85.074723,38.675364],[-85.06948,38.671887],[-85.068953,38.673546],[-85.069401,38.675913],[-85.066249,38.677204],[-85.065948,38.679631],[-85.063404,38.679708],[-85.060763,38.678807],[-85.05822,38.679411],[-85.055537,38.677912],[-85.05398,38.678203],[-85.057072,38.678944],[-85.058496,38.679653],[-85.065813,38.6804],[-85.069433,38.680152],[-85.072199,38.679095],[-85.074364,38.676416]]],[[[-85.049848,38.678016],[-85.046885,38.675247],[-85.043895,38.669975],[-85.044786,38.667586],[-85.047017,38.666599],[-85.045881,38.665691],[-85.054994,38.66253],[-85.073693,38.656975],[-85.077695,38.655306],[-85.078208,38.65461],[-85.074562,38.655658],[-85.071449,38.655984],[-85.062959,38.655343],[-85.055733,38.655789],[-85.051273,38.65687],[-85.039346,38.660806],[-85.037358,38.659897],[-85.041483,38.659691],[-85.040869,38.656221],[-85.04107,38.654185],[-85.040044,38.651448],[-85.042024,38.648769],[-85.04371,38.644199],[-85.045928,38.642414],[-85.046166,38.638145],[-85.048561,38.636877],[-85.049136,38.634175],[-85.050256,38.632895],[-85.05048,38.630595],[-85.048762,38.629337],[-85.046358,38.628565],[-85.041773,38.625328],[-85.040366,38.623554],[-85.039069,38.625568],[-85.034755,38.630331],[-85.034208,38.631686],[-85.030216,38.635062],[-85.027536,38.634942],[-85.027463,38.63624],[-85.023438,38.638613],[-85.022172,38.63982],[-85.022178,38.641272],[-85.021116,38.64313],[-85.025872,38.647653],[-85.028234,38.650591],[-85.026159,38.65176],[-85.025629,38.650954],[-85.022271,38.649003],[-85.020501,38.64743],[-85.014811,38.644351],[-85.011099,38.643482],[-85.010038,38.641992],[-85.008382,38.636667],[-85.007476,38.636368],[-85.011506,38.635884],[-85.014389,38.634506],[-85.016633,38.631895],[-85.017099,38.629386],[-85.01695,38.628652],[-85.015366,38.626657],[-85.012988,38.624518],[-85.01313,38.622577],[-85.015216,38.621643],[-85.020903,38.620711],[-85.022317,38.618744],[-85.024287,38.614621],[-85.025792,38.613369],[-85.035508,38.611428],[-85.037707,38.611363],[-85.036867,38.611217],[-85.039591,38.608692],[-85.042021,38.607679],[-85.044196,38.607863],[-85.044581,38.606401],[-85.046414,38.605291],[-85.046296,38.603714],[-85.04524,38.602083],[-85.045402,38.600422],[-85.043136,38.598665],[-85.04245,38.595349],[-85.039149,38.591548],[-85.038324,38.58988],[-85.036234,38.589172],[-85.03358,38.588971],[-85.032131,38.589635],[-85.029805,38.589632],[-85.027859,38.590938],[-85.026555,38.594492],[-85.025351,38.596145],[-85.022444,38.597944],[-85.018554,38.598152],[-85.014763,38.60296],[-85.008874,38.603842],[-85.00705,38.604641],[-84.999841,38.606807],[-84.996652,38.608275],[-84.993989,38.608047],[-84.986931,38.608534],[-84.982899,38.60954],[-84.98018,38.6124],[-84.978489,38.612391],[-84.976616,38.614032],[-84.973633,38.615956],[-84.973568,38.617906],[-84.972056,38.61939],[-84.971756,38.621955],[-84.973662,38.626012],[-84.974661,38.626893],[-84.980016,38.629914],[-84.982852,38.630904],[-84.988656,38.630897],[-84.990434,38.629791],[-84.992573,38.629942],[-84.995251,38.631635],[-84.9922,38.630749],[-84.990109,38.631042],[-84.985584,38.633149],[-84.982017,38.637098],[-84.980898,38.637146],[-84.977866,38.635467],[-84.975966,38.635628],[-84.974623,38.636619],[-84.971102,38.641518],[-84.97092,38.643646],[-84.969638,38.644349],[-84.968916,38.645742],[-84.970108,38.646501],[-84.969888,38.648732],[-84.965732,38.649777],[-84.963888,38.650746],[-84.960288,38.650755],[-84.957326,38.653673],[-84.956384,38.653652],[-84.95486,38.653256],[-84.9529,38.650648],[-84.951772,38.650039],[-84.952553,38.648967],[-84.95406,38.649243],[-84.954789,38.647925],[-84.953576,38.646257],[-84.950698,38.644444],[-84.947687,38.64562],[-84.945363,38.645428],[-84.94252,38.644434],[-84.941077,38.644462],[-84.939768,38.641193],[-84.938564,38.640271],[-84.93855,38.638068],[-84.936346,38.634838],[-84.934295,38.632909],[-84.933343,38.632824],[-84.936026,38.63491],[-84.939115,38.643293],[-84.94072,38.645639],[-84.94602,38.650406],[-84.936982,38.650827],[-84.936589,38.652092],[-84.937733,38.654424],[-84.936623,38.657535],[-84.93441,38.65969],[-84.934536,38.66213],[-84.933684,38.663241],[-84.932366,38.666556],[-84.93072,38.66764],[-84.927495,38.670669],[-84.927723,38.671578],[-84.925431,38.673417],[-84.923508,38.672774],[-84.921288,38.670433],[-84.918362,38.670065],[-84.913137,38.668769],[-84.911569,38.668669],[-84.908352,38.669424],[-84.913528,38.674636],[-84.92243,38.674513],[-84.922868,38.67491],[-84.917886,38.67654],[-84.915523,38.676656],[-84.918239,38.679225],[-84.911339,38.679839],[-84.911589,38.68454],[-84.909453,38.687468],[-84.911314,38.689616],[-84.918374,38.690808],[-84.921669,38.695183],[-84.914197,38.698094],[-84.911154,38.699857],[-84.910834,38.702753],[-84.93858,38.69136],[-84.942183,38.696541],[-84.943843,38.699441],[-84.946023,38.706263],[-84.943617,38.706674],[-84.938735,38.706584],[-84.937059,38.708668],[-84.931788,38.712007],[-84.933343,38.714491],[-84.935256,38.718653],[-84.934976,38.720104],[-84.936456,38.722423],[-84.937352,38.725438],[-84.937106,38.727332],[-84.938156,38.728074],[-84.937521,38.730682],[-84.937917,38.733503],[-84.937366,38.736223],[-84.93513,38.740433],[-84.933987,38.744275],[-84.935412,38.744872],[-84.938549,38.74458],[-84.940186,38.746244],[-84.941439,38.748746],[-84.94192,38.751153],[-84.941245,38.754097],[-84.942213,38.756126],[-84.942152,38.758173],[-84.940934,38.760118],[-84.937948,38.763387],[-84.960252,38.761359],[-84.962801,38.760941],[-84.971868,38.758789],[-84.972339,38.758605],[-84.97313,38.753493],[-84.972046,38.750595],[-84.969492,38.747252],[-84.965299,38.742459],[-84.964378,38.7401],[-84.963782,38.735578],[-84.962663,38.733382],[-84.962435,38.730659],[-84.961147,38.728276],[-84.960157,38.725405],[-84.960389,38.72382],[-84.961632,38.720779],[-84.965442,38.716024],[-84.963591,38.714889],[-84.962925,38.71319],[-84.964455,38.712235],[-84.964178,38.711178],[-84.96631,38.710755],[-84.965549,38.706795],[-84.967089,38.697989],[-84.966408,38.694737],[-84.967919,38.689904],[-84.967427,38.690219],[-84.966377,38.684639],[-84.964494,38.682075],[-84.987349,38.675917],[-84.991748,38.675106],[-85.008736,38.673472],[-85.0111,38.673037],[-85.013693,38.676234],[-85.012473,38.677384],[-84.993026,38.684644],[-84.991362,38.685074],[-84.984206,38.687566],[-84.982905,38.689116],[-84.985404,38.690221],[-84.98788,38.690653],[-84.99147,38.692037],[-84.999298,38.691352],[-85.002292,38.691896],[-85.005044,38.696318],[-85.009408,38.698841],[-85.012051,38.699182],[-85.014614,38.699],[-85.01947,38.697795],[-85.020838,38.698199],[-85.022369,38.700177],[-85.025587,38.701618],[-85.027928,38.70098],[-85.029727,38.701974],[-85.031289,38.701456],[-85.032587,38.699447],[-85.033623,38.699429],[-85.03027,38.695275],[-85.029374,38.693268],[-85.026019,38.688038],[-85.023498,38.687122],[-85.022086,38.683071],[-85.020722,38.680621],[-85.020273,38.678563],[-85.018459,38.675369],[-85.033429,38.670389],[-85.035591,38.671512],[-85.041468,38.673328],[-85.045293,38.673264],[-85.046136,38.675264],[-85.048492,38.677471],[-85.049848,38.678016]]]]}},{"type":"Feature","properties":{"zcta5":"41035","AFFGEOID10":"8600000US41035","GEOID10":"41035","ALAND10":275755453,"AWATER10":3692835,"county_name":"Owen","state_code":"KY","county_state":"Owen County, KY","county_fips":"21187","risk_level_county":"Higher Risk (60–69% vaccinated)","mean_vaccination_rate_county":63.3,"risk_level_zcta":"Higher Risk (60–69% vaccinated)","mean_vaccination_rate_zips":69.54,"cases":13},"geometry":{"type":"MultiPolygon","coordinates":[[[[-84.621518,38.76689],[-84.621966,38.763957],[-84.620305,38.764596],[-84.619837,38.766564],[-84.621032,38.766999],[-84.621518,38.76689]]],[[[-84.774887,38.765797],[-84.780766,38.765208],[-84.783496,38.741785],[-84.778946,38.742169],[-84.775708,38.739807],[-84.774763,38.73778],[-84.770692,38.734105],[-84.770091,38.733029],[-84.768549,38.73311],[-84.766123,38.731995],[-84.767042,38.730907],[-84.768292,38.727519],[-84.769983,38.725688],[-84.772578,38.725206],[-84.775187,38.724079],[-84.772057,38.721962],[-84.769455,38.721039],[-84.766157,38.7209],[-84.765358,38.720325],[-84.765338,38.718367],[-84.764104,38.717776],[-84.75825,38.716821],[-84.755231,38.717314],[-84.751832,38.718524],[-84.749608,38.718301],[-84.749362,38.716385],[-84.750121,38.714404],[-84.75209,38.714521],[-84.754339,38.715466],[-84.754433,38.712891],[-84.756944,38.709362],[-84.760324,38.708864],[-84.761971,38.707316],[-84.761286,38.705059],[-84.759725,38.702856],[-84.756656,38.701877],[-84.755465,38.703074],[-84.753083,38.701623],[-84.753253,38.700009],[-84.754195,38.697044],[-84.758609,38.693306],[-84.756729,38.692512],[-84.757121,38.691148],[-84.753797,38.687537],[-84.753669,38.685093],[-84.75181,38.683934],[-84.753255,38.682769],[-84.750944,38.67829],[-84.75265,38.675881],[-84.752967,38.673661],[-84.755247,38.671788],[-84.755749,38.670141],[-84.760371,38.668506],[-84.763829,38.668726],[-84.7676,38.668284],[-84.768603,38.66639],[-84.76838,38.664807],[-84.770259,38.663105],[-84.771986,38.660677],[-84.772277,38.658855],[-84.771493,38.653739],[-84.772236,38.652744],[-84.772214,38.65035],[-84.772708,38.647824],[-84.774063,38.64681],[-84.774622,38.643951],[-84.773306,38.641414],[-84.773395,38.639827],[-84.775193,38.639938],[-84.776476,38.637675],[-84.774322,38.618594],[-84.738447,38.595701],[-84.738527,38.599078],[-84.739355,38.601652],[-84.73776,38.601785],[-84.735821,38.600473],[-84.734561,38.600622],[-84.73331,38.602138],[-84.735395,38.603543],[-84.7383,38.603344],[-84.739168,38.604651],[-84.739359,38.607209],[-84.7378,38.610598],[-84.734799,38.611632],[-84.733174,38.610298],[-84.728464,38.609574],[-84.727463,38.609026],[-84.726441,38.607175],[-84.723837,38.606687],[-84.720744,38.608621],[-84.719352,38.610664],[-84.71638,38.613169],[-84.715784,38.614355],[-84.716113,38.614701],[-84.720223,38.614738],[-84.7213,38.615562],[-84.720243,38.61688],[-84.717766,38.617819],[-84.718599,38.619016],[-84.722177,38.618444],[-84.725975,38.616461],[-84.727544,38.617163],[-84.728882,38.620787],[-84.731178,38.621456],[-84.733061,38.621044],[-84.732935,38.621858],[-84.729992,38.622456],[-84.725189,38.625591],[-84.719614,38.6278],[-84.718322,38.629111],[-84.716837,38.628821],[-84.714489,38.626797],[-84.713589,38.623082],[-84.711864,38.622112],[-84.709426,38.619107],[-84.709735,38.622412],[-84.710471,38.624906],[-84.710435,38.626782],[-84.708802,38.629036],[-84.704503,38.632523],[-84.702355,38.634937],[-84.697859,38.635653],[-84.694537,38.636944],[-84.691519,38.638778],[-84.688887,38.642808],[-84.68907,38.646347],[-84.688584,38.647572],[-84.685648,38.651466],[-84.684055,38.652627],[-84.678381,38.653652],[-84.677489,38.654347],[-84.675964,38.657497],[-84.67475,38.658406],[-84.672017,38.658848],[-84.670275,38.657221],[-84.667288,38.658093],[-84.663352,38.657296],[-84.659657,38.657983],[-84.656631,38.657443],[-84.654791,38.655895],[-84.653096,38.655752],[-84.65066,38.656992],[-84.649,38.655745],[-84.646052,38.655766],[-84.644422,38.654481],[-84.641102,38.653629],[-84.639681,38.653755],[-84.637055,38.654701],[-84.635349,38.65934],[-84.636175,38.660885],[-84.636482,38.663113],[-84.635451,38.665435],[-84.633945,38.666736],[-84.632265,38.669088],[-84.63044,38.669353],[-84.628897,38.668696],[-84.626149,38.668716],[-84.626292,38.669395],[-84.620567,38.671585],[-84.617909,38.671545],[-84.616543,38.669296],[-84.611589,38.666659],[-84.591381,38.66634],[-84.590933,38.666332],[-84.587424,38.662125],[-84.586606,38.659029],[-84.584785,38.659154],[-84.579961,38.66065],[-84.578013,38.660813],[-84.578227,38.662365],[-84.576725,38.6625],[-84.577918,38.665135],[-84.576701,38.665707],[-84.577555,38.670343],[-84.572766,38.669511],[-84.57109,38.668755],[-84.567766,38.670162],[-84.566288,38.671435],[-84.561361,38.671022],[-84.563172,38.667981],[-84.566675,38.665891],[-84.566096,38.664692],[-84.564736,38.664769],[-84.562989,38.661121],[-84.557721,38.662125],[-84.557081,38.66283],[-84.553594,38.66419],[-84.551127,38.665603],[-84.549684,38.665795],[-84.54712,38.667733],[-84.545958,38.669945],[-84.545677,38.671883],[-84.543694,38.674348],[-84.541109,38.674567],[-84.540408,38.675318],[-84.537125,38.676479],[-84.531772,38.677032],[-84.52736,38.67949],[-84.521606,38.678236],[-84.520505,38.676999],[-84.522349,38.67489],[-84.525881,38.673665],[-84.529039,38.670835],[-84.529148,38.669294],[-84.528286,38.6648],[-84.528855,38.66903],[-84.528741,38.670989],[-84.526608,38.67281],[-84.521681,38.674996],[-84.520419,38.676739],[-84.5177,38.67725],[-84.517643,38.678596],[-84.514001,38.679313],[-84.512843,38.680932],[-84.513591,38.684068],[-84.516477,38.685206],[-84.512704,38.69003],[-84.511645,38.690134],[-84.51082,38.687332],[-84.50939,38.685828],[-84.517245,38.722722],[-84.521212,38.741349],[-84.51999,38.741958],[-84.518706,38.741057],[-84.515218,38.744505],[-84.511535,38.745591],[-84.505858,38.746759],[-84.505477,38.747378],[-84.507753,38.748397],[-84.50489,38.749999],[-84.504755,38.751421],[-84.505582,38.752179],[-84.508877,38.752548],[-84.510939,38.752275],[-84.512888,38.752429],[-84.519613,38.751427],[-84.523022,38.749947],[-84.523984,38.754307],[-84.528182,38.754247],[-84.532456,38.753209],[-84.536047,38.753069],[-84.536717,38.751323],[-84.540308,38.750904],[-84.548162,38.752162],[-84.548391,38.750531],[-84.550462,38.749493],[-84.550806,38.747925],[-84.554892,38.745405],[-84.555862,38.743605],[-84.557843,38.742869],[-84.560745,38.74257],[-84.564359,38.741106],[-84.564616,38.742904],[-84.566309,38.742703],[-84.56828,38.743963],[-84.572018,38.747136],[-84.569591,38.747524],[-84.568747,38.74839],[-84.564847,38.750308],[-84.565564,38.75148],[-84.564746,38.753213],[-84.560672,38.75619],[-84.564129,38.755977],[-84.574106,38.772079],[-84.576504,38.77091],[-84.57976,38.77059],[-84.584147,38.769205],[-84.58522,38.769276],[-84.590986,38.770856],[-84.595292,38.771341],[-84.59959,38.772551],[-84.603329,38.771855],[-84.603585,38.770859],[-84.605763,38.763663],[-84.60837,38.764236],[-84.606776,38.755226],[-84.61225,38.755432],[-84.614069,38.75471],[-84.613399,38.753826],[-84.619151,38.753445],[-84.622006,38.752734],[-84.625759,38.752974],[-84.630962,38.754341],[-84.631182,38.761458],[-84.627357,38.761551],[-84.627305,38.766759],[-84.623096,38.767895],[-84.623535,38.769693],[-84.625217,38.772861],[-84.630627,38.770492],[-84.634387,38.769143],[-84.636132,38.769347],[-84.639773,38.767487],[-84.642986,38.766918],[-84.643044,38.7637],[-84.644729,38.761977],[-84.646467,38.763581],[-84.649237,38.763971],[-84.651333,38.765487],[-84.654287,38.764604],[-84.655996,38.765989],[-84.658654,38.766022],[-84.65662,38.768932],[-84.659348,38.770602],[-84.66277,38.769631],[-84.663879,38.768939],[-84.664826,38.766869],[-84.666292,38.766342],[-84.667358,38.766826],[-84.667842,38.768231],[-84.669987,38.768731],[-84.671215,38.767282],[-84.66975,38.765684],[-84.669616,38.764564],[-84.670802,38.763933],[-84.674953,38.765789],[-84.676896,38.765377],[-84.678537,38.765707],[-84.680607,38.767448],[-84.680844,38.769924],[-84.682941,38.770825],[-84.68095,38.7743],[-84.67876,38.775425],[-84.727977,38.770495],[-84.774887,38.765797]]]]}},{"type":"Feature","properties":{"zcta5":"40359","AFFGEOID10":"8600000US40359","GEOID10":"40359","ALAND10":592350262,"AWATER10":4728102,"county_name":"Owen","state_code":"KY","county_state":"Owen County, KY","county_fips":"21187","risk_level_county":"Higher Risk (60–69% vaccinated)","mean_vaccination_rate_county":63.3,"risk_level_zcta":"Medium Risk (70–79% vaccinated)","mean_vaccination_rate_zips":74.66,"cases":13},"geometry":{"type":"Polygon","coordinates":[[[-84.900979,38.613036],[-84.899342,38.610437],[-84.89861,38.60816],[-84.898743,38.605316],[-84.900244,38.600215],[-84.90014,38.595923],[-84.898872,38.594442],[-84.899294,38.592897],[-84.902638,38.590626],[-84.904245,38.588274],[-84.90366,38.587214],[-84.901537,38.58767],[-84.899575,38.585838],[-84.900248,38.582339],[-84.899535,38.580584],[-84.900799,38.577497],[-84.898954,38.57582],[-84.902841,38.572971],[-84.903704,38.571871],[-84.906029,38.571644],[-84.907367,38.572193],[-84.916925,38.572292],[-84.920121,38.571826],[-84.923463,38.570611],[-84.931375,38.57015],[-84.934633,38.569363],[-84.941591,38.571009],[-84.946641,38.569287],[-84.948823,38.566955],[-84.948961,38.562931],[-84.948099,38.560327],[-84.949859,38.558353],[-84.950622,38.555937],[-84.953271,38.554915],[-84.959558,38.553957],[-84.962351,38.553865],[-84.964296,38.554811],[-84.966058,38.557017],[-84.971263,38.560666],[-84.971994,38.559281],[-84.976871,38.559861],[-84.978853,38.55817],[-84.978686,38.557113],[-84.981449,38.556426],[-84.984153,38.558285],[-84.986063,38.557378],[-84.987189,38.555789],[-84.989864,38.555993],[-84.991664,38.553962],[-84.993899,38.553371],[-84.995996,38.551834],[-84.998562,38.551288],[-84.999624,38.547708],[-84.996071,38.544006],[-84.993344,38.540417],[-84.990342,38.535889],[-84.987485,38.53331],[-84.983486,38.529094],[-84.982891,38.524859],[-84.981374,38.520657],[-84.980153,38.519783],[-84.974922,38.517512],[-84.972876,38.515401],[-84.971051,38.510702],[-84.971016,38.505329],[-84.970574,38.502669],[-84.968372,38.497362],[-84.96448,38.490967],[-84.963879,38.488455],[-84.96431,38.485624],[-84.963537,38.483744],[-84.961227,38.481643],[-84.960112,38.477644],[-84.958297,38.476307],[-84.955479,38.472871],[-84.954946,38.471528],[-84.953065,38.467628],[-84.952147,38.465009],[-84.951452,38.460022],[-84.95181,38.456992],[-84.955195,38.452203],[-84.955748,38.450749],[-84.955966,38.44795],[-84.956986,38.44526],[-84.961051,38.440497],[-84.963265,38.437358],[-84.963204,38.436884],[-84.962687,38.435794],[-84.957041,38.429897],[-84.954397,38.427837],[-84.949835,38.42618],[-84.944294,38.426295],[-84.939253,38.427797],[-84.937978,38.429117],[-84.937531,38.431817],[-84.938347,38.447056],[-84.938189,38.450414],[-84.936237,38.455101],[-84.935123,38.456681],[-84.932548,38.45919],[-84.928986,38.461993],[-84.926783,38.463265],[-84.923325,38.464501],[-84.920901,38.464133],[-84.914874,38.461824],[-84.913012,38.460497],[-84.911187,38.458397],[-84.909107,38.453201],[-84.909288,38.45024],[-84.911557,38.448154],[-84.916506,38.445624],[-84.923345,38.442794],[-84.925023,38.441824],[-84.927355,38.439072],[-84.928133,38.436278],[-84.92794,38.434513],[-84.926611,38.432098],[-84.924715,38.431176],[-84.916424,38.430799],[-84.912014,38.428288],[-84.910223,38.427716],[-84.899039,38.425677],[-84.895832,38.424854],[-84.882153,38.420142],[-84.880258,38.419049],[-84.880248,38.41618],[-84.882316,38.413],[-84.88431,38.410977],[-84.886372,38.408207],[-84.888485,38.401996],[-84.889601,38.400223],[-84.89273,38.397179],[-84.894788,38.39459],[-84.897591,38.389558],[-84.897422,38.38623],[-84.897654,38.383491],[-84.89859,38.381029],[-84.898649,38.378967],[-84.897367,38.377119],[-84.894369,38.375308],[-84.884884,38.374363],[-84.879261,38.373598],[-84.875864,38.372857],[-84.871231,38.370989],[-84.86835,38.368643],[-84.866981,38.36545],[-84.867062,38.361992],[-84.868681,38.357646],[-84.870482,38.356751],[-84.870088,38.356334],[-84.859597,38.356611],[-84.857762,38.357055],[-84.855189,38.355499],[-84.849015,38.354638],[-84.845956,38.355373],[-84.841411,38.355904],[-84.838419,38.356926],[-84.8368,38.355963],[-84.836335,38.354522],[-84.834323,38.353084],[-84.83274,38.352815],[-84.833075,38.351646],[-84.832059,38.350751],[-84.830198,38.350813],[-84.827689,38.349587],[-84.827141,38.348189],[-84.824089,38.348303],[-84.821853,38.349599],[-84.818451,38.347792],[-84.815898,38.347962],[-84.81509,38.349636],[-84.812504,38.34993],[-84.8104,38.348855],[-84.808762,38.349306],[-84.806423,38.348303],[-84.804671,38.346643],[-84.803387,38.346827],[-84.802021,38.345634],[-84.801712,38.344409],[-84.800051,38.344164],[-84.798533,38.343007],[-84.798227,38.341778],[-84.796721,38.340223],[-84.793228,38.338505],[-84.768355,38.344282],[-84.746226,38.349481],[-84.740594,38.352415],[-84.706066,38.370062],[-84.706918,38.371419],[-84.705282,38.374006],[-84.707889,38.376205],[-84.708478,38.378023],[-84.685352,38.409382],[-84.679207,38.406679],[-84.673614,38.404991],[-84.668647,38.404879],[-84.674869,38.414234],[-84.67778,38.41918],[-84.676129,38.421284],[-84.677332,38.422295],[-84.680155,38.422994],[-84.707491,38.462752],[-84.704812,38.464422],[-84.700678,38.465227],[-84.699516,38.467313],[-84.695983,38.469359],[-84.693844,38.466611],[-84.692225,38.467432],[-84.694232,38.469521],[-84.694489,38.470875],[-84.692093,38.472199],[-84.694607,38.472826],[-84.696004,38.474644],[-84.69701,38.477791],[-84.696533,38.479136],[-84.694332,38.480024],[-84.690772,38.479229],[-84.689246,38.480346],[-84.690253,38.483781],[-84.689065,38.485433],[-84.686695,38.48658],[-84.685183,38.488812],[-84.68725,38.490225],[-84.689681,38.490485],[-84.690824,38.491237],[-84.690264,38.492443],[-84.687069,38.493802],[-84.684825,38.494134],[-84.683557,38.495096],[-84.68363,38.49733],[-84.687489,38.499519],[-84.689946,38.499314],[-84.692579,38.500811],[-84.693018,38.502792],[-84.691846,38.504337],[-84.691413,38.507279],[-84.690326,38.508151],[-84.686976,38.508738],[-84.683809,38.510432],[-84.680932,38.512698],[-84.680017,38.514091],[-84.676025,38.516261],[-84.675582,38.518542],[-84.676914,38.519161],[-84.676174,38.521426],[-84.677036,38.522665],[-84.679238,38.523155],[-84.681415,38.524749],[-84.6822,38.526157],[-84.681485,38.528675],[-84.683447,38.532431],[-84.683235,38.533562],[-84.684583,38.536217],[-84.685705,38.53669],[-84.688543,38.536361],[-84.690333,38.53509],[-84.69716,38.535479],[-84.699634,38.536641],[-84.702518,38.538954],[-84.703941,38.539004],[-84.706082,38.536873],[-84.705953,38.534598],[-84.708098,38.532168],[-84.709796,38.531149],[-84.714861,38.530203],[-84.71987,38.531325],[-84.719265,38.534816],[-84.720447,38.536673],[-84.724884,38.537786],[-84.725003,38.540637],[-84.725608,38.541556],[-84.727987,38.54217],[-84.728864,38.543437],[-84.727322,38.54405],[-84.724758,38.54403],[-84.723435,38.547189],[-84.722236,38.548868],[-84.722179,38.551344],[-84.723866,38.551607],[-84.726466,38.551091],[-84.728088,38.549658],[-84.729138,38.550114],[-84.729143,38.551588],[-84.727894,38.553631],[-84.726772,38.55369],[-84.723106,38.552292],[-84.721361,38.552707],[-84.720484,38.555358],[-84.720985,38.55785],[-84.726197,38.562177],[-84.726272,38.563802],[-84.724185,38.564616],[-84.720112,38.564386],[-84.718019,38.561928],[-84.716544,38.561504],[-84.714113,38.56333],[-84.713703,38.566277],[-84.71405,38.568251],[-84.712263,38.569237],[-84.708101,38.568674],[-84.706134,38.569158],[-84.705287,38.57086],[-84.703379,38.572626],[-84.703443,38.573796],[-84.738447,38.595701],[-84.774322,38.618594],[-84.776476,38.637675],[-84.781225,38.637998],[-84.784293,38.637657],[-84.788969,38.638333],[-84.791539,38.639459],[-84.795624,38.640735],[-84.80328,38.64036],[-84.804214,38.63988],[-84.808291,38.640152],[-84.809027,38.641862],[-84.810498,38.642772],[-84.813366,38.642119],[-84.819733,38.64002],[-84.821647,38.639067],[-84.824069,38.638839],[-84.83196,38.636222],[-84.835041,38.634762],[-84.83503,38.632598],[-84.836691,38.63175],[-84.840323,38.631034],[-84.84406,38.630978],[-84.846484,38.630346],[-84.850008,38.630559],[-84.850951,38.624065],[-84.851812,38.615692],[-84.854916,38.617068],[-84.860053,38.61775],[-84.863656,38.618817],[-84.870487,38.618941],[-84.874974,38.620117],[-84.876342,38.621011],[-84.878699,38.621149],[-84.879884,38.620351],[-84.885639,38.619832],[-84.891149,38.616231],[-84.894229,38.615461],[-84.900979,38.613036]]]}},{"type":"Feature","properties":{"zcta5":"41010","AFFGEOID10":"8600000US41010","GEOID10":"41010","ALAND10":228513060,"AWATER10":1333102,"county_name":"Owen","state_code":"KY","county_state":"Owen County, KY","county_fips":"21187","risk_level_county":"Higher Risk (60–69% vaccinated)","mean_vaccination_rate_county":63.3,"risk_level_zcta":"Medium Risk (70–79% vaccinated)","mean_vaccination_rate_zips":79.1,"cases":13},"geometry":{"type":"Polygon","coordinates":[[[-84.703443,38.573796],[-84.703379,38.572626],[-84.705287,38.57086],[-84.706134,38.569158],[-84.708101,38.568674],[-84.712263,38.569237],[-84.71405,38.568251],[-84.713703,38.566277],[-84.714113,38.56333],[-84.716544,38.561504],[-84.718019,38.561928],[-84.720112,38.564386],[-84.724185,38.564616],[-84.726272,38.563802],[-84.726197,38.562177],[-84.720985,38.55785],[-84.720484,38.555358],[-84.721361,38.552707],[-84.723106,38.552292],[-84.726772,38.55369],[-84.727894,38.553631],[-84.729143,38.551588],[-84.729138,38.550114],[-84.728088,38.549658],[-84.726466,38.551091],[-84.723866,38.551607],[-84.722179,38.551344],[-84.722236,38.548868],[-84.723435,38.547189],[-84.724758,38.54403],[-84.727322,38.54405],[-84.728864,38.543437],[-84.727987,38.54217],[-84.725608,38.541556],[-84.725003,38.540637],[-84.724884,38.537786],[-84.720447,38.536673],[-84.719265,38.534816],[-84.71987,38.531325],[-84.714861,38.530203],[-84.709796,38.531149],[-84.708098,38.532168],[-84.705953,38.534598],[-84.706082,38.536873],[-84.703941,38.539004],[-84.702518,38.538954],[-84.699634,38.536641],[-84.69716,38.535479],[-84.690333,38.53509],[-84.688543,38.536361],[-84.685705,38.53669],[-84.684583,38.536217],[-84.683235,38.533562],[-84.683447,38.532431],[-84.681485,38.528675],[-84.6822,38.526157],[-84.681415,38.524749],[-84.679238,38.523155],[-84.677036,38.522665],[-84.676174,38.521426],[-84.676914,38.519161],[-84.675582,38.518542],[-84.676025,38.516261],[-84.680017,38.514091],[-84.680932,38.512698],[-84.683809,38.510432],[-84.686976,38.508738],[-84.690326,38.508151],[-84.691413,38.507279],[-84.691846,38.504337],[-84.693018,38.502792],[-84.692579,38.500811],[-84.689946,38.499314],[-84.687489,38.499519],[-84.68363,38.49733],[-84.683557,38.495096],[-84.684825,38.494134],[-84.687069,38.493802],[-84.690264,38.492443],[-84.690824,38.491237],[-84.689681,38.490485],[-84.68725,38.490225],[-84.685183,38.488812],[-84.686695,38.48658],[-84.689065,38.485433],[-84.690253,38.483781],[-84.689246,38.480346],[-84.690772,38.479229],[-84.694332,38.480024],[-84.696533,38.479136],[-84.69701,38.477791],[-84.696004,38.474644],[-84.694607,38.472826],[-84.692093,38.472199],[-84.694489,38.470875],[-84.694232,38.469521],[-84.692225,38.467432],[-84.693844,38.466611],[-84.695983,38.469359],[-84.699516,38.467313],[-84.700678,38.465227],[-84.704812,38.464422],[-84.707491,38.462752],[-84.680155,38.422994],[-84.677332,38.422295],[-84.676129,38.421284],[-84.67778,38.41918],[-84.674869,38.414234],[-84.668647,38.404879],[-84.668143,38.404896],[-84.663198,38.405309],[-84.660302,38.407692],[-84.64946,38.416567],[-84.624376,38.430627],[-84.623204,38.429759],[-84.621009,38.429486],[-84.618614,38.430077],[-84.617226,38.43133],[-84.616119,38.431906],[-84.615823,38.435061],[-84.616962,38.437622],[-84.580539,38.473039],[-84.562692,38.490436],[-84.559509,38.491814],[-84.558861,38.490478],[-84.55973,38.488181],[-84.558952,38.484658],[-84.557875,38.483219],[-84.560742,38.478252],[-84.560389,38.477332],[-84.556062,38.475379],[-84.553681,38.473952],[-84.551042,38.471048],[-84.552287,38.469449],[-84.552526,38.468105],[-84.554329,38.464965],[-84.554917,38.46094],[-84.554404,38.458086],[-84.554803,38.457248],[-84.558569,38.454717],[-84.562168,38.450028],[-84.562707,38.44858],[-84.561453,38.448078],[-84.55947,38.448409],[-84.557829,38.447383],[-84.554808,38.447937],[-84.550177,38.44812],[-84.548506,38.448654],[-84.546408,38.448143],[-84.54257,38.448108],[-84.538344,38.447578],[-84.532431,38.44876],[-84.530386,38.452144],[-84.53105,38.455356],[-84.530273,38.456647],[-84.526206,38.449842],[-84.52612,38.44845],[-84.524124,38.446619],[-84.525202,38.445412],[-84.525433,38.443215],[-84.524792,38.44161],[-84.523984,38.441383],[-84.521698,38.442596],[-84.517647,38.443808],[-84.51294,38.444743],[-84.511522,38.44424],[-84.508064,38.444054],[-84.50328,38.445097],[-84.499252,38.447001],[-84.492415,38.445062],[-84.488202,38.442038],[-84.485466,38.443018],[-84.479648,38.443667],[-84.476791,38.442816],[-84.47231,38.44362],[-84.469767,38.444787],[-84.464287,38.445803],[-84.458227,38.446262],[-84.456061,38.44669],[-84.45148,38.448722],[-84.452114,38.449658],[-84.456608,38.452289],[-84.458978,38.452919],[-84.462486,38.454788],[-84.466228,38.454441],[-84.467107,38.456971],[-84.468843,38.459534],[-84.469214,38.462205],[-84.470708,38.463377],[-84.472246,38.463525],[-84.47494,38.465514],[-84.476229,38.467794],[-84.473603,38.46915],[-84.472876,38.470108],[-84.470243,38.471769],[-84.469077,38.473954],[-84.466035,38.473161],[-84.465107,38.473391],[-84.46275,38.475438],[-84.459632,38.474615],[-84.45686,38.475643],[-84.457603,38.475512],[-84.478265,38.489136],[-84.486319,38.496236],[-84.496274,38.504438],[-84.497333,38.5064],[-84.497859,38.508931],[-84.499204,38.511453],[-84.503271,38.511738],[-84.503737,38.510855],[-84.505572,38.515648],[-84.512641,38.532129],[-84.515879,38.537233],[-84.515689,38.538655],[-84.516613,38.540082],[-84.516223,38.540793],[-84.512703,38.541547],[-84.512322,38.545291],[-84.509833,38.546064],[-84.506575,38.545272],[-84.504017,38.546149],[-84.504098,38.54811],[-84.502638,38.548959],[-84.504802,38.547786],[-84.504944,38.546351],[-84.506983,38.545613],[-84.510789,38.546298],[-84.512854,38.545472],[-84.513772,38.542093],[-84.515827,38.541972],[-84.519086,38.547489],[-84.521717,38.547639],[-84.525296,38.546892],[-84.529634,38.548147],[-84.531027,38.547843],[-84.532205,38.547038],[-84.532813,38.545357],[-84.533958,38.544885],[-84.535984,38.54274],[-84.536461,38.539892],[-84.537862,38.538045],[-84.539612,38.53939],[-84.543654,38.540893],[-84.54322,38.541979],[-84.543645,38.545273],[-84.54283,38.546571],[-84.54315,38.548054],[-84.542447,38.550333],[-84.541133,38.551541],[-84.542918,38.553327],[-84.543355,38.554915],[-84.545924,38.555883],[-84.548116,38.55478],[-84.552566,38.554146],[-84.555089,38.554618],[-84.556105,38.555647],[-84.555684,38.557011],[-84.556775,38.558138],[-84.558713,38.558998],[-84.559359,38.560427],[-84.562594,38.560972],[-84.564632,38.55889],[-84.565836,38.558841],[-84.568524,38.56194],[-84.57077,38.562593],[-84.572068,38.564169],[-84.573541,38.564536],[-84.576158,38.563812],[-84.578481,38.564196],[-84.581544,38.564022],[-84.582772,38.564614],[-84.586919,38.56409],[-84.588149,38.564488],[-84.589669,38.559081],[-84.591077,38.556714],[-84.591242,38.553459],[-84.592243,38.55354],[-84.593001,38.555138],[-84.595889,38.554265],[-84.599039,38.555259],[-84.601736,38.555369],[-84.603741,38.556853],[-84.60464,38.558279],[-84.607146,38.558734],[-84.608367,38.559545],[-84.61092,38.55911],[-84.6126,38.559816],[-84.614288,38.55936],[-84.616968,38.560284],[-84.620788,38.559997],[-84.621691,38.561144],[-84.633238,38.56219],[-84.637135,38.560889],[-84.639692,38.561866],[-84.640846,38.561828],[-84.643573,38.56337],[-84.64532,38.563749],[-84.646205,38.566188],[-84.650106,38.568054],[-84.652432,38.56569],[-84.658098,38.564906],[-84.661208,38.565546],[-84.663922,38.56506],[-84.66616,38.566676],[-84.670704,38.568158],[-84.671671,38.56795],[-84.67361,38.567245],[-84.675353,38.564348],[-84.677169,38.565061],[-84.679942,38.563359],[-84.681738,38.561772],[-84.680764,38.559701],[-84.703443,38.573796]],[[-84.535423,38.469915],[-84.535835,38.472618],[-84.534947,38.476742],[-84.533692,38.478787],[-84.530705,38.479739],[-84.528181,38.48192],[-84.525012,38.482969],[-84.522602,38.486837],[-84.517821,38.489712],[-84.515926,38.493324],[-84.511027,38.494481],[-84.506616,38.497465],[-84.500378,38.496896],[-84.495779,38.498236],[-84.494262,38.496853],[-84.488736,38.496547],[-84.486578,38.493473],[-84.485062,38.49315],[-84.485589,38.49026],[-84.484886,38.488507],[-84.485745,38.485909],[-84.490085,38.484409],[-84.494014,38.484365],[-84.495979,38.484739],[-84.501489,38.484073],[-84.505498,38.480215],[-84.50996,38.479967],[-84.511683,38.478225],[-84.516739,38.478778],[-84.51778,38.477473],[-84.521544,38.47595],[-84.52529,38.470709],[-84.524992,38.469449],[-84.529567,38.466149],[-84.531271,38.466001],[-84.535423,38.469915]]]}},{"type":"Feature","properties":{"zcta5":"40363","AFFGEOID10":"8600000US40363","GEOID10":"40363","ALAND10":54042,"AWATER10":0,"county_name":"Owen","state_code":"KY","county_state":"Owen County, KY","county_fips":"21187","risk_level_county":"Higher Risk (60–69% vaccinated)","mean_vaccination_rate_county":63.3,"risk_level_zcta":"Uninhabited","mean_vaccination_rate_zips":null,"cases":13},"geometry":{"type":"Polygon","coordinates":[[[-85.011066,38.514776],[-85.010673,38.512859],[-85.009013,38.513322],[-85.008436,38.514715],[-85.010344,38.515649],[-85.011066,38.514776]]]}},{"type":"Feature","properties":{"zcta5":"41086","AFFGEOID10":"8600000US41086","GEOID10":"41086","ALAND10":166735950,"AWATER10":1264757,"county_name":"Owen","state_code":"KY","county_state":"Owen County, KY","county_fips":"21187","risk_level_county":"Higher Risk (60–69% vaccinated)","mean_vaccination_rate_county":63.3,"risk_level_zcta":"Medium Risk (70–79% vaccinated)","mean_vaccination_rate_zips":74.32,"cases":13},"geometry":{"type":"Polygon","coordinates":[[[-84.937948,38.763387],[-84.940934,38.760118],[-84.942152,38.758173],[-84.942213,38.756126],[-84.941245,38.754097],[-84.94192,38.751153],[-84.941439,38.748746],[-84.940186,38.746244],[-84.938549,38.74458],[-84.935412,38.744872],[-84.933987,38.744275],[-84.93513,38.740433],[-84.937366,38.736223],[-84.937917,38.733503],[-84.937521,38.730682],[-84.938156,38.728074],[-84.937106,38.727332],[-84.937352,38.725438],[-84.936456,38.722423],[-84.934976,38.720104],[-84.935256,38.718653],[-84.933343,38.714491],[-84.931788,38.712007],[-84.937059,38.708668],[-84.938735,38.706584],[-84.943617,38.706674],[-84.946023,38.706263],[-84.943843,38.699441],[-84.942183,38.696541],[-84.93858,38.69136],[-84.910834,38.702753],[-84.911154,38.699857],[-84.914197,38.698094],[-84.921669,38.695183],[-84.918374,38.690808],[-84.911314,38.689616],[-84.909453,38.687468],[-84.911589,38.68454],[-84.911339,38.679839],[-84.918239,38.679225],[-84.915523,38.676656],[-84.917886,38.67654],[-84.922868,38.67491],[-84.92243,38.674513],[-84.913528,38.674636],[-84.908352,38.669424],[-84.911569,38.668669],[-84.913137,38.668769],[-84.918362,38.670065],[-84.921288,38.670433],[-84.923508,38.672774],[-84.925431,38.673417],[-84.927723,38.671578],[-84.927495,38.670669],[-84.93072,38.66764],[-84.932366,38.666556],[-84.933684,38.663241],[-84.934536,38.66213],[-84.93441,38.65969],[-84.936623,38.657535],[-84.937733,38.654424],[-84.936589,38.652092],[-84.936982,38.650827],[-84.94602,38.650406],[-84.94072,38.645639],[-84.939115,38.643293],[-84.936026,38.63491],[-84.933343,38.632824],[-84.934295,38.632909],[-84.932195,38.631794],[-84.930291,38.63019],[-84.930242,38.629343],[-84.928219,38.627195],[-84.926492,38.624428],[-84.927949,38.622983],[-84.92783,38.6219],[-84.931421,38.61923],[-84.932892,38.616615],[-84.933889,38.616189],[-84.938358,38.615905],[-84.940323,38.613477],[-84.940646,38.611719],[-84.938927,38.609767],[-84.936059,38.608068],[-84.932989,38.608535],[-84.931693,38.608272],[-84.928097,38.60618],[-84.92664,38.606101],[-84.922855,38.607938],[-84.917531,38.609316],[-84.91161,38.614258],[-84.907925,38.61557],[-84.906181,38.615668],[-84.905121,38.614404],[-84.903091,38.614106],[-84.900979,38.613036],[-84.894229,38.615461],[-84.891149,38.616231],[-84.885639,38.619832],[-84.879884,38.620351],[-84.878699,38.621149],[-84.876342,38.621011],[-84.874974,38.620117],[-84.870487,38.618941],[-84.863656,38.618817],[-84.860053,38.61775],[-84.854916,38.617068],[-84.851812,38.615692],[-84.850951,38.624065],[-84.850008,38.630559],[-84.846484,38.630346],[-84.84406,38.630978],[-84.840323,38.631034],[-84.836691,38.63175],[-84.83503,38.632598],[-84.835041,38.634762],[-84.83196,38.636222],[-84.824069,38.638839],[-84.821647,38.639067],[-84.819733,38.64002],[-84.813366,38.642119],[-84.810498,38.642772],[-84.809027,38.641862],[-84.808291,38.640152],[-84.804214,38.63988],[-84.80328,38.64036],[-84.795624,38.640735],[-84.791539,38.639459],[-84.788969,38.638333],[-84.784293,38.637657],[-84.781225,38.637998],[-84.776476,38.637675],[-84.782298,38.689284],[-84.785718,38.690016],[-84.787789,38.691139],[-84.792286,38.691082],[-84.793018,38.690573],[-84.794711,38.68505],[-84.792363,38.681781],[-84.791782,38.679102],[-84.796337,38.6751],[-84.798516,38.674829],[-84.797091,38.67604],[-84.796573,38.677702],[-84.798452,38.676386],[-84.801333,38.675538],[-84.806475,38.674589],[-84.811518,38.674226],[-84.814234,38.67497],[-84.816645,38.673627],[-84.818713,38.673341],[-84.823607,38.673598],[-84.823442,38.677125],[-84.825806,38.679563],[-84.826405,38.681224],[-84.824745,38.685008],[-84.822494,38.688326],[-84.822229,38.692012],[-84.820117,38.697494],[-84.81738,38.699741],[-84.812697,38.699465],[-84.810336,38.697774],[-84.805277,38.696504],[-84.80327,38.696855],[-84.802553,38.699231],[-84.800997,38.702131],[-84.797608,38.702951],[-84.797075,38.702073],[-84.78969,38.701227],[-84.788828,38.699731],[-84.783373,38.698819],[-84.785788,38.720459],[-84.786543,38.722721],[-84.787953,38.723847],[-84.790624,38.723564],[-84.793642,38.724626],[-84.794516,38.724259],[-84.796215,38.721512],[-84.795829,38.719982],[-84.797244,38.718783],[-84.798246,38.716689],[-84.799612,38.715507],[-84.802176,38.714465],[-84.805233,38.714671],[-84.807878,38.713757],[-84.808343,38.712328],[-84.813114,38.711976],[-84.815334,38.709959],[-84.816324,38.707977],[-84.8142,38.706288],[-84.810173,38.704821],[-84.81091,38.702834],[-84.811845,38.702307],[-84.814971,38.70218],[-84.818244,38.702719],[-84.821449,38.703856],[-84.8253,38.70609],[-84.825224,38.707116],[-84.827521,38.708276],[-84.830512,38.711481],[-84.833607,38.711952],[-84.834826,38.711335],[-84.835535,38.708591],[-84.837352,38.707566],[-84.83766,38.706599],[-84.839505,38.705258],[-84.840695,38.705181],[-84.842158,38.703082],[-84.84296,38.698992],[-84.844734,38.696818],[-84.84631,38.696612],[-84.847797,38.697356],[-84.853907,38.69755],[-84.85824,38.699318],[-84.858533,38.700576],[-84.859745,38.700891],[-84.864129,38.700187],[-84.864866,38.700669],[-84.86836,38.700021],[-84.870541,38.698394],[-84.870595,38.696877],[-84.871569,38.693799],[-84.87084,38.692087],[-84.872053,38.689799],[-84.877106,38.686656],[-84.880329,38.68529],[-84.882106,38.68498],[-84.885704,38.688082],[-84.887887,38.687401],[-84.887413,38.688621],[-84.880187,38.692003],[-84.87543,38.694994],[-84.869449,38.699846],[-84.863039,38.702959],[-84.859055,38.7035],[-84.848532,38.703588],[-84.843153,38.70386],[-84.841446,38.70505],[-84.837342,38.710549],[-84.835608,38.711993],[-84.831325,38.713514],[-84.83272,38.718872],[-84.832238,38.719852],[-84.835635,38.719191],[-84.836306,38.721634],[-84.833558,38.721975],[-84.834672,38.72491],[-84.832894,38.72793],[-84.829276,38.728847],[-84.830425,38.731352],[-84.829174,38.731636],[-84.828927,38.735907],[-84.831002,38.739293],[-84.835089,38.742764],[-84.83651,38.745226],[-84.83546,38.748816],[-84.833679,38.75138],[-84.83478,38.751309],[-84.84174,38.750507],[-84.852878,38.749761],[-84.853143,38.752239],[-84.851935,38.753728],[-84.851479,38.755416],[-84.852819,38.758103],[-84.852886,38.759315],[-84.852511,38.761109],[-84.850052,38.761492],[-84.849186,38.762885],[-84.847633,38.763614],[-84.849641,38.765805],[-84.850251,38.766888],[-84.853897,38.766598],[-84.856233,38.768817],[-84.859871,38.769839],[-84.861469,38.770048],[-84.862168,38.771954],[-84.863626,38.773557],[-84.866024,38.772803],[-84.867311,38.772632],[-84.869105,38.773477],[-84.873632,38.772737],[-84.872514,38.771417],[-84.871185,38.770361],[-84.868736,38.767801],[-84.868253,38.767055],[-84.867914,38.764719],[-84.868177,38.764122],[-84.86942,38.765709],[-84.870627,38.767329],[-84.874093,38.769462],[-84.875123,38.768992],[-84.875809,38.770283],[-84.875367,38.771018],[-84.878514,38.771987],[-84.881796,38.772627],[-84.882385,38.773093],[-84.884118,38.772688],[-84.886842,38.772687],[-84.887979,38.772056],[-84.889501,38.772413],[-84.890246,38.771782],[-84.891544,38.771712],[-84.893425,38.770895],[-84.8972,38.770688],[-84.897333,38.767776],[-84.900765,38.768318],[-84.901538,38.769118],[-84.9063,38.765849],[-84.907725,38.764402],[-84.909264,38.765418],[-84.912986,38.76615],[-84.914847,38.767379],[-84.916578,38.767338],[-84.90219,38.772591],[-84.905353,38.772162],[-84.90741,38.773625],[-84.912225,38.770578],[-84.915798,38.769488],[-84.919749,38.769715],[-84.920362,38.768221],[-84.919377,38.766665],[-84.923223,38.765584],[-84.925607,38.762793],[-84.92503,38.764324],[-84.934236,38.763516],[-84.93786,38.763686],[-84.937948,38.763387]],[[-84.852878,38.749761],[-84.852897,38.749637],[-84.853578,38.747048],[-84.851963,38.738744],[-84.853019,38.736814],[-84.862741,38.738964],[-84.866273,38.741998],[-84.866614,38.741797],[-84.871615,38.747078],[-84.871924,38.748402],[-84.869571,38.748898],[-84.854969,38.749695],[-84.852878,38.749761]],[[-84.897333,38.767776],[-84.897245,38.767773],[-84.892565,38.767083],[-84.895002,38.763423],[-84.892689,38.761056],[-84.897929,38.759163],[-84.897333,38.767776]],[[-84.925607,38.762793],[-84.925461,38.762855],[-84.923837,38.764166],[-84.923359,38.763985],[-84.924031,38.761758],[-84.924096,38.76265],[-84.925564,38.762755],[-84.925607,38.762793]]]}},{"type":"Feature","properties":{"zcta5":"41098","AFFGEOID10":"8600000US41098","GEOID10":"41098","ALAND10":131769666,"AWATER10":2798003,"county_name":"Owen","state_code":"KY","county_state":"Owen County, KY","county_fips":"21187","risk_level_county":"Higher Risk (60–69% vaccinated)","mean_vaccination_rate_county":63.3,"risk_level_zcta":"Medium Risk (70–79% vaccinated)","mean_vaccination_rate_zips":71.31,"cases":13},"geometry":{"type":"Polygon","coordinates":[[[-85.078208,38.65461],[-85.079917,38.652743],[-85.081871,38.649047],[-85.082855,38.648141],[-85.086518,38.647209],[-85.090683,38.644394],[-85.09544,38.645418],[-85.099016,38.644548],[-85.104689,38.645087],[-85.107913,38.643632],[-85.111246,38.64293],[-85.113165,38.641473],[-85.116254,38.642327],[-85.121502,38.646716],[-85.124411,38.643081],[-85.11594,38.640981],[-85.109423,38.638552],[-85.10834,38.637356],[-85.108521,38.636265],[-85.111203,38.634377],[-85.111955,38.63338],[-85.111706,38.630811],[-85.110023,38.62877],[-85.106886,38.627747],[-85.104644,38.627623],[-85.100387,38.6263],[-85.09396,38.619858],[-85.089402,38.615803],[-85.08172,38.610498],[-85.081259,38.607962],[-85.08257,38.602997],[-85.081657,38.600844],[-85.07652,38.598326],[-85.074892,38.596801],[-85.074583,38.596838],[-85.074117,38.594006],[-85.075321,38.588619],[-85.075781,38.585423],[-85.076118,38.578895],[-85.07593,38.578018],[-85.074087,38.575119],[-85.071743,38.572282],[-85.066787,38.567064],[-85.062961,38.564532],[-85.059544,38.564745],[-85.05308,38.568855],[-85.049232,38.570706],[-85.04264,38.573862],[-85.040913,38.574162],[-85.038736,38.573454],[-85.035698,38.571588],[-85.03199,38.569841],[-85.025146,38.567477],[-85.017035,38.563862],[-85.011897,38.562608],[-85.009901,38.561713],[-85.006288,38.557047],[-85.00264,38.554011],[-85.002707,38.55212],[-85.005143,38.550801],[-85.007761,38.550251],[-85.011485,38.548661],[-85.012303,38.54781],[-85.012866,38.545634],[-85.012892,38.540593],[-85.014111,38.537392],[-85.01854,38.531709],[-85.021317,38.528711],[-85.025295,38.523448],[-85.02708,38.517535],[-85.029183,38.513565],[-85.029888,38.510765],[-85.029154,38.507901],[-85.028578,38.506657],[-85.026493,38.505297],[-85.022289,38.504024],[-85.019245,38.503918],[-85.017363,38.504751],[-85.013695,38.508348],[-85.007173,38.513923],[-85.003279,38.516073],[-85.00048,38.517048],[-84.995602,38.518055],[-84.990871,38.518397],[-84.985026,38.518405],[-84.981156,38.517757],[-84.979072,38.516329],[-84.977261,38.513937],[-84.977166,38.512989],[-84.98038,38.509625],[-84.983394,38.506978],[-84.987936,38.502515],[-84.989521,38.500519],[-84.992159,38.495293],[-84.992419,38.493274],[-84.991422,38.489347],[-84.988781,38.487085],[-84.978759,38.484804],[-84.976096,38.483901],[-84.96844,38.480777],[-84.96573,38.479343],[-84.960416,38.475732],[-84.956842,38.473646],[-84.954946,38.471528],[-84.955479,38.472871],[-84.958297,38.476307],[-84.960112,38.477644],[-84.961227,38.481643],[-84.963537,38.483744],[-84.96431,38.485624],[-84.963879,38.488455],[-84.96448,38.490967],[-84.968372,38.497362],[-84.970574,38.502669],[-84.971016,38.505329],[-84.971051,38.510702],[-84.972876,38.515401],[-84.974922,38.517512],[-84.980153,38.519783],[-84.981374,38.520657],[-84.982891,38.524859],[-84.983486,38.529094],[-84.987485,38.53331],[-84.990342,38.535889],[-84.993344,38.540417],[-84.996071,38.544006],[-84.999624,38.547708],[-84.998562,38.551288],[-84.995996,38.551834],[-84.993899,38.553371],[-84.991664,38.553962],[-84.989864,38.555993],[-84.987189,38.555789],[-84.986063,38.557378],[-84.984153,38.558285],[-84.981449,38.556426],[-84.978686,38.557113],[-84.978853,38.55817],[-84.976871,38.559861],[-84.971994,38.559281],[-84.971263,38.560666],[-84.966058,38.557017],[-84.964296,38.554811],[-84.962351,38.553865],[-84.959558,38.553957],[-84.953271,38.554915],[-84.950622,38.555937],[-84.949859,38.558353],[-84.948099,38.560327],[-84.948961,38.562931],[-84.948823,38.566955],[-84.946641,38.569287],[-84.941591,38.571009],[-84.934633,38.569363],[-84.931375,38.57015],[-84.923463,38.570611],[-84.920121,38.571826],[-84.916925,38.572292],[-84.907367,38.572193],[-84.906029,38.571644],[-84.903704,38.571871],[-84.902841,38.572971],[-84.898954,38.57582],[-84.900799,38.577497],[-84.899535,38.580584],[-84.900248,38.582339],[-84.899575,38.585838],[-84.901537,38.58767],[-84.90366,38.587214],[-84.904245,38.588274],[-84.902638,38.590626],[-84.899294,38.592897],[-84.898872,38.594442],[-84.90014,38.595923],[-84.900244,38.600215],[-84.898743,38.605316],[-84.89861,38.60816],[-84.899342,38.610437],[-84.900979,38.613036],[-84.903091,38.614106],[-84.905121,38.614404],[-84.906181,38.615668],[-84.907925,38.61557],[-84.91161,38.614258],[-84.917531,38.609316],[-84.922855,38.607938],[-84.92664,38.606101],[-84.928097,38.60618],[-84.931693,38.608272],[-84.932989,38.608535],[-84.936059,38.608068],[-84.938927,38.609767],[-84.940646,38.611719],[-84.940323,38.613477],[-84.938358,38.615905],[-84.933889,38.616189],[-84.932892,38.616615],[-84.931421,38.61923],[-84.92783,38.6219],[-84.927949,38.622983],[-84.926492,38.624428],[-84.928219,38.627195],[-84.930242,38.629343],[-84.930291,38.63019],[-84.932195,38.631794],[-84.934295,38.632909],[-84.936346,38.634838],[-84.93855,38.638068],[-84.938564,38.640271],[-84.939768,38.641193],[-84.941077,38.644462],[-84.94252,38.644434],[-84.945363,38.645428],[-84.947687,38.64562],[-84.950698,38.644444],[-84.953576,38.646257],[-84.954789,38.647925],[-84.95406,38.649243],[-84.952553,38.648967],[-84.951772,38.650039],[-84.9529,38.650648],[-84.95486,38.653256],[-84.956384,38.653652],[-84.957326,38.653673],[-84.960288,38.650755],[-84.963888,38.650746],[-84.965732,38.649777],[-84.969888,38.648732],[-84.970108,38.646501],[-84.968916,38.645742],[-84.969638,38.644349],[-84.97092,38.643646],[-84.971102,38.641518],[-84.974623,38.636619],[-84.975966,38.635628],[-84.977866,38.635467],[-84.980898,38.637146],[-84.982017,38.637098],[-84.985584,38.633149],[-84.990109,38.631042],[-84.9922,38.630749],[-84.995251,38.631635],[-84.992573,38.629942],[-84.990434,38.629791],[-84.988656,38.630897],[-84.982852,38.630904],[-84.980016,38.629914],[-84.974661,38.626893],[-84.973662,38.626012],[-84.971756,38.621955],[-84.972056,38.61939],[-84.973568,38.617906],[-84.973633,38.615956],[-84.976616,38.614032],[-84.978489,38.612391],[-84.98018,38.6124],[-84.982899,38.60954],[-84.986931,38.608534],[-84.993989,38.608047],[-84.996652,38.608275],[-84.999841,38.606807],[-85.00705,38.604641],[-85.008874,38.603842],[-85.014763,38.60296],[-85.018554,38.598152],[-85.022444,38.597944],[-85.025351,38.596145],[-85.026555,38.594492],[-85.027859,38.590938],[-85.029805,38.589632],[-85.032131,38.589635],[-85.03358,38.588971],[-85.036234,38.589172],[-85.038324,38.58988],[-85.039149,38.591548],[-85.04245,38.595349],[-85.043136,38.598665],[-85.045402,38.600422],[-85.04524,38.602083],[-85.046296,38.603714],[-85.046414,38.605291],[-85.044581,38.606401],[-85.044196,38.607863],[-85.042021,38.607679],[-85.039591,38.608692],[-85.036867,38.611217],[-85.037707,38.611363],[-85.035508,38.611428],[-85.025792,38.613369],[-85.024287,38.614621],[-85.022317,38.618744],[-85.020903,38.620711],[-85.015216,38.621643],[-85.01313,38.622577],[-85.012988,38.624518],[-85.015366,38.626657],[-85.01695,38.628652],[-85.017099,38.629386],[-85.016633,38.631895],[-85.014389,38.634506],[-85.011506,38.635884],[-85.007476,38.636368],[-85.008382,38.636667],[-85.010038,38.641992],[-85.011099,38.643482],[-85.014811,38.644351],[-85.020501,38.64743],[-85.022271,38.649003],[-85.025629,38.650954],[-85.026159,38.65176],[-85.028234,38.650591],[-85.025872,38.647653],[-85.021116,38.64313],[-85.022178,38.641272],[-85.022172,38.63982],[-85.023438,38.638613],[-85.027463,38.63624],[-85.027536,38.634942],[-85.030216,38.635062],[-85.034208,38.631686],[-85.034755,38.630331],[-85.039069,38.625568],[-85.040366,38.623554],[-85.041773,38.625328],[-85.046358,38.628565],[-85.048762,38.629337],[-85.05048,38.630595],[-85.050256,38.632895],[-85.049136,38.634175],[-85.048561,38.636877],[-85.046166,38.638145],[-85.045928,38.642414],[-85.04371,38.644199],[-85.042024,38.648769],[-85.040044,38.651448],[-85.04107,38.654185],[-85.040869,38.656221],[-85.041483,38.659691],[-85.037358,38.659897],[-85.039346,38.660806],[-85.051273,38.65687],[-85.055733,38.655789],[-85.062959,38.655343],[-85.071449,38.655984],[-85.074562,38.655658],[-85.078208,38.65461]],[[-85.011066,38.514776],[-85.010344,38.515649],[-85.008436,38.514715],[-85.009013,38.513322],[-85.010673,38.512859],[-85.011066,38.514776]]]}},{"type":"Feature","properties":{"zcta5":"40379","AFFGEOID10":"8600000US40379","GEOID10":"40379","ALAND10":164558477,"AWATER10":1374532,"county_name":"Owen","state_code":"KY","county_state":"Owen County, KY","county_fips":"21187","risk_level_county":"Higher Risk (60–69% vaccinated)","mean_vaccination_rate_county":63.3,"risk_level_zcta":"Higher Risk (60–69% vaccinated)","mean_vaccination_rate_zips":69.97,"cases":13},"geometry":{"type":"Polygon","coordinates":[[[-84.768355,38.344282],[-84.766768,38.343552],[-84.764342,38.3436],[-84.762826,38.341302],[-84.761024,38.339866],[-84.761513,38.33744],[-84.759784,38.336082],[-84.759182,38.333709],[-84.756139,38.331359],[-84.755231,38.329001],[-84.7504,38.324483],[-84.750028,38.322726],[-84.747977,38.320184],[-84.747498,38.318719],[-84.751401,38.311986],[-84.748021,38.311559],[-84.747187,38.310068],[-84.745109,38.308871],[-84.742354,38.308301],[-84.740961,38.307293],[-84.737918,38.309091],[-84.737771,38.297696],[-84.73612,38.277855],[-84.738344,38.276175],[-84.739867,38.273119],[-84.740906,38.269677],[-84.742947,38.268432],[-84.739604,38.264913],[-84.73887,38.262812],[-84.734577,38.260053],[-84.730289,38.208302],[-84.714261,38.207707],[-84.70729,38.207454],[-84.700986,38.207213],[-84.697499,38.212492],[-84.69496,38.217338],[-84.695205,38.219168],[-84.697223,38.221199],[-84.698591,38.223792],[-84.698818,38.234132],[-84.69826,38.237455],[-84.695922,38.240001],[-84.693893,38.240216],[-84.692288,38.237259],[-84.689461,38.236314],[-84.682359,38.23537],[-84.678684,38.233592],[-84.67758,38.231118],[-84.679278,38.229154],[-84.679317,38.2256],[-84.677717,38.224126],[-84.676498,38.224033],[-84.673769,38.225372],[-84.673046,38.228551],[-84.671541,38.230857],[-84.669194,38.232543],[-84.66677,38.236156],[-84.664459,38.23727],[-84.662606,38.237061],[-84.659509,38.235462],[-84.658675,38.234072],[-84.661808,38.232475],[-84.660473,38.230004],[-84.658934,38.230009],[-84.654436,38.232347],[-84.655159,38.233005],[-84.651381,38.241512],[-84.648574,38.244144],[-84.648082,38.245323],[-84.652586,38.246176],[-84.658178,38.24828],[-84.659328,38.249904],[-84.661673,38.251072],[-84.66232,38.252538],[-84.658795,38.255217],[-84.653545,38.256386],[-84.652568,38.259614],[-84.652859,38.261174],[-84.655511,38.263958],[-84.6548,38.265606],[-84.652146,38.266824],[-84.651944,38.269152],[-84.65291,38.270723],[-84.653418,38.275241],[-84.653167,38.277626],[-84.656324,38.279543],[-84.650853,38.283139],[-84.648711,38.284187],[-84.645727,38.284187],[-84.641676,38.28622],[-84.64257,38.286964],[-84.643717,38.289709],[-84.643897,38.292773],[-84.643592,38.296027],[-84.641872,38.29952],[-84.642023,38.30466],[-84.64143,38.307072],[-84.638259,38.307441],[-84.635954,38.306865],[-84.628607,38.303565],[-84.625838,38.305652],[-84.626445,38.308485],[-84.62484,38.305665],[-84.625126,38.301725],[-84.623152,38.302415],[-84.61638,38.306334],[-84.614696,38.30875],[-84.611665,38.31052],[-84.611393,38.311801],[-84.61573,38.318717],[-84.615057,38.320926],[-84.617957,38.324768],[-84.620567,38.325753],[-84.624187,38.332101],[-84.626201,38.331218],[-84.628309,38.329072],[-84.631827,38.330057],[-84.632133,38.331259],[-84.63115,38.332346],[-84.632,38.333022],[-84.63474,38.33237],[-84.635004,38.333671],[-84.632896,38.336032],[-84.633202,38.33758],[-84.634636,38.339058],[-84.636111,38.343347],[-84.637582,38.343239],[-84.641341,38.345391],[-84.643004,38.345568],[-84.643836,38.346723],[-84.641287,38.347888],[-84.640372,38.348911],[-84.636572,38.350982],[-84.633728,38.353874],[-84.63365,38.355918],[-84.627853,38.357364],[-84.624648,38.356796],[-84.622903,38.35582],[-84.621285,38.355918],[-84.618362,38.354802],[-84.614367,38.353993],[-84.61246,38.356456],[-84.613286,38.357291],[-84.61263,38.359379],[-84.614197,38.361242],[-84.614819,38.363055],[-84.616321,38.363158],[-84.61828,38.361905],[-84.621962,38.362574],[-84.624501,38.366486],[-84.627921,38.370172],[-84.629063,38.372601],[-84.630808,38.373899],[-84.631751,38.375604],[-84.625703,38.376217],[-84.625745,38.379225],[-84.627371,38.381556],[-84.628003,38.383407],[-84.629419,38.385571],[-84.631155,38.389505],[-84.630171,38.391095],[-84.63175,38.390807],[-84.632892,38.391842],[-84.632991,38.393158],[-84.634213,38.393922],[-84.636412,38.393704],[-84.637953,38.394336],[-84.637766,38.39637],[-84.641012,38.396925],[-84.642827,38.398262],[-84.645366,38.397843],[-84.649695,38.397972],[-84.651893,38.400715],[-84.660302,38.407692],[-84.663198,38.405309],[-84.668143,38.404896],[-84.668647,38.404879],[-84.673614,38.404991],[-84.679207,38.406679],[-84.685352,38.409382],[-84.708478,38.378023],[-84.707889,38.376205],[-84.705282,38.374006],[-84.706918,38.371419],[-84.706066,38.370062],[-84.740594,38.352415],[-84.746226,38.349481],[-84.768355,38.344282]]]}},{"type":"Feature","properties":{"zcta5":"41046","AFFGEOID10":"8600000US41046","GEOID10":"41046","ALAND10":43812683,"AWATER10":486491,"county_name":"Owen","state_code":"KY","county_state":"Owen County, KY","county_fips":"21187","risk_level_county":"Higher Risk (60–69% vaccinated)","mean_vaccination_rate_county":63.3,"risk_level_zcta":"Medium Risk (70–79% vaccinated)","mean_vaccination_rate_zips":74.22,"cases":13},"geometry":{"type":"Polygon","coordinates":[[[-84.83478,38.751309],[-84.833679,38.75138],[-84.83546,38.748816],[-84.83651,38.745226],[-84.835089,38.742764],[-84.831002,38.739293],[-84.828927,38.735907],[-84.829174,38.731636],[-84.830425,38.731352],[-84.829276,38.728847],[-84.832894,38.72793],[-84.834672,38.72491],[-84.833558,38.721975],[-84.836306,38.721634],[-84.835635,38.719191],[-84.832238,38.719852],[-84.83272,38.718872],[-84.831325,38.713514],[-84.835608,38.711993],[-84.837342,38.710549],[-84.841446,38.70505],[-84.843153,38.70386],[-84.848532,38.703588],[-84.859055,38.7035],[-84.863039,38.702959],[-84.869449,38.699846],[-84.87543,38.694994],[-84.880187,38.692003],[-84.887413,38.688621],[-84.887887,38.687401],[-84.885704,38.688082],[-84.882106,38.68498],[-84.880329,38.68529],[-84.877106,38.686656],[-84.872053,38.689799],[-84.87084,38.692087],[-84.871569,38.693799],[-84.870595,38.696877],[-84.870541,38.698394],[-84.86836,38.700021],[-84.864866,38.700669],[-84.864129,38.700187],[-84.859745,38.700891],[-84.858533,38.700576],[-84.85824,38.699318],[-84.853907,38.69755],[-84.847797,38.697356],[-84.84631,38.696612],[-84.844734,38.696818],[-84.84296,38.698992],[-84.842158,38.703082],[-84.840695,38.705181],[-84.839505,38.705258],[-84.83766,38.706599],[-84.837352,38.707566],[-84.835535,38.708591],[-84.834826,38.711335],[-84.833607,38.711952],[-84.830512,38.711481],[-84.827521,38.708276],[-84.825224,38.707116],[-84.8253,38.70609],[-84.821449,38.703856],[-84.818244,38.702719],[-84.814971,38.70218],[-84.811845,38.702307],[-84.81091,38.702834],[-84.810173,38.704821],[-84.8142,38.706288],[-84.816324,38.707977],[-84.815334,38.709959],[-84.813114,38.711976],[-84.808343,38.712328],[-84.807878,38.713757],[-84.805233,38.714671],[-84.802176,38.714465],[-84.799612,38.715507],[-84.798246,38.716689],[-84.797244,38.718783],[-84.795829,38.719982],[-84.796215,38.721512],[-84.794516,38.724259],[-84.793642,38.724626],[-84.790624,38.723564],[-84.787953,38.723847],[-84.786543,38.722721],[-84.785788,38.720459],[-84.783373,38.698819],[-84.788828,38.699731],[-84.78969,38.701227],[-84.797075,38.702073],[-84.797608,38.702951],[-84.800997,38.702131],[-84.802553,38.699231],[-84.80327,38.696855],[-84.805277,38.696504],[-84.810336,38.697774],[-84.812697,38.699465],[-84.81738,38.699741],[-84.820117,38.697494],[-84.822229,38.692012],[-84.822494,38.688326],[-84.824745,38.685008],[-84.826405,38.681224],[-84.825806,38.679563],[-84.823442,38.677125],[-84.823607,38.673598],[-84.818713,38.673341],[-84.816645,38.673627],[-84.814234,38.67497],[-84.811518,38.674226],[-84.806475,38.674589],[-84.801333,38.675538],[-84.798452,38.676386],[-84.796573,38.677702],[-84.797091,38.67604],[-84.798516,38.674829],[-84.796337,38.6751],[-84.791782,38.679102],[-84.792363,38.681781],[-84.794711,38.68505],[-84.793018,38.690573],[-84.792286,38.691082],[-84.787789,38.691139],[-84.785718,38.690016],[-84.782298,38.689284],[-84.780851,38.689021],[-84.778612,38.686419],[-84.777279,38.686235],[-84.775741,38.688132],[-84.775916,38.690355],[-84.775331,38.693144],[-84.7721,38.695691],[-84.771066,38.6958],[-84.768966,38.694278],[-84.76789,38.690933],[-84.765147,38.686688],[-84.765274,38.685326],[-84.763998,38.684611],[-84.762802,38.682612],[-84.760435,38.682984],[-84.758858,38.685637],[-84.757447,38.686047],[-84.753669,38.685093],[-84.753797,38.687537],[-84.757121,38.691148],[-84.756729,38.692512],[-84.758609,38.693306],[-84.754195,38.697044],[-84.753253,38.700009],[-84.753083,38.701623],[-84.755465,38.703074],[-84.756656,38.701877],[-84.759725,38.702856],[-84.761286,38.705059],[-84.761971,38.707316],[-84.760324,38.708864],[-84.756944,38.709362],[-84.754433,38.712891],[-84.754339,38.715466],[-84.75209,38.714521],[-84.750121,38.714404],[-84.749362,38.716385],[-84.749608,38.718301],[-84.751832,38.718524],[-84.755231,38.717314],[-84.75825,38.716821],[-84.764104,38.717776],[-84.765338,38.718367],[-84.765358,38.720325],[-84.766157,38.7209],[-84.769455,38.721039],[-84.772057,38.721962],[-84.775187,38.724079],[-84.772578,38.725206],[-84.769983,38.725688],[-84.768292,38.727519],[-84.767042,38.730907],[-84.766123,38.731995],[-84.768549,38.73311],[-84.770091,38.733029],[-84.770692,38.734105],[-84.774763,38.73778],[-84.775708,38.739807],[-84.778946,38.742169],[-84.783496,38.741785],[-84.780766,38.765208],[-84.774887,38.765797],[-84.779441,38.768311],[-84.776449,38.769872],[-84.777225,38.771001],[-84.787605,38.763983],[-84.791601,38.76178],[-84.804139,38.756964],[-84.807348,38.754904],[-84.809855,38.755289],[-84.812842,38.754634],[-84.813841,38.755085],[-84.80645,38.767225],[-84.810503,38.765719],[-84.815306,38.767544],[-84.817307,38.769476],[-84.820727,38.76116],[-84.821989,38.759913],[-84.826373,38.758387],[-84.829879,38.75604],[-84.83478,38.751309]]]}},{"type":"Feature","properties":{"zcta5":"41052","AFFGEOID10":"8600000US41052","GEOID10":"41052","ALAND10":6990471,"AWATER10":108428,"county_name":"Owen","state_code":"KY","county_state":"Owen County, KY","county_fips":"21187","risk_level_county":"Higher Risk (60–69% vaccinated)","mean_vaccination_rate_county":63.3,"risk_level_zcta":"Medium Risk (70–79% vaccinated)","mean_vaccination_rate_zips":72.16,"cases":13},"geometry":{"type":"Polygon","coordinates":[[[-84.753669,38.685093],[-84.757447,38.686047],[-84.758858,38.685637],[-84.760435,38.682984],[-84.762802,38.682612],[-84.763998,38.684611],[-84.765274,38.685326],[-84.765147,38.686688],[-84.76789,38.690933],[-84.768966,38.694278],[-84.771066,38.6958],[-84.7721,38.695691],[-84.775331,38.693144],[-84.775916,38.690355],[-84.775741,38.688132],[-84.777279,38.686235],[-84.778612,38.686419],[-84.780851,38.689021],[-84.782298,38.689284],[-84.776476,38.637675],[-84.775193,38.639938],[-84.773395,38.639827],[-84.773306,38.641414],[-84.774622,38.643951],[-84.774063,38.64681],[-84.772708,38.647824],[-84.772214,38.65035],[-84.772236,38.652744],[-84.771493,38.653739],[-84.772277,38.658855],[-84.771986,38.660677],[-84.770259,38.663105],[-84.76838,38.664807],[-84.768603,38.66639],[-84.7676,38.668284],[-84.763829,38.668726],[-84.760371,38.668506],[-84.755749,38.670141],[-84.755247,38.671788],[-84.752967,38.673661],[-84.75265,38.675881],[-84.750944,38.67829],[-84.753255,38.682769],[-84.75181,38.683934],[-84.753669,38.685093]]]}}]}