{"type":"FeatureCollection","features":[{"type":"Feature","properties":{"zcta5":"31030","AFFGEOID10":"8600000US31030","GEOID10":"31030","ALAND10":450899974,"AWATER10":3472627,"county_name":"Peach","state_code":"GA","county_state":"Peach County, GA","county_fips":"13225","risk_level_county":"Higher Risk (60–69% vaccinated)","mean_vaccination_rate_county":66.25,"risk_level_zcta":"Very High Risk (<60% vaccinated)","mean_vaccination_rate_zips":58.94,"cases":10},"geometry":{"type":"Polygon","coordinates":[[[-84.067632,32.612113],[-84.066396,32.611157],[-84.066307,32.609355],[-84.067936,32.607658],[-84.066147,32.605037],[-84.066466,32.603189],[-84.06776,32.602662],[-84.071252,32.598264],[-84.070573,32.594022],[-84.069584,32.592034],[-84.067628,32.590311],[-84.065248,32.58954],[-84.062897,32.591188],[-84.062319,32.589368],[-84.062951,32.587592],[-84.066175,32.586319],[-84.066499,32.585057],[-84.064176,32.58419],[-84.064083,32.582977],[-84.065232,32.582054],[-84.064269,32.580661],[-84.062132,32.580226],[-84.062735,32.578432],[-84.060591,32.577319],[-84.058568,32.578097],[-84.057517,32.577528],[-84.057236,32.575718],[-84.055884,32.575719],[-84.053685,32.577078],[-84.052986,32.576409],[-84.054253,32.574119],[-84.053234,32.573265],[-84.051823,32.574708],[-84.050315,32.575189],[-84.048575,32.574329],[-84.050844,32.570714],[-84.052983,32.570307],[-84.051267,32.568846],[-84.052663,32.567315],[-84.050905,32.565292],[-84.049276,32.566159],[-84.048497,32.568023],[-84.04634,32.567532],[-84.045358,32.565269],[-84.044848,32.56163],[-84.045887,32.558276],[-84.045376,32.556255],[-84.043973,32.555348],[-84.040476,32.557695],[-84.03706,32.557068],[-84.035379,32.55849],[-84.03481,32.554645],[-84.033097,32.554339],[-84.031084,32.556077],[-84.02948,32.555104],[-84.029568,32.554121],[-84.026082,32.55048],[-84.026207,32.547494],[-84.023931,32.547835],[-84.021884,32.546901],[-84.021531,32.545007],[-84.020337,32.546442],[-84.021327,32.548527],[-84.019827,32.549782],[-84.020508,32.551375],[-84.019827,32.551907],[-84.017922,32.550658],[-84.016011,32.550254],[-84.014726,32.549196],[-84.015196,32.547826],[-84.016908,32.547783],[-84.017398,32.54606],[-84.013934,32.542597],[-84.012979,32.537749],[-84.011283,32.537587],[-84.008885,32.538598],[-84.008915,32.536575],[-84.007489,32.536696],[-84.007933,32.539578],[-84.005916,32.538987],[-84.004398,32.535127],[-84.005477,32.533738],[-84.002345,32.533223],[-84.001971,32.532472],[-84.003363,32.529927],[-84.003362,32.526885],[-84.001312,32.524075],[-84.000559,32.521544],[-84.001069,32.520586],[-84.004385,32.52098],[-84.007258,32.522967],[-84.00849,32.521769],[-84.009515,32.518324],[-84.008774,32.516513],[-84.010371,32.514972],[-84.013828,32.514899],[-84.015331,32.513737],[-84.016609,32.511741],[-84.016186,32.509878],[-84.013645,32.510737],[-84.014222,32.508642],[-84.016397,32.508208],[-84.018147,32.506406],[-83.987426,32.50609],[-83.987287,32.514336],[-83.971208,32.514248],[-83.971115,32.505927],[-83.967839,32.505899],[-83.963742,32.501907],[-83.959022,32.501024],[-83.953621,32.498663],[-83.950941,32.501632],[-83.924921,32.501472],[-83.931122,32.483745],[-83.923017,32.483264],[-83.922939,32.489075],[-83.900276,32.488878],[-83.899555,32.484178],[-83.895302,32.483651],[-83.892577,32.481977],[-83.88941,32.48229],[-83.886391,32.483665],[-83.88315,32.48382],[-83.879911,32.48308],[-83.873945,32.482847],[-83.872089,32.479014],[-83.870938,32.478561],[-83.867089,32.478223],[-83.864785,32.477533],[-83.863336,32.476494],[-83.859881,32.475454],[-83.855578,32.47526],[-83.853341,32.474781],[-83.849314,32.472702],[-83.847616,32.469437],[-83.846676,32.468514],[-83.844637,32.465817],[-83.844196,32.463867],[-83.842618,32.461267],[-83.840338,32.460199],[-83.837824,32.461123],[-83.834436,32.45989],[-83.83259,32.458658],[-83.828639,32.458163],[-83.827785,32.457557],[-83.827637,32.439148],[-83.821225,32.439391],[-83.817118,32.439876],[-83.81715,32.44671],[-83.797712,32.44699],[-83.797694,32.496568],[-83.787752,32.49653],[-83.787754,32.501638],[-83.789409,32.504688],[-83.792533,32.506273],[-83.793308,32.507441],[-83.794211,32.511257],[-83.798201,32.513033],[-83.797214,32.514315],[-83.797111,32.521194],[-83.772003,32.521143],[-83.767462,32.521994],[-83.761138,32.521882],[-83.749942,32.522122],[-83.748954,32.522278],[-83.748697,32.534157],[-83.748161,32.533394],[-83.745066,32.531855],[-83.74263,32.531802],[-83.740158,32.529373],[-83.738203,32.528399],[-83.736972,32.528812],[-83.733907,32.526775],[-83.732719,32.523114],[-83.729531,32.522247],[-83.727267,32.522405],[-83.726622,32.521219],[-83.723139,32.521122],[-83.72295,32.521057],[-83.722046,32.522573],[-83.721644,32.523843],[-83.720509,32.520857],[-83.719359,32.522129],[-83.71403,32.523047],[-83.713217,32.527301],[-83.714053,32.530267],[-83.716198,32.529969],[-83.719966,32.530827],[-83.719788,32.532505],[-83.719889,32.53257],[-83.719966,32.546544],[-83.719824,32.558059],[-83.720057,32.580909],[-83.720048,32.584121],[-83.71977,32.585947],[-83.71931,32.588904],[-83.71918,32.595823],[-83.719186,32.597774],[-83.719167,32.59839],[-83.722467,32.598996],[-83.725518,32.599106],[-83.728116,32.601362],[-83.72839,32.603113],[-83.733152,32.603144],[-83.733061,32.613524],[-83.731362,32.613438],[-83.731343,32.614925],[-83.737738,32.61504],[-83.742672,32.612533],[-83.74239,32.600875],[-83.742778,32.586514],[-83.743377,32.578149],[-83.7541,32.578211],[-83.755856,32.579017],[-83.758751,32.581453],[-83.760346,32.579977],[-83.761564,32.576185],[-83.763262,32.574365],[-83.765291,32.570265],[-83.765817,32.567878],[-83.769112,32.564351],[-83.772365,32.56333],[-83.773431,32.56214],[-83.775616,32.565133],[-83.776845,32.568064],[-83.779147,32.568953],[-83.78208,32.572301],[-83.78859,32.574375],[-83.78984,32.575224],[-83.792469,32.575502],[-83.794797,32.576386],[-83.79523,32.577855],[-83.795134,32.583437],[-83.794612,32.585509],[-83.795261,32.587242],[-83.793995,32.590308],[-83.795074,32.59211],[-83.793601,32.593249],[-83.794337,32.59463],[-83.793181,32.596353],[-83.793524,32.597262],[-83.795671,32.598266],[-83.796455,32.592036],[-83.797241,32.590072],[-83.800795,32.589427],[-83.801059,32.593808],[-83.802752,32.596452],[-83.804588,32.596545],[-83.803895,32.598356],[-83.799201,32.602387],[-83.802647,32.607633],[-83.803615,32.608598],[-83.806907,32.61038],[-83.812123,32.611114],[-83.822531,32.61101],[-83.82512,32.611141],[-83.84222,32.611185],[-83.843325,32.610771],[-83.848473,32.611106],[-83.851876,32.613379],[-83.852012,32.616272],[-83.852929,32.622104],[-83.8508,32.623448],[-83.838524,32.623432],[-83.839246,32.627088],[-83.823576,32.627041],[-83.825087,32.630488],[-83.827321,32.631532],[-83.826813,32.633197],[-83.828518,32.633702],[-83.829737,32.635205],[-83.829724,32.636364],[-83.831431,32.637931],[-83.833819,32.638343],[-83.834935,32.640693],[-83.835936,32.641454],[-83.835998,32.644149],[-83.837234,32.644141],[-83.851494,32.634385],[-83.851167,32.657816],[-83.860797,32.657862],[-83.860917,32.673983],[-83.856265,32.675845],[-83.85,32.68022],[-83.845785,32.680589],[-83.84595,32.687332],[-83.847428,32.690944],[-83.848816,32.692234],[-83.851952,32.693575],[-83.853627,32.69054],[-83.865672,32.696773],[-83.866461,32.696356],[-83.867633,32.697694],[-83.871674,32.699702],[-83.878978,32.703436],[-83.880302,32.703136],[-83.887119,32.703601],[-83.888989,32.702577],[-83.894179,32.701941],[-83.896593,32.701027],[-83.899774,32.701717],[-83.901619,32.701717],[-83.904915,32.699778],[-83.904975,32.69865],[-83.906733,32.697016],[-83.908396,32.696448],[-83.91159,32.696583],[-83.914168,32.696202],[-83.915106,32.695488],[-83.917944,32.69575],[-83.919432,32.695216],[-83.918735,32.693331],[-83.918242,32.686818],[-83.916504,32.684224],[-83.914447,32.683221],[-83.917251,32.682097],[-83.919633,32.681969],[-83.924721,32.68256],[-83.927669,32.681739],[-83.932564,32.683031],[-83.935442,32.683532],[-83.938331,32.682578],[-83.944044,32.68214],[-83.945327,32.681639],[-83.94508,32.679836],[-83.94645,32.67769],[-83.946978,32.675743],[-83.945943,32.67398],[-83.946657,32.669542],[-83.946571,32.668103],[-83.947986,32.667211],[-83.9475,32.66524],[-83.945185,32.662014],[-83.946285,32.66095],[-83.945135,32.658249],[-83.945424,32.656128],[-83.948388,32.655442],[-83.950853,32.656092],[-83.951718,32.653879],[-83.950898,32.651756],[-83.945789,32.645313],[-83.94441,32.641823],[-83.943554,32.634584],[-83.944015,32.62635],[-83.94779,32.62626],[-83.951335,32.624603],[-83.956734,32.622672],[-83.963581,32.619776],[-83.966008,32.619518],[-83.967917,32.616568],[-83.968114,32.611873],[-83.976563,32.612062],[-83.980527,32.617238],[-83.981373,32.619635],[-83.98451,32.62595],[-84.067632,32.612113]]]}},{"type":"Feature","properties":{"zcta5":"31069","AFFGEOID10":"8600000US31069","GEOID10":"31069","ALAND10":249797383,"AWATER10":2390024,"county_name":"Peach","state_code":"GA","county_state":"Peach County, GA","county_fips":"13225","risk_level_county":"Higher Risk (60–69% vaccinated)","mean_vaccination_rate_county":66.25,"risk_level_zcta":"Higher Risk (60–69% vaccinated)","mean_vaccination_rate_zips":68.58,"cases":10},"geometry":{"type":"Polygon","coordinates":[[[-83.846676,32.468514],[-83.846203,32.439385],[-83.836673,32.439308],[-83.837041,32.382195],[-83.85654,32.382399],[-83.856851,32.375154],[-83.856593,32.369587],[-83.856587,32.357774],[-83.846831,32.357738],[-83.846896,32.360214],[-83.844637,32.362281],[-83.841331,32.362204],[-83.839722,32.3613],[-83.841757,32.359834],[-83.840001,32.357858],[-83.833669,32.357751],[-83.836722,32.354809],[-83.8376,32.353453],[-83.838701,32.349325],[-83.830563,32.349207],[-83.822115,32.348184],[-83.817313,32.346704],[-83.818327,32.344614],[-83.817851,32.343504],[-83.815247,32.342965],[-83.814355,32.344434],[-83.812159,32.344872],[-83.806022,32.34259],[-83.801359,32.34189],[-83.798712,32.341883],[-83.793552,32.340927],[-83.787481,32.341662],[-83.781013,32.341578],[-83.770851,32.340471],[-83.770229,32.341336],[-83.770003,32.337367],[-83.767519,32.336705],[-83.768421,32.342529],[-83.768515,32.345424],[-83.767938,32.378634],[-83.768073,32.384711],[-83.766586,32.393563],[-83.763352,32.410662],[-83.762567,32.413924],[-83.760934,32.418716],[-83.757508,32.416984],[-83.755161,32.416702],[-83.748358,32.416766],[-83.738504,32.418155],[-83.736613,32.419027],[-83.735058,32.421236],[-83.733504,32.422248],[-83.732558,32.422476],[-83.730177,32.419235],[-83.728385,32.41527],[-83.728054,32.413113],[-83.728452,32.411279],[-83.727095,32.411268],[-83.721834,32.40981],[-83.718305,32.407687],[-83.714828,32.406312],[-83.709305,32.407249],[-83.707773,32.407088],[-83.708052,32.405084],[-83.707176,32.403497],[-83.703172,32.401018],[-83.700974,32.401228],[-83.69873,32.399828],[-83.696017,32.399293],[-83.693205,32.400312],[-83.687839,32.400422],[-83.682637,32.400253],[-83.681216,32.399411],[-83.678962,32.399372],[-83.675861,32.397947],[-83.673504,32.399774],[-83.672002,32.399617],[-83.668864,32.399318],[-83.669543,32.397242],[-83.667408,32.395752],[-83.665107,32.396369],[-83.658098,32.399318],[-83.645067,32.404303],[-83.644227,32.402777],[-83.641419,32.403678],[-83.639862,32.405059],[-83.636759,32.406756],[-83.635638,32.409621],[-83.634722,32.409965],[-83.636343,32.411757],[-83.635453,32.413308],[-83.630043,32.428063],[-83.620363,32.454358],[-83.624029,32.451017],[-83.624724,32.45412],[-83.625932,32.455893],[-83.627499,32.456739],[-83.627864,32.458326],[-83.6294,32.459618],[-83.632088,32.463413],[-83.632568,32.465555],[-83.634516,32.468055],[-83.639633,32.47231],[-83.640246,32.473894],[-83.640891,32.477853],[-83.642235,32.478603],[-83.644509,32.47878],[-83.647608,32.480175],[-83.651473,32.483649],[-83.654578,32.484766],[-83.65534,32.486201],[-83.657076,32.486213],[-83.657789,32.487329],[-83.660972,32.488991],[-83.667757,32.484679],[-83.668205,32.484992],[-83.661271,32.489654],[-83.661292,32.490381],[-83.662287,32.492199],[-83.665001,32.494504],[-83.665511,32.497059],[-83.666647,32.497629],[-83.666514,32.498553],[-83.668162,32.500721],[-83.671797,32.500475],[-83.674026,32.501969],[-83.677367,32.502724],[-83.678377,32.502191],[-83.682398,32.502795],[-83.682893,32.503599],[-83.687878,32.505443],[-83.690526,32.507239],[-83.692775,32.510008],[-83.691882,32.512121],[-83.687793,32.51294],[-83.688527,32.517027],[-83.691046,32.517479],[-83.691099,32.525548],[-83.693814,32.525672],[-83.693957,32.52465],[-83.700306,32.524725],[-83.700383,32.530501],[-83.701128,32.530468],[-83.702097,32.527419],[-83.705895,32.527414],[-83.705504,32.530451],[-83.70869,32.530473],[-83.712911,32.530524],[-83.714053,32.530267],[-83.713217,32.527301],[-83.71403,32.523047],[-83.719359,32.522129],[-83.720509,32.520857],[-83.721644,32.523843],[-83.722046,32.522573],[-83.72295,32.521057],[-83.723139,32.521122],[-83.726622,32.521219],[-83.727267,32.522405],[-83.729531,32.522247],[-83.732719,32.523114],[-83.733907,32.526775],[-83.736972,32.528812],[-83.738203,32.528399],[-83.740158,32.529373],[-83.74263,32.531802],[-83.745066,32.531855],[-83.748161,32.533394],[-83.748697,32.534157],[-83.748954,32.522278],[-83.749942,32.522122],[-83.761138,32.521882],[-83.767462,32.521994],[-83.772003,32.521143],[-83.797111,32.521194],[-83.797214,32.514315],[-83.798201,32.513033],[-83.794211,32.511257],[-83.793308,32.507441],[-83.792533,32.506273],[-83.789409,32.504688],[-83.787754,32.501638],[-83.787752,32.49653],[-83.797694,32.496568],[-83.797712,32.44699],[-83.81715,32.44671],[-83.817118,32.439876],[-83.821225,32.439391],[-83.827637,32.439148],[-83.827785,32.457557],[-83.828639,32.458163],[-83.83259,32.458658],[-83.834436,32.45989],[-83.837824,32.461123],[-83.840338,32.460199],[-83.842618,32.461267],[-83.844196,32.463867],[-83.844637,32.465817],[-83.846676,32.468514]]]}},{"type":"Feature","properties":{"zcta5":"31008","AFFGEOID10":"8600000US31008","GEOID10":"31008","ALAND10":180757848,"AWATER10":974229,"county_name":"Peach","state_code":"GA","county_state":"Peach County, GA","county_fips":"13225","risk_level_county":"Higher Risk (60–69% vaccinated)","mean_vaccination_rate_county":66.25,"risk_level_zcta":"Higher Risk (60–69% vaccinated)","mean_vaccination_rate_zips":65.4,"cases":10},"geometry":{"type":"Polygon","coordinates":[[[-83.776874,32.718809],[-83.778478,32.719416],[-83.77998,32.721169],[-83.785923,32.720433],[-83.787632,32.723314],[-83.791253,32.724898],[-83.794442,32.725596],[-83.79487,32.724943],[-83.797607,32.725836],[-83.799045,32.724984],[-83.80213,32.727696],[-83.804721,32.72929],[-83.808267,32.728682],[-83.810141,32.729942],[-83.810325,32.731049],[-83.809161,32.731231],[-83.810475,32.731399],[-83.81382,32.729859],[-83.819719,32.72856],[-83.821491,32.725828],[-83.823935,32.724792],[-83.826232,32.722732],[-83.827534,32.72223],[-83.830913,32.723119],[-83.831244,32.724315],[-83.834567,32.726136],[-83.836331,32.726682],[-83.841681,32.727128],[-83.844687,32.726157],[-83.848593,32.727833],[-83.853024,32.728394],[-83.855688,32.717801],[-83.861893,32.717774],[-83.862561,32.714157],[-83.866503,32.710055],[-83.866444,32.708485],[-83.862555,32.706074],[-83.866144,32.702631],[-83.86962,32.702414],[-83.871674,32.699702],[-83.867633,32.697694],[-83.866461,32.696356],[-83.865672,32.696773],[-83.853627,32.69054],[-83.851952,32.693575],[-83.848816,32.692234],[-83.847428,32.690944],[-83.84595,32.687332],[-83.845785,32.680589],[-83.85,32.68022],[-83.856265,32.675845],[-83.860917,32.673983],[-83.860797,32.657862],[-83.851167,32.657816],[-83.851494,32.634385],[-83.837234,32.644141],[-83.835998,32.644149],[-83.835936,32.641454],[-83.834935,32.640693],[-83.833819,32.638343],[-83.831431,32.637931],[-83.829724,32.636364],[-83.829737,32.635205],[-83.828518,32.633702],[-83.826813,32.633197],[-83.827321,32.631532],[-83.825087,32.630488],[-83.823576,32.627041],[-83.839246,32.627088],[-83.838524,32.623432],[-83.8508,32.623448],[-83.852929,32.622104],[-83.852012,32.616272],[-83.851876,32.613379],[-83.848473,32.611106],[-83.843325,32.610771],[-83.84222,32.611185],[-83.82512,32.611141],[-83.822531,32.61101],[-83.812123,32.611114],[-83.806907,32.61038],[-83.803615,32.608598],[-83.802647,32.607633],[-83.799201,32.602387],[-83.803895,32.598356],[-83.804588,32.596545],[-83.802752,32.596452],[-83.801059,32.593808],[-83.800795,32.589427],[-83.797241,32.590072],[-83.796455,32.592036],[-83.795671,32.598266],[-83.793524,32.597262],[-83.793181,32.596353],[-83.794337,32.59463],[-83.793601,32.593249],[-83.795074,32.59211],[-83.793995,32.590308],[-83.795261,32.587242],[-83.794612,32.585509],[-83.795134,32.583437],[-83.79523,32.577855],[-83.794797,32.576386],[-83.792469,32.575502],[-83.78984,32.575224],[-83.78859,32.574375],[-83.78208,32.572301],[-83.779147,32.568953],[-83.776845,32.568064],[-83.775616,32.565133],[-83.773431,32.56214],[-83.772365,32.56333],[-83.769112,32.564351],[-83.765817,32.567878],[-83.765291,32.570265],[-83.763262,32.574365],[-83.761564,32.576185],[-83.760346,32.579977],[-83.758751,32.581453],[-83.755856,32.579017],[-83.7541,32.578211],[-83.743377,32.578149],[-83.742778,32.586514],[-83.74239,32.600875],[-83.742672,32.612533],[-83.737738,32.61504],[-83.731343,32.614925],[-83.731362,32.613438],[-83.733061,32.613524],[-83.733152,32.603144],[-83.72839,32.603113],[-83.728116,32.601362],[-83.725518,32.599106],[-83.722467,32.598996],[-83.719167,32.59839],[-83.719186,32.597774],[-83.71918,32.595823],[-83.717209,32.595805],[-83.715158,32.598914],[-83.715356,32.602139],[-83.714927,32.602618],[-83.714281,32.603583],[-83.71399,32.60449],[-83.711821,32.602749],[-83.709355,32.603191],[-83.70854,32.60389],[-83.708409,32.605704],[-83.707723,32.606205],[-83.71299,32.609411],[-83.710888,32.614438],[-83.705013,32.614634],[-83.703289,32.614904],[-83.703887,32.616373],[-83.707284,32.617246],[-83.706035,32.619875],[-83.708123,32.619978],[-83.709078,32.618687],[-83.709061,32.621217],[-83.704656,32.621274],[-83.703226,32.622121],[-83.704405,32.624868],[-83.706232,32.624969],[-83.707251,32.626722],[-83.706796,32.631832],[-83.708974,32.631788],[-83.708957,32.632962],[-83.709152,32.651304],[-83.709006,32.661409],[-83.703955,32.661528],[-83.703627,32.662912],[-83.708745,32.662962],[-83.708527,32.671957],[-83.707589,32.674568],[-83.704581,32.676859],[-83.703536,32.677877],[-83.701673,32.676135],[-83.698194,32.678373],[-83.697406,32.68001],[-83.698692,32.682091],[-83.688346,32.686732],[-83.69018,32.686991],[-83.691757,32.688485],[-83.696196,32.688515],[-83.69778,32.689148],[-83.697845,32.690255],[-83.701029,32.692159],[-83.701152,32.692169],[-83.701683,32.69176],[-83.705136,32.692362],[-83.706808,32.691791],[-83.707242,32.693289],[-83.709211,32.692993],[-83.709767,32.691888],[-83.711434,32.692423],[-83.717698,32.693015],[-83.720415,32.69248],[-83.722063,32.694665],[-83.722388,32.693658],[-83.724176,32.694356],[-83.725429,32.693709],[-83.726577,32.69468],[-83.726677,32.696241],[-83.729715,32.69719],[-83.731482,32.695589],[-83.735156,32.694868],[-83.735296,32.693952],[-83.737204,32.693902],[-83.738824,32.694644],[-83.740055,32.696525],[-83.742229,32.696998],[-83.743405,32.697969],[-83.745649,32.701055],[-83.745877,32.702449],[-83.747181,32.70296],[-83.747208,32.705271],[-83.748954,32.705601],[-83.751369,32.704115],[-83.752361,32.706199],[-83.752936,32.704961],[-83.754363,32.705729],[-83.754155,32.707067],[-83.755962,32.707162],[-83.755736,32.708427],[-83.758518,32.710899],[-83.759049,32.712772],[-83.760587,32.71378],[-83.761931,32.713239],[-83.762357,32.714117],[-83.769027,32.714143],[-83.769577,32.715041],[-83.771823,32.714323],[-83.774339,32.715173],[-83.774423,32.716845],[-83.776874,32.718809]],[[-83.707867,32.624775],[-83.706096,32.624699],[-83.705393,32.621705],[-83.706368,32.621525],[-83.707706,32.621828],[-83.707867,32.624775]]]}}]}