{"type":"FeatureCollection","features":[{"type":"Feature","properties":{"zcta5":"59032","AFFGEOID10":"8600000US59032","GEOID10":"59032","ALAND10":1093484576,"AWATER10":1651942,"county_name":"Petroleum","state_code":"MT","county_state":"Petroleum County, MT","county_fips":"30069","risk_level_county":"Lowest Risk (85%+)","mean_vaccination_rate_county":85.6,"risk_level_zcta":"Lowest Risk (85%+)","mean_vaccination_rate_zips":93.63,"cases":5},"geometry":{"type":"Polygon","coordinates":[[[-108.800144,47.202148],[-108.799998,47.156847],[-108.802526,47.158663],[-108.862893,47.158736],[-108.865524,47.158151],[-108.869601,47.158286],[-108.874353,47.157934],[-108.877485,47.15839],[-108.883014,47.160451],[-108.888321,47.160955],[-108.899219,47.161052],[-108.904572,47.160106],[-108.907572,47.160598],[-108.913117,47.160708],[-108.914465,47.159451],[-108.914189,47.157046],[-108.922024,47.157036],[-108.949711,47.157445],[-108.949635,47.164415],[-108.951572,47.164398],[-108.951576,47.16707],[-108.989895,47.167192],[-108.988943,47.148932],[-108.982176,47.148893],[-108.98187,47.14355],[-108.96355,47.143399],[-108.963337,47.139695],[-108.963715,47.135432],[-108.96006,47.135477],[-108.959936,47.128214],[-108.970796,47.128104],[-108.970754,47.131725],[-108.977327,47.131496],[-108.977359,47.1375],[-108.986968,47.13751],[-108.986984,47.129415],[-108.997879,47.129415],[-108.997872,47.120808],[-109.008749,47.120795],[-109.008723,47.111861],[-108.994362,47.111877],[-108.992184,47.111158],[-108.992093,47.103046],[-108.99187,47.098172],[-108.992248,47.096016],[-108.991851,47.093414],[-108.991778,47.07786],[-108.992224,47.069018],[-108.991886,47.061853],[-109.000037,47.061822],[-109.00131,47.060356],[-108.996473,47.058698],[-108.993969,47.058337],[-108.990414,47.058734],[-108.989812,47.058005],[-108.986297,47.058977],[-108.9849,47.057996],[-108.984918,47.059427],[-108.979524,47.058513],[-108.978206,47.055876],[-108.975364,47.056416],[-108.975414,47.055138],[-108.969232,47.053953],[-108.954877,47.048503],[-108.95161,47.047963],[-108.935369,47.047996],[-108.936591,47.045213],[-108.906493,47.045226],[-108.906448,47.030169],[-108.906041,47.028006],[-108.907387,47.026417],[-108.906493,47.022731],[-108.906663,47.001083],[-108.906046,47.000468],[-108.902377,46.999697],[-108.898784,46.998262],[-108.898097,46.996634],[-108.899835,46.994197],[-108.898039,46.992773],[-108.900561,46.992476],[-108.900895,46.991511],[-108.896241,46.990473],[-108.895468,46.988774],[-108.891235,46.989077],[-108.887941,46.990129],[-108.881936,46.994191],[-108.879701,46.99502],[-108.87416,46.996132],[-108.870866,46.997484],[-108.868257,46.999247],[-108.856494,47.004854],[-108.855183,47.005787],[-108.854626,47.007536],[-108.849512,47.009937],[-108.8435,47.011661],[-108.835545,47.012229],[-108.829598,47.014502],[-108.817282,47.020666],[-108.814616,47.019468],[-108.812415,47.019227],[-108.811928,47.016997],[-108.814736,47.014976],[-108.815938,47.010246],[-108.82007,47.006944],[-108.820504,47.000007],[-108.820321,46.99803],[-108.822098,46.995381],[-108.823071,46.992341],[-108.823342,46.988712],[-108.822343,46.985294],[-108.822563,46.965079],[-108.823744,46.96296],[-108.822619,46.960988],[-108.822691,46.949681],[-108.826307,46.949003],[-108.829322,46.949439],[-108.83093,46.948927],[-108.836053,46.94874],[-108.840776,46.947341],[-108.850654,46.945958],[-108.850637,46.942954],[-108.848998,46.941004],[-108.846492,46.940466],[-108.844918,46.938669],[-108.840473,46.935992],[-108.840731,46.933482],[-108.840092,46.931688],[-108.844256,46.926874],[-108.846048,46.923106],[-108.848128,46.921217],[-108.849977,46.917845],[-108.854331,46.912972],[-108.858021,46.90819],[-108.861601,46.905451],[-108.865196,46.901784],[-108.875362,46.89385],[-108.876018,46.892893],[-108.87614,46.874855],[-108.876597,46.872213],[-108.875538,46.868476],[-108.875983,46.866328],[-108.876116,46.840606],[-108.876523,46.835458],[-108.872896,46.830106],[-108.870806,46.828934],[-108.867534,46.828432],[-108.864645,46.828786],[-108.862116,46.828146],[-108.84284,46.82232],[-108.84023,46.820828],[-108.836647,46.81624],[-108.827555,46.807577],[-108.824376,46.805335],[-108.818685,46.803355],[-108.815131,46.802483],[-108.802156,46.800544],[-108.779171,46.794177],[-108.776134,46.793139],[-108.757487,46.784181],[-108.758169,46.780873],[-108.755186,46.778239],[-108.756447,46.778289],[-108.756432,46.776885],[-108.754693,46.776265],[-108.754503,46.775085],[-108.752107,46.775764],[-108.749899,46.773951],[-108.747392,46.773722],[-108.746971,46.776141],[-108.748098,46.776875],[-108.74739,46.779223],[-108.744699,46.778314],[-108.743447,46.779663],[-108.742959,46.778347],[-108.741073,46.776928],[-108.743866,46.775835],[-108.741479,46.775156],[-108.74273,46.773423],[-108.740631,46.77361],[-108.740941,46.772552],[-108.738435,46.771917],[-108.736959,46.772592],[-108.737391,46.774045],[-108.734167,46.77499],[-108.729736,46.773505],[-108.726575,46.774159],[-108.722488,46.773294],[-108.720733,46.774068],[-108.720685,46.775576],[-108.717707,46.774299],[-108.714196,46.775133],[-108.711841,46.773807],[-108.710368,46.774423],[-108.714566,46.767872],[-108.715107,46.763373],[-108.715731,46.762343],[-108.715023,46.76035],[-108.715769,46.757725],[-108.715592,46.749466],[-108.631016,46.749386],[-108.631451,46.749969],[-108.630689,46.836807],[-108.611116,46.836776],[-108.610663,46.852503],[-108.610902,46.85478],[-108.610217,46.906071],[-108.608954,47.098126],[-108.619971,47.098061],[-108.614669,47.100636],[-108.61249,47.1012],[-108.608788,47.100994],[-108.602705,47.101215],[-108.598741,47.101857],[-108.590148,47.101934],[-108.588369,47.100966],[-108.588239,47.104788],[-108.588017,47.170165],[-108.587313,47.1714],[-108.589841,47.176403],[-108.597518,47.184022],[-108.596744,47.187471],[-108.595069,47.191752],[-108.591159,47.194365],[-108.591055,47.216627],[-108.590192,47.218378],[-108.590993,47.222064],[-108.585694,47.220182],[-108.582854,47.219973],[-108.57813,47.221046],[-108.574097,47.221242],[-108.572023,47.222185],[-108.568753,47.222173],[-108.56289,47.221346],[-108.558124,47.222328],[-108.554912,47.223911],[-108.552976,47.225613],[-108.546521,47.225054],[-108.540891,47.223946],[-108.534685,47.225597],[-108.527158,47.226067],[-108.527242,47.241009],[-108.542384,47.2411],[-108.543084,47.24219],[-108.548399,47.243636],[-108.548769,47.247456],[-108.550638,47.247256],[-108.550676,47.248698],[-108.553776,47.248567],[-108.555105,47.249302],[-108.555717,47.247712],[-108.55736,47.248238],[-108.558173,47.24741],[-108.559639,47.248781],[-108.558944,47.250224],[-108.561673,47.250937],[-108.562455,47.25023],[-108.562672,47.251398],[-108.564637,47.251935],[-108.56512,47.252977],[-108.567021,47.252966],[-108.567303,47.254221],[-108.569695,47.254967],[-108.56951,47.25568],[-108.565274,47.256486],[-108.566272,47.25812],[-108.569679,47.259556],[-108.570235,47.258301],[-108.57154,47.258503],[-108.574069,47.260812],[-108.575914,47.261606],[-108.577065,47.260389],[-108.577885,47.262749],[-108.577507,47.263934],[-108.57865,47.263561],[-108.578298,47.261469],[-108.580481,47.261765],[-108.581118,47.264764],[-108.582987,47.264056],[-108.583382,47.26591],[-108.584171,47.264248],[-108.586974,47.264631],[-108.588723,47.266331],[-108.59101,47.264811],[-108.592967,47.264871],[-108.593602,47.262941],[-108.59498,47.263489],[-108.595158,47.264914],[-108.593959,47.265946],[-108.596472,47.266109],[-108.596963,47.264815],[-108.599275,47.265149],[-108.598059,47.266608],[-108.599873,47.268472],[-108.600526,47.270168],[-108.719189,47.270342],[-108.719282,47.184275],[-108.724854,47.184286],[-108.723374,47.183374],[-108.736077,47.183414],[-108.736394,47.184423],[-108.736988,47.204305],[-108.792515,47.203725],[-108.793435,47.203007],[-108.795575,47.203369],[-108.79741,47.202377],[-108.796894,47.20372],[-108.798367,47.203638],[-108.798118,47.202136],[-108.800144,47.202148]]]}},{"type":"Feature","properties":{"zcta5":"59058","AFFGEOID10":"8600000US59058","GEOID10":"59058","ALAND10":1026238904,"AWATER10":4466732,"county_name":"Petroleum","state_code":"MT","county_state":"Petroleum County, MT","county_fips":"30069","risk_level_county":"Lowest Risk (85%+)","mean_vaccination_rate_county":85.6,"risk_level_zcta":"Uninhabited","mean_vaccination_rate_zips":null,"cases":5},"geometry":{"type":"Polygon","coordinates":[[[-107.920154,47.443943],[-107.918077,47.443687],[-107.913795,47.441732],[-107.915091,47.440166],[-107.916692,47.439407],[-107.92016,47.440012],[-107.920308,47.438341],[-107.91833,47.437399],[-107.917895,47.435157],[-107.916474,47.433469],[-107.913896,47.434547],[-107.912206,47.434347],[-107.909933,47.428984],[-107.910756,47.427879],[-107.913152,47.426908],[-107.913535,47.425084],[-107.911116,47.422787],[-107.909202,47.421566],[-107.908814,47.419173],[-107.912235,47.416878],[-107.91497,47.416648],[-107.918274,47.418277],[-107.919401,47.418003],[-107.920572,47.416167],[-107.919789,47.414884],[-107.91737,47.413312],[-107.914884,47.412898],[-107.911509,47.414771],[-107.909258,47.414182],[-107.908713,47.412635],[-107.909277,47.411348],[-107.911625,47.410171],[-107.91239,47.408402],[-107.911272,47.407315],[-107.909205,47.401687],[-107.912568,47.402424],[-107.91551,47.400747],[-107.915684,47.398182],[-107.916927,47.397286],[-107.921693,47.397309],[-107.924631,47.396789],[-107.926655,47.395009],[-107.927279,47.392787],[-107.924714,47.389561],[-107.923124,47.38853],[-107.924801,47.386678],[-107.928158,47.386342],[-107.931771,47.388676],[-107.934366,47.388689],[-107.936299,47.386617],[-107.937008,47.383804],[-107.934537,47.382867],[-107.931399,47.38345],[-107.930321,47.382606],[-107.93025,47.380279],[-107.929438,47.377577],[-107.930683,47.376546],[-107.936739,47.377275],[-107.942414,47.377486],[-107.943516,47.376898],[-107.943537,47.375046],[-107.942423,47.373849],[-107.939514,47.37381],[-107.938239,47.372802],[-107.938562,47.371263],[-107.942423,47.371573],[-107.943592,47.37092],[-107.942939,47.369661],[-107.939112,47.369119],[-107.939077,47.368092],[-107.940756,47.366843],[-107.948414,47.364358],[-107.951485,47.362681],[-107.956624,47.360943],[-107.957571,47.360019],[-107.955753,47.358973],[-107.953125,47.358849],[-107.95083,47.355899],[-107.952251,47.354369],[-107.9536,47.354298],[-107.957182,47.355307],[-107.963887,47.354012],[-107.962329,47.352184],[-107.961839,47.349835],[-107.960391,47.348789],[-107.957875,47.348376],[-107.955148,47.347336],[-107.951491,47.343248],[-107.951002,47.340876],[-107.952806,47.340945],[-107.955891,47.342102],[-107.956761,47.341534],[-107.955346,47.338257],[-107.955314,47.337074],[-107.956698,47.334639],[-107.960306,47.334709],[-107.961743,47.333813],[-107.961625,47.332228],[-107.963887,47.328911],[-107.963548,47.328126],[-107.960967,47.326619],[-107.957123,47.32679],[-107.95329,47.32656],[-107.951894,47.326029],[-107.952544,47.325123],[-107.955943,47.323853],[-107.957176,47.322663],[-107.956915,47.321478],[-107.957918,47.319706],[-107.956295,47.316828],[-107.954599,47.316471],[-107.953316,47.317748],[-107.955178,47.320294],[-107.955329,47.32188],[-107.954354,47.32267],[-107.952452,47.322645],[-107.952336,47.32097],[-107.950725,47.319966],[-107.948743,47.32043],[-107.944517,47.320195],[-107.943848,47.320632],[-107.944692,47.323165],[-107.943497,47.323662],[-107.942044,47.321701],[-107.937613,47.320637],[-107.935098,47.319221],[-107.934961,47.318369],[-107.939571,47.317629],[-107.942466,47.31604],[-107.944989,47.31527],[-107.949464,47.315956],[-107.953761,47.313715],[-107.955949,47.310666],[-107.957224,47.30631],[-107.956801,47.303871],[-107.953581,47.302981],[-107.952435,47.301776],[-107.947774,47.302992],[-107.94612,47.302367],[-107.94611,47.300448],[-107.949788,47.299159],[-107.950087,47.294545],[-107.951958,47.294458],[-107.953353,47.296128],[-107.95489,47.296282],[-107.957238,47.2956],[-107.961363,47.293318],[-107.960776,47.291207],[-107.961354,47.290501],[-107.964406,47.28927],[-107.962617,47.28764],[-107.960454,47.288726],[-107.956891,47.289459],[-107.951043,47.287596],[-107.948724,47.286181],[-107.946925,47.283748],[-107.947244,47.282926],[-107.951466,47.284299],[-107.956223,47.284252],[-107.956979,47.283012],[-107.962079,47.280629],[-107.962492,47.27794],[-107.963852,47.277139],[-107.964473,47.275385],[-107.963422,47.274609],[-107.960312,47.27436],[-107.957049,47.275169],[-107.95413,47.274631],[-107.952758,47.273489],[-107.953131,47.269043],[-107.951784,47.267028],[-107.955325,47.267159],[-107.956247,47.268024],[-107.955017,47.270378],[-107.955204,47.271317],[-107.956911,47.271465],[-107.95676,47.26932],[-107.957976,47.268463],[-107.960579,47.268269],[-107.96302,47.266264],[-107.963265,47.264124],[-107.961262,47.26156],[-107.958158,47.261102],[-107.955275,47.2594],[-107.948843,47.259916],[-107.947585,47.259088],[-107.948408,47.25702],[-107.950316,47.255548],[-107.951625,47.253568],[-107.95286,47.253107],[-107.955039,47.253843],[-107.956527,47.256234],[-107.958492,47.256968],[-107.961265,47.257192],[-107.962474,47.256605],[-107.966274,47.253016],[-107.968626,47.249823],[-107.968015,47.248754],[-107.965419,47.247721],[-107.963305,47.247958],[-107.961886,47.247321],[-107.960178,47.244074],[-107.958827,47.244326],[-107.956175,47.246246],[-107.953791,47.246297],[-107.952236,47.244113],[-107.94905,47.243383],[-107.948523,47.240485],[-107.949512,47.237982],[-107.952237,47.237748],[-107.955106,47.239929],[-107.956471,47.24026],[-107.958988,47.239815],[-107.961768,47.237668],[-107.960001,47.236459],[-107.96065,47.235157],[-107.958551,47.233798],[-107.956114,47.233557],[-107.955371,47.232882],[-107.955617,47.2286],[-107.956592,47.227636],[-107.958553,47.227371],[-107.959877,47.228054],[-107.960177,47.230346],[-107.961296,47.231796],[-107.964507,47.231631],[-107.964662,47.230489],[-107.961083,47.225429],[-107.957708,47.224926],[-107.952617,47.223589],[-107.95141,47.224155],[-107.951571,47.228088],[-107.949668,47.228416],[-107.945663,47.22439],[-107.94322,47.223422],[-107.943255,47.222194],[-107.94688,47.221411],[-107.9473,47.220605],[-107.94608,47.219507],[-107.938909,47.217309],[-107.937383,47.216248],[-107.937409,47.214335],[-107.938896,47.211485],[-107.939901,47.208441],[-107.938975,47.206702],[-107.939016,47.204918],[-107.9437,47.203771],[-107.944812,47.202268],[-107.943891,47.199343],[-107.945782,47.199348],[-107.945894,47.200764],[-107.947719,47.200976],[-107.947098,47.19818],[-107.949717,47.1973],[-107.9514,47.195056],[-107.949315,47.194321],[-107.947384,47.195667],[-107.944491,47.195482],[-107.94336,47.19449],[-107.943645,47.193079],[-107.942639,47.192026],[-107.939515,47.19346],[-107.936356,47.194041],[-107.93392,47.193821],[-107.932296,47.193029],[-107.93153,47.191084],[-107.932103,47.19026],[-107.936069,47.19114],[-107.939464,47.190064],[-107.939705,47.189032],[-107.937811,47.18807],[-107.93322,47.18755],[-107.931837,47.186824],[-107.931514,47.185385],[-107.934208,47.182967],[-107.938586,47.182465],[-107.939043,47.181431],[-107.936933,47.179489],[-107.934818,47.176735],[-107.931809,47.177402],[-107.930991,47.178329],[-107.931951,47.180877],[-107.93143,47.183054],[-107.929934,47.183075],[-107.926304,47.180966],[-107.923137,47.179737],[-107.923007,47.178966],[-107.927058,47.176088],[-107.930134,47.175236],[-107.934118,47.173543],[-107.934052,47.172669],[-107.929521,47.171172],[-107.928398,47.16891],[-107.928668,47.16804],[-107.932314,47.165386],[-107.938132,47.166693],[-107.939379,47.167832],[-107.939249,47.169162],[-107.941861,47.171652],[-107.943442,47.171819],[-107.945391,47.170868],[-107.946253,47.169548],[-107.945443,47.165918],[-107.944255,47.16482],[-107.939083,47.162317],[-107.93823,47.161244],[-107.940249,47.160003],[-107.939418,47.157121],[-107.937232,47.154699],[-107.937021,47.153573],[-107.939003,47.152539],[-107.941273,47.153312],[-107.942255,47.156037],[-107.944342,47.157646],[-107.944378,47.158499],[-107.942466,47.160283],[-107.94311,47.161227],[-107.943886,47.161195],[-107.945372,47.158949],[-107.947939,47.158755],[-107.950304,47.161324],[-107.954145,47.159296],[-107.955055,47.157332],[-107.948833,47.153172],[-107.948157,47.15231],[-107.949527,47.150269],[-107.949136,47.149037],[-107.947551,47.147996],[-107.942819,47.147121],[-107.938723,47.145443],[-107.938512,47.142216],[-107.939805,47.140757],[-107.94262,47.140379],[-107.94656,47.14116],[-107.95251,47.14097],[-107.955589,47.13993],[-107.956418,47.138652],[-107.955623,47.137705],[-107.952287,47.138138],[-107.950461,47.137492],[-107.948669,47.13784],[-107.947471,47.139176],[-107.943649,47.139763],[-107.941057,47.139253],[-107.942163,47.137659],[-107.942885,47.134434],[-107.944294,47.133142],[-107.948611,47.131433],[-107.953001,47.130348],[-107.953543,47.131624],[-107.95164,47.133117],[-107.952393,47.134479],[-107.954144,47.135064],[-107.956138,47.134613],[-107.957081,47.133648],[-107.955978,47.129639],[-107.95615,47.127874],[-107.957963,47.126338],[-107.96045,47.126725],[-107.960582,47.125333],[-107.956562,47.123116],[-107.954347,47.120652],[-107.94977,47.119842],[-107.947468,47.121454],[-107.945508,47.121781],[-107.942318,47.120427],[-107.94086,47.119201],[-107.938011,47.115543],[-107.933227,47.116495],[-107.930961,47.114885],[-107.931772,47.111152],[-107.932693,47.109875],[-107.935019,47.113672],[-107.93771,47.114395],[-107.93905,47.11405],[-107.937943,47.112651],[-107.938691,47.111039],[-107.942086,47.109525],[-107.944292,47.109139],[-107.948597,47.110903],[-107.950712,47.11116],[-107.953444,47.108701],[-107.953554,47.107018],[-107.948926,47.107954],[-107.946651,47.107632],[-107.942391,47.106409],[-107.937739,47.104016],[-107.93841,47.100822],[-107.937805,47.099649],[-107.935517,47.098744],[-107.934089,47.09756],[-107.933498,47.095888],[-107.934171,47.093734],[-107.93296,47.089328],[-107.934856,47.087188],[-107.93753,47.086401],[-107.941827,47.087057],[-107.943769,47.086251],[-107.943673,47.084316],[-107.941261,47.083513],[-107.936569,47.083616],[-107.933535,47.08424],[-107.931874,47.08272],[-107.933496,47.081432],[-107.93348,47.078852],[-107.93142,47.076411],[-107.928261,47.076139],[-107.927941,47.078735],[-107.929677,47.080818],[-107.928392,47.083088],[-107.925853,47.08349],[-107.922202,47.082317],[-107.917957,47.079679],[-107.918254,47.078893],[-107.924256,47.075647],[-107.927447,47.070678],[-107.927174,47.069655],[-107.923677,47.069482],[-107.921707,47.068145],[-107.920306,47.068188],[-107.917267,47.07214],[-107.915562,47.072095],[-107.913912,47.069243],[-107.91386,47.066858],[-107.914755,47.066447],[-107.916895,47.067205],[-107.918812,47.067231],[-107.921147,47.066515],[-107.92221,47.065552],[-107.924737,47.065524],[-107.924199,47.064165],[-107.924773,47.062259],[-107.922726,47.060421],[-107.920423,47.061117],[-107.920573,47.062222],[-107.919032,47.061847],[-107.91613,47.060122],[-107.917586,47.058249],[-107.919815,47.059029],[-107.922107,47.057688],[-107.921599,47.056349],[-107.923443,47.053671],[-107.926457,47.05469],[-107.928096,47.053797],[-107.927598,47.052105],[-107.922404,47.052783],[-107.919788,47.051707],[-107.919477,47.049851],[-107.921002,47.048687],[-107.927761,47.046554],[-107.92537,47.045044],[-107.924861,47.043529],[-107.921236,47.043864],[-107.915655,47.042227],[-107.916403,47.040594],[-107.915338,47.039581],[-107.909164,47.040535],[-107.907939,47.039749],[-107.907227,47.038137],[-107.907601,47.034731],[-107.909693,47.031828],[-107.908511,47.03077],[-107.905475,47.031581],[-107.902057,47.03091],[-107.901813,47.029887],[-107.902794,47.028652],[-107.905081,47.027416],[-107.9066,47.027499],[-107.908264,47.029852],[-107.91091,47.029868],[-107.913067,47.028962],[-107.92164,47.024005],[-107.922444,47.022518],[-107.919986,47.021257],[-107.922009,47.020744],[-107.919532,47.017091],[-107.915508,47.01533],[-107.914331,47.013982],[-107.910565,47.012786],[-107.907909,47.013144],[-107.906002,47.013866],[-107.904719,47.016095],[-107.903668,47.0163],[-107.904602,47.020025],[-107.902523,47.02141],[-107.901551,47.019316],[-107.896874,47.016027],[-107.895977,47.014517],[-107.896924,47.010307],[-107.895672,47.007419],[-107.893138,47.007758],[-107.890745,47.01047],[-107.889122,47.008846],[-107.888583,47.005552],[-107.890217,47.003765],[-107.889793,47.002719],[-107.88674,47.000097],[-107.8834,47.000124],[-107.882471,46.999155],[-107.883671,46.99816],[-107.890337,46.996342],[-107.887766,46.993346],[-107.889742,46.992428],[-107.89123,46.99024],[-107.88777,46.98915],[-107.885925,46.98704],[-107.884578,46.984664],[-107.885056,46.983959],[-107.88982,46.982515],[-107.891931,46.982354],[-107.894008,46.983303],[-107.896637,46.983653],[-107.897267,46.982932],[-107.894622,46.979752],[-107.892948,46.978895],[-107.889692,46.979144],[-107.889153,46.976827],[-107.890463,46.97629],[-107.895513,46.977958],[-107.900022,46.975694],[-107.90127,46.973819],[-107.901208,46.972498],[-107.902778,46.970905],[-107.904848,46.972931],[-107.906693,46.973165],[-107.91038,46.971185],[-107.912068,46.971573],[-107.914517,46.971138],[-107.915692,46.970008],[-107.914649,46.968413],[-107.911992,46.969036],[-107.908934,46.968611],[-107.909322,46.966672],[-107.90652,46.965348],[-107.904732,46.963221],[-107.904526,46.962454],[-107.907491,46.961697],[-107.909258,46.961982],[-107.911035,46.960824],[-107.91093,46.95947],[-107.911821,46.957676],[-107.909381,46.956982],[-107.906815,46.95712],[-107.905341,46.95637],[-107.904946,46.955166],[-107.906267,46.953361],[-107.910217,46.952722],[-107.911845,46.95172],[-107.913666,46.948445],[-107.91629,46.946346],[-107.916729,46.944337],[-107.915069,46.943029],[-107.915923,46.941582],[-107.912451,46.940666],[-107.911355,46.939139],[-107.909097,46.938344],[-107.90802,46.939614],[-107.906087,46.939813],[-107.904851,46.938808],[-107.906004,46.936616],[-107.907323,46.935732],[-107.915123,46.936899],[-107.919555,46.937082],[-107.92367,46.935107],[-107.927913,46.933933],[-107.928954,46.932123],[-107.92809,46.931347],[-107.923946,46.931742],[-107.921195,46.930471],[-107.918288,46.930188],[-107.916709,46.931295],[-107.91547,46.931156],[-107.915249,46.929225],[-107.917565,46.928042],[-107.920108,46.92865],[-107.922056,46.92793],[-107.924811,46.928194],[-107.928293,46.927894],[-107.929095,46.926464],[-107.92567,46.925705],[-107.924914,46.92467],[-107.926458,46.923892],[-107.926073,46.922324],[-107.923041,46.922838],[-107.921169,46.921857],[-107.918812,46.921842],[-107.917217,46.920934],[-107.918111,46.918984],[-107.919278,46.918097],[-107.922994,46.916724],[-107.928195,46.918272],[-107.932078,46.918065],[-107.934602,46.91671],[-107.934602,46.914088],[-107.931169,46.911905],[-107.928536,46.908326],[-107.928716,46.907373],[-107.931886,46.906444],[-107.934214,46.904826],[-107.933171,46.903197],[-107.931258,46.901903],[-107.931758,46.900399],[-107.930191,46.899405],[-107.931188,46.897352],[-107.934673,46.896027],[-107.938368,46.896165],[-107.940816,46.89474],[-107.941377,46.893723],[-107.941246,46.891272],[-107.937399,46.889396],[-107.93807,46.888876],[-107.936817,46.886766],[-107.937527,46.885872],[-107.940435,46.884297],[-107.941329,46.883163],[-107.939276,46.876241],[-107.934716,46.873643],[-107.930808,46.877427],[-107.9279,46.878117],[-107.926107,46.87797],[-107.921213,46.87561],[-107.916478,46.875545],[-107.915233,46.87485],[-107.915273,46.873496],[-107.918644,46.87165],[-107.920534,46.868533],[-107.919622,46.866818],[-107.918519,46.866421],[-107.914475,46.867928],[-107.912693,46.866496],[-107.908234,46.864889],[-107.905376,46.864797],[-107.900562,46.865719],[-107.898389,46.863865],[-107.904152,46.860803],[-107.907221,46.857198],[-107.905706,46.85452],[-107.901462,46.852498],[-107.897509,46.853485],[-107.894518,46.853599],[-107.891971,46.852452],[-107.892344,46.851216],[-107.869016,46.851007],[-107.485346,46.851171],[-107.46777,46.85116],[-107.467748,46.859254],[-107.457597,46.859237],[-107.457468,46.874738],[-107.457844,46.904379],[-107.45768,46.913986],[-107.459749,46.916237],[-107.459857,46.931613],[-107.46886,46.931548],[-107.472111,46.931174],[-107.479504,46.934075],[-107.482006,46.933891],[-107.485075,46.934918],[-107.491283,46.938913],[-107.494186,46.9393],[-107.495888,46.940008],[-107.498278,46.942499],[-107.502338,46.943461],[-107.50862,46.945612],[-107.511439,46.947872],[-107.519032,46.95184],[-107.524751,46.953907],[-107.528819,46.955093],[-107.530655,46.956399],[-107.532813,46.957124],[-107.538249,46.959936],[-107.543796,46.964058],[-107.546666,46.966946],[-107.546765,46.968619],[-107.551102,46.971691],[-107.552704,46.972174],[-107.555606,46.974513],[-107.554519,46.976312],[-107.555823,46.981108],[-107.557509,46.980989],[-107.55892,46.979137],[-107.558783,46.975316],[-107.557862,46.97373],[-107.557725,46.969955],[-107.555409,46.968056],[-107.570395,46.967896],[-107.570461,46.963052],[-107.571728,46.960356],[-107.565954,46.960105],[-107.564452,46.955902],[-107.564719,46.95364],[-107.563151,46.95284],[-107.56225,46.950236],[-107.563418,46.9469],[-107.564585,46.945757],[-107.567487,46.944317],[-107.571022,46.941027],[-107.571823,46.939611],[-107.574525,46.939359],[-107.57491,46.938764],[-107.575243,46.937621],[-107.574343,46.935459],[-107.574758,46.933348],[-107.574006,46.929247],[-107.570453,46.928462],[-107.563283,46.927411],[-107.561015,46.924861],[-107.561382,46.921539],[-107.567069,46.918435],[-107.570188,46.918878],[-107.573039,46.918415],[-107.580056,46.921172],[-107.581857,46.921378],[-107.584558,46.922497],[-107.587626,46.922656],[-107.589127,46.923341],[-107.591695,46.925533],[-107.601436,46.928181],[-107.605573,46.930806],[-107.607005,46.928566],[-107.608838,46.927194],[-107.607333,46.922055],[-107.606962,46.9176],[-107.607729,46.917257],[-107.61418,46.919928],[-107.618959,46.923082],[-107.620285,46.923584],[-107.622519,46.923492],[-107.625205,46.922621],[-107.628169,46.920864],[-107.632171,46.920087],[-107.640541,46.919771],[-107.645067,46.920524],[-107.647575,46.921875],[-107.648473,46.924868],[-107.646552,46.926991],[-107.645256,46.927652],[-107.647703,46.929118],[-107.649966,46.931255],[-107.651535,46.935718],[-107.650597,46.937399],[-107.650962,46.940162],[-107.650771,46.944649],[-107.651455,46.951657],[-107.651354,46.956694],[-107.651708,46.960056],[-107.65261,46.963331],[-107.656906,46.966844],[-107.659997,46.968727],[-107.661594,46.971561],[-107.666647,46.975236],[-107.66782,46.978345],[-107.669629,46.980761],[-107.67299,46.983401],[-107.67651,46.987079],[-107.675458,46.992633],[-107.673031,46.994429],[-107.671628,46.996946],[-107.671751,46.999381],[-107.671317,47.00434],[-107.672752,47.006418],[-107.675016,47.011261],[-107.675713,47.014838],[-107.676109,47.020089],[-107.676122,47.024548],[-107.678583,47.028204],[-107.678794,47.029861],[-107.678291,47.033623],[-107.678768,47.035569],[-107.678442,47.039395],[-107.692799,47.033562],[-107.696706,47.02989],[-107.704386,47.02444],[-107.707391,47.022889],[-107.713101,47.021022],[-107.734272,47.019209],[-107.739047,47.018937],[-107.79291,46.99978],[-107.79778,46.998398],[-107.822231,46.993834],[-107.827482,46.991588],[-107.830753,46.993412],[-107.831729,46.99447],[-107.835671,47.000639],[-107.840073,47.003124],[-107.841938,47.005676],[-107.844921,47.00731],[-107.846024,47.010303],[-107.847996,47.011444],[-107.845522,47.012593],[-107.842818,47.013169],[-107.839511,47.014916],[-107.836522,47.014872],[-107.831121,47.016975],[-107.834687,47.021169],[-107.835269,47.023019],[-107.835115,47.026418],[-107.837603,47.030007],[-107.837737,47.031917],[-107.84226,47.040351],[-107.84143,47.045337],[-107.842632,47.048109],[-107.842556,47.051125],[-107.843834,47.053311],[-107.842303,47.055814],[-107.839095,47.057869],[-107.837089,47.058702],[-107.837746,47.061885],[-107.835533,47.06702],[-107.83693,47.071158],[-107.836013,47.072082],[-107.832829,47.073372],[-107.83093,47.073697],[-107.827598,47.07561],[-107.827162,47.076995],[-107.824817,47.077425],[-107.823943,47.078777],[-107.821028,47.079564],[-107.817574,47.079312],[-107.815293,47.080029],[-107.813712,47.081281],[-107.806503,47.082552],[-107.802259,47.082248],[-107.798485,47.084293],[-107.796271,47.086923],[-107.793688,47.088536],[-107.788385,47.089383],[-107.786984,47.088643],[-107.78464,47.088553],[-107.783233,47.089736],[-107.780389,47.090919],[-107.774094,47.091219],[-107.769917,47.092479],[-107.763552,47.091652],[-107.759943,47.091666],[-107.752822,47.094168],[-107.750857,47.095176],[-107.745186,47.093967],[-107.741196,47.093723],[-107.730333,47.09428],[-107.725303,47.09318],[-107.717636,47.090798],[-107.714762,47.089621],[-107.711552,47.087637],[-107.702381,47.087721],[-107.694764,47.087196],[-107.689195,47.086051],[-107.683085,47.085322],[-107.681088,47.090578],[-107.68083,47.095226],[-107.679595,47.099206],[-107.678602,47.100775],[-107.678409,47.102712],[-107.677211,47.104751],[-107.677477,47.106688],[-107.674246,47.10808],[-107.674647,47.109916],[-107.676915,47.111879],[-107.678681,47.114348],[-107.679651,47.116711],[-107.681589,47.118764],[-107.682827,47.124954],[-107.685838,47.125802],[-107.68852,47.127684],[-107.694248,47.133661],[-107.695189,47.135381],[-107.695588,47.137846],[-107.69504,47.144526],[-107.697131,47.156261],[-107.705862,47.154503],[-107.709177,47.155615],[-107.716419,47.157601],[-107.721078,47.158552],[-107.727334,47.159225],[-107.737746,47.16321],[-107.742547,47.164899],[-107.754882,47.168216],[-107.767076,47.173142],[-107.767978,47.173834],[-107.774154,47.180516],[-107.77515,47.179231],[-107.779367,47.176666],[-107.78167,47.176475],[-107.78324,47.175235],[-107.783252,47.183912],[-107.781657,47.183957],[-107.783628,47.185401],[-107.78519,47.189343],[-107.788598,47.194086],[-107.790089,47.195024],[-107.794621,47.196893],[-107.79843,47.201236],[-107.799749,47.202277],[-107.80334,47.203689],[-107.804448,47.205874],[-107.806242,47.206569],[-107.808378,47.206481],[-107.810729,47.205474],[-107.817206,47.205344],[-107.818598,47.204043],[-107.820031,47.204641],[-107.825157,47.203296],[-107.828252,47.203062],[-107.83351,47.204524],[-107.83844,47.206686],[-107.83816,47.208505],[-107.842186,47.207953],[-107.846487,47.20846],[-107.848815,47.209106],[-107.849288,47.228058],[-107.857683,47.228609],[-107.857721,47.26241],[-107.850151,47.263402],[-107.850323,47.27082],[-107.815223,47.270831],[-107.81524,47.299788],[-107.809411,47.3006],[-107.80969,47.316263],[-107.772829,47.3163],[-107.773099,47.344535],[-107.783145,47.349447],[-107.784248,47.350346],[-107.78362,47.352992],[-107.784135,47.353859],[-107.78132,47.354701],[-107.780387,47.356685],[-107.777803,47.357513],[-107.777156,47.359862],[-107.783602,47.359904],[-107.783023,47.393054],[-107.785131,47.397183],[-107.785953,47.397828],[-107.78591,47.400808],[-107.787239,47.401912],[-107.790886,47.407109],[-107.790016,47.408801],[-107.787745,47.411382],[-107.78764,47.413493],[-107.788222,47.415701],[-107.786754,47.417369],[-107.784286,47.417592],[-107.783252,47.418304],[-107.78318,47.420946],[-107.787864,47.424552],[-107.788301,47.428189],[-107.785081,47.431543],[-107.784854,47.432294],[-107.80738,47.432296],[-107.807609,47.443987],[-107.824959,47.443928],[-107.826795,47.443838],[-107.920154,47.443943]]]}},{"type":"Feature","properties":{"zcta5":"59087","AFFGEOID10":"8600000US59087","GEOID10":"59087","ALAND10":3839007766,"AWATER10":47655636,"county_name":"Petroleum","state_code":"MT","county_state":"Petroleum County, MT","county_fips":"30069","risk_level_county":"Lowest Risk (85%+)","mean_vaccination_rate_county":85.6,"risk_level_zcta":"Lowest Risk (85%+)","mean_vaccination_rate_zips":92.27,"cases":5},"geometry":{"type":"Polygon","coordinates":[[[-108.600526,47.270168],[-108.599873,47.268472],[-108.598059,47.266608],[-108.599275,47.265149],[-108.596963,47.264815],[-108.596472,47.266109],[-108.593959,47.265946],[-108.595158,47.264914],[-108.59498,47.263489],[-108.593602,47.262941],[-108.592967,47.264871],[-108.59101,47.264811],[-108.588723,47.266331],[-108.586974,47.264631],[-108.584171,47.264248],[-108.583382,47.26591],[-108.582987,47.264056],[-108.581118,47.264764],[-108.580481,47.261765],[-108.578298,47.261469],[-108.57865,47.263561],[-108.577507,47.263934],[-108.577885,47.262749],[-108.577065,47.260389],[-108.575914,47.261606],[-108.574069,47.260812],[-108.57154,47.258503],[-108.570235,47.258301],[-108.569679,47.259556],[-108.566272,47.25812],[-108.565274,47.256486],[-108.56951,47.25568],[-108.569695,47.254967],[-108.567303,47.254221],[-108.567021,47.252966],[-108.56512,47.252977],[-108.564637,47.251935],[-108.562672,47.251398],[-108.562455,47.25023],[-108.561673,47.250937],[-108.558944,47.250224],[-108.559639,47.248781],[-108.558173,47.24741],[-108.55736,47.248238],[-108.555717,47.247712],[-108.555105,47.249302],[-108.553776,47.248567],[-108.550676,47.248698],[-108.550638,47.247256],[-108.548769,47.247456],[-108.548399,47.243636],[-108.543084,47.24219],[-108.542384,47.2411],[-108.527242,47.241009],[-108.527158,47.226067],[-108.534685,47.225597],[-108.540891,47.223946],[-108.546521,47.225054],[-108.552976,47.225613],[-108.554912,47.223911],[-108.558124,47.222328],[-108.56289,47.221346],[-108.568753,47.222173],[-108.572023,47.222185],[-108.574097,47.221242],[-108.57813,47.221046],[-108.582854,47.219973],[-108.585694,47.220182],[-108.590993,47.222064],[-108.590192,47.218378],[-108.591055,47.216627],[-108.591159,47.194365],[-108.595069,47.191752],[-108.596744,47.187471],[-108.597518,47.184022],[-108.589841,47.176403],[-108.587313,47.1714],[-108.588017,47.170165],[-108.588239,47.104788],[-108.588369,47.100966],[-108.590148,47.101934],[-108.598741,47.101857],[-108.602705,47.101215],[-108.608788,47.100994],[-108.61249,47.1012],[-108.614669,47.100636],[-108.619971,47.098061],[-108.608954,47.098126],[-108.610217,46.906071],[-108.609231,46.90666],[-108.605431,46.907484],[-108.596864,46.908355],[-108.585063,46.90854],[-108.579294,46.907513],[-108.57476,46.907536],[-108.570926,46.908063],[-108.567926,46.909114],[-108.567126,46.910143],[-108.563592,46.911628],[-108.55789,46.911171],[-108.554589,46.912381],[-108.550623,46.906463],[-108.55117,46.903962],[-108.54849,46.902022],[-108.54323,46.90118],[-108.541825,46.901347],[-108.536448,46.903447],[-108.536511,46.889804],[-108.534107,46.886833],[-108.533733,46.884387],[-108.530613,46.882118],[-108.52953,46.880121],[-108.525619,46.876803],[-108.522591,46.875016],[-108.525086,46.873206],[-108.526083,46.87089],[-108.528217,46.870376],[-108.530185,46.866934],[-108.528709,46.862242],[-108.527681,46.86111],[-108.527496,46.858699],[-108.52808,46.856561],[-108.527376,46.853889],[-108.525312,46.852749],[-108.51475,46.851131],[-108.511546,46.851307],[-108.503999,46.850724],[-108.49046,46.850694],[-108.487369,46.850428],[-108.484174,46.850726],[-108.482082,46.852424],[-108.477193,46.850838],[-108.453543,46.851021],[-108.45173,46.850602],[-108.443177,46.850394],[-108.431785,46.850662],[-108.42587,46.848216],[-108.422156,46.847259],[-108.419185,46.846113],[-108.413805,46.844691],[-108.411429,46.84505],[-108.411787,46.844408],[-108.409363,46.843749],[-108.400888,46.840367],[-108.400571,46.838691],[-108.400824,46.829453],[-108.405157,46.828729],[-108.409312,46.82739],[-108.410658,46.826127],[-108.411213,46.823708],[-108.412688,46.821826],[-108.414959,46.821776],[-108.416706,46.820868],[-108.418343,46.818156],[-108.423184,46.816345],[-108.417526,46.816354],[-108.413804,46.815351],[-108.41084,46.815256],[-108.407424,46.813887],[-108.405575,46.812723],[-108.402215,46.809548],[-108.400773,46.807337],[-108.40055,46.778106],[-108.400277,46.777084],[-108.393192,46.775043],[-108.392175,46.774345],[-108.38989,46.77091],[-108.382539,46.767012],[-108.382623,46.766016],[-108.379058,46.764613],[-108.373725,46.763791],[-108.373524,46.762945],[-108.370961,46.759794],[-108.366503,46.750562],[-108.261779,46.754232],[-108.178443,46.754368],[-108.158697,46.75441],[-108.151988,46.754235],[-108.011667,46.754943],[-108.008615,46.754957],[-107.827787,46.755875],[-107.827174,46.758412],[-107.830108,46.757752],[-107.830888,46.756809],[-107.832104,46.757382],[-107.829814,46.760311],[-107.825555,46.761454],[-107.827962,46.763442],[-107.827903,46.764582],[-107.830381,46.76509],[-107.833029,46.763251],[-107.836626,46.762809],[-107.838572,46.763539],[-107.840822,46.765396],[-107.841227,46.767844],[-107.83943,46.769303],[-107.837401,46.772105],[-107.837461,46.773607],[-107.838484,46.77459],[-107.840518,46.775187],[-107.842777,46.77488],[-107.841588,46.771696],[-107.843643,46.77196],[-107.843665,46.773571],[-107.845747,46.776007],[-107.844767,46.779046],[-107.841805,46.779864],[-107.842502,46.780874],[-107.845747,46.780484],[-107.849892,46.777376],[-107.852027,46.776874],[-107.853286,46.777888],[-107.85366,46.778894],[-107.852506,46.781134],[-107.850371,46.782399],[-107.847799,46.783154],[-107.845722,46.783129],[-107.843457,46.784316],[-107.842523,46.785982],[-107.843071,46.788295],[-107.844411,46.789886],[-107.841666,46.790187],[-107.839018,46.788808],[-107.838019,46.789251],[-107.839166,46.790658],[-107.837291,46.792151],[-107.839654,46.79449],[-107.841608,46.795016],[-107.847332,46.795122],[-107.850529,46.793518],[-107.85172,46.793612],[-107.853525,46.798418],[-107.850566,46.800981],[-107.846164,46.802093],[-107.8416,46.801646],[-107.840973,46.801957],[-107.841707,46.803716],[-107.845766,46.806214],[-107.847577,46.810548],[-107.849709,46.811251],[-107.851525,46.811194],[-107.854982,46.812317],[-107.853327,46.815667],[-107.851712,46.816866],[-107.847956,46.817252],[-107.847172,46.819172],[-107.850336,46.819625],[-107.854319,46.818552],[-107.85624,46.818659],[-107.856385,46.820142],[-107.855487,46.820719],[-107.858162,46.824435],[-107.861349,46.82494],[-107.86269,46.823463],[-107.865392,46.82477],[-107.865318,46.825663],[-107.862056,46.826394],[-107.861736,46.827736],[-107.863192,46.828532],[-107.865995,46.828501],[-107.866809,46.829606],[-107.864603,46.832236],[-107.862595,46.833348],[-107.861812,46.835606],[-107.864515,46.836124],[-107.867623,46.835531],[-107.866841,46.834073],[-107.867814,46.833689],[-107.873446,46.835011],[-107.87585,46.837126],[-107.87606,46.83979],[-107.87489,46.841469],[-107.874923,46.842624],[-107.8767,46.845031],[-107.881785,46.844856],[-107.883302,46.845328],[-107.88571,46.843927],[-107.887731,46.845324],[-107.889883,46.848139],[-107.891036,46.848823],[-107.894346,46.84922],[-107.896826,46.84825],[-107.897356,46.849722],[-107.892625,46.850804],[-107.892344,46.851216],[-107.891971,46.852452],[-107.894518,46.853599],[-107.897509,46.853485],[-107.901462,46.852498],[-107.905706,46.85452],[-107.907221,46.857198],[-107.904152,46.860803],[-107.898389,46.863865],[-107.900562,46.865719],[-107.905376,46.864797],[-107.908234,46.864889],[-107.912693,46.866496],[-107.914475,46.867928],[-107.918519,46.866421],[-107.919622,46.866818],[-107.920534,46.868533],[-107.918644,46.87165],[-107.915273,46.873496],[-107.915233,46.87485],[-107.916478,46.875545],[-107.921213,46.87561],[-107.926107,46.87797],[-107.9279,46.878117],[-107.930808,46.877427],[-107.934716,46.873643],[-107.939276,46.876241],[-107.941329,46.883163],[-107.940435,46.884297],[-107.937527,46.885872],[-107.936817,46.886766],[-107.93807,46.888876],[-107.937399,46.889396],[-107.941246,46.891272],[-107.941377,46.893723],[-107.940816,46.89474],[-107.938368,46.896165],[-107.934673,46.896027],[-107.931188,46.897352],[-107.930191,46.899405],[-107.931758,46.900399],[-107.931258,46.901903],[-107.933171,46.903197],[-107.934214,46.904826],[-107.931886,46.906444],[-107.928716,46.907373],[-107.928536,46.908326],[-107.931169,46.911905],[-107.934602,46.914088],[-107.934602,46.91671],[-107.932078,46.918065],[-107.928195,46.918272],[-107.922994,46.916724],[-107.919278,46.918097],[-107.918111,46.918984],[-107.917217,46.920934],[-107.918812,46.921842],[-107.921169,46.921857],[-107.923041,46.922838],[-107.926073,46.922324],[-107.926458,46.923892],[-107.924914,46.92467],[-107.92567,46.925705],[-107.929095,46.926464],[-107.928293,46.927894],[-107.924811,46.928194],[-107.922056,46.92793],[-107.920108,46.92865],[-107.917565,46.928042],[-107.915249,46.929225],[-107.91547,46.931156],[-107.916709,46.931295],[-107.918288,46.930188],[-107.921195,46.930471],[-107.923946,46.931742],[-107.92809,46.931347],[-107.928954,46.932123],[-107.927913,46.933933],[-107.92367,46.935107],[-107.919555,46.937082],[-107.915123,46.936899],[-107.907323,46.935732],[-107.906004,46.936616],[-107.904851,46.938808],[-107.906087,46.939813],[-107.90802,46.939614],[-107.909097,46.938344],[-107.911355,46.939139],[-107.912451,46.940666],[-107.915923,46.941582],[-107.915069,46.943029],[-107.916729,46.944337],[-107.91629,46.946346],[-107.913666,46.948445],[-107.911845,46.95172],[-107.910217,46.952722],[-107.906267,46.953361],[-107.904946,46.955166],[-107.905341,46.95637],[-107.906815,46.95712],[-107.909381,46.956982],[-107.911821,46.957676],[-107.91093,46.95947],[-107.911035,46.960824],[-107.909258,46.961982],[-107.907491,46.961697],[-107.904526,46.962454],[-107.904732,46.963221],[-107.90652,46.965348],[-107.909322,46.966672],[-107.908934,46.968611],[-107.911992,46.969036],[-107.914649,46.968413],[-107.915692,46.970008],[-107.914517,46.971138],[-107.912068,46.971573],[-107.91038,46.971185],[-107.906693,46.973165],[-107.904848,46.972931],[-107.902778,46.970905],[-107.901208,46.972498],[-107.90127,46.973819],[-107.900022,46.975694],[-107.895513,46.977958],[-107.890463,46.97629],[-107.889153,46.976827],[-107.889692,46.979144],[-107.892948,46.978895],[-107.894622,46.979752],[-107.897267,46.982932],[-107.896637,46.983653],[-107.894008,46.983303],[-107.891931,46.982354],[-107.88982,46.982515],[-107.885056,46.983959],[-107.884578,46.984664],[-107.885925,46.98704],[-107.88777,46.98915],[-107.89123,46.99024],[-107.889742,46.992428],[-107.887766,46.993346],[-107.890337,46.996342],[-107.883671,46.99816],[-107.882471,46.999155],[-107.8834,47.000124],[-107.88674,47.000097],[-107.889793,47.002719],[-107.890217,47.003765],[-107.888583,47.005552],[-107.889122,47.008846],[-107.890745,47.01047],[-107.893138,47.007758],[-107.895672,47.007419],[-107.896924,47.010307],[-107.895977,47.014517],[-107.896874,47.016027],[-107.901551,47.019316],[-107.902523,47.02141],[-107.904602,47.020025],[-107.903668,47.0163],[-107.904719,47.016095],[-107.906002,47.013866],[-107.907909,47.013144],[-107.910565,47.012786],[-107.914331,47.013982],[-107.915508,47.01533],[-107.919532,47.017091],[-107.922009,47.020744],[-107.919986,47.021257],[-107.922444,47.022518],[-107.92164,47.024005],[-107.913067,47.028962],[-107.91091,47.029868],[-107.908264,47.029852],[-107.9066,47.027499],[-107.905081,47.027416],[-107.902794,47.028652],[-107.901813,47.029887],[-107.902057,47.03091],[-107.905475,47.031581],[-107.908511,47.03077],[-107.909693,47.031828],[-107.907601,47.034731],[-107.907227,47.038137],[-107.907939,47.039749],[-107.909164,47.040535],[-107.915338,47.039581],[-107.916403,47.040594],[-107.915655,47.042227],[-107.921236,47.043864],[-107.924861,47.043529],[-107.92537,47.045044],[-107.927761,47.046554],[-107.921002,47.048687],[-107.919477,47.049851],[-107.919788,47.051707],[-107.922404,47.052783],[-107.927598,47.052105],[-107.928096,47.053797],[-107.926457,47.05469],[-107.923443,47.053671],[-107.921599,47.056349],[-107.922107,47.057688],[-107.919815,47.059029],[-107.917586,47.058249],[-107.91613,47.060122],[-107.919032,47.061847],[-107.920573,47.062222],[-107.920423,47.061117],[-107.922726,47.060421],[-107.924773,47.062259],[-107.924199,47.064165],[-107.924737,47.065524],[-107.92221,47.065552],[-107.921147,47.066515],[-107.918812,47.067231],[-107.916895,47.067205],[-107.914755,47.066447],[-107.91386,47.066858],[-107.913912,47.069243],[-107.915562,47.072095],[-107.917267,47.07214],[-107.920306,47.068188],[-107.921707,47.068145],[-107.923677,47.069482],[-107.927174,47.069655],[-107.927447,47.070678],[-107.924256,47.075647],[-107.918254,47.078893],[-107.917957,47.079679],[-107.922202,47.082317],[-107.925853,47.08349],[-107.928392,47.083088],[-107.929677,47.080818],[-107.927941,47.078735],[-107.928261,47.076139],[-107.93142,47.076411],[-107.93348,47.078852],[-107.933496,47.081432],[-107.931874,47.08272],[-107.933535,47.08424],[-107.936569,47.083616],[-107.941261,47.083513],[-107.943673,47.084316],[-107.943769,47.086251],[-107.941827,47.087057],[-107.93753,47.086401],[-107.934856,47.087188],[-107.93296,47.089328],[-107.934171,47.093734],[-107.933498,47.095888],[-107.934089,47.09756],[-107.935517,47.098744],[-107.937805,47.099649],[-107.93841,47.100822],[-107.937739,47.104016],[-107.942391,47.106409],[-107.946651,47.107632],[-107.948926,47.107954],[-107.953554,47.107018],[-107.953444,47.108701],[-107.950712,47.11116],[-107.948597,47.110903],[-107.944292,47.109139],[-107.942086,47.109525],[-107.938691,47.111039],[-107.937943,47.112651],[-107.93905,47.11405],[-107.93771,47.114395],[-107.935019,47.113672],[-107.932693,47.109875],[-107.931772,47.111152],[-107.930961,47.114885],[-107.933227,47.116495],[-107.938011,47.115543],[-107.94086,47.119201],[-107.942318,47.120427],[-107.945508,47.121781],[-107.947468,47.121454],[-107.94977,47.119842],[-107.954347,47.120652],[-107.956562,47.123116],[-107.960582,47.125333],[-107.96045,47.126725],[-107.957963,47.126338],[-107.95615,47.127874],[-107.955978,47.129639],[-107.957081,47.133648],[-107.956138,47.134613],[-107.954144,47.135064],[-107.952393,47.134479],[-107.95164,47.133117],[-107.953543,47.131624],[-107.953001,47.130348],[-107.948611,47.131433],[-107.944294,47.133142],[-107.942885,47.134434],[-107.942163,47.137659],[-107.941057,47.139253],[-107.943649,47.139763],[-107.947471,47.139176],[-107.948669,47.13784],[-107.950461,47.137492],[-107.952287,47.138138],[-107.955623,47.137705],[-107.956418,47.138652],[-107.955589,47.13993],[-107.95251,47.14097],[-107.94656,47.14116],[-107.94262,47.140379],[-107.939805,47.140757],[-107.938512,47.142216],[-107.938723,47.145443],[-107.942819,47.147121],[-107.947551,47.147996],[-107.949136,47.149037],[-107.949527,47.150269],[-107.948157,47.15231],[-107.948833,47.153172],[-107.955055,47.157332],[-107.954145,47.159296],[-107.950304,47.161324],[-107.947939,47.158755],[-107.945372,47.158949],[-107.943886,47.161195],[-107.94311,47.161227],[-107.942466,47.160283],[-107.944378,47.158499],[-107.944342,47.157646],[-107.942255,47.156037],[-107.941273,47.153312],[-107.939003,47.152539],[-107.937021,47.153573],[-107.937232,47.154699],[-107.939418,47.157121],[-107.940249,47.160003],[-107.93823,47.161244],[-107.939083,47.162317],[-107.944255,47.16482],[-107.945443,47.165918],[-107.946253,47.169548],[-107.945391,47.170868],[-107.943442,47.171819],[-107.941861,47.171652],[-107.939249,47.169162],[-107.939379,47.167832],[-107.938132,47.166693],[-107.932314,47.165386],[-107.928668,47.16804],[-107.928398,47.16891],[-107.929521,47.171172],[-107.934052,47.172669],[-107.934118,47.173543],[-107.930134,47.175236],[-107.927058,47.176088],[-107.923007,47.178966],[-107.923137,47.179737],[-107.926304,47.180966],[-107.929934,47.183075],[-107.93143,47.183054],[-107.931951,47.180877],[-107.930991,47.178329],[-107.931809,47.177402],[-107.934818,47.176735],[-107.936933,47.179489],[-107.939043,47.181431],[-107.938586,47.182465],[-107.934208,47.182967],[-107.931514,47.185385],[-107.931837,47.186824],[-107.93322,47.18755],[-107.937811,47.18807],[-107.939705,47.189032],[-107.939464,47.190064],[-107.936069,47.19114],[-107.932103,47.19026],[-107.93153,47.191084],[-107.932296,47.193029],[-107.93392,47.193821],[-107.936356,47.194041],[-107.939515,47.19346],[-107.942639,47.192026],[-107.943645,47.193079],[-107.94336,47.19449],[-107.944491,47.195482],[-107.947384,47.195667],[-107.949315,47.194321],[-107.9514,47.195056],[-107.949717,47.1973],[-107.947098,47.19818],[-107.947719,47.200976],[-107.945894,47.200764],[-107.945782,47.199348],[-107.943891,47.199343],[-107.944812,47.202268],[-107.9437,47.203771],[-107.939016,47.204918],[-107.938975,47.206702],[-107.939901,47.208441],[-107.938896,47.211485],[-107.937409,47.214335],[-107.937383,47.216248],[-107.938909,47.217309],[-107.94608,47.219507],[-107.9473,47.220605],[-107.94688,47.221411],[-107.943255,47.222194],[-107.94322,47.223422],[-107.945663,47.22439],[-107.949668,47.228416],[-107.951571,47.228088],[-107.95141,47.224155],[-107.952617,47.223589],[-107.957708,47.224926],[-107.961083,47.225429],[-107.964662,47.230489],[-107.964507,47.231631],[-107.961296,47.231796],[-107.960177,47.230346],[-107.959877,47.228054],[-107.958553,47.227371],[-107.956592,47.227636],[-107.955617,47.2286],[-107.955371,47.232882],[-107.956114,47.233557],[-107.958551,47.233798],[-107.96065,47.235157],[-107.960001,47.236459],[-107.961768,47.237668],[-107.958988,47.239815],[-107.956471,47.24026],[-107.955106,47.239929],[-107.952237,47.237748],[-107.949512,47.237982],[-107.948523,47.240485],[-107.94905,47.243383],[-107.952236,47.244113],[-107.953791,47.246297],[-107.956175,47.246246],[-107.958827,47.244326],[-107.960178,47.244074],[-107.961886,47.247321],[-107.963305,47.247958],[-107.965419,47.247721],[-107.968015,47.248754],[-107.968626,47.249823],[-107.966274,47.253016],[-107.962474,47.256605],[-107.961265,47.257192],[-107.958492,47.256968],[-107.956527,47.256234],[-107.955039,47.253843],[-107.95286,47.253107],[-107.951625,47.253568],[-107.950316,47.255548],[-107.948408,47.25702],[-107.947585,47.259088],[-107.948843,47.259916],[-107.955275,47.2594],[-107.958158,47.261102],[-107.961262,47.26156],[-107.963265,47.264124],[-107.96302,47.266264],[-107.960579,47.268269],[-107.957976,47.268463],[-107.95676,47.26932],[-107.956911,47.271465],[-107.955204,47.271317],[-107.955017,47.270378],[-107.956247,47.268024],[-107.955325,47.267159],[-107.951784,47.267028],[-107.953131,47.269043],[-107.952758,47.273489],[-107.95413,47.274631],[-107.957049,47.275169],[-107.960312,47.27436],[-107.963422,47.274609],[-107.964473,47.275385],[-107.963852,47.277139],[-107.962492,47.27794],[-107.962079,47.280629],[-107.956979,47.283012],[-107.956223,47.284252],[-107.951466,47.284299],[-107.947244,47.282926],[-107.946925,47.283748],[-107.948724,47.286181],[-107.951043,47.287596],[-107.956891,47.289459],[-107.960454,47.288726],[-107.962617,47.28764],[-107.964406,47.28927],[-107.961354,47.290501],[-107.960776,47.291207],[-107.961363,47.293318],[-107.957238,47.2956],[-107.95489,47.296282],[-107.953353,47.296128],[-107.951958,47.294458],[-107.950087,47.294545],[-107.949788,47.299159],[-107.94611,47.300448],[-107.94612,47.302367],[-107.947774,47.302992],[-107.952435,47.301776],[-107.953581,47.302981],[-107.956801,47.303871],[-107.957224,47.30631],[-107.955949,47.310666],[-107.953761,47.313715],[-107.949464,47.315956],[-107.944989,47.31527],[-107.942466,47.31604],[-107.939571,47.317629],[-107.934961,47.318369],[-107.935098,47.319221],[-107.937613,47.320637],[-107.942044,47.321701],[-107.943497,47.323662],[-107.944692,47.323165],[-107.943848,47.320632],[-107.944517,47.320195],[-107.948743,47.32043],[-107.950725,47.319966],[-107.952336,47.32097],[-107.952452,47.322645],[-107.954354,47.32267],[-107.955329,47.32188],[-107.955178,47.320294],[-107.953316,47.317748],[-107.954599,47.316471],[-107.956295,47.316828],[-107.957918,47.319706],[-107.956915,47.321478],[-107.957176,47.322663],[-107.955943,47.323853],[-107.952544,47.325123],[-107.951894,47.326029],[-107.95329,47.32656],[-107.957123,47.32679],[-107.960967,47.326619],[-107.963548,47.328126],[-107.963887,47.328911],[-107.961625,47.332228],[-107.961743,47.333813],[-107.960306,47.334709],[-107.956698,47.334639],[-107.955314,47.337074],[-107.955346,47.338257],[-107.956761,47.341534],[-107.955891,47.342102],[-107.952806,47.340945],[-107.951002,47.340876],[-107.951491,47.343248],[-107.955148,47.347336],[-107.957875,47.348376],[-107.960391,47.348789],[-107.961839,47.349835],[-107.962329,47.352184],[-107.963887,47.354012],[-107.957182,47.355307],[-107.9536,47.354298],[-107.952251,47.354369],[-107.95083,47.355899],[-107.953125,47.358849],[-107.955753,47.358973],[-107.957571,47.360019],[-107.956624,47.360943],[-107.951485,47.362681],[-107.948414,47.364358],[-107.940756,47.366843],[-107.939077,47.368092],[-107.939112,47.369119],[-107.942939,47.369661],[-107.943592,47.37092],[-107.942423,47.371573],[-107.938562,47.371263],[-107.938239,47.372802],[-107.939514,47.37381],[-107.942423,47.373849],[-107.943537,47.375046],[-107.943516,47.376898],[-107.942414,47.377486],[-107.936739,47.377275],[-107.930683,47.376546],[-107.929438,47.377577],[-107.93025,47.380279],[-107.930321,47.382606],[-107.931399,47.38345],[-107.934537,47.382867],[-107.937008,47.383804],[-107.936299,47.386617],[-107.934366,47.388689],[-107.931771,47.388676],[-107.928158,47.386342],[-107.924801,47.386678],[-107.923124,47.38853],[-107.924714,47.389561],[-107.927279,47.392787],[-107.926655,47.395009],[-107.924631,47.396789],[-107.921693,47.397309],[-107.916927,47.397286],[-107.915684,47.398182],[-107.91551,47.400747],[-107.912568,47.402424],[-107.909205,47.401687],[-107.911272,47.407315],[-107.91239,47.408402],[-107.911625,47.410171],[-107.909277,47.411348],[-107.908713,47.412635],[-107.909258,47.414182],[-107.911509,47.414771],[-107.914884,47.412898],[-107.91737,47.413312],[-107.919789,47.414884],[-107.920572,47.416167],[-107.919401,47.418003],[-107.918274,47.418277],[-107.91497,47.416648],[-107.912235,47.416878],[-107.908814,47.419173],[-107.909202,47.421566],[-107.911116,47.422787],[-107.913535,47.425084],[-107.913152,47.426908],[-107.910756,47.427879],[-107.909933,47.428984],[-107.912206,47.434347],[-107.913896,47.434547],[-107.916474,47.433469],[-107.917895,47.435157],[-107.91833,47.437399],[-107.920308,47.438341],[-107.92016,47.440012],[-107.916692,47.439407],[-107.915091,47.440166],[-107.913795,47.441732],[-107.918077,47.443687],[-107.920154,47.443943],[-107.923011,47.444781],[-107.922768,47.445202],[-107.917034,47.446633],[-107.913271,47.448217],[-107.90912,47.450692],[-107.912248,47.453214],[-107.911968,47.455745],[-107.910919,47.459538],[-107.912538,47.463788],[-107.912073,47.465714],[-107.908934,47.46793],[-107.907185,47.470118],[-107.904894,47.474812],[-107.907592,47.479232],[-107.909178,47.483213],[-107.909447,47.485416],[-107.909119,47.488011],[-107.908359,47.489541],[-107.90562,47.49221],[-107.902995,47.493709],[-107.901235,47.497179],[-107.899091,47.499998],[-107.897193,47.504075],[-107.896976,47.506981],[-107.898107,47.510071],[-107.899612,47.511286],[-107.901891,47.512151],[-107.912095,47.514482],[-107.917015,47.518057],[-107.918695,47.519684],[-107.919184,47.520588],[-107.918027,47.525342],[-107.91764,47.530147],[-107.918384,47.532953],[-107.919502,47.535189],[-107.922876,47.536985],[-107.925078,47.538646],[-107.927886,47.541414],[-107.930208,47.544324],[-107.930612,47.545582],[-107.93033,47.548037],[-107.929291,47.550158],[-107.926244,47.552728],[-107.923857,47.555816],[-107.923619,47.557232],[-107.923993,47.560479],[-107.926205,47.565185],[-107.928591,47.567612],[-107.931105,47.569073],[-107.936073,47.569242],[-107.942122,47.566476],[-107.944341,47.566326],[-107.96158,47.569875],[-107.962968,47.571314],[-107.964063,47.575176],[-107.96591,47.578486],[-107.971723,47.58294],[-107.976184,47.585931],[-107.985263,47.588717],[-107.988987,47.588853],[-107.991629,47.587802],[-107.99659,47.584409],[-108.000027,47.583312],[-108.005689,47.582183],[-108.013184,47.581361],[-108.024056,47.582346],[-108.035612,47.585213],[-108.038321,47.586264],[-108.046613,47.588483],[-108.049193,47.590492],[-108.053127,47.594504],[-108.057722,47.596075],[-108.061257,47.597994],[-108.062975,47.598418],[-108.065418,47.598294],[-108.06948,47.597143],[-108.074718,47.59488],[-108.079585,47.592012],[-108.083861,47.591143],[-108.085783,47.591446],[-108.09223,47.594147],[-108.097499,47.594041],[-108.103357,47.592225],[-108.107097,47.591413],[-108.112843,47.591336],[-108.119256,47.594052],[-108.123992,47.594654],[-108.131827,47.593974],[-108.134154,47.593541],[-108.137272,47.592428],[-108.1388,47.591255],[-108.141727,47.587814],[-108.144313,47.585708],[-108.147544,47.583642],[-108.154411,47.58185],[-108.160929,47.580749],[-108.171466,47.57994],[-108.178548,47.580064],[-108.182479,47.580979],[-108.185829,47.582773],[-108.190315,47.586906],[-108.194488,47.588855],[-108.196969,47.589445],[-108.19957,47.589725],[-108.203217,47.589402],[-108.207354,47.588195],[-108.209183,47.587131],[-108.213883,47.585354],[-108.219535,47.584655],[-108.223257,47.584605],[-108.237974,47.582369],[-108.24261,47.582184],[-108.245038,47.583078],[-108.249103,47.586858],[-108.251312,47.587784],[-108.25654,47.588269],[-108.259619,47.587987],[-108.262386,47.586703],[-108.266511,47.583038],[-108.274237,47.580792],[-108.282375,47.579615],[-108.286359,47.579963],[-108.298902,47.580669],[-108.302678,47.580449],[-108.30507,47.580738],[-108.313048,47.58365],[-108.313146,47.531071],[-108.31549,47.531071],[-108.315434,47.45491],[-108.314807,47.454034],[-108.31485,47.450915],[-108.31543,47.449944],[-108.31586,47.445612],[-108.315481,47.315152],[-108.336803,47.315159],[-108.3368,47.307932],[-108.396723,47.307975],[-108.398737,47.307561],[-108.399175,47.307975],[-108.406512,47.307693],[-108.418235,47.307663],[-108.421903,47.307979],[-108.464257,47.307967],[-108.464255,47.306838],[-108.579277,47.30655],[-108.585424,47.306269],[-108.590901,47.306262],[-108.591111,47.270135],[-108.600526,47.270168]]]}},{"type":"Feature","properties":{"zcta5":"59072","AFFGEOID10":"8600000US59072","GEOID10":"59072","ALAND10":2590962085,"AWATER10":6078356,"county_name":"Petroleum","state_code":"MT","county_state":"Petroleum County, MT","county_fips":"30069","risk_level_county":"Lowest Risk (85%+)","mean_vaccination_rate_county":85.6,"risk_level_zcta":"Medium Risk (70–79% vaccinated)","mean_vaccination_rate_zips":79.5,"cases":5},"geometry":{"type":"Polygon","coordinates":[[[-108.972627,46.750708],[-108.969836,46.747303],[-108.967442,46.746476],[-108.963835,46.744392],[-108.96334,46.742731],[-108.961081,46.740082],[-108.957371,46.739381],[-108.955951,46.736863],[-108.953015,46.735531],[-108.952329,46.734352],[-108.950311,46.734473],[-108.948803,46.732449],[-108.94495,46.731682],[-108.942087,46.730267],[-108.936272,46.726104],[-108.932548,46.726213],[-108.931104,46.725369],[-108.928632,46.72527],[-108.927572,46.724299],[-108.924102,46.724765],[-108.923377,46.72352],[-108.92269,46.72488],[-108.921806,46.72358],[-108.919054,46.723535],[-108.916575,46.722405],[-108.916877,46.723392],[-108.915218,46.724648],[-108.913471,46.725382],[-108.911493,46.724904],[-108.912207,46.726402],[-108.915312,46.729298],[-108.909628,46.731559],[-108.901354,46.730323],[-108.896071,46.730161],[-108.893314,46.728675],[-108.890555,46.728399],[-108.886837,46.725885],[-108.8841,46.725283],[-108.881276,46.724015],[-108.880146,46.723282],[-108.880206,46.720865],[-108.882556,46.7193],[-108.885281,46.718639],[-108.886478,46.717542],[-108.891563,46.7151],[-108.891128,46.713729],[-108.891518,46.709332],[-108.890373,46.708436],[-108.885195,46.707263],[-108.884099,46.706601],[-108.883274,46.703244],[-108.885403,46.701305],[-108.887896,46.700371],[-108.891852,46.698046],[-108.892452,46.696905],[-108.887504,46.692137],[-108.885072,46.686815],[-108.883917,46.685134],[-108.87581,46.680668],[-108.870893,46.686626],[-108.868818,46.688085],[-108.864742,46.688912],[-108.860258,46.687222],[-108.8572,46.683613],[-108.856633,46.680711],[-108.851086,46.676668],[-108.846437,46.674407],[-108.845141,46.67242],[-108.843813,46.671712],[-108.840061,46.671644],[-108.837897,46.67486],[-108.834831,46.67691],[-108.826017,46.67623],[-108.822109,46.675192],[-108.818189,46.673454],[-108.815683,46.674223],[-108.811845,46.676151],[-108.8106,46.67732],[-108.802999,46.677496],[-108.789608,46.677399],[-108.7856,46.676317],[-108.777185,46.676875],[-108.777048,46.678977],[-108.775274,46.681102],[-108.775551,46.684049],[-108.774651,46.688938],[-108.775826,46.691642],[-108.773285,46.689949],[-108.769302,46.688557],[-108.764442,46.687957],[-108.760859,46.690152],[-108.756762,46.691049],[-108.752049,46.691338],[-108.743762,46.690805],[-108.738205,46.690938],[-108.733618,46.689247],[-108.718021,46.678594],[-108.716343,46.677157],[-108.716099,46.651183],[-108.719159,46.651279],[-108.72133,46.650665],[-108.723701,46.647743],[-108.723799,46.64548],[-108.726452,46.642097],[-108.721392,46.642081],[-108.720007,46.641444],[-108.717634,46.643986],[-108.716146,46.644216],[-108.716265,46.634705],[-108.697627,46.63467],[-108.69017,46.634438],[-108.687597,46.632525],[-108.674517,46.619817],[-108.668411,46.616484],[-108.655788,46.600352],[-108.65542,46.599646],[-108.654557,46.591685],[-108.655174,46.591501],[-108.661021,46.594152],[-108.672781,46.597692],[-108.675167,46.598195],[-108.677693,46.600411],[-108.677951,46.602583],[-108.679475,46.605462],[-108.69519,46.605509],[-108.695301,46.598875],[-108.693495,46.598842],[-108.69507,46.597641],[-108.693359,46.597361],[-108.692277,46.598853],[-108.691848,46.597712],[-108.689397,46.597602],[-108.687289,46.595952],[-108.688387,46.594411],[-108.689835,46.594142],[-108.687814,46.591065],[-108.689246,46.590698],[-108.685413,46.589091],[-108.683304,46.586292],[-108.681123,46.585511],[-108.676266,46.581698],[-108.674281,46.578835],[-108.674184,46.576026],[-108.737315,46.576152],[-108.737551,46.540422],[-108.738494,46.539329],[-108.737576,46.538528],[-108.737291,46.507384],[-108.73683,46.505732],[-108.734521,46.502522],[-108.73943,46.502564],[-108.744272,46.503618],[-108.78493,46.503807],[-108.789265,46.502454],[-108.790909,46.501507],[-108.80629,46.503957],[-108.810257,46.504015],[-108.817708,46.504757],[-108.820948,46.505315],[-108.82511,46.503988],[-108.831289,46.504308],[-108.833086,46.504012],[-108.836762,46.50441],[-108.840601,46.503896],[-108.883775,46.504377],[-108.884223,46.490203],[-108.883543,46.489747],[-108.880056,46.489651],[-108.881542,46.466946],[-108.881792,46.451589],[-108.871925,46.451719],[-108.869726,46.451481],[-108.860802,46.451592],[-108.862277,46.364586],[-108.841331,46.364563],[-108.841724,46.350064],[-108.831262,46.350091],[-108.83161,46.320999],[-108.821158,46.321013],[-108.821129,46.306456],[-108.820392,46.305595],[-108.812061,46.305674],[-108.799006,46.305098],[-108.799817,46.277414],[-108.779272,46.277398],[-108.779176,46.219263],[-108.77798,46.219401],[-108.772503,46.222041],[-108.764486,46.226911],[-108.763804,46.228016],[-108.757955,46.224581],[-108.757913,46.222437],[-108.755801,46.221565],[-108.752414,46.221176],[-108.748538,46.223312],[-108.745011,46.224409],[-108.743393,46.226021],[-108.740163,46.226905],[-108.73711,46.228737],[-108.73671,46.233305],[-108.735602,46.234195],[-108.733914,46.234246],[-108.731927,46.233889],[-108.728876,46.230866],[-108.728267,46.225853],[-108.72724,46.225083],[-108.721947,46.223414],[-108.717565,46.221213],[-108.71689,46.21797],[-108.71685,46.21413],[-108.714752,46.212312],[-108.714199,46.211163],[-108.711875,46.209134],[-108.709838,46.208264],[-108.707323,46.207958],[-108.705189,46.205048],[-108.701409,46.205749],[-108.698871,46.204958],[-108.69571,46.204725],[-108.693007,46.203806],[-108.684917,46.202174],[-108.676366,46.199068],[-108.673739,46.1984],[-108.671257,46.197238],[-108.668435,46.195063],[-108.660808,46.191026],[-108.656529,46.190538],[-108.612907,46.190469],[-108.613689,46.132535],[-108.57248,46.132557],[-108.553467,46.132807],[-108.55086,46.132571],[-108.404795,46.132952],[-108.40491,46.221593],[-108.404856,46.23596],[-108.36294,46.235584],[-108.362927,46.25003],[-108.320952,46.249664],[-108.320812,46.263997],[-108.297121,46.263913],[-108.296643,46.265205],[-108.299509,46.267276],[-108.298769,46.269974],[-108.301269,46.271919],[-108.302478,46.271935],[-108.303434,46.27369],[-108.306802,46.276077],[-108.308884,46.276595],[-108.308585,46.278591],[-108.309953,46.281066],[-108.309423,46.286459],[-108.310848,46.289056],[-108.311869,46.29501],[-108.309861,46.298306],[-108.307947,46.29955],[-108.305668,46.299824],[-108.306781,46.302223],[-108.306442,46.307254],[-108.291048,46.307017],[-108.286148,46.305969],[-108.284597,46.3051],[-108.281202,46.304322],[-108.280541,46.305465],[-108.278164,46.306257],[-108.274981,46.306191],[-108.272431,46.305439],[-108.267551,46.306329],[-108.264978,46.307904],[-108.262605,46.307332],[-108.257495,46.307924],[-108.255482,46.308722],[-108.254491,46.310321],[-108.251785,46.312444],[-108.243433,46.312428],[-108.244687,46.314118],[-108.24436,46.316265],[-108.242319,46.316798],[-108.241329,46.319877],[-108.234437,46.320566],[-108.231207,46.321938],[-108.226656,46.321734],[-108.226295,46.323744],[-108.228108,46.323652],[-108.230715,46.325502],[-108.229298,46.327536],[-108.225969,46.329936],[-108.224253,46.329388],[-108.222834,46.327698],[-108.219305,46.32578],[-108.215973,46.325643],[-108.211356,46.325964],[-108.208487,46.326787],[-108.208521,46.327518],[-108.204201,46.328731],[-108.202387,46.329736],[-108.199617,46.329439],[-108.197967,46.328091],[-108.195788,46.327353],[-108.195757,46.329988],[-108.194636,46.330696],[-108.195844,46.331523],[-108.195924,46.345184],[-108.194472,46.344564],[-108.192367,46.345739],[-108.192663,46.365149],[-108.171665,46.365232],[-108.172083,46.398679],[-108.151263,46.398692],[-108.15123,46.412722],[-108.154944,46.41297],[-108.155406,46.414021],[-108.157817,46.414364],[-108.158609,46.416398],[-108.157649,46.418591],[-108.153715,46.423273],[-108.152689,46.42606],[-108.151186,46.426422],[-108.151262,46.435496],[-108.155029,46.435108],[-108.156515,46.435908],[-108.160646,46.435383],[-108.159621,46.437005],[-108.165305,46.436458],[-108.168476,46.438561],[-108.170493,46.437853],[-108.173367,46.43927],[-108.175316,46.441738],[-108.176968,46.442949],[-108.177068,46.44071],[-108.182025,46.44199],[-108.186387,46.441327],[-108.190055,46.441579],[-108.193162,46.442333],[-108.197657,46.442652],[-108.202053,46.442103],[-108.204663,46.441326],[-108.211008,46.440457],[-108.213256,46.44185],[-108.21828,46.441689],[-108.220161,46.443264],[-108.222406,46.443651],[-108.229667,46.446593],[-108.232537,46.448465],[-108.236077,46.449331],[-108.241152,46.448646],[-108.245962,46.449173],[-108.246121,46.452662],[-108.244366,46.454986],[-108.241499,46.457528],[-108.239909,46.46132],[-108.238435,46.466383],[-108.235892,46.471757],[-108.230498,46.473861],[-108.228606,46.474966],[-108.226131,46.472438],[-108.223054,46.471342],[-108.220872,46.471892],[-108.22203,46.473103],[-108.221899,46.475456],[-108.217204,46.476119],[-108.214657,46.475206],[-108.213864,46.476463],[-108.211285,46.476372],[-108.21188,46.477194],[-108.204638,46.478041],[-108.201993,46.477584],[-108.199313,46.478909],[-108.199049,46.481376],[-108.201762,46.482724],[-108.209899,46.485716],[-108.211487,46.486927],[-108.212877,46.489211],[-108.215094,46.490901],[-108.21483,46.492615],[-108.215757,46.495059],[-108.212945,46.496499],[-108.210564,46.498373],[-108.209811,46.500781],[-108.207709,46.502894],[-108.211307,46.502926],[-108.21599,46.501395],[-108.217032,46.501426],[-108.217102,46.508289],[-108.215897,46.508556],[-108.213726,46.506757],[-108.206952,46.506343],[-108.204849,46.503901],[-108.201704,46.503186],[-108.19912,46.503073],[-108.197787,46.503876],[-108.193427,46.504775],[-108.195624,46.506415],[-108.193784,46.507414],[-108.191833,46.507411],[-108.188692,46.505355],[-108.187458,46.503664],[-108.185749,46.503317],[-108.183746,46.504835],[-108.181937,46.504732],[-108.180283,46.508494],[-108.181298,46.510348],[-108.18052,46.511885],[-108.177706,46.511967],[-108.176864,46.514029],[-108.175604,46.514336],[-108.17301,46.514073],[-108.171308,46.514741],[-108.165171,46.514485],[-108.162092,46.51481],[-108.154711,46.514684],[-108.155681,46.550577],[-108.159795,46.550082],[-108.160988,46.54894],[-108.164034,46.548438],[-108.16751,46.549284],[-108.170656,46.54933],[-108.172576,46.550107],[-108.178073,46.550908],[-108.179497,46.549811],[-108.183306,46.549949],[-108.185922,46.551297],[-108.187875,46.5502],[-108.196121,46.549902],[-108.198902,46.551136],[-108.202131,46.551347],[-108.202697,46.552086],[-108.204995,46.551501],[-108.206121,46.550472],[-108.208407,46.550541],[-108.216212,46.549612],[-108.218425,46.549847],[-108.218893,46.553225],[-108.219723,46.555279],[-108.221514,46.556786],[-108.226586,46.559202],[-108.231657,46.559883],[-108.236562,46.561043],[-108.237524,46.561978],[-108.238592,46.571071],[-108.237503,46.57548],[-108.238105,46.582494],[-108.238346,46.593071],[-108.250226,46.59302],[-108.253322,46.593727],[-108.258977,46.594454],[-108.259389,46.585967],[-108.259036,46.578752],[-108.312549,46.578084],[-108.311808,46.581833],[-108.313879,46.584294],[-108.314031,46.590161],[-108.310936,46.591438],[-108.306732,46.591748],[-108.303548,46.59491],[-108.303538,46.634988],[-108.368704,46.634905],[-108.372851,46.63552],[-108.379145,46.634832],[-108.381377,46.636111],[-108.385134,46.636846],[-108.387666,46.635541],[-108.386855,46.606134],[-108.387438,46.605923],[-108.416511,46.60558],[-108.416224,46.601781],[-108.417899,46.602586],[-108.420448,46.605316],[-108.424457,46.606995],[-108.429406,46.607719],[-108.433606,46.609141],[-108.436324,46.609027],[-108.440634,46.608091],[-108.442425,46.608753],[-108.443718,46.610033],[-108.447067,46.61202],[-108.447995,46.613345],[-108.448194,46.615722],[-108.451495,46.619969],[-108.455102,46.620443],[-108.457904,46.619918],[-108.469159,46.620121],[-108.469171,46.591316],[-108.468971,46.587545],[-108.475667,46.587385],[-108.477456,46.586083],[-108.483424,46.586311],[-108.487335,46.585397],[-108.489257,46.586469],[-108.492471,46.586329],[-108.501613,46.586962],[-108.504318,46.587797],[-108.503954,46.589477],[-108.506325,46.592145],[-108.506253,46.597414],[-108.489726,46.598026],[-108.487077,46.602802],[-108.489929,46.603121],[-108.493324,46.601204],[-108.497701,46.600137],[-108.500686,46.602366],[-108.503017,46.603526],[-108.506191,46.604242],[-108.506101,46.613374],[-108.506953,46.616818],[-108.515163,46.617576],[-108.518922,46.618318],[-108.522658,46.616815],[-108.526293,46.616883],[-108.530028,46.61752],[-108.532649,46.615828],[-108.534938,46.615371],[-108.537644,46.613772],[-108.54143,46.613325],[-108.542441,46.610586],[-108.541937,46.604089],[-108.540785,46.601696],[-108.545847,46.604216],[-108.550513,46.604599],[-108.560551,46.604972],[-108.569387,46.604868],[-108.577642,46.607495],[-108.582021,46.611448],[-108.582784,46.613778],[-108.586027,46.618786],[-108.584577,46.622439],[-108.583549,46.623421],[-108.581195,46.622736],[-108.576985,46.624967],[-108.572538,46.624245],[-108.569958,46.62523],[-108.576061,46.629745],[-108.579114,46.6334],[-108.581635,46.635159],[-108.58399,46.634816],[-108.589404,46.631638],[-108.591538,46.628711],[-108.592668,46.6283],[-108.595989,46.64013],[-108.599391,46.654813],[-108.601568,46.678791],[-108.602149,46.68214],[-108.605156,46.691654],[-108.606395,46.700077],[-108.605514,46.720213],[-108.573388,46.720366],[-108.570561,46.721213],[-108.566659,46.720337],[-108.526412,46.720241],[-108.528806,46.717315],[-108.532429,46.714029],[-108.532761,46.713189],[-108.531003,46.710215],[-108.52944,46.7109],[-108.527116,46.7093],[-108.521272,46.708155],[-108.518781,46.707172],[-108.516857,46.704909],[-108.515456,46.705755],[-108.505326,46.705893],[-108.505288,46.704788],[-108.502565,46.705769],[-108.497927,46.705452],[-108.496301,46.705728],[-108.494377,46.70669],[-108.493582,46.708175],[-108.495878,46.710002],[-108.493757,46.713682],[-108.493735,46.723365],[-108.483006,46.723251],[-108.47988,46.72607],[-108.471644,46.731352],[-108.468621,46.73366],[-108.465964,46.736471],[-108.462819,46.738202],[-108.462273,46.739108],[-108.462297,46.741588],[-108.461606,46.744816],[-108.461607,46.749268],[-108.379299,46.749555],[-108.366503,46.750562],[-108.370961,46.759794],[-108.373524,46.762945],[-108.373725,46.763791],[-108.379058,46.764613],[-108.382623,46.766016],[-108.382539,46.767012],[-108.38989,46.77091],[-108.392175,46.774345],[-108.393192,46.775043],[-108.400277,46.777084],[-108.40055,46.778106],[-108.400773,46.807337],[-108.402215,46.809548],[-108.405575,46.812723],[-108.407424,46.813887],[-108.41084,46.815256],[-108.413804,46.815351],[-108.417526,46.816354],[-108.423184,46.816345],[-108.418343,46.818156],[-108.416706,46.820868],[-108.414959,46.821776],[-108.412688,46.821826],[-108.411213,46.823708],[-108.410658,46.826127],[-108.409312,46.82739],[-108.405157,46.828729],[-108.400824,46.829453],[-108.400571,46.838691],[-108.400888,46.840367],[-108.409363,46.843749],[-108.411787,46.844408],[-108.411429,46.84505],[-108.413805,46.844691],[-108.419185,46.846113],[-108.422156,46.847259],[-108.42587,46.848216],[-108.431785,46.850662],[-108.443177,46.850394],[-108.45173,46.850602],[-108.453543,46.851021],[-108.477193,46.850838],[-108.482082,46.852424],[-108.484174,46.850726],[-108.487369,46.850428],[-108.49046,46.850694],[-108.503999,46.850724],[-108.511546,46.851307],[-108.51475,46.851131],[-108.525312,46.852749],[-108.527376,46.853889],[-108.52808,46.856561],[-108.527496,46.858699],[-108.527681,46.86111],[-108.528709,46.862242],[-108.530185,46.866934],[-108.528217,46.870376],[-108.526083,46.87089],[-108.525086,46.873206],[-108.522591,46.875016],[-108.525619,46.876803],[-108.52953,46.880121],[-108.530613,46.882118],[-108.533733,46.884387],[-108.534107,46.886833],[-108.536511,46.889804],[-108.536448,46.903447],[-108.541825,46.901347],[-108.54323,46.90118],[-108.54849,46.902022],[-108.55117,46.903962],[-108.550623,46.906463],[-108.554589,46.912381],[-108.55789,46.911171],[-108.563592,46.911628],[-108.567126,46.910143],[-108.567926,46.909114],[-108.570926,46.908063],[-108.57476,46.907536],[-108.579294,46.907513],[-108.585063,46.90854],[-108.596864,46.908355],[-108.605431,46.907484],[-108.609231,46.90666],[-108.610217,46.906071],[-108.610902,46.85478],[-108.610663,46.852503],[-108.611116,46.836776],[-108.630689,46.836807],[-108.631451,46.749969],[-108.631016,46.749386],[-108.715592,46.749466],[-108.789916,46.749949],[-108.793486,46.749653],[-108.794213,46.749986],[-108.972627,46.750708]],[[-108.768462,46.274718],[-108.764315,46.274804],[-108.757576,46.276881],[-108.751769,46.281562],[-108.74634,46.282389],[-108.737839,46.284724],[-108.735698,46.286393],[-108.735605,46.28377],[-108.738544,46.281717],[-108.736606,46.279072],[-108.736283,46.275741],[-108.736588,46.266735],[-108.737627,46.263566],[-108.744667,46.262707],[-108.766969,46.262829],[-108.767537,46.265945],[-108.769328,46.267779],[-108.768462,46.274718]]]}}]}