{"type":"FeatureCollection","features":[{"type":"Feature","properties":{"zcta5":"45378","AFFGEOID10":"8600000US45378","GEOID10":"45378","ALAND10":591626,"AWATER10":0,"county_name":"Preble","state_code":"OH","county_state":"Preble County, OH","county_fips":"39135","risk_level_county":"Lower Risk (80–84% vaccinated)","mean_vaccination_rate_county":84.74,"risk_level_zcta":"Very High Risk (<60% vaccinated)","mean_vaccination_rate_zips":59.67,"cases":13},"geometry":{"type":"Polygon","coordinates":[[[-84.491317,39.906509],[-84.490806,39.904684],[-84.494587,39.904501],[-84.494557,39.90308],[-84.493659,39.901931],[-84.491877,39.901222],[-84.491849,39.899054],[-84.487399,39.899097],[-84.487372,39.897695],[-84.485162,39.897716],[-84.485472,39.908958],[-84.488441,39.906848],[-84.491317,39.906509]]]}},{"type":"Feature","properties":{"zcta5":"45330","AFFGEOID10":"8600000US45330","GEOID10":"45330","ALAND10":2251756,"AWATER10":2167,"county_name":"Preble","state_code":"OH","county_state":"Preble County, OH","county_fips":"39135","risk_level_county":"Lower Risk (80–84% vaccinated)","mean_vaccination_rate_county":84.74,"risk_level_zcta":"Medium Risk (70–79% vaccinated)","mean_vaccination_rate_zips":73.67,"cases":13},"geometry":{"type":"Polygon","coordinates":[[[-84.536903,39.654647],[-84.538902,39.65361],[-84.535484,39.650871],[-84.537173,39.646474],[-84.537175,39.640955],[-84.530887,39.641005],[-84.528236,39.6431],[-84.526906,39.643226],[-84.526297,39.644662],[-84.525377,39.641141],[-84.521188,39.64124],[-84.521301,39.643104],[-84.517868,39.643108],[-84.518112,39.656646],[-84.519683,39.656631],[-84.520232,39.654937],[-84.520141,39.651025],[-84.527023,39.651069],[-84.526664,39.653209],[-84.524992,39.656224],[-84.529495,39.656482],[-84.536903,39.654647]]]}},{"type":"Feature","properties":{"zcta5":"45042","AFFGEOID10":"8600000US45042","GEOID10":"45042","ALAND10":127741649,"AWATER10":1601441,"county_name":"Preble","state_code":"OH","county_state":"Preble County, OH","county_fips":"39135","risk_level_county":"Lower Risk (80–84% vaccinated)","mean_vaccination_rate_county":84.74,"risk_level_zcta":"Higher Risk (60–69% vaccinated)","mean_vaccination_rate_zips":66.67,"cases":13},"geometry":{"type":"Polygon","coordinates":[[[-84.551086,39.588119],[-84.551033,39.58699],[-84.553771,39.58699],[-84.553771,39.58591],[-84.554504,39.586029],[-84.554489,39.582305],[-84.554167,39.568473],[-84.553743,39.567779],[-84.553049,39.538069],[-84.550366,39.538112],[-84.549744,39.540306],[-84.54815,39.542049],[-84.537613,39.541414],[-84.535841,39.538374],[-84.532656,39.538395],[-84.532668,39.540241],[-84.531531,39.540265],[-84.531534,39.542075],[-84.522939,39.542098],[-84.522927,39.541428],[-84.513311,39.541392],[-84.509848,39.539199],[-84.506283,39.53861],[-84.494751,39.538673],[-84.491954,39.537006],[-84.489343,39.532105],[-84.486869,39.530328],[-84.482977,39.530146],[-84.480398,39.531619],[-84.478384,39.530596],[-84.476256,39.53042],[-84.470356,39.512886],[-84.468815,39.504072],[-84.464963,39.504354],[-84.460918,39.500909],[-84.45817,39.497246],[-84.454344,39.496257],[-84.446928,39.491621],[-84.44584,39.490106],[-84.440661,39.489548],[-84.439426,39.488807],[-84.439122,39.488668],[-84.434203,39.494222],[-84.423043,39.497457],[-84.419743,39.501157],[-84.417436,39.50767],[-84.418033,39.510976],[-84.41613,39.513883],[-84.412923,39.520296],[-84.412056,39.520022],[-84.409044,39.519084],[-84.403463,39.516299],[-84.402354,39.517658],[-84.401978,39.51642],[-84.39358,39.514266],[-84.391978,39.514497],[-84.391587,39.513783],[-84.389051,39.513313],[-84.389075,39.512639],[-84.369638,39.511523],[-84.369538,39.512509],[-84.366199,39.512354],[-84.366273,39.511364],[-84.356266,39.510886],[-84.350411,39.51025],[-84.344121,39.510527],[-84.335534,39.510227],[-84.335426,39.511353],[-84.33428,39.524329],[-84.330092,39.524462],[-84.330125,39.523803],[-84.326965,39.523854],[-84.32473,39.525073],[-84.32403,39.527215],[-84.32178,39.531305],[-84.333607,39.531727],[-84.332038,39.548554],[-84.332865,39.548533],[-84.347623,39.544956],[-84.353085,39.544109],[-84.361918,39.541752],[-84.362777,39.542117],[-84.364736,39.543843],[-84.364392,39.553748],[-84.364486,39.559457],[-84.365124,39.583999],[-84.374553,39.583891],[-84.383535,39.583829],[-84.388308,39.589856],[-84.407632,39.589856],[-84.407476,39.586047],[-84.408221,39.584998],[-84.409997,39.584901],[-84.412378,39.583544],[-84.415561,39.583529],[-84.412856,39.589861],[-84.463146,39.589956],[-84.474246,39.590155],[-84.479213,39.591024],[-84.479416,39.604091],[-84.489006,39.603885],[-84.494766,39.60231],[-84.494781,39.597484],[-84.493835,39.595726],[-84.494224,39.592475],[-84.494972,39.591018],[-84.493751,39.587772],[-84.495651,39.586631],[-84.495697,39.581802],[-84.496841,39.580192],[-84.494468,39.575969],[-84.492179,39.573944],[-84.484748,39.574615],[-84.479919,39.57426],[-84.47908,39.573844],[-84.478927,39.56879],[-84.493782,39.568489],[-84.495353,39.570781],[-84.498443,39.571006],[-84.500038,39.57056],[-84.502372,39.570987],[-84.503929,39.573654],[-84.510337,39.573585],[-84.510284,39.572414],[-84.512313,39.57003],[-84.515281,39.568122],[-84.524849,39.568069],[-84.529168,39.573806],[-84.531311,39.57505],[-84.532653,39.576747],[-84.535552,39.578186],[-84.53479,39.580921],[-84.533767,39.582401],[-84.543479,39.582359],[-84.546195,39.583709],[-84.548103,39.585494],[-84.549743,39.588054],[-84.551086,39.588119]]]}},{"type":"Feature","properties":{"zcta5":"45327","AFFGEOID10":"8600000US45327","GEOID10":"45327","ALAND10":124390408,"AWATER10":36219,"county_name":"Preble","state_code":"OH","county_state":"Preble County, OH","county_fips":"39135","risk_level_county":"Lower Risk (80–84% vaccinated)","mean_vaccination_rate_county":84.74,"risk_level_zcta":"Medium Risk (70–79% vaccinated)","mean_vaccination_rate_zips":74.83,"cases":13},"geometry":{"type":"Polygon","coordinates":[[[-84.487319,39.656955],[-84.489944,39.655715],[-84.490722,39.654552],[-84.491485,39.651115],[-84.494125,39.648952],[-84.499252,39.647369],[-84.499412,39.646121],[-84.498245,39.645469],[-84.498046,39.642906],[-84.49723,39.642131],[-84.49691,39.637897],[-84.497978,39.635818],[-84.497299,39.63385],[-84.498031,39.631862],[-84.496116,39.629215],[-84.495759,39.627548],[-84.486556,39.615012],[-84.486526,39.612022],[-84.479569,39.612195],[-84.479416,39.604091],[-84.479213,39.591024],[-84.474246,39.590155],[-84.463146,39.589956],[-84.412856,39.589861],[-84.415561,39.583529],[-84.412378,39.583544],[-84.409997,39.584901],[-84.408221,39.584998],[-84.407476,39.586047],[-84.407632,39.589856],[-84.388308,39.589856],[-84.383535,39.583829],[-84.374553,39.583891],[-84.365124,39.583999],[-84.365232,39.589493],[-84.337381,39.589355],[-84.326785,39.589313],[-84.326826,39.590778],[-84.326841,39.593459],[-84.32704,39.599239],[-84.327385,39.600289],[-84.327391,39.600745],[-84.329073,39.601262],[-84.329659,39.602687],[-84.334431,39.605247],[-84.332236,39.606547],[-84.327444,39.606599],[-84.32752,39.614832],[-84.32202,39.614765],[-84.321155,39.616555],[-84.319157,39.617096],[-84.320183,39.61877],[-84.321426,39.618176],[-84.326286,39.61823],[-84.327581,39.61877],[-84.327738,39.628754],[-84.338712,39.628633],[-84.341514,39.635444],[-84.342702,39.638912],[-84.343453,39.642686],[-84.342655,39.643468],[-84.338633,39.643443],[-84.338463,39.64463],[-84.340132,39.645951],[-84.320939,39.664945],[-84.310529,39.676031],[-84.313906,39.677898],[-84.313943,39.680757],[-84.316143,39.683657],[-84.315043,39.685457],[-84.316143,39.687136],[-84.319492,39.68756],[-84.347547,39.687309],[-84.347561,39.701876],[-84.366458,39.701788],[-84.366428,39.685305],[-84.386754,39.685129],[-84.386027,39.672385],[-84.394551,39.67204],[-84.391542,39.666058],[-84.392547,39.662367],[-84.387841,39.65826],[-84.385293,39.658708],[-84.385215,39.657856],[-84.37921,39.657904],[-84.378772,39.656624],[-84.377273,39.655786],[-84.375097,39.652496],[-84.373096,39.651632],[-84.372572,39.64791],[-84.371767,39.646508],[-84.372902,39.64323],[-84.375328,39.643286],[-84.376156,39.64717],[-84.379068,39.651728],[-84.380708,39.653104],[-84.384149,39.654502],[-84.393081,39.657767],[-84.454442,39.657239],[-84.457985,39.657337],[-84.480149,39.65705],[-84.487319,39.656955]]]}},{"type":"Feature","properties":{"zcta5":"45311","AFFGEOID10":"8600000US45311","GEOID10":"45311","ALAND10":236750570,"AWATER10":2081565,"county_name":"Preble","state_code":"OH","county_state":"Preble County, OH","county_fips":"39135","risk_level_county":"Lower Risk (80–84% vaccinated)","mean_vaccination_rate_county":84.74,"risk_level_zcta":"Higher Risk (60–69% vaccinated)","mean_vaccination_rate_zips":68.95,"cases":13},"geometry":{"type":"Polygon","coordinates":[[[-84.8147349825853,39.6248317464282],[-84.8148010837105,39.6159640826199],[-84.805084,39.616018],[-84.805068,39.61459],[-84.798454,39.614606],[-84.796478,39.614276],[-84.796211,39.6193],[-84.801879,39.626457],[-84.793548,39.626392],[-84.793556,39.624954],[-84.791168,39.622734],[-84.790298,39.619388],[-84.790748,39.618408],[-84.789337,39.614597],[-84.78527,39.611537],[-84.776016,39.611839],[-84.772868,39.604369],[-84.759368,39.60432],[-84.76007,39.602645],[-84.763389,39.600498],[-84.763366,39.598453],[-84.764938,39.594635],[-84.761428,39.594047],[-84.760437,39.592914],[-84.756126,39.592174],[-84.755531,39.591091],[-84.753013,39.589706],[-84.751144,39.589332],[-84.746566,39.589916],[-84.7443,39.58871],[-84.743362,39.587387],[-84.743118,39.584964],[-84.748962,39.584526],[-84.750457,39.583377],[-84.756959,39.582143],[-84.759071,39.582214],[-84.757591,39.57743],[-84.755308,39.574927],[-84.752361,39.575555],[-84.74636,39.566955],[-84.703037,39.567467],[-84.637571,39.567363],[-84.636535,39.577738],[-84.629207,39.574849],[-84.629257,39.57798],[-84.626998,39.577896],[-84.627052,39.579654],[-84.629203,39.5797],[-84.62709,39.581924],[-84.620246,39.581939],[-84.61238,39.583023],[-84.610717,39.583766],[-84.610786,39.588779],[-84.614273,39.591762],[-84.614906,39.596515],[-84.62033,39.596473],[-84.620735,39.611133],[-84.619697,39.611301],[-84.619445,39.616111],[-84.612579,39.612945],[-84.601814,39.60844],[-84.59983,39.606788],[-84.594566,39.604534],[-84.590965,39.603553],[-84.589218,39.602642],[-84.5643,39.602897],[-84.563087,39.60308],[-84.558471,39.600231],[-84.554794,39.600227],[-84.554435,39.606739],[-84.547866,39.606803],[-84.54074,39.607288],[-84.535629,39.607357],[-84.532371,39.603015],[-84.531845,39.596912],[-84.536089,39.597434],[-84.534591,39.592044],[-84.533187,39.5909],[-84.533195,39.589112],[-84.531967,39.589122],[-84.532577,39.58385],[-84.533187,39.582397],[-84.509048,39.582828],[-84.512062,39.584434],[-84.514511,39.5881],[-84.517234,39.594436],[-84.518379,39.595439],[-84.513916,39.595943],[-84.510009,39.598705],[-84.503883,39.600334],[-84.501968,39.60115],[-84.494766,39.60231],[-84.489006,39.603885],[-84.479416,39.604091],[-84.479569,39.612195],[-84.486526,39.612022],[-84.486556,39.615012],[-84.495759,39.627548],[-84.496116,39.629215],[-84.498031,39.631862],[-84.497299,39.63385],[-84.497978,39.635818],[-84.49691,39.637897],[-84.49723,39.642131],[-84.498046,39.642906],[-84.498245,39.645469],[-84.499412,39.646121],[-84.499252,39.647369],[-84.494125,39.648952],[-84.491485,39.651115],[-84.490722,39.654552],[-84.489944,39.655715],[-84.487319,39.656955],[-84.518112,39.656646],[-84.517868,39.643108],[-84.521301,39.643104],[-84.521188,39.64124],[-84.525377,39.641141],[-84.526297,39.644662],[-84.526906,39.643226],[-84.528236,39.6431],[-84.530887,39.641005],[-84.537175,39.640955],[-84.537173,39.646474],[-84.555404,39.64363],[-84.555496,39.651889],[-84.55722,39.653327],[-84.564407,39.653247],[-84.565574,39.656311],[-84.57463,39.656288],[-84.575096,39.672821],[-84.584136,39.67276],[-84.584289,39.670852],[-84.605781,39.670673],[-84.608764,39.672775],[-84.609741,39.6744],[-84.617744,39.674186],[-84.617881,39.670604],[-84.61589,39.668514],[-84.616546,39.667011],[-84.620429,39.665504],[-84.623252,39.655933],[-84.635047,39.655887],[-84.6352,39.669986],[-84.634765,39.673507],[-84.639709,39.673923],[-84.641197,39.672088],[-84.642356,39.669124],[-84.646278,39.663272],[-84.646781,39.659835],[-84.647819,39.658035],[-84.649246,39.660724],[-84.648979,39.661682],[-84.650138,39.663398],[-84.650199,39.677616],[-84.673095,39.677581],[-84.673217,39.670398],[-84.672637,39.66761],[-84.669105,39.667514],[-84.669006,39.655685],[-84.677505,39.65562],[-84.685691,39.655761],[-84.686622,39.659633],[-84.685676,39.66257],[-84.686264,39.663043],[-84.685333,39.665382],[-84.685813,39.667846],[-84.686187,39.66843],[-84.688774,39.668296],[-84.691154,39.669048],[-84.693702,39.671722],[-84.695182,39.674106],[-84.698654,39.674057],[-84.700576,39.675937],[-84.70388,39.677536],[-84.70365,39.678658],[-84.704452,39.681644],[-84.70639,39.682483],[-84.708106,39.684177],[-84.708091,39.685256],[-84.712318,39.68634],[-84.712905,39.6702],[-84.769454,39.67031],[-84.769538,39.676544],[-84.771827,39.676471],[-84.771888,39.679183],[-84.769859,39.683151],[-84.769729,39.685016],[-84.797935,39.685092],[-84.79792,39.704101],[-84.799842,39.704032],[-84.799819,39.699764],[-84.801948,39.69308],[-84.802627,39.688388],[-84.803932,39.687397],[-84.803901,39.685264],[-84.81448897519401,39.6851480803668],[-84.81453,39.680429],[-84.814619,39.669174],[-84.814323,39.655814],[-84.814705,39.628854],[-84.8147349825853,39.6248317464282]]]}},{"type":"Feature","properties":{"zcta5":"45003","AFFGEOID10":"8600000US45003","GEOID10":"45003","ALAND10":27362503,"AWATER10":1104101,"county_name":"Preble","state_code":"OH","county_state":"Preble County, OH","county_fips":"39135","risk_level_county":"Lower Risk (80–84% vaccinated)","mean_vaccination_rate_county":84.74,"risk_level_zcta":"Lower Risk (80–84% vaccinated)","mean_vaccination_rate_zips":84.97,"cases":13},"geometry":{"type":"Polygon","coordinates":[[[-84.8148010837105,39.6159640826199],[-84.815156,39.568351],[-84.8150361906572,39.5676953269799],[-84.814955,39.567251],[-84.814955,39.566251],[-84.8150169039624,39.5606177394224],[-84.811012,39.560823],[-84.810919,39.559922],[-84.808333,39.559819],[-84.795892,39.547595],[-84.795825,39.560335],[-84.785822,39.560552],[-84.785967,39.567664],[-84.770004,39.567623],[-84.763092,39.566604],[-84.75785,39.566806],[-84.74636,39.566955],[-84.752361,39.575555],[-84.755308,39.574927],[-84.757591,39.57743],[-84.759071,39.582214],[-84.756959,39.582143],[-84.750457,39.583377],[-84.748962,39.584526],[-84.743118,39.584964],[-84.743362,39.587387],[-84.7443,39.58871],[-84.746566,39.589916],[-84.751144,39.589332],[-84.753013,39.589706],[-84.755531,39.591091],[-84.756126,39.592174],[-84.760437,39.592914],[-84.761428,39.594047],[-84.764938,39.594635],[-84.763366,39.598453],[-84.763389,39.600498],[-84.76007,39.602645],[-84.759368,39.60432],[-84.772868,39.604369],[-84.776016,39.611839],[-84.78527,39.611537],[-84.789337,39.614597],[-84.790748,39.618408],[-84.790298,39.619388],[-84.791168,39.622734],[-84.793556,39.624954],[-84.793548,39.626392],[-84.801879,39.626457],[-84.796211,39.6193],[-84.796478,39.614276],[-84.798454,39.614606],[-84.805068,39.61459],[-84.805084,39.616018],[-84.8148010837105,39.6159640826199]]]}},{"type":"Feature","properties":{"zcta5":"45070","AFFGEOID10":"8600000US45070","GEOID10":"45070","ALAND10":1042871,"AWATER10":0,"county_name":"Preble","state_code":"OH","county_state":"Preble County, OH","county_fips":"39135","risk_level_county":"Lower Risk (80–84% vaccinated)","mean_vaccination_rate_county":84.74,"risk_level_zcta":"Very High Risk (<60% vaccinated)","mean_vaccination_rate_zips":46.27,"cases":13},"geometry":{"type":"Polygon","coordinates":[[[-84.551086,39.588119],[-84.551216,39.590317],[-84.554644,39.590303],[-84.554725,39.595237],[-84.564025,39.595375],[-84.56369,39.586967],[-84.561477,39.587345],[-84.558769,39.585071],[-84.55751,39.58221],[-84.554489,39.582305],[-84.554504,39.586029],[-84.553771,39.58591],[-84.553771,39.58699],[-84.551033,39.58699],[-84.551086,39.588119]]]}},{"type":"Feature","properties":{"zcta5":"45320","AFFGEOID10":"8600000US45320","GEOID10":"45320","ALAND10":346580469,"AWATER10":1007300,"county_name":"Preble","state_code":"OH","county_state":"Preble County, OH","county_fips":"39135","risk_level_county":"Lower Risk (80–84% vaccinated)","mean_vaccination_rate_county":84.74,"risk_level_zcta":"Medium Risk (70–79% vaccinated)","mean_vaccination_rate_zips":73.7,"cases":13},"geometry":{"type":"Polygon","coordinates":[[[-84.81412906532259,39.7266202480145],[-84.814129,39.726556],[-84.81448897519401,39.6851480803668],[-84.803901,39.685264],[-84.803932,39.687397],[-84.802627,39.688388],[-84.801948,39.69308],[-84.799819,39.699764],[-84.799842,39.704032],[-84.79792,39.704101],[-84.797935,39.685092],[-84.769729,39.685016],[-84.769859,39.683151],[-84.771888,39.679183],[-84.771827,39.676471],[-84.769538,39.676544],[-84.769454,39.67031],[-84.712905,39.6702],[-84.712318,39.68634],[-84.708091,39.685256],[-84.708106,39.684177],[-84.70639,39.682483],[-84.704452,39.681644],[-84.70365,39.678658],[-84.70388,39.677536],[-84.700576,39.675937],[-84.698654,39.674057],[-84.695182,39.674106],[-84.693702,39.671722],[-84.691154,39.669048],[-84.688774,39.668296],[-84.686187,39.66843],[-84.685813,39.667846],[-84.685333,39.665382],[-84.686264,39.663043],[-84.685676,39.66257],[-84.686622,39.659633],[-84.685691,39.655761],[-84.677505,39.65562],[-84.669006,39.655685],[-84.669105,39.667514],[-84.672637,39.66761],[-84.673217,39.670398],[-84.673095,39.677581],[-84.650199,39.677616],[-84.650138,39.663398],[-84.648979,39.661682],[-84.649246,39.660724],[-84.647819,39.658035],[-84.646781,39.659835],[-84.646278,39.663272],[-84.642356,39.669124],[-84.641197,39.672088],[-84.639709,39.673923],[-84.634765,39.673507],[-84.6352,39.669986],[-84.635047,39.655887],[-84.623252,39.655933],[-84.620429,39.665504],[-84.616546,39.667011],[-84.61589,39.668514],[-84.617881,39.670604],[-84.617744,39.674186],[-84.609741,39.6744],[-84.608764,39.672775],[-84.605781,39.670673],[-84.584289,39.670852],[-84.584136,39.67276],[-84.575096,39.672821],[-84.57463,39.656288],[-84.565574,39.656311],[-84.564407,39.653247],[-84.55722,39.653327],[-84.555496,39.651889],[-84.555404,39.64363],[-84.537173,39.646474],[-84.535484,39.650871],[-84.538902,39.65361],[-84.536903,39.654647],[-84.537002,39.661151],[-84.537605,39.665119],[-84.537117,39.669258],[-84.538864,39.669269],[-84.538864,39.671115],[-84.557865,39.671069],[-84.567276,39.679855],[-84.570465,39.680847],[-84.571441,39.683864],[-84.575271,39.687423],[-84.575498,39.704688],[-84.581199,39.704715],[-84.58097,39.707695],[-84.593734,39.707588],[-84.594413,39.75872],[-84.579368,39.758701],[-84.579704,39.758876],[-84.582038,39.758834],[-84.583625,39.760917],[-84.584907,39.760845],[-84.587135,39.762786],[-84.591361,39.762008],[-84.593803,39.762752],[-84.594543,39.764045],[-84.594749,39.773353],[-84.594306,39.773021],[-84.576606,39.773159],[-84.576904,39.811927],[-84.579841,39.812591],[-84.580589,39.815052],[-84.593826,39.813964],[-84.594871,39.81398],[-84.595115,39.829059],[-84.611541,39.828899],[-84.610939,39.830001],[-84.611473,39.831848],[-84.613662,39.833339],[-84.61441,39.835071],[-84.61296,39.83699],[-84.613952,39.838737],[-84.618247,39.839687],[-84.620346,39.841911],[-84.622177,39.842979],[-84.623931,39.843078],[-84.624595,39.844455],[-84.627319,39.845027],[-84.627227,39.846256],[-84.628761,39.847164],[-84.628425,39.855358],[-84.629669,39.855895],[-84.630226,39.860153],[-84.632583,39.861118],[-84.635276,39.864025],[-84.638343,39.864097],[-84.638977,39.866149],[-84.643249,39.866352],[-84.644805,39.867141],[-84.652168,39.866283],[-84.651893,39.860652],[-84.652,39.857997],[-84.651786,39.83562],[-84.676632,39.835666],[-84.676513,39.828357],[-84.698776,39.828281],[-84.69709,39.83398],[-84.696891,39.83572],[-84.703979,39.835722],[-84.712692,39.834964],[-84.718955,39.833786],[-84.723236,39.832584],[-84.723068,39.828125],[-84.73957,39.828742],[-84.744239,39.828445],[-84.780021,39.828437],[-84.779724,39.82199],[-84.778472,39.819503],[-84.77526,39.817569],[-84.779579,39.819049],[-84.779495,39.787818],[-84.81418130883839,39.7878459544215],[-84.814179,39.786853],[-84.814189,39.785569],[-84.81412906532259,39.7266202480145]]]}},{"type":"Feature","properties":{"zcta5":"45321","AFFGEOID10":"8600000US45321","GEOID10":"45321","ALAND10":33978836,"AWATER10":26735,"county_name":"Preble","state_code":"OH","county_state":"Preble County, OH","county_fips":"39135","risk_level_county":"Lower Risk (80–84% vaccinated)","mean_vaccination_rate_county":84.74,"risk_level_zcta":"Higher Risk (60–69% vaccinated)","mean_vaccination_rate_zips":69.82,"cases":13},"geometry":{"type":"Polygon","coordinates":[[[-84.704293,39.916528],[-84.704811,39.909244],[-84.704605,39.880989],[-84.697372,39.880981],[-84.697143,39.858036],[-84.696228,39.856262],[-84.694931,39.855648],[-84.694656,39.853988],[-84.69252,39.853172],[-84.691909,39.851421],[-84.690025,39.849891],[-84.689491,39.846908],[-84.687515,39.845455],[-84.688301,39.843112],[-84.696891,39.842441],[-84.696891,39.83572],[-84.69709,39.83398],[-84.698776,39.828281],[-84.676513,39.828357],[-84.676632,39.835666],[-84.651786,39.83562],[-84.652,39.857997],[-84.651893,39.860652],[-84.652168,39.866283],[-84.652091,39.872528],[-84.652725,39.875194],[-84.655334,39.877452],[-84.659614,39.87849],[-84.659568,39.881183],[-84.66043,39.882766],[-84.664604,39.885982],[-84.6669,39.887241],[-84.652351,39.887279],[-84.652458,39.900039],[-84.658432,39.901947],[-84.671485,39.902034],[-84.670776,39.902568],[-84.670799,39.905853],[-84.673103,39.905937],[-84.673065,39.907066],[-84.671234,39.907829],[-84.671257,39.909297],[-84.67485,39.909263],[-84.674219,39.911018],[-84.673567,39.916602],[-84.704293,39.916528]]]}},{"type":"Feature","properties":{"zcta5":"45304","AFFGEOID10":"8600000US45304","GEOID10":"45304","ALAND10":219824882,"AWATER10":229462,"county_name":"Preble","state_code":"OH","county_state":"Preble County, OH","county_fips":"39135","risk_level_county":"Lower Risk (80–84% vaccinated)","mean_vaccination_rate_county":84.74,"risk_level_zcta":"Medium Risk (70–79% vaccinated)","mean_vaccination_rate_zips":75.15,"cases":13},"geometry":{"type":"Polygon","coordinates":[[[-84.652958,39.97454],[-84.652685,39.945733],[-84.639961,39.945771],[-84.636787,39.943973],[-84.635091,39.94072],[-84.635769,39.939246],[-84.632554,39.938081],[-84.629885,39.939121],[-84.627434,39.938396],[-84.624874,39.936467],[-84.624513,39.934522],[-84.626257,39.934561],[-84.626205,39.927681],[-84.6244,39.927555],[-84.623185,39.927585],[-84.623216,39.931273],[-84.615085,39.931362],[-84.615111,39.932332],[-84.612419,39.93271],[-84.605483,39.936527],[-84.596647,39.937526],[-84.592451,39.938733],[-84.578476,39.938951],[-84.578922,39.931707],[-84.569596,39.931781],[-84.569469,39.936052],[-84.556123,39.936205],[-84.556069,39.933016],[-84.556623,39.932173],[-84.555254,39.92971],[-84.551436,39.927797],[-84.550306,39.926744],[-84.551667,39.924288],[-84.553651,39.923328],[-84.554672,39.921389],[-84.55271,39.919566],[-84.549997,39.91959],[-84.548058,39.920831],[-84.545713,39.920087],[-84.54769,39.917542],[-84.499944,39.918229],[-84.491317,39.906509],[-84.488441,39.906848],[-84.485472,39.908958],[-84.485299,39.910791],[-84.485653,39.918132],[-84.485367,39.918491],[-84.482976,39.918537],[-84.483137,39.926561],[-84.464432,39.926671],[-84.464878,39.963564],[-84.463465,39.964434],[-84.459414,39.965154],[-84.455611,39.967884],[-84.455094,39.969022],[-84.454939,39.973203],[-84.456567,39.97725],[-84.446394,39.9774],[-84.446621,39.988534],[-84.427518,39.988686],[-84.427563,39.992338],[-84.418144,39.992461],[-84.417559,39.994285],[-84.418129,39.99523],[-84.418301,40.004959],[-84.422378,40.007318],[-84.428501,40.007251],[-84.42842,40.010829],[-84.428777,40.050793],[-84.428917,40.058136],[-84.434147,40.05808],[-84.434176,40.061615],[-84.448739,40.061514],[-84.448835,40.065109],[-84.467822,40.064792],[-84.467801,40.063302],[-84.471981,40.063452],[-84.473132,40.061007],[-84.472688,40.059062],[-84.474682,40.057234],[-84.474476,40.055369],[-84.476162,40.053167],[-84.475109,40.05187],[-84.475512,40.050221],[-84.49756,40.049832],[-84.497664,40.050875],[-84.5029,40.05052],[-84.50301,40.049747],[-84.545798,40.049059],[-84.545693,40.044122],[-84.551429,40.044118],[-84.551438,40.048988],[-84.58189,40.048603],[-84.581739,40.040136],[-84.579445,40.039337],[-84.581254,40.039492],[-84.588746,40.044582],[-84.591734,40.042118],[-84.593185,40.039984],[-84.592908,40.035835],[-84.59813,40.035673],[-84.598506,40.033605],[-84.595566,40.030683],[-84.595513,40.029258],[-84.596615,40.028708],[-84.598583,40.025683],[-84.598531,40.019267],[-84.616549,40.018066],[-84.616639,40.012074],[-84.624932,40.012235],[-84.625034,40.004416],[-84.633044,40.004335],[-84.633394,39.99631],[-84.631804,39.989995],[-84.636372,39.98932],[-84.636461,39.987373],[-84.637652,39.984975],[-84.63717,39.983306],[-84.640974,39.982521],[-84.642326,39.98169],[-84.64472,39.978961],[-84.64825,39.976951],[-84.648262,39.974535],[-84.652958,39.97454]],[[-84.49215,39.9874],[-84.489603,39.988033],[-84.489547,39.99023],[-84.48711,39.99124],[-84.486683,39.988778],[-84.48355,39.987977],[-84.483485,39.983982],[-84.487437,39.983887],[-84.492139,39.98452],[-84.49215,39.9874]]]}},{"type":"Feature","properties":{"zcta5":"45309","AFFGEOID10":"8600000US45309","GEOID10":"45309","ALAND10":172477760,"AWATER10":1513,"county_name":"Preble","state_code":"OH","county_state":"Preble County, OH","county_fips":"39135","risk_level_county":"Lower Risk (80–84% vaccinated)","mean_vaccination_rate_county":84.74,"risk_level_zcta":"Medium Risk (70–79% vaccinated)","mean_vaccination_rate_zips":73.92,"cases":13},"geometry":{"type":"Polygon","coordinates":[[[-84.493659,39.901931],[-84.494384,39.89846],[-84.493583,39.894985],[-84.491058,39.895111],[-84.490737,39.888656],[-84.48493,39.888694],[-84.483137,39.809343],[-84.482847,39.795235],[-84.463364,39.810275],[-84.46124,39.810291],[-84.460738,39.774011],[-84.458542,39.774031],[-84.426076,39.7743],[-84.427938,39.766687],[-84.427536,39.765594],[-84.425874,39.765128],[-84.423117,39.762829],[-84.423014,39.752397],[-84.420613,39.751046],[-84.418425,39.750266],[-84.40961,39.750469],[-84.408447,39.750178],[-84.40848,39.752787],[-84.403859,39.752787],[-84.403764,39.749437],[-84.401812,39.749563],[-84.4009,39.749796],[-84.400262,39.75087],[-84.399188,39.751072],[-84.397364,39.751052],[-84.396442,39.75088],[-84.395449,39.75086],[-84.394802,39.751107],[-84.39483,39.760087],[-84.366627,39.760199],[-84.348294,39.760707],[-84.348975,39.775637],[-84.349644,39.775635],[-84.349782,39.78258],[-84.366787,39.782492],[-84.366923,39.79669],[-84.375576,39.796473],[-84.378167,39.796966],[-84.379703,39.79838],[-84.383237,39.803371],[-84.366916,39.803562],[-84.367046,39.818587],[-84.348829,39.818273],[-84.349637,39.83232],[-84.33648,39.832496],[-84.339341,39.833481],[-84.341247,39.838658],[-84.344943,39.840456],[-84.344945,39.843855],[-84.346549,39.846657],[-84.349104,39.846838],[-84.349037,39.844546],[-84.350722,39.84445],[-84.354928,39.847633],[-84.35789,39.846669],[-84.367463,39.846472],[-84.367649,39.854521],[-84.367664,39.855634],[-84.373852,39.857771],[-84.375843,39.859391],[-84.376937,39.861033],[-84.377108,39.861425],[-84.378794,39.869911],[-84.379066,39.870634],[-84.378924,39.870645],[-84.377014,39.870823],[-84.368125,39.871657],[-84.36839,39.883218],[-84.368516,39.890388],[-84.38732,39.890356],[-84.387519,39.904878],[-84.368873,39.905164],[-84.369275,39.920497],[-84.388108,39.920227],[-84.393164,39.920148],[-84.392679,39.904818],[-84.393569,39.904806],[-84.394663,39.903067],[-84.397227,39.902959],[-84.397283,39.899153],[-84.399461,39.899142],[-84.400049,39.9012],[-84.404551,39.901398],[-84.4045,39.903021],[-84.408143,39.902985],[-84.408189,39.904569],[-84.407765,39.90462],[-84.407843,39.905854],[-84.404873,39.905942],[-84.404669,39.907955],[-84.409004,39.912398],[-84.408334,39.912903],[-84.405522,39.913271],[-84.40437,39.91996],[-84.425902,39.919622],[-84.426261,39.933093],[-84.427482,39.932581],[-84.434259,39.931129],[-84.437162,39.929139],[-84.440729,39.92847],[-84.442091,39.928626],[-84.445298,39.927661],[-84.445224,39.919278],[-84.446511,39.918874],[-84.449591,39.919206],[-84.449607,39.92347],[-84.448317,39.923845],[-84.447119,39.926215],[-84.453572,39.926765],[-84.464432,39.926671],[-84.483137,39.926561],[-84.482976,39.918537],[-84.485367,39.918491],[-84.485653,39.918132],[-84.485299,39.910791],[-84.485472,39.908958],[-84.485162,39.897716],[-84.487372,39.897695],[-84.487399,39.899097],[-84.491849,39.899054],[-84.491877,39.901222],[-84.493659,39.901931]]]}},{"type":"Feature","properties":{"zcta5":"45347","AFFGEOID10":"8600000US45347","GEOID10":"45347","ALAND10":142793052,"AWATER10":590836,"county_name":"Preble","state_code":"OH","county_state":"Preble County, OH","county_fips":"39135","risk_level_county":"Lower Risk (80–84% vaccinated)","mean_vaccination_rate_county":84.74,"risk_level_zcta":"Medium Risk (70–79% vaccinated)","mean_vaccination_rate_zips":77.86,"cases":13},"geometry":{"type":"Polygon","coordinates":[[[-84.8116628026428,39.964086838440295],[-84.812193,39.92734],[-84.812357,39.921764],[-84.812411,39.916916],[-84.812698,39.891585],[-84.812787,39.89083],[-84.81305,39.872958],[-84.813464,39.853261],[-84.813549,39.850773],[-84.813674,39.843173],[-84.813703,39.843059],[-84.8137051501633,39.8426698682168],[-84.8137051786853,39.8426647063745],[-84.8137561932337,39.833432206765394],[-84.8137923708098,39.826884869436],[-84.813793,39.826771],[-84.813852,39.824621],[-84.814179,39.814212],[-84.81412,39.811398],[-84.814209,39.799755],[-84.81418130883839,39.7878459544215],[-84.779495,39.787818],[-84.779579,39.819049],[-84.77526,39.817569],[-84.778472,39.819503],[-84.779724,39.82199],[-84.780021,39.828437],[-84.744239,39.828445],[-84.73957,39.828742],[-84.723068,39.828125],[-84.723236,39.832584],[-84.718955,39.833786],[-84.712692,39.834964],[-84.703979,39.835722],[-84.696891,39.83572],[-84.696891,39.842441],[-84.688301,39.843112],[-84.687515,39.845455],[-84.689491,39.846908],[-84.690025,39.849891],[-84.691909,39.851421],[-84.69252,39.853172],[-84.694656,39.853988],[-84.694931,39.855648],[-84.696228,39.856262],[-84.697143,39.858036],[-84.697372,39.880981],[-84.704605,39.880989],[-84.704811,39.909244],[-84.704293,39.916528],[-84.704947,39.931085],[-84.72333,39.930335],[-84.722992,39.950056],[-84.729686,39.949606],[-84.729831,39.952273],[-84.732677,39.954967],[-84.739323,39.955078],[-84.739323,39.953192],[-84.741211,39.953068],[-84.760249,39.953283],[-84.760275,39.95696],[-84.763015,39.956967],[-84.764513,39.956003],[-84.769552,39.954176],[-84.769606,39.968021],[-84.783415,39.968111],[-84.783543,39.960889],[-84.788121,39.960909],[-84.788312,39.95422],[-84.788613,39.953606],[-84.804641,39.953712],[-84.80942,39.953585],[-84.80954,39.963892],[-84.811662677114,39.9640955385697],[-84.8116628026428,39.964086838440295]]]}},{"type":"Feature","properties":{"zcta5":"45381","AFFGEOID10":"8600000US45381","GEOID10":"45381","ALAND10":132798833,"AWATER10":460826,"county_name":"Preble","state_code":"OH","county_state":"Preble County, OH","county_fips":"39135","risk_level_county":"Lower Risk (80–84% vaccinated)","mean_vaccination_rate_county":84.74,"risk_level_zcta":"Medium Risk (70–79% vaccinated)","mean_vaccination_rate_zips":72.88,"cases":13},"geometry":{"type":"Polygon","coordinates":[[[-84.576606,39.773159],[-84.594306,39.773021],[-84.594749,39.773353],[-84.594543,39.764045],[-84.593803,39.762752],[-84.591361,39.762008],[-84.587135,39.762786],[-84.584907,39.760845],[-84.583625,39.760917],[-84.582038,39.758834],[-84.579704,39.758876],[-84.579368,39.758701],[-84.594413,39.75872],[-84.593734,39.707588],[-84.58097,39.707695],[-84.581199,39.704715],[-84.575498,39.704688],[-84.575271,39.687423],[-84.571441,39.683864],[-84.570465,39.680847],[-84.567276,39.679855],[-84.557865,39.671069],[-84.538864,39.671115],[-84.538864,39.669269],[-84.537117,39.669258],[-84.537605,39.665119],[-84.537002,39.661151],[-84.536903,39.654647],[-84.529495,39.656482],[-84.524992,39.656224],[-84.526664,39.653209],[-84.527023,39.651069],[-84.520141,39.651025],[-84.520232,39.654937],[-84.519683,39.656631],[-84.518112,39.656646],[-84.487319,39.656955],[-84.480149,39.65705],[-84.479928,39.657571],[-84.479935,39.661214],[-84.480375,39.66487],[-84.481411,39.722809],[-84.482092,39.759293],[-84.445961,39.759613],[-84.445048,39.762754],[-84.44776,39.764873],[-84.452238,39.76771],[-84.451873,39.771439],[-84.454487,39.770831],[-84.455419,39.772533],[-84.458844,39.773303],[-84.458542,39.774031],[-84.460738,39.774011],[-84.46124,39.810291],[-84.463364,39.810275],[-84.482847,39.795235],[-84.483137,39.809343],[-84.485229,39.809474],[-84.489532,39.808032],[-84.489555,39.802928],[-84.530372,39.802555],[-84.531936,39.798805],[-84.530769,39.797409],[-84.530197,39.792736],[-84.530586,39.791236],[-84.533668,39.788803],[-84.533058,39.786933],[-84.531875,39.785812],[-84.529525,39.780563],[-84.527725,39.779308],[-84.526245,39.779312],[-84.52703,39.7789],[-84.531723,39.778415],[-84.534484,39.780258],[-84.534248,39.766105],[-84.55043,39.766021],[-84.550636,39.76736],[-84.55194,39.767654],[-84.553054,39.773307],[-84.576606,39.773159]]]}},{"type":"Feature","properties":{"zcta5":"45382","AFFGEOID10":"8600000US45382","GEOID10":"45382","ALAND10":53484264,"AWATER10":12855,"county_name":"Preble","state_code":"OH","county_state":"Preble County, OH","county_fips":"39135","risk_level_county":"Lower Risk (80–84% vaccinated)","mean_vaccination_rate_county":84.74,"risk_level_zcta":"Higher Risk (60–69% vaccinated)","mean_vaccination_rate_zips":60.57,"cases":13},"geometry":{"type":"Polygon","coordinates":[[[-84.673567,39.916602],[-84.674219,39.911018],[-84.67485,39.909263],[-84.671257,39.909297],[-84.671234,39.907829],[-84.673065,39.907066],[-84.673103,39.905937],[-84.670799,39.905853],[-84.670776,39.902568],[-84.671485,39.902034],[-84.658432,39.901947],[-84.652458,39.900039],[-84.652351,39.887279],[-84.6669,39.887241],[-84.664604,39.885982],[-84.66043,39.882766],[-84.659568,39.881183],[-84.659614,39.87849],[-84.655334,39.877452],[-84.652725,39.875194],[-84.652091,39.872528],[-84.652168,39.866283],[-84.644805,39.867141],[-84.643249,39.866352],[-84.638977,39.866149],[-84.638343,39.864097],[-84.635276,39.864025],[-84.632583,39.861118],[-84.630226,39.860153],[-84.629669,39.855895],[-84.628425,39.855358],[-84.628173,39.861793],[-84.620361,39.858879],[-84.614196,39.854232],[-84.606239,39.851203],[-84.604789,39.850101],[-84.595314,39.850914],[-84.596025,39.90523],[-84.592338,39.904544],[-84.592178,39.909461],[-84.578651,39.90945],[-84.582962,39.905982],[-84.583206,39.897804],[-84.570556,39.902149],[-84.559539,39.902336],[-84.559911,39.917334],[-84.54769,39.917542],[-84.545713,39.920087],[-84.548058,39.920831],[-84.549997,39.91959],[-84.55271,39.919566],[-84.554672,39.921389],[-84.553651,39.923328],[-84.551667,39.924288],[-84.550306,39.926744],[-84.551436,39.927797],[-84.555254,39.92971],[-84.556623,39.932173],[-84.556069,39.933016],[-84.556123,39.936205],[-84.569469,39.936052],[-84.569596,39.931781],[-84.578922,39.931707],[-84.578476,39.938951],[-84.592451,39.938733],[-84.596647,39.937526],[-84.605483,39.936527],[-84.612419,39.93271],[-84.615111,39.932332],[-84.615085,39.931362],[-84.623216,39.931273],[-84.623185,39.927585],[-84.6244,39.927555],[-84.624792,39.924005],[-84.638946,39.923933],[-84.639561,39.922638],[-84.642818,39.920946],[-84.644524,39.92079],[-84.647373,39.919493],[-84.648287,39.920198],[-84.652526,39.919456],[-84.652529,39.916656],[-84.673567,39.916602]]]}},{"type":"Feature","properties":{"zcta5":"45338","AFFGEOID10":"8600000US45338","GEOID10":"45338","ALAND10":131693083,"AWATER10":412093,"county_name":"Preble","state_code":"OH","county_state":"Preble County, OH","county_fips":"39135","risk_level_county":"Lower Risk (80–84% vaccinated)","mean_vaccination_rate_county":84.74,"risk_level_zcta":"Higher Risk (60–69% vaccinated)","mean_vaccination_rate_zips":66.95,"cases":13},"geometry":{"type":"Polygon","coordinates":[[[-84.628425,39.855358],[-84.628761,39.847164],[-84.627227,39.846256],[-84.627319,39.845027],[-84.624595,39.844455],[-84.623931,39.843078],[-84.622177,39.842979],[-84.620346,39.841911],[-84.618247,39.839687],[-84.613952,39.838737],[-84.61296,39.83699],[-84.61441,39.835071],[-84.613662,39.833339],[-84.611473,39.831848],[-84.610939,39.830001],[-84.611541,39.828899],[-84.595115,39.829059],[-84.594871,39.81398],[-84.593826,39.813964],[-84.580589,39.815052],[-84.579841,39.812591],[-84.576904,39.811927],[-84.576606,39.773159],[-84.553054,39.773307],[-84.55194,39.767654],[-84.550636,39.76736],[-84.55043,39.766021],[-84.534248,39.766105],[-84.534484,39.780258],[-84.531723,39.778415],[-84.52703,39.7789],[-84.526245,39.779312],[-84.527725,39.779308],[-84.529525,39.780563],[-84.531875,39.785812],[-84.533058,39.786933],[-84.533668,39.788803],[-84.530586,39.791236],[-84.530197,39.792736],[-84.530769,39.797409],[-84.531936,39.798805],[-84.530372,39.802555],[-84.489555,39.802928],[-84.489532,39.808032],[-84.485229,39.809474],[-84.483137,39.809343],[-84.48493,39.888694],[-84.490737,39.888656],[-84.491058,39.895111],[-84.493583,39.894985],[-84.494384,39.89846],[-84.493659,39.901931],[-84.494557,39.90308],[-84.494587,39.904501],[-84.490806,39.904684],[-84.491317,39.906509],[-84.499944,39.918229],[-84.54769,39.917542],[-84.559911,39.917334],[-84.559539,39.902336],[-84.570556,39.902149],[-84.583206,39.897804],[-84.582962,39.905982],[-84.578651,39.90945],[-84.592178,39.909461],[-84.592338,39.904544],[-84.596025,39.90523],[-84.595314,39.850914],[-84.604789,39.850101],[-84.606239,39.851203],[-84.614196,39.854232],[-84.620361,39.858879],[-84.628173,39.861793],[-84.628425,39.855358]]]}},{"type":"Feature","properties":{"zcta5":"45064","AFFGEOID10":"8600000US45064","GEOID10":"45064","ALAND10":81895219,"AWATER10":576959,"county_name":"Preble","state_code":"OH","county_state":"Preble County, OH","county_fips":"39135","risk_level_county":"Lower Risk (80–84% vaccinated)","mean_vaccination_rate_county":84.74,"risk_level_zcta":"Very High Risk (<60% vaccinated)","mean_vaccination_rate_zips":58.04,"cases":13},"geometry":{"type":"Polygon","coordinates":[[[-84.703037,39.567467],[-84.702911,39.559903],[-84.698395,39.559979],[-84.693895,39.548231],[-84.701829,39.542283],[-84.702966,39.541065],[-84.7029,39.522684],[-84.698393,39.522753],[-84.671994,39.523186],[-84.672551,39.529223],[-84.671919,39.534015],[-84.672217,39.537912],[-84.663207,39.544203],[-84.636148,39.540005],[-84.634162,39.540526],[-84.635659,39.545531],[-84.63394,39.545049],[-84.633725,39.541716],[-84.602756,39.54028],[-84.602781,39.537945],[-84.59116,39.537994],[-84.588801,39.535397],[-84.579673,39.529547],[-84.573387,39.539307],[-84.555909,39.527933],[-84.546418,39.527668],[-84.543593,39.53087],[-84.546925,39.537905],[-84.550366,39.538112],[-84.553049,39.538069],[-84.553743,39.567779],[-84.554167,39.568473],[-84.554489,39.582305],[-84.55751,39.58221],[-84.558769,39.585071],[-84.561477,39.587345],[-84.56369,39.586967],[-84.564025,39.595375],[-84.554725,39.595237],[-84.554644,39.590303],[-84.551216,39.590317],[-84.551086,39.588119],[-84.549743,39.588054],[-84.548103,39.585494],[-84.546195,39.583709],[-84.543479,39.582359],[-84.533767,39.582401],[-84.53479,39.580921],[-84.535552,39.578186],[-84.532653,39.576747],[-84.531311,39.57505],[-84.529168,39.573806],[-84.524849,39.568069],[-84.515281,39.568122],[-84.512313,39.57003],[-84.510284,39.572414],[-84.510337,39.573585],[-84.503929,39.573654],[-84.502372,39.570987],[-84.500038,39.57056],[-84.498443,39.571006],[-84.495353,39.570781],[-84.493782,39.568489],[-84.478927,39.56879],[-84.47908,39.573844],[-84.479919,39.57426],[-84.484748,39.574615],[-84.492179,39.573944],[-84.494468,39.575969],[-84.496841,39.580192],[-84.495697,39.581802],[-84.495651,39.586631],[-84.493751,39.587772],[-84.494972,39.591018],[-84.494224,39.592475],[-84.493835,39.595726],[-84.494781,39.597484],[-84.494766,39.60231],[-84.501968,39.60115],[-84.503883,39.600334],[-84.510009,39.598705],[-84.513916,39.595943],[-84.518379,39.595439],[-84.517234,39.594436],[-84.514511,39.5881],[-84.512062,39.584434],[-84.509048,39.582828],[-84.533187,39.582397],[-84.532577,39.58385],[-84.531967,39.589122],[-84.533195,39.589112],[-84.533187,39.5909],[-84.534591,39.592044],[-84.536089,39.597434],[-84.531845,39.596912],[-84.532371,39.603015],[-84.535629,39.607357],[-84.54074,39.607288],[-84.547866,39.606803],[-84.554435,39.606739],[-84.554794,39.600227],[-84.558471,39.600231],[-84.563087,39.60308],[-84.5643,39.602897],[-84.589218,39.602642],[-84.590965,39.603553],[-84.594566,39.604534],[-84.59983,39.606788],[-84.601814,39.60844],[-84.612579,39.612945],[-84.619445,39.616111],[-84.619697,39.611301],[-84.620735,39.611133],[-84.62033,39.596473],[-84.614906,39.596515],[-84.614273,39.591762],[-84.610786,39.588779],[-84.610717,39.583766],[-84.61238,39.583023],[-84.620246,39.581939],[-84.62709,39.581924],[-84.629203,39.5797],[-84.627052,39.579654],[-84.626998,39.577896],[-84.629257,39.57798],[-84.629207,39.574849],[-84.636535,39.577738],[-84.637571,39.567363],[-84.703037,39.567467]]]}}]}