{"type":"FeatureCollection","features":[{"type":"Feature","properties":{"zcta5":"26405","AFFGEOID10":"8600000US26405","GEOID10":"26405","ALAND10":136765793,"AWATER10":1418270,"county_name":"Preston","state_code":"WV","county_state":"Preston County, WV","county_fips":"54077","risk_level_county":"Higher Risk (60–69% vaccinated)","mean_vaccination_rate_county":66.24,"risk_level_zcta":"Higher Risk (60–69% vaccinated)","mean_vaccination_rate_zips":67.91,"cases":0},"geometry":{"type":"Polygon","coordinates":[[[-79.961025,39.268944],[-79.95827,39.267702],[-79.953749,39.267108],[-79.952047,39.266015],[-79.951595,39.263183],[-79.952135,39.260837],[-79.951419,39.257223],[-79.949548,39.255537],[-79.946062,39.253371],[-79.941326,39.251237],[-79.938211,39.250197],[-79.937517,39.249494],[-79.937693,39.247981],[-79.941194,39.245927],[-79.942767,39.244297],[-79.942721,39.243343],[-79.93458,39.234695],[-79.93311,39.231231],[-79.934963,39.230039],[-79.942553,39.229134],[-79.944891,39.227958],[-79.945008,39.226007],[-79.944081,39.224256],[-79.93999,39.2223],[-79.938681,39.22054],[-79.938117,39.218257],[-79.94136,39.215526],[-79.950925,39.211906],[-79.954596,39.20941],[-79.955996,39.207797],[-79.958313,39.206008],[-79.960362,39.205399],[-79.963626,39.205981],[-79.967095,39.208025],[-79.971497,39.209174],[-79.975786,39.209637],[-79.977959,39.210517],[-79.979231,39.211817],[-79.982034,39.212846],[-79.990288,39.213211],[-79.991608,39.212925],[-79.992674,39.212249],[-79.993594,39.210385],[-79.994513,39.210735],[-79.995276,39.207919],[-79.995668,39.203683],[-79.997269,39.201494],[-80.00076,39.200533],[-80.00386,39.199198],[-80.005429,39.197612],[-80.007088,39.197131],[-80.00905,39.198053],[-80.009783,39.19924],[-80.00904,39.202243],[-80.010535,39.203864],[-80.01194,39.203998],[-80.014546,39.203281],[-80.019284,39.200541],[-80.020915,39.199982],[-80.021799,39.198503],[-80.020706,39.196052],[-80.018299,39.195131],[-80.016042,39.192751],[-80.017194,39.190643],[-80.026599,39.185126],[-80.028427,39.180989],[-80.02803,39.178042],[-80.029695,39.176123],[-80.030357,39.173289],[-80.029579,39.17155],[-80.02707,39.168234],[-80.026605,39.166707],[-80.025628,39.165168],[-80.0213,39.163533],[-80.019488,39.161745],[-80.016913,39.156501],[-80.015231,39.155782],[-80.012814,39.15646],[-80.009808,39.156711],[-80.007787,39.157773],[-80.006012,39.160207],[-80.000464,39.160605],[-79.997648,39.162772],[-79.99632,39.161492],[-79.997653,39.160077],[-79.997234,39.157861],[-79.995549,39.155406],[-79.995538,39.152086],[-79.993663,39.153241],[-79.991484,39.153059],[-79.989812,39.153571],[-79.989538,39.155465],[-79.987503,39.15755],[-79.985599,39.157889],[-79.982557,39.157313],[-79.98061,39.158332],[-79.974906,39.162982],[-79.973269,39.162715],[-79.971088,39.163795],[-79.969664,39.165233],[-79.970458,39.166792],[-79.968766,39.169348],[-79.970341,39.17132],[-79.969777,39.172384],[-79.967297,39.17411],[-79.967444,39.175961],[-79.970041,39.176175],[-79.97266,39.178238],[-79.972628,39.179575],[-79.97116,39.180772],[-79.970984,39.182158],[-79.97049,39.182495],[-79.964245,39.181497],[-79.961444,39.179711],[-79.959246,39.179561],[-79.956194,39.17876],[-79.954297,39.178921],[-79.950035,39.178542],[-79.947826,39.180457],[-79.94621,39.180682],[-79.942507,39.179861],[-79.940477,39.181865],[-79.937515,39.184171],[-79.936775,39.188099],[-79.937189,39.189776],[-79.936273,39.190088],[-79.934768,39.194263],[-79.933933,39.192879],[-79.933284,39.190091],[-79.93247,39.189101],[-79.9335,39.186682],[-79.933163,39.185552],[-79.930783,39.183191],[-79.930399,39.180666],[-79.930736,39.179139],[-79.929679,39.178501],[-79.929324,39.176196],[-79.927757,39.176322],[-79.923844,39.175746],[-79.919975,39.176077],[-79.915832,39.175487],[-79.913326,39.176958],[-79.91198,39.178816],[-79.909473,39.179747],[-79.909726,39.180922],[-79.908533,39.181871],[-79.908222,39.183499],[-79.912625,39.186252],[-79.913528,39.187531],[-79.913541,39.188955],[-79.914576,39.1912],[-79.913067,39.189116],[-79.912565,39.187058],[-79.910933,39.186284],[-79.908347,39.186862],[-79.904862,39.185585],[-79.900521,39.186044],[-79.896107,39.188438],[-79.892962,39.188192],[-79.886459,39.188763],[-79.884899,39.189212],[-79.881932,39.192527],[-79.880499,39.192946],[-79.877175,39.194952],[-79.870597,39.195743],[-79.868374,39.195684],[-79.859835,39.198094],[-79.857712,39.197126],[-79.855562,39.198159],[-79.85476,39.199306],[-79.851965,39.200405],[-79.850763,39.202232],[-79.852138,39.199388],[-79.85097,39.198899],[-79.846847,39.199372],[-79.845751,39.198452],[-79.841873,39.197874],[-79.839775,39.197979],[-79.837868,39.19611],[-79.832805,39.195212],[-79.826658,39.195154],[-79.825487,39.196199],[-79.821187,39.1981],[-79.820087,39.1992],[-79.818488,39.202201],[-79.817788,39.205201],[-79.814088,39.209701],[-79.813989,39.2122],[-79.814789,39.2131],[-79.81519,39.216199],[-79.816691,39.2186],[-79.815692,39.2196],[-79.811191,39.2218],[-79.808891,39.2238],[-79.808791,39.2258],[-79.81029,39.2298],[-79.809729,39.230526],[-79.802563,39.233045],[-79.802764,39.236723],[-79.799129,39.243435],[-79.799129,39.250797],[-79.797078,39.254261],[-79.792698,39.258159],[-79.792138,39.260974],[-79.790088,39.264005],[-79.787758,39.265521],[-79.787478,39.267613],[-79.785372,39.269703],[-79.786517,39.271149],[-79.789214,39.271198],[-79.793191,39.26779],[-79.794683,39.269112],[-79.796491,39.274018],[-79.7999,39.274328],[-79.804811,39.277545],[-79.805223,39.279489],[-79.807318,39.281099],[-79.808111,39.283265],[-79.809918,39.284455],[-79.813322,39.285402],[-79.813601,39.290097],[-79.814378,39.290844],[-79.813808,39.293694],[-79.813915,39.300763],[-79.815523,39.30323],[-79.818641,39.304057],[-79.821461,39.303815],[-79.821701,39.302826],[-79.824288,39.302608],[-79.825718,39.30172],[-79.830631,39.300196],[-79.833236,39.298585],[-79.839168,39.302121],[-79.843779,39.30243],[-79.849002,39.300206],[-79.84973,39.299042],[-79.848202,39.298649],[-79.846755,39.297063],[-79.847198,39.293601],[-79.844261,39.291291],[-79.837805,39.289593],[-79.837093,39.286465],[-79.837397,39.283503],[-79.836601,39.282364],[-79.831328,39.281156],[-79.829343,39.279619],[-79.829169,39.278232],[-79.826237,39.278743],[-79.822761,39.276083],[-79.823166,39.273151],[-79.822038,39.271754],[-79.820823,39.26796],[-79.824626,39.265694],[-79.827254,39.265267],[-79.829202,39.265782],[-79.834374,39.265153],[-79.836454,39.26342],[-79.836493,39.260411],[-79.83587,39.25903],[-79.836101,39.25537],[-79.83732,39.257301],[-79.838335,39.255569],[-79.84319,39.256115],[-79.848352,39.255369],[-79.850883,39.256796],[-79.851179,39.255289],[-79.85105,39.254874],[-79.851805,39.254782],[-79.853087,39.252205],[-79.857534,39.250219],[-79.861254,39.249524],[-79.863414,39.249568],[-79.86466,39.247194],[-79.866926,39.247221],[-79.873368,39.248263],[-79.874206,39.249459],[-79.873773,39.252148],[-79.871095,39.255228],[-79.871346,39.256732],[-79.87286,39.258364],[-79.875398,39.25986],[-79.875928,39.262599],[-79.878382,39.268409],[-79.880583,39.270174],[-79.881748,39.270023],[-79.882288,39.271566],[-79.881827,39.272905],[-79.882102,39.274787],[-79.882503,39.271519],[-79.88341,39.26985],[-79.886145,39.266956],[-79.885149,39.264019],[-79.885914,39.262462],[-79.887908,39.260911],[-79.890968,39.260902],[-79.892447,39.260348],[-79.89542,39.26051],[-79.896079,39.26161],[-79.899508,39.261891],[-79.901847,39.260214],[-79.904233,39.259578],[-79.905445,39.258181],[-79.904081,39.256879],[-79.903684,39.255448],[-79.905995,39.255588],[-79.905635,39.253769],[-79.90843,39.25339],[-79.908905,39.251855],[-79.910198,39.250798],[-79.914517,39.250899],[-79.918907,39.256006],[-79.921554,39.257214],[-79.921884,39.258244],[-79.925294,39.259739],[-79.926463,39.261939],[-79.925384,39.264098],[-79.925294,39.266855],[-79.926285,39.267362],[-79.925684,39.270285],[-79.926542,39.273446],[-79.927456,39.274523],[-79.928697,39.274519],[-79.930809,39.277761],[-79.932792,39.279535],[-79.935647,39.283826],[-79.935762,39.286301],[-79.934184,39.287311],[-79.932562,39.29309],[-79.935007,39.295247],[-79.936642,39.297229],[-79.940175,39.29722],[-79.943226,39.29582],[-79.941854,39.294483],[-79.94145,39.292715],[-79.942332,39.290174],[-79.946461,39.287531],[-79.94737,39.285591],[-79.949101,39.284212],[-79.950641,39.281737],[-79.956099,39.281983],[-79.956529,39.278478],[-79.959516,39.275259],[-79.959834,39.271121],[-79.961025,39.268944]]]}},{"type":"Feature","properties":{"zcta5":"26287","AFFGEOID10":"8600000US26287","GEOID10":"26287","ALAND10":393656434,"AWATER10":4121181,"county_name":"Preston","state_code":"WV","county_state":"Preston County, WV","county_fips":"54077","risk_level_county":"Higher Risk (60–69% vaccinated)","mean_vaccination_rate_county":66.24,"risk_level_zcta":"Higher Risk (60–69% vaccinated)","mean_vaccination_rate_zips":69.97,"cases":0},"geometry":{"type":"Polygon","coordinates":[[[-79.826658,39.195154],[-79.826693,39.194101],[-79.822493,39.190302],[-79.822193,39.186502],[-79.823993,39.182502],[-79.828393,39.178502],[-79.828693,39.176902],[-79.826992,39.174602],[-79.826992,39.168602],[-79.827992,39.166202],[-79.828192,39.163002],[-79.827491,39.160402],[-79.832292,39.156002],[-79.833293,39.153302],[-79.833093,39.150102],[-79.834393,39.147702],[-79.832993,39.143602],[-79.834793,39.140702],[-79.835193,39.137702],[-79.835993,39.136302],[-79.835893,39.133602],[-79.838093,39.131002],[-79.836693,39.127502],[-79.829892,39.126502],[-79.829292,39.125903],[-79.828592,39.125003],[-79.829692,39.123503],[-79.828292,39.121903],[-79.830192,39.121003],[-79.830892,39.119403],[-79.828192,39.118903],[-79.827892,39.117503],[-79.825692,39.116803],[-79.825092,39.115803],[-79.823391,39.116403],[-79.823091,39.117503],[-79.821191,39.118303],[-79.819991,39.117903],[-79.81789,39.115903],[-79.81599,39.112503],[-79.81369,39.112203],[-79.80719,39.110203],[-79.80659,39.109103],[-79.80359,39.109603],[-79.80239,39.108603],[-79.799389,39.108003],[-79.798089,39.106804],[-79.798389,39.105904],[-79.796871,39.104086],[-79.793703,39.105667],[-79.793012,39.108327],[-79.78949,39.111576],[-79.784857,39.11324],[-79.779863,39.114392],[-79.777876,39.11557],[-79.774389,39.11621],[-79.77129,39.117831],[-79.769509,39.11961],[-79.767686,39.12006],[-79.763604,39.119716],[-79.759936,39.117747],[-79.757119,39.116693],[-79.754082,39.116337],[-79.750269,39.116939],[-79.748468,39.117743],[-79.745029,39.118302],[-79.742672,39.116757],[-79.738377,39.11701],[-79.734433,39.118278],[-79.732531,39.119317],[-79.728894,39.119954],[-79.724758,39.122144],[-79.722729,39.122662],[-79.720119,39.120663],[-79.71745,39.117732],[-79.713263,39.11511],[-79.712496,39.113746],[-79.713608,39.1119],[-79.715,39.111258],[-79.710915,39.108887],[-79.710668,39.107946],[-79.711773,39.108271],[-79.713937,39.106498],[-79.717706,39.107159],[-79.721096,39.10683],[-79.723396,39.109673],[-79.724629,39.11041],[-79.727823,39.108607],[-79.728219,39.107776],[-79.731463,39.108624],[-79.731319,39.107296],[-79.733014,39.102166],[-79.738682,39.103228],[-79.739926,39.105157],[-79.743568,39.105584],[-79.746638,39.105184],[-79.749787,39.106639],[-79.752816,39.106049],[-79.754148,39.106595],[-79.757445,39.105917],[-79.756434,39.103688],[-79.754604,39.104145],[-79.755236,39.101408],[-79.754528,39.095061],[-79.749343,39.096191],[-79.746124,39.096576],[-79.740521,39.094705],[-79.736019,39.091598],[-79.731862,39.09004],[-79.728119,39.089001],[-79.7267,39.089225],[-79.724945,39.090602],[-79.721947,39.089779],[-79.715283,39.084084],[-79.704759,39.081951],[-79.694866,39.083871],[-79.693151,39.086325],[-79.689422,39.087819],[-79.688279,39.087713],[-79.692705,39.085731],[-79.691168,39.080343],[-79.689723,39.078133],[-79.69064,39.073629],[-79.690604,39.070979],[-79.692992,39.069303],[-79.696564,39.069528],[-79.699601,39.068359],[-79.699214,39.06666],[-79.701029,39.0652],[-79.702829,39.066207],[-79.705597,39.064804],[-79.706845,39.062393],[-79.708345,39.057571],[-79.710551,39.055951],[-79.718889,39.05276],[-79.720142,39.051459],[-79.719976,39.048111],[-79.720947,39.046802],[-79.721171,39.043988],[-79.717458,39.040648],[-79.713855,39.039559],[-79.710587,39.037457],[-79.710776,39.036587],[-79.715532,39.036695],[-79.714291,39.03581],[-79.713822,39.034156],[-79.715323,39.030166],[-79.715198,39.027463],[-79.713156,39.024947],[-79.715742,39.02408],[-79.717681,39.024434],[-79.715477,39.023188],[-79.716742,39.021931],[-79.642222,39.005211],[-79.642385,39.008099],[-79.643627,39.00862],[-79.645457,39.010489],[-79.647236,39.013425],[-79.647059,39.015452],[-79.648606,39.016785],[-79.649566,39.020505],[-79.652147,39.022601],[-79.652642,39.025336],[-79.654133,39.026525],[-79.654525,39.027899],[-79.653885,39.030542],[-79.654117,39.032311],[-79.653181,39.035489],[-79.653347,39.037369],[-79.651169,39.038878],[-79.650489,39.042154],[-79.64912,39.042577],[-79.645881,39.041999],[-79.644938,39.040874],[-79.643426,39.041075],[-79.642653,39.042061],[-79.639695,39.042632],[-79.636782,39.042628],[-79.634356,39.043361],[-79.632007,39.042825],[-79.62879,39.04347],[-79.624979,39.043094],[-79.620472,39.041113],[-79.619654,39.039374],[-79.61864,39.039057],[-79.616503,39.040253],[-79.615049,39.042192],[-79.612739,39.042537],[-79.610186,39.041838],[-79.608724,39.042739],[-79.609324,39.045637],[-79.607384,39.047333],[-79.605631,39.049982],[-79.605618,39.050696],[-79.607396,39.052651],[-79.607911,39.054228],[-79.607489,39.056409],[-79.607474,39.061274],[-79.609174,39.063961],[-79.613551,39.067848],[-79.615986,39.070744],[-79.618874,39.071869],[-79.624315,39.072118],[-79.626569,39.071622],[-79.629094,39.072169],[-79.633637,39.072559],[-79.635001,39.073956],[-79.635453,39.075916],[-79.641187,39.078095],[-79.643702,39.078248],[-79.64521,39.079109],[-79.648626,39.079732],[-79.649519,39.081093],[-79.650471,39.083701],[-79.650304,39.088046],[-79.655207,39.089233],[-79.65047,39.088587],[-79.653833,39.089734],[-79.662784,39.09495],[-79.668605,39.095596],[-79.668802,39.096488],[-79.675352,39.101381],[-79.677204,39.105561],[-79.679951,39.104698],[-79.680989,39.106264],[-79.683629,39.108492],[-79.683324,39.110568],[-79.68244,39.111217],[-79.67891,39.111029],[-79.673114,39.112774],[-79.669107,39.112392],[-79.663955,39.111071],[-79.660635,39.112394],[-79.662088,39.115758],[-79.663312,39.117477],[-79.665717,39.119561],[-79.669395,39.121124],[-79.675439,39.121546],[-79.675329,39.123023],[-79.67783,39.125934],[-79.681349,39.12899],[-79.680187,39.131939],[-79.681727,39.135324],[-79.627979,39.131238],[-79.627603,39.131251],[-79.623911,39.133013],[-79.626265,39.133399],[-79.628593,39.134981],[-79.628867,39.137531],[-79.627551,39.138117],[-79.628737,39.139728],[-79.627704,39.140873],[-79.626996,39.139843],[-79.62447,39.140283],[-79.623898,39.141769],[-79.622437,39.141848],[-79.619867,39.140166],[-79.616941,39.137491],[-79.619042,39.140167],[-79.621751,39.142624],[-79.623645,39.145322],[-79.619928,39.1465],[-79.614714,39.145171],[-79.611009,39.145789],[-79.605979,39.150528],[-79.605796,39.153908],[-79.603673,39.153428],[-79.602349,39.154289],[-79.601175,39.151998],[-79.598761,39.151268],[-79.599004,39.145553],[-79.600264,39.144018],[-79.600325,39.142688],[-79.599401,39.142387],[-79.597164,39.144401],[-79.593518,39.145557],[-79.592269,39.146772],[-79.587967,39.146884],[-79.584804,39.147528],[-79.581874,39.146829],[-79.576748,39.14759],[-79.575369,39.148566],[-79.572934,39.151437],[-79.571217,39.15456],[-79.571755,39.156141],[-79.571495,39.161109],[-79.570429,39.163242],[-79.570373,39.164819],[-79.571254,39.165544],[-79.573208,39.165596],[-79.574879,39.166599],[-79.574057,39.16718],[-79.573891,39.170199],[-79.570766,39.173362],[-79.571028,39.175329],[-79.568746,39.175427],[-79.56783,39.177049],[-79.566122,39.177471],[-79.56553,39.178467],[-79.564115,39.178555],[-79.562974,39.180462],[-79.561663,39.1788],[-79.561834,39.177793],[-79.560431,39.176804],[-79.559093,39.176962],[-79.557669,39.177654],[-79.555486,39.179778],[-79.551869,39.182176],[-79.552466,39.183593],[-79.555185,39.183824],[-79.554505,39.184364],[-79.551766,39.184099],[-79.550595,39.185194],[-79.548166,39.185524],[-79.544113,39.185251],[-79.53886,39.186189],[-79.533017,39.188731],[-79.530958,39.192136],[-79.527618,39.195471],[-79.524622,39.197378],[-79.525682,39.199727],[-79.523757,39.20321],[-79.519224,39.20627],[-79.517963,39.207979],[-79.512292,39.217656],[-79.558335,39.231799],[-79.684595,39.270583],[-79.687283,39.271398],[-79.802563,39.233045],[-79.809729,39.230526],[-79.81029,39.2298],[-79.808791,39.2258],[-79.808891,39.2238],[-79.811191,39.2218],[-79.815692,39.2196],[-79.816691,39.2186],[-79.81519,39.216199],[-79.814789,39.2131],[-79.813989,39.2122],[-79.814088,39.209701],[-79.817788,39.205201],[-79.818488,39.202201],[-79.820087,39.1992],[-79.821187,39.1981],[-79.825487,39.196199],[-79.826658,39.195154]]]}},{"type":"Feature","properties":{"zcta5":"26425","AFFGEOID10":"8600000US26425","GEOID10":"26425","ALAND10":131029184,"AWATER10":1810143,"county_name":"Preston","state_code":"WV","county_state":"Preston County, WV","county_fips":"54077","risk_level_county":"Higher Risk (60–69% vaccinated)","mean_vaccination_rate_county":66.24,"risk_level_zcta":"Medium Risk (70–79% vaccinated)","mean_vaccination_rate_zips":76.73,"cases":0},"geometry":{"type":"Polygon","coordinates":[[[-79.785372,39.269703],[-79.787478,39.267613],[-79.787758,39.265521],[-79.790088,39.264005],[-79.792138,39.260974],[-79.792698,39.258159],[-79.797078,39.254261],[-79.799129,39.250797],[-79.799129,39.243435],[-79.802764,39.236723],[-79.802563,39.233045],[-79.687283,39.271398],[-79.684595,39.270583],[-79.68695,39.273325],[-79.68625,39.277766],[-79.684466,39.280352],[-79.682891,39.281577],[-79.677916,39.282684],[-79.674693,39.282296],[-79.66834,39.280048],[-79.662921,39.27949],[-79.661026,39.279667],[-79.655246,39.27933],[-79.653373,39.279673],[-79.65018,39.277402],[-79.647518,39.273564],[-79.646063,39.272511],[-79.639931,39.271779],[-79.636516,39.274337],[-79.63546,39.276622],[-79.635126,39.278781],[-79.635392,39.282753],[-79.636705,39.284908],[-79.63864,39.286791],[-79.64208,39.288868],[-79.644744,39.291498],[-79.64448,39.293905],[-79.641375,39.29732],[-79.638083,39.293434],[-79.635505,39.291827],[-79.63297,39.288928],[-79.629128,39.286319],[-79.625631,39.2844],[-79.622148,39.283736],[-79.631612,39.288603],[-79.632759,39.289575],[-79.633582,39.291766],[-79.634747,39.292633],[-79.631589,39.292507],[-79.629367,39.294931],[-79.628123,39.294781],[-79.62403,39.297373],[-79.621252,39.297056],[-79.618164,39.298867],[-79.617522,39.29999],[-79.618024,39.30151],[-79.616774,39.303198],[-79.615052,39.306853],[-79.615166,39.308319],[-79.611849,39.315366],[-79.6104,39.317047],[-79.61142,39.319735],[-79.609512,39.321474],[-79.609067,39.322901],[-79.623114,39.326324],[-79.622138,39.32412],[-79.620853,39.323841],[-79.645511,39.327812],[-79.646455,39.331442],[-79.666868,39.335878],[-79.68094,39.329061],[-79.692262,39.331712],[-79.684013,39.337741],[-79.681681,39.338449],[-79.673822,39.339147],[-79.667885,39.341828],[-79.666288,39.343715],[-79.666078,39.344971],[-79.66405,39.347567],[-79.663946,39.348636],[-79.658469,39.353037],[-79.650216,39.356896],[-79.649061,39.356797],[-79.645383,39.359397],[-79.64413,39.362603],[-79.643804,39.364993],[-79.640995,39.363887],[-79.63864,39.364387],[-79.635276,39.363931],[-79.629682,39.362036],[-79.626227,39.364401],[-79.625929,39.365402],[-79.623378,39.366926],[-79.621249,39.367352],[-79.618326,39.36697],[-79.614844,39.365456],[-79.614348,39.364734],[-79.606928,39.36195],[-79.603685,39.359909],[-79.600417,39.356157],[-79.597288,39.355357],[-79.599753,39.35803],[-79.599532,39.359369],[-79.601231,39.360698],[-79.601881,39.363074],[-79.601285,39.364406],[-79.603702,39.367816],[-79.603936,39.37037],[-79.606776,39.372389],[-79.60723,39.376586],[-79.606831,39.381508],[-79.613174,39.381642],[-79.616761,39.38322],[-79.620973,39.385835],[-79.624628,39.387211],[-79.625989,39.387363],[-79.629438,39.386641],[-79.630384,39.389321],[-79.630876,39.393062],[-79.630548,39.395176],[-79.631198,39.396697],[-79.630616,39.398753],[-79.625779,39.400232],[-79.623291,39.403253],[-79.622627,39.405412],[-79.619272,39.406152],[-79.616624,39.406224],[-79.615726,39.407637],[-79.614141,39.40796],[-79.614511,39.410603],[-79.61754,39.412738],[-79.618949,39.414469],[-79.620226,39.414968],[-79.621649,39.414637],[-79.628226,39.411357],[-79.629941,39.412281],[-79.631477,39.412113],[-79.634357,39.410693],[-79.635753,39.410831],[-79.636271,39.409471],[-79.636344,39.406639],[-79.638717,39.405014],[-79.641795,39.404501],[-79.644339,39.402075],[-79.645009,39.400222],[-79.646237,39.399461],[-79.647102,39.399929],[-79.649869,39.398934],[-79.650181,39.3971],[-79.651219,39.397001],[-79.653426,39.397486],[-79.655623,39.398915],[-79.657607,39.401902],[-79.656882,39.403689],[-79.659517,39.404709],[-79.661692,39.404654],[-79.662337,39.406646],[-79.664889,39.408303],[-79.664016,39.413007],[-79.664995,39.41474],[-79.665491,39.417682],[-79.666988,39.419753],[-79.66967,39.419297],[-79.67508,39.420062],[-79.678336,39.42291],[-79.681056,39.423783],[-79.683837,39.424084],[-79.685745,39.424187],[-79.684906,39.427994],[-79.685941,39.429983],[-79.687152,39.429767],[-79.687662,39.426817],[-79.6869,39.426601],[-79.686435,39.423209],[-79.686854,39.421496],[-79.686432,39.419083],[-79.687318,39.416585],[-79.687095,39.414746],[-79.687792,39.411747],[-79.686679,39.409884],[-79.68225,39.406429],[-79.680431,39.402643],[-79.680328,39.401053],[-79.683858,39.397295],[-79.685082,39.396922],[-79.691775,39.396949],[-79.695009,39.397581],[-79.696577,39.397466],[-79.699111,39.396287],[-79.700357,39.394663],[-79.700826,39.392282],[-79.70032,39.386234],[-79.701592,39.384175],[-79.704156,39.382933],[-79.705034,39.381916],[-79.70552,39.379696],[-79.705241,39.376013],[-79.70437,39.374459],[-79.701581,39.373446],[-79.699593,39.371577],[-79.697469,39.366138],[-79.694512,39.361659],[-79.693408,39.358176],[-79.690271,39.353896],[-79.688366,39.35227],[-79.688041,39.351276],[-79.684562,39.348142],[-79.683298,39.347477],[-79.685763,39.344265],[-79.683951,39.338651],[-79.684793,39.338281],[-79.691428,39.333477],[-79.69323,39.331936],[-79.694363,39.329696],[-79.694715,39.327574],[-79.694128,39.325353],[-79.692057,39.322262],[-79.68928,39.319873],[-79.691503,39.31817],[-79.69438,39.31784],[-79.700259,39.318638],[-79.709571,39.31959],[-79.712801,39.320789],[-79.714325,39.320867],[-79.720704,39.324071],[-79.723701,39.324492],[-79.725738,39.323293],[-79.727273,39.323238],[-79.729825,39.321914],[-79.733642,39.320762],[-79.738853,39.321197],[-79.742785,39.320189],[-79.743491,39.319269],[-79.741651,39.317438],[-79.74124,39.315244],[-79.741926,39.314477],[-79.747516,39.311541],[-79.747231,39.308795],[-79.74846,39.307907],[-79.750352,39.308607],[-79.751979,39.307809],[-79.753826,39.30541],[-79.754265,39.303779],[-79.755779,39.303579],[-79.757963,39.300902],[-79.760377,39.302312],[-79.759317,39.306358],[-79.755105,39.309895],[-79.753943,39.312242],[-79.75329,39.314852],[-79.753117,39.317673],[-79.753894,39.318991],[-79.753401,39.31996],[-79.754065,39.321246],[-79.755055,39.322569],[-79.757183,39.321457],[-79.761425,39.320511],[-79.76437,39.321069],[-79.768009,39.316788],[-79.771972,39.316271],[-79.771937,39.315329],[-79.779078,39.31278],[-79.777129,39.312354],[-79.773451,39.310351],[-79.771547,39.30821],[-79.770752,39.308783],[-79.769316,39.307488],[-79.768626,39.305265],[-79.765136,39.306513],[-79.764264,39.306142],[-79.762786,39.303132],[-79.762716,39.300959],[-79.764209,39.299082],[-79.765421,39.29504],[-79.767099,39.29338],[-79.767379,39.290565],[-79.76971,39.288184],[-79.77456,39.285946],[-79.776798,39.283709],[-79.776984,39.280172],[-79.779316,39.278657],[-79.780528,39.27844],[-79.782206,39.275048],[-79.78202,39.272955],[-79.784959,39.268123],[-79.785372,39.269703]]]}},{"type":"Feature","properties":{"zcta5":"26444","AFFGEOID10":"8600000US26444","GEOID10":"26444","ALAND10":186793951,"AWATER10":281849,"county_name":"Preston","state_code":"WV","county_state":"Preston County, WV","county_fips":"54077","risk_level_county":"Higher Risk (60–69% vaccinated)","mean_vaccination_rate_county":66.24,"risk_level_zcta":"Medium Risk (70–79% vaccinated)","mean_vaccination_rate_zips":74.65,"cases":0},"geometry":{"type":"Polygon","coordinates":[[[-79.855753,39.338456],[-79.85192,39.336433],[-79.847946,39.331688],[-79.848812,39.331653],[-79.856943,39.326448],[-79.859122,39.323165],[-79.861062,39.313727],[-79.86259,39.310775],[-79.861652,39.308976],[-79.864274,39.30746],[-79.865635,39.305504],[-79.866938,39.306098],[-79.870542,39.30267],[-79.867864,39.299342],[-79.86623,39.298738],[-79.866538,39.297304],[-79.865853,39.294396],[-79.864684,39.292607],[-79.867163,39.290252],[-79.865154,39.287813],[-79.865168,39.287025],[-79.861731,39.285099],[-79.861645,39.282224],[-79.860591,39.280502],[-79.858739,39.28057],[-79.858251,39.278736],[-79.860156,39.275439],[-79.858784,39.273362],[-79.856636,39.273165],[-79.853511,39.272243],[-79.852868,39.271317],[-79.852386,39.269736],[-79.853403,39.268426],[-79.852668,39.267094],[-79.854065,39.263896],[-79.851832,39.262869],[-79.851181,39.260687],[-79.85159,39.259938],[-79.850883,39.256796],[-79.848352,39.255369],[-79.84319,39.256115],[-79.838335,39.255569],[-79.83732,39.257301],[-79.836101,39.25537],[-79.83587,39.25903],[-79.836493,39.260411],[-79.836454,39.26342],[-79.834374,39.265153],[-79.829202,39.265782],[-79.827254,39.265267],[-79.824626,39.265694],[-79.820823,39.26796],[-79.822038,39.271754],[-79.823166,39.273151],[-79.822761,39.276083],[-79.826237,39.278743],[-79.829169,39.278232],[-79.829343,39.279619],[-79.831328,39.281156],[-79.836601,39.282364],[-79.837397,39.283503],[-79.837093,39.286465],[-79.837805,39.289593],[-79.844261,39.291291],[-79.847198,39.293601],[-79.846755,39.297063],[-79.848202,39.298649],[-79.84973,39.299042],[-79.849002,39.300206],[-79.843779,39.30243],[-79.839168,39.302121],[-79.833236,39.298585],[-79.830631,39.300196],[-79.825718,39.30172],[-79.824288,39.302608],[-79.821701,39.302826],[-79.821461,39.303815],[-79.818641,39.304057],[-79.815523,39.30323],[-79.813915,39.300763],[-79.813808,39.293694],[-79.814378,39.290844],[-79.813601,39.290097],[-79.813322,39.285402],[-79.809918,39.284455],[-79.808111,39.283265],[-79.807318,39.281099],[-79.805223,39.279489],[-79.804811,39.277545],[-79.7999,39.274328],[-79.796491,39.274018],[-79.794683,39.269112],[-79.793191,39.26779],[-79.789214,39.271198],[-79.786517,39.271149],[-79.785372,39.269703],[-79.784959,39.268123],[-79.78202,39.272955],[-79.782206,39.275048],[-79.780528,39.27844],[-79.779316,39.278657],[-79.776984,39.280172],[-79.776798,39.283709],[-79.77456,39.285946],[-79.76971,39.288184],[-79.767379,39.290565],[-79.767099,39.29338],[-79.765421,39.29504],[-79.764209,39.299082],[-79.762716,39.300959],[-79.762786,39.303132],[-79.764264,39.306142],[-79.765136,39.306513],[-79.768626,39.305265],[-79.769316,39.307488],[-79.770752,39.308783],[-79.771547,39.30821],[-79.773451,39.310351],[-79.777129,39.312354],[-79.779078,39.31278],[-79.771937,39.315329],[-79.771972,39.316271],[-79.768009,39.316788],[-79.76437,39.321069],[-79.761425,39.320511],[-79.757183,39.321457],[-79.755055,39.322569],[-79.754065,39.321246],[-79.753401,39.31996],[-79.753894,39.318991],[-79.753117,39.317673],[-79.75329,39.314852],[-79.753943,39.312242],[-79.755105,39.309895],[-79.759317,39.306358],[-79.760377,39.302312],[-79.757963,39.300902],[-79.755779,39.303579],[-79.754265,39.303779],[-79.753826,39.30541],[-79.751979,39.307809],[-79.750352,39.308607],[-79.74846,39.307907],[-79.747231,39.308795],[-79.747516,39.311541],[-79.741926,39.314477],[-79.74124,39.315244],[-79.741651,39.317438],[-79.743491,39.319269],[-79.742785,39.320189],[-79.738853,39.321197],[-79.733642,39.320762],[-79.729825,39.321914],[-79.727273,39.323238],[-79.725738,39.323293],[-79.723701,39.324492],[-79.720704,39.324071],[-79.714325,39.320867],[-79.712801,39.320789],[-79.709571,39.31959],[-79.700259,39.318638],[-79.69438,39.31784],[-79.691503,39.31817],[-79.68928,39.319873],[-79.692057,39.322262],[-79.694128,39.325353],[-79.694715,39.327574],[-79.694363,39.329696],[-79.69323,39.331936],[-79.691428,39.333477],[-79.684793,39.338281],[-79.683951,39.338651],[-79.685763,39.344265],[-79.683298,39.347477],[-79.684562,39.348142],[-79.688041,39.351276],[-79.688366,39.35227],[-79.690271,39.353896],[-79.693408,39.358176],[-79.694512,39.361659],[-79.697469,39.366138],[-79.699593,39.371577],[-79.701581,39.373446],[-79.70437,39.374459],[-79.705241,39.376013],[-79.70552,39.379696],[-79.705034,39.381916],[-79.704156,39.382933],[-79.701592,39.384175],[-79.70032,39.386234],[-79.700826,39.392282],[-79.700357,39.394663],[-79.699111,39.396287],[-79.696577,39.397466],[-79.695009,39.397581],[-79.691775,39.396949],[-79.685082,39.396922],[-79.683858,39.397295],[-79.680328,39.401053],[-79.680431,39.402643],[-79.68225,39.406429],[-79.686679,39.409884],[-79.687792,39.411747],[-79.687095,39.414746],[-79.687318,39.416585],[-79.686432,39.419083],[-79.686854,39.421496],[-79.686435,39.423209],[-79.6869,39.426601],[-79.687662,39.426817],[-79.689242,39.426948],[-79.692032,39.425569],[-79.695934,39.425482],[-79.697499,39.426153],[-79.700927,39.426151],[-79.693994,39.434182],[-79.698846,39.434412],[-79.700794,39.435866],[-79.702557,39.436174],[-79.705588,39.437753],[-79.708436,39.438384],[-79.711892,39.437584],[-79.715045,39.437493],[-79.718501,39.43868],[-79.725086,39.442715],[-79.722158,39.443783],[-79.721163,39.445062],[-79.720422,39.447652],[-79.718633,39.449768],[-79.716433,39.449256],[-79.716813,39.450926],[-79.715315,39.451613],[-79.72119,39.455143],[-79.725839,39.454725],[-79.730635,39.453706],[-79.731387,39.455133],[-79.730722,39.456833],[-79.733295,39.458118],[-79.735433,39.457006],[-79.738112,39.457206],[-79.739414,39.456152],[-79.740846,39.455997],[-79.744629,39.45697],[-79.746907,39.457058],[-79.750066,39.453437],[-79.750377,39.451172],[-79.747316,39.449596],[-79.746597,39.448306],[-79.754128,39.445501],[-79.755751,39.450238],[-79.755806,39.451252],[-79.75771,39.453384],[-79.757708,39.45902],[-79.75965,39.461019],[-79.761058,39.460615],[-79.763374,39.45892],[-79.766023,39.458664],[-79.76934,39.459813],[-79.77185,39.4593],[-79.791378,39.452087],[-79.809216,39.445246],[-79.808871,39.444218],[-79.81151,39.442192],[-79.811229,39.440264],[-79.809727,39.438369],[-79.80686,39.436929],[-79.804371,39.43459],[-79.801537,39.432943],[-79.798858,39.432707],[-79.79684,39.428136],[-79.797499,39.426962],[-79.796487,39.425704],[-79.797089,39.42271],[-79.795922,39.419986],[-79.791589,39.416651],[-79.790812,39.414993],[-79.789439,39.41445],[-79.788176,39.412403],[-79.787521,39.413435],[-79.784229,39.415133],[-79.781839,39.41465],[-79.778477,39.41307],[-79.778153,39.411583],[-79.77928,39.410575],[-79.778775,39.408967],[-79.784702,39.407058],[-79.784527,39.406244],[-79.788316,39.402405],[-79.790653,39.401425],[-79.795078,39.398858],[-79.7958,39.397838],[-79.77541,39.396679],[-79.779875,39.394024],[-79.786911,39.392547],[-79.793375,39.390173],[-79.792081,39.387709],[-79.792704,39.384462],[-79.797108,39.382197],[-79.79774,39.380068],[-79.799067,39.378143],[-79.799026,39.374147],[-79.796182,39.371968],[-79.794302,39.372502],[-79.792053,39.372283],[-79.789856,39.37275],[-79.788769,39.369962],[-79.789358,39.369144],[-79.790971,39.371763],[-79.792286,39.372044],[-79.795977,39.371051],[-79.798267,39.371069],[-79.8006,39.369694],[-79.802577,39.369874],[-79.80489,39.366296],[-79.810979,39.362945],[-79.812952,39.363182],[-79.818938,39.359949],[-79.82283,39.360133],[-79.825594,39.358962],[-79.829327,39.358247],[-79.831575,39.355285],[-79.831875,39.353119],[-79.832781,39.351762],[-79.832994,39.349116],[-79.836092,39.346521],[-79.837287,39.346366],[-79.839091,39.344812],[-79.841006,39.344391],[-79.842845,39.345599],[-79.844899,39.343471],[-79.84731,39.34233],[-79.849367,39.340283],[-79.855753,39.338456]]]}},{"type":"Feature","properties":{"zcta5":"26440","AFFGEOID10":"8600000US26440","GEOID10":"26440","ALAND10":111299282,"AWATER10":16129,"county_name":"Preston","state_code":"WV","county_state":"Preston County, WV","county_fips":"54077","risk_level_county":"Higher Risk (60–69% vaccinated)","mean_vaccination_rate_county":66.24,"risk_level_zcta":"Medium Risk (70–79% vaccinated)","mean_vaccination_rate_zips":72.27,"cases":0},"geometry":{"type":"Polygon","coordinates":[[[-79.903901,39.39185],[-79.904949,39.39782],[-79.906237,39.399333],[-79.90819,39.400585],[-79.908734,39.401843],[-79.911333,39.403128],[-79.911989,39.404183],[-79.937559,39.394766],[-79.934636,39.391595],[-79.934243,39.390037],[-79.932681,39.388287],[-79.926611,39.386414],[-79.923947,39.383956],[-79.920849,39.382053],[-79.9183,39.381568],[-79.916458,39.380492],[-79.916789,39.376983],[-79.91741,39.376163],[-79.921698,39.375756],[-79.925041,39.374082],[-79.932918,39.375029],[-79.934865,39.376234],[-79.936748,39.376549],[-79.940112,39.376104],[-79.945669,39.372062],[-79.946392,39.369888],[-79.949818,39.367251],[-79.954882,39.367329],[-79.956572,39.368024],[-79.959825,39.368229],[-79.962184,39.365739],[-79.96125,39.363983],[-79.962086,39.362532],[-79.960345,39.359185],[-79.959039,39.357694],[-79.958108,39.35556],[-79.955855,39.352998],[-79.955636,39.3514],[-79.950615,39.348213],[-79.949815,39.345386],[-79.949907,39.343754],[-79.953145,39.343918],[-79.955789,39.343279],[-79.959103,39.339074],[-79.962986,39.334614],[-79.961372,39.334829],[-79.955996,39.330888],[-79.955628,39.329317],[-79.957066,39.32685],[-79.957292,39.323352],[-79.956954,39.320079],[-79.95899,39.319449],[-79.959401,39.317832],[-79.962676,39.313047],[-79.96398,39.313187],[-79.965279,39.311855],[-79.965131,39.309147],[-79.963547,39.307948],[-79.962103,39.305625],[-79.960197,39.303818],[-79.959576,39.30223],[-79.95869,39.301996],[-79.958693,39.299679],[-79.953413,39.295953],[-79.950523,39.295906],[-79.948493,39.297852],[-79.94766,39.297393],[-79.940175,39.29722],[-79.936642,39.297229],[-79.935007,39.295247],[-79.932562,39.29309],[-79.934184,39.287311],[-79.935762,39.286301],[-79.935647,39.283826],[-79.932792,39.279535],[-79.930809,39.277761],[-79.928697,39.274519],[-79.927456,39.274523],[-79.926542,39.273446],[-79.925684,39.270285],[-79.926285,39.267362],[-79.925294,39.266855],[-79.925384,39.264098],[-79.926463,39.261939],[-79.925294,39.259739],[-79.921884,39.258244],[-79.921554,39.257214],[-79.918907,39.256006],[-79.914517,39.250899],[-79.910198,39.250798],[-79.908905,39.251855],[-79.90843,39.25339],[-79.905635,39.253769],[-79.905995,39.255588],[-79.903684,39.255448],[-79.904081,39.256879],[-79.905445,39.258181],[-79.904233,39.259578],[-79.901847,39.260214],[-79.899508,39.261891],[-79.896079,39.26161],[-79.89542,39.26051],[-79.892447,39.260348],[-79.890968,39.260902],[-79.887908,39.260911],[-79.885914,39.262462],[-79.885149,39.264019],[-79.886145,39.266956],[-79.88341,39.26985],[-79.882503,39.271519],[-79.882102,39.274787],[-79.881827,39.272905],[-79.882288,39.271566],[-79.881748,39.270023],[-79.880583,39.270174],[-79.878382,39.268409],[-79.875928,39.262599],[-79.875398,39.25986],[-79.87286,39.258364],[-79.871346,39.256732],[-79.871095,39.255228],[-79.873773,39.252148],[-79.874206,39.249459],[-79.873368,39.248263],[-79.866926,39.247221],[-79.86466,39.247194],[-79.863414,39.249568],[-79.861254,39.249524],[-79.857534,39.250219],[-79.853087,39.252205],[-79.851805,39.254782],[-79.85105,39.254874],[-79.851179,39.255289],[-79.850883,39.256796],[-79.85159,39.259938],[-79.851181,39.260687],[-79.851832,39.262869],[-79.854065,39.263896],[-79.852668,39.267094],[-79.853403,39.268426],[-79.852386,39.269736],[-79.852868,39.271317],[-79.853511,39.272243],[-79.856636,39.273165],[-79.858784,39.273362],[-79.860156,39.275439],[-79.858251,39.278736],[-79.858739,39.28057],[-79.860591,39.280502],[-79.861645,39.282224],[-79.861731,39.285099],[-79.865168,39.287025],[-79.865154,39.287813],[-79.867163,39.290252],[-79.864684,39.292607],[-79.865853,39.294396],[-79.866538,39.297304],[-79.86623,39.298738],[-79.867864,39.299342],[-79.870542,39.30267],[-79.866938,39.306098],[-79.865635,39.305504],[-79.864274,39.30746],[-79.861652,39.308976],[-79.86259,39.310775],[-79.861062,39.313727],[-79.859122,39.323165],[-79.856943,39.326448],[-79.848812,39.331653],[-79.847946,39.331688],[-79.85192,39.336433],[-79.855753,39.338456],[-79.857557,39.338441],[-79.861501,39.337072],[-79.861542,39.339219],[-79.859646,39.342123],[-79.860072,39.344312],[-79.861625,39.346566],[-79.860091,39.348252],[-79.860412,39.35265],[-79.861006,39.354801],[-79.859084,39.357765],[-79.859623,39.359401],[-79.860674,39.358224],[-79.862127,39.358157],[-79.863833,39.357094],[-79.864107,39.360694],[-79.868408,39.362546],[-79.867059,39.367828],[-79.868163,39.370763],[-79.866683,39.371771],[-79.862437,39.372041],[-79.861199,39.371637],[-79.857086,39.368691],[-79.850766,39.366903],[-79.849684,39.367301],[-79.849808,39.371588],[-79.851541,39.374046],[-79.851917,39.376162],[-79.850897,39.377077],[-79.847889,39.37768],[-79.846379,39.37913],[-79.847983,39.381917],[-79.865846,39.38503],[-79.865604,39.389008],[-79.867299,39.390279],[-79.878813,39.385117],[-79.881066,39.384531],[-79.890279,39.380179],[-79.894971,39.378694],[-79.894868,39.39992],[-79.896531,39.399211],[-79.895329,39.395793],[-79.898219,39.391322],[-79.901381,39.390832],[-79.904234,39.391163],[-79.903901,39.39185]]]}},{"type":"Feature","properties":{"zcta5":"26520","AFFGEOID10":"8600000US26520","GEOID10":"26520","ALAND10":5389857,"AWATER10":0,"county_name":"Preston","state_code":"WV","county_state":"Preston County, WV","county_fips":"54077","risk_level_county":"Higher Risk (60–69% vaccinated)","mean_vaccination_rate_county":66.24,"risk_level_zcta":"Uninhabited","mean_vaccination_rate_zips":null,"cases":0},"geometry":{"type":"Polygon","coordinates":[[[-79.840775,39.502235],[-79.841977,39.501374],[-79.843372,39.496564],[-79.844417,39.493966],[-79.840751,39.493072],[-79.838229,39.49199],[-79.837235,39.490959],[-79.831099,39.486299],[-79.828218,39.485122],[-79.825289,39.482607],[-79.82353,39.482842],[-79.824432,39.483685],[-79.822972,39.485404],[-79.817144,39.489045],[-79.816234,39.4915],[-79.812528,39.489863],[-79.811249,39.488667],[-79.809763,39.488611],[-79.810203,39.490694],[-79.814074,39.49601],[-79.808229,39.500088],[-79.808474,39.498528],[-79.804304,39.495951],[-79.803444,39.494342],[-79.799266,39.494271],[-79.797189,39.493348],[-79.797249,39.495439],[-79.80058,39.49566],[-79.807863,39.500689],[-79.80635,39.502424],[-79.808543,39.501461],[-79.810731,39.503341],[-79.810107,39.506077],[-79.820164,39.510975],[-79.831036,39.5029],[-79.833336,39.501687],[-79.831077,39.499757],[-79.831295,39.498846],[-79.83554,39.498263],[-79.839344,39.501492],[-79.840775,39.502235]]]}},{"type":"Feature","properties":{"zcta5":"26542","AFFGEOID10":"8600000US26542","GEOID10":"26542","ALAND10":93238455,"AWATER10":739602,"county_name":"Preston","state_code":"WV","county_state":"Preston County, WV","county_fips":"54077","risk_level_county":"Higher Risk (60–69% vaccinated)","mean_vaccination_rate_county":66.24,"risk_level_zcta":"Medium Risk (70–79% vaccinated)","mean_vaccination_rate_zips":74.28,"cases":0},"geometry":{"type":"Polygon","coordinates":[[[-79.793919,39.617794],[-79.794021,39.617663],[-79.800673,39.615527],[-79.803147,39.61551],[-79.806754,39.616875],[-79.808235,39.619012],[-79.809419,39.624243],[-79.810212,39.625958],[-79.812057,39.627602],[-79.818449,39.632019],[-79.825223,39.634216],[-79.827886,39.635437],[-79.832564,39.638281],[-79.837042,39.642053],[-79.839964,39.644087],[-79.844274,39.642169],[-79.847983,39.640964],[-79.850033,39.639033],[-79.851559,39.638662],[-79.851687,39.638014],[-79.849774,39.636611],[-79.848544,39.634312],[-79.848587,39.631439],[-79.84626,39.630587],[-79.843321,39.628165],[-79.840163,39.627608],[-79.837986,39.625808],[-79.837203,39.622062],[-79.835614,39.618377],[-79.830917,39.614066],[-79.831221,39.611867],[-79.82951,39.609984],[-79.829327,39.604178],[-79.831263,39.600505],[-79.832563,39.600377],[-79.834689,39.602303],[-79.836839,39.603481],[-79.841886,39.604328],[-79.843263,39.603622],[-79.848404,39.606109],[-79.850428,39.60591],[-79.852387,39.604938],[-79.854844,39.604947],[-79.856654,39.602953],[-79.857312,39.600795],[-79.862449,39.596635],[-79.862508,39.594687],[-79.861618,39.591481],[-79.863039,39.589231],[-79.865638,39.586768],[-79.866179,39.585358],[-79.867975,39.583603],[-79.865294,39.582052],[-79.860989,39.578763],[-79.859005,39.576536],[-79.854132,39.575335],[-79.852091,39.57391],[-79.848213,39.573072],[-79.844669,39.574372],[-79.841833,39.573638],[-79.840238,39.572288],[-79.832709,39.567822],[-79.843365,39.554126],[-79.839686,39.552747],[-79.83895,39.551454],[-79.838857,39.548049],[-79.837757,39.546742],[-79.833678,39.54677],[-79.831635,39.547567],[-79.828698,39.546475],[-79.825661,39.546129],[-79.822519,39.54809],[-79.820051,39.548326],[-79.817886,39.549304],[-79.815175,39.548394],[-79.813786,39.547319],[-79.813726,39.545877],[-79.811538,39.543591],[-79.811739,39.541061],[-79.811449,39.535209],[-79.80861,39.535733],[-79.805885,39.535633],[-79.80349,39.538964],[-79.800345,39.533702],[-79.797939,39.533133],[-79.797252,39.530298],[-79.801248,39.530248],[-79.806156,39.528375],[-79.80074,39.526225],[-79.798358,39.524421],[-79.800309,39.522575],[-79.802263,39.523085],[-79.805702,39.526308],[-79.80646,39.527934],[-79.81015,39.525569],[-79.809115,39.516317],[-79.80686,39.516336],[-79.805987,39.514825],[-79.804562,39.51549],[-79.800175,39.516463],[-79.799492,39.518527],[-79.795549,39.518072],[-79.795157,39.516716],[-79.78871,39.520325],[-79.7839,39.523399],[-79.784871,39.524247],[-79.784128,39.527788],[-79.781141,39.525959],[-79.778863,39.529599],[-79.777771,39.529148],[-79.774629,39.530037],[-79.771318,39.529339],[-79.769057,39.527163],[-79.766311,39.527173],[-79.764334,39.525612],[-79.76267,39.523388],[-79.760812,39.522052],[-79.758877,39.521617],[-79.753505,39.517402],[-79.750004,39.515555],[-79.748442,39.516458],[-79.746218,39.518997],[-79.745073,39.523243],[-79.743635,39.525325],[-79.741893,39.526225],[-79.742746,39.527992],[-79.737987,39.527793],[-79.734814,39.528858],[-79.731777,39.52856],[-79.732497,39.534367],[-79.733336,39.536042],[-79.73605,39.538409],[-79.738487,39.53937],[-79.739834,39.539159],[-79.741945,39.541575],[-79.737806,39.542648],[-79.73369,39.542937],[-79.73147,39.540458],[-79.727795,39.538845],[-79.727645,39.541496],[-79.72478,39.544136],[-79.722156,39.545504],[-79.717858,39.546957],[-79.714908,39.550862],[-79.713158,39.552472],[-79.719318,39.558352],[-79.723478,39.565259],[-79.723465,39.566436],[-79.719417,39.570227],[-79.718046,39.57186],[-79.719141,39.575217],[-79.726508,39.57957],[-79.728986,39.579406],[-79.731827,39.580356],[-79.737513,39.580973],[-79.741781,39.580843],[-79.744266,39.581984],[-79.743983,39.5852],[-79.745889,39.587016],[-79.746848,39.591874],[-79.74796,39.592976],[-79.748561,39.594692],[-79.75123,39.599384],[-79.752309,39.600062],[-79.756484,39.600427],[-79.759198,39.601932],[-79.760899,39.601844],[-79.764812,39.604042],[-79.767632,39.6047],[-79.771885,39.605167],[-79.773689,39.606352],[-79.777513,39.606578],[-79.779379,39.607121],[-79.781018,39.608222],[-79.783306,39.611442],[-79.785961,39.612707],[-79.791816,39.617636],[-79.793919,39.617794]]]}},{"type":"Feature","properties":{"zcta5":"26705","AFFGEOID10":"8600000US26705","GEOID10":"26705","ALAND10":145530976,"AWATER10":711134,"county_name":"Preston","state_code":"WV","county_state":"Preston County, WV","county_fips":"54077","risk_level_county":"Higher Risk (60–69% vaccinated)","mean_vaccination_rate_county":66.24,"risk_level_zcta":"Medium Risk (70–79% vaccinated)","mean_vaccination_rate_zips":73.93,"cases":0},"geometry":{"type":"Polygon","coordinates":[[[-79.601285,39.364406],[-79.601881,39.363074],[-79.601231,39.360698],[-79.599532,39.359369],[-79.599753,39.35803],[-79.597288,39.355357],[-79.600417,39.356157],[-79.603685,39.359909],[-79.606928,39.36195],[-79.614348,39.364734],[-79.614844,39.365456],[-79.618326,39.36697],[-79.621249,39.367352],[-79.623378,39.366926],[-79.625929,39.365402],[-79.626227,39.364401],[-79.629682,39.362036],[-79.635276,39.363931],[-79.63864,39.364387],[-79.640995,39.363887],[-79.643804,39.364993],[-79.64413,39.362603],[-79.645383,39.359397],[-79.649061,39.356797],[-79.650216,39.356896],[-79.658469,39.353037],[-79.663946,39.348636],[-79.66405,39.347567],[-79.666078,39.344971],[-79.666288,39.343715],[-79.667885,39.341828],[-79.673822,39.339147],[-79.681681,39.338449],[-79.684013,39.337741],[-79.692262,39.331712],[-79.68094,39.329061],[-79.666868,39.335878],[-79.646455,39.331442],[-79.645511,39.327812],[-79.620853,39.323841],[-79.622138,39.32412],[-79.623114,39.326324],[-79.609067,39.322901],[-79.609512,39.321474],[-79.61142,39.319735],[-79.6104,39.317047],[-79.611849,39.315366],[-79.615166,39.308319],[-79.615052,39.306853],[-79.616774,39.303198],[-79.618024,39.30151],[-79.617522,39.29999],[-79.618164,39.298867],[-79.621252,39.297056],[-79.62403,39.297373],[-79.628123,39.294781],[-79.629367,39.294931],[-79.631589,39.292507],[-79.634747,39.292633],[-79.633582,39.291766],[-79.632759,39.289575],[-79.631612,39.288603],[-79.622148,39.283736],[-79.625631,39.2844],[-79.629128,39.286319],[-79.63297,39.288928],[-79.635505,39.291827],[-79.638083,39.293434],[-79.641375,39.29732],[-79.64448,39.293905],[-79.644744,39.291498],[-79.64208,39.288868],[-79.63864,39.286791],[-79.636705,39.284908],[-79.635392,39.282753],[-79.635126,39.278781],[-79.63546,39.276622],[-79.636516,39.274337],[-79.639931,39.271779],[-79.646063,39.272511],[-79.647518,39.273564],[-79.65018,39.277402],[-79.653373,39.279673],[-79.655246,39.27933],[-79.661026,39.279667],[-79.662921,39.27949],[-79.66834,39.280048],[-79.674693,39.282296],[-79.677916,39.282684],[-79.682891,39.281577],[-79.684466,39.280352],[-79.68625,39.277766],[-79.68695,39.273325],[-79.684595,39.270583],[-79.558335,39.231799],[-79.560393,39.234462],[-79.565075,39.237097],[-79.565273,39.2385],[-79.567074,39.239883],[-79.568168,39.241627],[-79.568352,39.244008],[-79.566848,39.247219],[-79.566647,39.250803],[-79.564167,39.253313],[-79.561843,39.254181],[-79.561052,39.255739],[-79.56226,39.257979],[-79.563503,39.261711],[-79.563532,39.266032],[-79.564739,39.26798],[-79.565983,39.273883],[-79.565001,39.276344],[-79.563022,39.278311],[-79.560102,39.278891],[-79.558907,39.280348],[-79.558091,39.279844],[-79.556216,39.283281],[-79.558372,39.286835],[-79.558484,39.29045],[-79.558011,39.292836],[-79.553444,39.297487],[-79.549103,39.298897],[-79.549065,39.301233],[-79.547096,39.301971],[-79.538883,39.302187],[-79.544411,39.307758],[-79.538146,39.307809],[-79.537743,39.306773],[-79.537591,39.302256],[-79.520226,39.301384],[-79.521955,39.303406],[-79.524523,39.308035],[-79.516005,39.307944],[-79.510629,39.305547],[-79.508932,39.305796],[-79.507142,39.305066],[-79.50336,39.307542],[-79.502117,39.309271],[-79.499008,39.310651],[-79.493845,39.310724],[-79.490267,39.315449],[-79.489024,39.318883],[-79.4864761052465,39.3181243557042],[-79.486072,39.3443],[-79.484372,39.3443],[-79.4840920368834,39.373053706076696],[-79.48698,39.374351],[-79.490929,39.373685],[-79.493071,39.377976],[-79.493989,39.37535],[-79.497301,39.37366],[-79.500328,39.37366],[-79.502376,39.37291],[-79.504621,39.370464],[-79.504172,39.372507],[-79.501688,39.3738],[-79.501674,39.377219],[-79.505238,39.379643],[-79.507921,39.378862],[-79.511556,39.381301],[-79.515299,39.382506],[-79.516878,39.382153],[-79.520069,39.382418],[-79.52483,39.385046],[-79.529647,39.386425],[-79.528723,39.388039],[-79.531842,39.38745],[-79.535891,39.385938],[-79.539926,39.383593],[-79.548616,39.38325],[-79.548426,39.385268],[-79.551158,39.382101],[-79.551873,39.386563],[-79.553939,39.384729],[-79.555589,39.384273],[-79.555732,39.382905],[-79.558989,39.380129],[-79.560916,39.377785],[-79.562103,39.374399],[-79.562733,39.370419],[-79.564018,39.368553],[-79.56138,39.361488],[-79.568274,39.366647],[-79.569028,39.365548],[-79.571383,39.359429],[-79.570174,39.358064],[-79.57017,39.354329],[-79.568321,39.348535],[-79.572037,39.346556],[-79.573556,39.346659],[-79.575374,39.344934],[-79.578672,39.344116],[-79.581418,39.344442],[-79.58569,39.343978],[-79.586907,39.344534],[-79.588857,39.347256],[-79.589121,39.348681],[-79.591231,39.349114],[-79.593288,39.348529],[-79.592247,39.351437],[-79.593249,39.353725],[-79.594815,39.355373],[-79.594578,39.356969],[-79.59599,39.358483],[-79.596822,39.360852],[-79.600799,39.362982],[-79.601285,39.364406]]]}},{"type":"Feature","properties":{"zcta5":"26410","AFFGEOID10":"8600000US26410","GEOID10":"26410","ALAND10":59365108,"AWATER10":22845,"county_name":"Preston","state_code":"WV","county_state":"Preston County, WV","county_fips":"54077","risk_level_county":"Higher Risk (60–69% vaccinated)","mean_vaccination_rate_county":66.24,"risk_level_zcta":"Lower Risk (80–84% vaccinated)","mean_vaccination_rate_zips":84.22,"cases":0},"geometry":{"type":"Polygon","coordinates":[[[-79.867299,39.390279],[-79.865604,39.389008],[-79.865846,39.38503],[-79.847983,39.381917],[-79.846379,39.37913],[-79.847889,39.37768],[-79.850897,39.377077],[-79.851917,39.376162],[-79.851541,39.374046],[-79.849808,39.371588],[-79.849684,39.367301],[-79.850766,39.366903],[-79.857086,39.368691],[-79.861199,39.371637],[-79.862437,39.372041],[-79.866683,39.371771],[-79.868163,39.370763],[-79.867059,39.367828],[-79.868408,39.362546],[-79.864107,39.360694],[-79.863833,39.357094],[-79.862127,39.358157],[-79.860674,39.358224],[-79.859623,39.359401],[-79.859084,39.357765],[-79.861006,39.354801],[-79.860412,39.35265],[-79.860091,39.348252],[-79.861625,39.346566],[-79.860072,39.344312],[-79.859646,39.342123],[-79.861542,39.339219],[-79.861501,39.337072],[-79.857557,39.338441],[-79.855753,39.338456],[-79.849367,39.340283],[-79.84731,39.34233],[-79.844899,39.343471],[-79.842845,39.345599],[-79.841006,39.344391],[-79.839091,39.344812],[-79.837287,39.346366],[-79.836092,39.346521],[-79.832994,39.349116],[-79.832781,39.351762],[-79.831875,39.353119],[-79.831575,39.355285],[-79.829327,39.358247],[-79.825594,39.358962],[-79.82283,39.360133],[-79.818938,39.359949],[-79.812952,39.363182],[-79.810979,39.362945],[-79.80489,39.366296],[-79.802577,39.369874],[-79.8006,39.369694],[-79.798267,39.371069],[-79.795977,39.371051],[-79.792286,39.372044],[-79.790971,39.371763],[-79.789358,39.369144],[-79.788769,39.369962],[-79.789856,39.37275],[-79.792053,39.372283],[-79.794302,39.372502],[-79.796182,39.371968],[-79.799026,39.374147],[-79.799067,39.378143],[-79.79774,39.380068],[-79.797108,39.382197],[-79.792704,39.384462],[-79.792081,39.387709],[-79.793375,39.390173],[-79.786911,39.392547],[-79.779875,39.394024],[-79.77541,39.396679],[-79.7958,39.397838],[-79.795078,39.398858],[-79.790653,39.401425],[-79.788316,39.402405],[-79.784527,39.406244],[-79.784702,39.407058],[-79.778775,39.408967],[-79.77928,39.410575],[-79.778153,39.411583],[-79.778477,39.41307],[-79.781839,39.41465],[-79.784229,39.415133],[-79.787521,39.413435],[-79.788176,39.412403],[-79.789439,39.41445],[-79.790812,39.414993],[-79.791589,39.416651],[-79.795922,39.419986],[-79.797089,39.42271],[-79.796487,39.425704],[-79.797499,39.426962],[-79.79684,39.428136],[-79.798858,39.432707],[-79.801537,39.432943],[-79.804371,39.43459],[-79.80686,39.436929],[-79.809727,39.438369],[-79.811229,39.440264],[-79.81151,39.442192],[-79.808871,39.444218],[-79.809216,39.445246],[-79.791378,39.452087],[-79.792497,39.452422],[-79.794828,39.452009],[-79.798073,39.452809],[-79.802181,39.453171],[-79.804671,39.454037],[-79.807711,39.454482],[-79.808605,39.455209],[-79.813119,39.455082],[-79.81362,39.455717],[-79.815409,39.454626],[-79.81561,39.453289],[-79.820239,39.45309],[-79.8214,39.453323],[-79.822847,39.454335],[-79.8238,39.455983],[-79.822329,39.45632],[-79.821232,39.458735],[-79.819801,39.459239],[-79.817937,39.460801],[-79.813173,39.461949],[-79.811404,39.462784],[-79.802261,39.465923],[-79.798659,39.466344],[-79.800126,39.468187],[-79.797638,39.467122],[-79.79658,39.467919],[-79.796428,39.472594],[-79.794149,39.472757],[-79.793468,39.474025],[-79.791454,39.475215],[-79.790659,39.477451],[-79.786864,39.478643],[-79.785581,39.481435],[-79.79079,39.482369],[-79.793891,39.482474],[-79.798324,39.481756],[-79.798613,39.480969],[-79.796581,39.478248],[-79.796679,39.476165],[-79.797811,39.475745],[-79.802467,39.47577],[-79.805451,39.47344],[-79.809901,39.473117],[-79.814134,39.472991],[-79.816842,39.474217],[-79.819564,39.476085],[-79.823085,39.476846],[-79.826315,39.479074],[-79.827832,39.479415],[-79.831481,39.477561],[-79.831935,39.476764],[-79.829829,39.474787],[-79.829709,39.472322],[-79.832076,39.471783],[-79.836078,39.466795],[-79.836233,39.464995],[-79.840116,39.463263],[-79.840569,39.46152],[-79.839761,39.460313],[-79.835757,39.459129],[-79.832568,39.456223],[-79.832667,39.454399],[-79.829316,39.451685],[-79.828097,39.451628],[-79.826319,39.449948],[-79.82301,39.447608],[-79.823874,39.446076],[-79.827912,39.444657],[-79.826289,39.4421],[-79.826763,39.438023],[-79.828269,39.436612],[-79.854146,39.423239],[-79.856827,39.420621],[-79.855145,39.419781],[-79.857055,39.41755],[-79.858913,39.41398],[-79.860781,39.41257],[-79.861821,39.411029],[-79.864451,39.408479],[-79.865156,39.406706],[-79.861733,39.40612],[-79.857952,39.404465],[-79.85511,39.404273],[-79.853647,39.402235],[-79.852605,39.401973],[-79.849886,39.39798],[-79.867299,39.390279]]]}},{"type":"Feature","properties":{"zcta5":"26525","AFFGEOID10":"8600000US26525","GEOID10":"26525","ALAND10":359667416,"AWATER10":725304,"county_name":"Preston","state_code":"WV","county_state":"Preston County, WV","county_fips":"54077","risk_level_county":"Higher Risk (60–69% vaccinated)","mean_vaccination_rate_county":66.24,"risk_level_zcta":"Higher Risk (60–69% vaccinated)","mean_vaccination_rate_zips":64.36,"cases":0},"geometry":{"type":"Polygon","coordinates":[[[-79.793919,39.617794],[-79.791816,39.617636],[-79.785961,39.612707],[-79.783306,39.611442],[-79.781018,39.608222],[-79.779379,39.607121],[-79.777513,39.606578],[-79.773689,39.606352],[-79.771885,39.605167],[-79.767632,39.6047],[-79.764812,39.604042],[-79.760899,39.601844],[-79.759198,39.601932],[-79.756484,39.600427],[-79.752309,39.600062],[-79.75123,39.599384],[-79.748561,39.594692],[-79.748716,39.595197],[-79.749325,39.596371],[-79.746143,39.597481],[-79.744344,39.596492],[-79.742821,39.596704],[-79.738412,39.603016],[-79.739197,39.60495],[-79.739211,39.607687],[-79.740578,39.61077],[-79.740098,39.612487],[-79.734152,39.615569],[-79.732652,39.618654],[-79.732662,39.62326],[-79.734569,39.625357],[-79.735183,39.627066],[-79.730469,39.629971],[-79.727054,39.630406],[-79.724605,39.631784],[-79.722637,39.63134],[-79.722034,39.630531],[-79.722793,39.627272],[-79.722002,39.626104],[-79.719778,39.625296],[-79.716232,39.621916],[-79.713442,39.6213],[-79.709811,39.622692],[-79.706809,39.622342],[-79.704839,39.621174],[-79.704514,39.619559],[-79.704983,39.617353],[-79.706928,39.614883],[-79.706423,39.611048],[-79.707005,39.610227],[-79.705034,39.611749],[-79.702407,39.612196],[-79.699095,39.613546],[-79.696481,39.613985],[-79.69363,39.616857],[-79.689766,39.619247],[-79.684156,39.618154],[-79.680974,39.618078],[-79.677833,39.617561],[-79.675339,39.618023],[-79.675472,39.613604],[-79.673704,39.609699],[-79.671062,39.608111],[-79.670582,39.605972],[-79.668234,39.605933],[-79.667096,39.606767],[-79.668054,39.608187],[-79.667107,39.60952],[-79.664064,39.609154],[-79.661939,39.608374],[-79.661945,39.607462],[-79.658127,39.607725],[-79.654668,39.609592],[-79.651339,39.60981],[-79.648732,39.609545],[-79.642698,39.611207],[-79.641776,39.610683],[-79.640201,39.611347],[-79.641012,39.606735],[-79.639799,39.606409],[-79.640839,39.600648],[-79.640575,39.598501],[-79.639555,39.596314],[-79.637187,39.594522],[-79.636912,39.593525],[-79.637533,39.587565],[-79.63727,39.586147],[-79.635376,39.584495],[-79.635488,39.583671],[-79.631081,39.582436],[-79.627567,39.584419],[-79.62695,39.58538],[-79.623108,39.585568],[-79.623492,39.589058],[-79.622163,39.589497],[-79.622291,39.585409],[-79.619935,39.584644],[-79.616594,39.582894],[-79.610512,39.582837],[-79.612164,39.587033],[-79.611208,39.590391],[-79.612222,39.59223],[-79.615693,39.59344],[-79.614451,39.602352],[-79.611348,39.603748],[-79.610438,39.603062],[-79.610065,39.601168],[-79.607478,39.597939],[-79.602692,39.599313],[-79.59979,39.599873],[-79.596794,39.599958],[-79.59413,39.597996],[-79.59188,39.598118],[-79.589141,39.600025],[-79.586707,39.600634],[-79.583266,39.59878],[-79.579016,39.59823],[-79.577759,39.597355],[-79.578523,39.593254],[-79.579718,39.591992],[-79.582476,39.591058],[-79.583847,39.590032],[-79.583257,39.589144],[-79.580409,39.589903],[-79.577911,39.58909],[-79.578934,39.586677],[-79.578338,39.584015],[-79.574093,39.583044],[-79.572702,39.583194],[-79.571616,39.585289],[-79.570601,39.5857],[-79.568054,39.584826],[-79.566626,39.584969],[-79.566996,39.583068],[-79.566644,39.580698],[-79.567653,39.578247],[-79.568618,39.577479],[-79.572286,39.575848],[-79.574006,39.574068],[-79.576161,39.572562],[-79.580486,39.570886],[-79.577167,39.567774],[-79.572983,39.567213],[-79.571525,39.564889],[-79.570116,39.564309],[-79.569006,39.562933],[-79.563658,39.565168],[-79.56087,39.567341],[-79.558613,39.567614],[-79.558474,39.568421],[-79.556352,39.570307],[-79.550859,39.572098],[-79.547358,39.574016],[-79.543577,39.575279],[-79.538222,39.576025],[-79.537031,39.575941],[-79.53155,39.572846],[-79.530663,39.570672],[-79.531109,39.569011],[-79.530399,39.57114],[-79.52938,39.569262],[-79.524541,39.568425],[-79.519263,39.566674],[-79.515718,39.564232],[-79.514176,39.563881],[-79.514877,39.565888],[-79.51071,39.563895],[-79.508212,39.561998],[-79.505881,39.563884],[-79.506351,39.564698],[-79.504661,39.568076],[-79.494739,39.577104],[-79.488388,39.579272],[-79.488344,39.580542],[-79.490444,39.585129],[-79.489331,39.587529],[-79.485922,39.589851],[-79.485318,39.590004],[-79.4782954526371,39.588947207353094],[-79.477764,39.642282],[-79.476968,39.642986],[-79.476574,39.644206],[-79.476662,39.721078],[-79.5331549413684,39.7208419669316],[-79.548465,39.720778],[-79.608223,39.721154],[-79.610623,39.721245],[-79.7021569623092,39.7209646921448],[-79.7191118033082,39.720912770705],[-79.763774,39.720776],[-79.763773,39.696867],[-79.78537,39.657287],[-79.789177,39.625081],[-79.789277,39.623781],[-79.793919,39.617794]]]}},{"type":"Feature","properties":{"zcta5":"26374","AFFGEOID10":"8600000US26374","GEOID10":"26374","ALAND10":84591020,"AWATER10":7211,"county_name":"Preston","state_code":"WV","county_state":"Preston County, WV","county_fips":"54077","risk_level_county":"Higher Risk (60–69% vaccinated)","mean_vaccination_rate_county":66.24,"risk_level_zcta":"Medium Risk (70–79% vaccinated)","mean_vaccination_rate_zips":71.58,"cases":0},"geometry":{"type":"Polygon","coordinates":[[[-79.86715,39.523518],[-79.896817,39.485653],[-79.89774,39.484059],[-79.89974,39.481945],[-79.897553,39.462153],[-79.8988,39.461226],[-79.900819,39.461412],[-79.907201,39.458908],[-79.909246,39.461135],[-79.911289,39.462141],[-79.912071,39.463697],[-79.914223,39.463457],[-79.916399,39.464019],[-79.921976,39.464552],[-79.923788,39.465652],[-79.925833,39.465559],[-79.928376,39.466934],[-79.929473,39.468845],[-79.931857,39.469727],[-79.935949,39.473834],[-79.93622,39.474562],[-79.939981,39.475675],[-79.943749,39.46489],[-79.946737,39.464646],[-79.94723,39.466197],[-79.951177,39.465319],[-79.954322,39.467783],[-79.956766,39.468702],[-79.960964,39.466893],[-79.960542,39.464541],[-79.956622,39.462592],[-79.955574,39.460478],[-79.95564,39.458569],[-79.945005,39.454719],[-79.938878,39.452465],[-79.921553,39.445859],[-79.924115,39.44289],[-79.924049,39.44155],[-79.926068,39.440131],[-79.927166,39.438545],[-79.929626,39.436429],[-79.929934,39.433565],[-79.9294,39.430913],[-79.926101,39.428303],[-79.925957,39.427409],[-79.927312,39.426115],[-79.926606,39.424901],[-79.92698,39.422578],[-79.925716,39.421742],[-79.920747,39.421845],[-79.919633,39.422235],[-79.916899,39.421491],[-79.916718,39.419701],[-79.917332,39.41782],[-79.914397,39.419143],[-79.912025,39.419737],[-79.9104,39.418822],[-79.909925,39.417199],[-79.910853,39.415803],[-79.914351,39.413454],[-79.914749,39.412682],[-79.916518,39.412881],[-79.918584,39.409557],[-79.916657,39.408976],[-79.915327,39.407476],[-79.91283,39.406236],[-79.91168,39.404815],[-79.909541,39.404178],[-79.903794,39.404203],[-79.901737,39.403759],[-79.900691,39.402819],[-79.89993,39.400649],[-79.897515,39.398124],[-79.89782,39.3967],[-79.899447,39.393303],[-79.900282,39.392574],[-79.903901,39.39185],[-79.904234,39.391163],[-79.901381,39.390832],[-79.898219,39.391322],[-79.895329,39.395793],[-79.896531,39.399211],[-79.894868,39.39992],[-79.894971,39.378694],[-79.890279,39.380179],[-79.881066,39.384531],[-79.878813,39.385117],[-79.867299,39.390279],[-79.849886,39.39798],[-79.852605,39.401973],[-79.853647,39.402235],[-79.85511,39.404273],[-79.857952,39.404465],[-79.861733,39.40612],[-79.865156,39.406706],[-79.864451,39.408479],[-79.861821,39.411029],[-79.860781,39.41257],[-79.858913,39.41398],[-79.857055,39.41755],[-79.855145,39.419781],[-79.856827,39.420621],[-79.854146,39.423239],[-79.828269,39.436612],[-79.826763,39.438023],[-79.826289,39.4421],[-79.827912,39.444657],[-79.823874,39.446076],[-79.82301,39.447608],[-79.826319,39.449948],[-79.828097,39.451628],[-79.829316,39.451685],[-79.832667,39.454399],[-79.832568,39.456223],[-79.835757,39.459129],[-79.839761,39.460313],[-79.840569,39.46152],[-79.840116,39.463263],[-79.836233,39.464995],[-79.836078,39.466795],[-79.832076,39.471783],[-79.829709,39.472322],[-79.829829,39.474787],[-79.831935,39.476764],[-79.831481,39.477561],[-79.827832,39.479415],[-79.825289,39.482607],[-79.828218,39.485122],[-79.831099,39.486299],[-79.837235,39.490959],[-79.838229,39.49199],[-79.840751,39.493072],[-79.844417,39.493966],[-79.843372,39.496564],[-79.841977,39.501374],[-79.840775,39.502235],[-79.843854,39.501382],[-79.843507,39.503765],[-79.842032,39.503518],[-79.84243,39.506143],[-79.84124,39.508621],[-79.844609,39.510317],[-79.845503,39.512283],[-79.846369,39.51276],[-79.850849,39.512391],[-79.85519,39.514575],[-79.855801,39.515684],[-79.857581,39.516035],[-79.858248,39.517123],[-79.85995,39.517248],[-79.862951,39.518856],[-79.863682,39.519971],[-79.866038,39.521392],[-79.86715,39.523518]]]}},{"type":"Feature","properties":{"zcta5":"26716","AFFGEOID10":"8600000US26716","GEOID10":"26716","ALAND10":62187924,"AWATER10":38672,"county_name":"Preston","state_code":"WV","county_state":"Preston County, WV","county_fips":"54077","risk_level_county":"Higher Risk (60–69% vaccinated)","mean_vaccination_rate_county":66.24,"risk_level_zcta":"Lower Risk (80–84% vaccinated)","mean_vaccination_rate_zips":81.72,"cases":0},"geometry":{"type":"Polygon","coordinates":[[[-79.4864761052465,39.3181243557042],[-79.489024,39.318883],[-79.490267,39.315449],[-79.493845,39.310724],[-79.499008,39.310651],[-79.502117,39.309271],[-79.50336,39.307542],[-79.507142,39.305066],[-79.508932,39.305796],[-79.510629,39.305547],[-79.516005,39.307944],[-79.524523,39.308035],[-79.521955,39.303406],[-79.520226,39.301384],[-79.537591,39.302256],[-79.537743,39.306773],[-79.538146,39.307809],[-79.544411,39.307758],[-79.538883,39.302187],[-79.547096,39.301971],[-79.549065,39.301233],[-79.549103,39.298897],[-79.553444,39.297487],[-79.558011,39.292836],[-79.558484,39.29045],[-79.558372,39.286835],[-79.556216,39.283281],[-79.558091,39.279844],[-79.558907,39.280348],[-79.560102,39.278891],[-79.563022,39.278311],[-79.565001,39.276344],[-79.565983,39.273883],[-79.564739,39.26798],[-79.563532,39.266032],[-79.563503,39.261711],[-79.56226,39.257979],[-79.561052,39.255739],[-79.561843,39.254181],[-79.564167,39.253313],[-79.566647,39.250803],[-79.566848,39.247219],[-79.568352,39.244008],[-79.568168,39.241627],[-79.567074,39.239883],[-79.565273,39.2385],[-79.565075,39.237097],[-79.560393,39.234462],[-79.558335,39.231799],[-79.512292,39.217656],[-79.507576,39.216206],[-79.487175,39.194906],[-79.486873,39.205961],[-79.485874,39.264905],[-79.486179,39.26497],[-79.487274,39.265205],[-79.486737,39.278149],[-79.487651,39.279933],[-79.486812,39.296367],[-79.4864761052465,39.3181243557042]]]}},{"type":"Feature","properties":{"zcta5":"26537","AFFGEOID10":"8600000US26537","GEOID10":"26537","ALAND10":106955561,"AWATER10":851417,"county_name":"Preston","state_code":"WV","county_state":"Preston County, WV","county_fips":"54077","risk_level_county":"Higher Risk (60–69% vaccinated)","mean_vaccination_rate_county":66.24,"risk_level_zcta":"Medium Risk (70–79% vaccinated)","mean_vaccination_rate_zips":71.28,"cases":0},"geometry":{"type":"Polygon","coordinates":[[[-79.798659,39.466344],[-79.802261,39.465923],[-79.811404,39.462784],[-79.813173,39.461949],[-79.817937,39.460801],[-79.819801,39.459239],[-79.821232,39.458735],[-79.822329,39.45632],[-79.8238,39.455983],[-79.822847,39.454335],[-79.8214,39.453323],[-79.820239,39.45309],[-79.81561,39.453289],[-79.815409,39.454626],[-79.81362,39.455717],[-79.813119,39.455082],[-79.808605,39.455209],[-79.807711,39.454482],[-79.804671,39.454037],[-79.802181,39.453171],[-79.798073,39.452809],[-79.794828,39.452009],[-79.792497,39.452422],[-79.791378,39.452087],[-79.77185,39.4593],[-79.76934,39.459813],[-79.766023,39.458664],[-79.763374,39.45892],[-79.761058,39.460615],[-79.75965,39.461019],[-79.757708,39.45902],[-79.75771,39.453384],[-79.755806,39.451252],[-79.755751,39.450238],[-79.754128,39.445501],[-79.746597,39.448306],[-79.747316,39.449596],[-79.750377,39.451172],[-79.750066,39.453437],[-79.746907,39.457058],[-79.744629,39.45697],[-79.740846,39.455997],[-79.739414,39.456152],[-79.738112,39.457206],[-79.735433,39.457006],[-79.733295,39.458118],[-79.730722,39.456833],[-79.731387,39.455133],[-79.730635,39.453706],[-79.725839,39.454725],[-79.72119,39.455143],[-79.715315,39.451613],[-79.716813,39.450926],[-79.716433,39.449256],[-79.718633,39.449768],[-79.720422,39.447652],[-79.721163,39.445062],[-79.722158,39.443783],[-79.725086,39.442715],[-79.718501,39.43868],[-79.715045,39.437493],[-79.711892,39.437584],[-79.708436,39.438384],[-79.705588,39.437753],[-79.702557,39.436174],[-79.700794,39.435866],[-79.698846,39.434412],[-79.693994,39.434182],[-79.700927,39.426151],[-79.697499,39.426153],[-79.695934,39.425482],[-79.692032,39.425569],[-79.689242,39.426948],[-79.687662,39.426817],[-79.687152,39.429767],[-79.685941,39.429983],[-79.684906,39.427994],[-79.685745,39.424187],[-79.683837,39.424084],[-79.683298,39.428848],[-79.680339,39.432035],[-79.680286,39.434457],[-79.68138,39.436835],[-79.681175,39.43881],[-79.67384,39.444059],[-79.66956,39.445391],[-79.669959,39.447783],[-79.668862,39.44776],[-79.666956,39.446319],[-79.664999,39.447596],[-79.661759,39.447151],[-79.660358,39.44767],[-79.664431,39.45428],[-79.661759,39.457205],[-79.657621,39.459419],[-79.650062,39.461374],[-79.650548,39.46294],[-79.647024,39.46536],[-79.64357,39.471136],[-79.64206,39.472254],[-79.638565,39.473501],[-79.637028,39.475755],[-79.636223,39.477415],[-79.635462,39.480997],[-79.635396,39.483303],[-79.634344,39.487408],[-79.636596,39.489664],[-79.642356,39.491143],[-79.645073,39.492612],[-79.645545,39.493712],[-79.645252,39.495957],[-79.64574,39.497227],[-79.644679,39.502143],[-79.64457,39.504287],[-79.647433,39.50919],[-79.650997,39.511977],[-79.656896,39.513423],[-79.659885,39.517136],[-79.664335,39.520972],[-79.666454,39.522009],[-79.669576,39.521753],[-79.672851,39.521022],[-79.675681,39.520829],[-79.678583,39.521652],[-79.679975,39.522635],[-79.679851,39.529866],[-79.680828,39.530951],[-79.683998,39.53284],[-79.686872,39.536178],[-79.688286,39.537122],[-79.689236,39.540457],[-79.696916,39.547088],[-79.700439,39.548694],[-79.703838,39.548979],[-79.712822,39.552165],[-79.713158,39.552472],[-79.714908,39.550862],[-79.717858,39.546957],[-79.722156,39.545504],[-79.72478,39.544136],[-79.727645,39.541496],[-79.727795,39.538845],[-79.73147,39.540458],[-79.73369,39.542937],[-79.737806,39.542648],[-79.741945,39.541575],[-79.739834,39.539159],[-79.738487,39.53937],[-79.73605,39.538409],[-79.733336,39.536042],[-79.732497,39.534367],[-79.731777,39.52856],[-79.734814,39.528858],[-79.737987,39.527793],[-79.742746,39.527992],[-79.741893,39.526225],[-79.743635,39.525325],[-79.745073,39.523243],[-79.746218,39.518997],[-79.748442,39.516458],[-79.750004,39.515555],[-79.753505,39.517402],[-79.758877,39.521617],[-79.760812,39.522052],[-79.76267,39.523388],[-79.764334,39.525612],[-79.766311,39.527173],[-79.769057,39.527163],[-79.771318,39.529339],[-79.774629,39.530037],[-79.777771,39.529148],[-79.77184,39.518763],[-79.769205,39.516702],[-79.768264,39.514811],[-79.765904,39.512511],[-79.764287,39.510157],[-79.762167,39.509549],[-79.760882,39.510147],[-79.756053,39.51014],[-79.752397,39.508365],[-79.755615,39.507702],[-79.758373,39.504274],[-79.7578,39.502276],[-79.760293,39.498769],[-79.759891,39.49612],[-79.761537,39.496902],[-79.764784,39.497134],[-79.766322,39.497964],[-79.77144,39.497795],[-79.773424,39.499142],[-79.775785,39.499285],[-79.774587,39.48831],[-79.77159,39.489189],[-79.771465,39.487752],[-79.767764,39.486936],[-79.767455,39.485696],[-79.765991,39.484936],[-79.76707,39.484079],[-79.769755,39.484242],[-79.771784,39.483582],[-79.774202,39.481712],[-79.778163,39.481128],[-79.784192,39.477182],[-79.785311,39.475728],[-79.790501,39.472596],[-79.793731,39.469797],[-79.79461,39.468157],[-79.796914,39.466595],[-79.798659,39.466344]]]}},{"type":"Feature","properties":{"zcta5":"26547","AFFGEOID10":"8600000US26547","GEOID10":"26547","ALAND10":38661531,"AWATER10":485742,"county_name":"Preston","state_code":"WV","county_state":"Preston County, WV","county_fips":"54077","risk_level_county":"Higher Risk (60–69% vaccinated)","mean_vaccination_rate_county":66.24,"risk_level_zcta":"Medium Risk (70–79% vaccinated)","mean_vaccination_rate_zips":73.23,"cases":0},"geometry":{"type":"Polygon","coordinates":[[[-79.86715,39.523518],[-79.866038,39.521392],[-79.863682,39.519971],[-79.862951,39.518856],[-79.85995,39.517248],[-79.858248,39.517123],[-79.857581,39.516035],[-79.855801,39.515684],[-79.85519,39.514575],[-79.850849,39.512391],[-79.846369,39.51276],[-79.845503,39.512283],[-79.844609,39.510317],[-79.84124,39.508621],[-79.84243,39.506143],[-79.842032,39.503518],[-79.843507,39.503765],[-79.843854,39.501382],[-79.840775,39.502235],[-79.839344,39.501492],[-79.83554,39.498263],[-79.831295,39.498846],[-79.831077,39.499757],[-79.833336,39.501687],[-79.831036,39.5029],[-79.820164,39.510975],[-79.810107,39.506077],[-79.810731,39.503341],[-79.808543,39.501461],[-79.80635,39.502424],[-79.807863,39.500689],[-79.80058,39.49566],[-79.797249,39.495439],[-79.797189,39.493348],[-79.799266,39.494271],[-79.803444,39.494342],[-79.804304,39.495951],[-79.808474,39.498528],[-79.808229,39.500088],[-79.814074,39.49601],[-79.810203,39.490694],[-79.809763,39.488611],[-79.811249,39.488667],[-79.812528,39.489863],[-79.816234,39.4915],[-79.817144,39.489045],[-79.822972,39.485404],[-79.824432,39.483685],[-79.82353,39.482842],[-79.825289,39.482607],[-79.827832,39.479415],[-79.826315,39.479074],[-79.823085,39.476846],[-79.819564,39.476085],[-79.816842,39.474217],[-79.814134,39.472991],[-79.809901,39.473117],[-79.805451,39.47344],[-79.802467,39.47577],[-79.797811,39.475745],[-79.796679,39.476165],[-79.796581,39.478248],[-79.798613,39.480969],[-79.798324,39.481756],[-79.793891,39.482474],[-79.79079,39.482369],[-79.785581,39.481435],[-79.786864,39.478643],[-79.790659,39.477451],[-79.791454,39.475215],[-79.793468,39.474025],[-79.794149,39.472757],[-79.796428,39.472594],[-79.79658,39.467919],[-79.797638,39.467122],[-79.800126,39.468187],[-79.798659,39.466344],[-79.796914,39.466595],[-79.79461,39.468157],[-79.793731,39.469797],[-79.790501,39.472596],[-79.785311,39.475728],[-79.784192,39.477182],[-79.778163,39.481128],[-79.774202,39.481712],[-79.771784,39.483582],[-79.769755,39.484242],[-79.76707,39.484079],[-79.765991,39.484936],[-79.767455,39.485696],[-79.767764,39.486936],[-79.771465,39.487752],[-79.77159,39.489189],[-79.774587,39.48831],[-79.775785,39.499285],[-79.773424,39.499142],[-79.77144,39.497795],[-79.766322,39.497964],[-79.764784,39.497134],[-79.761537,39.496902],[-79.759891,39.49612],[-79.760293,39.498769],[-79.7578,39.502276],[-79.758373,39.504274],[-79.755615,39.507702],[-79.752397,39.508365],[-79.756053,39.51014],[-79.760882,39.510147],[-79.762167,39.509549],[-79.764287,39.510157],[-79.765904,39.512511],[-79.768264,39.514811],[-79.769205,39.516702],[-79.77184,39.518763],[-79.777771,39.529148],[-79.778863,39.529599],[-79.781141,39.525959],[-79.784128,39.527788],[-79.784871,39.524247],[-79.7839,39.523399],[-79.78871,39.520325],[-79.795157,39.516716],[-79.795549,39.518072],[-79.799492,39.518527],[-79.800175,39.516463],[-79.804562,39.51549],[-79.805987,39.514825],[-79.80686,39.516336],[-79.809115,39.516317],[-79.81015,39.525569],[-79.80646,39.527934],[-79.805702,39.526308],[-79.802263,39.523085],[-79.800309,39.522575],[-79.798358,39.524421],[-79.80074,39.526225],[-79.806156,39.528375],[-79.801248,39.530248],[-79.797252,39.530298],[-79.797939,39.533133],[-79.800345,39.533702],[-79.80349,39.538964],[-79.805885,39.535633],[-79.80861,39.535733],[-79.811449,39.535209],[-79.811739,39.541061],[-79.811538,39.543591],[-79.813726,39.545877],[-79.813786,39.547319],[-79.815175,39.548394],[-79.817886,39.549304],[-79.820051,39.548326],[-79.822519,39.54809],[-79.825661,39.546129],[-79.828698,39.546475],[-79.831635,39.547567],[-79.833678,39.54677],[-79.837757,39.546742],[-79.838857,39.548049],[-79.83895,39.551454],[-79.839686,39.552747],[-79.843365,39.554126],[-79.86715,39.523518]]]}},{"type":"Feature","properties":{"zcta5":"26519","AFFGEOID10":"8600000US26519","GEOID10":"26519","ALAND10":167053178,"AWATER10":913955,"county_name":"Preston","state_code":"WV","county_state":"Preston County, WV","county_fips":"54077","risk_level_county":"Higher Risk (60–69% vaccinated)","mean_vaccination_rate_county":66.24,"risk_level_zcta":"Medium Risk (70–79% vaccinated)","mean_vaccination_rate_zips":70.92,"cases":0},"geometry":{"type":"Polygon","coordinates":[[[-79.531109,39.569011],[-79.530663,39.570672],[-79.53155,39.572846],[-79.537031,39.575941],[-79.538222,39.576025],[-79.543577,39.575279],[-79.547358,39.574016],[-79.550859,39.572098],[-79.556352,39.570307],[-79.558474,39.568421],[-79.558613,39.567614],[-79.56087,39.567341],[-79.563658,39.565168],[-79.569006,39.562933],[-79.570116,39.564309],[-79.571525,39.564889],[-79.572983,39.567213],[-79.577167,39.567774],[-79.580486,39.570886],[-79.576161,39.572562],[-79.574006,39.574068],[-79.572286,39.575848],[-79.568618,39.577479],[-79.567653,39.578247],[-79.566644,39.580698],[-79.566996,39.583068],[-79.566626,39.584969],[-79.568054,39.584826],[-79.570601,39.5857],[-79.571616,39.585289],[-79.572702,39.583194],[-79.574093,39.583044],[-79.578338,39.584015],[-79.578934,39.586677],[-79.577911,39.58909],[-79.580409,39.589903],[-79.583257,39.589144],[-79.583847,39.590032],[-79.582476,39.591058],[-79.579718,39.591992],[-79.578523,39.593254],[-79.577759,39.597355],[-79.579016,39.59823],[-79.583266,39.59878],[-79.586707,39.600634],[-79.589141,39.600025],[-79.59188,39.598118],[-79.59413,39.597996],[-79.596794,39.599958],[-79.59979,39.599873],[-79.602692,39.599313],[-79.607478,39.597939],[-79.610065,39.601168],[-79.610438,39.603062],[-79.611348,39.603748],[-79.614451,39.602352],[-79.615693,39.59344],[-79.612222,39.59223],[-79.611208,39.590391],[-79.612164,39.587033],[-79.610512,39.582837],[-79.616594,39.582894],[-79.619935,39.584644],[-79.622291,39.585409],[-79.622163,39.589497],[-79.623492,39.589058],[-79.623108,39.585568],[-79.62695,39.58538],[-79.627567,39.584419],[-79.631081,39.582436],[-79.635488,39.583671],[-79.635376,39.584495],[-79.63727,39.586147],[-79.637533,39.587565],[-79.636912,39.593525],[-79.637187,39.594522],[-79.639555,39.596314],[-79.640575,39.598501],[-79.640839,39.600648],[-79.639799,39.606409],[-79.641012,39.606735],[-79.640201,39.611347],[-79.641776,39.610683],[-79.642698,39.611207],[-79.648732,39.609545],[-79.651339,39.60981],[-79.654668,39.609592],[-79.658127,39.607725],[-79.661945,39.607462],[-79.661939,39.608374],[-79.664064,39.609154],[-79.667107,39.60952],[-79.668054,39.608187],[-79.667096,39.606767],[-79.668234,39.605933],[-79.670582,39.605972],[-79.671062,39.608111],[-79.673704,39.609699],[-79.675472,39.613604],[-79.675339,39.618023],[-79.677833,39.617561],[-79.680974,39.618078],[-79.684156,39.618154],[-79.689766,39.619247],[-79.69363,39.616857],[-79.696481,39.613985],[-79.699095,39.613546],[-79.702407,39.612196],[-79.705034,39.611749],[-79.707005,39.610227],[-79.706423,39.611048],[-79.706928,39.614883],[-79.704983,39.617353],[-79.704514,39.619559],[-79.704839,39.621174],[-79.706809,39.622342],[-79.709811,39.622692],[-79.713442,39.6213],[-79.716232,39.621916],[-79.719778,39.625296],[-79.722002,39.626104],[-79.722793,39.627272],[-79.722034,39.630531],[-79.722637,39.63134],[-79.724605,39.631784],[-79.727054,39.630406],[-79.730469,39.629971],[-79.735183,39.627066],[-79.734569,39.625357],[-79.732662,39.62326],[-79.732652,39.618654],[-79.734152,39.615569],[-79.740098,39.612487],[-79.740578,39.61077],[-79.739211,39.607687],[-79.739197,39.60495],[-79.738412,39.603016],[-79.742821,39.596704],[-79.744344,39.596492],[-79.746143,39.597481],[-79.749325,39.596371],[-79.748716,39.595197],[-79.748561,39.594692],[-79.74796,39.592976],[-79.746848,39.591874],[-79.745889,39.587016],[-79.743983,39.5852],[-79.744266,39.581984],[-79.741781,39.580843],[-79.737513,39.580973],[-79.731827,39.580356],[-79.728986,39.579406],[-79.726508,39.57957],[-79.719141,39.575217],[-79.718046,39.57186],[-79.719417,39.570227],[-79.723465,39.566436],[-79.723478,39.565259],[-79.719318,39.558352],[-79.713158,39.552472],[-79.712822,39.552165],[-79.703838,39.548979],[-79.700439,39.548694],[-79.696916,39.547088],[-79.689236,39.540457],[-79.688286,39.537122],[-79.686872,39.536178],[-79.683998,39.53284],[-79.680828,39.530951],[-79.679851,39.529866],[-79.679975,39.522635],[-79.678583,39.521652],[-79.675681,39.520829],[-79.672851,39.521022],[-79.669576,39.521753],[-79.666454,39.522009],[-79.664335,39.520972],[-79.659885,39.517136],[-79.656896,39.513423],[-79.650997,39.511977],[-79.647433,39.50919],[-79.64457,39.504287],[-79.644679,39.502143],[-79.64574,39.497227],[-79.645252,39.495957],[-79.645545,39.493712],[-79.645073,39.492612],[-79.642356,39.491143],[-79.636596,39.489664],[-79.634344,39.487408],[-79.635396,39.483303],[-79.635462,39.480997],[-79.636223,39.477415],[-79.637028,39.475755],[-79.639694,39.471334],[-79.636556,39.468509],[-79.632802,39.467082],[-79.628544,39.466595],[-79.626781,39.465664],[-79.622003,39.466977],[-79.62016,39.466257],[-79.61825,39.467009],[-79.601386,39.459228],[-79.59797,39.459516],[-79.595702,39.460946],[-79.59596,39.459432],[-79.592008,39.462771],[-79.591902,39.46495],[-79.589742,39.466753],[-79.589402,39.468186],[-79.586554,39.469755],[-79.583784,39.470645],[-79.583871,39.472198],[-79.586206,39.473103],[-79.587079,39.47433],[-79.588743,39.474455],[-79.5862,39.476314],[-79.583743,39.478595],[-79.580339,39.483312],[-79.580921,39.48386],[-79.579904,39.486066],[-79.579029,39.490043],[-79.577158,39.49426],[-79.575811,39.496421],[-79.576233,39.497469],[-79.580446,39.497843],[-79.576453,39.497909],[-79.574136,39.499809],[-79.571049,39.500636],[-79.568262,39.50225],[-79.565825,39.504243],[-79.561755,39.505612],[-79.559833,39.50921],[-79.56089,39.512052],[-79.560953,39.51431],[-79.56685,39.513122],[-79.574827,39.511768],[-79.590364,39.511198],[-79.588485,39.513399],[-79.588552,39.514506],[-79.585841,39.517499],[-79.583438,39.518997],[-79.582407,39.520504],[-79.581888,39.522708],[-79.580451,39.52462],[-79.580814,39.525582],[-79.571643,39.525545],[-79.569861,39.526256],[-79.566733,39.525398],[-79.563829,39.526348],[-79.561306,39.526495],[-79.559103,39.527619],[-79.557281,39.527941],[-79.554467,39.526739],[-79.549696,39.529126],[-79.548294,39.528488],[-79.542126,39.530619],[-79.540854,39.531454],[-79.540144,39.533454],[-79.53804,39.53644],[-79.533435,39.541008],[-79.532766,39.544494],[-79.531514,39.546388],[-79.531808,39.548151],[-79.531046,39.548971],[-79.529221,39.548451],[-79.52741,39.550866],[-79.529282,39.554777],[-79.528443,39.556235],[-79.530442,39.557652],[-79.533929,39.560744],[-79.534076,39.563302],[-79.531109,39.569011]]]}},{"type":"Feature","properties":{"zcta5":"26764","AFFGEOID10":"8600000US26764","GEOID10":"26764","ALAND10":230936259,"AWATER10":426312,"county_name":"Preston","state_code":"WV","county_state":"Preston County, WV","county_fips":"54077","risk_level_county":"Higher Risk (60–69% vaccinated)","mean_vaccination_rate_county":66.24,"risk_level_zcta":"Medium Risk (70–79% vaccinated)","mean_vaccination_rate_zips":70.33,"cases":0},"geometry":{"type":"Polygon","coordinates":[[[-79.637028,39.475755],[-79.638565,39.473501],[-79.64206,39.472254],[-79.64357,39.471136],[-79.647024,39.46536],[-79.650548,39.46294],[-79.650062,39.461374],[-79.657621,39.459419],[-79.661759,39.457205],[-79.664431,39.45428],[-79.660358,39.44767],[-79.661759,39.447151],[-79.664999,39.447596],[-79.666956,39.446319],[-79.668862,39.44776],[-79.669959,39.447783],[-79.66956,39.445391],[-79.67384,39.444059],[-79.681175,39.43881],[-79.68138,39.436835],[-79.680286,39.434457],[-79.680339,39.432035],[-79.683298,39.428848],[-79.683837,39.424084],[-79.681056,39.423783],[-79.678336,39.42291],[-79.67508,39.420062],[-79.66967,39.419297],[-79.666988,39.419753],[-79.665491,39.417682],[-79.664995,39.41474],[-79.664016,39.413007],[-79.664889,39.408303],[-79.662337,39.406646],[-79.661692,39.404654],[-79.659517,39.404709],[-79.656882,39.403689],[-79.657607,39.401902],[-79.655623,39.398915],[-79.653426,39.397486],[-79.651219,39.397001],[-79.650181,39.3971],[-79.649869,39.398934],[-79.647102,39.399929],[-79.646237,39.399461],[-79.645009,39.400222],[-79.644339,39.402075],[-79.641795,39.404501],[-79.638717,39.405014],[-79.636344,39.406639],[-79.636271,39.409471],[-79.635753,39.410831],[-79.634357,39.410693],[-79.631477,39.412113],[-79.629941,39.412281],[-79.628226,39.411357],[-79.621649,39.414637],[-79.620226,39.414968],[-79.618949,39.414469],[-79.61754,39.412738],[-79.614511,39.410603],[-79.614141,39.40796],[-79.615726,39.407637],[-79.616624,39.406224],[-79.619272,39.406152],[-79.622627,39.405412],[-79.623291,39.403253],[-79.625779,39.400232],[-79.630616,39.398753],[-79.631198,39.396697],[-79.630548,39.395176],[-79.630876,39.393062],[-79.630384,39.389321],[-79.629438,39.386641],[-79.625989,39.387363],[-79.624628,39.387211],[-79.620973,39.385835],[-79.616761,39.38322],[-79.613174,39.381642],[-79.606831,39.381508],[-79.60723,39.376586],[-79.606776,39.372389],[-79.603936,39.37037],[-79.603702,39.367816],[-79.601285,39.364406],[-79.600799,39.362982],[-79.596822,39.360852],[-79.59599,39.358483],[-79.594578,39.356969],[-79.594815,39.355373],[-79.593249,39.353725],[-79.592247,39.351437],[-79.593288,39.348529],[-79.591231,39.349114],[-79.589121,39.348681],[-79.588857,39.347256],[-79.586907,39.344534],[-79.58569,39.343978],[-79.581418,39.344442],[-79.578672,39.344116],[-79.575374,39.344934],[-79.573556,39.346659],[-79.572037,39.346556],[-79.568321,39.348535],[-79.57017,39.354329],[-79.570174,39.358064],[-79.571383,39.359429],[-79.569028,39.365548],[-79.568274,39.366647],[-79.56138,39.361488],[-79.564018,39.368553],[-79.562733,39.370419],[-79.562103,39.374399],[-79.560916,39.377785],[-79.558989,39.380129],[-79.555732,39.382905],[-79.555589,39.384273],[-79.553939,39.384729],[-79.551873,39.386563],[-79.551158,39.382101],[-79.548426,39.385268],[-79.548616,39.38325],[-79.539926,39.383593],[-79.535891,39.385938],[-79.531842,39.38745],[-79.528723,39.388039],[-79.529647,39.386425],[-79.52483,39.385046],[-79.520069,39.382418],[-79.516878,39.382153],[-79.515299,39.382506],[-79.511556,39.381301],[-79.507921,39.378862],[-79.505238,39.379643],[-79.501674,39.377219],[-79.501688,39.3738],[-79.504172,39.372507],[-79.504621,39.370464],[-79.502376,39.37291],[-79.500328,39.37366],[-79.497301,39.37366],[-79.493989,39.37535],[-79.493071,39.377976],[-79.490929,39.373685],[-79.48698,39.374351],[-79.4840920368834,39.373053706076696],[-79.482648,39.521364],[-79.482354,39.524682],[-79.482366,39.531689],[-79.478866,39.531689],[-79.4786222866335,39.5561472507613],[-79.4782954526371,39.588947207353094],[-79.485318,39.590004],[-79.485922,39.589851],[-79.489331,39.587529],[-79.490444,39.585129],[-79.488344,39.580542],[-79.488388,39.579272],[-79.494739,39.577104],[-79.504661,39.568076],[-79.506351,39.564698],[-79.505881,39.563884],[-79.508212,39.561998],[-79.51071,39.563895],[-79.514877,39.565888],[-79.514176,39.563881],[-79.515718,39.564232],[-79.519263,39.566674],[-79.524541,39.568425],[-79.52938,39.569262],[-79.530399,39.57114],[-79.531109,39.569011],[-79.534076,39.563302],[-79.533929,39.560744],[-79.530442,39.557652],[-79.528443,39.556235],[-79.529282,39.554777],[-79.52741,39.550866],[-79.529221,39.548451],[-79.531046,39.548971],[-79.531808,39.548151],[-79.531514,39.546388],[-79.532766,39.544494],[-79.533435,39.541008],[-79.53804,39.53644],[-79.540144,39.533454],[-79.540854,39.531454],[-79.542126,39.530619],[-79.548294,39.528488],[-79.549696,39.529126],[-79.554467,39.526739],[-79.557281,39.527941],[-79.559103,39.527619],[-79.561306,39.526495],[-79.563829,39.526348],[-79.566733,39.525398],[-79.569861,39.526256],[-79.571643,39.525545],[-79.580814,39.525582],[-79.580451,39.52462],[-79.581888,39.522708],[-79.582407,39.520504],[-79.583438,39.518997],[-79.585841,39.517499],[-79.588552,39.514506],[-79.588485,39.513399],[-79.590364,39.511198],[-79.574827,39.511768],[-79.56685,39.513122],[-79.560953,39.51431],[-79.56089,39.512052],[-79.559833,39.50921],[-79.561755,39.505612],[-79.565825,39.504243],[-79.568262,39.50225],[-79.571049,39.500636],[-79.574136,39.499809],[-79.576453,39.497909],[-79.580446,39.497843],[-79.576233,39.497469],[-79.575811,39.496421],[-79.577158,39.49426],[-79.579029,39.490043],[-79.579904,39.486066],[-79.580921,39.48386],[-79.580339,39.483312],[-79.583743,39.478595],[-79.5862,39.476314],[-79.588743,39.474455],[-79.587079,39.47433],[-79.586206,39.473103],[-79.583871,39.472198],[-79.583784,39.470645],[-79.586554,39.469755],[-79.589402,39.468186],[-79.589742,39.466753],[-79.591902,39.46495],[-79.592008,39.462771],[-79.59596,39.459432],[-79.595702,39.460946],[-79.59797,39.459516],[-79.601386,39.459228],[-79.61825,39.467009],[-79.62016,39.466257],[-79.622003,39.466977],[-79.626781,39.465664],[-79.628544,39.466595],[-79.632802,39.467082],[-79.636556,39.468509],[-79.639694,39.471334],[-79.637028,39.475755]]]}}]}