{"type":"FeatureCollection","features":[{"type":"Feature","properties":{"zcta5":"66506","AFFGEOID10":"8600000US66506","GEOID10":"66506","ALAND10":1719800,"AWATER10":0,"county_name":"Riley","state_code":"KS","county_state":"Riley County, KS","county_fips":"20161","risk_level_county":"Higher Risk (60–69% vaccinated)","mean_vaccination_rate_county":67.47,"risk_level_zcta":"Uninhabited","mean_vaccination_rate_zips":null,"cases":91},"geometry":{"type":"Polygon","coordinates":[[[-96.589309,39.204094],[-96.589251,39.201083],[-96.585487,39.20114],[-96.585463,39.192997],[-96.588898,39.192989],[-96.588926,39.191342],[-96.585456,39.191355],[-96.585444,39.186016],[-96.577329,39.186242],[-96.576446,39.187901],[-96.579103,39.188218],[-96.57968,39.189699],[-96.576394,39.189751],[-96.576116,39.204236],[-96.578426,39.204098],[-96.578614,39.206189],[-96.579614,39.206177],[-96.579284,39.204214],[-96.5855,39.204176],[-96.589309,39.204094]]]}},{"type":"Feature","properties":{"zcta5":"66502","AFFGEOID10":"8600000US66502","GEOID10":"66502","ALAND10":593950632,"AWATER10":14876544,"county_name":"Riley","state_code":"KS","county_state":"Riley County, KS","county_fips":"20161","risk_level_county":"Higher Risk (60–69% vaccinated)","mean_vaccination_rate_county":67.47,"risk_level_zcta":"Medium Risk (70–79% vaccinated)","mean_vaccination_rate_zips":72.42,"cases":91},"geometry":{"type":"Polygon","coordinates":[[[-96.706818,39.098688],[-96.705191,39.097659],[-96.704401,39.095635],[-96.706257,39.09116],[-96.703487,39.092784],[-96.702604,39.09447],[-96.700609,39.096405],[-96.697669,39.101644],[-96.696516,39.102941],[-96.693155,39.104981],[-96.683798,39.106491],[-96.680206,39.105931],[-96.67948,39.073114],[-96.649051,39.073177],[-96.646735,39.072654],[-96.644726,39.070764],[-96.646865,39.070441],[-96.64983,39.069047],[-96.6492,39.067611],[-96.646013,39.06831],[-96.645017,39.067293],[-96.689846,39.065246],[-96.706036,39.063632],[-96.706095,39.045001],[-96.705068,39.045429],[-96.702207,39.044971],[-96.695477,39.047439],[-96.685777,39.049057],[-96.682529,39.048932],[-96.680344,39.048289],[-96.676414,39.0461],[-96.672238,39.044329],[-96.670015,39.044096],[-96.649636,39.044154],[-96.645855,39.043216],[-96.641927,39.043326],[-96.640045,39.042786],[-96.636749,39.04355],[-96.635067,39.043196],[-96.631932,39.041205],[-96.629122,39.038766],[-96.6261,39.037182],[-96.618482,39.037036],[-96.61647,39.033252],[-96.613708,39.032411],[-96.613524,39.031232],[-96.612018,39.030113],[-96.61108,39.030878],[-96.608787,39.029223],[-96.608732,39.026558],[-96.606771,39.02528],[-96.607738,39.024675],[-96.606608,39.023451],[-96.606038,39.02419],[-96.604399,39.02288],[-96.603011,39.024513],[-96.60269,39.022182],[-96.600351,39.021415],[-96.600984,39.019942],[-96.599319,39.018326],[-96.598977,39.016618],[-96.600943,39.0157],[-96.601347,39.014678],[-96.599078,39.014535],[-96.59898,39.01349],[-96.601803,39.01218],[-96.602429,39.010722],[-96.547065,39.0042],[-96.546843,39.005769],[-96.547738,39.007747],[-96.548104,39.010215],[-96.547672,39.013555],[-96.544025,39.016635],[-96.541314,39.015206],[-96.536769,39.015993],[-96.53166,39.015989],[-96.528576,39.01502],[-96.52237,39.014726],[-96.517362,39.014945],[-96.501214,39.014897],[-96.501166,39.043666],[-96.390796,39.043257],[-96.390725,39.057655],[-96.391272,39.10164],[-96.372481,39.101616],[-96.372397,39.11618],[-96.34569,39.11602],[-96.345697,39.130267],[-96.361537,39.130284],[-96.361402,39.150864],[-96.365784,39.153357],[-96.372335,39.155735],[-96.376931,39.157938],[-96.376246,39.158539],[-96.371961,39.158085],[-96.371048,39.158362],[-96.370541,39.160126],[-96.371982,39.16076],[-96.370889,39.162388],[-96.366404,39.163054],[-96.36339,39.164975],[-96.363014,39.168148],[-96.363996,39.17159],[-96.367063,39.169269],[-96.372824,39.164172],[-96.375276,39.164573],[-96.377787,39.164137],[-96.37978,39.164838],[-96.38254,39.168022],[-96.385588,39.170443],[-96.38811,39.17159],[-96.389046,39.172878],[-96.389773,39.173757],[-96.394549,39.176878],[-96.398299,39.179534],[-96.40587,39.182706],[-96.41344,39.185292],[-96.416707,39.185877],[-96.428908,39.186197],[-96.433846,39.187453],[-96.439618,39.189269],[-96.445679,39.190648],[-96.451035,39.19113],[-96.456167,39.190961],[-96.4596,39.189871],[-96.461389,39.187629],[-96.460427,39.186455],[-96.461096,39.186516],[-96.46164,39.188308],[-96.459768,39.190492],[-96.4637,39.187926],[-96.463914,39.198056],[-96.475891,39.197479],[-96.475551,39.198941],[-96.473353,39.201945],[-96.472288,39.202267],[-96.472226,39.20503],[-96.470281,39.206324],[-96.47091,39.207253],[-96.469135,39.208016],[-96.470553,39.208341],[-96.470633,39.21105],[-96.473052,39.211022],[-96.473073,39.247435],[-96.48255,39.246673],[-96.482636,39.291111],[-96.501519,39.291447],[-96.501589,39.305317],[-96.519941,39.305389],[-96.519789,39.319898],[-96.520184,39.346624],[-96.521782,39.347633],[-96.521656,39.349014],[-96.519794,39.348997],[-96.51985,39.392135],[-96.55725,39.392138],[-96.55696,39.386252],[-96.557209,39.306653],[-96.556761,39.305366],[-96.593411,39.305432],[-96.593371,39.300534],[-96.594333,39.30009],[-96.595055,39.297619],[-96.595556,39.295534],[-96.597134,39.295805],[-96.594296,39.292107],[-96.59436,39.288538],[-96.60077,39.276943],[-96.601792,39.276117],[-96.601815,39.267587],[-96.614449,39.284193],[-96.625282,39.290929],[-96.625282,39.280126],[-96.621379,39.276469],[-96.616796,39.273088],[-96.614617,39.270666],[-96.610331,39.267086],[-96.608004,39.26609],[-96.603369,39.264903],[-96.597199,39.263664],[-96.595423,39.262049],[-96.594565,39.260288],[-96.594418,39.256018],[-96.60331,39.253012],[-96.605005,39.251908],[-96.605506,39.250005],[-96.605359,39.247476],[-96.609457,39.247285],[-96.62285,39.247102],[-96.622899,39.240141],[-96.622414,39.236073],[-96.62144,39.233869],[-96.61926,39.230444],[-96.618516,39.227485],[-96.618523,39.221809],[-96.618519,39.218389],[-96.61718,39.210827],[-96.617405,39.205166],[-96.617183,39.203597],[-96.615938,39.203611],[-96.613805,39.201107],[-96.612817,39.199091],[-96.612552,39.194421],[-96.612412,39.189633],[-96.611363,39.187187],[-96.609919,39.182011],[-96.605072,39.177164],[-96.603865,39.174744],[-96.603754,39.168966],[-96.610011,39.168986],[-96.612961,39.168581],[-96.616309,39.166767],[-96.61703,39.166002],[-96.620725,39.166105],[-96.620765,39.164216],[-96.619342,39.162664],[-96.620464,39.160785],[-96.623946,39.158756],[-96.626591,39.161163],[-96.628591,39.166439],[-96.632363,39.167472],[-96.63548,39.166869],[-96.635412,39.160248],[-96.643509,39.160199],[-96.644408,39.158796],[-96.64448,39.154475],[-96.644145,39.153182],[-96.644878,39.152986],[-96.649482,39.152982],[-96.649537,39.149038],[-96.652137,39.147639],[-96.649041,39.146752],[-96.650253,39.146814],[-96.654262,39.143599],[-96.66321,39.137916],[-96.673558,39.129837],[-96.679013,39.126891],[-96.684273,39.124927],[-96.690043,39.123995],[-96.700331,39.120997],[-96.701254,39.119179],[-96.699965,39.113899],[-96.69978,39.108765],[-96.699334,39.112885],[-96.699814,39.115972],[-96.692273,39.11941],[-96.692347,39.11649],[-96.687085,39.116507],[-96.688423,39.115971],[-96.691754,39.112511],[-96.690339,39.111666],[-96.692281,39.108721],[-96.694321,39.107953],[-96.697039,39.105648],[-96.699112,39.10531],[-96.701184,39.10622],[-96.702681,39.103898],[-96.706818,39.098688]],[[-96.589309,39.204094],[-96.5855,39.204176],[-96.579284,39.204214],[-96.579614,39.206177],[-96.578614,39.206189],[-96.578426,39.204098],[-96.576116,39.204236],[-96.576394,39.189751],[-96.57968,39.189699],[-96.579103,39.188218],[-96.576446,39.187901],[-96.577329,39.186242],[-96.585444,39.186016],[-96.585456,39.191355],[-96.588926,39.191342],[-96.588898,39.192989],[-96.585463,39.192997],[-96.585487,39.20114],[-96.589251,39.201083],[-96.589309,39.204094]]]}},{"type":"Feature","properties":{"zcta5":"66441","AFFGEOID10":"8600000US66441","GEOID10":"66441","ALAND10":618334961,"AWATER10":7534737,"county_name":"Riley","state_code":"KS","county_state":"Riley County, KS","county_fips":"20161","risk_level_county":"Higher Risk (60–69% vaccinated)","mean_vaccination_rate_county":67.47,"risk_level_zcta":"Higher Risk (60–69% vaccinated)","mean_vaccination_rate_zips":69.84,"cases":91},"geometry":{"type":"Polygon","coordinates":[[[-96.932523,39.154363],[-96.931885,39.156279],[-96.932511,39.159294],[-96.934709,39.158627],[-96.936377,39.161203],[-96.961065,39.161316],[-96.96138,39.132325],[-96.963177,39.1323],[-96.998409,39.132641],[-96.999219,39.133151],[-97.000884,39.132635],[-97.000533,39.118066],[-97.000291,39.088976],[-96.981466,39.088852],[-96.981519,39.084881],[-96.982197,39.081457],[-96.981456,39.075321],[-96.981685,39.045205],[-96.963027,39.045103],[-96.963571,38.975062],[-96.963347,38.973391],[-96.96347,38.964901],[-96.960289,38.965716],[-96.957668,38.966782],[-96.953296,38.96921],[-96.950533,38.971048],[-96.950155,38.972964],[-96.951287,38.973826],[-96.951322,38.975687],[-96.950058,38.976895],[-96.946889,38.976436],[-96.946228,38.974855],[-96.948796,38.971853],[-96.948132,38.970856],[-96.945878,38.971046],[-96.942686,38.974283],[-96.941188,38.976199],[-96.939374,38.97677],[-96.938133,38.975599],[-96.937598,38.973407],[-96.936765,38.972593],[-96.932835,38.972857],[-96.931605,38.973992],[-96.931299,38.976102],[-96.935041,38.976177],[-96.935202,38.977291],[-96.933846,38.978545],[-96.931043,38.97834],[-96.926209,38.978941],[-96.926151,38.97452],[-96.928134,38.973538],[-96.927879,38.970926],[-96.92628,38.970194],[-96.92671,38.87035],[-96.921424,38.870389],[-96.92161,38.868727],[-96.920684,38.868133],[-96.919679,38.865223],[-96.920545,38.864518],[-96.920526,38.862296],[-96.921361,38.861036],[-96.92449,38.861443],[-96.924983,38.860078],[-96.923382,38.860207],[-96.923334,38.858742],[-96.92501,38.859768],[-96.924934,38.858672],[-96.926127,38.858733],[-96.925684,38.856572],[-96.92704,38.856672],[-96.92696,38.844872],[-96.918044,38.844836],[-96.914987,38.843582],[-96.913233,38.841241],[-96.908637,38.841179],[-96.908661,38.848774],[-96.899151,38.848612],[-96.899027,38.855787],[-96.89029,38.855762],[-96.890245,38.870067],[-96.793721,38.870021],[-96.792604,38.873381],[-96.7926,38.879901],[-96.791983,38.883164],[-96.790367,38.885598],[-96.787787,38.887928],[-96.786166,38.890257],[-96.786409,38.894923],[-96.784256,38.899268],[-96.773028,38.898999],[-96.714526,38.89925],[-96.713815,38.898591],[-96.709649,38.898489],[-96.707828,38.899268],[-96.705265,38.899328],[-96.704926,38.870332],[-96.668138,38.870345],[-96.631026,38.870225],[-96.631418,38.906403],[-96.63294,38.908414],[-96.636661,38.909772],[-96.637589,38.910529],[-96.639382,38.916017],[-96.640856,38.917438],[-96.647731,38.92194],[-96.651691,38.926614],[-96.655445,38.927684],[-96.654913,38.929688],[-96.652979,38.931607],[-96.652476,38.933997],[-96.65052,38.935984],[-96.650347,38.952377],[-96.6548,38.957076],[-96.63116,38.957363],[-96.630012,38.957689],[-96.631647,38.95765],[-96.633428,38.959397],[-96.632921,38.961228],[-96.634561,38.962186],[-96.635598,38.963965],[-96.637286,38.963478],[-96.638939,38.966252],[-96.640481,38.966254],[-96.643415,38.97069],[-96.645849,38.972271],[-96.649008,38.975662],[-96.649765,38.975637],[-96.651191,38.973246],[-96.655956,38.97592],[-96.654864,38.976561],[-96.656657,38.977605],[-96.65747,38.97644],[-96.658349,38.977207],[-96.658881,38.978976],[-96.658177,38.980171],[-96.659118,38.981283],[-96.657108,38.982537],[-96.645488,38.978746],[-96.642401,38.976914],[-96.639984,38.974885],[-96.635079,38.972112],[-96.632917,38.970385],[-96.630935,38.967244],[-96.62628,38.962775],[-96.626865,38.961814],[-96.624379,38.957398],[-96.612292,38.958],[-96.603437,38.957439],[-96.595028,38.957451],[-96.595054,38.967079],[-96.597578,38.965591],[-96.600433,38.965536],[-96.604366,38.968553],[-96.606608,38.971794],[-96.608732,38.973118],[-96.612081,38.974282],[-96.629352,39.0075],[-96.623494,39.005697],[-96.616485,39.005312],[-96.613332,39.00636],[-96.608829,39.006468],[-96.602702,39.006982],[-96.604199,39.01117],[-96.602429,39.010722],[-96.601803,39.01218],[-96.59898,39.01349],[-96.599078,39.014535],[-96.601347,39.014678],[-96.600943,39.0157],[-96.598977,39.016618],[-96.599319,39.018326],[-96.600984,39.019942],[-96.600351,39.021415],[-96.60269,39.022182],[-96.603011,39.024513],[-96.604399,39.02288],[-96.606038,39.02419],[-96.606608,39.023451],[-96.607738,39.024675],[-96.606771,39.02528],[-96.608732,39.026558],[-96.608787,39.029223],[-96.61108,39.030878],[-96.612018,39.030113],[-96.613524,39.031232],[-96.613708,39.032411],[-96.61647,39.033252],[-96.618482,39.037036],[-96.6261,39.037182],[-96.629122,39.038766],[-96.631932,39.041205],[-96.635067,39.043196],[-96.636749,39.04355],[-96.640045,39.042786],[-96.641927,39.043326],[-96.645855,39.043216],[-96.649636,39.044154],[-96.670015,39.044096],[-96.672238,39.044329],[-96.676414,39.0461],[-96.680344,39.048289],[-96.682529,39.048932],[-96.685777,39.049057],[-96.695477,39.047439],[-96.702207,39.044971],[-96.705068,39.045429],[-96.706095,39.045001],[-96.706036,39.063632],[-96.689846,39.065246],[-96.645017,39.067293],[-96.646013,39.06831],[-96.6492,39.067611],[-96.64983,39.069047],[-96.646865,39.070441],[-96.644726,39.070764],[-96.646735,39.072654],[-96.649051,39.073177],[-96.67948,39.073114],[-96.680206,39.105931],[-96.683798,39.106491],[-96.693155,39.104981],[-96.696516,39.102941],[-96.697669,39.101644],[-96.700609,39.096405],[-96.702604,39.09447],[-96.703487,39.092784],[-96.706257,39.09116],[-96.711792,39.089552],[-96.714145,39.089763],[-96.719209,39.091443],[-96.723183,39.091086],[-96.728177,39.088358],[-96.732061,39.083233],[-96.735545,39.079808],[-96.736231,39.079641],[-96.740352,39.082231],[-96.743455,39.081955],[-96.743439,39.087659],[-96.755047,39.087786],[-96.755928,39.088008],[-96.756986,39.087284],[-96.755188,39.084328],[-96.75548,39.083836],[-96.759078,39.084094],[-96.762723,39.081227],[-96.762594,39.078731],[-96.763398,39.075101],[-96.766374,39.067448],[-96.750906,39.060086],[-96.747112,39.057951],[-96.751993,39.054801],[-96.753258,39.053546],[-96.763788,39.04139],[-96.768827,39.036879],[-96.776062,39.036784],[-96.777993,39.038208],[-96.777315,39.039028],[-96.778692,39.042006],[-96.778623,39.044251],[-96.776746,39.046316],[-96.777439,39.049935],[-96.778119,39.050915],[-96.779548,39.051297],[-96.782255,39.052883],[-96.785398,39.053755],[-96.790609,39.05245],[-96.793534,39.050459],[-96.796717,39.050514],[-96.79836,39.051518],[-96.799573,39.053516],[-96.799655,39.055926],[-96.800137,39.056788],[-96.801094,39.057944],[-96.801334,39.060285],[-96.802158,39.060144],[-96.802699,39.060522],[-96.803253,39.060954],[-96.803599,39.061364],[-96.804171,39.06191],[-96.809026,39.064909],[-96.809339,39.065553],[-96.811647,39.06719],[-96.812567,39.067593],[-96.814977,39.067799],[-96.816604,39.06969],[-96.818616,39.070505],[-96.821807,39.070461],[-96.823966,39.069066],[-96.818784,39.068845],[-96.816944,39.067436],[-96.81609,39.065622],[-96.816148,39.065081],[-96.817402,39.06224],[-96.818132,39.059474],[-96.818543,39.056305],[-96.820855,39.048262],[-96.824359,39.044587],[-96.829325,39.04312],[-96.835404,39.047881],[-96.836304,39.049346],[-96.836642,39.050462],[-96.836217,39.053283],[-96.83826,39.055583],[-96.843431,39.056121],[-96.845539,39.057059],[-96.846797,39.060722],[-96.84824,39.061852],[-96.852459,39.062579],[-96.855776,39.065233],[-96.857092,39.068012],[-96.858187,39.068932],[-96.86139,39.069032],[-96.868117,39.071329],[-96.869817,39.072354],[-96.875286,39.073554],[-96.875292,39.079048],[-96.879953,39.082656],[-96.881427,39.084252],[-96.88515,39.08548],[-96.887247,39.085404],[-96.887133,39.086247],[-96.890544,39.087661],[-96.891517,39.089085],[-96.896824,39.089607],[-96.899204,39.07654],[-96.900188,39.075839],[-96.901259,39.076322],[-96.901949,39.074466],[-96.903131,39.074663],[-96.902597,39.076793],[-96.904531,39.077211],[-96.905224,39.076633],[-96.907028,39.077974],[-96.908002,39.07689],[-96.907289,39.07489],[-96.907294,39.072954],[-96.908473,39.074136],[-96.910055,39.073271],[-96.909591,39.070963],[-96.91177,39.070683],[-96.913054,39.068822],[-96.911979,39.067749],[-96.912573,39.06637],[-96.911355,39.063219],[-96.912322,39.061671],[-96.914421,39.06412],[-96.916131,39.070584],[-96.918076,39.067407],[-96.919019,39.066832],[-96.918242,39.069508],[-96.918918,39.069991],[-96.91771,39.07138],[-96.914181,39.072259],[-96.914883,39.073469],[-96.912429,39.075437],[-96.912428,39.077544],[-96.913556,39.07889],[-96.915188,39.079797],[-96.916281,39.079577],[-96.916637,39.077907],[-96.917592,39.078179],[-96.919085,39.080346],[-96.920141,39.07856],[-96.921505,39.079559],[-96.920857,39.081399],[-96.923037,39.082492],[-96.926634,39.082795],[-96.926213,39.081079],[-96.924733,39.080542],[-96.924348,39.079003],[-96.925675,39.077062],[-96.926638,39.07775],[-96.928619,39.076572],[-96.930758,39.077664],[-96.931531,39.075043],[-96.929971,39.072349],[-96.932218,39.073985],[-96.933335,39.07359],[-96.933641,39.071536],[-96.93506,39.071353],[-96.936105,39.067795],[-96.937419,39.068409],[-96.93882,39.067412],[-96.940629,39.064378],[-96.943005,39.063486],[-96.944098,39.064412],[-96.945634,39.064355],[-96.947183,39.063447],[-96.948143,39.064436],[-96.950112,39.063738],[-96.950236,39.064764],[-96.948654,39.064988],[-96.947389,39.066446],[-96.944043,39.066706],[-96.941623,39.068228],[-96.94098,39.070628],[-96.94161,39.071501],[-96.93879,39.07407],[-96.938722,39.075729],[-96.936527,39.07652],[-96.936161,39.07926],[-96.937599,39.080414],[-96.938959,39.079511],[-96.939927,39.080301],[-96.943597,39.0792],[-96.943013,39.078235],[-96.944015,39.07661],[-96.945357,39.079386],[-96.948269,39.080237],[-96.950475,39.078086],[-96.94992,39.079817],[-96.951142,39.080554],[-96.951316,39.082018],[-96.95276,39.083166],[-96.95477,39.082808],[-96.955572,39.084339],[-96.958472,39.085093],[-96.959365,39.085954],[-96.963169,39.087659],[-96.963115,39.091647],[-96.962394,39.090791],[-96.959283,39.090596],[-96.958282,39.089694],[-96.955096,39.088964],[-96.952848,39.086973],[-96.949538,39.086171],[-96.946609,39.084673],[-96.945381,39.084792],[-96.941293,39.083484],[-96.944035,39.085231],[-96.941788,39.085669],[-96.936725,39.084586],[-96.932932,39.083179],[-96.936233,39.087388],[-96.937767,39.088088],[-96.943795,39.089456],[-96.947996,39.091264],[-96.951309,39.09319],[-96.953728,39.096143],[-96.954997,39.099312],[-96.954641,39.101157],[-96.955041,39.103755],[-96.954575,39.105699],[-96.952452,39.10965],[-96.950637,39.111906],[-96.950934,39.112837],[-96.953719,39.114367],[-96.949045,39.115429],[-96.946402,39.114928],[-96.942932,39.11692],[-96.940067,39.11761],[-96.939504,39.118468],[-96.937217,39.118856],[-96.938039,39.121006],[-96.937552,39.121502],[-96.935567,39.119599],[-96.93367,39.119213],[-96.931603,39.120844],[-96.9295,39.120769],[-96.929023,39.11954],[-96.926917,39.11997],[-96.92321,39.122459],[-96.921236,39.123434],[-96.919295,39.12731],[-96.920104,39.129132],[-96.921646,39.130581],[-96.922721,39.130104],[-96.923886,39.132361],[-96.926678,39.132287],[-96.928655,39.132832],[-96.929318,39.132285],[-96.932288,39.132269],[-96.931572,39.133689],[-96.932854,39.134373],[-96.93424,39.133901],[-96.935156,39.135008],[-96.937483,39.134774],[-96.938565,39.134077],[-96.939373,39.136439],[-96.943335,39.138393],[-96.94362,39.136866],[-96.944918,39.136019],[-96.946777,39.13582],[-96.946997,39.137499],[-96.944641,39.137766],[-96.944707,39.13985],[-96.942209,39.14061],[-96.940417,39.13995],[-96.937943,39.139862],[-96.936165,39.138718],[-96.93152,39.136916],[-96.930671,39.137419],[-96.929175,39.136324],[-96.927022,39.137354],[-96.927402,39.139367],[-96.92905,39.139627],[-96.928338,39.141229],[-96.929213,39.142248],[-96.929196,39.144776],[-96.93049,39.144557],[-96.930923,39.145733],[-96.930203,39.147097],[-96.929037,39.146812],[-96.929225,39.148595],[-96.930372,39.151018],[-96.931526,39.152206],[-96.932572,39.152732],[-96.935371,39.152352],[-96.935479,39.151571],[-96.937115,39.15322],[-96.938231,39.152799],[-96.938276,39.153681],[-96.935132,39.15373],[-96.934978,39.156593],[-96.933812,39.154853],[-96.932523,39.154363]]]}},{"type":"Feature","properties":{"zcta5":"66531","AFFGEOID10":"8600000US66531","GEOID10":"66531","ALAND10":98547095,"AWATER10":74444,"county_name":"Riley","state_code":"KS","county_state":"Riley County, KS","county_fips":"20161","risk_level_county":"Higher Risk (60–69% vaccinated)","mean_vaccination_rate_county":67.47,"risk_level_zcta":"Lower Risk (80–84% vaccinated)","mean_vaccination_rate_zips":81.71,"cases":91},"geometry":{"type":"Polygon","coordinates":[[[-96.960875,39.335814],[-96.96091,39.30676],[-96.934523,39.306564],[-96.931679,39.306713],[-96.922018,39.303904],[-96.917923,39.303017],[-96.916098,39.303157],[-96.90182,39.30576],[-96.897492,39.306176],[-96.895813,39.305927],[-96.886928,39.301944],[-96.878278,39.297457],[-96.873211,39.295998],[-96.869942,39.295978],[-96.849634,39.297652],[-96.849826,39.291643],[-96.823989,39.291546],[-96.813019,39.282677],[-96.790022,39.267334],[-96.774127,39.255416],[-96.772243,39.253243],[-96.769271,39.247775],[-96.767947,39.246563],[-96.763133,39.240791],[-96.759108,39.236056],[-96.751532,39.2561],[-96.751009,39.259004],[-96.75232,39.259376],[-96.753608,39.261959],[-96.775169,39.262056],[-96.775082,39.276627],[-96.732276,39.276143],[-96.731339,39.276795],[-96.735854,39.278437],[-96.738754,39.280113],[-96.750291,39.288968],[-96.753728,39.292921],[-96.754998,39.295544],[-96.755689,39.299025],[-96.756237,39.334746],[-96.766162,39.334796],[-96.767003,39.336215],[-96.766705,39.339467],[-96.767456,39.343026],[-96.769499,39.344543],[-96.76965,39.346312],[-96.773519,39.345395],[-96.774156,39.34747],[-96.776142,39.348351],[-96.775771,39.349356],[-96.812007,39.349513],[-96.811987,39.334959],[-96.830649,39.33518],[-96.830643,39.349744],[-96.886977,39.350073],[-96.886926,39.335493],[-96.905678,39.335592],[-96.905673,39.321063],[-96.910879,39.321072],[-96.911557,39.320501],[-96.91579,39.319364],[-96.916315,39.321066],[-96.942113,39.321234],[-96.942163,39.313856],[-96.945694,39.313892],[-96.94485,39.31493],[-96.945373,39.316652],[-96.944062,39.317918],[-96.945452,39.320729],[-96.945546,39.323321],[-96.944279,39.324109],[-96.945887,39.324805],[-96.94444,39.325462],[-96.945887,39.326681],[-96.944854,39.332033],[-96.946156,39.33313],[-96.945721,39.334856],[-96.946663,39.335797],[-96.960875,39.335814]]]}},{"type":"Feature","properties":{"zcta5":"67447","AFFGEOID10":"8600000US67447","GEOID10":"67447","ALAND10":196917679,"AWATER10":388438,"county_name":"Riley","state_code":"KS","county_state":"Riley County, KS","county_fips":"20161","risk_level_county":"Higher Risk (60–69% vaccinated)","mean_vaccination_rate_county":67.47,"risk_level_zcta":"Very High Risk (<60% vaccinated)","mean_vaccination_rate_zips":55.31,"cases":91},"geometry":{"type":"Polygon","coordinates":[[[-97.051287,39.526736],[-97.052208,39.524503],[-97.052242,39.49546],[-97.033769,39.495643],[-97.033681,39.481124],[-97.052505,39.480958],[-97.05317,39.4626],[-97.052941,39.451992],[-97.034111,39.452143],[-97.034337,39.437698],[-97.016912,39.438089],[-97.017049,39.423418],[-96.998339,39.423428],[-96.997937,39.394322],[-96.9607,39.394225],[-96.941982,39.394057],[-96.942205,39.408589],[-96.923497,39.408332],[-96.923319,39.393866],[-96.905007,39.393748],[-96.904897,39.422838],[-96.914071,39.422837],[-96.911028,39.425976],[-96.91,39.428422],[-96.904834,39.430238],[-96.904736,39.466471],[-96.908783,39.466512],[-96.908501,39.469417],[-96.909019,39.473806],[-96.911738,39.480658],[-96.913947,39.482657],[-96.913478,39.484593],[-96.913019,39.509459],[-96.902299,39.509295],[-96.896271,39.513307],[-96.894887,39.515593],[-96.899156,39.517758],[-96.903084,39.520946],[-96.900976,39.522077],[-96.90001,39.523911],[-96.901173,39.525608],[-96.900824,39.526914],[-96.902,39.527993],[-96.901467,39.530722],[-96.903308,39.531688],[-96.90216,39.534613],[-96.902678,39.536587],[-96.906374,39.53823],[-96.911584,39.541581],[-96.913514,39.541634],[-96.913727,39.543705],[-96.914924,39.544416],[-96.914923,39.546754],[-96.916066,39.54859],[-96.917007,39.548679],[-96.916659,39.550317],[-96.919099,39.55036],[-96.919093,39.551338],[-96.921473,39.552565],[-96.921443,39.554358],[-96.922701,39.555146],[-96.922284,39.557053],[-96.924277,39.557368],[-96.925467,39.559673],[-96.924597,39.560424],[-96.92371,39.56307],[-96.927043,39.563566],[-96.927643,39.564955],[-96.93096,39.565226],[-96.93182,39.566439],[-96.958719,39.566401],[-97.033151,39.566532],[-97.033402,39.553516],[-97.028576,39.553613],[-97.029509,39.551188],[-97.028718,39.550788],[-97.027453,39.552022],[-97.024636,39.5506],[-97.027149,39.550167],[-97.027826,39.548923],[-97.027383,39.546941],[-97.026135,39.547569],[-97.026007,39.546421],[-97.024773,39.545889],[-97.025078,39.543943],[-97.02377,39.543673],[-97.023705,39.542194],[-97.024879,39.540282],[-97.021494,39.537794],[-97.020779,39.535653],[-97.021192,39.532443],[-97.018258,39.530465],[-97.020417,39.528214],[-97.018332,39.526584],[-97.018826,39.523708],[-97.018609,39.52192],[-97.016806,39.520898],[-97.016273,39.519649],[-97.017197,39.519032],[-97.016951,39.517692],[-97.015579,39.517137],[-97.014279,39.517678],[-97.011356,39.516477],[-97.013745,39.51412],[-97.013157,39.512504],[-97.014539,39.512875],[-97.014202,39.513852],[-97.01676,39.51439],[-97.015706,39.513339],[-97.017588,39.51154],[-97.01725,39.512787],[-97.019044,39.512239],[-97.023549,39.514506],[-97.025547,39.515958],[-97.026215,39.51495],[-97.027971,39.515104],[-97.030129,39.516766],[-97.031938,39.520081],[-97.033107,39.519989],[-97.032947,39.521148],[-97.034688,39.521583],[-97.035239,39.523216],[-97.036826,39.522697],[-97.038584,39.523072],[-97.039306,39.524401],[-97.040471,39.523524],[-97.041872,39.524514],[-97.04292,39.526227],[-97.045268,39.526365],[-97.04615,39.528454],[-97.048887,39.528275],[-97.050551,39.528948],[-97.050199,39.527961],[-97.051287,39.526736]]]}},{"type":"Feature","properties":{"zcta5":"66517","AFFGEOID10":"8600000US66517","GEOID10":"66517","ALAND10":4129852,"AWATER10":146963,"county_name":"Riley","state_code":"KS","county_state":"Riley County, KS","county_fips":"20161","risk_level_county":"Higher Risk (60–69% vaccinated)","mean_vaccination_rate_county":67.47,"risk_level_zcta":"Higher Risk (60–69% vaccinated)","mean_vaccination_rate_zips":63.14,"cases":91},"geometry":{"type":"Polygon","coordinates":[[[-96.722003,39.124176],[-96.721142,39.121384],[-96.721113,39.118668],[-96.720505,39.115688],[-96.719651,39.114864],[-96.717687,39.11523],[-96.714,39.11108],[-96.71089,39.106894],[-96.715041,39.105126],[-96.717338,39.102379],[-96.716715,39.100836],[-96.711635,39.100271],[-96.706818,39.098688],[-96.702681,39.103898],[-96.701184,39.10622],[-96.699112,39.10531],[-96.697039,39.105648],[-96.694321,39.107953],[-96.692281,39.108721],[-96.690339,39.111666],[-96.691754,39.112511],[-96.688423,39.115971],[-96.687085,39.116507],[-96.692347,39.11649],[-96.692273,39.11941],[-96.699814,39.115972],[-96.699334,39.112885],[-96.69978,39.108765],[-96.699965,39.113899],[-96.701254,39.119179],[-96.702186,39.1198],[-96.707363,39.117448],[-96.708406,39.121712],[-96.711539,39.122102],[-96.711414,39.125252],[-96.712464,39.125842],[-96.714145,39.125248],[-96.714103,39.126334],[-96.716514,39.126301],[-96.716368,39.124112],[-96.722003,39.124176]]]}},{"type":"Feature","properties":{"zcta5":"67432","AFFGEOID10":"8600000US67432","GEOID10":"67432","ALAND10":962657756,"AWATER10":3781998,"county_name":"Riley","state_code":"KS","county_state":"Riley County, KS","county_fips":"20161","risk_level_county":"Higher Risk (60–69% vaccinated)","mean_vaccination_rate_county":67.47,"risk_level_zcta":"Higher Risk (60–69% vaccinated)","mean_vaccination_rate_zips":65.69,"cases":91},"geometry":{"type":"MultiPolygon","coordinates":[[[[-97.003271,39.216526],[-97.004652,39.216354],[-97.00474,39.216344],[-97.00328,39.214846],[-97.000292,39.216369],[-97.002767,39.216145],[-97.003258,39.216502],[-97.003271,39.216526]]],[[[-97.350792,39.364256],[-97.350799,39.377151],[-97.352236,39.377348],[-97.35233,39.378486],[-97.369335,39.378251],[-97.36945,39.363994],[-97.361072,39.36413],[-97.356333,39.364632],[-97.350792,39.364256]]],[[[-97.445479,39.233659],[-97.445736,39.175902],[-97.445068,39.175465],[-97.427031,39.175472],[-97.371135,39.175523],[-97.371154,39.131961],[-97.35226,39.132153],[-97.333806,39.132273],[-97.334133,39.147078],[-97.35275,39.14675],[-97.35292,39.158869],[-97.352536,39.161436],[-97.33441,39.161783],[-97.334378,39.193393],[-97.336003,39.193989],[-97.335897,39.195182],[-97.334221,39.196644],[-97.329714,39.19712],[-97.329527,39.19446],[-97.326356,39.195347],[-97.327008,39.197293],[-97.323741,39.195268],[-97.320686,39.197418],[-97.316835,39.198178],[-97.315678,39.197143],[-97.315366,39.217141],[-97.315875,39.218071],[-97.315481,39.218915],[-97.313277,39.219488],[-97.315631,39.217727],[-97.31311,39.216942],[-97.314374,39.214776],[-97.312055,39.213877],[-97.308699,39.214914],[-97.30642,39.212845],[-97.309725,39.211933],[-97.309968,39.210522],[-97.306281,39.210414],[-97.305181,39.209047],[-97.301426,39.208051],[-97.300749,39.206419],[-97.299441,39.207427],[-97.299499,39.204044],[-97.29769,39.205626],[-97.295949,39.205322],[-97.294533,39.205972],[-97.293732,39.204505],[-97.291949,39.205164],[-97.290151,39.20257],[-97.288911,39.203403],[-97.287782,39.202634],[-97.288956,39.200043],[-97.287348,39.199068],[-97.283933,39.200627],[-97.282025,39.199008],[-97.280775,39.200945],[-97.278448,39.19993],[-97.278147,39.234379],[-97.222211,39.234555],[-97.222695,39.205722],[-97.203844,39.205972],[-97.203754,39.220124],[-97.185125,39.220247],[-97.185224,39.205853],[-97.166544,39.20578],[-97.166459,39.220309],[-97.147746,39.220423],[-97.147518,39.23502],[-97.129633,39.235086],[-97.129452,39.249656],[-97.059603,39.24913],[-97.060521,39.252215],[-97.058002,39.252985],[-97.058963,39.254117],[-97.056558,39.254586],[-97.056611,39.255886],[-97.054904,39.256739],[-97.055366,39.25928],[-97.052183,39.258604],[-97.051487,39.260366],[-97.053128,39.260827],[-97.051046,39.262021],[-97.049594,39.261899],[-97.049273,39.260497],[-97.048087,39.261175],[-97.043831,39.260168],[-97.041081,39.26082],[-97.039312,39.259184],[-97.035756,39.260546],[-97.03541,39.265722],[-97.028141,39.263895],[-97.024014,39.263784],[-97.015527,39.26524],[-97.012897,39.266051],[-97.011251,39.265127],[-97.009583,39.259499],[-97.007757,39.255173],[-97.003178,39.252532],[-97.001062,39.252089],[-96.995608,39.25072],[-96.994477,39.248943],[-96.994426,39.245974],[-96.997286,39.24296],[-96.998471,39.2402],[-96.998289,39.236879],[-96.997586,39.234734],[-96.996277,39.233584],[-96.992589,39.234789],[-96.991664,39.237073],[-96.990965,39.236102],[-96.991688,39.234293],[-96.990029,39.233256],[-96.988725,39.234977],[-96.989654,39.234771],[-96.991055,39.237323],[-96.992797,39.237516],[-96.994922,39.236305],[-96.996753,39.238463],[-96.995974,39.241223],[-96.993697,39.241044],[-96.990562,39.238476],[-96.988697,39.235745],[-96.985699,39.234123],[-96.984274,39.234334],[-96.983769,39.235737],[-96.982727,39.233435],[-96.98352,39.230214],[-96.980832,39.230732],[-96.979398,39.232595],[-96.98181,39.229247],[-96.980506,39.226219],[-96.980089,39.223228],[-96.982069,39.219914],[-97.001869,39.217365],[-97.003271,39.216526],[-96.977929,39.219883],[-96.975631,39.220106],[-96.961693,39.220076],[-96.960949,39.304563],[-96.961036,39.30525],[-96.96091,39.30676],[-96.960875,39.335814],[-96.960907,39.379232],[-96.956103,39.379476],[-96.942027,39.379432],[-96.941982,39.394057],[-96.9607,39.394225],[-96.997937,39.394322],[-96.998339,39.423428],[-97.017049,39.423418],[-97.016912,39.438089],[-97.034337,39.437698],[-97.034111,39.452143],[-97.052941,39.451992],[-97.05317,39.4626],[-97.052505,39.480958],[-97.033681,39.481124],[-97.033769,39.495643],[-97.052242,39.49546],[-97.052208,39.524503],[-97.051287,39.526736],[-97.051253,39.52754],[-97.055175,39.52827],[-97.05541,39.530979],[-97.057284,39.531844],[-97.06004,39.531819],[-97.06171,39.533472],[-97.064733,39.534371],[-97.065502,39.53297],[-97.065796,39.534233],[-97.068672,39.533843],[-97.069435,39.535933],[-97.072238,39.536562],[-97.074433,39.536144],[-97.075337,39.536585],[-97.075665,39.538789],[-97.126195,39.539212],[-97.12734,39.533743],[-97.127738,39.529284],[-97.127727,39.524699],[-97.1453,39.524303],[-97.145463,39.509807],[-97.164147,39.509736],[-97.164461,39.49406],[-97.164163,39.480878],[-97.182745,39.480776],[-97.18282,39.466352],[-97.145646,39.466387],[-97.145538,39.451788],[-97.201504,39.451902],[-97.201611,39.437441],[-97.233204,39.437894],[-97.23555,39.435629],[-97.234853,39.43354],[-97.232131,39.430809],[-97.229944,39.43031],[-97.229461,39.42932],[-97.23127,39.427052],[-97.231647,39.424754],[-97.2296,39.42296],[-97.228858,39.419443],[-97.223009,39.418916],[-97.219453,39.420046],[-97.218073,39.421183],[-97.215364,39.421881],[-97.212961,39.421348],[-97.210506,39.419413],[-97.210203,39.417511],[-97.211224,39.413593],[-97.21015,39.41192],[-97.20706,39.410214],[-97.206077,39.408902],[-97.206689,39.40682],[-97.210187,39.406169],[-97.211591,39.406575],[-97.214434,39.404918],[-97.214735,39.403673],[-97.21344,39.402011],[-97.209996,39.40166],[-97.20593,39.402864],[-97.204067,39.40244],[-97.201293,39.39948],[-97.202388,39.396719],[-97.205667,39.394056],[-97.219724,39.394348],[-97.219503,39.415619],[-97.237975,39.415626],[-97.237783,39.430103],[-97.256373,39.430063],[-97.25655,39.42274],[-97.275227,39.42263],[-97.275362,39.408137],[-97.294054,39.408095],[-97.294064,39.429861],[-97.33144,39.429829],[-97.33179,39.378573],[-97.313016,39.378715],[-97.313281,39.364461],[-97.350792,39.364256],[-97.35088,39.359114],[-97.351334,39.35847],[-97.350834,39.355714],[-97.351197,39.320784],[-97.313763,39.320997],[-97.314146,39.306503],[-97.369839,39.306011],[-97.444739,39.306466],[-97.445479,39.233659]]]]}},{"type":"Feature","properties":{"zcta5":"66548","AFFGEOID10":"8600000US66548","GEOID10":"66548","ALAND10":203504389,"AWATER10":1041831,"county_name":"Riley","state_code":"KS","county_state":"Riley County, KS","county_fips":"20161","risk_level_county":"Higher Risk (60–69% vaccinated)","mean_vaccination_rate_county":67.47,"risk_level_zcta":"Higher Risk (60–69% vaccinated)","mean_vaccination_rate_zips":67.12,"cases":91},"geometry":{"type":"Polygon","coordinates":[[[-96.806552,39.737526],[-96.806411,39.719029],[-96.80666,39.716632],[-96.806626,39.711276],[-96.825471,39.711641],[-96.825481,39.682437],[-96.806477,39.682284],[-96.80648,39.664061],[-96.806339,39.663723],[-96.806575,39.660561],[-96.806375,39.65842],[-96.8066,39.655157],[-96.806544,39.566423],[-96.725315,39.566444],[-96.724501,39.566523],[-96.712839,39.566564],[-96.712709,39.580986],[-96.716781,39.581097],[-96.731437,39.580946],[-96.731277,39.595466],[-96.712664,39.595462],[-96.712759,39.624441],[-96.694162,39.624424],[-96.69424,39.65354],[-96.731879,39.653468],[-96.73182,39.658825],[-96.732069,39.661979],[-96.731756,39.665799],[-96.728452,39.666203],[-96.728328,39.667862],[-96.72715,39.668025],[-96.727745,39.669076],[-96.727558,39.671544],[-96.73065,39.671635],[-96.731973,39.672821],[-96.732077,39.686332],[-96.725104,39.68349],[-96.721049,39.6824],[-96.713268,39.682282],[-96.713229,39.692919],[-96.714805,39.694661],[-96.718878,39.697117],[-96.723643,39.697086],[-96.723608,39.69893],[-96.722585,39.700658],[-96.719551,39.699661],[-96.718583,39.69778],[-96.717487,39.696976],[-96.71484,39.696342],[-96.710887,39.694219],[-96.707402,39.695178],[-96.706401,39.696413],[-96.704656,39.697221],[-96.702198,39.694804],[-96.699362,39.693435],[-96.69879,39.692325],[-96.699223,39.690964],[-96.701584,39.690483],[-96.703025,39.691011],[-96.704317,39.69242],[-96.70701,39.693073],[-96.708558,39.69259],[-96.709327,39.690565],[-96.706986,39.689334],[-96.705501,39.687899],[-96.702048,39.687046],[-96.699641,39.687826],[-96.696569,39.688008],[-96.694351,39.690565],[-96.692672,39.693925],[-96.691554,39.694663],[-96.686968,39.695008],[-96.683227,39.695778],[-96.679694,39.697604],[-96.680086,39.699579],[-96.67746,39.701947],[-96.677191,39.703396],[-96.678571,39.704316],[-96.680364,39.703856],[-96.682871,39.704501],[-96.683273,39.706193],[-96.682241,39.707998],[-96.683126,39.710026],[-96.684709,39.710411],[-96.687743,39.708448],[-96.689484,39.708992],[-96.691257,39.710986],[-96.694271,39.712873],[-96.695613,39.718011],[-96.695372,39.720857],[-96.694396,39.722257],[-96.689061,39.720653],[-96.687421,39.720819],[-96.685773,39.722332],[-96.684115,39.725914],[-96.683959,39.727828],[-96.682229,39.728581],[-96.682279,39.729841],[-96.684074,39.729376],[-96.684759,39.726628],[-96.686714,39.725594],[-96.689351,39.726519],[-96.68984,39.72796],[-96.689013,39.730533],[-96.687366,39.732704],[-96.686757,39.734663],[-96.682913,39.735865],[-96.680038,39.73637],[-96.679107,39.73808],[-96.682511,39.738626],[-96.683815,39.740363],[-96.702077,39.740406],[-96.750812,39.740502],[-96.750863,39.742623],[-96.751742,39.744991],[-96.753341,39.746859],[-96.751272,39.748817],[-96.750664,39.750502],[-96.75077,39.783886],[-96.759753,39.783919],[-96.759874,39.798454],[-96.769407,39.798421],[-96.769258,39.81294],[-96.788139,39.812988],[-96.792756,39.812658],[-96.794447,39.813017],[-96.806328,39.813037],[-96.80611,39.810259],[-96.806259,39.80587],[-96.806371,39.805189],[-96.806476,39.744035],[-96.806552,39.737526]]]}},{"type":"Feature","properties":{"zcta5":"66442","AFFGEOID10":"8600000US66442","GEOID10":"66442","ALAND10":88832993,"AWATER10":1354501,"county_name":"Riley","state_code":"KS","county_state":"Riley County, KS","county_fips":"20161","risk_level_county":"Higher Risk (60–69% vaccinated)","mean_vaccination_rate_county":67.47,"risk_level_zcta":"Lowest Risk (85%+)","mean_vaccination_rate_zips":89.51,"cases":91},"geometry":{"type":"Polygon","coordinates":[[[-96.830985,39.139228],[-96.831057,39.132711],[-96.832553,39.126724],[-96.83537,39.121638],[-96.851269,39.10074],[-96.853313,39.098971],[-96.856473,39.095208],[-96.855221,39.093623],[-96.860888,39.079463],[-96.865055,39.078986],[-96.869761,39.072791],[-96.869817,39.072354],[-96.868117,39.071329],[-96.86139,39.069032],[-96.858187,39.068932],[-96.857092,39.068012],[-96.855776,39.065233],[-96.852459,39.062579],[-96.84824,39.061852],[-96.846797,39.060722],[-96.845539,39.057059],[-96.843431,39.056121],[-96.83826,39.055583],[-96.836217,39.053283],[-96.836642,39.050462],[-96.836304,39.049346],[-96.835404,39.047881],[-96.829325,39.04312],[-96.824359,39.044587],[-96.820855,39.048262],[-96.818543,39.056305],[-96.818132,39.059474],[-96.817402,39.06224],[-96.816148,39.065081],[-96.81609,39.065622],[-96.816944,39.067436],[-96.818784,39.068845],[-96.823966,39.069066],[-96.821807,39.070461],[-96.818616,39.070505],[-96.816604,39.06969],[-96.814977,39.067799],[-96.812567,39.067593],[-96.811647,39.06719],[-96.809339,39.065553],[-96.809026,39.064909],[-96.804171,39.06191],[-96.803599,39.061364],[-96.803253,39.060954],[-96.802699,39.060522],[-96.802158,39.060144],[-96.801334,39.060285],[-96.801094,39.057944],[-96.800137,39.056788],[-96.799655,39.055926],[-96.799573,39.053516],[-96.79836,39.051518],[-96.796717,39.050514],[-96.793534,39.050459],[-96.790609,39.05245],[-96.785398,39.053755],[-96.782255,39.052883],[-96.779548,39.051297],[-96.778119,39.050915],[-96.777439,39.049935],[-96.776746,39.046316],[-96.778623,39.044251],[-96.778692,39.042006],[-96.777315,39.039028],[-96.777993,39.038208],[-96.776062,39.036784],[-96.768827,39.036879],[-96.763788,39.04139],[-96.753258,39.053546],[-96.751993,39.054801],[-96.747112,39.057951],[-96.750906,39.060086],[-96.766374,39.067448],[-96.763398,39.075101],[-96.762594,39.078731],[-96.762723,39.081227],[-96.759078,39.084094],[-96.75548,39.083836],[-96.755188,39.084328],[-96.756986,39.087284],[-96.755928,39.088008],[-96.755047,39.087786],[-96.743439,39.087659],[-96.743455,39.081955],[-96.740352,39.082231],[-96.736231,39.079641],[-96.735545,39.079808],[-96.732061,39.083233],[-96.728177,39.088358],[-96.723183,39.091086],[-96.719209,39.091443],[-96.714145,39.089763],[-96.711792,39.089552],[-96.706257,39.09116],[-96.704401,39.095635],[-96.705191,39.097659],[-96.706818,39.098688],[-96.711635,39.100271],[-96.716715,39.100836],[-96.717338,39.102379],[-96.715041,39.105126],[-96.71089,39.106894],[-96.714,39.11108],[-96.717687,39.11523],[-96.719651,39.114864],[-96.720505,39.115688],[-96.721113,39.118668],[-96.721142,39.121384],[-96.722003,39.124176],[-96.719605,39.126979],[-96.719655,39.131513],[-96.73881,39.131549],[-96.745,39.13083],[-96.74513,39.13159],[-96.75036,39.13174],[-96.75659,39.13339],[-96.75983,39.13323],[-96.76362,39.131473],[-96.76895,39.13162],[-96.77473,39.13337],[-96.77782,39.13289],[-96.78044,39.13171],[-96.81688,39.13189],[-96.824406,39.133576],[-96.825726,39.134695],[-96.826651,39.137106],[-96.829446,39.139874],[-96.83097,39.14018],[-96.830985,39.139228]]]}},{"type":"Feature","properties":{"zcta5":"66411","AFFGEOID10":"8600000US66411","GEOID10":"66411","ALAND10":297939657,"AWATER10":5754719,"county_name":"Riley","state_code":"KS","county_state":"Riley County, KS","county_fips":"20161","risk_level_county":"Higher Risk (60–69% vaccinated)","mean_vaccination_rate_county":67.47,"risk_level_zcta":"Higher Risk (60–69% vaccinated)","mean_vaccination_rate_zips":65.46,"cases":91},"geometry":{"type":"Polygon","coordinates":[[[-96.683815,39.740363],[-96.682511,39.738626],[-96.679107,39.73808],[-96.680038,39.73637],[-96.682913,39.735865],[-96.686757,39.734663],[-96.687366,39.732704],[-96.689013,39.730533],[-96.68984,39.72796],[-96.689351,39.726519],[-96.686714,39.725594],[-96.684759,39.726628],[-96.684074,39.729376],[-96.682279,39.729841],[-96.682229,39.728581],[-96.683959,39.727828],[-96.684115,39.725914],[-96.685773,39.722332],[-96.687421,39.720819],[-96.689061,39.720653],[-96.694396,39.722257],[-96.695372,39.720857],[-96.695613,39.718011],[-96.694271,39.712873],[-96.691257,39.710986],[-96.689484,39.708992],[-96.687743,39.708448],[-96.684709,39.710411],[-96.683126,39.710026],[-96.682241,39.707998],[-96.683273,39.706193],[-96.682871,39.704501],[-96.680364,39.703856],[-96.678571,39.704316],[-96.677191,39.703396],[-96.67746,39.701947],[-96.680086,39.699579],[-96.679694,39.697604],[-96.683227,39.695778],[-96.686968,39.695008],[-96.691554,39.694663],[-96.692672,39.693925],[-96.694351,39.690565],[-96.696569,39.688008],[-96.699641,39.687826],[-96.702048,39.687046],[-96.705501,39.687899],[-96.706986,39.689334],[-96.709327,39.690565],[-96.708558,39.69259],[-96.70701,39.693073],[-96.704317,39.69242],[-96.703025,39.691011],[-96.701584,39.690483],[-96.699223,39.690964],[-96.69879,39.692325],[-96.699362,39.693435],[-96.702198,39.694804],[-96.704656,39.697221],[-96.706401,39.696413],[-96.707402,39.695178],[-96.710887,39.694219],[-96.71484,39.696342],[-96.717487,39.696976],[-96.718583,39.69778],[-96.719551,39.699661],[-96.722585,39.700658],[-96.723608,39.69893],[-96.723643,39.697086],[-96.718878,39.697117],[-96.714805,39.694661],[-96.713229,39.692919],[-96.713268,39.682282],[-96.721049,39.6824],[-96.725104,39.68349],[-96.732077,39.686332],[-96.731973,39.672821],[-96.73065,39.671635],[-96.727558,39.671544],[-96.727745,39.669076],[-96.72715,39.668025],[-96.728328,39.667862],[-96.728452,39.666203],[-96.731756,39.665799],[-96.732069,39.661979],[-96.73182,39.658825],[-96.731879,39.653468],[-96.69424,39.65354],[-96.694162,39.624424],[-96.712759,39.624441],[-96.712664,39.595462],[-96.731277,39.595466],[-96.731437,39.580946],[-96.716781,39.581097],[-96.712709,39.580986],[-96.712839,39.566564],[-96.707752,39.566579],[-96.708802,39.565623],[-96.708925,39.563392],[-96.706359,39.562665],[-96.705363,39.56047],[-96.700603,39.558312],[-96.698481,39.560018],[-96.696854,39.55875],[-96.695082,39.55865],[-96.695139,39.551201],[-96.696172,39.549149],[-96.693687,39.546836],[-96.690415,39.546266],[-96.684195,39.54436],[-96.682384,39.542708],[-96.681949,39.541382],[-96.682626,39.537568],[-96.682278,39.535249],[-96.682711,39.533377],[-96.685017,39.530704],[-96.683718,39.525897],[-96.679777,39.523671],[-96.677949,39.52191],[-96.675123,39.520534],[-96.672841,39.520839],[-96.671311,39.520083],[-96.672144,39.519104],[-96.669449,39.517928],[-96.670367,39.516618],[-96.669046,39.515663],[-96.668292,39.513788],[-96.66637,39.512528],[-96.664293,39.510282],[-96.662724,39.510562],[-96.663128,39.508454],[-96.661377,39.507035],[-96.661219,39.505163],[-96.663224,39.502233],[-96.663617,39.499671],[-96.661708,39.499141],[-96.659109,39.4969],[-96.661961,39.492678],[-96.664616,39.487166],[-96.668069,39.486503],[-96.669312,39.486824],[-96.672045,39.485793],[-96.673334,39.486692],[-96.673455,39.485246],[-96.676593,39.48499],[-96.681411,39.483344],[-96.683461,39.482267],[-96.683755,39.479582],[-96.686195,39.47884],[-96.68409,39.478797],[-96.6827,39.481949],[-96.681477,39.482957],[-96.678935,39.48341],[-96.678235,39.481238],[-96.680577,39.479399],[-96.681257,39.476855],[-96.680135,39.475817],[-96.675325,39.473231],[-96.673963,39.472918],[-96.669088,39.474276],[-96.667793,39.475324],[-96.665632,39.479746],[-96.665047,39.4832],[-96.663633,39.487686],[-96.660995,39.493405],[-96.659689,39.49467],[-96.656024,39.501267],[-96.652698,39.503371],[-96.650267,39.506308],[-96.648546,39.507476],[-96.64723,39.507309],[-96.644195,39.505603],[-96.641626,39.506444],[-96.639822,39.508853],[-96.639738,39.510206],[-96.641857,39.513747],[-96.644151,39.515805],[-96.644383,39.518926],[-96.641362,39.521981],[-96.636492,39.525517],[-96.634655,39.529362],[-96.632884,39.532228],[-96.630374,39.534855],[-96.625957,39.537723],[-96.622874,39.538265],[-96.619954,39.533686],[-96.618675,39.532601],[-96.617598,39.53258],[-96.615134,39.533733],[-96.610615,39.536802],[-96.608066,39.538251],[-96.602972,39.538125],[-96.596565,39.540273],[-96.595319,39.541042],[-96.592381,39.543236],[-96.591984,39.543983],[-96.592677,39.549406],[-96.591604,39.552394],[-96.590433,39.553463],[-96.585294,39.557743],[-96.58392,39.559821],[-96.581764,39.566333],[-96.561779,39.566301],[-96.560747,39.568408],[-96.559322,39.569972],[-96.557283,39.57368],[-96.557272,39.577863],[-96.557611,39.580011],[-96.55729,39.582285],[-96.557375,39.620376],[-96.560215,39.620817],[-96.565875,39.624846],[-96.567761,39.62853],[-96.573073,39.635192],[-96.574308,39.638106],[-96.576745,39.638978],[-96.577318,39.640407],[-96.575119,39.644623],[-96.572371,39.645891],[-96.568505,39.646011],[-96.567487,39.646537],[-96.567076,39.647886],[-96.567244,39.658463],[-96.56596,39.65998],[-96.538809,39.659633],[-96.536187,39.659683],[-96.536766,39.660942],[-96.538406,39.661235],[-96.538538,39.663259],[-96.539547,39.664613],[-96.539125,39.66616],[-96.53888,39.711111],[-96.581638,39.710977],[-96.581706,39.739934],[-96.600278,39.739941],[-96.600493,39.747441],[-96.609947,39.747492],[-96.610025,39.752552],[-96.611838,39.753451],[-96.61173,39.754843],[-96.648642,39.754775],[-96.649973,39.754203],[-96.649806,39.754791],[-96.652396,39.765344],[-96.66331,39.765468],[-96.664216,39.769181],[-96.684302,39.769261],[-96.685769,39.769091],[-96.6846,39.768345],[-96.684272,39.76607],[-96.686709,39.762426],[-96.686343,39.760746],[-96.684974,39.759386],[-96.683763,39.754842],[-96.684833,39.751962],[-96.686886,39.750018],[-96.687666,39.747779],[-96.684476,39.744652],[-96.685705,39.742175],[-96.683815,39.740363]]]}},{"type":"Feature","properties":{"zcta5":"66933","AFFGEOID10":"8600000US66933","GEOID10":"66933","ALAND10":213518369,"AWATER10":961145,"county_name":"Riley","state_code":"KS","county_state":"Riley County, KS","county_fips":"20161","risk_level_county":"Higher Risk (60–69% vaccinated)","mean_vaccination_rate_county":67.47,"risk_level_zcta":"Very High Risk (<60% vaccinated)","mean_vaccination_rate_zips":51.34,"cases":91},"geometry":{"type":"Polygon","coordinates":[[[-96.937705,39.783728],[-96.937755,39.769236],[-96.91889,39.769338],[-96.918937,39.75484],[-96.900801,39.754742],[-96.900968,39.711776],[-96.918993,39.711332],[-96.918985,39.624382],[-96.90083,39.62461],[-96.900392,39.580965],[-96.918941,39.580884],[-96.91906,39.577719],[-96.918751,39.566419],[-96.930508,39.566535],[-96.93182,39.566439],[-96.93096,39.565226],[-96.927643,39.564955],[-96.927043,39.563566],[-96.92371,39.56307],[-96.924597,39.560424],[-96.925467,39.559673],[-96.924277,39.557368],[-96.922284,39.557053],[-96.922701,39.555146],[-96.921443,39.554358],[-96.921473,39.552565],[-96.919093,39.551338],[-96.919099,39.55036],[-96.916659,39.550317],[-96.917007,39.548679],[-96.916066,39.54859],[-96.914923,39.546754],[-96.914924,39.544416],[-96.913727,39.543705],[-96.913514,39.541634],[-96.911584,39.541581],[-96.906374,39.53823],[-96.902678,39.536587],[-96.901319,39.537301],[-96.902088,39.538815],[-96.902855,39.542419],[-96.905869,39.542149],[-96.904762,39.543566],[-96.905342,39.545883],[-96.90705,39.545495],[-96.908007,39.547048],[-96.907495,39.550152],[-96.909221,39.551967],[-96.909219,39.556017],[-96.907935,39.556809],[-96.907806,39.558334],[-96.905282,39.559879],[-96.908254,39.560292],[-96.909406,39.561253],[-96.907868,39.564175],[-96.910097,39.565264],[-96.908785,39.565133],[-96.908167,39.566475],[-96.806544,39.566423],[-96.8066,39.655157],[-96.806375,39.65842],[-96.806575,39.660561],[-96.806339,39.663723],[-96.80648,39.664061],[-96.806477,39.682284],[-96.825481,39.682437],[-96.825471,39.711641],[-96.806626,39.711276],[-96.80666,39.716632],[-96.806411,39.719029],[-96.806552,39.737526],[-96.807547,39.738548],[-96.806941,39.740275],[-96.809275,39.742829],[-96.811018,39.743776],[-96.814286,39.743603],[-96.817504,39.745119],[-96.820469,39.747547],[-96.825667,39.750155],[-96.828989,39.75466],[-96.830757,39.756455],[-96.832149,39.761629],[-96.833458,39.761203],[-96.833956,39.75931],[-96.835664,39.759429],[-96.837805,39.76099],[-96.838274,39.762426],[-96.836728,39.76407],[-96.838132,39.767572],[-96.839472,39.768924],[-96.84137,39.768584],[-96.843372,39.766127],[-96.84557,39.766843],[-96.845489,39.768867],[-96.84395,39.769376],[-96.842877,39.77162],[-96.843606,39.772291],[-96.845032,39.772345],[-96.846651,39.770286],[-96.848187,39.769707],[-96.849297,39.769926],[-96.850979,39.772286],[-96.854935,39.773898],[-96.85462,39.776394],[-96.855543,39.777879],[-96.85763,39.77844],[-96.860513,39.77694],[-96.863131,39.776861],[-96.866315,39.777889],[-96.87006,39.777349],[-96.873845,39.778469],[-96.874987,39.78306],[-96.876108,39.784304],[-96.874991,39.785029],[-96.871925,39.785298],[-96.871034,39.786388],[-96.87211,39.789429],[-96.874889,39.790876],[-96.877016,39.793024],[-96.879498,39.793105],[-96.883172,39.791152],[-96.88619,39.791857],[-96.89184,39.792666],[-96.894905,39.794219],[-96.896767,39.794408],[-96.89902,39.7962],[-96.900387,39.796161],[-96.900367,39.79826],[-96.918808,39.798297],[-96.918787,39.805659],[-96.927913,39.80571],[-96.927869,39.812745],[-96.936816,39.812915],[-96.937501,39.812471],[-96.937598,39.811882],[-96.937705,39.783728]]]}},{"type":"Feature","properties":{"zcta5":"66449","AFFGEOID10":"8600000US66449","GEOID10":"66449","ALAND10":173193594,"AWATER10":96543,"county_name":"Riley","state_code":"KS","county_state":"Riley County, KS","county_fips":"20161","risk_level_county":"Higher Risk (60–69% vaccinated)","mean_vaccination_rate_county":67.47,"risk_level_zcta":"Very High Risk (<60% vaccinated)","mean_vaccination_rate_zips":55.99,"cases":91},"geometry":{"type":"Polygon","coordinates":[[[-96.941982,39.394057],[-96.942027,39.379432],[-96.956103,39.379476],[-96.960907,39.379232],[-96.960875,39.335814],[-96.946663,39.335797],[-96.945721,39.334856],[-96.946156,39.33313],[-96.944854,39.332033],[-96.945887,39.326681],[-96.94444,39.325462],[-96.945887,39.324805],[-96.944279,39.324109],[-96.945546,39.323321],[-96.945452,39.320729],[-96.944062,39.317918],[-96.945373,39.316652],[-96.94485,39.31493],[-96.945694,39.313892],[-96.942163,39.313856],[-96.942113,39.321234],[-96.916315,39.321066],[-96.91579,39.319364],[-96.911557,39.320501],[-96.910879,39.321072],[-96.905673,39.321063],[-96.905678,39.335592],[-96.886926,39.335493],[-96.886977,39.350073],[-96.830643,39.349744],[-96.830649,39.33518],[-96.811987,39.334959],[-96.812007,39.349513],[-96.775771,39.349356],[-96.776142,39.348351],[-96.774156,39.34747],[-96.773519,39.345395],[-96.76965,39.346312],[-96.769499,39.344543],[-96.767456,39.343026],[-96.766705,39.339467],[-96.767003,39.336215],[-96.766162,39.334796],[-96.756237,39.334746],[-96.756519,39.382],[-96.756523,39.384956],[-96.755674,39.38551],[-96.752641,39.385495],[-96.752001,39.38449],[-96.748022,39.382128],[-96.738632,39.378681],[-96.733283,39.377282],[-96.726253,39.37669],[-96.716222,39.379644],[-96.71136,39.38176],[-96.712254,39.382951],[-96.714879,39.382653],[-96.716205,39.38176],[-96.718681,39.382194],[-96.721212,39.385354],[-96.730659,39.385576],[-96.732278,39.386152],[-96.7327,39.389801],[-96.735176,39.390929],[-96.741897,39.389549],[-96.744306,39.389577],[-96.748732,39.391828],[-96.751765,39.392626],[-96.757718,39.392669],[-96.763064,39.401627],[-96.764337,39.405471],[-96.764476,39.407311],[-96.810699,39.407454],[-96.810196,39.40908],[-96.811421,39.410852],[-96.811225,39.422057],[-96.839463,39.422424],[-96.839385,39.436968],[-96.848569,39.437084],[-96.848472,39.445863],[-96.853176,39.446427],[-96.853179,39.451789],[-96.86145,39.451643],[-96.869335,39.451756],[-96.871773,39.451579],[-96.879476,39.451707],[-96.878486,39.452587],[-96.876644,39.455864],[-96.876819,39.456916],[-96.874075,39.458038],[-96.871486,39.456045],[-96.86969,39.45639],[-96.86989,39.45729],[-96.867635,39.458308],[-96.867235,39.459512],[-96.868537,39.459978],[-96.867555,39.460924],[-96.866098,39.460352],[-96.86481,39.462405],[-96.867131,39.4622],[-96.867154,39.46366],[-96.864834,39.464501],[-96.864611,39.463746],[-96.862396,39.463731],[-96.862149,39.46613],[-96.853502,39.466091],[-96.852826,39.471783],[-96.849649,39.472694],[-96.846016,39.472753],[-96.847727,39.47594],[-96.847844,39.477456],[-96.846895,39.478231],[-96.846569,39.48027],[-96.848914,39.476419],[-96.850717,39.476403],[-96.853142,39.477502],[-96.854448,39.476887],[-96.85668,39.480969],[-96.859111,39.480056],[-96.87004,39.479965],[-96.874131,39.480926],[-96.875916,39.481901],[-96.881268,39.486313],[-96.883172,39.485453],[-96.88441,39.487274],[-96.884377,39.486084],[-96.888992,39.484567],[-96.890604,39.48544],[-96.89243,39.48274],[-96.894119,39.482692],[-96.894877,39.483258],[-96.892793,39.485521],[-96.893272,39.486303],[-96.897241,39.484704],[-96.897583,39.485772],[-96.896038,39.486069],[-96.895961,39.487426],[-96.900537,39.489025],[-96.899435,39.487508],[-96.902206,39.487631],[-96.901072,39.486387],[-96.901283,39.483703],[-96.905299,39.48409],[-96.904343,39.48281],[-96.906375,39.483001],[-96.906771,39.484443],[-96.911149,39.483712],[-96.913478,39.484593],[-96.913947,39.482657],[-96.911738,39.480658],[-96.909019,39.473806],[-96.908501,39.469417],[-96.908783,39.466512],[-96.904736,39.466471],[-96.904834,39.430238],[-96.91,39.428422],[-96.911028,39.425976],[-96.914071,39.422837],[-96.904897,39.422838],[-96.905007,39.393748],[-96.923319,39.393866],[-96.923497,39.408332],[-96.942205,39.408589],[-96.941982,39.394057]]]}},{"type":"Feature","properties":{"zcta5":"66503","AFFGEOID10":"8600000US66503","GEOID10":"66503","ALAND10":210916480,"AWATER10":12140499,"county_name":"Riley","state_code":"KS","county_state":"Riley County, KS","county_fips":"20161","risk_level_county":"Higher Risk (60–69% vaccinated)","mean_vaccination_rate_county":67.47,"risk_level_zcta":"Higher Risk (60–69% vaccinated)","mean_vaccination_rate_zips":68.08,"cases":91},"geometry":{"type":"Polygon","coordinates":[[[-96.756237,39.334746],[-96.755689,39.299025],[-96.754998,39.295544],[-96.753728,39.292921],[-96.750291,39.288968],[-96.738754,39.280113],[-96.735854,39.278437],[-96.731339,39.276795],[-96.732276,39.276143],[-96.775082,39.276627],[-96.775169,39.262056],[-96.753608,39.261959],[-96.75232,39.259376],[-96.751009,39.259004],[-96.751532,39.2561],[-96.759108,39.236056],[-96.763133,39.240791],[-96.76042,39.237028],[-96.75857,39.235222],[-96.754272,39.232473],[-96.713033,39.222875],[-96.710018,39.221551],[-96.71034,39.21803],[-96.710223,39.210911],[-96.700851,39.210382],[-96.70078,39.203563],[-96.681854,39.203638],[-96.682441,39.132942],[-96.682444,39.131418],[-96.685276,39.131444],[-96.719655,39.131513],[-96.719605,39.126979],[-96.722003,39.124176],[-96.716368,39.124112],[-96.716514,39.126301],[-96.714103,39.126334],[-96.714145,39.125248],[-96.712464,39.125842],[-96.711414,39.125252],[-96.711539,39.122102],[-96.708406,39.121712],[-96.707363,39.117448],[-96.702186,39.1198],[-96.701254,39.119179],[-96.700331,39.120997],[-96.690043,39.123995],[-96.684273,39.124927],[-96.679013,39.126891],[-96.673558,39.129837],[-96.66321,39.137916],[-96.654262,39.143599],[-96.650253,39.146814],[-96.649041,39.146752],[-96.652137,39.147639],[-96.649537,39.149038],[-96.649482,39.152982],[-96.644878,39.152986],[-96.644145,39.153182],[-96.64448,39.154475],[-96.644408,39.158796],[-96.643509,39.160199],[-96.635412,39.160248],[-96.63548,39.166869],[-96.632363,39.167472],[-96.628591,39.166439],[-96.626591,39.161163],[-96.623946,39.158756],[-96.620464,39.160785],[-96.619342,39.162664],[-96.620765,39.164216],[-96.620725,39.166105],[-96.61703,39.166002],[-96.616309,39.166767],[-96.612961,39.168581],[-96.610011,39.168986],[-96.603754,39.168966],[-96.603865,39.174744],[-96.605072,39.177164],[-96.609919,39.182011],[-96.611363,39.187187],[-96.612412,39.189633],[-96.612552,39.194421],[-96.612817,39.199091],[-96.613805,39.201107],[-96.615938,39.203611],[-96.617183,39.203597],[-96.617405,39.205166],[-96.61718,39.210827],[-96.618519,39.218389],[-96.618523,39.221809],[-96.618516,39.227485],[-96.61926,39.230444],[-96.62144,39.233869],[-96.622414,39.236073],[-96.622899,39.240141],[-96.62285,39.247102],[-96.609457,39.247285],[-96.605359,39.247476],[-96.605506,39.250005],[-96.605005,39.251908],[-96.60331,39.253012],[-96.594418,39.256018],[-96.594565,39.260288],[-96.595423,39.262049],[-96.597199,39.263664],[-96.603369,39.264903],[-96.608004,39.26609],[-96.610331,39.267086],[-96.614617,39.270666],[-96.616796,39.273088],[-96.621379,39.276469],[-96.625282,39.280126],[-96.629083,39.283419],[-96.635602,39.288214],[-96.638328,39.291401],[-96.638605,39.292827],[-96.632354,39.294084],[-96.631772,39.295647],[-96.632306,39.297742],[-96.6337,39.29938],[-96.637327,39.301827],[-96.643817,39.307008],[-96.647311,39.309092],[-96.649597,39.309788],[-96.652864,39.311992],[-96.656665,39.317202],[-96.656322,39.318047],[-96.65452,39.318883],[-96.651746,39.319089],[-96.649033,39.320021],[-96.647519,39.321832],[-96.646449,39.32399],[-96.64656,39.326182],[-96.648495,39.326451],[-96.650463,39.325502],[-96.653714,39.324604],[-96.65595,39.324389],[-96.659779,39.325062],[-96.662065,39.325975],[-96.666244,39.328252],[-96.670938,39.332778],[-96.671795,39.33468],[-96.669743,39.336153],[-96.66827,39.338037],[-96.666727,39.338801],[-96.663288,39.339611],[-96.661721,39.342881],[-96.662351,39.343873],[-96.665066,39.342989],[-96.668409,39.34313],[-96.671596,39.344584],[-96.673747,39.347124],[-96.67564,39.348625],[-96.679796,39.350722],[-96.688676,39.358211],[-96.690476,39.361178],[-96.686702,39.364035],[-96.683891,39.369351],[-96.684551,39.371222],[-96.68714,39.372304],[-96.690797,39.371284],[-96.693334,39.371681],[-96.698974,39.376173],[-96.701988,39.379937],[-96.707396,39.38331],[-96.712425,39.388214],[-96.719158,39.394338],[-96.722914,39.399839],[-96.726667,39.403601],[-96.726369,39.404753],[-96.723713,39.403896],[-96.721764,39.403931],[-96.719982,39.404715],[-96.717139,39.40719],[-96.729542,39.4072],[-96.731829,39.405215],[-96.73467,39.404059],[-96.732814,39.404158],[-96.728867,39.403175],[-96.726754,39.40167],[-96.727319,39.399465],[-96.725928,39.400352],[-96.724862,39.398363],[-96.722101,39.394718],[-96.719443,39.392139],[-96.718819,39.390239],[-96.72005,39.389047],[-96.717203,39.389757],[-96.714052,39.386641],[-96.710168,39.383988],[-96.709808,39.383102],[-96.712171,39.37991],[-96.714758,39.378208],[-96.716923,39.377818],[-96.718665,39.376686],[-96.71798,39.375744],[-96.719907,39.374639],[-96.721974,39.375012],[-96.726298,39.373722],[-96.729674,39.373896],[-96.730942,39.374664],[-96.73475,39.374896],[-96.735392,39.376301],[-96.738589,39.37594],[-96.738185,39.37659],[-96.742459,39.378011],[-96.74352,39.378986],[-96.747853,39.379449],[-96.75222,39.383622],[-96.75398,39.382414],[-96.756519,39.382],[-96.756237,39.334746]]]}},{"type":"Feature","properties":{"zcta5":"66554","AFFGEOID10":"8600000US66554","GEOID10":"66554","ALAND10":277553675,"AWATER10":10226523,"county_name":"Riley","state_code":"KS","county_state":"Riley County, KS","county_fips":"20161","risk_level_county":"Higher Risk (60–69% vaccinated)","mean_vaccination_rate_county":67.47,"risk_level_zcta":"Medium Risk (70–79% vaccinated)","mean_vaccination_rate_zips":78.24,"cases":91},"geometry":{"type":"Polygon","coordinates":[[[-96.902678,39.536587],[-96.90216,39.534613],[-96.903308,39.531688],[-96.901467,39.530722],[-96.902,39.527993],[-96.900824,39.526914],[-96.901173,39.525608],[-96.90001,39.523911],[-96.900976,39.522077],[-96.903084,39.520946],[-96.899156,39.517758],[-96.894887,39.515593],[-96.896271,39.513307],[-96.902299,39.509295],[-96.913019,39.509459],[-96.913478,39.484593],[-96.911149,39.483712],[-96.906771,39.484443],[-96.906375,39.483001],[-96.904343,39.48281],[-96.905299,39.48409],[-96.901283,39.483703],[-96.901072,39.486387],[-96.902206,39.487631],[-96.899435,39.487508],[-96.900537,39.489025],[-96.895961,39.487426],[-96.896038,39.486069],[-96.897583,39.485772],[-96.897241,39.484704],[-96.893272,39.486303],[-96.892793,39.485521],[-96.894877,39.483258],[-96.894119,39.482692],[-96.89243,39.48274],[-96.890604,39.48544],[-96.888992,39.484567],[-96.884377,39.486084],[-96.88441,39.487274],[-96.883172,39.485453],[-96.881268,39.486313],[-96.875916,39.481901],[-96.874131,39.480926],[-96.87004,39.479965],[-96.859111,39.480056],[-96.85668,39.480969],[-96.854448,39.476887],[-96.853142,39.477502],[-96.850717,39.476403],[-96.848914,39.476419],[-96.846569,39.48027],[-96.846895,39.478231],[-96.847844,39.477456],[-96.847727,39.47594],[-96.846016,39.472753],[-96.849649,39.472694],[-96.852826,39.471783],[-96.853502,39.466091],[-96.862149,39.46613],[-96.862396,39.463731],[-96.864611,39.463746],[-96.864834,39.464501],[-96.867154,39.46366],[-96.867131,39.4622],[-96.86481,39.462405],[-96.866098,39.460352],[-96.867555,39.460924],[-96.868537,39.459978],[-96.867235,39.459512],[-96.867635,39.458308],[-96.86989,39.45729],[-96.86969,39.45639],[-96.871486,39.456045],[-96.874075,39.458038],[-96.876819,39.456916],[-96.876644,39.455864],[-96.878486,39.452587],[-96.879476,39.451707],[-96.871773,39.451579],[-96.869335,39.451756],[-96.86145,39.451643],[-96.853179,39.451789],[-96.853176,39.446427],[-96.848472,39.445863],[-96.848569,39.437084],[-96.839385,39.436968],[-96.839463,39.422424],[-96.811225,39.422057],[-96.811421,39.410852],[-96.810196,39.40908],[-96.810699,39.407454],[-96.764476,39.407311],[-96.764337,39.405471],[-96.763064,39.401627],[-96.757718,39.392669],[-96.751765,39.392626],[-96.748732,39.391828],[-96.744306,39.389577],[-96.741897,39.389549],[-96.735176,39.390929],[-96.7327,39.389801],[-96.732278,39.386152],[-96.730659,39.385576],[-96.721212,39.385354],[-96.718681,39.382194],[-96.716205,39.38176],[-96.714879,39.382653],[-96.712254,39.382951],[-96.71136,39.38176],[-96.716222,39.379644],[-96.726253,39.37669],[-96.733283,39.377282],[-96.738632,39.378681],[-96.748022,39.382128],[-96.752001,39.38449],[-96.752641,39.385495],[-96.755674,39.38551],[-96.756523,39.384956],[-96.756519,39.382],[-96.75398,39.382414],[-96.75222,39.383622],[-96.747853,39.379449],[-96.74352,39.378986],[-96.742459,39.378011],[-96.738185,39.37659],[-96.738589,39.37594],[-96.735392,39.376301],[-96.73475,39.374896],[-96.730942,39.374664],[-96.729674,39.373896],[-96.726298,39.373722],[-96.721974,39.375012],[-96.719907,39.374639],[-96.71798,39.375744],[-96.718665,39.376686],[-96.716923,39.377818],[-96.714758,39.378208],[-96.712171,39.37991],[-96.709808,39.383102],[-96.710168,39.383988],[-96.714052,39.386641],[-96.717203,39.389757],[-96.72005,39.389047],[-96.718819,39.390239],[-96.719443,39.392139],[-96.722101,39.394718],[-96.724862,39.398363],[-96.725928,39.400352],[-96.727319,39.399465],[-96.726754,39.40167],[-96.728867,39.403175],[-96.732814,39.404158],[-96.73467,39.404059],[-96.731829,39.405215],[-96.729542,39.4072],[-96.717139,39.40719],[-96.714886,39.410801],[-96.714599,39.412138],[-96.715399,39.416919],[-96.715148,39.420293],[-96.715803,39.42104],[-96.718284,39.421777],[-96.723085,39.421391],[-96.726148,39.42282],[-96.728272,39.425956],[-96.728327,39.427132],[-96.72669,39.427762],[-96.722485,39.427466],[-96.719367,39.428797],[-96.715282,39.432107],[-96.713094,39.43568],[-96.713251,39.436969],[-96.714404,39.437692],[-96.718961,39.439118],[-96.721052,39.441594],[-96.721691,39.443848],[-96.720959,39.445459],[-96.718464,39.447516],[-96.715816,39.450716],[-96.709384,39.459589],[-96.706722,39.461533],[-96.70314,39.460636],[-96.698039,39.457874],[-96.695311,39.458167],[-96.690033,39.459905],[-96.688137,39.461002],[-96.6876,39.462122],[-96.689358,39.46435],[-96.689699,39.468536],[-96.687662,39.472524],[-96.68409,39.478797],[-96.686195,39.47884],[-96.683755,39.479582],[-96.683461,39.482267],[-96.681411,39.483344],[-96.676593,39.48499],[-96.673455,39.485246],[-96.673334,39.486692],[-96.672045,39.485793],[-96.669312,39.486824],[-96.668069,39.486503],[-96.664616,39.487166],[-96.661961,39.492678],[-96.659109,39.4969],[-96.661708,39.499141],[-96.663617,39.499671],[-96.663224,39.502233],[-96.661219,39.505163],[-96.661377,39.507035],[-96.663128,39.508454],[-96.662724,39.510562],[-96.664293,39.510282],[-96.66637,39.512528],[-96.668292,39.513788],[-96.669046,39.515663],[-96.670367,39.516618],[-96.669449,39.517928],[-96.672144,39.519104],[-96.671311,39.520083],[-96.672841,39.520839],[-96.675123,39.520534],[-96.677949,39.52191],[-96.679777,39.523671],[-96.683718,39.525897],[-96.685017,39.530704],[-96.682711,39.533377],[-96.682278,39.535249],[-96.682626,39.537568],[-96.681949,39.541382],[-96.682384,39.542708],[-96.684195,39.54436],[-96.690415,39.546266],[-96.693687,39.546836],[-96.696172,39.549149],[-96.695139,39.551201],[-96.695082,39.55865],[-96.696854,39.55875],[-96.698481,39.560018],[-96.700603,39.558312],[-96.705363,39.56047],[-96.706359,39.562665],[-96.708925,39.563392],[-96.708802,39.565623],[-96.707752,39.566579],[-96.712839,39.566564],[-96.724501,39.566523],[-96.725315,39.566444],[-96.806544,39.566423],[-96.908167,39.566475],[-96.908785,39.565133],[-96.910097,39.565264],[-96.907868,39.564175],[-96.909406,39.561253],[-96.908254,39.560292],[-96.905282,39.559879],[-96.907806,39.558334],[-96.907935,39.556809],[-96.909219,39.556017],[-96.909221,39.551967],[-96.907495,39.550152],[-96.908007,39.547048],[-96.90705,39.545495],[-96.905342,39.545883],[-96.904762,39.543566],[-96.905869,39.542149],[-96.902855,39.542419],[-96.902088,39.538815],[-96.901319,39.537301],[-96.902678,39.536587]]]}}]}