{"type":"FeatureCollection","features":[{"type":"Feature","properties":{"zcta5":"24153","AFFGEOID10":"8600000US24153","GEOID10":"24153","ALAND10":272213576,"AWATER10":1987004,"county_name":"Roanoke","state_code":"VA","county_state":"Roanoke County, VA","county_fips":"51161","risk_level_county":"Higher Risk (60–69% vaccinated)","mean_vaccination_rate_county":68.31,"risk_level_zcta":"Lower Risk (80–84% vaccinated)","mean_vaccination_rate_zips":81.2,"cases":5},"geometry":{"type":"Polygon","coordinates":[[[-80.251847,37.301075],[-80.25154,37.300727],[-80.203323,37.246235],[-80.202573,37.241493],[-80.194464,37.237255],[-80.194554,37.23558],[-80.193251,37.235015],[-80.191595,37.234688],[-80.19051,37.234497],[-80.191317,37.233923],[-80.191695,37.233757],[-80.189938,37.233437],[-80.188258,37.233778],[-80.185287,37.23228],[-80.176933,37.234178],[-80.174705,37.235808],[-80.17452,37.235824],[-80.175565,37.234289],[-80.172888,37.235961],[-80.169414,37.235194],[-80.17017,37.231736],[-80.174867,37.221335],[-80.179495,37.213019],[-80.179981,37.215011],[-80.181512,37.217002],[-80.184255,37.21533],[-80.185678,37.215748],[-80.186333,37.212285],[-80.183874,37.209147],[-80.182213,37.210591],[-80.180587,37.210961],[-80.18078,37.207752],[-80.186865,37.199772],[-80.183552,37.175924],[-80.180991,37.177315],[-80.18055,37.178709],[-80.178209,37.180632],[-80.178233,37.183291],[-80.176529,37.184847],[-80.175218,37.187095],[-80.173908,37.187564],[-80.170913,37.187386],[-80.169428,37.184671],[-80.168476,37.184521],[-80.166782,37.186085],[-80.165476,37.185967],[-80.160695,37.183912],[-80.161135,37.186424],[-80.158498,37.189683],[-80.155876,37.19477],[-80.14827,37.200734],[-80.143349,37.202511],[-80.140462,37.200188],[-80.138498,37.20296],[-80.138765,37.202001],[-80.136337,37.20302],[-80.135761,37.204124],[-80.133017,37.205421],[-80.128291,37.208714],[-80.126766,37.209417],[-80.125503,37.21159],[-80.122274,37.214029],[-80.11805,37.215589],[-80.116646,37.217632],[-80.114499,37.219405],[-80.113554,37.22187],[-80.111981,37.221483],[-80.111042,37.222214],[-80.100512,37.22697],[-80.096703,37.229385],[-80.094606,37.233952],[-80.091646,37.237286],[-80.088427,37.239026],[-80.086697,37.240505],[-80.084521,37.244126],[-80.081718,37.241699],[-80.078377,37.244499],[-80.076927,37.247208],[-80.074639,37.249005],[-80.070001,37.251363],[-80.065506,37.252816],[-80.062224,37.255136],[-80.062077,37.256521],[-80.061659,37.256373],[-80.058844,37.256283],[-80.054992,37.253696],[-80.05143,37.254621],[-80.051202,37.2522],[-80.046261,37.253917],[-80.044775,37.256963],[-80.044982,37.258313],[-80.042646,37.259796],[-80.04078,37.261752],[-80.037477,37.26193],[-80.033464,37.26289],[-80.029997,37.262005],[-80.025914,37.262025],[-80.024978,37.264553],[-80.021043,37.264706],[-80.021077,37.265195],[-80.021695,37.265301],[-80.020962,37.267002],[-80.019738,37.267007],[-80.018968,37.266657],[-80.019261,37.265046],[-80.01962,37.264568],[-80.018446,37.264254],[-80.017754,37.268158],[-80.016225,37.268234],[-80.015608,37.271352],[-80.014253,37.270984],[-80.013382,37.277853],[-80.013916,37.280327],[-80.015687,37.280583],[-80.018843,37.281949],[-80.021713,37.281444],[-80.022071,37.285893],[-80.02295,37.286832],[-80.023263,37.290266],[-80.021527,37.290089],[-80.022881,37.291613],[-80.022636,37.293328],[-80.020103,37.293135],[-80.019774,37.297834],[-80.019213,37.303477],[-80.020917,37.303514],[-80.021165,37.30787],[-80.022226,37.308338],[-80.027941,37.311026],[-80.027642,37.313182],[-80.028184,37.315505],[-80.030514,37.319006],[-80.032145,37.323108],[-80.033596,37.324293],[-80.035408,37.322269],[-80.038176,37.320277],[-80.042064,37.326188],[-80.042508,37.327706],[-80.041214,37.327947],[-80.042997,37.329716],[-80.044818,37.33271],[-80.045091,37.335008],[-80.042677,37.335028],[-80.041617,37.337387],[-80.040875,37.341094],[-80.039736,37.341473],[-80.03873,37.343052],[-80.037246,37.344042],[-80.033942,37.34847],[-80.031486,37.350043],[-80.029189,37.348117],[-80.02812,37.349018],[-80.029968,37.350153],[-80.03026,37.351723],[-80.032173,37.351889],[-80.032986,37.353074],[-80.032624,37.354308],[-80.02908,37.355624],[-80.02698,37.356759],[-80.024169,37.359619],[-80.023064,37.359692],[-80.023454,37.357266],[-80.022398,37.355405],[-80.02044,37.355067],[-80.020711,37.35398],[-80.018229,37.353286],[-80.017326,37.35375],[-80.016948,37.355611],[-80.014033,37.355842],[-80.011697,37.358144],[-80.013108,37.359211],[-80.011695,37.360021],[-80.012994,37.362082],[-80.0115,37.365021],[-80.009071,37.365598],[-80.005774,37.363713],[-80.00561,37.368265],[-80.004289,37.369721],[-80.000889,37.36994],[-80.001083,37.368733],[-79.999797,37.36873],[-79.998093,37.367683],[-79.995899,37.368986],[-79.996259,37.371347],[-79.997187,37.373178],[-79.996525,37.374874],[-79.99496,37.376478],[-79.991569,37.378239],[-79.990246,37.378067],[-79.988787,37.379762],[-79.962395,37.369703],[-79.96209,37.370577],[-79.956208,37.373587],[-79.952409,37.376401],[-79.951632,37.377745],[-79.949736,37.385898],[-79.948978,37.388985],[-79.948984,37.392827],[-79.950276,37.396745],[-79.949611,37.397658],[-79.951166,37.397423],[-79.953501,37.399983],[-79.955581,37.400026],[-79.957083,37.400962],[-79.96017,37.401813],[-79.964303,37.402043],[-79.968254,37.403876],[-79.968219,37.405195],[-79.972784,37.407085],[-79.975063,37.407316],[-79.980379,37.407243],[-79.981888,37.406032],[-79.984292,37.405562],[-79.990431,37.400923],[-79.993864,37.397183],[-79.994391,37.394733],[-79.996766,37.393183],[-79.998544,37.392631],[-80.000421,37.391169],[-80.001995,37.391273],[-80.003545,37.389752],[-80.004133,37.386696],[-80.005004,37.385934],[-80.019404,37.391496],[-80.020672,37.391701],[-80.02725,37.390519],[-80.02826,37.391097],[-80.035849,37.390573],[-80.039089,37.392099],[-80.043829,37.391508],[-80.048229,37.391556],[-80.051861,37.39098],[-80.055874,37.389527],[-80.058667,37.389287],[-80.060255,37.38806],[-80.061846,37.388532],[-80.065993,37.387724],[-80.071392,37.387416],[-80.075158,37.386134],[-80.080168,37.384846],[-80.08235,37.383411],[-80.085107,37.38232],[-80.08717,37.382568],[-80.088906,37.381975],[-80.090241,37.380346],[-80.092054,37.378618],[-80.096279,37.377623],[-80.100393,37.376149],[-80.103353,37.375604],[-80.108555,37.372225],[-80.110796,37.370432],[-80.113214,37.369423],[-80.117008,37.366636],[-80.121906,37.362633],[-80.124755,37.36108],[-80.125555,37.359687],[-80.128004,37.357333],[-80.129077,37.356965],[-80.131094,37.354627],[-80.134006,37.353859],[-80.138262,37.350611],[-80.143046,37.346451],[-80.150486,37.341379],[-80.155206,37.338531],[-80.158038,37.336371],[-80.162134,37.334355],[-80.165334,37.333539],[-80.17071,37.330579],[-80.177654,37.328403],[-80.180486,37.327235],[-80.184182,37.326627],[-80.187878,37.325379],[-80.193366,37.324083],[-80.196502,37.323683],[-80.199206,37.322531],[-80.203622,37.321715],[-80.206518,37.321539],[-80.210438,37.320595],[-80.214695,37.320099],[-80.221399,37.318627],[-80.228087,37.315411],[-80.233991,37.310851],[-80.234551,37.308579],[-80.237463,37.308099],[-80.240167,37.305651],[-80.241511,37.305811],[-80.242887,37.304931],[-80.244407,37.302659],[-80.247223,37.301699],[-80.251847,37.301075]]]}},{"type":"Feature","properties":{"zcta5":"24019","AFFGEOID10":"8600000US24019","GEOID10":"24019","ALAND10":80116316,"AWATER10":1045507,"county_name":"Roanoke","state_code":"VA","county_state":"Roanoke County, VA","county_fips":"51161","risk_level_county":"Higher Risk (60–69% vaccinated)","mean_vaccination_rate_county":68.31,"risk_level_zcta":"Medium Risk (70–79% vaccinated)","mean_vaccination_rate_zips":78.26,"cases":5},"geometry":{"type":"Polygon","coordinates":[[[-79.949736,37.385898],[-79.951632,37.377745],[-79.952409,37.376401],[-79.956208,37.373587],[-79.96209,37.370577],[-79.962395,37.369703],[-79.988787,37.379762],[-79.990246,37.378067],[-79.991569,37.378239],[-79.99496,37.376478],[-79.996525,37.374874],[-79.997187,37.373178],[-79.996259,37.371347],[-79.995899,37.368986],[-79.998093,37.367683],[-79.999797,37.36873],[-80.001083,37.368733],[-80.000889,37.36994],[-80.004289,37.369721],[-80.00561,37.368265],[-80.005774,37.363713],[-80.009071,37.365598],[-80.0115,37.365021],[-80.012994,37.362082],[-80.011695,37.360021],[-80.013108,37.359211],[-80.011697,37.358144],[-80.014033,37.355842],[-80.016948,37.355611],[-80.017326,37.35375],[-80.018229,37.353286],[-80.020711,37.35398],[-80.02044,37.355067],[-80.022398,37.355405],[-80.023454,37.357266],[-80.023064,37.359692],[-80.024169,37.359619],[-80.02698,37.356759],[-80.02908,37.355624],[-80.032624,37.354308],[-80.032986,37.353074],[-80.032173,37.351889],[-80.03026,37.351723],[-80.029968,37.350153],[-80.02812,37.349018],[-80.029189,37.348117],[-80.031486,37.350043],[-80.033942,37.34847],[-80.037246,37.344042],[-80.03873,37.343052],[-80.039736,37.341473],[-80.040875,37.341094],[-80.041617,37.337387],[-80.042677,37.335028],[-80.045091,37.335008],[-80.044818,37.33271],[-80.042997,37.329716],[-80.041214,37.327947],[-80.042508,37.327706],[-80.042064,37.326188],[-80.038176,37.320277],[-80.035408,37.322269],[-80.033596,37.324293],[-80.032145,37.323108],[-80.030514,37.319006],[-80.028184,37.315505],[-80.027642,37.313182],[-80.027941,37.311026],[-80.022226,37.308338],[-80.021063,37.309285],[-80.019587,37.309478],[-80.015226,37.308679],[-80.014475,37.310736],[-80.016925,37.312],[-80.017523,37.313027],[-80.014601,37.315256],[-80.012504,37.315648],[-80.012847,37.316446],[-80.01222,37.316562],[-80.010835,37.314673],[-80.010789,37.312618],[-80.00986,37.31231],[-80.0096,37.310233],[-80.008846,37.309483],[-80.006865,37.30966],[-80.006837,37.311031],[-80.00885,37.311309],[-80.008782,37.312565],[-80.006428,37.312419],[-80.004961,37.315644],[-80.001327,37.319031],[-79.996558,37.32216],[-79.994791,37.320439],[-79.993841,37.320574],[-79.991565,37.322048],[-79.990828,37.323204],[-79.989384,37.324041],[-79.987497,37.324187],[-79.990893,37.325425],[-79.99312,37.324829],[-79.988907,37.327122],[-79.987445,37.325223],[-79.982521,37.317098],[-79.974025,37.308779],[-79.970844,37.310428],[-79.966354,37.313453],[-79.968135,37.317577],[-79.967295,37.314098],[-79.967598,37.313184],[-79.970405,37.311249],[-79.971237,37.312291],[-79.973602,37.312391],[-79.974578,37.310894],[-79.977969,37.313513],[-79.978613,37.31565],[-79.981867,37.320417],[-79.983961,37.32106],[-79.985154,37.322836],[-79.981687,37.32494],[-79.982087,37.326957],[-79.983275,37.328765],[-79.982909,37.330006],[-79.980824,37.330847],[-79.978899,37.330105],[-79.977798,37.328089],[-79.976334,37.328694],[-79.968566,37.334103],[-79.96781,37.336455],[-79.966955,37.336442],[-79.967083,37.337219],[-79.968618,37.336917],[-79.968633,37.337419],[-79.9673,37.337629],[-79.964967,37.336672],[-79.963772,37.335532],[-79.958315,37.334894],[-79.954482,37.333106],[-79.952061,37.329942],[-79.950668,37.329954],[-79.948462,37.328322],[-79.947265,37.326427],[-79.945187,37.325097],[-79.943749,37.325652],[-79.94035,37.325235],[-79.939393,37.324247],[-79.937271,37.325401],[-79.93483,37.322032],[-79.936822,37.321436],[-79.937626,37.32334],[-79.942286,37.322537],[-79.941857,37.321595],[-79.939777,37.321727],[-79.931871,37.320541],[-79.929189,37.319669],[-79.930192,37.31712],[-79.932252,37.314935],[-79.93241,37.313836],[-79.929957,37.31085],[-79.928688,37.310134],[-79.927186,37.310769],[-79.926241,37.310275],[-79.927873,37.308097],[-79.927704,37.307362],[-79.924858,37.305108],[-79.923336,37.303363],[-79.919825,37.302797],[-79.9172,37.301235],[-79.913958,37.305003],[-79.9123,37.308211],[-79.907917,37.311781],[-79.90749,37.312869],[-79.904814,37.314511],[-79.904325,37.315753],[-79.901744,37.317957],[-79.90546,37.321835],[-79.907114,37.320961],[-79.90871,37.320339],[-79.90607,37.3239],[-79.906224,37.325053],[-79.908323,37.328628],[-79.905227,37.33426],[-79.901716,37.337635],[-79.899259,37.338295],[-79.897025,37.340857],[-79.892612,37.340267],[-79.887937,37.338251],[-79.890957,37.335501],[-79.890602,37.334089],[-79.889418,37.33305],[-79.886672,37.333063],[-79.884753,37.332027],[-79.88589,37.329823],[-79.885301,37.326951],[-79.882361,37.328179],[-79.881232,37.327165],[-79.882483,37.325798],[-79.881473,37.325169],[-79.879525,37.326395],[-79.87358,37.321188],[-79.865882,37.328752],[-79.865684,37.328668],[-79.865016,37.329344],[-79.866584,37.330508],[-79.868511,37.33323],[-79.867034,37.332797],[-79.872168,37.349668],[-79.864789,37.354618],[-79.871083,37.357705],[-79.870337,37.360092],[-79.868202,37.360752],[-79.866927,37.359888],[-79.864865,37.36192],[-79.866145,37.365879],[-79.867688,37.368524],[-79.865522,37.375135],[-79.866622,37.375349],[-79.868909,37.377499],[-79.871328,37.376947],[-79.876999,37.379175],[-79.877613,37.377903],[-79.882421,37.373467],[-79.886281,37.371162],[-79.887484,37.37019],[-79.891235,37.369855],[-79.894189,37.368829],[-79.895175,37.369572],[-79.901187,37.364588],[-79.902372,37.366064],[-79.90369,37.365244],[-79.905674,37.364803],[-79.905897,37.365459],[-79.907137,37.365454],[-79.90913,37.364035],[-79.90995,37.36407],[-79.912763,37.362747],[-79.914175,37.361005],[-79.915034,37.361333],[-79.914153,37.361064],[-79.912753,37.362833],[-79.911438,37.363814],[-79.909065,37.364511],[-79.908099,37.366516],[-79.908545,37.368923],[-79.907123,37.370791],[-79.909725,37.369695],[-79.912994,37.370785],[-79.913917,37.372087],[-79.916721,37.36922],[-79.919005,37.369354],[-79.91455,37.37278],[-79.921069,37.368181],[-79.923716,37.367232],[-79.916753,37.371496],[-79.913756,37.373689],[-79.911529,37.375863],[-79.909406,37.37871],[-79.911095,37.38184],[-79.91175,37.38084],[-79.915657,37.378866],[-79.917488,37.378353],[-79.918725,37.379995],[-79.918579,37.381462],[-79.920183,37.382848],[-79.923143,37.380977],[-79.923684,37.381721],[-79.926904,37.37774],[-79.928499,37.375244],[-79.93085,37.376292],[-79.9302,37.375046],[-79.932032,37.376599],[-79.936559,37.383438],[-79.939295,37.383268],[-79.9405,37.382597],[-79.943522,37.382856],[-79.949388,37.385373],[-79.949736,37.385898]],[[-79.949293,37.358288],[-79.951337,37.361713],[-79.945616,37.362997],[-79.939928,37.360566],[-79.940393,37.360376],[-79.939634,37.356038],[-79.937898,37.354984],[-79.940779,37.353588],[-79.941846,37.351934],[-79.944811,37.354122],[-79.944447,37.356713],[-79.946421,37.358187],[-79.947298,37.357261],[-79.949293,37.358288]],[[-79.90767,37.359342],[-79.908889,37.362672],[-79.905587,37.364555],[-79.903376,37.36307],[-79.897456,37.363788],[-79.89309,37.365032],[-79.895337,37.36302],[-79.892513,37.36222],[-79.89054,37.358898],[-79.893869,37.357413],[-79.897959,37.357724],[-79.904171,37.357509],[-79.906506,37.359542],[-79.90767,37.359342]]]}},{"type":"Feature","properties":{"zcta5":"24179","AFFGEOID10":"8600000US24179","GEOID10":"24179","ALAND10":122432006,"AWATER10":1065756,"county_name":"Roanoke","state_code":"VA","county_state":"Roanoke County, VA","county_fips":"51161","risk_level_county":"Higher Risk (60–69% vaccinated)","mean_vaccination_rate_county":68.31,"risk_level_zcta":"Medium Risk (70–79% vaccinated)","mean_vaccination_rate_zips":79.96,"cases":5},"geometry":{"type":"Polygon","coordinates":[[[-79.820209,37.33103],[-79.821799,37.329957],[-79.824152,37.329253],[-79.830312,37.325349],[-79.832728,37.324965],[-79.835864,37.323157],[-79.8362,37.321925],[-79.837912,37.321669],[-79.840408,37.319365],[-79.841848,37.319109],[-79.844198,37.31775],[-79.844607,37.315177],[-79.845304,37.313877],[-79.844696,37.313029],[-79.847476,37.309352],[-79.857699,37.320408],[-79.858187,37.314627],[-79.858795,37.313214],[-79.86022,37.311615],[-79.865784,37.30741],[-79.869096,37.303423],[-79.871437,37.305091],[-79.873564,37.305486],[-79.87403,37.303182],[-79.874622,37.301995],[-79.875632,37.300713],[-79.879723,37.297104],[-79.879245,37.294973],[-79.87855,37.29189],[-79.880444,37.290579],[-79.880498,37.287843],[-79.882873,37.285843],[-79.884236,37.283686],[-79.889885,37.284269],[-79.888895,37.286852],[-79.887434,37.287749],[-79.885401,37.286233],[-79.884319,37.287344],[-79.885644,37.288396],[-79.880985,37.291954],[-79.883417,37.293885],[-79.886377,37.291299],[-79.89616,37.283553],[-79.89893,37.283172],[-79.901367,37.284604],[-79.903624,37.281651],[-79.906074,37.284593],[-79.908657,37.283116],[-79.90947,37.283664],[-79.91279,37.281852],[-79.917601,37.280899],[-79.91783,37.27954],[-79.917391,37.279019],[-79.915133,37.279662],[-79.912052,37.278078],[-79.909328,37.277946],[-79.904182,37.270877],[-79.90444,37.266559],[-79.904639,37.266275],[-79.900614,37.265066],[-79.896447,37.264556],[-79.8927,37.261627],[-79.886386,37.258851],[-79.879498,37.257801],[-79.87671,37.256791],[-79.875042,37.254072],[-79.872894,37.253629],[-79.871802,37.254582],[-79.869421,37.254306],[-79.863618,37.251312],[-79.856418,37.251203],[-79.852864,37.250281],[-79.850724,37.248266],[-79.849207,37.243569],[-79.846901,37.241304],[-79.845043,37.239248],[-79.84219,37.232353],[-79.842072,37.230079],[-79.845079,37.227781],[-79.847217,37.225406],[-79.847328,37.223308],[-79.844689,37.218269],[-79.843594,37.216952],[-79.842677,37.216547],[-79.838675,37.216154],[-79.835871,37.216368],[-79.833008,37.216049],[-79.830193,37.219651],[-79.83115,37.222453],[-79.829775,37.224557],[-79.826018,37.22284],[-79.823959,37.223555],[-79.822065,37.225876],[-79.819572,37.226405],[-79.818161,37.226201],[-79.809709,37.220175],[-79.807896,37.216589],[-79.806065,37.215174],[-79.803614,37.215525],[-79.801451,37.217163],[-79.80635,37.217715],[-79.806117,37.218966],[-79.806884,37.220128],[-79.806377,37.22172],[-79.807837,37.222967],[-79.809473,37.225195],[-79.810129,37.225633],[-79.81506,37.226063],[-79.819612,37.228022],[-79.826245,37.227543],[-79.828098,37.22777],[-79.829319,37.228621],[-79.830493,37.232424],[-79.831361,37.23375],[-79.832329,37.237637],[-79.831917,37.238632],[-79.831313,37.243994],[-79.830427,37.244818],[-79.831012,37.245847],[-79.828667,37.247353],[-79.830217,37.250706],[-79.832885,37.252243],[-79.833855,37.253788],[-79.834128,37.255922],[-79.833538,37.257538],[-79.830288,37.258392],[-79.828288,37.257547],[-79.824811,37.257686],[-79.821904,37.259019],[-79.819811,37.258597],[-79.816039,37.256395],[-79.813162,37.255762],[-79.809042,37.256607],[-79.806733,37.258213],[-79.806388,37.259292],[-79.795765,37.269578],[-79.791193,37.269851],[-79.787739,37.271209],[-79.792457,37.269948],[-79.79297,37.273399],[-79.792277,37.273822],[-79.788654,37.274821],[-79.785248,37.273537],[-79.783492,37.274407],[-79.77989,37.27295],[-79.775833,37.27074],[-79.769199,37.271341],[-79.766085,37.270856],[-79.762025,37.268898],[-79.767123,37.265803],[-79.766574,37.263501],[-79.767354,37.257672],[-79.769005,37.256332],[-79.769219,37.254618],[-79.767853,37.251013],[-79.765466,37.249969],[-79.764609,37.24654],[-79.7665,37.245195],[-79.767518,37.243393],[-79.76708,37.240085],[-79.763825,37.23759],[-79.763544,37.236578],[-79.761413,37.237176],[-79.761164,37.239138],[-79.75904,37.240653],[-79.759231,37.242104],[-79.755849,37.244075],[-79.756355,37.246899],[-79.75364,37.247996],[-79.754855,37.249601],[-79.753888,37.250502],[-79.751015,37.250857],[-79.752649,37.253534],[-79.751354,37.256],[-79.74815,37.25932],[-79.744961,37.259745],[-79.739005,37.259398],[-79.734891,37.260007],[-79.732915,37.25806],[-79.733397,37.255914],[-79.732072,37.254397],[-79.730099,37.25362],[-79.728141,37.251995],[-79.726074,37.252892],[-79.724019,37.252829],[-79.723019,37.254926],[-79.721131,37.256411],[-79.717974,37.255035],[-79.712379,37.253984],[-79.709828,37.254498],[-79.707304,37.254073],[-79.705998,37.256195],[-79.705078,37.256452],[-79.70668,37.257699],[-79.70488,37.263188],[-79.710893,37.266685],[-79.714398,37.269014],[-79.711792,37.269624],[-79.710239,37.270652],[-79.712529,37.272443],[-79.710419,37.273871],[-79.706624,37.273526],[-79.705517,37.272669],[-79.703731,37.274639],[-79.704046,37.276095],[-79.706976,37.275339],[-79.707955,37.277548],[-79.708428,37.278383],[-79.711176,37.277905],[-79.711227,37.277069],[-79.714273,37.279466],[-79.716728,37.2804],[-79.714354,37.284013],[-79.71372,37.285723],[-79.712296,37.28486],[-79.710189,37.287324],[-79.707594,37.289698],[-79.706884,37.293428],[-79.709094,37.293888],[-79.708114,37.294718],[-79.707645,37.297538],[-79.70853,37.296908],[-79.711075,37.297321],[-79.711657,37.298065],[-79.710957,37.301533],[-79.710158,37.302981],[-79.70808,37.303915],[-79.704716,37.302173],[-79.705441,37.301308],[-79.702967,37.301651],[-79.698938,37.303638],[-79.700263,37.305634],[-79.700174,37.306821],[-79.702602,37.307634],[-79.703194,37.309089],[-79.705793,37.307551],[-79.708308,37.308253],[-79.709195,37.310676],[-79.714606,37.312246],[-79.716146,37.311675],[-79.71686,37.309549],[-79.719692,37.310746],[-79.722051,37.312607],[-79.72411,37.314885],[-79.726972,37.315012],[-79.731442,37.312695],[-79.732295,37.312697],[-79.734412,37.312829],[-79.734865,37.314166],[-79.736247,37.315393],[-79.738669,37.31616],[-79.739144,37.31767],[-79.742607,37.318907],[-79.743692,37.319836],[-79.7466,37.321169],[-79.751136,37.322029],[-79.754022,37.323095],[-79.75711,37.322488],[-79.760317,37.323233],[-79.763174,37.325466],[-79.762802,37.322739],[-79.763889,37.321881],[-79.768115,37.321322],[-79.768046,37.322087],[-79.770867,37.323623],[-79.770561,37.324378],[-79.772439,37.325776],[-79.770929,37.326919],[-79.771431,37.32954],[-79.770461,37.33073],[-79.773362,37.332331],[-79.77806,37.336483],[-79.779797,37.33711],[-79.781439,37.340334],[-79.782832,37.342073],[-79.78182,37.343428],[-79.783418,37.344435],[-79.78202,37.347098],[-79.784118,37.347528],[-79.787119,37.349201],[-79.788151,37.351116],[-79.788679,37.34935],[-79.794903,37.345126],[-79.797927,37.345078],[-79.801944,37.343414],[-79.804695,37.341126],[-79.805303,37.339958],[-79.807128,37.33935],[-79.810759,37.33527],[-79.813288,37.334326],[-79.813751,37.333622],[-79.820209,37.33103]]]}},{"type":"Feature","properties":{"zcta5":"24175","AFFGEOID10":"8600000US24175","GEOID10":"24175","ALAND10":186384232,"AWATER10":582192,"county_name":"Roanoke","state_code":"VA","county_state":"Roanoke County, VA","county_fips":"51161","risk_level_county":"Higher Risk (60–69% vaccinated)","mean_vaccination_rate_county":68.31,"risk_level_zcta":"Medium Risk (70–79% vaccinated)","mean_vaccination_rate_zips":76.95,"cases":5},"geometry":{"type":"Polygon","coordinates":[[[-80.074119,37.422469],[-80.063413,37.409294],[-80.069098,37.407327],[-80.07519,37.404587],[-80.076009,37.402131],[-80.075622,37.40032],[-80.073494,37.398222],[-80.06689,37.400032],[-80.065768,37.399411],[-80.066362,37.396659],[-80.064563,37.396772],[-80.067893,37.395154],[-80.070248,37.393407],[-80.079165,37.390653],[-80.082133,37.390466],[-80.083688,37.388515],[-80.085451,37.388421],[-80.092556,37.385436],[-80.092741,37.384128],[-80.096549,37.383891],[-80.100983,37.383142],[-80.101664,37.381878],[-80.103391,37.381238],[-80.100742,37.380482],[-80.09778,37.380376],[-80.093932,37.380927],[-80.090241,37.380346],[-80.088906,37.381975],[-80.08717,37.382568],[-80.085107,37.38232],[-80.08235,37.383411],[-80.080168,37.384846],[-80.075158,37.386134],[-80.071392,37.387416],[-80.065993,37.387724],[-80.061846,37.388532],[-80.060255,37.38806],[-80.058667,37.389287],[-80.055874,37.389527],[-80.051861,37.39098],[-80.048229,37.391556],[-80.043829,37.391508],[-80.039089,37.392099],[-80.035849,37.390573],[-80.02826,37.391097],[-80.02725,37.390519],[-80.020672,37.391701],[-80.019404,37.391496],[-80.005004,37.385934],[-80.004133,37.386696],[-80.003545,37.389752],[-80.001995,37.391273],[-80.000421,37.391169],[-79.998544,37.392631],[-79.996766,37.393183],[-79.994391,37.394733],[-79.993864,37.397183],[-79.990431,37.400923],[-79.984292,37.405562],[-79.981888,37.406032],[-79.980379,37.407243],[-79.975063,37.407316],[-79.972784,37.407085],[-79.968219,37.405195],[-79.968254,37.403876],[-79.964303,37.402043],[-79.96017,37.401813],[-79.957083,37.400962],[-79.955581,37.400026],[-79.953501,37.399983],[-79.951166,37.397423],[-79.949611,37.397658],[-79.946802,37.399937],[-79.94453,37.40536],[-79.944337,37.407228],[-79.941858,37.411568],[-79.940865,37.412545],[-79.948563,37.421032],[-79.944114,37.424509],[-79.93898,37.4267],[-79.935184,37.422293],[-79.932304,37.423864],[-79.931829,37.425743],[-79.930217,37.426304],[-79.927565,37.425639],[-79.926021,37.427265],[-79.926297,37.428309],[-79.923058,37.431616],[-79.918545,37.432742],[-79.914352,37.435762],[-79.908391,37.43792],[-79.90366,37.437565],[-79.904361,37.441489],[-79.903781,37.444974],[-79.900728,37.448341],[-79.896827,37.445836],[-79.89968,37.443704],[-79.900116,37.441757],[-79.899934,37.438424],[-79.903388,37.437659],[-79.903865,37.429562],[-79.904631,37.428315],[-79.899618,37.429851],[-79.898771,37.430536],[-79.898918,37.428583],[-79.90119,37.428031],[-79.899514,37.42632],[-79.9,37.425244],[-79.90201,37.424671],[-79.90364,37.426174],[-79.907019,37.425954],[-79.908578,37.421895],[-79.906107,37.423628],[-79.902053,37.422897],[-79.901362,37.418464],[-79.903236,37.416976],[-79.904034,37.414809],[-79.910035,37.412141],[-79.911965,37.411864],[-79.913497,37.408532],[-79.910137,37.408152],[-79.909189,37.407012],[-79.902331,37.405422],[-79.900512,37.404351],[-79.895671,37.404738],[-79.899026,37.399047],[-79.902555,37.393048],[-79.904625,37.389194],[-79.904911,37.388584],[-79.904952,37.388495],[-79.908619,37.380087],[-79.909406,37.37871],[-79.909139,37.378439],[-79.906222,37.374723],[-79.904873,37.374275],[-79.903339,37.373634],[-79.901158,37.370469],[-79.902043,37.367624],[-79.896625,37.371019],[-79.895175,37.369572],[-79.894189,37.368829],[-79.891235,37.369855],[-79.887484,37.37019],[-79.886281,37.371162],[-79.882421,37.373467],[-79.877613,37.377903],[-79.876999,37.379175],[-79.871328,37.376947],[-79.868909,37.377499],[-79.866622,37.375349],[-79.865522,37.375135],[-79.867688,37.368524],[-79.866145,37.365879],[-79.864865,37.36192],[-79.866927,37.359888],[-79.868202,37.360752],[-79.870337,37.360092],[-79.871083,37.357705],[-79.864789,37.354618],[-79.863918,37.353816],[-79.860381,37.352543],[-79.849326,37.347307],[-79.849585,37.346379],[-79.848,37.34586],[-79.848303,37.34393],[-79.84908,37.342702],[-79.844289,37.346491],[-79.835553,37.355448],[-79.835753,37.357424],[-79.838757,37.363104],[-79.838166,37.366504],[-79.839448,37.372175],[-79.838543,37.376265],[-79.839154,37.379212],[-79.839116,37.381878],[-79.840321,37.384058],[-79.840246,37.385679],[-79.838255,37.387798],[-79.83778,37.389698],[-79.838702,37.391777],[-79.838663,37.393737],[-79.837065,37.396851],[-79.835926,37.397948],[-79.832363,37.398984],[-79.829575,37.402482],[-79.824664,37.404696],[-79.822448,37.404557],[-79.817331,37.406256],[-79.816768,37.407768],[-79.817712,37.409067],[-79.816764,37.409901],[-79.818321,37.410913],[-79.817275,37.412081],[-79.80962,37.431267],[-79.808934,37.435349],[-79.807873,37.438157],[-79.803098,37.444156],[-79.806832,37.444357],[-79.810592,37.442222],[-79.8183,37.441887],[-79.820983,37.441171],[-79.82443,37.439287],[-79.828273,37.437807],[-79.832793,37.438324],[-79.833119,37.440987],[-79.835413,37.44393],[-79.835785,37.447229],[-79.837675,37.449922],[-79.836764,37.450532],[-79.839216,37.4522],[-79.839493,37.454628],[-79.838147,37.456023],[-79.840298,37.458249],[-79.84272,37.456456],[-79.847792,37.455159],[-79.849999,37.45553],[-79.850723,37.456861],[-79.851059,37.463163],[-79.850111,37.467468],[-79.856325,37.468031],[-79.857778,37.472802],[-79.856744,37.474687],[-79.854015,37.475199],[-79.855151,37.475885],[-79.86284,37.474286],[-79.867785,37.473593],[-79.870973,37.473453],[-79.874294,37.475435],[-79.879852,37.476652],[-79.881937,37.471406],[-79.881997,37.463292],[-79.882495,37.461951],[-79.885101,37.459246],[-79.889654,37.456205],[-79.890449,37.455876],[-79.89386,37.455509],[-79.895194,37.456955],[-79.896646,37.457255],[-79.899595,37.459163],[-79.901443,37.461267],[-79.902132,37.463834],[-79.901157,37.466387],[-79.898759,37.468738],[-79.896629,37.473021],[-79.897199,37.475017],[-79.900499,37.475582],[-79.901738,37.477192],[-79.903757,37.478019],[-79.905737,37.479746],[-79.910695,37.478719],[-79.914725,37.474126],[-79.917426,37.475456],[-79.925936,37.476918],[-79.93159,37.486553],[-79.931031,37.48917],[-79.932441,37.490363],[-79.929641,37.490916],[-79.932007,37.490689],[-79.934551,37.489435],[-79.939239,37.488974],[-79.942114,37.490661],[-79.943503,37.48918],[-79.94555,37.488078],[-79.944838,37.486245],[-79.945257,37.484961],[-79.946576,37.485499],[-79.948186,37.484917],[-79.951431,37.486182],[-79.952327,37.485469],[-79.951564,37.481746],[-79.951854,37.479142],[-79.953983,37.476601],[-79.955469,37.476799],[-79.959375,37.474604],[-79.960806,37.472079],[-79.962334,37.472289],[-79.966517,37.475628],[-79.967951,37.473936],[-79.971643,37.470845],[-79.970127,37.468229],[-79.970901,37.466134],[-79.970382,37.46399],[-79.968941,37.461759],[-79.969765,37.45712],[-79.971488,37.456424],[-79.974321,37.457403],[-79.978131,37.456647],[-79.979914,37.456875],[-79.98866,37.461192],[-79.99074,37.462896],[-79.996306,37.468655],[-80.000652,37.470537],[-80.004046,37.470215],[-80.005544,37.468761],[-80.00486,37.470121],[-80.004589,37.473049],[-80.001128,37.473015],[-79.996517,37.477017],[-79.995077,37.47765],[-79.993408,37.476442],[-79.990484,37.475635],[-79.989216,37.476515],[-79.983847,37.478902],[-79.982234,37.477831],[-79.983073,37.475221],[-79.98239,37.474457],[-79.975315,37.470213],[-79.971694,37.470922],[-79.972452,37.471388],[-79.977015,37.472106],[-79.981722,37.475386],[-79.981887,37.47763],[-79.982985,37.478812],[-79.984721,37.479134],[-79.987682,37.47756],[-79.99147,37.481347],[-79.993139,37.484169],[-79.995962,37.491351],[-79.998689,37.494345],[-80.001075,37.495552],[-80.003495,37.495773],[-80.008409,37.499248],[-80.010426,37.50285],[-80.012185,37.50305],[-80.012729,37.501518],[-80.014658,37.500129],[-80.014433,37.494846],[-80.016765,37.493715],[-80.019537,37.489778],[-80.021221,37.488626],[-80.025786,37.481981],[-80.025902,37.48077],[-80.03046,37.475504],[-80.030802,37.472358],[-80.031516,37.470174],[-80.0346,37.463744],[-80.036809,37.460924],[-80.039522,37.454838],[-80.041711,37.452002],[-80.043032,37.449024],[-80.047594,37.443103],[-80.050073,37.441058],[-80.056745,37.437341],[-80.059209,37.435485],[-80.061001,37.433341],[-80.065462,37.430113],[-80.06583,37.428467],[-80.067369,37.426397],[-80.069609,37.424845],[-80.074119,37.422469]],[[-79.890046,37.448861],[-79.89009,37.453312],[-79.890127,37.45359],[-79.888671,37.453373],[-79.887948,37.455544],[-79.884903,37.454097],[-79.883102,37.454944],[-79.883685,37.453081],[-79.881561,37.448717],[-79.885234,37.446964],[-79.890023,37.445769],[-79.890174,37.447529],[-79.890046,37.448861]]]}},{"type":"Feature","properties":{"zcta5":"24065","AFFGEOID10":"8600000US24065","GEOID10":"24065","ALAND10":221112028,"AWATER10":318609,"county_name":"Roanoke","state_code":"VA","county_state":"Roanoke County, VA","county_fips":"51161","risk_level_county":"Higher Risk (60–69% vaccinated)","mean_vaccination_rate_county":68.31,"risk_level_zcta":"Medium Risk (70–79% vaccinated)","mean_vaccination_rate_zips":74.25,"cases":5},"geometry":{"type":"Polygon","coordinates":[[[-80.070274,37.161608],[-80.068836,37.159171],[-80.063887,37.156579],[-80.060906,37.152904],[-80.063119,37.151822],[-80.06396,37.152534],[-80.070578,37.143229],[-80.075571,37.143433],[-80.075672,37.141354],[-80.079392,37.143588],[-80.085859,37.143853],[-80.084732,37.141473],[-80.082226,37.138963],[-80.080846,37.136842],[-80.08049,37.133845],[-80.077843,37.132109],[-80.076343,37.129485],[-80.073727,37.12879],[-80.073508,37.127231],[-80.074551,37.122201],[-80.073199,37.120015],[-80.071103,37.118414],[-80.069639,37.115059],[-80.067106,37.112949],[-80.065503,37.109048],[-80.063873,37.107159],[-80.060549,37.105558],[-80.056523,37.101753],[-80.054276,37.100685],[-80.054001,37.103431],[-80.05152,37.107201],[-80.051963,37.109011],[-80.05185,37.112176],[-80.0502,37.118071],[-80.048269,37.120947],[-80.048168,37.123111],[-80.047188,37.124348],[-80.046451,37.123371],[-80.044339,37.123849],[-80.043784,37.125266],[-80.042226,37.125813],[-80.044184,37.126185],[-80.040387,37.129984],[-80.038848,37.12981],[-80.037364,37.126923],[-80.034814,37.124891],[-80.035325,37.120979],[-80.037166,37.122897],[-80.039626,37.123235],[-80.040187,37.122136],[-80.041887,37.121715],[-80.046004,37.122106],[-80.048035,37.11954],[-80.04951,37.11848],[-80.048712,37.116185],[-80.047184,37.115479],[-80.047117,37.112012],[-80.044332,37.112164],[-80.041985,37.112957],[-80.03772,37.113157],[-80.037857,37.110959],[-80.040196,37.109242],[-80.040012,37.104906],[-80.042299,37.102906],[-80.041644,37.100399],[-80.041238,37.097757],[-80.039732,37.10095],[-80.037825,37.102538],[-80.036561,37.104739],[-80.03403,37.092601],[-80.039278,37.08523],[-80.039175,37.083372],[-80.041138,37.079741],[-80.04116,37.078494],[-80.039058,37.076372],[-80.041274,37.074959],[-80.041462,37.073065],[-80.039419,37.070707],[-80.039077,37.067927],[-80.037611,37.065113],[-80.037954,37.063954],[-80.035725,37.061433],[-80.03879,37.061596],[-80.044262,37.062802],[-80.045052,37.066117],[-80.047051,37.067437],[-80.04731,37.066269],[-80.049594,37.06391],[-80.050447,37.060181],[-80.056755,37.060346],[-80.061753,37.062115],[-80.065708,37.063116],[-80.069079,37.062564],[-80.070263,37.06144],[-80.068071,37.059397],[-80.066223,37.056598],[-80.06949,37.055904],[-80.070873,37.055079],[-80.074222,37.051554],[-80.076398,37.051338],[-80.078336,37.049999],[-80.077223,37.047168],[-80.072877,37.04203],[-80.068788,37.039073],[-80.06778,37.038974],[-80.062538,37.04065],[-80.059226,37.039517],[-80.054231,37.036795],[-80.052755,37.03687],[-80.05013,37.03803],[-80.045075,37.036862],[-80.040137,37.036265],[-80.035087,37.032037],[-80.033754,37.031427],[-80.028649,37.030896],[-80.026286,37.030357],[-80.026834,37.033005],[-80.030972,37.035446],[-80.030972,37.036545],[-80.033945,37.041304],[-80.036387,37.042844],[-80.035944,37.0442],[-80.03347,37.044306],[-80.031474,37.04276],[-80.029551,37.043883],[-80.026283,37.044807],[-80.024625,37.043898],[-80.023136,37.041652],[-80.020602,37.040958],[-80.017238,37.037708],[-80.008769,37.042934],[-80.006304,37.045029],[-80.002231,37.046163],[-79.997537,37.045732],[-79.992809,37.045687],[-79.987313,37.044104],[-79.984543,37.041297],[-79.978346,37.037409],[-79.972539,37.037605],[-79.967828,37.040271],[-79.96978,37.042178],[-79.967408,37.041266],[-79.967238,37.040395],[-79.959376,37.040284],[-79.959766,37.042671],[-79.958846,37.044648],[-79.9525,37.048208],[-79.951392,37.047534],[-79.948602,37.047825],[-79.947293,37.04893],[-79.947526,37.049908],[-79.946148,37.050589],[-79.942714,37.049743],[-79.943002,37.052238],[-79.93943,37.054359],[-79.937415,37.053843],[-79.937223,37.058447],[-79.940822,37.059392],[-79.940951,37.060846],[-79.934878,37.064386],[-79.935541,37.065934],[-79.93792,37.067165],[-79.941893,37.070219],[-79.945552,37.071617],[-79.946597,37.072973],[-79.947979,37.079422],[-79.943009,37.078199],[-79.941608,37.075541],[-79.940967,37.076865],[-79.942023,37.078656],[-79.937113,37.081162],[-79.935446,37.083343],[-79.935165,37.085063],[-79.933773,37.086959],[-79.933944,37.088178],[-79.935997,37.090196],[-79.932892,37.088253],[-79.926695,37.084094],[-79.92553,37.08609],[-79.923143,37.087866],[-79.919563,37.088954],[-79.919477,37.091072],[-79.920628,37.092232],[-79.923451,37.093235],[-79.923527,37.094548],[-79.91897,37.096225],[-79.917444,37.097458],[-79.914846,37.09733],[-79.911607,37.09789],[-79.910173,37.099727],[-79.905211,37.098296],[-79.904694,37.098517],[-79.904314,37.098629],[-79.903871,37.098697],[-79.901657,37.098671],[-79.900989,37.09911],[-79.889796,37.096172],[-79.88218,37.092005],[-79.88069,37.093778],[-79.877522,37.09312],[-79.877362,37.095117],[-79.87531,37.102166],[-79.873054,37.103278],[-79.873237,37.104494],[-79.872078,37.104566],[-79.871562,37.102852],[-79.870382,37.102567],[-79.86978,37.104875],[-79.86839,37.106],[-79.867472,37.105218],[-79.864216,37.107409],[-79.862121,37.10573],[-79.860122,37.10786],[-79.854663,37.10776],[-79.853266,37.105707],[-79.850972,37.106997],[-79.849325,37.105855],[-79.847123,37.105246],[-79.844749,37.105455],[-79.846039,37.106241],[-79.846678,37.109257],[-79.846391,37.110746],[-79.848814,37.113278],[-79.85016,37.115948],[-79.849831,37.116888],[-79.847224,37.118235],[-79.842148,37.12163],[-79.845701,37.123215],[-79.844333,37.124674],[-79.844366,37.126951],[-79.847252,37.128115],[-79.846591,37.130596],[-79.84537,37.130481],[-79.83327,37.131615],[-79.8343,37.137829],[-79.833634,37.139112],[-79.835199,37.138963],[-79.835371,37.140007],[-79.836984,37.140825],[-79.836216,37.143886],[-79.836972,37.145929],[-79.84182,37.151467],[-79.842761,37.152142],[-79.844587,37.152532],[-79.84933,37.15236],[-79.85141,37.153508],[-79.852035,37.154826],[-79.855962,37.154907],[-79.857699,37.156363],[-79.862593,37.155399],[-79.864404,37.153135],[-79.866936,37.153117],[-79.868901,37.154605],[-79.871878,37.15544],[-79.874358,37.154576],[-79.876234,37.157101],[-79.879309,37.155844],[-79.881139,37.156045],[-79.88349,37.157474],[-79.885095,37.157403],[-79.88907,37.156006],[-79.890771,37.157993],[-79.895158,37.159977],[-79.901204,37.166773],[-79.902294,37.169542],[-79.905711,37.171244],[-79.907769,37.171783],[-79.910402,37.171459],[-79.911878,37.169887],[-79.913573,37.16824],[-79.913907,37.165163],[-79.915309,37.165044],[-79.918437,37.162149],[-79.920261,37.161936],[-79.920932,37.16076],[-79.922757,37.160874],[-79.924631,37.163176],[-79.925804,37.165843],[-79.926826,37.163343],[-79.930105,37.166693],[-79.929741,37.168457],[-79.931443,37.17304],[-79.934996,37.177417],[-79.93639,37.17777],[-79.935316,37.179304],[-79.935832,37.183743],[-79.940216,37.185152],[-79.950862,37.189187],[-79.951516,37.191352],[-79.951504,37.194371],[-79.953815,37.195492],[-79.953507,37.194602],[-79.954505,37.191609],[-79.958,37.193189],[-79.958397,37.194099],[-79.960156,37.194035],[-79.960156,37.192712],[-79.971601,37.184744],[-79.97103,37.181766],[-79.972966,37.180611],[-79.974634,37.178836],[-79.977299,37.180401],[-79.979075,37.179533],[-79.981467,37.177483],[-79.98202,37.172893],[-79.984351,37.172017],[-79.985474,37.172532],[-79.988101,37.177232],[-79.990181,37.179958],[-79.992479,37.184472],[-79.991997,37.186187],[-79.992581,37.187299],[-79.995241,37.188765],[-79.996479,37.191227],[-79.996665,37.191163],[-79.997599,37.190871],[-79.998098,37.190824],[-79.998797,37.190948],[-79.999229,37.191159],[-79.999672,37.191603],[-80.000316,37.192649],[-80.000609,37.19303],[-80.002271,37.190041],[-80.001406,37.182879],[-79.999737,37.178711],[-80.002019,37.175534],[-80.003114,37.169755],[-80.004964,37.168062],[-80.007241,37.169165],[-80.008398,37.172382],[-80.0092,37.172708],[-80.013559,37.172482],[-80.015098,37.171535],[-80.023379,37.170431],[-80.025052,37.17235],[-80.030635,37.174806],[-80.031688,37.17458],[-80.034363,37.171257],[-80.038543,37.169509],[-80.040421,37.168197],[-80.042668,37.16782],[-80.044604,37.166814],[-80.048925,37.166108],[-80.051327,37.165101],[-80.053241,37.165409],[-80.055059,37.164923],[-80.056657,37.165407],[-80.06105,37.165151],[-80.066031,37.163725],[-80.067523,37.162433],[-80.070274,37.161608]]]}},{"type":"Feature","properties":{"zcta5":"24014","AFFGEOID10":"8600000US24014","GEOID10":"24014","ALAND10":74080108,"AWATER10":584398,"county_name":"Roanoke","state_code":"VA","county_state":"Roanoke County, VA","county_fips":"51161","risk_level_county":"Higher Risk (60–69% vaccinated)","mean_vaccination_rate_county":68.31,"risk_level_zcta":"Medium Risk (70–79% vaccinated)","mean_vaccination_rate_zips":77.05,"cases":5},"geometry":{"type":"Polygon","coordinates":[[[-79.981403,37.233183],[-79.981365,37.232006],[-79.980356,37.231857],[-79.980112,37.23238],[-79.979426,37.232266],[-79.979498,37.231579],[-79.979624,37.230631],[-79.976784,37.236071],[-79.976023,37.233367],[-79.974557,37.231739],[-79.971437,37.229567],[-79.96938,37.225468],[-79.967745,37.221571],[-79.965949,37.219271],[-79.961382,37.216197],[-79.957781,37.21272],[-79.956077,37.210328],[-79.957898,37.209032],[-79.959628,37.207852],[-79.965144,37.207622],[-79.967511,37.203651],[-79.97029,37.201651],[-79.969542,37.201547],[-79.968587,37.201936],[-79.967231,37.202934],[-79.964915,37.204001],[-79.963448,37.204884],[-79.962189,37.205313],[-79.956363,37.205558],[-79.955219,37.20548],[-79.952714,37.204974],[-79.949761,37.203105],[-79.95158,37.200442],[-79.951953,37.197664],[-79.951171,37.194487],[-79.951504,37.194371],[-79.951516,37.191352],[-79.950862,37.189187],[-79.940216,37.185152],[-79.935832,37.183743],[-79.935316,37.179304],[-79.93639,37.17777],[-79.934996,37.177417],[-79.931443,37.17304],[-79.929741,37.168457],[-79.930105,37.166693],[-79.926826,37.163343],[-79.925804,37.165843],[-79.924631,37.163176],[-79.922757,37.160874],[-79.920932,37.16076],[-79.920261,37.161936],[-79.918437,37.162149],[-79.915309,37.165044],[-79.913907,37.165163],[-79.913573,37.16824],[-79.911878,37.169887],[-79.912146,37.172772],[-79.911793,37.177208],[-79.910469,37.178252],[-79.907195,37.179564],[-79.904128,37.179157],[-79.900754,37.179556],[-79.895123,37.181834],[-79.894213,37.183629],[-79.893943,37.18587],[-79.891707,37.187584],[-79.892604,37.189896],[-79.893794,37.190627],[-79.893348,37.191771],[-79.894166,37.197193],[-79.893859,37.199308],[-79.889916,37.20049],[-79.886637,37.200587],[-79.885359,37.202473],[-79.883822,37.20345],[-79.884862,37.20529],[-79.883618,37.207993],[-79.883496,37.209445],[-79.882287,37.209638],[-79.875606,37.2124],[-79.872062,37.215526],[-79.869595,37.216682],[-79.867397,37.216492],[-79.862931,37.216977],[-79.861407,37.217655],[-79.859322,37.21352],[-79.856353,37.213504],[-79.854954,37.214477],[-79.852106,37.214969],[-79.850737,37.216471],[-79.8529,37.218875],[-79.851799,37.21972],[-79.851117,37.221593],[-79.851989,37.223603],[-79.847217,37.225406],[-79.845079,37.227781],[-79.842072,37.230079],[-79.84219,37.232353],[-79.845043,37.239248],[-79.846901,37.241304],[-79.849207,37.243569],[-79.850724,37.248266],[-79.852864,37.250281],[-79.856418,37.251203],[-79.863618,37.251312],[-79.869421,37.254306],[-79.871802,37.254582],[-79.872894,37.253629],[-79.875042,37.254072],[-79.87671,37.256791],[-79.879498,37.257801],[-79.886386,37.258851],[-79.8927,37.261627],[-79.896447,37.264556],[-79.900614,37.265066],[-79.904639,37.266275],[-79.905168,37.265802],[-79.909243,37.266838],[-79.914893,37.266407],[-79.91602,37.265775],[-79.913725,37.260852],[-79.913538,37.259127],[-79.914781,37.255301],[-79.917024,37.252558],[-79.918428,37.25151],[-79.922915,37.252144],[-79.926536,37.253278],[-79.927727,37.254092],[-79.929336,37.256358],[-79.931455,37.257704],[-79.933708,37.261343],[-79.935327,37.261873],[-79.938336,37.259025],[-79.940181,37.257053],[-79.940505,37.254732],[-79.941739,37.252757],[-79.942474,37.252595],[-79.946541,37.253522],[-79.95224,37.256785],[-79.95504,37.254223],[-79.957817,37.253695],[-79.957632,37.252157],[-79.962578,37.249252],[-79.966053,37.248134],[-79.9691,37.245838],[-79.970059,37.247565],[-79.974732,37.245424],[-79.973491,37.244155],[-79.973607,37.241326],[-79.97619,37.238666],[-79.978836,37.233847],[-79.980446,37.234534],[-79.981403,37.233183]]]}},{"type":"Feature","properties":{"zcta5":"24020","AFFGEOID10":"8600000US24020","GEOID10":"24020","ALAND10":708523,"AWATER10":0,"county_name":"Roanoke","state_code":"VA","county_state":"Roanoke County, VA","county_fips":"51161","risk_level_county":"Higher Risk (60–69% vaccinated)","mean_vaccination_rate_county":68.31,"risk_level_zcta":"Uninhabited","mean_vaccination_rate_zips":null,"cases":5},"geometry":{"type":"Polygon","coordinates":[[[-79.949293,37.358288],[-79.947298,37.357261],[-79.946421,37.358187],[-79.944447,37.356713],[-79.944811,37.354122],[-79.941846,37.351934],[-79.940779,37.353588],[-79.937898,37.354984],[-79.939634,37.356038],[-79.940393,37.360376],[-79.939928,37.360566],[-79.945616,37.362997],[-79.951337,37.361713],[-79.949293,37.358288]]]}},{"type":"Feature","properties":{"zcta5":"24059","AFFGEOID10":"8600000US24059","GEOID10":"24059","ALAND10":61372608,"AWATER10":86075,"county_name":"Roanoke","state_code":"VA","county_state":"Roanoke County, VA","county_fips":"51161","risk_level_county":"Higher Risk (60–69% vaccinated)","mean_vaccination_rate_county":68.31,"risk_level_zcta":"Medium Risk (70–79% vaccinated)","mean_vaccination_rate_zips":74.12,"cases":5},"geometry":{"type":"Polygon","coordinates":[[[-80.183552,37.175924],[-80.182106,37.165488],[-80.177677,37.133178],[-80.178125,37.1134],[-80.17538,37.112184],[-80.174427,37.109782],[-80.173492,37.109095],[-80.170192,37.110441],[-80.168666,37.109689],[-80.167195,37.111003],[-80.165712,37.110959],[-80.162137,37.109205],[-80.159283,37.109987],[-80.15798,37.110896],[-80.156011,37.110863],[-80.15135,37.112774],[-80.150871,37.115153],[-80.144062,37.116668],[-80.141904,37.117701],[-80.14253,37.119232],[-80.139378,37.119043],[-80.138279,37.120404],[-80.136746,37.120081],[-80.135919,37.121096],[-80.134084,37.119582],[-80.133008,37.119689],[-80.130311,37.123361],[-80.128674,37.122901],[-80.126417,37.12496],[-80.123868,37.125615],[-80.122008,37.12813],[-80.122166,37.131736],[-80.118986,37.13039],[-80.11789,37.130554],[-80.117417,37.13206],[-80.112983,37.134322],[-80.111531,37.134552],[-80.11014,37.135886],[-80.107287,37.137624],[-80.106837,37.1386],[-80.10698,37.140924],[-80.108408,37.143213],[-80.107856,37.143756],[-80.106642,37.143371],[-80.103615,37.144514],[-80.099833,37.143931],[-80.098295,37.142711],[-80.098761,37.140497],[-80.093206,37.134537],[-80.090674,37.135631],[-80.087503,37.135005],[-80.086275,37.135297],[-80.082788,37.133446],[-80.08049,37.133845],[-80.080846,37.136842],[-80.082226,37.138963],[-80.084732,37.141473],[-80.085859,37.143853],[-80.079392,37.143588],[-80.075672,37.141354],[-80.075571,37.143433],[-80.070578,37.143229],[-80.06396,37.152534],[-80.063119,37.151822],[-80.060906,37.152904],[-80.063887,37.156579],[-80.068836,37.159171],[-80.070274,37.161608],[-80.072906,37.161212],[-80.07383,37.157689],[-80.074699,37.15715],[-80.07739,37.15751],[-80.079589,37.161361],[-80.083665,37.16118],[-80.081546,37.163057],[-80.08042,37.163046],[-80.079288,37.164629],[-80.079727,37.16553],[-80.083875,37.167139],[-80.08645,37.169084],[-80.087055,37.170853],[-80.090399,37.174219],[-80.094677,37.174509],[-80.106821,37.180721],[-80.106317,37.181492],[-80.113582,37.179757],[-80.118453,37.180851],[-80.132553,37.188787],[-80.135743,37.194589],[-80.140462,37.200188],[-80.143349,37.202511],[-80.14827,37.200734],[-80.155876,37.19477],[-80.158498,37.189683],[-80.161135,37.186424],[-80.160695,37.183912],[-80.165476,37.185967],[-80.166782,37.186085],[-80.168476,37.184521],[-80.169428,37.184671],[-80.170913,37.187386],[-80.173908,37.187564],[-80.175218,37.187095],[-80.176529,37.184847],[-80.178233,37.183291],[-80.178209,37.180632],[-80.18055,37.178709],[-80.180991,37.177315],[-80.183552,37.175924]]]}},{"type":"Feature","properties":{"zcta5":"24087","AFFGEOID10":"8600000US24087","GEOID10":"24087","ALAND10":118943329,"AWATER10":583585,"county_name":"Roanoke","state_code":"VA","county_state":"Roanoke County, VA","county_fips":"51161","risk_level_county":"Higher Risk (60–69% vaccinated)","mean_vaccination_rate_county":68.31,"risk_level_zcta":"Medium Risk (70–79% vaccinated)","mean_vaccination_rate_zips":79.99,"cases":5},"geometry":{"type":"Polygon","coordinates":[[[-80.25154,37.300727],[-80.267888,37.290733],[-80.268792,37.288616],[-80.273473,37.284617],[-80.275307,37.283541],[-80.277743,37.280772],[-80.277916,37.279787],[-80.280304,37.277327],[-80.280082,37.276284],[-80.276889,37.2775],[-80.275456,37.276407],[-80.276273,37.273718],[-80.280279,37.27041],[-80.28333,37.269179],[-80.288448,37.267762],[-80.293526,37.265633],[-80.294182,37.264863],[-80.301963,37.262114],[-80.305647,37.258654],[-80.312959,37.256678],[-80.314526,37.255846],[-80.316961,37.251358],[-80.32296,37.248655],[-80.329234,37.244263],[-80.330343,37.242707],[-80.331674,37.239019],[-80.337225,37.235621],[-80.338242,37.234451],[-80.338456,37.233019],[-80.333903,37.227179],[-80.329589,37.227529],[-80.327442,37.22943],[-80.324951,37.228308],[-80.325466,37.226477],[-80.321798,37.224197],[-80.320133,37.222748],[-80.320768,37.221922],[-80.323858,37.221349],[-80.325034,37.219812],[-80.324492,37.217674],[-80.326759,37.215362],[-80.327276,37.214169],[-80.326165,37.212707],[-80.323397,37.211845],[-80.319173,37.211555],[-80.318369,37.21003],[-80.317622,37.206167],[-80.316682,37.204329],[-80.312621,37.201654],[-80.308195,37.203114],[-80.301924,37.203138],[-80.304199,37.202231],[-80.300168,37.200166],[-80.298173,37.197818],[-80.296555,37.198512],[-80.297154,37.199328],[-80.297545,37.20261],[-80.295924,37.197834],[-80.290807,37.197035],[-80.289592,37.1964],[-80.28533,37.195507],[-80.283617,37.194683],[-80.281089,37.192479],[-80.278992,37.191409],[-80.277127,37.19155],[-80.27427,37.193397],[-80.273387,37.192835],[-80.269206,37.195992],[-80.266731,37.195802],[-80.263474,37.197916],[-80.26075,37.197998],[-80.25899,37.199144],[-80.257952,37.202171],[-80.25658,37.202721],[-80.254447,37.202933],[-80.251249,37.201848],[-80.248976,37.200195],[-80.245208,37.199439],[-80.241289,37.20018],[-80.239787,37.200057],[-80.241657,37.196508],[-80.24046,37.19384],[-80.240517,37.191916],[-80.238117,37.189944],[-80.238408,37.187974],[-80.237813,37.185365],[-80.241175,37.184387],[-80.243874,37.182744],[-80.245195,37.181031],[-80.243526,37.17981],[-80.242353,37.177917],[-80.240088,37.177575],[-80.237084,37.175006],[-80.235928,37.172819],[-80.236111,37.169783],[-80.237527,37.166677],[-80.237107,37.164731],[-80.238197,37.163706],[-80.24176,37.162785],[-80.241758,37.160588],[-80.243424,37.156538],[-80.237083,37.154135],[-80.192875,37.163778],[-80.182106,37.165488],[-80.183552,37.175924],[-80.186865,37.199772],[-80.18078,37.207752],[-80.180587,37.210961],[-80.182213,37.210591],[-80.183874,37.209147],[-80.186333,37.212285],[-80.185678,37.215748],[-80.184255,37.21533],[-80.181512,37.217002],[-80.179981,37.215011],[-80.179495,37.213019],[-80.174867,37.221335],[-80.17017,37.231736],[-80.169414,37.235194],[-80.172888,37.235961],[-80.175565,37.234289],[-80.17452,37.235824],[-80.174705,37.235808],[-80.176933,37.234178],[-80.185287,37.23228],[-80.188258,37.233778],[-80.189938,37.233437],[-80.191695,37.233757],[-80.191317,37.233923],[-80.19051,37.234497],[-80.191595,37.234688],[-80.193251,37.235015],[-80.194554,37.23558],[-80.194464,37.237255],[-80.202573,37.241493],[-80.203323,37.246235],[-80.25154,37.300727]]]}},{"type":"Feature","properties":{"zcta5":"24070","AFFGEOID10":"8600000US24070","GEOID10":"24070","ALAND10":149483832,"AWATER10":238588,"county_name":"Roanoke","state_code":"VA","county_state":"Roanoke County, VA","county_fips":"51161","risk_level_county":"Higher Risk (60–69% vaccinated)","mean_vaccination_rate_county":68.31,"risk_level_zcta":"Medium Risk (70–79% vaccinated)","mean_vaccination_rate_zips":76.77,"cases":5},"geometry":{"type":"Polygon","coordinates":[[[-80.32484,37.368833],[-80.316754,37.363915],[-80.318729,37.363183],[-80.317113,37.361433],[-80.318196,37.358251],[-80.320401,37.358068],[-80.321825,37.357168],[-80.321166,37.356461],[-80.32409,37.352879],[-80.325576,37.350549],[-80.3246,37.34883],[-80.325941,37.348359],[-80.325878,37.347112],[-80.324776,37.345374],[-80.327381,37.342242],[-80.326313,37.340598],[-80.326433,37.339334],[-80.325408,37.33794],[-80.319861,37.33884],[-80.31743,37.338845],[-80.310866,37.342087],[-80.309782,37.343888],[-80.309697,37.346207],[-80.305966,37.34604],[-80.302164,37.349747],[-80.302816,37.350429],[-80.301391,37.351676],[-80.29313,37.352988],[-80.291335,37.352254],[-80.294248,37.351811],[-80.294774,37.348672],[-80.295885,37.34784],[-80.296848,37.345744],[-80.297179,37.342718],[-80.295403,37.340641],[-80.293829,37.33497],[-80.293829,37.333371],[-80.292071,37.330402],[-80.290412,37.32617],[-80.283576,37.328514],[-80.280692,37.328591],[-80.27848,37.330083],[-80.275927,37.330652],[-80.274433,37.332891],[-80.272747,37.333756],[-80.271507,37.337104],[-80.267401,37.339583],[-80.266774,37.340811],[-80.264358,37.341524],[-80.262097,37.340734],[-80.258577,37.308702],[-80.251847,37.301075],[-80.247223,37.301699],[-80.244407,37.302659],[-80.242887,37.304931],[-80.241511,37.305811],[-80.240167,37.305651],[-80.237463,37.308099],[-80.234551,37.308579],[-80.233991,37.310851],[-80.228087,37.315411],[-80.221399,37.318627],[-80.214695,37.320099],[-80.210438,37.320595],[-80.206518,37.321539],[-80.203622,37.321715],[-80.199206,37.322531],[-80.196502,37.323683],[-80.193366,37.324083],[-80.187878,37.325379],[-80.184182,37.326627],[-80.180486,37.327235],[-80.177654,37.328403],[-80.17071,37.330579],[-80.165334,37.333539],[-80.162134,37.334355],[-80.158038,37.336371],[-80.155206,37.338531],[-80.150486,37.341379],[-80.143046,37.346451],[-80.138262,37.350611],[-80.134006,37.353859],[-80.131094,37.354627],[-80.129077,37.356965],[-80.128004,37.357333],[-80.125555,37.359687],[-80.124755,37.36108],[-80.121906,37.362633],[-80.117008,37.366636],[-80.113214,37.369423],[-80.110796,37.370432],[-80.108555,37.372225],[-80.103353,37.375604],[-80.100393,37.376149],[-80.096279,37.377623],[-80.092054,37.378618],[-80.090241,37.380346],[-80.093932,37.380927],[-80.09778,37.380376],[-80.100742,37.380482],[-80.103391,37.381238],[-80.101664,37.381878],[-80.100983,37.383142],[-80.096549,37.383891],[-80.092741,37.384128],[-80.092556,37.385436],[-80.085451,37.388421],[-80.083688,37.388515],[-80.082133,37.390466],[-80.079165,37.390653],[-80.070248,37.393407],[-80.067893,37.395154],[-80.064563,37.396772],[-80.066362,37.396659],[-80.065768,37.399411],[-80.06689,37.400032],[-80.073494,37.398222],[-80.075622,37.40032],[-80.076009,37.402131],[-80.07519,37.404587],[-80.069098,37.407327],[-80.063413,37.409294],[-80.074119,37.422469],[-80.07894,37.419448],[-80.079757,37.419325],[-80.088316,37.415472],[-80.090137,37.413634],[-80.091822,37.4127],[-80.095624,37.411564],[-80.098609,37.410236],[-80.102144,37.408091],[-80.104151,37.405639],[-80.10993,37.403127],[-80.110974,37.402369],[-80.115267,37.400713],[-80.12159,37.39713],[-80.128207,37.393854],[-80.129774,37.393314],[-80.138005,37.389267],[-80.143955,37.385601],[-80.14557,37.385041],[-80.146354,37.383808],[-80.147564,37.382547],[-80.156816,37.381754],[-80.156024,37.385927],[-80.156018,37.390646],[-80.156656,37.394936],[-80.156387,37.399237],[-80.153767,37.407238],[-80.153996,37.410681],[-80.152321,37.414259],[-80.150468,37.415836],[-80.146235,37.417057],[-80.148455,37.417168],[-80.151305,37.416212],[-80.154163,37.417587],[-80.155396,37.417571],[-80.156856,37.418961],[-80.158055,37.417995],[-80.156974,37.416571],[-80.156844,37.414758],[-80.160102,37.413671],[-80.16179,37.414105],[-80.164057,37.41304],[-80.16675,37.412628],[-80.170159,37.414228],[-80.169244,37.411936],[-80.174231,37.411228],[-80.1745,37.409882],[-80.177343,37.408072],[-80.179574,37.408185],[-80.182731,37.407061],[-80.185284,37.407017],[-80.190882,37.404913],[-80.192129,37.403774],[-80.195926,37.402801],[-80.201847,37.404023],[-80.203269,37.403718],[-80.205412,37.404277],[-80.206017,37.403656],[-80.205046,37.401826],[-80.20705,37.401128],[-80.208151,37.398271],[-80.210671,37.397814],[-80.212737,37.395863],[-80.214652,37.396077],[-80.215291,37.397886],[-80.217453,37.398259],[-80.223499,37.400848],[-80.225803,37.402671],[-80.228643,37.406996],[-80.228181,37.407848],[-80.22956,37.41084],[-80.230773,37.409198],[-80.232687,37.409148],[-80.234593,37.409926],[-80.23537,37.408484],[-80.237312,37.407772],[-80.236155,37.409752],[-80.238454,37.409417],[-80.237164,37.410628],[-80.237922,37.411754],[-80.238258,37.410504],[-80.239265,37.411432],[-80.243243,37.411969],[-80.245795,37.410708],[-80.248841,37.410711],[-80.25122,37.409582],[-80.253808,37.410038],[-80.260102,37.40706],[-80.257236,37.410827],[-80.267421,37.403133],[-80.278944,37.395813],[-80.285609,37.392326],[-80.291445,37.388829],[-80.300981,37.383666],[-80.313989,37.375905],[-80.31745,37.374129],[-80.32484,37.368833]]]}},{"type":"Feature","properties":{"zcta5":"24018","AFFGEOID10":"8600000US24018","GEOID10":"24018","ALAND10":117547905,"AWATER10":203589,"county_name":"Roanoke","state_code":"VA","county_state":"Roanoke County, VA","county_fips":"51161","risk_level_county":"Higher Risk (60–69% vaccinated)","mean_vaccination_rate_county":68.31,"risk_level_zcta":"Lower Risk (80–84% vaccinated)","mean_vaccination_rate_zips":82.1,"cases":5},"geometry":{"type":"Polygon","coordinates":[[[-80.014253,37.270984],[-80.015608,37.271352],[-80.016225,37.268234],[-80.017754,37.268158],[-80.018446,37.264254],[-80.01962,37.264568],[-80.019261,37.265046],[-80.018968,37.266657],[-80.019738,37.267007],[-80.020962,37.267002],[-80.021695,37.265301],[-80.021077,37.265195],[-80.021043,37.264706],[-80.024978,37.264553],[-80.025914,37.262025],[-80.029997,37.262005],[-80.033464,37.26289],[-80.037477,37.26193],[-80.04078,37.261752],[-80.042646,37.259796],[-80.044982,37.258313],[-80.044775,37.256963],[-80.046261,37.253917],[-80.051202,37.2522],[-80.05143,37.254621],[-80.054992,37.253696],[-80.058844,37.256283],[-80.061659,37.256373],[-80.062077,37.256521],[-80.062224,37.255136],[-80.065506,37.252816],[-80.070001,37.251363],[-80.074639,37.249005],[-80.076927,37.247208],[-80.078377,37.244499],[-80.081718,37.241699],[-80.084521,37.244126],[-80.086697,37.240505],[-80.088427,37.239026],[-80.091646,37.237286],[-80.094606,37.233952],[-80.096703,37.229385],[-80.100512,37.22697],[-80.111042,37.222214],[-80.111981,37.221483],[-80.113554,37.22187],[-80.114499,37.219405],[-80.116646,37.217632],[-80.11805,37.215589],[-80.122274,37.214029],[-80.125503,37.21159],[-80.126766,37.209417],[-80.128291,37.208714],[-80.133017,37.205421],[-80.135761,37.204124],[-80.136337,37.20302],[-80.138765,37.202001],[-80.138498,37.20296],[-80.140462,37.200188],[-80.135743,37.194589],[-80.132553,37.188787],[-80.118453,37.180851],[-80.113582,37.179757],[-80.106317,37.181492],[-80.106821,37.180721],[-80.094677,37.174509],[-80.090399,37.174219],[-80.087055,37.170853],[-80.08645,37.169084],[-80.083875,37.167139],[-80.079727,37.16553],[-80.079288,37.164629],[-80.08042,37.163046],[-80.081546,37.163057],[-80.083665,37.16118],[-80.079589,37.161361],[-80.07739,37.15751],[-80.074699,37.15715],[-80.07383,37.157689],[-80.072906,37.161212],[-80.070274,37.161608],[-80.067523,37.162433],[-80.066031,37.163725],[-80.06105,37.165151],[-80.056657,37.165407],[-80.055059,37.164923],[-80.053241,37.165409],[-80.051327,37.165101],[-80.048925,37.166108],[-80.044604,37.166814],[-80.042668,37.16782],[-80.040421,37.168197],[-80.038543,37.169509],[-80.034363,37.171257],[-80.031688,37.17458],[-80.030635,37.174806],[-80.025052,37.17235],[-80.023379,37.170431],[-80.015098,37.171535],[-80.013559,37.172482],[-80.0092,37.172708],[-80.008398,37.172382],[-80.007241,37.169165],[-80.004964,37.168062],[-80.003114,37.169755],[-80.002019,37.175534],[-79.999737,37.178711],[-80.001406,37.182879],[-80.002271,37.190041],[-80.000609,37.19303],[-80.000316,37.192649],[-79.999672,37.191603],[-79.999229,37.191159],[-79.998797,37.190948],[-79.998098,37.190824],[-79.997599,37.190871],[-79.996665,37.191163],[-79.996479,37.191227],[-79.995241,37.188765],[-79.992581,37.187299],[-79.991997,37.186187],[-79.992479,37.184472],[-79.990181,37.179958],[-79.988101,37.177232],[-79.985474,37.172532],[-79.984351,37.172017],[-79.98202,37.172893],[-79.981467,37.177483],[-79.979075,37.179533],[-79.977299,37.180401],[-79.974634,37.178836],[-79.972966,37.180611],[-79.97103,37.181766],[-79.971601,37.184744],[-79.960156,37.192712],[-79.960156,37.194035],[-79.958397,37.194099],[-79.958,37.193189],[-79.954505,37.191609],[-79.953507,37.194602],[-79.953815,37.195492],[-79.951504,37.194371],[-79.951171,37.194487],[-79.951953,37.197664],[-79.95158,37.200442],[-79.949761,37.203105],[-79.952714,37.204974],[-79.955219,37.20548],[-79.956363,37.205558],[-79.962189,37.205313],[-79.963448,37.204884],[-79.964915,37.204001],[-79.967231,37.202934],[-79.968587,37.201936],[-79.969542,37.201547],[-79.97029,37.201651],[-79.967511,37.203651],[-79.965144,37.207622],[-79.959628,37.207852],[-79.957898,37.209032],[-79.956077,37.210328],[-79.957781,37.21272],[-79.961382,37.216197],[-79.965949,37.219271],[-79.967745,37.221571],[-79.96938,37.225468],[-79.971437,37.229567],[-79.974557,37.231739],[-79.976023,37.233367],[-79.976784,37.236071],[-79.979624,37.230631],[-79.979498,37.231579],[-79.979426,37.232266],[-79.980112,37.23238],[-79.980356,37.231857],[-79.981365,37.232006],[-79.981403,37.233183],[-79.984721,37.236164],[-79.984913,37.237082],[-79.988568,37.236679],[-79.988175,37.237319],[-79.987061,37.239034],[-79.985826,37.24004],[-79.990105,37.240749],[-79.989541,37.242713],[-79.99467,37.240983],[-79.996573,37.239838],[-79.998691,37.240929],[-79.998541,37.241188],[-79.996857,37.240926],[-79.996372,37.241159],[-79.996852,37.24185],[-79.995973,37.242438],[-79.997086,37.242703],[-79.997616,37.245411],[-79.99328,37.24569],[-79.997185,37.248825],[-79.996944,37.250868],[-79.998191,37.252158],[-79.999073,37.25355],[-80.000573,37.253054],[-80.000448,37.254576],[-80.001889,37.257808],[-79.999447,37.257649],[-80.000307,37.258686],[-80.000518,37.261818],[-79.998785,37.262896],[-79.997931,37.266092],[-79.998817,37.266233],[-80.002687,37.268665],[-80.008241,37.271594],[-80.008822,37.271597],[-80.011307,37.270872],[-80.014253,37.270984]],[[-79.994474,37.23807],[-79.994435,37.238628],[-79.994009,37.239342],[-79.993539,37.23952],[-79.994004,37.240467],[-79.993959,37.240437],[-79.991647,37.240899],[-79.99149,37.240333],[-79.991975,37.239844],[-79.992395,37.238961],[-79.993244,37.238663],[-79.993006,37.237972],[-79.993447,37.237627],[-79.994159,37.237704],[-79.994474,37.23807]]]}},{"type":"Feature","properties":{"zcta5":"24015","AFFGEOID10":"8600000US24015","GEOID10":"24015","ALAND10":11670733,"AWATER10":99088,"county_name":"Roanoke","state_code":"VA","county_state":"Roanoke County, VA","county_fips":"51161","risk_level_county":"Higher Risk (60–69% vaccinated)","mean_vaccination_rate_county":68.31,"risk_level_zcta":"Lower Risk (80–84% vaccinated)","mean_vaccination_rate_zips":83.32,"cases":5},"geometry":{"type":"MultiPolygon","coordinates":[[[[-79.994474,37.23807],[-79.994159,37.237704],[-79.993447,37.237627],[-79.993006,37.237972],[-79.993244,37.238663],[-79.992395,37.238961],[-79.991975,37.239844],[-79.99149,37.240333],[-79.991647,37.240899],[-79.993959,37.240437],[-79.994004,37.240467],[-79.993539,37.23952],[-79.994009,37.239342],[-79.994435,37.238628],[-79.994474,37.23807]]],[[[-79.997931,37.266092],[-79.998785,37.262896],[-80.000518,37.261818],[-80.000307,37.258686],[-79.999447,37.257649],[-80.001889,37.257808],[-80.000448,37.254576],[-80.000573,37.253054],[-79.999073,37.25355],[-79.998191,37.252158],[-79.996944,37.250868],[-79.997185,37.248825],[-79.99328,37.24569],[-79.997616,37.245411],[-79.997086,37.242703],[-79.995973,37.242438],[-79.996852,37.24185],[-79.996372,37.241159],[-79.996857,37.240926],[-79.998541,37.241188],[-79.998691,37.240929],[-79.996573,37.239838],[-79.99467,37.240983],[-79.989541,37.242713],[-79.990105,37.240749],[-79.985826,37.24004],[-79.987061,37.239034],[-79.988175,37.237319],[-79.988568,37.236679],[-79.984913,37.237082],[-79.984721,37.236164],[-79.981403,37.233183],[-79.980446,37.234534],[-79.978836,37.233847],[-79.97619,37.238666],[-79.973607,37.241326],[-79.973491,37.244155],[-79.974732,37.245424],[-79.970059,37.247565],[-79.9691,37.245838],[-79.966053,37.248134],[-79.962578,37.249252],[-79.957632,37.252157],[-79.957817,37.253695],[-79.95504,37.254223],[-79.95224,37.256785],[-79.956583,37.258008],[-79.957069,37.259831],[-79.956054,37.265091],[-79.956268,37.26634],[-79.958306,37.268289],[-79.959498,37.268848],[-79.961641,37.268819],[-79.963223,37.267065],[-79.966054,37.265223],[-79.967564,37.265765],[-79.967255,37.267783],[-79.968058,37.268761],[-79.971936,37.26981],[-79.976063,37.273979],[-79.978955,37.274979],[-79.983141,37.274171],[-79.984698,37.272703],[-79.986359,37.273115],[-79.988824,37.27489],[-79.992574,37.273289],[-79.993864,37.269923],[-79.996063,37.267203],[-79.997931,37.266092]]]]}},{"type":"Feature","properties":{"zcta5":"24012","AFFGEOID10":"8600000US24012","GEOID10":"24012","ALAND10":52920191,"AWATER10":119642,"county_name":"Roanoke","state_code":"VA","county_state":"Roanoke County, VA","county_fips":"51161","risk_level_county":"Higher Risk (60–69% vaccinated)","mean_vaccination_rate_county":68.31,"risk_level_zcta":"Medium Risk (70–79% vaccinated)","mean_vaccination_rate_zips":74.9,"cases":5},"geometry":{"type":"Polygon","coordinates":[[[-79.864789,37.354618],[-79.872168,37.349668],[-79.867034,37.332797],[-79.868511,37.33323],[-79.866584,37.330508],[-79.865016,37.329344],[-79.865684,37.328668],[-79.865882,37.328752],[-79.87358,37.321188],[-79.879525,37.326395],[-79.881473,37.325169],[-79.882483,37.325798],[-79.881232,37.327165],[-79.882361,37.328179],[-79.885301,37.326951],[-79.88589,37.329823],[-79.884753,37.332027],[-79.886672,37.333063],[-79.889418,37.33305],[-79.890602,37.334089],[-79.890957,37.335501],[-79.887937,37.338251],[-79.892612,37.340267],[-79.897025,37.340857],[-79.899259,37.338295],[-79.901716,37.337635],[-79.905227,37.33426],[-79.908323,37.328628],[-79.906224,37.325053],[-79.90607,37.3239],[-79.90871,37.320339],[-79.907114,37.320961],[-79.90546,37.321835],[-79.901744,37.317957],[-79.904325,37.315753],[-79.904814,37.314511],[-79.90749,37.312869],[-79.907917,37.311781],[-79.9123,37.308211],[-79.913958,37.305003],[-79.9172,37.301235],[-79.919825,37.302797],[-79.923336,37.303363],[-79.924858,37.305108],[-79.927704,37.307362],[-79.927873,37.308097],[-79.926241,37.310275],[-79.927186,37.310769],[-79.928688,37.310134],[-79.929957,37.31085],[-79.93241,37.313836],[-79.932252,37.314935],[-79.930192,37.31712],[-79.929189,37.319669],[-79.931871,37.320541],[-79.939777,37.321727],[-79.941857,37.321595],[-79.942286,37.322537],[-79.937626,37.32334],[-79.936822,37.321436],[-79.93483,37.322032],[-79.937271,37.325401],[-79.939393,37.324247],[-79.94035,37.325235],[-79.943749,37.325652],[-79.945187,37.325097],[-79.947265,37.326427],[-79.948462,37.328322],[-79.950668,37.329954],[-79.952061,37.329942],[-79.954482,37.333106],[-79.958315,37.334894],[-79.963772,37.335532],[-79.964967,37.336672],[-79.9673,37.337629],[-79.968633,37.337419],[-79.968618,37.336917],[-79.967083,37.337219],[-79.966955,37.336442],[-79.96781,37.336455],[-79.968566,37.334103],[-79.976334,37.328694],[-79.977798,37.328089],[-79.978899,37.330105],[-79.980824,37.330847],[-79.982909,37.330006],[-79.983275,37.328765],[-79.982087,37.326957],[-79.981687,37.32494],[-79.985154,37.322836],[-79.983961,37.32106],[-79.981867,37.320417],[-79.978613,37.31565],[-79.977969,37.313513],[-79.974578,37.310894],[-79.973602,37.312391],[-79.971237,37.312291],[-79.970405,37.311249],[-79.967598,37.313184],[-79.967295,37.314098],[-79.968135,37.317577],[-79.966354,37.313453],[-79.970844,37.310428],[-79.974025,37.308779],[-79.968668,37.303968],[-79.958738,37.297288],[-79.959916,37.294989],[-79.957867,37.292161],[-79.954488,37.291485],[-79.954343,37.289559],[-79.952116,37.288553],[-79.947905,37.287553],[-79.946492,37.28929],[-79.943771,37.288224],[-79.944877,37.287868],[-79.943556,37.286812],[-79.941498,37.284023],[-79.941185,37.282516],[-79.938504,37.282265],[-79.938729,37.28505],[-79.937599,37.283779],[-79.9342,37.283113],[-79.933578,37.282257],[-79.927038,37.282538],[-79.927199,37.280536],[-79.928213,37.279436],[-79.929592,37.275977],[-79.932885,37.274415],[-79.93589,37.27369],[-79.935977,37.272447],[-79.929634,37.273577],[-79.925087,37.277436],[-79.91783,37.27954],[-79.917601,37.280899],[-79.91279,37.281852],[-79.90947,37.283664],[-79.908657,37.283116],[-79.906074,37.284593],[-79.903624,37.281651],[-79.901367,37.284604],[-79.89893,37.283172],[-79.89616,37.283553],[-79.886377,37.291299],[-79.883417,37.293885],[-79.880985,37.291954],[-79.885644,37.288396],[-79.884319,37.287344],[-79.885401,37.286233],[-79.887434,37.287749],[-79.888895,37.286852],[-79.889885,37.284269],[-79.884236,37.283686],[-79.882873,37.285843],[-79.880498,37.287843],[-79.880444,37.290579],[-79.87855,37.29189],[-79.879245,37.294973],[-79.879723,37.297104],[-79.875632,37.300713],[-79.874622,37.301995],[-79.87403,37.303182],[-79.873564,37.305486],[-79.871437,37.305091],[-79.869096,37.303423],[-79.865784,37.30741],[-79.86022,37.311615],[-79.858795,37.313214],[-79.858187,37.314627],[-79.857699,37.320408],[-79.847476,37.309352],[-79.844696,37.313029],[-79.845304,37.313877],[-79.844607,37.315177],[-79.844198,37.31775],[-79.841848,37.319109],[-79.840408,37.319365],[-79.837912,37.321669],[-79.8362,37.321925],[-79.835864,37.323157],[-79.832728,37.324965],[-79.830312,37.325349],[-79.824152,37.329253],[-79.821799,37.329957],[-79.820209,37.33103],[-79.83295,37.33861],[-79.833248,37.339429],[-79.836121,37.342208],[-79.837352,37.341986],[-79.838491,37.34327],[-79.834456,37.347264],[-79.834368,37.348182],[-79.821985,37.352894],[-79.819922,37.353977],[-79.821141,37.354461],[-79.820671,37.355703],[-79.821542,37.357247],[-79.820477,37.357537],[-79.818385,37.355998],[-79.818178,37.357611],[-79.818769,37.357396],[-79.817801,37.358589],[-79.822006,37.360768],[-79.823462,37.362689],[-79.825731,37.361599],[-79.832256,37.358223],[-79.835553,37.355448],[-79.844289,37.346491],[-79.84908,37.342702],[-79.848303,37.34393],[-79.848,37.34586],[-79.849585,37.346379],[-79.849326,37.347307],[-79.860381,37.352543],[-79.863918,37.353816],[-79.864789,37.354618]]]}},{"type":"Feature","properties":{"zcta5":"24101","AFFGEOID10":"8600000US24101","GEOID10":"24101","ALAND10":143787140,"AWATER10":4208256,"county_name":"Roanoke","state_code":"VA","county_state":"Roanoke County, VA","county_fips":"51161","risk_level_county":"Higher Risk (60–69% vaccinated)","mean_vaccination_rate_county":68.31,"risk_level_zcta":"Medium Risk (70–79% vaccinated)","mean_vaccination_rate_zips":77.21,"cases":5},"geometry":{"type":"Polygon","coordinates":[[[-79.847217,37.225406],[-79.851989,37.223603],[-79.851117,37.221593],[-79.851799,37.21972],[-79.8529,37.218875],[-79.850737,37.216471],[-79.852106,37.214969],[-79.854954,37.214477],[-79.856353,37.213504],[-79.859322,37.21352],[-79.861407,37.217655],[-79.862931,37.216977],[-79.867397,37.216492],[-79.869595,37.216682],[-79.872062,37.215526],[-79.875606,37.2124],[-79.882287,37.209638],[-79.883496,37.209445],[-79.883618,37.207993],[-79.884862,37.20529],[-79.883822,37.20345],[-79.885359,37.202473],[-79.886637,37.200587],[-79.889916,37.20049],[-79.893859,37.199308],[-79.894166,37.197193],[-79.893348,37.191771],[-79.893794,37.190627],[-79.892604,37.189896],[-79.891707,37.187584],[-79.893943,37.18587],[-79.894213,37.183629],[-79.895123,37.181834],[-79.900754,37.179556],[-79.904128,37.179157],[-79.907195,37.179564],[-79.910469,37.178252],[-79.911793,37.177208],[-79.912146,37.172772],[-79.911878,37.169887],[-79.910402,37.171459],[-79.907769,37.171783],[-79.905711,37.171244],[-79.902294,37.169542],[-79.901204,37.166773],[-79.895158,37.159977],[-79.890771,37.157993],[-79.88907,37.156006],[-79.885095,37.157403],[-79.88349,37.157474],[-79.881139,37.156045],[-79.879309,37.155844],[-79.876234,37.157101],[-79.874358,37.154576],[-79.871878,37.15544],[-79.868901,37.154605],[-79.866936,37.153117],[-79.864404,37.153135],[-79.862593,37.155399],[-79.857699,37.156363],[-79.855962,37.154907],[-79.852035,37.154826],[-79.85141,37.153508],[-79.84933,37.15236],[-79.844587,37.152532],[-79.842761,37.152142],[-79.84182,37.151467],[-79.836972,37.145929],[-79.836216,37.143886],[-79.836984,37.140825],[-79.835371,37.140007],[-79.835199,37.138963],[-79.833634,37.139112],[-79.827513,37.138113],[-79.82638,37.13903],[-79.824129,37.138234],[-79.824287,37.137399],[-79.820245,37.136377],[-79.817918,37.137059],[-79.817115,37.136475],[-79.817565,37.134697],[-79.81591,37.134264],[-79.815722,37.136405],[-79.813719,37.138097],[-79.809774,37.13979],[-79.80838,37.137342],[-79.805591,37.138426],[-79.804605,37.135663],[-79.803391,37.134042],[-79.80337,37.132515],[-79.805251,37.13102],[-79.803913,37.128866],[-79.802218,37.127729],[-79.800983,37.127833],[-79.798629,37.126069],[-79.79766,37.123821],[-79.798264,37.123018],[-79.795327,37.122414],[-79.793845,37.124375],[-79.789947,37.124973],[-79.789029,37.128073],[-79.785359,37.126545],[-79.784007,37.127353],[-79.782436,37.126951],[-79.782361,37.125323],[-79.780717,37.127819],[-79.778139,37.128141],[-79.773667,37.12679],[-79.765118,37.125964],[-79.76279,37.126473],[-79.759568,37.128088],[-79.751445,37.127535],[-79.746849,37.125187],[-79.741569,37.124756],[-79.739791,37.124153],[-79.737909,37.122657],[-79.73509,37.121913],[-79.735692,37.120787],[-79.733628,37.118199],[-79.736814,37.114879],[-79.736863,37.112176],[-79.735197,37.111423],[-79.734051,37.109572],[-79.731972,37.108534],[-79.729905,37.105837],[-79.728842,37.105316],[-79.731653,37.103936],[-79.731598,37.102309],[-79.733313,37.10355],[-79.733978,37.101957],[-79.732996,37.100869],[-79.73219,37.101617],[-79.728021,37.101971],[-79.722235,37.103804],[-79.721048,37.104496],[-79.717584,37.107782],[-79.715333,37.109363],[-79.715417,37.112139],[-79.713397,37.115929],[-79.715271,37.119591],[-79.712692,37.120272],[-79.709687,37.1222],[-79.707907,37.125322],[-79.711779,37.127672],[-79.712292,37.129521],[-79.710558,37.132351],[-79.71026,37.135125],[-79.709605,37.135593],[-79.704926,37.136626],[-79.703464,37.138648],[-79.701536,37.139506],[-79.701475,37.142264],[-79.702587,37.144769],[-79.70186,37.14567],[-79.704022,37.146291],[-79.704859,37.145038],[-79.70499,37.146142],[-79.706957,37.147482],[-79.704648,37.151486],[-79.707145,37.1545],[-79.70721,37.157226],[-79.70891,37.16055],[-79.710819,37.161955],[-79.71119,37.164337],[-79.709043,37.16809],[-79.709354,37.169293],[-79.711918,37.17392],[-79.717559,37.18216],[-79.718392,37.184657],[-79.717667,37.188148],[-79.718762,37.190097],[-79.722359,37.192307],[-79.724421,37.192592],[-79.726572,37.191854],[-79.729086,37.18881],[-79.730576,37.187739],[-79.732867,37.187033],[-79.734405,37.187242],[-79.739703,37.189271],[-79.742712,37.189287],[-79.74767,37.189942],[-79.750539,37.189081],[-79.754348,37.189581],[-79.756344,37.189529],[-79.757703,37.189968],[-79.75994,37.192603],[-79.761177,37.195979],[-79.760798,37.1999],[-79.762093,37.201387],[-79.764515,37.200739],[-79.765488,37.199426],[-79.765586,37.197675],[-79.769456,37.197998],[-79.772802,37.201021],[-79.776606,37.202627],[-79.77744,37.203621],[-79.77833,37.205535],[-79.779924,37.213422],[-79.777316,37.214902],[-79.774431,37.215212],[-79.774203,37.216826],[-79.775531,37.220362],[-79.777844,37.222004],[-79.780375,37.224615],[-79.781024,37.226699],[-79.780634,37.229769],[-79.779887,37.231513],[-79.782145,37.232729],[-79.783208,37.234822],[-79.788446,37.236515],[-79.788183,37.239851],[-79.789929,37.240543],[-79.79019,37.242828],[-79.790802,37.241532],[-79.79474,37.240923],[-79.796478,37.242489],[-79.797647,37.240494],[-79.799515,37.24294],[-79.802147,37.244215],[-79.804161,37.243209],[-79.80515,37.245039],[-79.806978,37.245968],[-79.806277,37.248072],[-79.806884,37.25135],[-79.806142,37.253125],[-79.806568,37.254328],[-79.809042,37.256607],[-79.813162,37.255762],[-79.816039,37.256395],[-79.819811,37.258597],[-79.821904,37.259019],[-79.824811,37.257686],[-79.828288,37.257547],[-79.830288,37.258392],[-79.833538,37.257538],[-79.834128,37.255922],[-79.833855,37.253788],[-79.832885,37.252243],[-79.830217,37.250706],[-79.828667,37.247353],[-79.831012,37.245847],[-79.830427,37.244818],[-79.831313,37.243994],[-79.831917,37.238632],[-79.832329,37.237637],[-79.831361,37.23375],[-79.830493,37.232424],[-79.829319,37.228621],[-79.828098,37.22777],[-79.826245,37.227543],[-79.819612,37.228022],[-79.81506,37.226063],[-79.810129,37.225633],[-79.809473,37.225195],[-79.807837,37.222967],[-79.806377,37.22172],[-79.806884,37.220128],[-79.806117,37.218966],[-79.80635,37.217715],[-79.801451,37.217163],[-79.803614,37.215525],[-79.806065,37.215174],[-79.807896,37.216589],[-79.809709,37.220175],[-79.818161,37.226201],[-79.819572,37.226405],[-79.822065,37.225876],[-79.823959,37.223555],[-79.826018,37.22284],[-79.829775,37.224557],[-79.83115,37.222453],[-79.830193,37.219651],[-79.833008,37.216049],[-79.835871,37.216368],[-79.838675,37.216154],[-79.842677,37.216547],[-79.843594,37.216952],[-79.844689,37.218269],[-79.847328,37.223308],[-79.847217,37.225406]]]}}]}