{"type":"FeatureCollection","features":[{"type":"Feature","properties":{"zcta5":"28369","AFFGEOID10":"8600000US28369","GEOID10":"28369","ALAND10":192035109,"AWATER10":163323,"county_name":"Robeson","state_code":"NC","county_state":"Robeson County, NC","county_fips":"37155","risk_level_county":"Very High Risk (<60% vaccinated)","mean_vaccination_rate_county":51.87,"risk_level_zcta":"Medium Risk (70–79% vaccinated)","mean_vaccination_rate_zips":72.62,"cases":2},"geometry":{"type":"Polygon","coordinates":[[[-79.041399,34.477361],[-79.049093,34.479265],[-79.051879,34.466569],[-79.041423,34.463268],[-79.03936,34.463207],[-79.039954,34.459616],[-79.040637,34.458476],[-79.037926,34.456024],[-79.036986,34.449833],[-79.037422,34.443954],[-79.03858,34.439195],[-79.038549,34.435241],[-79.039078,34.433802],[-79.045027,34.437971],[-79.046991,34.434244],[-79.051085,34.425079],[-79.054589,34.424493],[-79.056398,34.423318],[-79.060668,34.417948],[-79.062312,34.417411],[-79.070005,34.416501],[-79.072556,34.424517],[-79.076219,34.424365],[-79.075992,34.422185],[-79.077118,34.421685],[-79.078255,34.418865],[-79.080244,34.420025],[-79.083423,34.423917],[-79.083534,34.427031],[-79.086681,34.42703],[-79.094226,34.42319],[-79.094689,34.422342],[-79.10047,34.424713],[-79.104541,34.425713],[-79.109199,34.426258],[-79.111186,34.42219],[-79.112639,34.420176],[-79.112489,34.417337],[-79.110441,34.412323],[-79.111767,34.410582],[-79.110052,34.408339],[-79.112566,34.405773],[-79.112564,34.403483],[-79.110906,34.402316],[-79.108002,34.397669],[-79.105432,34.395861],[-79.103912,34.39332],[-79.103798,34.387343],[-79.101843,34.383813],[-79.097304,34.37933],[-79.094911,34.375164],[-79.091499,34.37202],[-79.086527,34.371666],[-79.085311,34.370841],[-79.080423,34.36908],[-79.075839,34.362485],[-79.074651,34.35857],[-79.07835,34.355409],[-79.080115,34.352261],[-79.080712,34.350164],[-79.082042,34.347891],[-79.086166,34.343955],[-79.090287,34.341444],[-79.093716,34.339873],[-79.100845,34.335803],[-79.106034,34.332367],[-79.10880981613849,34.330876919778895],[-79.07125513793659,34.2993123985096],[-79.0712438523822,34.299302913057005],[-79.068937,34.301059],[-79.070323,34.303009],[-79.067235,34.30347],[-79.069701,34.305385],[-79.068259,34.305641],[-79.068051,34.30714],[-79.066847,34.306905],[-79.066078,34.308306],[-79.064782,34.308582],[-79.063309,34.307546],[-79.061769,34.308292],[-79.061691,34.307223],[-79.06053,34.30686],[-79.058387,34.308876],[-79.05556,34.308708],[-79.05481,34.30972],[-79.057374,34.309783],[-79.05756,34.310852],[-79.055836,34.313184],[-79.052881,34.314635],[-79.051256,34.314764],[-79.049973,34.313908],[-79.049217,34.311746],[-79.045405,34.310711],[-79.041262,34.312324],[-79.038597,34.313041],[-79.037452,34.314559],[-79.037149,34.316105],[-79.038331,34.317262],[-79.040329,34.31744],[-79.038507,34.318396],[-79.039307,34.319593],[-79.036431,34.321351],[-79.03685,34.320088],[-79.035378,34.319295],[-79.0344,34.322571],[-79.034668,34.323602],[-79.03383,34.324784],[-79.034454,34.32552],[-79.036697,34.325738],[-79.036444,34.326969],[-79.034913,34.327188],[-79.036415,34.328596],[-79.034759,34.329886],[-79.037226,34.332262],[-79.037295,34.332991],[-79.036769,34.334205],[-79.035004,34.333874],[-79.035297,34.337047],[-79.034059,34.336772],[-79.034323,34.338545],[-79.032782,34.338966],[-79.030443,34.340488],[-79.031984,34.341273],[-79.032248,34.342738],[-79.028893,34.342496],[-79.028738,34.345491],[-79.030533,34.34647],[-79.030045,34.347142],[-79.028504,34.346827],[-79.026818,34.348859],[-79.025474,34.347827],[-79.025882,34.350074],[-79.024966,34.351669],[-79.027004,34.35187],[-79.027248,34.352898],[-79.026341,34.353457],[-79.023679,34.352171],[-79.022421,34.353223],[-79.021855,34.351685],[-79.020519,34.352317],[-79.018519,34.352155],[-79.018703,34.350759],[-79.017173,34.350019],[-79.0169,34.351735],[-79.015174,34.351638],[-79.013692,34.352269],[-79.010893,34.352156],[-79.010873,34.352885],[-79.008971,34.35299],[-79.010249,34.355354],[-79.009625,34.356293],[-79.007928,34.356803],[-79.007548,34.358276],[-79.005627,34.359296],[-79.005871,34.36013],[-79.007734,34.360599],[-79.008094,34.361352],[-79.006211,34.361267],[-79.0051,34.36183],[-79.003822,34.361231],[-79.004144,34.362648],[-79.001189,34.363886],[-79.000779,34.364655],[-79.002164,34.365473],[-79.002828,34.36455],[-79.003384,34.368322],[-79.002875,34.368768],[-79.00492,34.369704],[-79.004619,34.371194],[-79.005628,34.372895],[-79.007408,34.372501],[-79.00717,34.374146],[-79.007592,34.37702],[-79.009431,34.378093],[-79.010004,34.380334],[-79.011081,34.379926],[-79.011611,34.380887],[-79.008765,34.382313],[-79.006767,34.381535],[-79.007135,34.383054],[-79.005494,34.383944],[-79.002574,34.384108],[-79.000914,34.386519],[-79.000194,34.388753],[-78.998444,34.391098],[-78.997627,34.390596],[-78.994896,34.390352],[-78.994992,34.392574],[-78.991279,34.392679],[-78.988827,34.393946],[-78.987822,34.393038],[-78.984462,34.393195],[-78.983535,34.393843],[-78.983089,34.392574],[-78.978333,34.392259],[-78.979651,34.391185],[-78.976927,34.390425],[-78.975218,34.391841],[-78.973868,34.391897],[-78.973689,34.3927],[-78.975296,34.39337],[-78.975876,34.395768],[-78.973956,34.394749],[-78.972471,34.395758],[-78.969903,34.395156],[-78.970416,34.396462],[-78.968406,34.397137],[-78.969455,34.39849],[-78.969086,34.399749],[-78.96989,34.401213],[-78.967176,34.402138],[-78.968069,34.40288],[-78.967867,34.405602],[-78.969196,34.405612],[-78.968336,34.407047],[-78.968793,34.408335],[-78.967284,34.41078],[-78.968323,34.411419],[-78.970311,34.409558],[-78.970556,34.41128],[-78.967998,34.412789],[-78.969696,34.412984],[-78.970208,34.415587],[-78.96803,34.416355],[-78.968533,34.417161],[-78.971447,34.417329],[-78.971447,34.418866],[-78.969392,34.419116],[-78.969145,34.420736],[-78.96766,34.42169],[-78.967626,34.42256],[-78.969435,34.422681],[-78.970004,34.42408],[-78.968351,34.425311],[-78.970026,34.425997],[-78.971164,34.427248],[-78.969779,34.429498],[-78.967813,34.429988],[-78.966483,34.431836],[-78.966258,34.435221],[-78.962158,34.43759],[-78.960783,34.439285],[-78.960011,34.442684],[-78.957921,34.443285],[-78.956767,34.442855],[-78.955374,34.444516],[-78.953956,34.443413],[-78.9542,34.445701],[-78.951808,34.448756],[-78.949484,34.449024],[-78.948321,34.449968],[-78.947179,34.449241],[-78.946056,34.449909],[-78.946034,34.451851],[-78.942756,34.452926],[-78.94308,34.453763],[-78.941806,34.454983],[-78.943203,34.457419],[-78.94296,34.458269],[-78.94407,34.46051],[-78.946614,34.462412],[-78.949232,34.463743],[-78.952054,34.467231],[-78.971006,34.4875],[-78.98544,34.496678],[-78.989743,34.500167],[-78.998378,34.50017],[-78.999309,34.501759],[-78.995579,34.504885],[-78.994913,34.50604],[-78.994029,34.504479],[-78.992551,34.503509],[-78.989171,34.502722],[-78.984309,34.502901],[-78.982488,34.502388],[-78.979721,34.500056],[-78.978452,34.499612],[-78.977866,34.50101],[-78.974508,34.505039],[-78.978658,34.507811],[-78.982931,34.50988],[-78.985355,34.511669],[-78.981571,34.514696],[-78.978196,34.516781],[-78.97967,34.520482],[-78.982759,34.519234],[-78.98367,34.520154],[-78.984753,34.526633],[-78.986264,34.526677],[-78.990669,34.524437],[-78.993047,34.525038],[-78.995551,34.52755],[-78.996953,34.530815],[-78.996481,34.531486],[-78.998236,34.532664],[-79.000534,34.535899],[-79.008181,34.523864],[-79.00985,34.526614],[-79.015235,34.529481],[-79.016781,34.529986],[-79.019565,34.538432],[-79.023228,34.534937],[-79.024716,34.534697],[-79.024578,34.533723],[-79.029435,34.529075],[-79.02899,34.525693],[-79.030338,34.524121],[-79.031822,34.522707],[-79.034863,34.521339],[-79.045422,34.517971],[-79.051034,34.514894],[-79.055304,34.510678],[-79.059377,34.508454],[-79.060846,34.505024],[-79.062063,34.504039],[-79.06262,34.501651],[-79.06055,34.500373],[-79.052822,34.497097],[-79.056175,34.49265],[-79.067093,34.496222],[-79.068361,34.495354],[-79.070935,34.491812],[-79.071685,34.489629],[-79.076791,34.486427],[-79.078405,34.481899],[-79.080887,34.478976],[-79.082459,34.478389],[-79.074831,34.474298],[-79.072049,34.4732],[-79.071079,34.474461],[-79.065843,34.472807],[-79.051112,34.494468],[-79.04952,34.493772],[-79.049008,34.495382],[-79.044022,34.492233],[-79.03807,34.485309],[-79.040863,34.48257],[-79.041456,34.481461],[-79.034573,34.481469],[-79.035852,34.476406],[-79.033541,34.47599],[-79.032476,34.474222],[-79.036234,34.474918],[-79.037795,34.468818],[-79.041984,34.469658],[-79.042347,34.472942],[-79.041544,34.473972],[-79.041399,34.477361]]]}},{"type":"Feature","properties":{"zcta5":"28358","AFFGEOID10":"8600000US28358","GEOID10":"28358","ALAND10":517130622,"AWATER10":986008,"county_name":"Robeson","state_code":"NC","county_state":"Robeson County, NC","county_fips":"37155","risk_level_county":"Very High Risk (<60% vaccinated)","mean_vaccination_rate_county":51.87,"risk_level_zcta":"Higher Risk (60–69% vaccinated)","mean_vaccination_rate_zips":62.91,"cases":2},"geometry":{"type":"Polygon","coordinates":[[[-79.151859,34.576736],[-79.147675,34.573675],[-79.140328,34.566804],[-79.138792,34.565946],[-79.131412,34.562898],[-79.13037,34.562271],[-79.12942,34.564282],[-79.129498,34.569537],[-79.121105,34.571619],[-79.119198,34.572508],[-79.116099,34.5773],[-79.112499,34.576286],[-79.110796,34.574799],[-79.110507,34.572931],[-79.108779,34.570175],[-79.106623,34.568322],[-79.100435,34.564367],[-79.095598,34.560398],[-79.092645,34.557195],[-79.087909,34.55649],[-79.088971,34.554312],[-79.092669,34.550524],[-79.089658,34.548423],[-79.090668,34.548107],[-79.08822,34.544084],[-79.086056,34.544806],[-79.084682,34.543377],[-79.078613,34.548054],[-79.076214,34.543959],[-79.07406,34.541806],[-79.070795,34.540291],[-79.06971,34.540253],[-79.06218,34.542627],[-79.058684,34.542634],[-79.056222,34.543512],[-79.050801,34.544529],[-79.046364,34.541951],[-79.045414,34.54111],[-79.044538,34.541874],[-79.041223,34.541123],[-79.036954,34.541044],[-79.034803,34.538474],[-79.028456,34.540358],[-79.025786,34.537273],[-79.024716,34.534697],[-79.023228,34.534937],[-79.019565,34.538432],[-79.016781,34.529986],[-79.015235,34.529481],[-79.00985,34.526614],[-79.008181,34.523864],[-79.000534,34.535899],[-78.998236,34.532664],[-78.996481,34.531486],[-78.996953,34.530815],[-78.995551,34.52755],[-78.993047,34.525038],[-78.990669,34.524437],[-78.986264,34.526677],[-78.984753,34.526633],[-78.98367,34.520154],[-78.982759,34.519234],[-78.97967,34.520482],[-78.978196,34.516781],[-78.981571,34.514696],[-78.985355,34.511669],[-78.982931,34.50988],[-78.978658,34.507811],[-78.974508,34.505039],[-78.977866,34.50101],[-78.978452,34.499612],[-78.979721,34.500056],[-78.982488,34.502388],[-78.984309,34.502901],[-78.989171,34.502722],[-78.992551,34.503509],[-78.994029,34.504479],[-78.994913,34.50604],[-78.995579,34.504885],[-78.999309,34.501759],[-78.998378,34.50017],[-78.989743,34.500167],[-78.98544,34.496678],[-78.971006,34.4875],[-78.952054,34.467231],[-78.949232,34.463743],[-78.946614,34.462412],[-78.94407,34.46051],[-78.94296,34.458269],[-78.943203,34.457419],[-78.941806,34.454983],[-78.94308,34.453763],[-78.942756,34.452926],[-78.946034,34.451851],[-78.946056,34.449909],[-78.947179,34.449241],[-78.945998,34.449022],[-78.944712,34.451374],[-78.9425,34.451781],[-78.941231,34.45355],[-78.938961,34.451613],[-78.936756,34.451731],[-78.935177,34.453334],[-78.935248,34.454226],[-78.937237,34.454687],[-78.936825,34.455341],[-78.935355,34.455162],[-78.932936,34.453898],[-78.929368,34.455025],[-78.928724,34.453628],[-78.927183,34.45382],[-78.925212,34.452824],[-78.921931,34.453787],[-78.920432,34.451562],[-78.918125,34.451485],[-78.91661,34.452661],[-78.918237,34.455686],[-78.919491,34.456192],[-78.920922,34.45863],[-78.919093,34.459297],[-78.916997,34.4583],[-78.914056,34.45916],[-78.908539,34.455872],[-78.907446,34.455664],[-78.905813,34.45691],[-78.903966,34.457444],[-78.903822,34.458305],[-78.906671,34.459318],[-78.907476,34.460507],[-78.906405,34.462157],[-78.902506,34.461108],[-78.901502,34.460007],[-78.900347,34.460176],[-78.897648,34.461649],[-78.895838,34.462116],[-78.894789,34.464028],[-78.893517,34.46477],[-78.893344,34.465918],[-78.894784,34.468087],[-78.894194,34.468483],[-78.891859,34.467423],[-78.888734,34.468857],[-78.887998,34.470456],[-78.885742,34.471087],[-78.884256,34.4725],[-78.881795,34.473049],[-78.881589,34.475263],[-78.878252,34.477262],[-78.873694,34.479515],[-78.869665,34.482401],[-78.868961,34.484778],[-78.869358,34.487143],[-78.866981,34.490208],[-78.866584,34.492927],[-78.863414,34.498034],[-78.861848,34.498008],[-78.857204,34.501369],[-78.850744,34.502145],[-78.849071,34.502583],[-78.849832,34.501349],[-78.849189,34.499879],[-78.846369,34.50017],[-78.846413,34.504131],[-78.84496,34.505938],[-78.844438,34.508096],[-78.846254,34.510509],[-78.849202,34.511913],[-78.850596,34.511739],[-78.851326,34.512596],[-78.849633,34.512453],[-78.851267,34.514073],[-78.85444,34.514034],[-78.856982,34.515056],[-78.857175,34.516512],[-78.855071,34.517269],[-78.853903,34.518772],[-78.855437,34.520818],[-78.856646,34.524141],[-78.856477,34.524906],[-78.854606,34.52548],[-78.854748,34.526476],[-78.852988,34.527762],[-78.854674,34.530135],[-78.855518,34.530562],[-78.855917,34.534132],[-78.858162,34.535319],[-78.860055,34.537367],[-78.861299,34.544247],[-78.861052,34.545384],[-78.860097,34.545008],[-78.860496,34.54693],[-78.859198,34.547582],[-78.858138,34.54576],[-78.857554,34.54704],[-78.858664,34.549161],[-78.860483,34.550083],[-78.860796,34.552214],[-78.859934,34.555158],[-78.858472,34.556081],[-78.858099,34.557117],[-78.859317,34.558663],[-78.860859,34.558583],[-78.862772,34.560387],[-78.862708,34.56199],[-78.86167,34.563579],[-78.85955,34.562486],[-78.857041,34.563108],[-78.856948,34.56886],[-78.856092,34.570112],[-78.85598,34.572125],[-78.854544,34.574565],[-78.852931,34.575718],[-78.851143,34.575213],[-78.848108,34.575652],[-78.843524,34.578591],[-78.842906,34.580475],[-78.843856,34.581761],[-78.842534,34.583782],[-78.842594,34.585928],[-78.843305,34.58783],[-78.842143,34.589256],[-78.838979,34.589702],[-78.83791,34.5909],[-78.838465,34.591696],[-78.836056,34.593504],[-78.836832,34.594201],[-78.835159,34.596047],[-78.835006,34.597167],[-78.836448,34.597772],[-78.837511,34.596964],[-78.839724,34.596712],[-78.841246,34.597223],[-78.83884,34.598914],[-78.837179,34.598436],[-78.835418,34.60065],[-78.833996,34.601594],[-78.833684,34.603682],[-78.832806,34.60511],[-78.83149,34.608828],[-78.831417,34.61113],[-78.832135,34.612365],[-78.83365,34.61308],[-78.834687,34.614805],[-78.834061,34.617073],[-78.833098,34.618062],[-78.833238,34.619451],[-78.834567,34.620243],[-78.834434,34.621583],[-78.832178,34.625579],[-78.829847,34.62582],[-78.830588,34.627902],[-78.828463,34.62989],[-78.829721,34.630731],[-78.829844,34.632224],[-78.828828,34.634308],[-78.827258,34.634725],[-78.827709,34.636956],[-78.825622,34.636939],[-78.826365,34.638818],[-78.823523,34.642657],[-78.821742,34.642866],[-78.818828,34.64155],[-78.819095,34.643645],[-78.821169,34.643541],[-78.822111,34.644797],[-78.821453,34.645881],[-78.819805,34.645573],[-78.819105,34.646963],[-78.818697,34.64977],[-78.817685,34.650995],[-78.816104,34.650725],[-78.813596,34.651906],[-78.813648,34.653027],[-78.815681,34.654813],[-78.818145,34.654669],[-78.819237,34.656886],[-78.819752,34.659919],[-78.819205,34.662599],[-78.818111,34.66432],[-78.814693,34.666007],[-78.813586,34.66789],[-78.809431,34.668276],[-78.80923,34.67061],[-78.810194,34.671843],[-78.810139,34.673409],[-78.809228,34.674096],[-78.806821,34.674542],[-78.806397,34.67514],[-78.80613,34.676075],[-78.807156,34.679107],[-78.806923,34.683241],[-78.805431,34.686603],[-78.805834,34.68956],[-78.807715,34.691595],[-78.811938,34.694408],[-78.813573,34.697155],[-78.817072,34.703964],[-78.818727,34.705728],[-78.820527,34.706509],[-78.821869,34.709725],[-78.823278,34.709774],[-78.824149,34.71125],[-78.825073,34.710849],[-78.827577,34.71328],[-78.830404,34.71393],[-78.832256,34.712752],[-78.833957,34.713791],[-78.839421,34.713637],[-78.841295,34.714707],[-78.843882,34.717534],[-78.844207,34.719198],[-78.845475,34.720018],[-78.847169,34.724535],[-78.850246,34.729027],[-78.85223,34.730988],[-78.854549,34.735199],[-78.855174,34.735654],[-78.856992,34.736012],[-78.8727,34.734261],[-78.877898,34.733457],[-78.88056,34.734306],[-78.885496,34.73456],[-78.888132,34.733347],[-78.892546,34.733369],[-78.894923,34.732653],[-78.896411,34.73125],[-78.898537,34.730316],[-78.901903,34.735147],[-78.898243,34.737082],[-78.902689,34.742267],[-78.904573,34.743538],[-78.910849,34.749056],[-78.912429,34.749115],[-78.916947,34.748356],[-78.920146,34.748799],[-78.923797,34.747861],[-78.928034,34.747584],[-78.928899,34.74825],[-78.930093,34.746933],[-78.940038,34.730644],[-78.941722,34.732339],[-78.945653,34.734553],[-78.948341,34.737525],[-78.951976,34.740707],[-78.95278,34.740501],[-78.957502,34.738048],[-78.956465,34.735023],[-78.953285,34.734863],[-78.952624,34.732952],[-78.95375,34.733312],[-78.958176,34.73589],[-78.959034,34.738323],[-78.959644,34.736919],[-78.959903,34.7299],[-78.958496,34.727682],[-78.95712,34.726535],[-78.954979,34.726553],[-78.951266,34.724651],[-78.945825,34.722743],[-78.944324,34.722522],[-78.945672,34.718564],[-78.948252,34.715973],[-78.952966,34.716721],[-78.966495,34.720562],[-78.968933,34.715776],[-78.968464,34.713843],[-78.964278,34.709519],[-78.963458,34.70824],[-78.962569,34.703719],[-78.964887,34.702839],[-78.96593,34.704187],[-78.967592,34.704796],[-78.969069,34.707051],[-78.969199,34.708955],[-78.970357,34.710358],[-78.9704,34.713605],[-78.972592,34.715328],[-78.972331,34.716892],[-78.969211,34.721061],[-78.970119,34.721402],[-78.975382,34.721692],[-78.977491,34.722265],[-78.982221,34.72463],[-78.983418,34.718879],[-78.984733,34.722865],[-78.986302,34.723188],[-78.991961,34.726832],[-78.994906,34.727808],[-78.997424,34.729334],[-78.998762,34.693651],[-78.999215,34.691532],[-79.002189,34.682207],[-79.006048,34.670178],[-79.012359,34.650444],[-79.013584,34.646619],[-79.015452,34.642802],[-79.019322,34.638276],[-79.023624,34.635214],[-79.029972,34.632207],[-79.033627,34.632536],[-79.036453,34.633666],[-79.0367,34.63267],[-79.03434,34.631508],[-79.03979,34.62901],[-79.039942,34.627707],[-79.041552,34.628222],[-79.042312,34.626758],[-79.04873,34.624244],[-79.053536,34.623824],[-79.054772,34.62458],[-79.054841,34.62453],[-79.056036,34.62355],[-79.057138,34.623943],[-79.056847,34.622312],[-79.059555,34.621604],[-79.062947,34.619858],[-79.067719,34.616576],[-79.070511,34.614788],[-79.074867,34.612773],[-79.095065,34.60593],[-79.100046,34.603783],[-79.10346,34.600963],[-79.10769,34.596509],[-79.110357,34.594129],[-79.113648,34.591805],[-79.118247,34.589357],[-79.123794,34.587369],[-79.131897,34.585391],[-79.138244,34.583512],[-79.143559,34.58129],[-79.151859,34.576736]]]}},{"type":"Feature","properties":{"zcta5":"28364","AFFGEOID10":"8600000US28364","GEOID10":"28364","ALAND10":350043857,"AWATER10":1613121,"county_name":"Robeson","state_code":"NC","county_state":"Robeson County, NC","county_fips":"37155","risk_level_county":"Very High Risk (<60% vaccinated)","mean_vaccination_rate_county":51.87,"risk_level_zcta":"Higher Risk (60–69% vaccinated)","mean_vaccination_rate_zips":61.68,"cases":2},"geometry":{"type":"Polygon","coordinates":[[[-79.4615628883712,34.6302980076855],[-79.461318,34.630126],[-79.459766,34.629027],[-79.450034,34.621036],[-79.4138498034828,34.591179510755595],[-79.412949,34.591607],[-79.405913,34.591235],[-79.400755,34.591692],[-79.398699,34.592492],[-79.395343,34.597125],[-79.400381,34.599891],[-79.40303,34.601759],[-79.408124,34.606299],[-79.40115,34.605643],[-79.39968,34.603723],[-79.394535,34.603513],[-79.393968,34.605996],[-79.395751,34.612918],[-79.395702,34.615789],[-79.392023,34.615594],[-79.384592,34.617615],[-79.378934,34.616956],[-79.380063,34.612539],[-79.380957,34.610986],[-79.380846,34.609053],[-79.382536,34.602784],[-79.382563,34.598259],[-79.380098,34.594148],[-79.379807,34.590329],[-79.375517,34.589103],[-79.371125,34.58653],[-79.363538,34.583768],[-79.358595,34.58483],[-79.356001,34.585008],[-79.356286,34.58784],[-79.353958,34.588049],[-79.35131,34.589645],[-79.350966,34.590396],[-79.352755,34.595865],[-79.351607,34.595276],[-79.345317,34.59664],[-79.342582,34.598147],[-79.341741,34.598083],[-79.341666,34.599813],[-79.340592,34.60185],[-79.338877,34.602069],[-79.337244,34.60316],[-79.33486,34.602909],[-79.333386,34.600419],[-79.331373,34.600862],[-79.331317,34.602074],[-79.329963,34.602483],[-79.33177,34.606649],[-79.334458,34.622313],[-79.329823,34.622812],[-79.328549,34.620042],[-79.329352,34.618187],[-79.329822,34.615278],[-79.328409,34.613034],[-79.328852,34.612027],[-79.326442,34.609462],[-79.322695,34.609067],[-79.320654,34.608284],[-79.319281,34.608624],[-79.318719,34.604527],[-79.31571,34.603741],[-79.310184,34.600143],[-79.308689,34.603633],[-79.310638,34.606548],[-79.315004,34.611936],[-79.31517,34.613333],[-79.314034,34.617294],[-79.314893,34.620134],[-79.31722,34.621874],[-79.320308,34.626304],[-79.320154,34.63491],[-79.315377,34.633911],[-79.309505,34.633059],[-79.3088,34.63359],[-79.306576,34.637528],[-79.305911,34.640667],[-79.305918,34.645513],[-79.306317,34.646838],[-79.306475,34.651978],[-79.305915,34.653711],[-79.304712,34.654108],[-79.304889,34.657926],[-79.305692,34.659685],[-79.304747,34.65909],[-79.300653,34.658389],[-79.299822,34.657061],[-79.29949,34.654794],[-79.29536,34.652424],[-79.294696,34.649333],[-79.29286,34.646372],[-79.289649,34.668573],[-79.287507,34.670826],[-79.284609,34.667992],[-79.283704,34.669735],[-79.280667,34.671349],[-79.278175,34.668952],[-79.274823,34.66691],[-79.27338,34.664779],[-79.272182,34.664002],[-79.267698,34.66378],[-79.263021,34.660493],[-79.262814,34.657409],[-79.261749,34.655811],[-79.260032,34.654832],[-79.259858,34.653765],[-79.256011,34.649685],[-79.253213,34.649241],[-79.251387,34.647603],[-79.248769,34.646649],[-79.248669,34.645434],[-79.247051,34.644056],[-79.245535,34.644065],[-79.243558,34.656477],[-79.243198,34.657954],[-79.239273,34.668904],[-79.236599,34.678447],[-79.235136,34.680739],[-79.232843,34.682075],[-79.229545,34.683167],[-79.2379,34.687081],[-79.234719,34.694221],[-79.232978,34.696033],[-79.229112,34.694644],[-79.226151,34.697839],[-79.228886,34.699076],[-79.231478,34.701986],[-79.234012,34.704188],[-79.240321,34.708127],[-79.241989,34.709856],[-79.238749,34.711907],[-79.237084,34.714824],[-79.233357,34.718464],[-79.235625,34.725134],[-79.229836,34.725438],[-79.226063,34.723064],[-79.224361,34.724897],[-79.219494,34.726886],[-79.217925,34.727147],[-79.211159,34.727351],[-79.212583,34.728084],[-79.214714,34.730535],[-79.216358,34.731371],[-79.220676,34.736489],[-79.222859,34.738275],[-79.224697,34.740772],[-79.226585,34.742542],[-79.231197,34.74026],[-79.231142,34.743447],[-79.22749,34.742983],[-79.225709,34.745426],[-79.225741,34.754949],[-79.222374,34.754585],[-79.215156,34.752849],[-79.214954,34.754476],[-79.213769,34.75448],[-79.212675,34.758482],[-79.210169,34.762499],[-79.213895,34.765079],[-79.207677,34.77441],[-79.214403,34.7797],[-79.225801,34.77446],[-79.227057,34.774101],[-79.232364,34.774305],[-79.233842,34.773662],[-79.239189,34.769697],[-79.241685,34.7683],[-79.2472,34.767202],[-79.251728,34.765535],[-79.257485,34.774098],[-79.256245,34.776055],[-79.256042,34.781958],[-79.255376,34.783515],[-79.252003,34.78738],[-79.250761,34.791634],[-79.254603,34.792368],[-79.256201,34.793883],[-79.255566,34.794529],[-79.242712,34.804435],[-79.240344,34.805377],[-79.236376,34.805587],[-79.239218,34.813184],[-79.244309,34.817886],[-79.246381,34.820325],[-79.239768,34.824174],[-79.235835,34.823932],[-79.233117,34.824636],[-79.228828,34.822202],[-79.22961,34.826509],[-79.230838,34.829043],[-79.23007,34.832498],[-79.232684,34.832281],[-79.234592,34.831555],[-79.235857,34.83251],[-79.238073,34.831144],[-79.241402,34.835283],[-79.234822,34.835078],[-79.237932,34.837913],[-79.239984,34.838786],[-79.24309,34.838654],[-79.24381,34.839802],[-79.246861,34.841066],[-79.247415,34.842558],[-79.246292,34.845357],[-79.247193,34.848296],[-79.248361,34.849761],[-79.26077,34.848147],[-79.261253,34.846572],[-79.266553,34.841197],[-79.267192,34.842404],[-79.268849,34.848252],[-79.264719,34.847515],[-79.272663,34.852915],[-79.27302,34.85403],[-79.278246,34.849919],[-79.275846,34.849492],[-79.272319,34.844439],[-79.272153,34.8427],[-79.271098,34.841122],[-79.271016,34.839247],[-79.269847,34.836167],[-79.325576,34.837877],[-79.326406,34.837504],[-79.32669,34.837866],[-79.347535,34.838544],[-79.349173,34.838478],[-79.349972,34.835391],[-79.35095,34.835068],[-79.351842,34.832211],[-79.351857,34.831223],[-79.353589,34.828608],[-79.35306,34.827589],[-79.351749,34.827902],[-79.352445,34.825804],[-79.353671,34.826111],[-79.352674,34.825207],[-79.352998,34.823939],[-79.354334,34.822631],[-79.357605,34.820754],[-79.357172,34.818831],[-79.35589,34.817774],[-79.355993,34.816436],[-79.354837,34.816511],[-79.355406,34.815244],[-79.353967,34.815305],[-79.35314,34.814345],[-79.353176,34.812331],[-79.351651,34.812837],[-79.350861,34.811129],[-79.35167,34.810692],[-79.349147,34.808725],[-79.348989,34.807286],[-79.350124,34.805346],[-79.348776,34.803374],[-79.346953,34.802651],[-79.348135,34.800888],[-79.346386,34.800197],[-79.346908,34.799406],[-79.346447,34.797705],[-79.345589,34.79766],[-79.345447,34.795882],[-79.342963,34.794092],[-79.343286,34.792592],[-79.341819,34.791915],[-79.342683,34.790801],[-79.34157,34.789036],[-79.339645,34.789194],[-79.33952,34.787122],[-79.3383,34.787768],[-79.338002,34.785225],[-79.336346,34.782617],[-79.336372,34.781312],[-79.335381,34.781252],[-79.334379,34.777377],[-79.331865,34.777025],[-79.333022,34.776302],[-79.33113,34.77534],[-79.331693,34.773008],[-79.333961,34.772052],[-79.338643,34.774078],[-79.343058,34.775503],[-79.346556,34.774935],[-79.344816,34.77272],[-79.34085,34.762953],[-79.34363,34.759909],[-79.351027,34.751785],[-79.363808,34.756308],[-79.379732,34.760741],[-79.386,34.761155],[-79.386799,34.755898],[-79.386134,34.754249],[-79.386444,34.75088],[-79.386327,34.750436],[-79.39399,34.753143],[-79.39621,34.753693],[-79.400254,34.750693],[-79.399441,34.748834],[-79.396776,34.747882],[-79.397795,34.745636],[-79.399203,34.744873],[-79.398014,34.742506],[-79.394317,34.738028],[-79.390911,34.731145],[-79.388457,34.727184],[-79.385665,34.72393],[-79.39823,34.715964],[-79.39992,34.715136],[-79.412662,34.710177],[-79.418442,34.706248],[-79.421044,34.705528],[-79.423693,34.705962],[-79.425115,34.702744],[-79.428361,34.698599],[-79.429865,34.697776],[-79.430919,34.694455],[-79.429866,34.693837],[-79.43006,34.690081],[-79.432029,34.687517],[-79.432888,34.686738],[-79.435586,34.687038],[-79.434462,34.685721],[-79.430054,34.683013],[-79.428679,34.684866],[-79.427295,34.685106],[-79.421047,34.681488],[-79.416253,34.680162],[-79.4615628883712,34.6302980076855]]]}},{"type":"Feature","properties":{"zcta5":"28375","AFFGEOID10":"8600000US28375","GEOID10":"28375","ALAND10":740155,"AWATER10":0,"county_name":"Robeson","state_code":"NC","county_state":"Robeson County, NC","county_fips":"37155","risk_level_county":"Very High Risk (<60% vaccinated)","mean_vaccination_rate_county":51.87,"risk_level_zcta":"Very High Risk (<60% vaccinated)","mean_vaccination_rate_zips":59.28,"cases":2},"geometry":{"type":"Polygon","coordinates":[[[-79.041399,34.477361],[-79.041544,34.473972],[-79.042347,34.472942],[-79.041984,34.469658],[-79.037795,34.468818],[-79.036234,34.474918],[-79.032476,34.474222],[-79.033541,34.47599],[-79.035852,34.476406],[-79.034573,34.481469],[-79.041456,34.481461],[-79.041547,34.481284],[-79.041625,34.480415],[-79.04158,34.479892],[-79.041414,34.479486],[-79.041229,34.478673],[-79.041399,34.477361]]]}},{"type":"Feature","properties":{"zcta5":"28386","AFFGEOID10":"8600000US28386","GEOID10":"28386","ALAND10":116656265,"AWATER10":369417,"county_name":"Robeson","state_code":"NC","county_state":"Robeson County, NC","county_fips":"37155","risk_level_county":"Very High Risk (<60% vaccinated)","mean_vaccination_rate_county":51.87,"risk_level_zcta":"Higher Risk (60–69% vaccinated)","mean_vaccination_rate_zips":63.54,"cases":2},"geometry":{"type":"Polygon","coordinates":[[[-79.153739,34.929462],[-79.154973,34.929312],[-79.15904,34.934602],[-79.171017,34.947135],[-79.177425,34.952096],[-79.179285,34.95289],[-79.188015,34.954963],[-79.188597,34.952055],[-79.190526,34.950554],[-79.191998,34.953294],[-79.194829,34.955989],[-79.199075,34.957982],[-79.207434,34.953965],[-79.203203,34.946468],[-79.206307,34.947206],[-79.207088,34.942708],[-79.205449,34.938812],[-79.204254,34.933707],[-79.208413,34.93211],[-79.209612,34.925383],[-79.210339,34.923937],[-79.205005,34.920477],[-79.202828,34.918327],[-79.200286,34.914473],[-79.197779,34.912478],[-79.19895,34.91225],[-79.206884,34.911147],[-79.206306,34.911188],[-79.19751,34.90069],[-79.195411,34.902182],[-79.191939,34.89873],[-79.197192,34.894664],[-79.202411,34.889635],[-79.199747,34.88833],[-79.193815,34.88655],[-79.190619,34.883688],[-79.190786,34.882474],[-79.188924,34.88007],[-79.179252,34.874183],[-79.176335,34.870657],[-79.173363,34.868756],[-79.169802,34.867479],[-79.168656,34.866101],[-79.165534,34.864466],[-79.158497,34.859403],[-79.166706,34.853007],[-79.163237,34.850586],[-79.159612,34.846471],[-79.157194,34.842022],[-79.153853,34.838284],[-79.152694,34.83882],[-79.147624,34.843021],[-79.14596,34.840309],[-79.144267,34.83882],[-79.142602,34.83543],[-79.141492,34.834514],[-79.141354,34.833094],[-79.139357,34.829659],[-79.137748,34.827735],[-79.135499,34.826749],[-79.131866,34.821595],[-79.130733,34.819266],[-79.128214,34.81731],[-79.126928,34.815571],[-79.122664,34.811887],[-79.120775,34.811362],[-79.119442,34.809782],[-79.115804,34.80699],[-79.112943,34.803855],[-79.110609,34.80184],[-79.108303,34.798269],[-79.104832,34.79463],[-79.102692,34.789616],[-79.100582,34.787648],[-79.099137,34.783023],[-79.097166,34.781672],[-79.09686,34.780138],[-79.094945,34.778576],[-79.094778,34.777653],[-79.092446,34.774537],[-79.092916,34.769262],[-79.091195,34.766561],[-79.088087,34.765004],[-79.088114,34.763837],[-79.086616,34.762806],[-79.086976,34.760334],[-79.088084,34.757357],[-79.086725,34.755708],[-79.087639,34.753418],[-79.086224,34.75145],[-79.086541,34.750162],[-79.085277,34.746291],[-79.077868,34.751823],[-79.074713,34.746856],[-79.071937,34.745743],[-79.063186,34.743705],[-79.061273,34.742864],[-79.055334,34.738852],[-79.053142,34.739585],[-79.053383,34.740923],[-79.043586,34.755689],[-79.041712,34.756598],[-79.059577,34.776236],[-79.06177,34.777042],[-79.063924,34.776887],[-79.065144,34.779258],[-79.063158,34.780075],[-79.064738,34.781825],[-79.085559,34.801017],[-79.086187,34.804092],[-79.085703,34.805357],[-79.083456,34.805825],[-79.083641,34.80414],[-79.077776,34.803961],[-79.075526,34.807333],[-79.074309,34.808014],[-79.071834,34.808012],[-79.066862,34.806717],[-79.067512,34.807703],[-79.070059,34.80927],[-79.071177,34.811071],[-79.045859,34.808076],[-79.045417,34.810078],[-79.049529,34.812381],[-79.052265,34.814266],[-79.051805,34.81539],[-79.053319,34.816139],[-79.054294,34.818139],[-79.051623,34.819481],[-79.046714,34.820319],[-79.048206,34.820921],[-79.054115,34.821752],[-79.057055,34.823152],[-79.06138,34.82638],[-79.065891,34.829234],[-79.066855,34.831803],[-79.062799,34.836982],[-79.06379,34.838931],[-79.066397,34.84226],[-79.066825,34.843773],[-79.065568,34.849321],[-79.067974,34.852385],[-79.07248,34.854669],[-79.074262,34.853524],[-79.075238,34.855039],[-79.078231,34.853115],[-79.083582,34.857208],[-79.088453,34.853479],[-79.09313,34.85761],[-79.094397,34.859623],[-79.097369,34.862323],[-79.100949,34.863877],[-79.103661,34.863828],[-79.107531,34.864305],[-79.112728,34.868906],[-79.114535,34.871149],[-79.116209,34.875893],[-79.119017,34.878685],[-79.122186,34.880195],[-79.124332,34.88198],[-79.126685,34.882184],[-79.12835,34.882939],[-79.128735,34.884294],[-79.132406,34.886743],[-79.132988,34.888186],[-79.131959,34.890476],[-79.134766,34.889378],[-79.137433,34.890455],[-79.138321,34.891646],[-79.139015,34.892471],[-79.13854,34.894462],[-79.138952,34.897024],[-79.140726,34.899978],[-79.140583,34.904029],[-79.141,34.905151],[-79.144003,34.909276],[-79.14558,34.916411],[-79.145594,34.923244],[-79.14748,34.928433],[-79.149293,34.926727],[-79.151718,34.92718],[-79.153739,34.929462]]]}},{"type":"Feature","properties":{"zcta5":"28357","AFFGEOID10":"8600000US28357","GEOID10":"28357","ALAND10":91734704,"AWATER10":168251,"county_name":"Robeson","state_code":"NC","county_state":"Robeson County, NC","county_fips":"37155","risk_level_county":"Very High Risk (<60% vaccinated)","mean_vaccination_rate_county":51.87,"risk_level_zcta":"Higher Risk (60–69% vaccinated)","mean_vaccination_rate_zips":62.15,"cases":2},"geometry":{"type":"Polygon","coordinates":[[[-79.056794,34.949868],[-79.062246,34.949649],[-79.062707,34.949286],[-79.064976,34.949759],[-79.065143,34.950797],[-79.067692,34.951501],[-79.067319,34.952078],[-79.071323,34.953182],[-79.075047,34.953781],[-79.077123,34.953369],[-79.078177,34.954462],[-79.08036,34.95405],[-79.080967,34.955347],[-79.082209,34.955467],[-79.085119,34.957456],[-79.086127,34.957071],[-79.08831,34.958236],[-79.090733,34.95878],[-79.092868,34.957735],[-79.095312,34.95879],[-79.0971,34.958696],[-79.098109,34.960515],[-79.100091,34.96008],[-79.103977,34.962403],[-79.105092,34.964227],[-79.107382,34.964732],[-79.10956,34.96799],[-79.11098,34.967109],[-79.108651,34.964749],[-79.106731,34.961835],[-79.108649,34.961698],[-79.111204,34.958856],[-79.113193,34.958696],[-79.114388,34.957731],[-79.115231,34.95883],[-79.118634,34.960715],[-79.120107,34.958364],[-79.121796,34.957148],[-79.12508,34.950767],[-79.121109,34.951412],[-79.116767,34.950618],[-79.113458,34.949159],[-79.129044,34.945349],[-79.130486,34.945247],[-79.132515,34.943193],[-79.134606,34.943706],[-79.158873,34.934748],[-79.153739,34.929462],[-79.151718,34.92718],[-79.149293,34.926727],[-79.14748,34.928433],[-79.145594,34.923244],[-79.14558,34.916411],[-79.144003,34.909276],[-79.141,34.905151],[-79.140583,34.904029],[-79.140726,34.899978],[-79.138952,34.897024],[-79.13854,34.894462],[-79.139015,34.892471],[-79.138321,34.891646],[-79.137433,34.890455],[-79.134766,34.889378],[-79.131959,34.890476],[-79.132988,34.888186],[-79.132406,34.886743],[-79.128735,34.884294],[-79.12835,34.882939],[-79.126685,34.882184],[-79.124332,34.88198],[-79.122186,34.880195],[-79.119017,34.878685],[-79.116209,34.875893],[-79.114535,34.871149],[-79.112728,34.868906],[-79.107531,34.864305],[-79.103661,34.863828],[-79.100949,34.863877],[-79.097369,34.862323],[-79.094397,34.859623],[-79.09313,34.85761],[-79.088453,34.853479],[-79.083582,34.857208],[-79.078231,34.853115],[-79.075238,34.855039],[-79.074262,34.853524],[-79.07248,34.854669],[-79.07027,34.858035],[-79.061701,34.856575],[-79.054909,34.855883],[-79.048815,34.857328],[-79.049725,34.865799],[-79.046323,34.861059],[-79.042625,34.86602],[-79.039105,34.870984],[-79.017362,34.869954],[-79.014462,34.869221],[-79.011793,34.870962],[-79.008103,34.86813],[-79.005477,34.869035],[-79.002581,34.865487],[-79.003182,34.869517],[-79.008265,34.876964],[-79.011218,34.877245],[-79.014856,34.879536],[-79.017856,34.88027],[-79.020135,34.881415],[-79.024274,34.882241],[-79.027521,34.88229],[-79.023467,34.887746],[-79.02891,34.889099],[-79.030904,34.890031],[-79.029213,34.890898],[-79.026064,34.889672],[-79.022437,34.888857],[-79.01687,34.896124],[-79.018841,34.896281],[-79.02364,34.89887],[-79.024848,34.900237],[-79.029768,34.900582],[-79.030901,34.901383],[-79.031891,34.903548],[-79.034478,34.905119],[-79.035829,34.906548],[-79.037157,34.906744],[-79.036664,34.911425],[-79.035894,34.912707],[-79.042287,34.914606],[-79.051816,34.907053],[-79.06057,34.911546],[-79.059956,34.913948],[-79.060205,34.916243],[-79.059647,34.916325],[-79.055919,34.918457],[-79.056407,34.91983],[-79.055088,34.922569],[-79.059283,34.925586],[-79.066758,34.930919],[-79.062491,34.93424],[-79.05984,34.934618],[-79.057647,34.936302],[-79.056822,34.94309],[-79.056515,34.948418],[-79.056182,34.948926],[-79.056794,34.949868]]]}},{"type":"Feature","properties":{"zcta5":"28371","AFFGEOID10":"8600000US28371","GEOID10":"28371","ALAND10":89946062,"AWATER10":762112,"county_name":"Robeson","state_code":"NC","county_state":"Robeson County, NC","county_fips":"37155","risk_level_county":"Very High Risk (<60% vaccinated)","mean_vaccination_rate_county":51.87,"risk_level_zcta":"Higher Risk (60–69% vaccinated)","mean_vaccination_rate_zips":63.25,"cases":2},"geometry":{"type":"Polygon","coordinates":[[[-79.056794,34.949868],[-79.056182,34.948926],[-79.056515,34.948418],[-79.056822,34.94309],[-79.057647,34.936302],[-79.05984,34.934618],[-79.062491,34.93424],[-79.066758,34.930919],[-79.059283,34.925586],[-79.055088,34.922569],[-79.056407,34.91983],[-79.055919,34.918457],[-79.059647,34.916325],[-79.060205,34.916243],[-79.059956,34.913948],[-79.06057,34.911546],[-79.051816,34.907053],[-79.042287,34.914606],[-79.035894,34.912707],[-79.036664,34.911425],[-79.037157,34.906744],[-79.035829,34.906548],[-79.034478,34.905119],[-79.031891,34.903548],[-79.030901,34.901383],[-79.029768,34.900582],[-79.024848,34.900237],[-79.02364,34.89887],[-79.018841,34.896281],[-79.01687,34.896124],[-79.022437,34.888857],[-79.026064,34.889672],[-79.029213,34.890898],[-79.030904,34.890031],[-79.02891,34.889099],[-79.023467,34.887746],[-79.027521,34.88229],[-79.024274,34.882241],[-79.020135,34.881415],[-79.017856,34.88027],[-79.014856,34.879536],[-79.011218,34.877245],[-79.008265,34.876964],[-79.003182,34.869517],[-79.000662,34.866872],[-78.99168,34.86523],[-78.986312,34.860405],[-78.978774,34.863479],[-78.975967,34.863656],[-78.971739,34.862469],[-78.966888,34.859744],[-78.961468,34.856272],[-78.959662,34.854441],[-78.958828,34.852609],[-78.953522,34.845787],[-78.946435,34.839869],[-78.931261,34.847777],[-78.932038,34.851139],[-78.934894,34.851219],[-78.941036,34.852306],[-78.943753,34.855059],[-78.946512,34.851416],[-78.947723,34.852166],[-78.948393,34.85337],[-78.948091,34.855012],[-78.946645,34.857132],[-78.946347,34.858728],[-78.947068,34.860016],[-78.949368,34.861261],[-78.94869,34.864949],[-78.932765,34.864859],[-78.930489,34.863447],[-78.927018,34.863957],[-78.924852,34.861051],[-78.923746,34.858266],[-78.922193,34.857425],[-78.919709,34.854348],[-78.915998,34.8571],[-78.913142,34.86093],[-78.913142,34.865228],[-78.914754,34.866657],[-78.909792,34.869333],[-78.90957,34.87091],[-78.913695,34.877542],[-78.916829,34.877191],[-78.917789,34.878996],[-78.923326,34.877575],[-78.925379,34.881229],[-78.925674,34.884586],[-78.92661,34.886698],[-78.930107,34.890592],[-78.931844,34.891784],[-78.93489,34.895216],[-78.936871,34.896218],[-78.938665,34.897714],[-78.939932,34.900264],[-78.940844,34.903368],[-78.945511,34.905715],[-78.948778,34.906549],[-78.953232,34.909395],[-78.954476,34.911975],[-78.95274,34.914646],[-78.946604,34.921526],[-78.949235,34.923403],[-78.953766,34.924186],[-78.956777,34.925262],[-78.959824,34.927467],[-78.960609,34.928526],[-78.963289,34.935607],[-78.96996,34.932652],[-78.971124,34.935614],[-78.981309,34.93602],[-78.984433,34.937316],[-78.973423,34.948935],[-78.969644,34.951112],[-78.971341,34.951442],[-78.973582,34.952875],[-78.974826,34.952912],[-78.974527,34.956164],[-78.977387,34.95751],[-78.977645,34.956805],[-78.980874,34.957454],[-78.981134,34.958241],[-78.983966,34.958293],[-78.986046,34.957202],[-78.987347,34.959093],[-78.989043,34.956442],[-78.99264,34.955611],[-78.993275,34.956819],[-78.995063,34.956794],[-78.996852,34.958753],[-78.997297,34.958492],[-78.998419,34.959243],[-78.9994,34.960574],[-79.000246,34.959476],[-79.004889,34.958785],[-79.011365,34.957086],[-79.014431,34.956905],[-79.0203,34.955037],[-79.023075,34.955384],[-79.025448,34.954453],[-79.027095,34.954869],[-79.028804,34.954003],[-79.032347,34.953642],[-79.036489,34.955961],[-79.036702,34.956863],[-79.036917,34.956953],[-79.036523,34.955729],[-79.035003,34.954919],[-79.036938,34.953797],[-79.038995,34.954302],[-79.039891,34.953491],[-79.044163,34.954707],[-79.045527,34.954675],[-79.045927,34.953223],[-79.048562,34.953827],[-79.050196,34.952575],[-79.050778,34.953545],[-79.052023,34.952727],[-79.053006,34.953112],[-79.05342,34.952465],[-79.054633,34.952318],[-79.055786,34.951357],[-79.056907,34.950341],[-79.056794,34.949868]]]}},{"type":"Feature","properties":{"zcta5":"28372","AFFGEOID10":"8600000US28372","GEOID10":"28372","ALAND10":113437482,"AWATER10":0,"county_name":"Robeson","state_code":"NC","county_state":"Robeson County, NC","county_fips":"37155","risk_level_county":"Very High Risk (<60% vaccinated)","mean_vaccination_rate_county":51.87,"risk_level_zcta":"Higher Risk (60–69% vaccinated)","mean_vaccination_rate_zips":63.47,"cases":2},"geometry":{"type":"Polygon","coordinates":[[[-79.210169,34.762499],[-79.212675,34.758482],[-79.213769,34.75448],[-79.214954,34.754476],[-79.215156,34.752849],[-79.222374,34.754585],[-79.225741,34.754949],[-79.225709,34.745426],[-79.22749,34.742983],[-79.231142,34.743447],[-79.231197,34.74026],[-79.226585,34.742542],[-79.224697,34.740772],[-79.222859,34.738275],[-79.220676,34.736489],[-79.216358,34.731371],[-79.214714,34.730535],[-79.212583,34.728084],[-79.211159,34.727351],[-79.217925,34.727147],[-79.219494,34.726886],[-79.224361,34.724897],[-79.226063,34.723064],[-79.229836,34.725438],[-79.235625,34.725134],[-79.233357,34.718464],[-79.237084,34.714824],[-79.238749,34.711907],[-79.241989,34.709856],[-79.240321,34.708127],[-79.234012,34.704188],[-79.231478,34.701986],[-79.228886,34.699076],[-79.226151,34.697839],[-79.229112,34.694644],[-79.232978,34.696033],[-79.234719,34.694221],[-79.2379,34.687081],[-79.229545,34.683167],[-79.232843,34.682075],[-79.235136,34.680739],[-79.236599,34.678447],[-79.239273,34.668904],[-79.243198,34.657954],[-79.238215,34.654419],[-79.238448,34.653056],[-79.236265,34.651353],[-79.235843,34.649336],[-79.236774,34.647253],[-79.234805,34.644506],[-79.232976,34.643819],[-79.231201,34.641118],[-79.225213,34.636671],[-79.209441,34.657959],[-79.211107,34.658953],[-79.210862,34.656805],[-79.211914,34.65539],[-79.213857,34.656906],[-79.220472,34.65821],[-79.228282,34.663722],[-79.23324,34.66607],[-79.231157,34.66899],[-79.230012,34.668486],[-79.226741,34.670706],[-79.22523,34.670848],[-79.222282,34.667958],[-79.219973,34.669043],[-79.218945,34.667761],[-79.217231,34.66885],[-79.211623,34.668227],[-79.210231,34.66586],[-79.209339,34.666156],[-79.209144,34.664508],[-79.207186,34.6652],[-79.206923,34.664293],[-79.203144,34.665402],[-79.201491,34.662593],[-79.202053,34.660252],[-79.200879,34.658851],[-79.201797,34.658241],[-79.200389,34.656683],[-79.197873,34.656968],[-79.195284,34.655422],[-79.194134,34.652743],[-79.193136,34.65357],[-79.190819,34.651433],[-79.188998,34.65279],[-79.188973,34.651815],[-79.187437,34.651231],[-79.187383,34.648503],[-79.188495,34.649021],[-79.189286,34.647777],[-79.188042,34.647404],[-79.184966,34.647697],[-79.185824,34.645719],[-79.184913,34.644074],[-79.183406,34.643682],[-79.179953,34.641751],[-79.178359,34.646474],[-79.176457,34.649139],[-79.169672,34.641493],[-79.164098,34.638618],[-79.161016,34.637432],[-79.158462,34.635814],[-79.155088,34.634532],[-79.14737,34.63791],[-79.143141,34.643105],[-79.140612,34.64423],[-79.138701,34.643597],[-79.135721,34.643639],[-79.129187,34.645351],[-79.129435,34.646791],[-79.1319,34.648853],[-79.135307,34.649656],[-79.138022,34.651123],[-79.142731,34.652751],[-79.145807,34.654767],[-79.149185,34.657571],[-79.142729,34.656944],[-79.132734,34.651302],[-79.128905,34.648981],[-79.128878,34.651768],[-79.131535,34.655617],[-79.136319,34.658041],[-79.140499,34.662568],[-79.143575,34.663871],[-79.143837,34.666228],[-79.144651,34.669893],[-79.14211,34.671003],[-79.137312,34.675337],[-79.136049,34.676025],[-79.129806,34.677293],[-79.120284,34.668438],[-79.119481,34.667863],[-79.117036,34.666634],[-79.112958,34.664603],[-79.110494,34.667451],[-79.110063,34.66865],[-79.110664,34.676557],[-79.113469,34.679569],[-79.114856,34.682211],[-79.108847,34.682586],[-79.105247,34.683081],[-79.10038,34.68466],[-79.098267,34.685981],[-79.093703,34.689675],[-79.098556,34.694228],[-79.105156,34.698594],[-79.107909,34.702259],[-79.112725,34.704773],[-79.114916,34.702473],[-79.116873,34.703686],[-79.114941,34.705843],[-79.116567,34.707317],[-79.11675,34.7102],[-79.115453,34.712113],[-79.119232,34.713733],[-79.124809,34.717721],[-79.130131,34.719285],[-79.133541,34.721691],[-79.136036,34.722883],[-79.138087,34.723182],[-79.142539,34.725036],[-79.145828,34.726635],[-79.14768,34.728109],[-79.147579,34.732077],[-79.150126,34.735368],[-79.146202,34.738304],[-79.150014,34.742846],[-79.153833,34.748016],[-79.15864,34.751346],[-79.169847,34.758036],[-79.171701,34.758872],[-79.204972,34.750542],[-79.207843,34.765817],[-79.210169,34.762499]]]}},{"type":"Feature","properties":{"zcta5":"28340","AFFGEOID10":"8600000US28340","GEOID10":"28340","ALAND10":324477181,"AWATER10":655119,"county_name":"Robeson","state_code":"NC","county_state":"Robeson County, NC","county_fips":"37155","risk_level_county":"Very High Risk (<60% vaccinated)","mean_vaccination_rate_county":51.87,"risk_level_zcta":"Higher Risk (60–69% vaccinated)","mean_vaccination_rate_zips":63.46,"cases":2},"geometry":{"type":"Polygon","coordinates":[[[-79.156631,34.58135],[-79.166837,34.580546],[-79.166254,34.577886],[-79.190179,34.569713],[-79.195493,34.57389],[-79.197754,34.572826],[-79.196563,34.568103],[-79.205135,34.564946],[-79.206018,34.558731],[-79.207517,34.55524],[-79.209056,34.554946],[-79.224961,34.550578],[-79.226814,34.546857],[-79.232251,34.545414],[-79.232493,34.540525],[-79.243818,34.537115],[-79.242787,34.534721],[-79.239649,34.531451],[-79.23607,34.528721],[-79.232386,34.527231],[-79.230485,34.525437],[-79.229267,34.523488],[-79.223511,34.511735],[-79.220929,34.507756],[-79.216506,34.498981],[-79.214113,34.496528],[-79.210822,34.494582],[-79.208664,34.49211],[-79.204847,34.488767],[-79.201914,34.486866],[-79.200974,34.484851],[-79.198236,34.481485],[-79.193452,34.477661],[-79.192125,34.477845],[-79.191164,34.475246],[-79.200945,34.471619],[-79.212282,34.47158],[-79.213602,34.471757],[-79.226623,34.475905],[-79.22833,34.4761],[-79.233728,34.475408],[-79.235378,34.475569],[-79.236671,34.476371],[-79.242113,34.482389],[-79.246584,34.481324],[-79.248251,34.479165],[-79.248894,34.477213],[-79.248658,34.473106],[-79.25469,34.472458],[-79.25776,34.473155],[-79.26201,34.474742],[-79.264412,34.475102],[-79.268025,34.474659],[-79.27507393567139,34.47230991429969],[-79.249763,34.449774],[-79.244886,34.445637],[-79.2356041259213,34.437763806841794],[-79.2186311925681,34.4233668023556],[-79.215993,34.421129],[-79.198982,34.406699],[-79.192041,34.40104],[-79.190739,34.399751],[-79.151485,34.366753],[-79.143242,34.359817],[-79.108834170128,34.3308973891866],[-79.10880981613849,34.330876919778895],[-79.106034,34.332367],[-79.100845,34.335803],[-79.093716,34.339873],[-79.090287,34.341444],[-79.086166,34.343955],[-79.082042,34.347891],[-79.080712,34.350164],[-79.080115,34.352261],[-79.07835,34.355409],[-79.074651,34.35857],[-79.075839,34.362485],[-79.080423,34.36908],[-79.085311,34.370841],[-79.086527,34.371666],[-79.091499,34.37202],[-79.094911,34.375164],[-79.097304,34.37933],[-79.101843,34.383813],[-79.103798,34.387343],[-79.103912,34.39332],[-79.105432,34.395861],[-79.108002,34.397669],[-79.110906,34.402316],[-79.112564,34.403483],[-79.112566,34.405773],[-79.110052,34.408339],[-79.111767,34.410582],[-79.110441,34.412323],[-79.112489,34.417337],[-79.112639,34.420176],[-79.111186,34.42219],[-79.109199,34.426258],[-79.104541,34.425713],[-79.10047,34.424713],[-79.094689,34.422342],[-79.094226,34.42319],[-79.086681,34.42703],[-79.083534,34.427031],[-79.083423,34.423917],[-79.080244,34.420025],[-79.078255,34.418865],[-79.077118,34.421685],[-79.075992,34.422185],[-79.076219,34.424365],[-79.072556,34.424517],[-79.070005,34.416501],[-79.062312,34.417411],[-79.060668,34.417948],[-79.056398,34.423318],[-79.054589,34.424493],[-79.051085,34.425079],[-79.046991,34.434244],[-79.045027,34.437971],[-79.039078,34.433802],[-79.038549,34.435241],[-79.03858,34.439195],[-79.037422,34.443954],[-79.036986,34.449833],[-79.037926,34.456024],[-79.040637,34.458476],[-79.039954,34.459616],[-79.03936,34.463207],[-79.041423,34.463268],[-79.051879,34.466569],[-79.049093,34.479265],[-79.041399,34.477361],[-79.041229,34.478673],[-79.041414,34.479486],[-79.04158,34.479892],[-79.041625,34.480415],[-79.041547,34.481284],[-79.041456,34.481461],[-79.040863,34.48257],[-79.03807,34.485309],[-79.044022,34.492233],[-79.049008,34.495382],[-79.04952,34.493772],[-79.051112,34.494468],[-79.065843,34.472807],[-79.071079,34.474461],[-79.072049,34.4732],[-79.074831,34.474298],[-79.082459,34.478389],[-79.080887,34.478976],[-79.078405,34.481899],[-79.076791,34.486427],[-79.071685,34.489629],[-79.070935,34.491812],[-79.068361,34.495354],[-79.067093,34.496222],[-79.056175,34.49265],[-79.052822,34.497097],[-79.06055,34.500373],[-79.06262,34.501651],[-79.062063,34.504039],[-79.060846,34.505024],[-79.059377,34.508454],[-79.055304,34.510678],[-79.051034,34.514894],[-79.045422,34.517971],[-79.034863,34.521339],[-79.031822,34.522707],[-79.030338,34.524121],[-79.02899,34.525693],[-79.029435,34.529075],[-79.024578,34.533723],[-79.024716,34.534697],[-79.025786,34.537273],[-79.028456,34.540358],[-79.034803,34.538474],[-79.036954,34.541044],[-79.041223,34.541123],[-79.044538,34.541874],[-79.045414,34.54111],[-79.046364,34.541951],[-79.050801,34.544529],[-79.056222,34.543512],[-79.058684,34.542634],[-79.06218,34.542627],[-79.06971,34.540253],[-79.070795,34.540291],[-79.07406,34.541806],[-79.076214,34.543959],[-79.078613,34.548054],[-79.084682,34.543377],[-79.086056,34.544806],[-79.08822,34.544084],[-79.090668,34.548107],[-79.089658,34.548423],[-79.092669,34.550524],[-79.088971,34.554312],[-79.087909,34.55649],[-79.092645,34.557195],[-79.095598,34.560398],[-79.100435,34.564367],[-79.106623,34.568322],[-79.108779,34.570175],[-79.110507,34.572931],[-79.110796,34.574799],[-79.112499,34.576286],[-79.116099,34.5773],[-79.119198,34.572508],[-79.121105,34.571619],[-79.129498,34.569537],[-79.12942,34.564282],[-79.13037,34.562271],[-79.131412,34.562898],[-79.138792,34.565946],[-79.140328,34.566804],[-79.147675,34.573675],[-79.151859,34.576736],[-79.155596,34.579475],[-79.156631,34.58135]]]}},{"type":"Feature","properties":{"zcta5":"28360","AFFGEOID10":"8600000US28360","GEOID10":"28360","ALAND10":170223698,"AWATER10":394463,"county_name":"Robeson","state_code":"NC","county_state":"Robeson County, NC","county_fips":"37155","risk_level_county":"Very High Risk (<60% vaccinated)","mean_vaccination_rate_county":51.87,"risk_level_zcta":"Higher Risk (60–69% vaccinated)","mean_vaccination_rate_zips":61.63,"cases":2},"geometry":{"type":"Polygon","coordinates":[[[-79.179953,34.641751],[-79.182484,34.638198],[-79.183359,34.63608],[-79.171176,34.625165],[-79.162048,34.619232],[-79.158956,34.61851],[-79.156291,34.618715],[-79.155232,34.621449],[-79.151007,34.620365],[-79.146926,34.619709],[-79.138439,34.619102],[-79.140985,34.614073],[-79.141937,34.612871],[-79.138075,34.608728],[-79.134347,34.608671],[-79.13023,34.607996],[-79.130975,34.603643],[-79.134479,34.595784],[-79.137172,34.596716],[-79.143178,34.598135],[-79.145658,34.597765],[-79.147836,34.596526],[-79.149247,34.594673],[-79.14856,34.590999],[-79.148825,34.588534],[-79.14712,34.584228],[-79.151532,34.581894],[-79.156631,34.58135],[-79.155596,34.579475],[-79.151859,34.576736],[-79.143559,34.58129],[-79.138244,34.583512],[-79.131897,34.585391],[-79.123794,34.587369],[-79.118247,34.589357],[-79.113648,34.591805],[-79.110357,34.594129],[-79.10769,34.596509],[-79.10346,34.600963],[-79.100046,34.603783],[-79.095065,34.60593],[-79.074867,34.612773],[-79.070511,34.614788],[-79.067719,34.616576],[-79.062947,34.619858],[-79.059555,34.621604],[-79.056847,34.622312],[-79.057138,34.623943],[-79.056036,34.62355],[-79.054841,34.62453],[-79.054772,34.62458],[-79.053536,34.623824],[-79.04873,34.624244],[-79.042312,34.626758],[-79.041552,34.628222],[-79.039942,34.627707],[-79.03979,34.62901],[-79.03434,34.631508],[-79.0367,34.63267],[-79.036453,34.633666],[-79.033627,34.632536],[-79.029972,34.632207],[-79.023624,34.635214],[-79.019322,34.638276],[-79.015452,34.642802],[-79.013584,34.646619],[-79.012359,34.650444],[-79.006048,34.670178],[-79.002189,34.682207],[-78.999215,34.691532],[-78.998762,34.693651],[-78.997424,34.729334],[-78.998834,34.730719],[-78.999019,34.733119],[-78.998128,34.737855],[-78.998794,34.739114],[-78.999288,34.742937],[-79.000242,34.742362],[-79.001644,34.74408],[-79.002363,34.750163],[-79.003806,34.752172],[-79.006856,34.754279],[-79.009647,34.755691],[-79.012659,34.756186],[-79.020973,34.758241],[-79.021978,34.759785],[-79.025631,34.761697],[-79.026765,34.763591],[-79.031808,34.76511],[-79.032925,34.76701],[-79.033702,34.766777],[-79.032153,34.765096],[-79.030627,34.764363],[-79.034207,34.760242],[-79.041712,34.756598],[-79.043586,34.755689],[-79.053383,34.740923],[-79.053142,34.739585],[-79.055334,34.738852],[-79.061273,34.742864],[-79.063186,34.743705],[-79.071937,34.745743],[-79.074713,34.746856],[-79.077868,34.751823],[-79.085277,34.746291],[-79.084276,34.746019],[-79.083444,34.74405],[-79.080171,34.742723],[-79.08139,34.736678],[-79.079809,34.734801],[-79.079892,34.732946],[-79.079194,34.731176],[-79.076813,34.728711],[-79.075786,34.723971],[-79.076313,34.721544],[-79.075509,34.719918],[-79.07537,34.717125],[-79.075841,34.716026],[-79.074981,34.713095],[-79.076256,34.711378],[-79.076228,34.709568],[-79.0752,34.708454],[-79.080903,34.708389],[-79.08322,34.708871],[-79.08504,34.710093],[-79.115354,34.745375],[-79.120053,34.736624],[-79.122511,34.734649],[-79.123936,34.734063],[-79.134107,34.731154],[-79.138424,34.733143],[-79.142539,34.725036],[-79.138087,34.723182],[-79.136036,34.722883],[-79.133541,34.721691],[-79.130131,34.719285],[-79.124809,34.717721],[-79.119232,34.713733],[-79.115453,34.712113],[-79.11675,34.7102],[-79.116567,34.707317],[-79.114941,34.705843],[-79.116873,34.703686],[-79.114916,34.702473],[-79.112725,34.704773],[-79.107909,34.702259],[-79.105156,34.698594],[-79.098556,34.694228],[-79.093703,34.689675],[-79.098267,34.685981],[-79.10038,34.68466],[-79.105247,34.683081],[-79.108847,34.682586],[-79.114856,34.682211],[-79.113469,34.679569],[-79.110664,34.676557],[-79.110063,34.66865],[-79.110494,34.667451],[-79.112958,34.664603],[-79.117036,34.666634],[-79.119481,34.667863],[-79.120284,34.668438],[-79.129806,34.677293],[-79.136049,34.676025],[-79.137312,34.675337],[-79.14211,34.671003],[-79.144651,34.669893],[-79.143837,34.666228],[-79.143575,34.663871],[-79.140499,34.662568],[-79.136319,34.658041],[-79.131535,34.655617],[-79.128878,34.651768],[-79.128905,34.648981],[-79.132734,34.651302],[-79.142729,34.656944],[-79.149185,34.657571],[-79.145807,34.654767],[-79.142731,34.652751],[-79.138022,34.651123],[-79.135307,34.649656],[-79.1319,34.648853],[-79.129435,34.646791],[-79.129187,34.645351],[-79.135721,34.643639],[-79.138701,34.643597],[-79.140612,34.64423],[-79.143141,34.643105],[-79.14737,34.63791],[-79.155088,34.634532],[-79.158462,34.635814],[-79.161016,34.637432],[-79.164098,34.638618],[-79.169672,34.641493],[-79.176457,34.649139],[-79.178359,34.646474],[-79.179953,34.641751]]]}},{"type":"Feature","properties":{"zcta5":"28377","AFFGEOID10":"8600000US28377","GEOID10":"28377","ALAND10":261150646,"AWATER10":1166913,"county_name":"Robeson","state_code":"NC","county_state":"Robeson County, NC","county_fips":"37155","risk_level_county":"Very High Risk (<60% vaccinated)","mean_vaccination_rate_county":51.87,"risk_level_zcta":"Higher Risk (60–69% vaccinated)","mean_vaccination_rate_zips":66.6,"cases":2},"geometry":{"type":"Polygon","coordinates":[[[-79.349048,34.90021],[-79.349805,34.898919],[-79.349585,34.897647],[-79.34836,34.896068],[-79.350315,34.894542],[-79.349031,34.893859],[-79.348125,34.888855],[-79.348854,34.887446],[-79.346624,34.882834],[-79.346227,34.879723],[-79.344796,34.877241],[-79.34506,34.874687],[-79.344059,34.874844],[-79.34262,34.87362],[-79.342882,34.871997],[-79.342076,34.872015],[-79.341872,34.869862],[-79.343427,34.870009],[-79.342881,34.86763],[-79.341592,34.864888],[-79.341742,34.863562],[-79.33786,34.858898],[-79.338452,34.858397],[-79.338295,34.856215],[-79.336965,34.853694],[-79.337639,34.852702],[-79.340093,34.851971],[-79.338747,34.850766],[-79.341422,34.848838],[-79.341868,34.847484],[-79.342769,34.847645],[-79.343409,34.846078],[-79.344829,34.846256],[-79.345376,34.843228],[-79.347957,34.842858],[-79.347344,34.840754],[-79.348112,34.84098],[-79.349173,34.838478],[-79.347535,34.838544],[-79.32669,34.837866],[-79.326406,34.837504],[-79.325576,34.837877],[-79.269847,34.836167],[-79.271016,34.839247],[-79.271098,34.841122],[-79.272153,34.8427],[-79.272319,34.844439],[-79.275846,34.849492],[-79.278246,34.849919],[-79.27302,34.85403],[-79.272663,34.852915],[-79.264719,34.847515],[-79.268849,34.848252],[-79.267192,34.842404],[-79.266553,34.841197],[-79.261253,34.846572],[-79.26077,34.848147],[-79.248361,34.849761],[-79.247193,34.848296],[-79.246292,34.845357],[-79.247415,34.842558],[-79.246861,34.841066],[-79.24381,34.839802],[-79.24309,34.838654],[-79.239984,34.838786],[-79.237932,34.837913],[-79.234822,34.835078],[-79.241402,34.835283],[-79.238073,34.831144],[-79.235857,34.83251],[-79.234592,34.831555],[-79.232684,34.832281],[-79.23007,34.832498],[-79.230838,34.829043],[-79.22961,34.826509],[-79.228828,34.822202],[-79.233117,34.824636],[-79.235835,34.823932],[-79.239768,34.824174],[-79.246381,34.820325],[-79.244309,34.817886],[-79.239218,34.813184],[-79.236376,34.805587],[-79.240344,34.805377],[-79.242712,34.804435],[-79.255566,34.794529],[-79.256201,34.793883],[-79.254603,34.792368],[-79.250761,34.791634],[-79.252003,34.78738],[-79.255376,34.783515],[-79.256042,34.781958],[-79.256245,34.776055],[-79.257485,34.774098],[-79.251728,34.765535],[-79.2472,34.767202],[-79.241685,34.7683],[-79.239189,34.769697],[-79.233842,34.773662],[-79.232364,34.774305],[-79.227057,34.774101],[-79.225801,34.77446],[-79.214403,34.7797],[-79.207677,34.77441],[-79.213895,34.765079],[-79.210169,34.762499],[-79.207843,34.765817],[-79.204972,34.750542],[-79.171701,34.758872],[-79.169847,34.758036],[-79.15864,34.751346],[-79.153833,34.748016],[-79.150014,34.742846],[-79.146202,34.738304],[-79.150126,34.735368],[-79.147579,34.732077],[-79.14768,34.728109],[-79.145828,34.726635],[-79.142539,34.725036],[-79.138424,34.733143],[-79.134107,34.731154],[-79.123936,34.734063],[-79.122511,34.734649],[-79.120053,34.736624],[-79.115354,34.745375],[-79.08504,34.710093],[-79.08322,34.708871],[-79.080903,34.708389],[-79.0752,34.708454],[-79.076228,34.709568],[-79.076256,34.711378],[-79.074981,34.713095],[-79.075841,34.716026],[-79.07537,34.717125],[-79.075509,34.719918],[-79.076313,34.721544],[-79.075786,34.723971],[-79.076813,34.728711],[-79.079194,34.731176],[-79.079892,34.732946],[-79.079809,34.734801],[-79.08139,34.736678],[-79.080171,34.742723],[-79.083444,34.74405],[-79.084276,34.746019],[-79.085277,34.746291],[-79.086541,34.750162],[-79.086224,34.75145],[-79.087639,34.753418],[-79.086725,34.755708],[-79.088084,34.757357],[-79.086976,34.760334],[-79.086616,34.762806],[-79.088114,34.763837],[-79.088087,34.765004],[-79.091195,34.766561],[-79.092916,34.769262],[-79.092446,34.774537],[-79.094778,34.777653],[-79.094945,34.778576],[-79.09686,34.780138],[-79.097166,34.781672],[-79.099137,34.783023],[-79.100582,34.787648],[-79.102692,34.789616],[-79.104832,34.79463],[-79.108303,34.798269],[-79.110609,34.80184],[-79.112943,34.803855],[-79.115804,34.80699],[-79.119442,34.809782],[-79.120775,34.811362],[-79.122664,34.811887],[-79.126928,34.815571],[-79.128214,34.81731],[-79.130733,34.819266],[-79.131866,34.821595],[-79.135499,34.826749],[-79.137748,34.827735],[-79.139357,34.829659],[-79.141354,34.833094],[-79.141492,34.834514],[-79.142602,34.83543],[-79.144267,34.83882],[-79.14596,34.840309],[-79.147624,34.843021],[-79.152694,34.83882],[-79.153853,34.838284],[-79.157194,34.842022],[-79.159612,34.846471],[-79.163237,34.850586],[-79.166706,34.853007],[-79.158497,34.859403],[-79.165534,34.864466],[-79.168656,34.866101],[-79.169802,34.867479],[-79.173363,34.868756],[-79.176335,34.870657],[-79.179252,34.874183],[-79.188924,34.88007],[-79.190786,34.882474],[-79.190619,34.883688],[-79.193815,34.88655],[-79.199747,34.88833],[-79.202411,34.889635],[-79.197192,34.894664],[-79.191939,34.89873],[-79.195411,34.902182],[-79.19751,34.90069],[-79.206306,34.911188],[-79.206884,34.911147],[-79.19895,34.91225],[-79.197779,34.912478],[-79.200286,34.914473],[-79.202828,34.918327],[-79.205005,34.920477],[-79.210339,34.923937],[-79.215599,34.927295],[-79.218881,34.93134],[-79.22058,34.932652],[-79.225409,34.933823],[-79.23078,34.933784],[-79.233821,34.934848],[-79.237809,34.937773],[-79.243898,34.932785],[-79.246525,34.934737],[-79.248924,34.935034],[-79.250281,34.935809],[-79.252586,34.938787],[-79.255643,34.940941],[-79.255836,34.942819],[-79.257226,34.943965],[-79.259506,34.944561],[-79.261503,34.946284],[-79.268138,34.938869],[-79.27359,34.927239],[-79.274699,34.926099],[-79.296537,34.91356],[-79.303328,34.910465],[-79.303923,34.909753],[-79.30348,34.905803],[-79.324928,34.905763],[-79.336047,34.905211],[-79.3412,34.905311],[-79.344583,34.902004],[-79.349048,34.90021]]]}},{"type":"Feature","properties":{"zcta5":"28383","AFFGEOID10":"8600000US28383","GEOID10":"28383","ALAND10":270156327,"AWATER10":18698,"county_name":"Robeson","state_code":"NC","county_state":"Robeson County, NC","county_fips":"37155","risk_level_county":"Very High Risk (<60% vaccinated)","mean_vaccination_rate_county":51.87,"risk_level_zcta":"Higher Risk (60–69% vaccinated)","mean_vaccination_rate_zips":61.06,"cases":2},"geometry":{"type":"Polygon","coordinates":[[[-79.243198,34.657954],[-79.243558,34.656477],[-79.245535,34.644065],[-79.247051,34.644056],[-79.248669,34.645434],[-79.248769,34.646649],[-79.251387,34.647603],[-79.253213,34.649241],[-79.256011,34.649685],[-79.259858,34.653765],[-79.260032,34.654832],[-79.261749,34.655811],[-79.262814,34.657409],[-79.263021,34.660493],[-79.267698,34.66378],[-79.272182,34.664002],[-79.27338,34.664779],[-79.274823,34.66691],[-79.278175,34.668952],[-79.280667,34.671349],[-79.283704,34.669735],[-79.284609,34.667992],[-79.287507,34.670826],[-79.289649,34.668573],[-79.29286,34.646372],[-79.294696,34.649333],[-79.29536,34.652424],[-79.29949,34.654794],[-79.299822,34.657061],[-79.300653,34.658389],[-79.304747,34.65909],[-79.305692,34.659685],[-79.304889,34.657926],[-79.304712,34.654108],[-79.305915,34.653711],[-79.306475,34.651978],[-79.306317,34.646838],[-79.305918,34.645513],[-79.305911,34.640667],[-79.306576,34.637528],[-79.3088,34.63359],[-79.309505,34.633059],[-79.315377,34.633911],[-79.320154,34.63491],[-79.320308,34.626304],[-79.31722,34.621874],[-79.314893,34.620134],[-79.314034,34.617294],[-79.31517,34.613333],[-79.315004,34.611936],[-79.310638,34.606548],[-79.308689,34.603633],[-79.310184,34.600143],[-79.31571,34.603741],[-79.318719,34.604527],[-79.319281,34.608624],[-79.320654,34.608284],[-79.322695,34.609067],[-79.326442,34.609462],[-79.328852,34.612027],[-79.328409,34.613034],[-79.329822,34.615278],[-79.329352,34.618187],[-79.328549,34.620042],[-79.329823,34.622812],[-79.334458,34.622313],[-79.33177,34.606649],[-79.329963,34.602483],[-79.331317,34.602074],[-79.331373,34.600862],[-79.333386,34.600419],[-79.33486,34.602909],[-79.337244,34.60316],[-79.338877,34.602069],[-79.340592,34.60185],[-79.341666,34.599813],[-79.341741,34.598083],[-79.342582,34.598147],[-79.345317,34.59664],[-79.351607,34.595276],[-79.352755,34.595865],[-79.350966,34.590396],[-79.35131,34.589645],[-79.353958,34.588049],[-79.356286,34.58784],[-79.356001,34.585008],[-79.358595,34.58483],[-79.363538,34.583768],[-79.371125,34.58653],[-79.375517,34.589103],[-79.379807,34.590329],[-79.380098,34.594148],[-79.382563,34.598259],[-79.382536,34.602784],[-79.380846,34.609053],[-79.380957,34.610986],[-79.380063,34.612539],[-79.378934,34.616956],[-79.384592,34.617615],[-79.392023,34.615594],[-79.395702,34.615789],[-79.395751,34.612918],[-79.393968,34.605996],[-79.394535,34.603513],[-79.39968,34.603723],[-79.40115,34.605643],[-79.408124,34.606299],[-79.40303,34.601759],[-79.400381,34.599891],[-79.395343,34.597125],[-79.398699,34.592492],[-79.400755,34.591692],[-79.405913,34.591235],[-79.412949,34.591607],[-79.4138498034828,34.591179510755595],[-79.3915718332785,34.572797398070705],[-79.358317,34.545358],[-79.331328,34.521869],[-79.324854,34.516282],[-79.323249,34.514634],[-79.306653,34.500426],[-79.286703,34.482664],[-79.27507393567139,34.47230991429969],[-79.268025,34.474659],[-79.264412,34.475102],[-79.26201,34.474742],[-79.25776,34.473155],[-79.25469,34.472458],[-79.248658,34.473106],[-79.248894,34.477213],[-79.248251,34.479165],[-79.246584,34.481324],[-79.242113,34.482389],[-79.236671,34.476371],[-79.235378,34.475569],[-79.233728,34.475408],[-79.22833,34.4761],[-79.226623,34.475905],[-79.213602,34.471757],[-79.212282,34.47158],[-79.200945,34.471619],[-79.191164,34.475246],[-79.192125,34.477845],[-79.193452,34.477661],[-79.198236,34.481485],[-79.200974,34.484851],[-79.201914,34.486866],[-79.204847,34.488767],[-79.208664,34.49211],[-79.210822,34.494582],[-79.214113,34.496528],[-79.216506,34.498981],[-79.220929,34.507756],[-79.223511,34.511735],[-79.229267,34.523488],[-79.230485,34.525437],[-79.232386,34.527231],[-79.23607,34.528721],[-79.239649,34.531451],[-79.242787,34.534721],[-79.243818,34.537115],[-79.232493,34.540525],[-79.232251,34.545414],[-79.226814,34.546857],[-79.224961,34.550578],[-79.209056,34.554946],[-79.207517,34.55524],[-79.206018,34.558731],[-79.205135,34.564946],[-79.196563,34.568103],[-79.197754,34.572826],[-79.195493,34.57389],[-79.190179,34.569713],[-79.166254,34.577886],[-79.166837,34.580546],[-79.156631,34.58135],[-79.151532,34.581894],[-79.14712,34.584228],[-79.148825,34.588534],[-79.14856,34.590999],[-79.149247,34.594673],[-79.147836,34.596526],[-79.145658,34.597765],[-79.143178,34.598135],[-79.137172,34.596716],[-79.134479,34.595784],[-79.130975,34.603643],[-79.13023,34.607996],[-79.134347,34.608671],[-79.138075,34.608728],[-79.141937,34.612871],[-79.140985,34.614073],[-79.138439,34.619102],[-79.146926,34.619709],[-79.151007,34.620365],[-79.155232,34.621449],[-79.156291,34.618715],[-79.158956,34.61851],[-79.162048,34.619232],[-79.171176,34.625165],[-79.183359,34.63608],[-79.182484,34.638198],[-79.179953,34.641751],[-79.183406,34.643682],[-79.184913,34.644074],[-79.185824,34.645719],[-79.184966,34.647697],[-79.188042,34.647404],[-79.189286,34.647777],[-79.188495,34.649021],[-79.187383,34.648503],[-79.187437,34.651231],[-79.188973,34.651815],[-79.188998,34.65279],[-79.190819,34.651433],[-79.193136,34.65357],[-79.194134,34.652743],[-79.195284,34.655422],[-79.197873,34.656968],[-79.200389,34.656683],[-79.201797,34.658241],[-79.200879,34.658851],[-79.202053,34.660252],[-79.201491,34.662593],[-79.203144,34.665402],[-79.206923,34.664293],[-79.207186,34.6652],[-79.209144,34.664508],[-79.209339,34.666156],[-79.210231,34.66586],[-79.211623,34.668227],[-79.217231,34.66885],[-79.218945,34.667761],[-79.219973,34.669043],[-79.222282,34.667958],[-79.22523,34.670848],[-79.226741,34.670706],[-79.230012,34.668486],[-79.231157,34.66899],[-79.23324,34.66607],[-79.228282,34.663722],[-79.220472,34.65821],[-79.213857,34.656906],[-79.211914,34.65539],[-79.210862,34.656805],[-79.211107,34.658953],[-79.209441,34.657959],[-79.225213,34.636671],[-79.231201,34.641118],[-79.232976,34.643819],[-79.234805,34.644506],[-79.236774,34.647253],[-79.235843,34.649336],[-79.236265,34.651353],[-79.238448,34.653056],[-79.238215,34.654419],[-79.243198,34.657954]]]}},{"type":"Feature","properties":{"zcta5":"28384","AFFGEOID10":"8600000US28384","GEOID10":"28384","ALAND10":252168549,"AWATER10":371439,"county_name":"Robeson","state_code":"NC","county_state":"Robeson County, NC","county_fips":"37155","risk_level_county":"Very High Risk (<60% vaccinated)","mean_vaccination_rate_county":51.87,"risk_level_zcta":"Higher Risk (60–69% vaccinated)","mean_vaccination_rate_zips":63.78,"cases":2},"geometry":{"type":"Polygon","coordinates":[[[-79.07248,34.854669],[-79.067974,34.852385],[-79.065568,34.849321],[-79.066825,34.843773],[-79.066397,34.84226],[-79.06379,34.838931],[-79.062799,34.836982],[-79.066855,34.831803],[-79.065891,34.829234],[-79.06138,34.82638],[-79.057055,34.823152],[-79.054115,34.821752],[-79.048206,34.820921],[-79.046714,34.820319],[-79.051623,34.819481],[-79.054294,34.818139],[-79.053319,34.816139],[-79.051805,34.81539],[-79.052265,34.814266],[-79.049529,34.812381],[-79.045417,34.810078],[-79.045859,34.808076],[-79.071177,34.811071],[-79.070059,34.80927],[-79.067512,34.807703],[-79.066862,34.806717],[-79.071834,34.808012],[-79.074309,34.808014],[-79.075526,34.807333],[-79.077776,34.803961],[-79.083641,34.80414],[-79.083456,34.805825],[-79.085703,34.805357],[-79.086187,34.804092],[-79.085559,34.801017],[-79.064738,34.781825],[-79.063158,34.780075],[-79.065144,34.779258],[-79.063924,34.776887],[-79.06177,34.777042],[-79.059577,34.776236],[-79.041712,34.756598],[-79.034207,34.760242],[-79.030627,34.764363],[-79.032153,34.765096],[-79.033702,34.766777],[-79.032925,34.76701],[-79.031808,34.76511],[-79.026765,34.763591],[-79.025631,34.761697],[-79.021978,34.759785],[-79.020973,34.758241],[-79.012659,34.756186],[-79.009647,34.755691],[-79.006856,34.754279],[-79.003806,34.752172],[-79.002363,34.750163],[-79.001644,34.74408],[-79.000242,34.742362],[-78.999288,34.742937],[-78.998794,34.739114],[-78.998128,34.737855],[-78.999019,34.733119],[-78.998834,34.730719],[-78.997424,34.729334],[-78.994906,34.727808],[-78.991961,34.726832],[-78.986302,34.723188],[-78.984733,34.722865],[-78.983418,34.718879],[-78.982221,34.72463],[-78.977491,34.722265],[-78.975382,34.721692],[-78.970119,34.721402],[-78.969211,34.721061],[-78.972331,34.716892],[-78.972592,34.715328],[-78.9704,34.713605],[-78.970357,34.710358],[-78.969199,34.708955],[-78.969069,34.707051],[-78.967592,34.704796],[-78.96593,34.704187],[-78.964887,34.702839],[-78.962569,34.703719],[-78.963458,34.70824],[-78.964278,34.709519],[-78.968464,34.713843],[-78.968933,34.715776],[-78.966495,34.720562],[-78.952966,34.716721],[-78.948252,34.715973],[-78.945672,34.718564],[-78.944324,34.722522],[-78.945825,34.722743],[-78.951266,34.724651],[-78.954979,34.726553],[-78.95712,34.726535],[-78.958496,34.727682],[-78.959903,34.7299],[-78.959644,34.736919],[-78.959034,34.738323],[-78.958176,34.73589],[-78.95375,34.733312],[-78.952624,34.732952],[-78.953285,34.734863],[-78.956465,34.735023],[-78.957502,34.738048],[-78.95278,34.740501],[-78.951976,34.740707],[-78.948341,34.737525],[-78.945653,34.734553],[-78.941722,34.732339],[-78.940038,34.730644],[-78.930093,34.746933],[-78.928899,34.74825],[-78.928034,34.747584],[-78.923797,34.747861],[-78.920146,34.748799],[-78.916947,34.748356],[-78.912429,34.749115],[-78.910849,34.749056],[-78.904573,34.743538],[-78.902689,34.742267],[-78.898243,34.737082],[-78.901903,34.735147],[-78.898537,34.730316],[-78.896411,34.73125],[-78.894923,34.732653],[-78.892546,34.733369],[-78.888132,34.733347],[-78.885496,34.73456],[-78.88056,34.734306],[-78.877898,34.733457],[-78.8727,34.734261],[-78.856992,34.736012],[-78.855174,34.735654],[-78.854549,34.735199],[-78.85223,34.730988],[-78.850246,34.729027],[-78.847169,34.724535],[-78.845475,34.720018],[-78.844207,34.719198],[-78.843882,34.717534],[-78.841295,34.714707],[-78.839421,34.713637],[-78.833957,34.713791],[-78.832256,34.712752],[-78.830404,34.71393],[-78.832983,34.716105],[-78.831897,34.718363],[-78.832375,34.719742],[-78.836103,34.717447],[-78.83762,34.717738],[-78.841476,34.722079],[-78.844456,34.724124],[-78.844516,34.724514],[-78.840952,34.727352],[-78.843111,34.726767],[-78.844887,34.727074],[-78.846017,34.729487],[-78.847407,34.730272],[-78.84879,34.732618],[-78.852769,34.734058],[-78.854381,34.735743],[-78.854578,34.738646],[-78.855475,34.740805],[-78.855381,34.743327],[-78.856032,34.745129],[-78.856217,34.748079],[-78.857352,34.750538],[-78.858556,34.751592],[-78.858275,34.753346],[-78.860526,34.754628],[-78.862466,34.75756],[-78.862085,34.760005],[-78.862923,34.760691],[-78.857284,34.763609],[-78.858745,34.765572],[-78.859271,34.768806],[-78.860003,34.777042],[-78.854858,34.777878],[-78.852721,34.775556],[-78.851115,34.775229],[-78.848645,34.773816],[-78.847234,34.77236],[-78.843313,34.780065],[-78.839864,34.783872],[-78.823219,34.797284],[-78.824683,34.798742],[-78.824669,34.799717],[-78.82708,34.800252],[-78.825623,34.802036],[-78.828014,34.80475],[-78.844249,34.821238],[-78.84698,34.818984],[-78.850655,34.819673],[-78.857936,34.818351],[-78.859744,34.819909],[-78.862853,34.820068],[-78.862159,34.818741],[-78.863511,34.817347],[-78.865204,34.819503],[-78.864507,34.821591],[-78.86938,34.823606],[-78.870506,34.825384],[-78.874751,34.82713],[-78.879733,34.827057],[-78.880622,34.827409],[-78.881722,34.829949],[-78.883642,34.829786],[-78.884221,34.831579],[-78.88616,34.83291],[-78.893084,34.834279],[-78.894441,34.836824],[-78.896607,34.83919],[-78.886982,34.84794],[-78.891927,34.849857],[-78.896235,34.850963],[-78.891512,34.858074],[-78.890018,34.861451],[-78.893804,34.861217],[-78.902234,34.859034],[-78.903124,34.859372],[-78.902946,34.863539],[-78.902348,34.865594],[-78.909792,34.869333],[-78.914754,34.866657],[-78.913142,34.865228],[-78.913142,34.86093],[-78.915998,34.8571],[-78.919709,34.854348],[-78.922193,34.857425],[-78.923746,34.858266],[-78.924852,34.861051],[-78.927018,34.863957],[-78.930489,34.863447],[-78.932765,34.864859],[-78.94869,34.864949],[-78.949368,34.861261],[-78.947068,34.860016],[-78.946347,34.858728],[-78.946645,34.857132],[-78.948091,34.855012],[-78.948393,34.85337],[-78.947723,34.852166],[-78.946512,34.851416],[-78.943753,34.855059],[-78.941036,34.852306],[-78.934894,34.851219],[-78.932038,34.851139],[-78.931261,34.847777],[-78.946435,34.839869],[-78.953522,34.845787],[-78.958828,34.852609],[-78.959662,34.854441],[-78.961468,34.856272],[-78.966888,34.859744],[-78.971739,34.862469],[-78.975967,34.863656],[-78.978774,34.863479],[-78.986312,34.860405],[-78.99168,34.86523],[-79.000662,34.866872],[-79.003182,34.869517],[-79.002581,34.865487],[-79.005477,34.869035],[-79.008103,34.86813],[-79.011793,34.870962],[-79.014462,34.869221],[-79.017362,34.869954],[-79.039105,34.870984],[-79.042625,34.86602],[-79.046323,34.861059],[-79.049725,34.865799],[-79.048815,34.857328],[-79.054909,34.855883],[-79.061701,34.856575],[-79.07027,34.858035],[-79.07248,34.854669]]]}}]}