{"type":"FeatureCollection","features":[{"type":"Feature","properties":{"zcta5":"77358","AFFGEOID10":"8600000US77358","GEOID10":"77358","ALAND10":320691872,"AWATER10":8668919,"county_name":"San Jacinto","state_code":"TX","county_state":"San Jacinto County, TX","county_fips":"48407","risk_level_county":"Higher Risk (60–69% vaccinated)","mean_vaccination_rate_county":66.68,"risk_level_zcta":"Higher Risk (60–69% vaccinated)","mean_vaccination_rate_zips":64.91,"cases":803},"geometry":{"type":"Polygon","coordinates":[[[-95.345124,30.646554],[-95.34647,30.625197],[-95.35056,30.585947],[-95.373847,30.59102],[-95.375539,30.592282],[-95.376976,30.591328],[-95.380363,30.587809],[-95.385262,30.586803],[-95.385887,30.584093],[-95.386734,30.583338],[-95.393837,30.581871],[-95.400597,30.578814],[-95.404259,30.578495],[-95.405014,30.578829],[-95.40934,30.585928],[-95.413116,30.584265],[-95.413963,30.582409],[-95.415497,30.58186],[-95.418221,30.585718],[-95.419731,30.585154],[-95.421036,30.583553],[-95.425034,30.581238],[-95.429527,30.578106],[-95.436234,30.575018],[-95.441788,30.571793],[-95.446571,30.570757],[-95.450516,30.569487],[-95.45327,30.567581],[-95.459068,30.565748],[-95.465041,30.556832],[-95.464275,30.548283],[-95.469938,30.545891],[-95.47921,30.547915],[-95.47561,30.55963],[-95.475372,30.56459],[-95.477051,30.570774],[-95.48539,30.577969],[-95.487076,30.581518],[-95.490875,30.586782],[-95.494034,30.589352],[-95.497505,30.589348],[-95.500259,30.592272],[-95.502174,30.595543],[-95.504547,30.597887],[-95.505255,30.600874],[-95.5074,30.624716],[-95.50889,30.624716],[-95.509667,30.622446],[-95.511785,30.619626],[-95.516972,30.615846],[-95.519012,30.616286],[-95.522133,30.614951],[-95.52411,30.616057],[-95.526544,30.615925],[-95.528718,30.61448],[-95.530872,30.614206],[-95.530872,30.61569],[-95.529002,30.621742],[-95.529485,30.621692],[-95.531444,30.615383],[-95.533313,30.611288],[-95.534905,30.613185],[-95.537575,30.61535],[-95.53809,30.618612],[-95.549987,30.608767],[-95.550974,30.61536],[-95.5505,30.617704],[-95.550752,30.61954],[-95.55189,30.619221],[-95.55536,30.620227],[-95.557883,30.619677],[-95.559552,30.617601],[-95.556251,30.605371],[-95.555994,30.603791],[-95.568932,30.593193],[-95.571084,30.591297],[-95.57216,30.591231],[-95.570229,30.585171],[-95.566286,30.584009],[-95.567177,30.58199],[-95.572373,30.580742],[-95.574012,30.581],[-95.576026,30.580005],[-95.576414,30.579103],[-95.583268,30.578739],[-95.586515,30.577572],[-95.5832,30.574384],[-95.580064,30.571844],[-95.58739,30.565639],[-95.590683,30.562172],[-95.592651,30.561541],[-95.597008,30.561354],[-95.601181,30.559679],[-95.602135,30.558672],[-95.602432,30.556068],[-95.603394,30.552742],[-95.605652,30.550434],[-95.607475,30.549191],[-95.607079,30.548252],[-95.604225,30.545952],[-95.602882,30.545359],[-95.599213,30.545916],[-95.595184,30.54744],[-95.593472,30.547735],[-95.598178,30.545552],[-95.600164,30.542467],[-95.601338,30.541461],[-95.603224,30.54101],[-95.606353,30.536969],[-95.605438,30.534473],[-95.607029,30.53337],[-95.606997,30.530145],[-95.609328,30.531877],[-95.614734,30.535072],[-95.618424,30.536556],[-95.620188,30.538562],[-95.62124,30.543981],[-95.623239,30.547205],[-95.624569,30.548277],[-95.628089,30.548545],[-95.632074,30.55052],[-95.63357,30.553536],[-95.632676,30.556631],[-95.631545,30.557072],[-95.631615,30.558769],[-95.633153,30.560462],[-95.634562,30.561119],[-95.63392,30.561977],[-95.63578,30.563695],[-95.639664,30.560322],[-95.641327,30.559456],[-95.647652,30.558275],[-95.64978,30.557386],[-95.651733,30.555836],[-95.658264,30.553711],[-95.667244,30.551559],[-95.666458,30.550371],[-95.663832,30.543214],[-95.611013,30.51533],[-95.605176,30.512638],[-95.598878,30.50898],[-95.491265,30.508833],[-95.460718,30.508889],[-95.460111,30.502229],[-95.459795,30.490089],[-95.45885,30.477904],[-95.455783,30.47751],[-95.453245,30.477993],[-95.451657,30.476872],[-95.449089,30.473506],[-95.445014,30.471447],[-95.441974,30.472068],[-95.439964,30.471336],[-95.437108,30.471269],[-95.435654,30.472438],[-95.43367,30.471019],[-95.432533,30.470997],[-95.431873,30.472051],[-95.432931,30.472463],[-95.432614,30.47386],[-95.431426,30.47606],[-95.430025,30.477091],[-95.429947,30.478786],[-95.42897,30.480505],[-95.427066,30.48101],[-95.42675,30.482476],[-95.425613,30.482866],[-95.424107,30.485042],[-95.424425,30.486394],[-95.425854,30.486851],[-95.425909,30.489829],[-95.424772,30.490539],[-95.426069,30.492554],[-95.424881,30.495441],[-95.425331,30.496403],[-95.424142,30.497755],[-95.424939,30.500219],[-95.424306,30.500642],[-95.42645,30.502519],[-95.426769,30.505405],[-95.425976,30.506505],[-95.426083,30.508818],[-95.361866,30.508916],[-95.360414,30.505166],[-95.359156,30.504369],[-95.358856,30.506194],[-95.356822,30.526293],[-95.35476,30.526438],[-95.34833,30.525323],[-95.338788,30.524154],[-95.332272,30.520498],[-95.328456,30.519755],[-95.328526,30.524448],[-95.328852,30.525477],[-95.324978,30.527489],[-95.322889,30.528968],[-95.319559,30.532359],[-95.316764,30.534448],[-95.313851,30.535713],[-95.310653,30.536266],[-95.310644,30.534016],[-95.309171,30.533785],[-95.304833,30.535275],[-95.302242,30.53528],[-95.301321,30.535984],[-95.300323,30.538837],[-95.300463,30.539832],[-95.297897,30.541146],[-95.294677,30.541706],[-95.292586,30.544191],[-95.290751,30.544278],[-95.287245,30.542678],[-95.285944,30.539418],[-95.284198,30.537559],[-95.282883,30.537586],[-95.281207,30.536074],[-95.280298,30.536426],[-95.278539,30.534721],[-95.27605,30.534149],[-95.275536,30.53267],[-95.273485,30.532526],[-95.272666,30.531239],[-95.273003,30.52986],[-95.270597,30.528072],[-95.269829,30.526027],[-95.268089,30.525795],[-95.268147,30.524866],[-95.266579,30.524497],[-95.266216,30.525652],[-95.263892,30.525244],[-95.263016,30.523875],[-95.260997,30.523126],[-95.261125,30.520993],[-95.25983,30.519739],[-95.258867,30.516511],[-95.253864,30.519846],[-95.251375,30.522412],[-95.250493,30.526026],[-95.249589,30.527248],[-95.248557,30.530836],[-95.24381,30.533755],[-95.240019,30.538429],[-95.238168,30.540006],[-95.235267,30.543083],[-95.236819,30.546536],[-95.239038,30.55072],[-95.238525,30.558508],[-95.238841,30.5611],[-95.249778,30.558261],[-95.283495,30.547664],[-95.285959,30.551095],[-95.279116,30.558376],[-95.284802,30.598155],[-95.284719,30.607208],[-95.291993,30.607045],[-95.291614,30.608408],[-95.288702,30.611673],[-95.289583,30.613525],[-95.292455,30.614006],[-95.297807,30.619805],[-95.309452,30.625166],[-95.310656,30.626112],[-95.31327,30.626541],[-95.315645,30.631143],[-95.316966,30.631946],[-95.316518,30.633578],[-95.308989,30.633268],[-95.307616,30.634638],[-95.303763,30.637453],[-95.302264,30.638181],[-95.299754,30.637707],[-95.295366,30.634396],[-95.294333,30.632847],[-95.29351,30.632576],[-95.276838,30.632056],[-95.274465,30.634607],[-95.27432,30.636586],[-95.267346,30.63477],[-95.263557,30.634241],[-95.262209,30.635395],[-95.259761,30.635284],[-95.2591,30.634536],[-95.257701,30.635388],[-95.255095,30.635288],[-95.257096,30.638219],[-95.261952,30.64076],[-95.262396,30.641745],[-95.261601,30.64352],[-95.263336,30.645522],[-95.267539,30.64554],[-95.26942,30.647338],[-95.268974,30.649224],[-95.269615,30.652044],[-95.271071,30.651896],[-95.271967,30.653508],[-95.273818,30.653646],[-95.27582,30.655438],[-95.278439,30.656962],[-95.280093,30.657303],[-95.281269,30.656583],[-95.28443,30.656699],[-95.285663,30.657299],[-95.291113,30.65659],[-95.293192,30.658169],[-95.294013,30.657855],[-95.294814,30.658158],[-95.296066,30.660296],[-95.298495,30.661391],[-95.300498,30.663282],[-95.301134,30.664739],[-95.303061,30.665723],[-95.304575,30.665657],[-95.30558,30.666399],[-95.307702,30.665364],[-95.306142,30.664134],[-95.306858,30.661611],[-95.308198,30.658838],[-95.311071,30.65705],[-95.314675,30.656515],[-95.316649,30.655603],[-95.319726,30.653498],[-95.322582,30.648092],[-95.323983,30.646521],[-95.325932,30.645449],[-95.327994,30.644799],[-95.330704,30.644681],[-95.345124,30.646554]]]}},{"type":"Feature","properties":{"zcta5":"77331","AFFGEOID10":"8600000US77331","GEOID10":"77331","ALAND10":396546946,"AWATER10":64854685,"county_name":"San Jacinto","state_code":"TX","county_state":"San Jacinto County, TX","county_fips":"48407","risk_level_county":"Higher Risk (60–69% vaccinated)","mean_vaccination_rate_county":66.68,"risk_level_zcta":"Higher Risk (60–69% vaccinated)","mean_vaccination_rate_zips":65.35,"cases":803},"geometry":{"type":"Polygon","coordinates":[[[-95.269615,30.652044],[-95.268974,30.649224],[-95.26942,30.647338],[-95.267539,30.64554],[-95.263336,30.645522],[-95.261601,30.64352],[-95.262396,30.641745],[-95.261952,30.64076],[-95.257096,30.638219],[-95.255095,30.635288],[-95.257701,30.635388],[-95.2591,30.634536],[-95.259761,30.635284],[-95.262209,30.635395],[-95.263557,30.634241],[-95.267346,30.63477],[-95.27432,30.636586],[-95.274465,30.634607],[-95.276838,30.632056],[-95.29351,30.632576],[-95.294333,30.632847],[-95.295366,30.634396],[-95.299754,30.637707],[-95.302264,30.638181],[-95.303763,30.637453],[-95.307616,30.634638],[-95.308989,30.633268],[-95.316518,30.633578],[-95.316966,30.631946],[-95.315645,30.631143],[-95.31327,30.626541],[-95.310656,30.626112],[-95.309452,30.625166],[-95.297807,30.619805],[-95.292455,30.614006],[-95.289583,30.613525],[-95.288702,30.611673],[-95.291614,30.608408],[-95.291993,30.607045],[-95.284719,30.607208],[-95.284802,30.598155],[-95.279116,30.558376],[-95.285959,30.551095],[-95.283495,30.547664],[-95.249778,30.558261],[-95.238841,30.5611],[-95.238525,30.558508],[-95.239038,30.55072],[-95.236819,30.546536],[-95.234907,30.547815],[-95.232791,30.550358],[-95.231599,30.551046],[-95.228952,30.550864],[-95.225196,30.551236],[-95.225732,30.550386],[-95.220508,30.548621],[-95.222281,30.547132],[-95.224477,30.546467],[-95.224476,30.544611],[-95.221522,30.54282],[-95.218723,30.543183],[-95.2145,30.544529],[-95.212133,30.54697],[-95.210717,30.547817],[-95.20683,30.551402],[-95.206277,30.55276],[-95.204556,30.553673],[-95.20319,30.552656],[-95.201449,30.552541],[-95.199842,30.553663],[-95.198655,30.553619],[-95.197028,30.552267],[-95.197581,30.551541],[-95.195313,30.549056],[-95.194569,30.547495],[-95.191825,30.547137],[-95.190885,30.545527],[-95.188007,30.543311],[-95.186807,30.543635],[-95.185117,30.545235],[-95.180778,30.545455],[-95.178485,30.544751],[-95.177962,30.542835],[-95.1823,30.541613],[-95.18569,30.538453],[-95.187886,30.53741],[-95.218476,30.528831],[-95.220177,30.527841],[-95.218033,30.525311],[-95.212699,30.525609],[-95.210701,30.525256],[-95.206338,30.522399],[-95.208017,30.520486],[-95.206076,30.517779],[-95.204422,30.513115],[-95.204404,30.511037],[-95.20216,30.510988],[-95.197689,30.513554],[-95.192503,30.509729],[-95.193455,30.507438],[-95.193032,30.505559],[-95.190253,30.502214],[-95.190358,30.498519],[-95.168449,30.498707],[-95.167682,30.497086],[-95.169085,30.495552],[-95.168501,30.49442],[-95.165041,30.493397],[-95.163841,30.492577],[-95.163403,30.493512],[-95.162356,30.492335],[-95.163041,30.491923],[-95.16131,30.484049],[-95.160192,30.483923],[-95.159419,30.482552],[-95.152624,30.483962],[-95.150139,30.484149],[-95.1496,30.482695],[-95.137063,30.485903],[-95.139038,30.491805],[-95.137831,30.49206],[-95.107327,30.492863],[-95.107467,30.493913],[-95.105944,30.495816],[-95.107564,30.496645],[-95.107863,30.4978],[-95.110169,30.499894],[-95.112425,30.500721],[-95.114814,30.503607],[-95.114657,30.506603],[-95.114111,30.508215],[-95.117992,30.509373],[-95.118978,30.510227],[-95.119095,30.513086],[-95.11999,30.513809],[-95.123916,30.513457],[-95.129775,30.514769],[-95.135052,30.514871],[-95.134586,30.519088],[-95.133068,30.519047],[-95.132122,30.516109],[-95.129623,30.516935],[-95.124007,30.51675],[-95.121414,30.515108],[-95.119284,30.519458],[-95.119539,30.530569],[-95.116609,30.530666],[-95.118533,30.533444],[-95.119087,30.535044],[-95.121857,30.53667],[-95.122547,30.539365],[-95.119449,30.539539],[-95.117378,30.536941],[-95.115422,30.536006],[-95.113871,30.53331],[-95.109229,30.529136],[-95.104391,30.526986],[-95.10122,30.524741],[-95.098781,30.52129],[-95.096846,30.519298],[-95.094455,30.517647],[-95.094361,30.520213],[-95.099596,30.526435],[-95.101156,30.527269],[-95.101079,30.53042],[-95.087436,30.530676],[-95.08745,30.532377],[-95.08047,30.532496],[-95.077735,30.531047],[-95.075423,30.531752],[-95.073633,30.533748],[-95.067585,30.533715],[-95.065141,30.530397],[-95.064092,30.528243],[-95.062659,30.52661],[-95.057973,30.533471],[-95.054587,30.533548],[-95.050267,30.530979],[-95.048603,30.532218],[-95.046881,30.532627],[-95.045542,30.533769],[-95.043804,30.533733],[-95.043851,30.544859],[-95.042241,30.544425],[-95.041123,30.545139],[-95.040621,30.5436],[-95.037706,30.542274],[-95.036143,30.542681],[-95.033736,30.542043],[-95.033094,30.54257],[-95.03108,30.5418],[-95.028813,30.541899],[-95.029282,30.542822],[-95.027566,30.545307],[-95.02857,30.546523],[-95.028696,30.548557],[-95.027781,30.54958],[-95.028078,30.55405],[-95.026114,30.556634],[-95.025567,30.559003],[-95.023095,30.560625],[-95.021291,30.560124],[-95.019549,30.56158],[-95.018653,30.561531],[-95.019097,30.563257],[-95.017743,30.564692],[-95.018353,30.566028],[-95.020583,30.567172],[-95.018733,30.56836],[-95.016363,30.567534],[-95.014843,30.57097],[-95.015389,30.572521],[-95.013108,30.572317],[-95.011919,30.573141],[-95.012732,30.573988],[-95.010197,30.573487],[-95.008957,30.575466],[-95.007883,30.575228],[-95.007192,30.576907],[-95.005879,30.575539],[-95.00447,30.576555],[-95.004959,30.580123],[-95.008656,30.579455],[-95.013819,30.577597],[-95.02259,30.577286],[-95.02606,30.577752],[-95.028628,30.578485],[-95.030889,30.580259],[-95.035491,30.585647],[-95.035351,30.588301],[-95.029391,30.590661],[-95.028991,30.591638],[-95.031094,30.595066],[-95.031822,30.597342],[-95.03114,30.598091],[-95.02954,30.597906],[-95.027466,30.596915],[-95.024981,30.597279],[-95.022506,30.600314],[-95.020776,30.600678],[-95.018104,30.600381],[-95.015974,30.600987],[-95.01428,30.604248],[-95.012781,30.605322],[-95.008529,30.606106],[-95.00715,30.60705],[-95.006871,30.609051],[-95.008295,30.611204],[-95.008766,30.613938],[-95.009119,30.619976],[-95.008841,30.626111],[-95.00895,30.627699],[-95.010587,30.628162],[-95.013812,30.627077],[-95.015874,30.627077],[-95.016374,30.628953],[-95.015325,30.632075],[-95.01638,30.634342],[-95.020245,30.633587],[-95.045948,30.619459],[-95.049176,30.620294],[-95.060722,30.621625],[-95.063045,30.622731],[-95.065609,30.62332],[-95.070099,30.622441],[-95.075323,30.619051],[-95.081761,30.617162],[-95.08253,30.619668],[-95.090546,30.622934],[-95.091255,30.625001],[-95.091701,30.630552],[-95.10421,30.633875],[-95.105521,30.641047],[-95.103702,30.649711],[-95.102374,30.658495],[-95.104841,30.657878],[-95.109013,30.658104],[-95.111081,30.658786],[-95.115005,30.661005],[-95.11625,30.66426],[-95.114515,30.6669],[-95.111347,30.669993],[-95.110924,30.672711],[-95.111885,30.673798],[-95.116543,30.674596],[-95.118919,30.675632],[-95.119528,30.677332],[-95.118361,30.680228],[-95.116589,30.683367],[-95.115999,30.686077],[-95.115026,30.68828],[-95.113084,30.69042],[-95.10955,30.692748],[-95.109861,30.694191],[-95.11071,30.694948],[-95.115937,30.696188],[-95.119291,30.696577],[-95.125215,30.695778],[-95.132669,30.693403],[-95.134899,30.693308],[-95.135384,30.693816],[-95.135052,30.697269],[-95.135283,30.699221],[-95.137374,30.705007],[-95.138584,30.707219],[-95.145426,30.713799],[-95.146441,30.715268],[-95.147073,30.71739],[-95.14707,30.719801],[-95.146152,30.722415],[-95.14346,30.72527],[-95.142673,30.727085],[-95.142203,30.729771],[-95.142667,30.732039],[-95.144779,30.737034],[-95.146027,30.740561],[-95.146034,30.742367],[-95.144771,30.744036],[-95.139297,30.745784],[-95.136896,30.747041],[-95.134088,30.750191],[-95.132457,30.754452],[-95.131306,30.759421],[-95.131768,30.762027],[-95.135151,30.768471],[-95.139108,30.773712],[-95.139382,30.776197],[-95.13822,30.77712],[-95.13415,30.779046],[-95.131205,30.781703],[-95.13194,30.783162],[-95.133035,30.783756],[-95.136649,30.783866],[-95.138285,30.784661],[-95.13926,30.785593],[-95.157044,30.776775],[-95.163928,30.769729],[-95.165332,30.764982],[-95.17432,30.758695],[-95.175433,30.750002],[-95.19663,30.743395],[-95.196806,30.729354],[-95.196562,30.727303],[-95.198076,30.727111],[-95.200135,30.725237],[-95.203602,30.723442],[-95.204804,30.721397],[-95.204766,30.720274],[-95.209032,30.721524],[-95.210614,30.722323],[-95.212351,30.724298],[-95.212801,30.725649],[-95.215851,30.724746],[-95.217151,30.72557],[-95.220928,30.725613],[-95.228251,30.724512],[-95.230799,30.724441],[-95.232099,30.72277],[-95.232418,30.720617],[-95.23409,30.717157],[-95.233691,30.716058],[-95.234643,30.710972],[-95.236233,30.710192],[-95.235278,30.708407],[-95.235356,30.706254],[-95.234374,30.703207],[-95.235142,30.702039],[-95.235346,30.699706],[-95.233806,30.697364],[-95.23236,30.696824],[-95.228428,30.696938],[-95.228009,30.695946],[-95.228939,30.69377],[-95.228897,30.691773],[-95.229592,30.6862],[-95.230535,30.683705],[-95.232247,30.68184],[-95.234534,30.681146],[-95.23853,30.678943],[-95.244082,30.679874],[-95.245094,30.680536],[-95.247163,30.683329],[-95.255543,30.69163],[-95.256469,30.694698],[-95.256208,30.697101],[-95.257199,30.698818],[-95.255187,30.704266],[-95.253043,30.70621],[-95.251254,30.706208],[-95.25143,30.707307],[-95.253034,30.708153],[-95.252724,30.711428],[-95.253068,30.713902],[-95.2567,30.71372],[-95.25951,30.713149],[-95.261395,30.711843],[-95.261732,30.709137],[-95.262506,30.707404],[-95.265927,30.705725],[-95.266882,30.704176],[-95.273145,30.709846],[-95.272237,30.710679],[-95.275357,30.713285],[-95.277035,30.713562],[-95.281488,30.716222],[-95.285438,30.717351],[-95.286998,30.717253],[-95.28993,30.715957],[-95.292347,30.716315],[-95.29721,30.715991],[-95.298814,30.712816],[-95.301489,30.711478],[-95.299464,30.70983],[-95.296461,30.706198],[-95.289152,30.698212],[-95.287398,30.692621],[-95.28729,30.688872],[-95.287908,30.685425],[-95.287362,30.683888],[-95.283682,30.684014],[-95.281109,30.684675],[-95.282286,30.682393],[-95.28382,30.680768],[-95.283229,30.676776],[-95.284165,30.674014],[-95.286802,30.67275],[-95.287579,30.671789],[-95.290535,30.665689],[-95.287139,30.66785],[-95.282334,30.668777],[-95.276837,30.666631],[-95.275116,30.663836],[-95.274728,30.661681],[-95.272731,30.65973],[-95.27109,30.659139],[-95.266745,30.65939],[-95.266865,30.654502],[-95.267296,30.65346],[-95.269615,30.652044]]]}},{"type":"Feature","properties":{"zcta5":"77320","AFFGEOID10":"8600000US77320","GEOID10":"77320","ALAND10":823381279,"AWATER10":44735170,"county_name":"San Jacinto","state_code":"TX","county_state":"San Jacinto County, TX","county_fips":"48407","risk_level_county":"Higher Risk (60–69% vaccinated)","mean_vaccination_rate_county":66.68,"risk_level_zcta":"Higher Risk (60–69% vaccinated)","mean_vaccination_rate_zips":60.87,"cases":803},"geometry":{"type":"MultiPolygon","coordinates":[[[[-95.397781,30.85076],[-95.397171,30.846949],[-95.395111,30.849001],[-95.395256,30.849291],[-95.396255,30.849482],[-95.397781,30.85076]]],[[[-95.821646,30.867767],[-95.812462,30.863535],[-95.818357,30.863255],[-95.827913,30.860999],[-95.824464,30.859833],[-95.821226,30.856628],[-95.821042,30.851474],[-95.814087,30.851341],[-95.811813,30.85158],[-95.805214,30.851438],[-95.805156,30.840656],[-95.803814,30.839489],[-95.802164,30.836609],[-95.803317,30.834834],[-95.801649,30.83213],[-95.798394,30.830201],[-95.797382,30.827173],[-95.79853,30.826076],[-95.799862,30.826348],[-95.800331,30.822721],[-95.801426,30.821798],[-95.805954,30.82115],[-95.807558,30.817989],[-95.810195,30.816714],[-95.812474,30.816615],[-95.81392,30.815379],[-95.817524,30.815472],[-95.818829,30.813818],[-95.820083,30.813845],[-95.822222,30.811806],[-95.821802,30.811053],[-95.823324,30.81047],[-95.822808,30.808761],[-95.824202,30.808739],[-95.825412,30.807716],[-95.824539,30.80703],[-95.825195,30.805205],[-95.827209,30.803874],[-95.830353,30.805103],[-95.842384,30.807106],[-95.844955,30.806982],[-95.849416,30.806136],[-95.849706,30.801759],[-95.85066,30.799719],[-95.852939,30.796695],[-95.852195,30.795642],[-95.853211,30.793408],[-95.848732,30.761231],[-95.846204,30.762298],[-95.840019,30.764267],[-95.837402,30.765463],[-95.834229,30.766153],[-95.826393,30.769226],[-95.819626,30.768394],[-95.816521,30.76713],[-95.812149,30.76812],[-95.799103,30.766226],[-95.799675,30.761843],[-95.776341,30.761452],[-95.776928,30.75686],[-95.778281,30.75637],[-95.779634,30.753507],[-95.77982,30.751172],[-95.778582,30.748301],[-95.776885,30.7464],[-95.77389,30.744796],[-95.769939,30.7442],[-95.764955,30.744175],[-95.759934,30.745133],[-95.799051,30.719933],[-95.79351,30.719847],[-95.793474,30.715208],[-95.78978,30.716258],[-95.786888,30.71653],[-95.784824,30.715405],[-95.78294,30.715453],[-95.778343,30.716546],[-95.772104,30.717115],[-95.768272,30.717104],[-95.766875,30.718647],[-95.764205,30.718427],[-95.760907,30.717477],[-95.758294,30.716271],[-95.755675,30.713664],[-95.750691,30.71364],[-95.750542,30.710489],[-95.74913,30.708754],[-95.749001,30.70104],[-95.747734,30.699736],[-95.747726,30.692799],[-95.761307,30.692541],[-95.761375,30.686232],[-95.765282,30.686104],[-95.766273,30.685612],[-95.766685,30.682837],[-95.763474,30.679953],[-95.749672,30.684183],[-95.705109,30.684443],[-95.703377,30.684547],[-95.626091,30.699379],[-95.615639,30.700541],[-95.614517,30.70085],[-95.608719,30.70421],[-95.594826,30.713077],[-95.58933,30.715734],[-95.583475,30.717726],[-95.577329,30.71833],[-95.577179,30.718341],[-95.569702,30.718203],[-95.564428,30.719231],[-95.566067,30.724675],[-95.564373,30.724895],[-95.564178,30.726085],[-95.562395,30.726411],[-95.559727,30.723411],[-95.560683,30.722317],[-95.560543,30.720839],[-95.558051,30.722731],[-95.559348,30.723026],[-95.556822,30.725079],[-95.548815,30.725081],[-95.548778,30.723787],[-95.540885,30.723802],[-95.534163,30.721455],[-95.525518,30.716111],[-95.523984,30.715243],[-95.512422,30.71125],[-95.511093,30.710979],[-95.482513,30.706423],[-95.481483,30.710564],[-95.481033,30.715841],[-95.480568,30.717367],[-95.477905,30.716726],[-95.474289,30.717278],[-95.476349,30.720417],[-95.477257,30.723045],[-95.478462,30.724241],[-95.478355,30.725464],[-95.480438,30.727825],[-95.477158,30.72879],[-95.476601,30.732363],[-95.477715,30.733799],[-95.478192,30.736099],[-95.476449,30.737229],[-95.475444,30.736927],[-95.475083,30.740879],[-95.47505,30.73962],[-95.473758,30.738873],[-95.473973,30.736361],[-95.472968,30.736097],[-95.471941,30.732228],[-95.469879,30.730546],[-95.469293,30.728502],[-95.468001,30.727342],[-95.46555,30.726194],[-95.461675,30.726113],[-95.459766,30.725316],[-95.456627,30.722906],[-95.453857,30.721472],[-95.455399,30.717031],[-95.452625,30.717663],[-95.449209,30.710614],[-95.449478,30.706249],[-95.434131,30.707002],[-95.433804,30.708795],[-95.432387,30.709561],[-95.427892,30.709477],[-95.425774,30.710238],[-95.421356,30.713938],[-95.415604,30.719807],[-95.413895,30.721258],[-95.405746,30.726738],[-95.403801,30.727661],[-95.402649,30.727953],[-95.341903,30.737421],[-95.338625,30.737826],[-95.337919,30.746741],[-95.337332,30.750186],[-95.334407,30.782646],[-95.336461,30.78303],[-95.340926,30.780645],[-95.343309,30.77791],[-95.345463,30.77659],[-95.349843,30.768884],[-95.350533,30.764208],[-95.349602,30.762924],[-95.345993,30.761086],[-95.345734,30.759756],[-95.344177,30.757488],[-95.350967,30.746803],[-95.35424,30.747314],[-95.364403,30.744238],[-95.368416,30.744173],[-95.373688,30.742928],[-95.385056,30.744019],[-95.387604,30.744486],[-95.396111,30.745049],[-95.396576,30.743242],[-95.398674,30.743639],[-95.400124,30.742887],[-95.399306,30.746781],[-95.393578,30.766165],[-95.39389,30.770464],[-95.396248,30.774172],[-95.397469,30.776913],[-95.397758,30.778753],[-95.397247,30.793926],[-95.387764,30.793962],[-95.378067,30.796705],[-95.375151,30.79818],[-95.370629,30.801373],[-95.367712,30.80145],[-95.366307,30.804068],[-95.364766,30.804125],[-95.363203,30.809931],[-95.362215,30.809211],[-95.361471,30.810806],[-95.358936,30.81034],[-95.357314,30.814397],[-95.358563,30.815606],[-95.357635,30.818289],[-95.354616,30.818857],[-95.353297,30.818247],[-95.352406,30.819786],[-95.347667,30.819623],[-95.348131,30.818386],[-95.346418,30.818975],[-95.344921,30.818376],[-95.343139,30.820861],[-95.339679,30.820224],[-95.339011,30.821962],[-95.341044,30.822907],[-95.339662,30.824556],[-95.336833,30.824145],[-95.336669,30.826432],[-95.334828,30.826822],[-95.334811,30.827805],[-95.330296,30.828287],[-95.327088,30.829667],[-95.325543,30.831761],[-95.32524,30.833388],[-95.320092,30.832756],[-95.312331,30.834235],[-95.306813,30.835749],[-95.304368,30.836146],[-95.290424,30.839303],[-95.291962,30.844011],[-95.294582,30.844895],[-95.296578,30.843412],[-95.299454,30.843661],[-95.300662,30.84291],[-95.304111,30.841964],[-95.308126,30.854852],[-95.30956,30.856547],[-95.310436,30.858631],[-95.309137,30.860538],[-95.288179,30.866557],[-95.285445,30.866912],[-95.278674,30.866585],[-95.278448,30.86448],[-95.277358,30.866504],[-95.271501,30.866107],[-95.269656,30.865578],[-95.265761,30.863921],[-95.264157,30.862445],[-95.263813,30.860953],[-95.264274,30.858592],[-95.263747,30.85635],[-95.262345,30.854413],[-95.259053,30.854474],[-95.254982,30.852411],[-95.252868,30.850327],[-95.251295,30.847544],[-95.251339,30.848825],[-95.250134,30.849661],[-95.249829,30.853164],[-95.248866,30.852076],[-95.245495,30.851578],[-95.243699,30.852744],[-95.242706,30.854504],[-95.241871,30.854339],[-95.239454,30.85207],[-95.238461,30.850833],[-95.245105,30.849339],[-95.244531,30.847948],[-95.245267,30.847286],[-95.244743,30.845447],[-95.244848,30.843064],[-95.246466,30.841689],[-95.252321,30.840255],[-95.251968,30.839404],[-95.249311,30.828271],[-95.251256,30.826758],[-95.252124,30.82457],[-95.254201,30.824302],[-95.254673,30.823412],[-95.256271,30.824776],[-95.2591,30.822363],[-95.260431,30.823221],[-95.26161,30.822293],[-95.263375,30.822161],[-95.264388,30.820529],[-95.267172,30.821525],[-95.269038,30.820734],[-95.269701,30.819338],[-95.270918,30.819305],[-95.27053,30.817931],[-95.271766,30.817612],[-95.271295,30.816342],[-95.273144,30.813012],[-95.27286,30.811146],[-95.273302,30.807884],[-95.275117,30.807082],[-95.276023,30.805706],[-95.275201,30.803691],[-95.272057,30.802641],[-95.27378,30.799268],[-95.277055,30.799688],[-95.280584,30.798472],[-95.284081,30.798572],[-95.285592,30.797579],[-95.286983,30.792334],[-95.289771,30.790416],[-95.288343,30.790286],[-95.288032,30.788949],[-95.288757,30.787417],[-95.285223,30.786809],[-95.285445,30.784641],[-95.287125,30.779441],[-95.287078,30.777193],[-95.286208,30.775715],[-95.283604,30.773019],[-95.282378,30.772596],[-95.278723,30.773854],[-95.276093,30.775535],[-95.274202,30.776145],[-95.27119,30.775468],[-95.27119,30.776688],[-95.268241,30.7792],[-95.266317,30.779963],[-95.263381,30.783162],[-95.261922,30.784013],[-95.261584,30.785574],[-95.259233,30.786965],[-95.259295,30.790653],[-95.257747,30.791137],[-95.254645,30.793576],[-95.251021,30.793701],[-95.248762,30.793208],[-95.24903,30.795033],[-95.247159,30.79621],[-95.245006,30.795596],[-95.244848,30.797905],[-95.243219,30.79945],[-95.243201,30.801056],[-95.241916,30.804173],[-95.240337,30.805241],[-95.236969,30.806248],[-95.234097,30.807574],[-95.232918,30.807465],[-95.230446,30.805684],[-95.229887,30.808164],[-95.22699,30.809792],[-95.225353,30.809474],[-95.225785,30.807566],[-95.224919,30.807],[-95.218671,30.807893],[-95.216544,30.809466],[-95.213315,30.809505],[-95.211423,30.810913],[-95.208495,30.808605],[-95.20849,30.80412],[-95.207011,30.802918],[-95.205692,30.803166],[-95.204566,30.801263],[-95.200993,30.802951],[-95.197242,30.803379],[-95.196632,30.803926],[-95.195718,30.806071],[-95.195493,30.809106],[-95.197015,30.809661],[-95.197708,30.806268],[-95.197519,30.809222],[-95.197003,30.809969],[-95.196079,30.810013],[-95.195476,30.809334],[-95.194967,30.816214],[-95.192894,30.818018],[-95.191281,30.820473],[-95.190379,30.820723],[-95.191012,30.821789],[-95.193003,30.82384],[-95.198712,30.824241],[-95.20018,30.824566],[-95.201128,30.825378],[-95.203399,30.828898],[-95.204574,30.83017],[-95.207641,30.832379],[-95.209287,30.832809],[-95.213716,30.833208],[-95.216559,30.83372],[-95.222899,30.83632],[-95.230989,30.841149],[-95.232092,30.842816],[-95.233324,30.845709],[-95.235911,30.854693],[-95.236026,30.858107],[-95.239088,30.862205],[-95.242101,30.864518],[-95.243097,30.866856],[-95.241373,30.86909],[-95.239506,30.870857],[-95.237739,30.873601],[-95.23618,30.876848],[-95.231936,30.884441],[-95.230777,30.887007],[-95.233892,30.890258],[-95.238027,30.893905],[-95.240731,30.896745],[-95.241742,30.898423],[-95.24628,30.904013],[-95.249611,30.906038],[-95.252385,30.906719],[-95.255215,30.906514],[-95.265037,30.905182],[-95.272299,30.903861],[-95.276563,30.902721],[-95.280181,30.901294],[-95.285593,30.901811],[-95.289242,30.902845],[-95.298445,30.902601],[-95.300826,30.902308],[-95.307383,30.900488],[-95.312898,30.897873],[-95.314322,30.89535],[-95.313217,30.893241],[-95.311734,30.892143],[-95.310857,30.890703],[-95.310731,30.88838],[-95.311267,30.88582],[-95.312386,30.883903],[-95.316299,30.880747],[-95.31666,30.878584],[-95.314804,30.875938],[-95.313903,30.873101],[-95.315044,30.871149],[-95.317242,30.869465],[-95.321411,30.8678],[-95.32322,30.865441],[-95.324104,30.861893],[-95.325307,30.860683],[-95.32748,30.859547],[-95.328852,30.859312],[-95.331052,30.860961],[-95.332923,30.864491],[-95.334933,30.86768],[-95.336919,30.871621],[-95.338757,30.873546],[-95.341806,30.875537],[-95.343956,30.875801],[-95.345335,30.875335],[-95.348608,30.870029],[-95.350247,30.86855],[-95.351061,30.86568],[-95.349748,30.860452],[-95.352072,30.856951],[-95.35587,30.855754],[-95.363639,30.854672],[-95.367839,30.855648],[-95.371364,30.856119],[-95.375218,30.855724],[-95.379457,30.8548],[-95.382435,30.85377],[-95.383279,30.852961],[-95.385343,30.853659],[-95.389204,30.856107],[-95.391023,30.856155],[-95.393241,30.851503],[-95.39303,30.847281],[-95.39345,30.846716],[-95.397557,30.844541],[-95.39743,30.843596],[-95.400841,30.846989],[-95.398659,30.851633],[-95.403412,30.853056],[-95.407336,30.856306],[-95.405754,30.863367],[-95.404792,30.865833],[-95.403994,30.870468],[-95.40232,30.870045],[-95.399319,30.868439],[-95.398753,30.86595],[-95.397312,30.869099],[-95.394325,30.872342],[-95.392106,30.874141],[-95.391567,30.875965],[-95.392199,30.877389],[-95.395446,30.879082],[-95.398635,30.879846],[-95.399581,30.88066],[-95.398763,30.882261],[-95.397175,30.883244],[-95.396067,30.882768],[-95.392493,30.880064],[-95.386403,30.878667],[-95.381351,30.879303],[-95.380232,30.880079],[-95.381253,30.887062],[-95.384014,30.888672],[-95.385906,30.889282],[-95.389524,30.889161],[-95.392401,30.890447],[-95.398108,30.891939],[-95.399695,30.892895],[-95.404737,30.898062],[-95.406241,30.901407],[-95.406545,30.904058],[-95.406243,30.905839],[-95.407409,30.906474],[-95.412908,30.906481],[-95.415504,30.907862],[-95.415153,30.909572],[-95.411267,30.911533],[-95.410927,30.913735],[-95.413995,30.918058],[-95.413228,30.921363],[-95.410077,30.927695],[-95.410087,30.929259],[-95.410825,30.930353],[-95.414992,30.933591],[-95.421074,30.936433],[-95.424844,30.937345],[-95.428901,30.937572],[-95.432673,30.937144],[-95.434339,30.937755],[-95.437521,30.939539],[-95.441235,30.940418],[-95.449757,30.939556],[-95.451805,30.939517],[-95.456531,30.94023],[-95.458569,30.939812],[-95.464825,30.93735],[-95.469543,30.936712],[-95.476297,30.934532],[-95.479693,30.932755],[-95.483909,30.932806],[-95.486346,30.934053],[-95.490867,30.93493],[-95.49667,30.934751],[-95.505291,30.93238],[-95.508669,30.930521],[-95.510494,30.92711],[-95.512628,30.926063],[-95.518642,30.924785],[-95.523385,30.924885],[-95.526165,30.926036],[-95.528812,30.925795],[-95.527977,30.923164],[-95.529114,30.917786],[-95.528824,30.916466],[-95.52498,30.908646],[-95.524984,30.905237],[-95.523627,30.902426],[-95.525639,30.902207],[-95.52664,30.900844],[-95.526997,30.898442],[-95.535404,30.897981],[-95.536036,30.896547],[-95.541898,30.870773],[-95.567026,30.854471],[-95.567112,30.855676],[-95.569843,30.856017],[-95.585886,30.860053],[-95.586139,30.862676],[-95.588484,30.865026],[-95.593357,30.860907],[-95.630161,30.865202],[-95.6297,30.862665],[-95.629578,30.857737],[-95.628067,30.854576],[-95.626358,30.853212],[-95.624298,30.850037],[-95.624016,30.848711],[-95.62644,30.84474],[-95.626206,30.839984],[-95.62756,30.830529],[-95.627599,30.827264],[-95.625636,30.822266],[-95.623645,30.820474],[-95.62526,30.820445],[-95.626012,30.819401],[-95.627534,30.81999],[-95.628719,30.819402],[-95.63044,30.816633],[-95.631268,30.816853],[-95.632663,30.815089],[-95.636797,30.814404],[-95.639141,30.813371],[-95.639058,30.81247],[-95.644873,30.810795],[-95.644944,30.808009],[-95.647759,30.806866],[-95.649173,30.805548],[-95.646671,30.805101],[-95.671028,30.79034],[-95.674952,30.792888],[-95.677776,30.795188],[-95.716547,30.835297],[-95.739572,30.852442],[-95.736722,30.855434],[-95.735971,30.857166],[-95.734907,30.857023],[-95.736017,30.859271],[-95.735458,30.861381],[-95.733279,30.861833],[-95.733433,30.864108],[-95.730618,30.864461],[-95.730846,30.862757],[-95.730062,30.861867],[-95.726514,30.863045],[-95.724953,30.863045],[-95.723437,30.864085],[-95.722844,30.863464],[-95.721679,30.865239],[-95.718501,30.867549],[-95.717126,30.871006],[-95.714514,30.872639],[-95.710169,30.872344],[-95.708283,30.874663],[-95.707295,30.873625],[-95.704683,30.875506],[-95.703861,30.87538],[-95.724613,30.881393],[-95.725559,30.886194],[-95.724896,30.889057],[-95.727817,30.888506],[-95.731268,30.886559],[-95.732303,30.885551],[-95.735754,30.884817],[-95.766221,30.894155],[-95.765199,30.893157],[-95.76727,30.893234],[-95.768736,30.892636],[-95.769495,30.891224],[-95.76933,30.889674],[-95.773754,30.887021],[-95.77703,30.885675],[-95.77738,30.884675],[-95.779114,30.88406],[-95.779388,30.88295],[-95.781121,30.883758],[-95.78181,30.882362],[-95.783512,30.881077],[-95.78499,30.880912],[-95.7855,30.879912],[-95.784532,30.879307],[-95.786902,30.87867],[-95.787431,30.879407],[-95.789279,30.877973],[-95.792822,30.878677],[-95.796416,30.878199],[-95.796734,30.877611],[-95.799965,30.875929],[-95.80289,30.875358],[-95.804279,30.873695],[-95.806719,30.872574],[-95.80914,30.872244],[-95.811657,30.870282],[-95.811663,30.868589],[-95.813064,30.867611],[-95.814886,30.867407],[-95.816938,30.869243],[-95.820391,30.868473],[-95.821232,30.869193],[-95.821646,30.867767]],[[-95.559356,30.741787],[-95.54896,30.741887],[-95.54955,30.737879],[-95.556135,30.738375],[-95.56122,30.741762],[-95.559356,30.741787]],[[-95.409011,30.843149],[-95.41021,30.844236],[-95.407715,30.84763],[-95.407501,30.847385],[-95.407928,30.842175],[-95.409011,30.843149]],[[-95.389488,30.849718],[-95.390305,30.850208],[-95.388435,30.851885],[-95.38707,30.852165],[-95.387077,30.85137],[-95.38784,30.851299],[-95.389488,30.849718]],[[-95.385994,30.844831],[-95.386848,30.846224],[-95.385529,30.847378],[-95.38633,30.848801],[-95.384529,30.849592],[-95.381241,30.852543],[-95.379268,30.852326],[-95.379446,30.849786],[-95.381511,30.848501],[-95.382927,30.849596],[-95.384794,30.848002],[-95.383022,30.845973],[-95.385994,30.844831]]]]}},{"type":"Feature","properties":{"zcta5":"77328","AFFGEOID10":"8600000US77328","GEOID10":"77328","ALAND10":420462044,"AWATER10":1796887,"county_name":"San Jacinto","state_code":"TX","county_state":"San Jacinto County, TX","county_fips":"48407","risk_level_county":"Higher Risk (60–69% vaccinated)","mean_vaccination_rate_county":66.68,"risk_level_zcta":"Higher Risk (60–69% vaccinated)","mean_vaccination_rate_zips":65.25,"cases":803},"geometry":{"type":"Polygon","coordinates":[[[-95.263338,30.384259],[-95.264422,30.382981],[-95.269941,30.381061],[-95.277077,30.3761],[-95.285785,30.37067],[-95.2852,30.367235],[-95.286621,30.365673],[-95.286628,30.364133],[-95.289452,30.364148],[-95.289097,30.365763],[-95.289306,30.369085],[-95.288723,30.370642],[-95.290279,30.374766],[-95.290322,30.375825],[-95.299606,30.376368],[-95.300933,30.375208],[-95.302974,30.375121],[-95.304476,30.364267],[-95.298797,30.364358],[-95.297819,30.362663],[-95.301136,30.360386],[-95.305084,30.354761],[-95.305823,30.34908],[-95.305668,30.344392],[-95.302283,30.344069],[-95.297975,30.344329],[-95.29683,30.339034],[-95.297834,30.337386],[-95.296885,30.335621],[-95.294905,30.334246],[-95.293982,30.332894],[-95.292213,30.33216],[-95.291188,30.330571],[-95.293107,30.330695],[-95.294038,30.325478],[-95.293275,30.325167],[-95.291798,30.324848],[-95.291827,30.313133],[-95.291366,30.312702],[-95.291068,30.311192],[-95.288093,30.311247],[-95.287512,30.310044],[-95.286237,30.309729],[-95.283487,30.309877],[-95.282278,30.310375],[-95.281173,30.310254],[-95.278643,30.310265],[-95.278584,30.309807],[-95.278581,30.309418],[-95.285493,30.308545],[-95.283417,30.304459],[-95.281676,30.302327],[-95.276273,30.292863],[-95.273321,30.288622],[-95.272692,30.283513],[-95.273248,30.282644],[-95.277206,30.283036],[-95.27712,30.278272],[-95.270632,30.278325],[-95.270503,30.275302],[-95.26671,30.274896],[-95.265313,30.272901],[-95.26033,30.268774],[-95.257188,30.269275],[-95.256031,30.266342],[-95.257088,30.264464],[-95.259334,30.262336],[-95.261238,30.259336],[-95.261795,30.256061],[-95.260726,30.254581],[-95.258509,30.255225],[-95.254802,30.257157],[-95.24973,30.257569],[-95.24484,30.259082],[-95.238948,30.259656],[-95.237028,30.265146],[-95.227216,30.285426],[-95.22746,30.295273],[-95.227348,30.297625],[-95.221888,30.295304],[-95.210025,30.290814],[-95.200291,30.284485],[-95.19481,30.282048],[-95.183468,30.282483],[-95.180547,30.282749],[-95.174944,30.284487],[-95.17555,30.282846],[-95.175568,30.280322],[-95.174459,30.278489],[-95.171977,30.276612],[-95.170629,30.273886],[-95.169282,30.272443],[-95.167778,30.272077],[-95.16622,30.270657],[-95.16585,30.268894],[-95.167248,30.267289],[-95.164343,30.264656],[-95.16458,30.26264],[-95.165582,30.261104],[-95.166056,30.258241],[-95.164358,30.258372],[-95.153239,30.25842],[-95.152404,30.258024],[-95.149811,30.258046],[-95.142886,30.268105],[-95.14048,30.270778],[-95.13935,30.269369],[-95.138877,30.269119],[-95.139514,30.267786],[-95.139155,30.267602],[-95.145635,30.258153],[-95.145296,30.258066],[-95.142799,30.261977],[-95.143672,30.259613],[-95.142748,30.260506],[-95.139827,30.258739],[-95.136869,30.259987],[-95.134165,30.263521],[-95.136922,30.270634],[-95.134386,30.274336],[-95.127742,30.282481],[-95.120762,30.290995],[-95.118061,30.294361],[-95.118644,30.295093],[-95.118886,30.297518],[-95.11691,30.297816],[-95.116829,30.300214],[-95.127669,30.29943],[-95.128587,30.298508],[-95.128398,30.292951],[-95.128177,30.292206],[-95.123405,30.288905],[-95.124995,30.287513],[-95.132946,30.287431],[-95.133046,30.293678],[-95.133328,30.296259],[-95.135493,30.296218],[-95.135461,30.293091],[-95.139285,30.29297],[-95.139367,30.289823],[-95.14251,30.28975],[-95.143162,30.292081],[-95.143414,30.295639],[-95.13692,30.298913],[-95.136724,30.301086],[-95.135978,30.301078],[-95.135989,30.302653],[-95.139799,30.302678],[-95.139845,30.305532],[-95.141819,30.305572],[-95.141797,30.300454],[-95.148592,30.300611],[-95.155034,30.317126],[-95.15938,30.328169],[-95.158307,30.328098],[-95.110706,30.338373],[-95.110384,30.337076],[-95.10785,30.336845],[-95.110883,30.341037],[-95.112285,30.340544],[-95.114915,30.343891],[-95.120732,30.346493],[-95.121673,30.347377],[-95.130911,30.347367],[-95.131873,30.347744],[-95.132671,30.349284],[-95.131446,30.353544],[-95.132047,30.354688],[-95.131678,30.355619],[-95.130034,30.355963],[-95.1268,30.355442],[-95.094152,30.355296],[-95.090342,30.355381],[-95.09035,30.355827],[-95.087375,30.355919],[-95.081105,30.36303],[-95.079353,30.364869],[-95.077345,30.366613],[-95.075563,30.369412],[-95.073471,30.37122],[-95.072699,30.372174],[-95.072904,30.37223],[-95.072449,30.372939],[-95.072299,30.373258],[-95.071828,30.374025],[-95.076045,30.374047],[-95.075998,30.371314],[-95.080364,30.370898],[-95.084814,30.370887],[-95.094931,30.370519],[-95.095211,30.37112],[-95.09825,30.37461],[-95.073247,30.384986],[-95.061519,30.390582],[-95.059919,30.393115],[-95.085285,30.434698],[-95.086092,30.435371],[-95.089356,30.440579],[-95.090946,30.443934],[-95.094379,30.449434],[-95.108147,30.469625],[-95.127042,30.456012],[-95.137063,30.485903],[-95.1496,30.482695],[-95.150139,30.484149],[-95.152624,30.483962],[-95.159419,30.482552],[-95.160192,30.483923],[-95.16131,30.484049],[-95.163041,30.491923],[-95.162356,30.492335],[-95.163403,30.493512],[-95.163841,30.492577],[-95.165041,30.493397],[-95.168501,30.49442],[-95.169085,30.495552],[-95.167682,30.497086],[-95.168449,30.498707],[-95.190358,30.498519],[-95.190253,30.502214],[-95.193032,30.505559],[-95.193455,30.507438],[-95.192503,30.509729],[-95.197689,30.513554],[-95.20216,30.510988],[-95.204404,30.511037],[-95.204422,30.513115],[-95.206076,30.517779],[-95.208017,30.520486],[-95.206338,30.522399],[-95.210701,30.525256],[-95.212699,30.525609],[-95.218033,30.525311],[-95.220177,30.527841],[-95.218476,30.528831],[-95.187886,30.53741],[-95.18569,30.538453],[-95.1823,30.541613],[-95.177962,30.542835],[-95.178485,30.544751],[-95.180778,30.545455],[-95.185117,30.545235],[-95.186807,30.543635],[-95.188007,30.543311],[-95.190885,30.545527],[-95.191825,30.547137],[-95.194569,30.547495],[-95.195313,30.549056],[-95.197581,30.551541],[-95.197028,30.552267],[-95.198655,30.553619],[-95.199842,30.553663],[-95.201449,30.552541],[-95.20319,30.552656],[-95.204556,30.553673],[-95.206277,30.55276],[-95.20683,30.551402],[-95.210717,30.547817],[-95.212133,30.54697],[-95.2145,30.544529],[-95.218723,30.543183],[-95.221522,30.54282],[-95.224476,30.544611],[-95.224477,30.546467],[-95.222281,30.547132],[-95.220508,30.548621],[-95.225732,30.550386],[-95.225196,30.551236],[-95.228952,30.550864],[-95.231599,30.551046],[-95.232791,30.550358],[-95.234907,30.547815],[-95.236819,30.546536],[-95.235267,30.543083],[-95.238168,30.540006],[-95.240019,30.538429],[-95.24381,30.533755],[-95.248557,30.530836],[-95.249589,30.527248],[-95.250493,30.526026],[-95.251375,30.522412],[-95.253864,30.519846],[-95.258867,30.516511],[-95.25983,30.519739],[-95.261125,30.520993],[-95.260997,30.523126],[-95.263016,30.523875],[-95.263892,30.525244],[-95.266216,30.525652],[-95.266579,30.524497],[-95.268147,30.524866],[-95.268089,30.525795],[-95.269829,30.526027],[-95.2723,30.526209],[-95.28028,30.525871],[-95.280345,30.526524],[-95.284395,30.527047],[-95.28659,30.526816],[-95.288348,30.525048],[-95.292278,30.523188],[-95.293461,30.516977],[-95.295816,30.515625],[-95.298292,30.514912],[-95.298286,30.51316],[-95.295382,30.512083],[-95.290126,30.509014],[-95.285782,30.505482],[-95.28324,30.504759],[-95.27806,30.501174],[-95.282218,30.491696],[-95.283625,30.484777],[-95.282743,30.484138],[-95.28065,30.480665],[-95.279425,30.480103],[-95.275093,30.476407],[-95.270154,30.472111],[-95.272399,30.470314],[-95.269374,30.470105],[-95.268079,30.469394],[-95.263689,30.46921],[-95.2602,30.466574],[-95.260123,30.461192],[-95.251163,30.453056],[-95.254046,30.452093],[-95.255764,30.452531],[-95.259495,30.447904],[-95.25849,30.447217],[-95.258078,30.443393],[-95.231149,30.420409],[-95.229837,30.421848],[-95.223503,30.415331],[-95.224631,30.414471],[-95.227107,30.414389],[-95.230355,30.417096],[-95.232333,30.415518],[-95.233583,30.41629],[-95.236701,30.414105],[-95.239011,30.414503],[-95.240286,30.415339],[-95.242472,30.415099],[-95.24351,30.41599],[-95.249377,30.415369],[-95.252268,30.415831],[-95.254964,30.41526],[-95.261731,30.41304],[-95.261079,30.403552],[-95.259266,30.402051],[-95.258163,30.400219],[-95.250781,30.399897],[-95.24713,30.397514],[-95.244929,30.397119],[-95.243343,30.395717],[-95.241596,30.390682],[-95.242177,30.388481],[-95.236382,30.38668],[-95.233846,30.382342],[-95.231784,30.379824],[-95.230356,30.378839],[-95.228864,30.377597],[-95.2351,30.377616],[-95.236796,30.379584],[-95.239877,30.379819],[-95.24237,30.380516],[-95.245541,30.382137],[-95.249556,30.38252],[-95.250106,30.383486],[-95.252605,30.382915],[-95.255167,30.382971],[-95.259111,30.383863],[-95.260709,30.383446],[-95.263338,30.384259]]]}},{"type":"Feature","properties":{"zcta5":"77364","AFFGEOID10":"8600000US77364","GEOID10":"77364","ALAND10":78596684,"AWATER10":14495031,"county_name":"San Jacinto","state_code":"TX","county_state":"San Jacinto County, TX","county_fips":"48407","risk_level_county":"Higher Risk (60–69% vaccinated)","mean_vaccination_rate_county":66.68,"risk_level_zcta":"Higher Risk (60–69% vaccinated)","mean_vaccination_rate_zips":65.41,"cases":803},"geometry":{"type":"Polygon","coordinates":[[[-95.283604,30.773019],[-95.280302,30.768934],[-95.277612,30.769478],[-95.277519,30.766464],[-95.273598,30.767847],[-95.272964,30.7698],[-95.270874,30.770716],[-95.269869,30.768293],[-95.271282,30.76826],[-95.271041,30.767084],[-95.272264,30.76427],[-95.272201,30.762554],[-95.273297,30.760949],[-95.273597,30.759245],[-95.272026,30.756562],[-95.273217,30.754995],[-95.273166,30.753143],[-95.275452,30.75101],[-95.276293,30.751291],[-95.279647,30.749998],[-95.283263,30.746469],[-95.282792,30.745298],[-95.284128,30.743938],[-95.282756,30.743968],[-95.284159,30.740986],[-95.294947,30.740763],[-95.296722,30.737224],[-95.300151,30.733964],[-95.302326,30.730085],[-95.299704,30.729295],[-95.298241,30.72812],[-95.296812,30.725652],[-95.293312,30.724397],[-95.290023,30.722615],[-95.286396,30.724202],[-95.284474,30.724139],[-95.281639,30.725012],[-95.280161,30.723733],[-95.275062,30.722374],[-95.270898,30.721811],[-95.26777,30.72291],[-95.266172,30.72487],[-95.262739,30.726695],[-95.260149,30.726848],[-95.25523,30.728544],[-95.254635,30.726401],[-95.252902,30.725378],[-95.251869,30.72321],[-95.248882,30.723588],[-95.244837,30.724622],[-95.244477,30.722678],[-95.24491,30.720245],[-95.245862,30.718938],[-95.247818,30.718705],[-95.248216,30.716472],[-95.247364,30.715302],[-95.245465,30.71432],[-95.243699,30.714261],[-95.240203,30.715126],[-95.23409,30.717157],[-95.232418,30.720617],[-95.232099,30.72277],[-95.230799,30.724441],[-95.228251,30.724512],[-95.220928,30.725613],[-95.217151,30.72557],[-95.215851,30.724746],[-95.212801,30.725649],[-95.212351,30.724298],[-95.210614,30.722323],[-95.209032,30.721524],[-95.204766,30.720274],[-95.204804,30.721397],[-95.203602,30.723442],[-95.200135,30.725237],[-95.198076,30.727111],[-95.196562,30.727303],[-95.196806,30.729354],[-95.19663,30.743395],[-95.175433,30.750002],[-95.17432,30.758695],[-95.165332,30.764982],[-95.163928,30.769729],[-95.157044,30.776775],[-95.13926,30.785593],[-95.138285,30.784661],[-95.140923,30.788948],[-95.148887,30.792524],[-95.15395,30.798353],[-95.156846,30.800427],[-95.161043,30.801278],[-95.167591,30.803044],[-95.170084,30.805132],[-95.17404,30.807583],[-95.176416,30.810269],[-95.179231,30.81396],[-95.180374,30.818426],[-95.180993,30.818819],[-95.1816,30.818922],[-95.187376,30.818039],[-95.188432,30.8181],[-95.190379,30.820723],[-95.191281,30.820473],[-95.192894,30.818018],[-95.194967,30.816214],[-95.195476,30.809334],[-95.196079,30.810013],[-95.197003,30.809969],[-95.197519,30.809222],[-95.197708,30.806268],[-95.197015,30.809661],[-95.195493,30.809106],[-95.195718,30.806071],[-95.196632,30.803926],[-95.197242,30.803379],[-95.200993,30.802951],[-95.204566,30.801263],[-95.205692,30.803166],[-95.207011,30.802918],[-95.20849,30.80412],[-95.208495,30.808605],[-95.211423,30.810913],[-95.213315,30.809505],[-95.216544,30.809466],[-95.218671,30.807893],[-95.224919,30.807],[-95.225785,30.807566],[-95.225353,30.809474],[-95.22699,30.809792],[-95.229887,30.808164],[-95.230446,30.805684],[-95.232918,30.807465],[-95.234097,30.807574],[-95.236969,30.806248],[-95.240337,30.805241],[-95.241916,30.804173],[-95.243201,30.801056],[-95.243219,30.79945],[-95.244848,30.797905],[-95.245006,30.795596],[-95.247159,30.79621],[-95.24903,30.795033],[-95.248762,30.793208],[-95.251021,30.793701],[-95.254645,30.793576],[-95.257747,30.791137],[-95.259295,30.790653],[-95.259233,30.786965],[-95.261584,30.785574],[-95.261922,30.784013],[-95.263381,30.783162],[-95.266317,30.779963],[-95.268241,30.7792],[-95.27119,30.776688],[-95.27119,30.775468],[-95.274202,30.776145],[-95.276093,30.775535],[-95.278723,30.773854],[-95.282378,30.772596],[-95.283604,30.773019]]]}},{"type":"Feature","properties":{"zcta5":"77378","AFFGEOID10":"8600000US77378","GEOID10":"77378","ALAND10":251884110,"AWATER10":1324503,"county_name":"San Jacinto","state_code":"TX","county_state":"San Jacinto County, TX","county_fips":"48407","risk_level_county":"Higher Risk (60–69% vaccinated)","mean_vaccination_rate_county":66.68,"risk_level_zcta":"Higher Risk (60–69% vaccinated)","mean_vaccination_rate_zips":62.04,"cases":803},"geometry":{"type":"Polygon","coordinates":[[[-95.491265,30.508833],[-95.491702,30.502168],[-95.492537,30.496312],[-95.492508,30.495137],[-95.49324,30.488508],[-95.491493,30.488482],[-95.491455,30.487015],[-95.49463,30.478485],[-95.495591,30.47804],[-95.496498,30.47212],[-95.49659,30.468497],[-95.496085,30.4632],[-95.495436,30.43603],[-95.494997,30.431582],[-95.491959,30.42106],[-95.49095,30.417641],[-95.490614,30.416566],[-95.48799,30.407987],[-95.487421,30.405406],[-95.48703,30.40165],[-95.486692,30.391247],[-95.485973,30.391269],[-95.484571,30.391307],[-95.484111,30.391306],[-95.479779,30.391363],[-95.476117,30.390536],[-95.476639,30.388905],[-95.467055,30.391152],[-95.470826,30.397699],[-95.471582,30.399277],[-95.471764,30.399882],[-95.471961,30.401468],[-95.469105,30.401283],[-95.469497,30.399883],[-95.469102,30.397721],[-95.467884,30.395225],[-95.46688,30.394768],[-95.465952,30.392066],[-95.463705,30.390487],[-95.461882,30.390787],[-95.461143,30.39223],[-95.45784,30.391454],[-95.45694,30.389255],[-95.454031,30.387104],[-95.451257,30.387518],[-95.450835,30.387794],[-95.447608,30.388402],[-95.440789,30.39575],[-95.440625,30.39364],[-95.426253,30.398267],[-95.42469,30.400469],[-95.4141,30.409349],[-95.411824,30.410094],[-95.414639,30.411106],[-95.415673,30.4155],[-95.418493,30.425307],[-95.414891,30.425698],[-95.412438,30.42515],[-95.411538,30.424005],[-95.409741,30.425058],[-95.414155,30.434948],[-95.40589,30.438268],[-95.405066,30.438425],[-95.392503,30.438687],[-95.382857,30.437378],[-95.379791,30.436423],[-95.372013,30.435208],[-95.368919,30.435034],[-95.363778,30.435399],[-95.36228,30.433526],[-95.361682,30.430248],[-95.356839,30.426451],[-95.351888,30.422098],[-95.352119,30.421718],[-95.345592,30.420284],[-95.328452,30.414972],[-95.327028,30.414628],[-95.30996,30.409009],[-95.308395,30.40575],[-95.305268,30.4041],[-95.303308,30.402368],[-95.299795,30.402373],[-95.296465,30.400471],[-95.295685,30.399503],[-95.287606,30.395302],[-95.28193,30.395229],[-95.277028,30.393535],[-95.274936,30.390857],[-95.271176,30.389481],[-95.269109,30.387644],[-95.268628,30.386434],[-95.263338,30.384259],[-95.260709,30.383446],[-95.259111,30.383863],[-95.255167,30.382971],[-95.252605,30.382915],[-95.250106,30.383486],[-95.249556,30.38252],[-95.245541,30.382137],[-95.24237,30.380516],[-95.239877,30.379819],[-95.236796,30.379584],[-95.2351,30.377616],[-95.228864,30.377597],[-95.230356,30.378839],[-95.231784,30.379824],[-95.233846,30.382342],[-95.236382,30.38668],[-95.242177,30.388481],[-95.241596,30.390682],[-95.243343,30.395717],[-95.244929,30.397119],[-95.24713,30.397514],[-95.250781,30.399897],[-95.258163,30.400219],[-95.259266,30.402051],[-95.261079,30.403552],[-95.261731,30.41304],[-95.254964,30.41526],[-95.252268,30.415831],[-95.249377,30.415369],[-95.24351,30.41599],[-95.242472,30.415099],[-95.240286,30.415339],[-95.239011,30.414503],[-95.236701,30.414105],[-95.233583,30.41629],[-95.232333,30.415518],[-95.230355,30.417096],[-95.227107,30.414389],[-95.224631,30.414471],[-95.223503,30.415331],[-95.229837,30.421848],[-95.231149,30.420409],[-95.258078,30.443393],[-95.25849,30.447217],[-95.259495,30.447904],[-95.255764,30.452531],[-95.254046,30.452093],[-95.251163,30.453056],[-95.260123,30.461192],[-95.2602,30.466574],[-95.263689,30.46921],[-95.268079,30.469394],[-95.269374,30.470105],[-95.272399,30.470314],[-95.270154,30.472111],[-95.275093,30.476407],[-95.279425,30.480103],[-95.28065,30.480665],[-95.282743,30.484138],[-95.283625,30.484777],[-95.282218,30.491696],[-95.27806,30.501174],[-95.28324,30.504759],[-95.285782,30.505482],[-95.290126,30.509014],[-95.295382,30.512083],[-95.298286,30.51316],[-95.298292,30.514912],[-95.295816,30.515625],[-95.293461,30.516977],[-95.292278,30.523188],[-95.288348,30.525048],[-95.28659,30.526816],[-95.284395,30.527047],[-95.280345,30.526524],[-95.28028,30.525871],[-95.2723,30.526209],[-95.269829,30.526027],[-95.270597,30.528072],[-95.273003,30.52986],[-95.272666,30.531239],[-95.273485,30.532526],[-95.275536,30.53267],[-95.27605,30.534149],[-95.278539,30.534721],[-95.280298,30.536426],[-95.281207,30.536074],[-95.282883,30.537586],[-95.284198,30.537559],[-95.285944,30.539418],[-95.287245,30.542678],[-95.290751,30.544278],[-95.292586,30.544191],[-95.294677,30.541706],[-95.297897,30.541146],[-95.300463,30.539832],[-95.300323,30.538837],[-95.301321,30.535984],[-95.302242,30.53528],[-95.304833,30.535275],[-95.309171,30.533785],[-95.310644,30.534016],[-95.310653,30.536266],[-95.313851,30.535713],[-95.316764,30.534448],[-95.319559,30.532359],[-95.322889,30.528968],[-95.324978,30.527489],[-95.328852,30.525477],[-95.328526,30.524448],[-95.328456,30.519755],[-95.332272,30.520498],[-95.338788,30.524154],[-95.34833,30.525323],[-95.35476,30.526438],[-95.356822,30.526293],[-95.358856,30.506194],[-95.359156,30.504369],[-95.360414,30.505166],[-95.361866,30.508916],[-95.426083,30.508818],[-95.425976,30.506505],[-95.426769,30.505405],[-95.42645,30.502519],[-95.424306,30.500642],[-95.424939,30.500219],[-95.424142,30.497755],[-95.425331,30.496403],[-95.424881,30.495441],[-95.426069,30.492554],[-95.424772,30.490539],[-95.425909,30.489829],[-95.425854,30.486851],[-95.424425,30.486394],[-95.424107,30.485042],[-95.425613,30.482866],[-95.42675,30.482476],[-95.427066,30.48101],[-95.42897,30.480505],[-95.429947,30.478786],[-95.430025,30.477091],[-95.431426,30.47606],[-95.432614,30.47386],[-95.432931,30.472463],[-95.431873,30.472051],[-95.432533,30.470997],[-95.43367,30.471019],[-95.435654,30.472438],[-95.437108,30.471269],[-95.439964,30.471336],[-95.441974,30.472068],[-95.445014,30.471447],[-95.449089,30.473506],[-95.451657,30.476872],[-95.453245,30.477993],[-95.455783,30.47751],[-95.45885,30.477904],[-95.459795,30.490089],[-95.460111,30.502229],[-95.460718,30.508889],[-95.491265,30.508833]]]}},{"type":"Feature","properties":{"zcta5":"77371","AFFGEOID10":"8600000US77371","GEOID10":"77371","ALAND10":329455650,"AWATER10":5961826,"county_name":"San Jacinto","state_code":"TX","county_state":"San Jacinto County, TX","county_fips":"48407","risk_level_county":"Higher Risk (60–69% vaccinated)","mean_vaccination_rate_county":66.68,"risk_level_zcta":"Higher Risk (60–69% vaccinated)","mean_vaccination_rate_zips":68.75,"cases":803},"geometry":{"type":"Polygon","coordinates":[[[-95.004959,30.580123],[-95.00447,30.576555],[-95.005879,30.575539],[-95.007192,30.576907],[-95.007883,30.575228],[-95.008957,30.575466],[-95.010197,30.573487],[-95.012732,30.573988],[-95.011919,30.573141],[-95.013108,30.572317],[-95.015389,30.572521],[-95.014843,30.57097],[-95.016363,30.567534],[-95.018733,30.56836],[-95.020583,30.567172],[-95.018353,30.566028],[-95.017743,30.564692],[-95.019097,30.563257],[-95.018653,30.561531],[-95.019549,30.56158],[-95.021291,30.560124],[-95.023095,30.560625],[-95.025567,30.559003],[-95.026114,30.556634],[-95.028078,30.55405],[-95.027781,30.54958],[-95.028696,30.548557],[-95.02857,30.546523],[-95.027566,30.545307],[-95.029282,30.542822],[-95.028813,30.541899],[-95.03108,30.5418],[-95.033094,30.54257],[-95.033736,30.542043],[-95.036143,30.542681],[-95.037706,30.542274],[-95.040621,30.5436],[-95.041123,30.545139],[-95.042241,30.544425],[-95.043851,30.544859],[-95.043804,30.533733],[-95.045542,30.533769],[-95.046881,30.532627],[-95.048603,30.532218],[-95.050267,30.530979],[-95.054587,30.533548],[-95.057973,30.533471],[-95.062659,30.52661],[-95.064092,30.528243],[-95.065141,30.530397],[-95.067585,30.533715],[-95.073633,30.533748],[-95.075423,30.531752],[-95.077735,30.531047],[-95.08047,30.532496],[-95.08745,30.532377],[-95.087436,30.530676],[-95.101079,30.53042],[-95.101156,30.527269],[-95.099596,30.526435],[-95.094361,30.520213],[-95.094455,30.517647],[-95.096846,30.519298],[-95.098781,30.52129],[-95.10122,30.524741],[-95.104391,30.526986],[-95.109229,30.529136],[-95.113871,30.53331],[-95.115422,30.536006],[-95.117378,30.536941],[-95.119449,30.539539],[-95.122547,30.539365],[-95.121857,30.53667],[-95.119087,30.535044],[-95.118533,30.533444],[-95.116609,30.530666],[-95.119539,30.530569],[-95.119284,30.519458],[-95.121414,30.515108],[-95.124007,30.51675],[-95.129623,30.516935],[-95.132122,30.516109],[-95.133068,30.519047],[-95.134586,30.519088],[-95.135052,30.514871],[-95.129775,30.514769],[-95.123916,30.513457],[-95.11999,30.513809],[-95.119095,30.513086],[-95.118978,30.510227],[-95.117992,30.509373],[-95.114111,30.508215],[-95.114657,30.506603],[-95.114814,30.503607],[-95.112425,30.500721],[-95.110169,30.499894],[-95.107863,30.4978],[-95.107564,30.496645],[-95.105944,30.495816],[-95.107467,30.493913],[-95.107327,30.492863],[-95.137831,30.49206],[-95.139038,30.491805],[-95.137063,30.485903],[-95.127042,30.456012],[-95.108147,30.469625],[-95.094379,30.449434],[-95.090946,30.443934],[-95.089356,30.440579],[-95.086092,30.435371],[-95.085285,30.434698],[-95.059919,30.393115],[-95.061519,30.390582],[-95.034472,30.403216],[-95.006645,30.413998],[-94.959046,30.434992],[-94.947403,30.440422],[-94.942676,30.442352],[-94.941113,30.441046],[-94.938945,30.442281],[-94.932954,30.442634],[-94.932822,30.446596],[-94.875167,30.472696],[-94.873158,30.473455],[-94.842621,30.487458],[-94.845255,30.490406],[-94.847722,30.492557],[-94.849414,30.493553],[-94.850514,30.494201],[-94.853539,30.494958],[-94.860731,30.494065],[-94.864368,30.494491],[-94.865509,30.495023],[-94.865917,30.495998],[-94.86638,30.502821],[-94.867145,30.505302],[-94.867648,30.508833],[-94.867393,30.510755],[-94.865978,30.512545],[-94.863792,30.513987],[-94.859926,30.515362],[-94.858466,30.516207],[-94.856604,30.51811],[-94.854655,30.522882],[-94.852581,30.524354],[-94.850078,30.525286],[-94.846221,30.526144],[-94.837855,30.528608],[-94.834815,30.529652],[-94.833374,30.530522],[-94.829719,30.539512],[-94.829984,30.541112],[-94.830429,30.541613],[-94.834179,30.54305],[-94.839867,30.545541],[-94.842876,30.546152],[-94.850674,30.544139],[-94.853586,30.545029],[-94.857376,30.546583],[-94.860013,30.546862],[-94.864376,30.546449],[-94.875209,30.546067],[-94.878013,30.549653],[-94.879134,30.550488],[-94.885556,30.552981],[-94.889567,30.556361],[-94.891554,30.556868],[-94.895227,30.556412],[-94.898813,30.556859],[-94.900995,30.557464],[-94.903702,30.559362],[-94.9067,30.56072],[-94.910452,30.561514],[-94.913614,30.561055],[-94.916712,30.560217],[-94.920162,30.559702],[-94.927342,30.557987],[-94.934296,30.557588],[-94.937278,30.557984],[-94.940266,30.55947],[-94.94275,30.561811],[-94.945247,30.56592],[-94.949359,30.570503],[-94.950297,30.571014],[-94.957878,30.572277],[-94.961449,30.574871],[-94.965729,30.576586],[-94.97032,30.576889],[-94.985391,30.576144],[-94.988178,30.576676],[-94.994409,30.579098],[-95.000212,30.579975],[-95.004959,30.580123]]]}},{"type":"Feature","properties":{"zcta5":"77359","AFFGEOID10":"8600000US77359","GEOID10":"77359","ALAND10":135960166,"AWATER10":476018,"county_name":"San Jacinto","state_code":"TX","county_state":"San Jacinto County, TX","county_fips":"48407","risk_level_county":"Higher Risk (60–69% vaccinated)","mean_vaccination_rate_county":66.68,"risk_level_zcta":"Higher Risk (60–69% vaccinated)","mean_vaccination_rate_zips":61.4,"cases":803},"geometry":{"type":"Polygon","coordinates":[[[-95.338625,30.737826],[-95.345124,30.646554],[-95.330704,30.644681],[-95.327994,30.644799],[-95.325932,30.645449],[-95.323983,30.646521],[-95.322582,30.648092],[-95.319726,30.653498],[-95.316649,30.655603],[-95.314675,30.656515],[-95.311071,30.65705],[-95.308198,30.658838],[-95.306858,30.661611],[-95.306142,30.664134],[-95.307702,30.665364],[-95.30558,30.666399],[-95.304575,30.665657],[-95.303061,30.665723],[-95.301134,30.664739],[-95.300498,30.663282],[-95.298495,30.661391],[-95.296066,30.660296],[-95.294814,30.658158],[-95.294013,30.657855],[-95.293192,30.658169],[-95.291113,30.65659],[-95.285663,30.657299],[-95.28443,30.656699],[-95.281269,30.656583],[-95.280093,30.657303],[-95.278439,30.656962],[-95.27582,30.655438],[-95.273818,30.653646],[-95.271967,30.653508],[-95.271071,30.651896],[-95.269615,30.652044],[-95.267296,30.65346],[-95.266865,30.654502],[-95.266745,30.65939],[-95.27109,30.659139],[-95.272731,30.65973],[-95.274728,30.661681],[-95.275116,30.663836],[-95.276837,30.666631],[-95.282334,30.668777],[-95.287139,30.66785],[-95.290535,30.665689],[-95.287579,30.671789],[-95.286802,30.67275],[-95.284165,30.674014],[-95.283229,30.676776],[-95.28382,30.680768],[-95.282286,30.682393],[-95.281109,30.684675],[-95.283682,30.684014],[-95.287362,30.683888],[-95.287908,30.685425],[-95.28729,30.688872],[-95.287398,30.692621],[-95.289152,30.698212],[-95.296461,30.706198],[-95.299464,30.70983],[-95.301489,30.711478],[-95.298814,30.712816],[-95.29721,30.715991],[-95.292347,30.716315],[-95.28993,30.715957],[-95.286998,30.717253],[-95.285438,30.717351],[-95.281488,30.716222],[-95.277035,30.713562],[-95.275357,30.713285],[-95.272237,30.710679],[-95.273145,30.709846],[-95.266882,30.704176],[-95.265927,30.705725],[-95.262506,30.707404],[-95.261732,30.709137],[-95.261395,30.711843],[-95.25951,30.713149],[-95.2567,30.71372],[-95.253068,30.713902],[-95.252724,30.711428],[-95.253034,30.708153],[-95.25143,30.707307],[-95.251254,30.706208],[-95.253043,30.70621],[-95.255187,30.704266],[-95.257199,30.698818],[-95.256208,30.697101],[-95.256469,30.694698],[-95.255543,30.69163],[-95.247163,30.683329],[-95.245094,30.680536],[-95.244082,30.679874],[-95.23853,30.678943],[-95.234534,30.681146],[-95.232247,30.68184],[-95.230535,30.683705],[-95.229592,30.6862],[-95.228897,30.691773],[-95.228939,30.69377],[-95.228009,30.695946],[-95.228428,30.696938],[-95.23236,30.696824],[-95.233806,30.697364],[-95.235346,30.699706],[-95.235142,30.702039],[-95.234374,30.703207],[-95.235356,30.706254],[-95.235278,30.708407],[-95.236233,30.710192],[-95.234643,30.710972],[-95.233691,30.716058],[-95.23409,30.717157],[-95.240203,30.715126],[-95.243699,30.714261],[-95.245465,30.71432],[-95.247364,30.715302],[-95.248216,30.716472],[-95.247818,30.718705],[-95.245862,30.718938],[-95.24491,30.720245],[-95.244477,30.722678],[-95.244837,30.724622],[-95.248882,30.723588],[-95.251869,30.72321],[-95.252902,30.725378],[-95.254635,30.726401],[-95.25523,30.728544],[-95.260149,30.726848],[-95.262739,30.726695],[-95.266172,30.72487],[-95.26777,30.72291],[-95.270898,30.721811],[-95.275062,30.722374],[-95.280161,30.723733],[-95.281639,30.725012],[-95.284474,30.724139],[-95.286396,30.724202],[-95.290023,30.722615],[-95.293312,30.724397],[-95.296812,30.725652],[-95.298241,30.72812],[-95.299704,30.729295],[-95.302326,30.730085],[-95.300151,30.733964],[-95.296722,30.737224],[-95.294947,30.740763],[-95.284159,30.740986],[-95.282756,30.743968],[-95.284128,30.743938],[-95.282792,30.745298],[-95.283263,30.746469],[-95.279647,30.749998],[-95.276293,30.751291],[-95.275452,30.75101],[-95.273166,30.753143],[-95.273217,30.754995],[-95.272026,30.756562],[-95.273597,30.759245],[-95.273297,30.760949],[-95.272201,30.762554],[-95.272264,30.76427],[-95.271041,30.767084],[-95.271282,30.76826],[-95.269869,30.768293],[-95.270874,30.770716],[-95.272964,30.7698],[-95.273598,30.767847],[-95.277519,30.766464],[-95.277612,30.769478],[-95.280302,30.768934],[-95.283604,30.773019],[-95.286208,30.775715],[-95.287078,30.777193],[-95.287125,30.779441],[-95.285445,30.784641],[-95.285223,30.786809],[-95.288757,30.787417],[-95.288032,30.788949],[-95.288343,30.790286],[-95.289771,30.790416],[-95.286983,30.792334],[-95.285592,30.797579],[-95.284081,30.798572],[-95.280584,30.798472],[-95.277055,30.799688],[-95.27378,30.799268],[-95.272057,30.802641],[-95.275201,30.803691],[-95.276023,30.805706],[-95.275117,30.807082],[-95.273302,30.807884],[-95.27286,30.811146],[-95.273144,30.813012],[-95.271295,30.816342],[-95.271766,30.817612],[-95.27053,30.817931],[-95.270918,30.819305],[-95.269701,30.819338],[-95.269038,30.820734],[-95.267172,30.821525],[-95.264388,30.820529],[-95.263375,30.822161],[-95.26161,30.822293],[-95.260431,30.823221],[-95.2591,30.822363],[-95.256271,30.824776],[-95.254673,30.823412],[-95.254201,30.824302],[-95.252124,30.82457],[-95.251256,30.826758],[-95.249311,30.828271],[-95.251968,30.839404],[-95.252321,30.840255],[-95.246466,30.841689],[-95.244848,30.843064],[-95.244743,30.845447],[-95.245267,30.847286],[-95.244531,30.847948],[-95.245105,30.849339],[-95.238461,30.850833],[-95.239454,30.85207],[-95.241871,30.854339],[-95.242706,30.854504],[-95.243699,30.852744],[-95.245495,30.851578],[-95.248866,30.852076],[-95.249829,30.853164],[-95.250134,30.849661],[-95.251339,30.848825],[-95.251295,30.847544],[-95.252868,30.850327],[-95.254982,30.852411],[-95.259053,30.854474],[-95.262345,30.854413],[-95.263747,30.85635],[-95.264274,30.858592],[-95.263813,30.860953],[-95.264157,30.862445],[-95.265761,30.863921],[-95.269656,30.865578],[-95.271501,30.866107],[-95.277358,30.866504],[-95.278448,30.86448],[-95.278674,30.866585],[-95.285445,30.866912],[-95.288179,30.866557],[-95.309137,30.860538],[-95.310436,30.858631],[-95.30956,30.856547],[-95.308126,30.854852],[-95.304111,30.841964],[-95.300662,30.84291],[-95.299454,30.843661],[-95.296578,30.843412],[-95.294582,30.844895],[-95.291962,30.844011],[-95.290424,30.839303],[-95.304368,30.836146],[-95.306813,30.835749],[-95.312331,30.834235],[-95.320092,30.832756],[-95.32524,30.833388],[-95.325543,30.831761],[-95.327088,30.829667],[-95.330296,30.828287],[-95.334407,30.782646],[-95.337332,30.750186],[-95.337919,30.746741],[-95.338625,30.737826]]]}}]}