{"type":"FeatureCollection","features":[{"type":"Feature","properties":{"zcta5":"34287","AFFGEOID10":"8600000US34287","GEOID10":"34287","ALAND10":40413666,"AWATER10":2458915,"county_name":"Sarasota","state_code":"FL","county_state":"Sarasota County, FL","county_fips":"12115","risk_level_county":"Higher Risk (60–69% vaccinated)","mean_vaccination_rate_county":65.23,"risk_level_zcta":"Higher Risk (60–69% vaccinated)","mean_vaccination_rate_zips":66.77,"cases":7},"geometry":{"type":"Polygon","coordinates":[[[-82.282641,27.078142],[-82.282689,27.077084],[-82.283751,27.076273],[-82.284842,27.073131],[-82.284569,27.07212],[-82.285406,27.070182],[-82.284857,27.069265],[-82.286078,27.067418],[-82.285817,27.06608],[-82.286584,27.064473],[-82.287646,27.063847],[-82.287518,27.062276],[-82.289089,27.061534],[-82.288668,27.059811],[-82.290617,27.057644],[-82.290551,27.056713],[-82.291947,27.055105],[-82.290631,27.054364],[-82.291293,27.053353],[-82.292922,27.054109],[-82.293708,27.053585],[-82.292845,27.052769],[-82.293243,27.047401],[-82.29303,27.045246],[-82.292947,27.045043],[-82.291353,27.043635],[-82.28724,27.042294],[-82.284305,27.040865],[-82.283105,27.039647],[-82.281259,27.036308],[-82.279172,27.034002],[-82.275542,27.030667],[-82.273507,27.030143],[-82.270838,27.028525],[-82.269825,27.027028],[-82.267636,27.026779],[-82.266182,27.026081],[-82.263944,27.026419],[-82.255302,27.031086],[-82.255237,27.032975],[-82.253403,27.032947],[-82.251598,27.032936],[-82.249403,27.032992],[-82.204768,27.03284],[-82.203442,27.032843],[-82.203021,27.03506],[-82.201654,27.038294],[-82.200651,27.042083],[-82.199378,27.044594],[-82.199909,27.045997],[-82.198695,27.048511],[-82.196787,27.051169],[-82.195524,27.051913],[-82.193319,27.05604],[-82.191369,27.062111],[-82.191335,27.064023],[-82.192195,27.066752],[-82.192092,27.068798],[-82.196903,27.068901],[-82.202385,27.069341],[-82.20531,27.070628],[-82.208882,27.070977],[-82.213856,27.068246],[-82.215443,27.067972],[-82.217753,27.068245],[-82.220192,27.069436],[-82.220374,27.06953],[-82.229491,27.074208],[-82.2339,27.077436],[-82.246519,27.077978],[-82.246482,27.076412],[-82.248472,27.075209],[-82.248432,27.077998],[-82.249674,27.077121],[-82.253984,27.077164],[-82.25448,27.077811],[-82.254496,27.082437],[-82.254824,27.077999],[-82.282641,27.078142]]]}},{"type":"Feature","properties":{"zcta5":"34243","AFFGEOID10":"8600000US34243","GEOID10":"34243","ALAND10":45247911,"AWATER10":6153076,"county_name":"Sarasota","state_code":"FL","county_state":"Sarasota County, FL","county_fips":"12115","risk_level_county":"Higher Risk (60–69% vaccinated)","mean_vaccination_rate_county":65.23,"risk_level_zcta":"Higher Risk (60–69% vaccinated)","mean_vaccination_rate_zips":61.14,"cases":7},"geometry":{"type":"Polygon","coordinates":[[[-82.59622,27.40522],[-82.59652,27.38932],[-82.576801,27.389188],[-82.566295,27.389122],[-82.565383,27.389051],[-82.564623,27.386511],[-82.559123,27.386627],[-82.563142,27.385956],[-82.563723,27.384949],[-82.559117,27.385621],[-82.559126,27.381554],[-82.556634,27.381445],[-82.55264,27.381949],[-82.545065,27.381917],[-82.543258,27.382751],[-82.543256,27.381731],[-82.504012,27.381679],[-82.503009,27.381098],[-82.483302,27.380933],[-82.481227,27.382179],[-82.472646,27.379517],[-82.472895,27.374001],[-82.471312,27.373967],[-82.471191,27.381245],[-82.459233,27.381123],[-82.459677,27.382401],[-82.459515,27.38833],[-82.46071,27.388206],[-82.480792,27.388318],[-82.480845,27.410674],[-82.481321,27.413348],[-82.480356,27.414819],[-82.480689,27.415848],[-82.479637,27.417922],[-82.483074,27.420718],[-82.483838,27.424133],[-82.486024,27.424784],[-82.487904,27.425339],[-82.494111,27.425441],[-82.49881,27.426762],[-82.50338,27.428944],[-82.505334,27.429095],[-82.521878,27.429054],[-82.521876,27.424872],[-82.527923,27.425806],[-82.530542,27.425823],[-82.530307,27.429075],[-82.546683,27.429283],[-82.546702,27.425472],[-82.548014,27.42483],[-82.54929,27.425298],[-82.548948,27.428379],[-82.550275,27.428455],[-82.550817,27.425943],[-82.556824,27.425656],[-82.563105,27.425688],[-82.563095,27.42246],[-82.565417,27.417981],[-82.56779,27.418724],[-82.570491,27.416992],[-82.573115,27.417258],[-82.577119,27.41372],[-82.579339,27.412786],[-82.59622,27.40522]]]}},{"type":"Feature","properties":{"zcta5":"34234","AFFGEOID10":"8600000US34234","GEOID10":"34234","ALAND10":17198112,"AWATER10":6161551,"county_name":"Sarasota","state_code":"FL","county_state":"Sarasota County, FL","county_fips":"12115","risk_level_county":"Higher Risk (60–69% vaccinated)","mean_vaccination_rate_county":65.23,"risk_level_zcta":"Very High Risk (<60% vaccinated)","mean_vaccination_rate_zips":54.87,"cases":7},"geometry":{"type":"Polygon","coordinates":[[[-82.576801,27.389188],[-82.576832,27.356073],[-82.552991,27.355952],[-82.552266,27.353759],[-82.552214,27.353279],[-82.547315,27.35479],[-82.546931,27.352379],[-82.538503,27.352299],[-82.538521,27.351368],[-82.536448,27.351076],[-82.538535,27.350431],[-82.538544,27.34865],[-82.534462,27.348605],[-82.534522,27.352027],[-82.5304,27.352218],[-82.530379,27.351318],[-82.528358,27.351329],[-82.528366,27.352232],[-82.524606,27.351624],[-82.513937,27.351985],[-82.508207,27.352349],[-82.506546,27.351725],[-82.506544,27.352358],[-82.505674,27.352374],[-82.505654,27.380339],[-82.504577,27.381242],[-82.503009,27.381098],[-82.504012,27.381679],[-82.543256,27.381731],[-82.543258,27.382751],[-82.545065,27.381917],[-82.55264,27.381949],[-82.556634,27.381445],[-82.559126,27.381554],[-82.559117,27.385621],[-82.563723,27.384949],[-82.563142,27.385956],[-82.559123,27.386627],[-82.564623,27.386511],[-82.565383,27.389051],[-82.566295,27.389122],[-82.576801,27.389188]]]}},{"type":"Feature","properties":{"zcta5":"34242","AFFGEOID10":"8600000US34242","GEOID10":"34242","ALAND10":9262526,"AWATER10":11980835,"county_name":"Sarasota","state_code":"FL","county_state":"Sarasota County, FL","county_fips":"12115","risk_level_county":"Higher Risk (60–69% vaccinated)","mean_vaccination_rate_county":65.23,"risk_level_zcta":"Very High Risk (<60% vaccinated)","mean_vaccination_rate_zips":57.28,"cases":7},"geometry":{"type":"Polygon","coordinates":[[[-82.56242437956519,27.295940783241498],[-82.56006,27.2951],[-82.560326147211,27.29415408978],[-82.5616553076767,27.289430138461398],[-82.561724,27.289186],[-82.56327550687759,27.286772786637698],[-82.564576,27.28475],[-82.5675034634331,27.2817546926866],[-82.569754,27.279452],[-82.568892,27.275577],[-82.56696948590701,27.273331842668004],[-82.5642788317647,27.2701896332573],[-82.563994,27.269857],[-82.557669,27.267374],[-82.54512,27.261026],[-82.54197072612679,27.2571192910664],[-82.54118933414941,27.256149965710296],[-82.539719,27.254326],[-82.536458,27.248758],[-82.5362530083576,27.2457624482167],[-82.536228,27.245397],[-82.533134,27.241266],[-82.532699799719,27.2409170810616],[-82.5296322889472,27.2384520605425],[-82.528287,27.237371],[-82.522032,27.228375],[-82.5125493676776,27.208022437864198],[-82.5124124354486,27.2077285403889],[-82.507627,27.206768],[-82.506594,27.207422],[-82.50252,27.207938],[-82.501729,27.209105],[-82.501924,27.214539],[-82.511927,27.228342],[-82.520419,27.242429],[-82.531809,27.254248],[-82.533672,27.25752],[-82.535845,27.260436],[-82.536681,27.261564],[-82.540519,27.269726],[-82.542424,27.271541],[-82.54413,27.27847],[-82.542878,27.281207],[-82.543719,27.284525],[-82.544019,27.292425],[-82.544738,27.298894],[-82.545138,27.302706],[-82.544919,27.304224],[-82.561348,27.306315],[-82.56172,27.299324],[-82.560723,27.298749],[-82.56242437956519,27.295940783241498]]]}},{"type":"Feature","properties":{"zcta5":"34229","AFFGEOID10":"8600000US34229","GEOID10":"34229","ALAND10":15553372,"AWATER10":5598060,"county_name":"Sarasota","state_code":"FL","county_state":"Sarasota County, FL","county_fips":"12115","risk_level_county":"Higher Risk (60–69% vaccinated)","mean_vaccination_rate_county":65.23,"risk_level_zcta":"Higher Risk (60–69% vaccinated)","mean_vaccination_rate_zips":69.25,"cases":7},"geometry":{"type":"Polygon","coordinates":[[[-82.5124124354486,27.2077285403889],[-82.512319,27.207528],[-82.50284,27.189728],[-82.499927,27.180563],[-82.49964629166129,27.180081112733497],[-82.494253,27.179882],[-82.478287,27.152815],[-82.473904,27.152817],[-82.471253,27.154267],[-82.46979,27.154264],[-82.470231,27.154843],[-82.473954,27.153038],[-82.475032,27.153051],[-82.479339,27.159898],[-82.472868,27.160286],[-82.472236,27.161685],[-82.4746,27.165767],[-82.473738,27.167071],[-82.476047,27.166249],[-82.4771,27.168255],[-82.475052,27.169625],[-82.474005,27.169419],[-82.472528,27.170873],[-82.470128,27.171288],[-82.468419,27.170873],[-82.468623,27.171993],[-82.464314,27.173065],[-82.463753,27.173977],[-82.460487,27.1744],[-82.458153,27.176058],[-82.459292,27.18083],[-82.462964,27.196303],[-82.466472,27.211084],[-82.468921,27.211217],[-82.490202,27.211088],[-82.490277,27.218317],[-82.492459,27.218306],[-82.496888,27.218281],[-82.497545,27.218946],[-82.50169,27.218855],[-82.500808,27.21682],[-82.500524,27.215248],[-82.501924,27.214539],[-82.501729,27.209105],[-82.50252,27.207938],[-82.506594,27.207422],[-82.507627,27.206768],[-82.5124124354486,27.2077285403889]]]}},{"type":"Feature","properties":{"zcta5":"34231","AFFGEOID10":"8600000US34231","GEOID10":"34231","ALAND10":24429531,"AWATER10":4830862,"county_name":"Sarasota","state_code":"FL","county_state":"Sarasota County, FL","county_fips":"12115","risk_level_county":"Higher Risk (60–69% vaccinated)","mean_vaccination_rate_county":65.23,"risk_level_zcta":"Higher Risk (60–69% vaccinated)","mean_vaccination_rate_zips":64.97,"cases":7},"geometry":{"type":"Polygon","coordinates":[[[-82.544738,27.298894],[-82.544019,27.292425],[-82.543719,27.284525],[-82.542878,27.281207],[-82.54413,27.27847],[-82.542424,27.271541],[-82.540519,27.269726],[-82.536681,27.261564],[-82.535845,27.260436],[-82.533672,27.25752],[-82.531809,27.254248],[-82.520419,27.242429],[-82.511927,27.228342],[-82.501924,27.214539],[-82.500524,27.215248],[-82.500808,27.21682],[-82.50169,27.218855],[-82.497545,27.218946],[-82.496888,27.218281],[-82.492459,27.218306],[-82.492348,27.221952],[-82.49361,27.221942],[-82.493604,27.224634],[-82.497558,27.224635],[-82.497555,27.225551],[-82.493025,27.225664],[-82.494312,27.228293],[-82.497549,27.22828],[-82.497587,27.251325],[-82.499292,27.251338],[-82.499408,27.256486],[-82.497605,27.256482],[-82.497612,27.269192],[-82.497564,27.298778],[-82.510016,27.298822],[-82.51003,27.298079],[-82.514159,27.298091],[-82.514161,27.29789],[-82.51589,27.297982],[-82.515899,27.298835],[-82.518821,27.298838],[-82.51943,27.297532],[-82.519938,27.298839],[-82.522731,27.29884],[-82.522971,27.296746],[-82.527991,27.297028],[-82.527991,27.298047],[-82.529515,27.29883],[-82.544738,27.298894]]]}},{"type":"Feature","properties":{"zcta5":"34238","AFFGEOID10":"8600000US34238","GEOID10":"34238","ALAND10":34501985,"AWATER10":2249813,"county_name":"Sarasota","state_code":"FL","county_state":"Sarasota County, FL","county_fips":"12115","risk_level_county":"Higher Risk (60–69% vaccinated)","mean_vaccination_rate_county":65.23,"risk_level_zcta":"Higher Risk (60–69% vaccinated)","mean_vaccination_rate_zips":68.69,"cases":7},"geometry":{"type":"Polygon","coordinates":[[[-82.497612,27.269192],[-82.497605,27.256482],[-82.499408,27.256486],[-82.499292,27.251338],[-82.497587,27.251325],[-82.497549,27.22828],[-82.494312,27.228293],[-82.493025,27.225664],[-82.497555,27.225551],[-82.497558,27.224635],[-82.493604,27.224634],[-82.49361,27.221942],[-82.492348,27.221952],[-82.492459,27.218306],[-82.490277,27.218317],[-82.490202,27.211088],[-82.468921,27.211217],[-82.466472,27.211084],[-82.462964,27.196303],[-82.459292,27.18083],[-82.458153,27.176058],[-82.456211,27.167888],[-82.455227,27.169253],[-82.438891,27.190177],[-82.442925,27.2063],[-82.444686,27.211144],[-82.450697,27.223803],[-82.45187,27.226841],[-82.452798,27.231647],[-82.452703,27.236244],[-82.452334,27.238384],[-82.449862,27.249526],[-82.449569,27.251974],[-82.449156,27.269284],[-82.46057,27.269047],[-82.46056,27.268315],[-82.464629,27.26795],[-82.464768,27.265531],[-82.467378,27.265182],[-82.469619,27.263844],[-82.471406,27.263439],[-82.473689,27.263695],[-82.473339,27.269061],[-82.497612,27.269192]]]}},{"type":"Feature","properties":{"zcta5":"34235","AFFGEOID10":"8600000US34235","GEOID10":"34235","ALAND10":17037292,"AWATER10":2099786,"county_name":"Sarasota","state_code":"FL","county_state":"Sarasota County, FL","county_fips":"12115","risk_level_county":"Higher Risk (60–69% vaccinated)","mean_vaccination_rate_county":65.23,"risk_level_zcta":"Higher Risk (60–69% vaccinated)","mean_vaccination_rate_zips":64.33,"cases":7},"geometry":{"type":"Polygon","coordinates":[[[-82.503009,27.381098],[-82.504577,27.381242],[-82.505654,27.380339],[-82.505674,27.352374],[-82.500947,27.352184],[-82.49724,27.351849],[-82.45567,27.352006],[-82.454189,27.351814],[-82.452804,27.35261],[-82.452748,27.357159],[-82.446772,27.357125],[-82.44682,27.37851],[-82.446975,27.380631],[-82.449001,27.388608],[-82.45505,27.388688],[-82.459515,27.38833],[-82.459677,27.382401],[-82.459233,27.381123],[-82.471191,27.381245],[-82.471312,27.373967],[-82.472895,27.374001],[-82.472646,27.379517],[-82.481227,27.382179],[-82.483302,27.380933],[-82.503009,27.381098]]]}},{"type":"Feature","properties":{"zcta5":"34275","AFFGEOID10":"8600000US34275","GEOID10":"34275","ALAND10":69125218,"AWATER10":10507336,"county_name":"Sarasota","state_code":"FL","county_state":"Sarasota County, FL","county_fips":"12115","risk_level_county":"Higher Risk (60–69% vaccinated)","mean_vaccination_rate_county":65.23,"risk_level_zcta":"Higher Risk (60–69% vaccinated)","mean_vaccination_rate_zips":61.22,"cases":7},"geometry":{"type":"Polygon","coordinates":[[[-82.458153,27.176058],[-82.460487,27.1744],[-82.463753,27.173977],[-82.464314,27.173065],[-82.468623,27.171993],[-82.468419,27.170873],[-82.470128,27.171288],[-82.472528,27.170873],[-82.474005,27.169419],[-82.475052,27.169625],[-82.4771,27.168255],[-82.476047,27.166249],[-82.473738,27.167071],[-82.4746,27.165767],[-82.472236,27.161685],[-82.472868,27.160286],[-82.479339,27.159898],[-82.475032,27.153051],[-82.473954,27.153038],[-82.470231,27.154843],[-82.46979,27.154264],[-82.471253,27.154267],[-82.473904,27.152817],[-82.478287,27.152815],[-82.494253,27.179882],[-82.49964629166129,27.180081112733497],[-82.4933241670918,27.169228028206],[-82.492836,27.16839],[-82.48667909215149,27.158682066357297],[-82.486667,27.158663],[-82.4770194236814,27.141231765507197],[-82.477019,27.141231],[-82.46889,27.113612],[-82.4688081155087,27.113545960421497],[-82.4676443004818,27.112607347350195],[-82.466994,27.113016],[-82.46314,27.112368],[-82.460403,27.113112],[-82.458854,27.112194],[-82.458787,27.108566],[-82.448536,27.112608],[-82.447095,27.112647],[-82.44085,27.115795],[-82.437774,27.116113],[-82.438192,27.116753],[-82.43406,27.11752],[-82.424678,27.117562],[-82.423674,27.117039],[-82.422424,27.115069],[-82.417262,27.113534],[-82.417129,27.128337],[-82.415171,27.128328],[-82.415155,27.130139],[-82.41311,27.130133],[-82.413113,27.13204],[-82.411362,27.132041],[-82.41137,27.133761],[-82.416996,27.133767],[-82.417143,27.137444],[-82.410465,27.137385],[-82.404476,27.130223],[-82.397562,27.122806],[-82.396381,27.122802],[-82.389618,27.122786],[-82.389622,27.124862],[-82.388599,27.12486],[-82.388594,27.122782],[-82.360724,27.122763],[-82.359919,27.1227],[-82.359883,27.128232],[-82.36174,27.129802],[-82.362538,27.13316],[-82.362288,27.137189],[-82.360423,27.137227],[-82.360314,27.138869],[-82.361459,27.139494],[-82.363528,27.141325],[-82.360256,27.140909],[-82.36378,27.142591],[-82.364032,27.144738],[-82.365976,27.144925],[-82.365336,27.147267],[-82.365403,27.149876],[-82.365105,27.150436],[-82.363064,27.150457],[-82.362202,27.151169],[-82.362246,27.152946],[-82.361461,27.153693],[-82.363058,27.154318],[-82.36426,27.155802],[-82.365848,27.154586],[-82.366701,27.154856],[-82.366687,27.160203],[-82.365554,27.160489],[-82.366397,27.162018],[-82.365545,27.16318],[-82.366521,27.163541],[-82.36654,27.165363],[-82.368667,27.165429],[-82.367879,27.170711],[-82.367635,27.174039],[-82.372755,27.174023],[-82.374435,27.174864],[-82.375072,27.174299],[-82.379175,27.174255],[-82.379958,27.175474],[-82.384458,27.176725],[-82.383548,27.177452],[-82.383659,27.179],[-82.384813,27.180688],[-82.383924,27.184463],[-82.382407,27.185889],[-82.37773,27.186173],[-82.372669,27.185499],[-82.372953,27.199682],[-82.37339,27.196891],[-82.373638,27.199615],[-82.381259,27.200092],[-82.384218,27.200143],[-82.38424,27.20365],[-82.38471,27.205116],[-82.395911,27.205153],[-82.396313,27.207275],[-82.397946,27.207287],[-82.398283,27.208631],[-82.401159,27.209922],[-82.402569,27.209747],[-82.403437,27.208281],[-82.406755,27.205534],[-82.405942,27.202743],[-82.406675,27.200307],[-82.406512,27.198869],[-82.403494,27.200267],[-82.401429,27.199275],[-82.403992,27.196497],[-82.406812,27.196158],[-82.404761,27.18652],[-82.40704,27.174906],[-82.407855,27.173363],[-82.408463,27.172771],[-82.418056,27.16694],[-82.431474,27.167699],[-82.430639,27.164896],[-82.432553,27.168184],[-82.434041,27.171477],[-82.435329,27.175601],[-82.438891,27.190177],[-82.455227,27.169253],[-82.456211,27.167888],[-82.458153,27.176058]]]}},{"type":"Feature","properties":{"zcta5":"34241","AFFGEOID10":"8600000US34241","GEOID10":"34241","ALAND10":178446647,"AWATER10":6664994,"county_name":"Sarasota","state_code":"FL","county_state":"Sarasota County, FL","county_fips":"12115","risk_level_county":"Higher Risk (60–69% vaccinated)","mean_vaccination_rate_county":65.23,"risk_level_zcta":"Medium Risk (70–79% vaccinated)","mean_vaccination_rate_zips":72.79,"cases":7},"geometry":{"type":"Polygon","coordinates":[[[-82.449156,27.269284],[-82.449569,27.251974],[-82.449862,27.249526],[-82.452334,27.238384],[-82.452703,27.236244],[-82.452798,27.231647],[-82.45187,27.226841],[-82.450697,27.223803],[-82.444686,27.211144],[-82.442925,27.2063],[-82.438891,27.190177],[-82.435329,27.175601],[-82.434041,27.171477],[-82.432553,27.168184],[-82.430639,27.164896],[-82.431474,27.167699],[-82.418056,27.16694],[-82.408463,27.172771],[-82.407855,27.173363],[-82.40704,27.174906],[-82.404761,27.18652],[-82.406812,27.196158],[-82.403992,27.196497],[-82.401429,27.199275],[-82.403494,27.200267],[-82.406512,27.198869],[-82.406675,27.200307],[-82.405942,27.202743],[-82.406755,27.205534],[-82.403437,27.208281],[-82.402569,27.209747],[-82.401159,27.209922],[-82.398283,27.208631],[-82.397946,27.207287],[-82.396313,27.207275],[-82.395911,27.205153],[-82.38471,27.205116],[-82.38424,27.20365],[-82.384218,27.200143],[-82.381259,27.200092],[-82.373638,27.199615],[-82.37339,27.196891],[-82.372953,27.199682],[-82.372669,27.185499],[-82.37773,27.186173],[-82.382407,27.185889],[-82.383924,27.184463],[-82.384813,27.180688],[-82.383659,27.179],[-82.383548,27.177452],[-82.384458,27.176725],[-82.379958,27.175474],[-82.379175,27.174255],[-82.375072,27.174299],[-82.374435,27.174864],[-82.372755,27.174023],[-82.367635,27.174039],[-82.367879,27.170711],[-82.368667,27.165429],[-82.36654,27.165363],[-82.366521,27.163541],[-82.365545,27.16318],[-82.366397,27.162018],[-82.365554,27.160489],[-82.366687,27.160203],[-82.366701,27.154856],[-82.365848,27.154586],[-82.36426,27.155802],[-82.363058,27.154318],[-82.361461,27.153693],[-82.361397,27.15319],[-82.362013,27.15316],[-82.361755,27.152373],[-82.361828,27.151342],[-82.363115,27.14992],[-82.363154,27.150293],[-82.363709,27.150109],[-82.363016,27.148092],[-82.361611,27.150544],[-82.360241,27.15012],[-82.359888,27.151686],[-82.360792,27.151988],[-82.359719,27.154257],[-82.36363,27.156125],[-82.362983,27.156762],[-82.36467,27.160141],[-82.364881,27.163721],[-82.364464,27.164649],[-82.361442,27.166583],[-82.360147,27.168809],[-82.36138,27.172094],[-82.35813,27.172658],[-82.357865,27.174224],[-82.356188,27.175431],[-82.3548,27.177578],[-82.355137,27.1795],[-82.353968,27.180605],[-82.351885,27.180755],[-82.351719,27.181765],[-82.33566,27.181721],[-82.334873,27.193278],[-82.332475,27.195083],[-82.330098,27.194626],[-82.329929,27.195774],[-82.331451,27.199319],[-82.334484,27.199725],[-82.333996,27.20754],[-82.328469,27.207411],[-82.327362,27.206924],[-82.32589,27.207521],[-82.325689,27.211078],[-82.318099,27.210979],[-82.317695,27.213524],[-82.312241,27.214004],[-82.311336,27.217182],[-82.307874,27.218793],[-82.296614,27.222786],[-82.298769,27.223712],[-82.311635,27.234842],[-82.311881,27.23599],[-82.313686,27.237095],[-82.314403,27.238643],[-82.313774,27.241182],[-82.312909,27.242168],[-82.310227,27.242754],[-82.311686,27.241866],[-82.30967,27.241581],[-82.309154,27.244032],[-82.307903,27.245593],[-82.306678,27.245564],[-82.305079,27.24762],[-82.303813,27.246592],[-82.302919,27.24704],[-82.301548,27.24927],[-82.303214,27.247912],[-82.301984,27.250883],[-82.301084,27.25189],[-82.300467,27.250066],[-82.296629,27.249306],[-82.296264,27.248402],[-82.295831,27.250315],[-82.296953,27.251386],[-82.29568,27.252982],[-82.292449,27.252957],[-82.289895,27.254379],[-82.289888,27.256793],[-82.291924,27.256149],[-82.291427,27.254771],[-82.292819,27.254008],[-82.294802,27.254428],[-82.295709,27.253716],[-82.294816,27.255437],[-82.293333,27.255268],[-82.29299,27.257067],[-82.291546,27.258733],[-82.292157,27.26036],[-82.293234,27.258054],[-82.296284,27.258156],[-82.293811,27.259105],[-82.295224,27.26065],[-82.294492,27.261039],[-82.294783,27.263544],[-82.293846,27.263527],[-82.291732,27.265341],[-82.292274,27.26726],[-82.295783,27.270928],[-82.297153,27.271084],[-82.296686,27.269912],[-82.298251,27.268976],[-82.300754,27.269743],[-82.30419,27.270163],[-82.304681,27.271752],[-82.302955,27.273092],[-82.305945,27.272391],[-82.306968,27.277915],[-82.306468,27.27876],[-82.306351,27.282921],[-82.302555,27.283126],[-82.302022,27.298421],[-82.284621,27.298612],[-82.289404,27.298603],[-82.289619,27.309127],[-82.289832,27.30958],[-82.290991,27.309538],[-82.291854,27.305195],[-82.291563,27.304202],[-82.294122,27.300955],[-82.293959,27.300094],[-82.29558,27.29882],[-82.298083,27.299212],[-82.306708,27.301692],[-82.308861,27.301264],[-82.310031,27.300413],[-82.311156,27.298289],[-82.339652,27.303583],[-82.333799,27.308242],[-82.331733,27.312042],[-82.334134,27.30807],[-82.339763,27.303603],[-82.348208,27.305172],[-82.348964,27.30639],[-82.369246,27.325501],[-82.37019,27.324334],[-82.373566,27.324794],[-82.375129,27.326017],[-82.376323,27.32599],[-82.378498,27.327309],[-82.383321,27.325877],[-82.383645,27.325503],[-82.383878,27.305462],[-82.382482,27.300064],[-82.382417,27.295822],[-82.384198,27.293171],[-82.385588,27.295496],[-82.385301,27.299124],[-82.396224,27.299057],[-82.400188,27.29866],[-82.400812,27.298742],[-82.448212,27.298799],[-82.449156,27.269284]]]}},{"type":"Feature","properties":{"zcta5":"34293","AFFGEOID10":"8600000US34293","GEOID10":"34293","ALAND10":118717880,"AWATER10":6661070,"county_name":"Sarasota","state_code":"FL","county_state":"Sarasota County, FL","county_fips":"12115","risk_level_county":"Higher Risk (60–69% vaccinated)","mean_vaccination_rate_county":65.23,"risk_level_zcta":"Higher Risk (60–69% vaccinated)","mean_vaccination_rate_zips":68.39,"cases":7},"geometry":{"type":"Polygon","coordinates":[[[-82.437986,27.055796],[-82.438718,27.053534],[-82.43703,27.049904],[-82.430354,27.041337],[-82.427743,27.03804],[-82.427752,27.036642],[-82.413516,27.01638],[-82.41295,27.016599],[-82.414149,27.018609],[-82.414085,27.019586],[-82.411464,27.021047],[-82.398008,27.020934],[-82.397761,27.027913],[-82.396269,27.025941],[-82.392191,27.022448],[-82.390385,27.020866],[-82.389754,27.020885],[-82.387231,27.020938],[-82.373882,27.020837],[-82.373031,27.018754],[-82.367482,27.018289],[-82.36748,27.020448],[-82.354725,27.020488],[-82.352671,27.021695],[-82.351278,27.021848],[-82.347617,27.020588],[-82.342958,27.020887],[-82.339195,27.02192],[-82.336225,27.020568],[-82.329185,27.020431],[-82.327061,27.021784],[-82.322991,27.023527],[-82.314206,27.024239],[-82.313306,27.023784],[-82.310859,27.020266],[-82.307417,27.020114],[-82.305719,27.019318],[-82.302893,27.019945],[-82.295368,27.020057],[-82.295502,26.998394],[-82.307468,26.987542],[-82.303749,26.985511],[-82.303999,26.961342],[-82.304425,26.945644],[-82.304261,26.945642],[-82.263651,26.94533],[-82.255521,26.945264],[-82.255498,26.949424],[-82.255441,26.959998],[-82.255394,26.971212],[-82.255297,27.000336],[-82.255319,27.005632],[-82.255308,27.030886],[-82.255302,27.031086],[-82.263944,27.026419],[-82.266182,27.026081],[-82.267636,27.026779],[-82.269825,27.027028],[-82.270838,27.028525],[-82.273507,27.030143],[-82.275542,27.030667],[-82.279172,27.034002],[-82.281259,27.036308],[-82.283105,27.039647],[-82.284305,27.040865],[-82.28724,27.042294],[-82.291353,27.043635],[-82.292947,27.045043],[-82.29303,27.045246],[-82.293243,27.047401],[-82.292845,27.052769],[-82.293708,27.053585],[-82.29652,27.053301],[-82.299915,27.054387],[-82.302825,27.055894],[-82.304066,27.056701],[-82.306092,27.060344],[-82.30997,27.063526],[-82.312428,27.064295],[-82.314707,27.066143],[-82.312526,27.068974],[-82.312891,27.070331],[-82.316538,27.073299],[-82.316987,27.077843],[-82.318705,27.079615],[-82.320212,27.079085],[-82.321437,27.080889],[-82.324376,27.079831],[-82.326193,27.08004],[-82.328791,27.077],[-82.329009,27.076942],[-82.330697,27.079499],[-82.332007,27.078895],[-82.332657,27.078742],[-82.352164,27.078802],[-82.391449,27.079119],[-82.425237,27.079043],[-82.427093,27.078891],[-82.428025,27.077231],[-82.429008,27.078073],[-82.430306,27.078622],[-82.430564,27.070017],[-82.431005,27.068506],[-82.437407,27.056795],[-82.437986,27.055796]]]}},{"type":"Feature","properties":{"zcta5":"34232","AFFGEOID10":"8600000US34232","GEOID10":"34232","ALAND10":28444951,"AWATER10":967811,"county_name":"Sarasota","state_code":"FL","county_state":"Sarasota County, FL","county_fips":"12115","risk_level_county":"Higher Risk (60–69% vaccinated)","mean_vaccination_rate_county":65.23,"risk_level_zcta":"Medium Risk (70–79% vaccinated)","mean_vaccination_rate_zips":71.8,"cases":7},"geometry":{"type":"Polygon","coordinates":[[[-82.49724,27.351849],[-82.498015,27.337466],[-82.498653,27.33278],[-82.49809,27.329576],[-82.498908,27.326231],[-82.497475,27.326519],[-82.497475,27.322837],[-82.497519,27.30829],[-82.497563,27.299919],[-82.494168,27.299729],[-82.494173,27.298766],[-82.484857,27.298753],[-82.484008,27.300433],[-82.481856,27.300439],[-82.481798,27.299486],[-82.475714,27.299498],[-82.454863,27.298867],[-82.454077,27.300943],[-82.451546,27.300882],[-82.451559,27.298831],[-82.448212,27.298799],[-82.448197,27.308696],[-82.447846,27.326096],[-82.446849,27.344171],[-82.446772,27.357125],[-82.452748,27.357159],[-82.452804,27.35261],[-82.454189,27.351814],[-82.45567,27.352006],[-82.49724,27.351849]]]}},{"type":"Feature","properties":{"zcta5":"34239","AFFGEOID10":"8600000US34239","GEOID10":"34239","ALAND10":11552705,"AWATER10":1514623,"county_name":"Sarasota","state_code":"FL","county_state":"Sarasota County, FL","county_fips":"12115","risk_level_county":"Higher Risk (60–69% vaccinated)","mean_vaccination_rate_county":65.23,"risk_level_zcta":"Higher Risk (60–69% vaccinated)","mean_vaccination_rate_zips":69.67,"cases":7},"geometry":{"type":"Polygon","coordinates":[[[-82.529749,27.324889],[-82.529729,27.322896],[-82.53786,27.32349],[-82.541928,27.323604],[-82.540904,27.324511],[-82.547219,27.324323],[-82.545519,27.315424],[-82.544919,27.304224],[-82.545138,27.302706],[-82.544738,27.298894],[-82.529515,27.29883],[-82.527991,27.298047],[-82.527991,27.297028],[-82.522971,27.296746],[-82.522731,27.29884],[-82.519938,27.298839],[-82.51943,27.297532],[-82.518821,27.298838],[-82.515899,27.298835],[-82.51589,27.297982],[-82.514161,27.29789],[-82.514159,27.298091],[-82.51003,27.298079],[-82.510016,27.298822],[-82.497564,27.298778],[-82.497563,27.299919],[-82.497519,27.30829],[-82.497475,27.322837],[-82.499575,27.322842],[-82.499571,27.32365],[-82.501609,27.322847],[-82.519203,27.322823],[-82.519185,27.323281],[-82.52538,27.323261],[-82.527729,27.323959],[-82.527741,27.324909],[-82.529749,27.324889]]]}},{"type":"Feature","properties":{"zcta5":"34237","AFFGEOID10":"8600000US34237","GEOID10":"34237","ALAND10":10146313,"AWATER10":169551,"county_name":"Sarasota","state_code":"FL","county_state":"Sarasota County, FL","county_fips":"12115","risk_level_county":"Higher Risk (60–69% vaccinated)","mean_vaccination_rate_county":65.23,"risk_level_zcta":"Higher Risk (60–69% vaccinated)","mean_vaccination_rate_zips":63.13,"cases":7},"geometry":{"type":"Polygon","coordinates":[[[-82.530379,27.351318],[-82.530345,27.348487],[-82.530975,27.345708],[-82.530983,27.338837],[-82.530058,27.33886],[-82.530074,27.336459],[-82.53098,27.336461],[-82.53002,27.332617],[-82.530937,27.329195],[-82.530504,27.328388],[-82.528257,27.328408],[-82.528262,27.32698],[-82.529644,27.326894],[-82.529749,27.324889],[-82.527741,27.324909],[-82.527729,27.323959],[-82.52538,27.323261],[-82.519185,27.323281],[-82.519203,27.322823],[-82.501609,27.322847],[-82.499571,27.32365],[-82.499575,27.322842],[-82.497475,27.322837],[-82.497475,27.326519],[-82.498908,27.326231],[-82.49809,27.329576],[-82.498653,27.33278],[-82.498015,27.337466],[-82.49724,27.351849],[-82.500947,27.352184],[-82.505674,27.352374],[-82.506544,27.352358],[-82.506546,27.351725],[-82.508207,27.352349],[-82.513937,27.351985],[-82.524606,27.351624],[-82.528366,27.352232],[-82.528358,27.351329],[-82.530379,27.351318]]]}},{"type":"Feature","properties":{"zcta5":"34286","AFFGEOID10":"8600000US34286","GEOID10":"34286","ALAND10":38468181,"AWATER10":1355317,"county_name":"Sarasota","state_code":"FL","county_state":"Sarasota County, FL","county_fips":"12115","risk_level_county":"Higher Risk (60–69% vaccinated)","mean_vaccination_rate_county":65.23,"risk_level_zcta":"Higher Risk (60–69% vaccinated)","mean_vaccination_rate_zips":62.95,"cases":7},"geometry":{"type":"Polygon","coordinates":[[[-82.193539,27.121199],[-82.195091,27.118778],[-82.198694,27.117053],[-82.200189,27.116855],[-82.203093,27.115748],[-82.203612,27.113997],[-82.205052,27.112695],[-82.204833,27.110984],[-82.205128,27.107601],[-82.206646,27.106635],[-82.206438,27.104918],[-82.209141,27.099592],[-82.203187,27.099523],[-82.203251,27.097049],[-82.204643,27.095026],[-82.206824,27.094039],[-82.208146,27.09235],[-82.208887,27.08485],[-82.209127,27.072099],[-82.208882,27.070977],[-82.20531,27.070628],[-82.202385,27.069341],[-82.196903,27.068901],[-82.192092,27.068798],[-82.192195,27.066752],[-82.191335,27.064023],[-82.191369,27.062111],[-82.193319,27.05604],[-82.195524,27.051913],[-82.196787,27.051169],[-82.198695,27.048511],[-82.199909,27.045997],[-82.199378,27.044594],[-82.200651,27.042083],[-82.201654,27.038294],[-82.203021,27.03506],[-82.203442,27.032843],[-82.177185,27.032789],[-82.176787,27.035664],[-82.174954,27.036843],[-82.173303,27.039046],[-82.170416,27.041737],[-82.167107,27.043315],[-82.161114,27.050108],[-82.159544,27.053861],[-82.159544,27.054617],[-82.161478,27.058283],[-82.16334,27.060595],[-82.163369,27.062544],[-82.162845,27.06525],[-82.164472,27.068458],[-82.164677,27.069645],[-82.165825,27.071145],[-82.166357,27.072806],[-82.166336,27.074086],[-82.165973,27.075443],[-82.165902,27.076173],[-82.165333,27.076133],[-82.155533,27.075983],[-82.155495,27.078723],[-82.157163,27.078791],[-82.158062,27.079661],[-82.157727,27.080883],[-82.157755,27.089872],[-82.158064,27.091838],[-82.155579,27.09187],[-82.155517,27.098982],[-82.155561,27.120037],[-82.193539,27.121199]]]}},{"type":"Feature","properties":{"zcta5":"34291","AFFGEOID10":"8600000US34291","GEOID10":"34291","ALAND10":34258811,"AWATER10":664932,"county_name":"Sarasota","state_code":"FL","county_state":"Sarasota County, FL","county_fips":"12115","risk_level_county":"Higher Risk (60–69% vaccinated)","mean_vaccination_rate_county":65.23,"risk_level_zcta":"Higher Risk (60–69% vaccinated)","mean_vaccination_rate_zips":64.83,"cases":7},"geometry":{"type":"Polygon","coordinates":[[[-82.272165,27.122432],[-82.273086,27.099868],[-82.271501,27.099853],[-82.271792,27.098247],[-82.269802,27.097444],[-82.269678,27.093913],[-82.270922,27.093659],[-82.271999,27.091915],[-82.27203,27.090604],[-82.277003,27.0863],[-82.277728,27.085002],[-82.282489,27.079862],[-82.28174,27.079149],[-82.282641,27.078142],[-82.254824,27.077999],[-82.254496,27.082437],[-82.25448,27.077811],[-82.253984,27.077164],[-82.249674,27.077121],[-82.248432,27.077998],[-82.248472,27.075209],[-82.246482,27.076412],[-82.246519,27.077978],[-82.2339,27.077436],[-82.229491,27.074208],[-82.220374,27.06953],[-82.220192,27.069436],[-82.217753,27.068245],[-82.215443,27.067972],[-82.213856,27.068246],[-82.208882,27.070977],[-82.209127,27.072099],[-82.208887,27.08485],[-82.208146,27.09235],[-82.206824,27.094039],[-82.204643,27.095026],[-82.203251,27.097049],[-82.203187,27.099523],[-82.209141,27.099592],[-82.206438,27.104918],[-82.206646,27.106635],[-82.205128,27.107601],[-82.204833,27.110984],[-82.205052,27.112695],[-82.203612,27.113997],[-82.203093,27.115748],[-82.200189,27.116855],[-82.198694,27.117053],[-82.195091,27.118778],[-82.193539,27.121199],[-82.214221,27.121577],[-82.254285,27.12187],[-82.258259,27.122865],[-82.256653,27.12534],[-82.256541,27.126886],[-82.257357,27.128952],[-82.255315,27.131884],[-82.256387,27.133595],[-82.258081,27.127065],[-82.257624,27.125498],[-82.258255,27.123101],[-82.259191,27.122621],[-82.258631,27.121095],[-82.260162,27.118622],[-82.262601,27.120216],[-82.263863,27.122453],[-82.272165,27.122432]]]}},{"type":"Feature","properties":{"zcta5":"34266","AFFGEOID10":"8600000US34266","GEOID10":"34266","ALAND10":1679496909,"AWATER10":8617605,"county_name":"Sarasota","state_code":"FL","county_state":"Sarasota County, FL","county_fips":"12115","risk_level_county":"Higher Risk (60–69% vaccinated)","mean_vaccination_rate_county":65.23,"risk_level_zcta":"Very High Risk (<60% vaccinated)","mean_vaccination_rate_zips":53.63,"cases":7},"geometry":{"type":"Polygon","coordinates":[[[-82.133348,27.208211],[-82.138874,27.197865],[-82.144118,27.193326],[-82.197368,27.193721],[-82.202499,27.195577],[-82.220446,27.195609],[-82.227483,27.189306],[-82.211766,27.175683],[-82.209153,27.173511],[-82.204843,27.169628],[-82.204838,27.165198],[-82.206417,27.163994],[-82.208787,27.163529],[-82.208607,27.16119],[-82.2111,27.157464],[-82.212435,27.154391],[-82.213695,27.154006],[-82.212156,27.15174],[-82.209148,27.150097],[-82.206777,27.147724],[-82.207208,27.144588],[-82.206341,27.143368],[-82.207737,27.138832],[-82.208713,27.137859],[-82.208862,27.134947],[-82.205137,27.129736],[-82.204826,27.127591],[-82.206745,27.125514],[-82.207476,27.122718],[-82.204817,27.121709],[-82.214221,27.121577],[-82.193539,27.121199],[-82.155561,27.120037],[-82.155517,27.098982],[-82.155345,27.09898],[-82.134775,27.098743],[-82.131853,27.098421],[-82.128572,27.097505],[-82.124309,27.095211],[-82.122998,27.094158],[-82.107348,27.080154],[-82.102463,27.075788],[-82.101413,27.075891],[-82.09856,27.075767],[-82.070929,27.075704],[-82.057516,27.076488],[-82.057631,27.125331],[-82.057365,27.14918],[-82.030478,27.148992],[-82.028974,27.148715],[-81.97585,27.148785],[-81.97329,27.14797],[-81.972773,27.148865],[-81.961035,27.149015],[-81.960137,27.151218],[-81.926955,27.151237],[-81.924641,27.153616],[-81.923161,27.155746],[-81.919364,27.154208],[-81.917039,27.156046],[-81.908888,27.156174],[-81.907306,27.155886],[-81.904754,27.15661],[-81.903558,27.157882],[-81.901767,27.16242],[-81.89911,27.16216],[-81.892959,27.162176],[-81.892885,27.161813],[-81.90055,27.156841],[-81.898342,27.15449],[-81.89261,27.153063],[-81.890814,27.15137],[-81.890984,27.151147],[-81.895308,27.144924],[-81.90618,27.129869],[-81.907068,27.128856],[-81.914168,27.122004],[-81.94595,27.09323],[-81.95004,27.09332],[-81.94993,27.106773],[-81.95395,27.10711],[-81.95368,27.11156],[-81.94571,27.11154],[-81.94541,27.11441],[-81.94011,27.12236],[-81.950426,27.122316],[-81.95075,27.119889],[-81.951488,27.11977],[-81.954528,27.123],[-81.956224,27.123341],[-81.955998,27.12106],[-81.957412,27.118289],[-81.960375,27.115877],[-81.962016,27.115539],[-81.966943,27.112528],[-81.969091,27.110504],[-81.970322,27.108214],[-81.970291,27.105707],[-81.971295,27.104573],[-81.974427,27.105943],[-81.9795,27.104547],[-81.981291,27.104645],[-81.983757,27.103644],[-81.984554,27.104226],[-81.986055,27.103454],[-81.984775,27.101743],[-81.984344,27.0999],[-81.985481,27.097973],[-81.988188,27.095854],[-81.989341,27.097139],[-81.987922,27.098891],[-81.988114,27.101494],[-81.990266,27.102055],[-81.993232,27.104865],[-81.99977,27.10497],[-81.9999,27.09613],[-81.99868,27.09239],[-81.9979,27.09142],[-81.98243,27.08008],[-81.98156,27.081],[-81.9752,27.08108],[-81.97522,27.07678],[-81.97661,27.07583],[-81.96666,27.06859],[-81.96582,27.06816],[-81.963776,27.068898],[-81.963471,27.076452],[-81.961983,27.079092],[-81.9631,27.07938],[-81.96247,27.08518],[-81.96157,27.0861],[-81.9582,27.08605],[-81.95722,27.08729],[-81.95633,27.08595],[-81.95523,27.08693],[-81.95402,27.085885],[-81.952927,27.086909],[-81.95222,27.08624],[-81.95334,27.08527],[-81.95259,27.08458],[-81.95365,27.08359],[-81.95214,27.08236],[-81.946973,27.08235],[-81.94701,27.07874],[-81.951,27.07875],[-81.95103,27.06791],[-81.958343,27.06786],[-81.958556,27.035049],[-81.562202,27.033836],[-81.562529,27.035203],[-81.562206,27.038268],[-81.562233,27.043089],[-81.562532,27.043963],[-81.562393,27.070224],[-81.562184,27.070262],[-81.562655,27.1228],[-81.56313,27.20965],[-81.562716,27.215874],[-81.563425,27.283176],[-81.56253,27.284602],[-81.562705,27.295592],[-81.564003,27.297631],[-81.564064,27.300542],[-81.564046,27.325917],[-81.564062,27.340641],[-81.661709,27.340571],[-81.679184,27.340484],[-81.679427,27.340325],[-81.710632,27.34017],[-81.711471,27.340264],[-81.829029,27.340122],[-81.858829,27.340262],[-81.858854,27.336725],[-82.055753,27.338264],[-82.056273,27.275667],[-82.056126,27.250336],[-82.056067,27.249711],[-82.056497,27.207769],[-82.112918,27.208189],[-82.133348,27.208211]],[[-81.8901,27.16166],[-81.89049,27.16219],[-81.88988,27.16221],[-81.88922,27.16217],[-81.88861,27.16209],[-81.88736,27.16172],[-81.88817,27.16058],[-81.88722,27.16006],[-81.8881,27.15892],[-81.88903,27.15939],[-81.88996,27.15825],[-81.8916,27.15931],[-81.8901,27.16166]]]}},{"type":"Feature","properties":{"zcta5":"34285","AFFGEOID10":"8600000US34285","GEOID10":"34285","ALAND10":21380729,"AWATER10":4228618,"county_name":"Sarasota","state_code":"FL","county_state":"Sarasota County, FL","county_fips":"12115","risk_level_county":"Higher Risk (60–69% vaccinated)","mean_vaccination_rate_county":65.23,"risk_level_zcta":"Higher Risk (60–69% vaccinated)","mean_vaccination_rate_zips":63.78,"cases":7},"geometry":{"type":"Polygon","coordinates":[[[-82.417262,27.113534],[-82.422424,27.115069],[-82.423674,27.117039],[-82.424678,27.117562],[-82.43406,27.11752],[-82.438192,27.116753],[-82.437774,27.116113],[-82.44085,27.115795],[-82.447095,27.112647],[-82.448536,27.112608],[-82.458787,27.108566],[-82.458854,27.112194],[-82.460403,27.113112],[-82.46314,27.112368],[-82.466994,27.113016],[-82.4676443004818,27.112607347350195],[-82.4660695470613,27.1113373137879],[-82.465319,27.110732],[-82.46176971702319,27.103066258626598],[-82.460319,27.099933],[-82.456329,27.087316],[-82.44574980955439,27.0607139870448],[-82.442429,27.060706],[-82.442163,27.060531],[-82.440326,27.058273],[-82.439331,27.057162],[-82.438909,27.056378],[-82.438864,27.056172],[-82.438388,27.055705],[-82.437986,27.055796],[-82.437407,27.056795],[-82.431005,27.068506],[-82.430564,27.070017],[-82.430306,27.078622],[-82.429008,27.078073],[-82.428025,27.077231],[-82.427093,27.078891],[-82.425237,27.079043],[-82.391449,27.079119],[-82.389688,27.08044],[-82.389704,27.082624],[-82.392463,27.082622],[-82.392725,27.084203],[-82.391887,27.084853],[-82.392596,27.086194],[-82.392583,27.088039],[-82.393432,27.090022],[-82.395184,27.090307],[-82.396644,27.091343],[-82.404603,27.089008],[-82.406354,27.087938],[-82.410674,27.087234],[-82.413306,27.087654],[-82.417401,27.091507],[-82.418512,27.093798],[-82.41805,27.09356],[-82.41744,27.09361],[-82.416974,27.099784],[-82.413073,27.099776],[-82.413054,27.100967],[-82.417299,27.100986],[-82.417262,27.113534]]]}},{"type":"Feature","properties":{"zcta5":"34236","AFFGEOID10":"8600000US34236","GEOID10":"34236","ALAND10":9134848,"AWATER10":12086951,"county_name":"Sarasota","state_code":"FL","county_state":"Sarasota County, FL","county_fips":"12115","risk_level_county":"Higher Risk (60–69% vaccinated)","mean_vaccination_rate_county":65.23,"risk_level_zcta":"Higher Risk (60–69% vaccinated)","mean_vaccination_rate_zips":63.18,"cases":7},"geometry":{"type":"Polygon","coordinates":[[[-82.5898157854789,27.327279922291897],[-82.588617031383,27.324913738327897],[-82.588375,27.324436],[-82.586751,27.319607],[-82.583531,27.317588],[-82.57602,27.309324],[-82.57091674743279,27.301233551157498],[-82.569248,27.298588],[-82.5660709671793,27.297242214378198],[-82.566002,27.297213],[-82.56242437956519,27.295940783241498],[-82.560723,27.298749],[-82.56172,27.299324],[-82.561348,27.306315],[-82.544919,27.304224],[-82.545519,27.315424],[-82.547219,27.324323],[-82.540904,27.324511],[-82.541928,27.323604],[-82.53786,27.32349],[-82.529729,27.322896],[-82.529749,27.324889],[-82.529644,27.326894],[-82.528262,27.32698],[-82.528257,27.328408],[-82.530504,27.328388],[-82.530937,27.329195],[-82.53002,27.332617],[-82.53098,27.336461],[-82.530074,27.336459],[-82.530058,27.33886],[-82.530983,27.338837],[-82.530975,27.345708],[-82.530345,27.348487],[-82.530379,27.351318],[-82.5304,27.352218],[-82.534522,27.352027],[-82.534462,27.348605],[-82.538544,27.34865],[-82.538535,27.350431],[-82.536448,27.351076],[-82.538521,27.351368],[-82.538503,27.352299],[-82.546931,27.352379],[-82.547315,27.35479],[-82.552214,27.353279],[-82.554519,27.353022],[-82.554819,27.344823],[-82.554731,27.333748],[-82.558631,27.329364],[-82.564838,27.325296],[-82.564829,27.325149],[-82.564728,27.325031],[-82.565296,27.324724],[-82.565415,27.324982],[-82.569093,27.32925],[-82.573008,27.331622],[-82.569989,27.334924],[-82.569906,27.337918],[-82.571112,27.339456],[-82.574697,27.341166],[-82.579313,27.340965],[-82.57952,27.336823],[-82.5898157854789,27.327279922291897]]]}},{"type":"Feature","properties":{"zcta5":"34228","AFFGEOID10":"8600000US34228","GEOID10":"34228","ALAND10":10562385,"AWATER10":22305059,"county_name":"Sarasota","state_code":"FL","county_state":"Sarasota County, FL","county_fips":"12115","risk_level_county":"Higher Risk (60–69% vaccinated)","mean_vaccination_rate_county":65.23,"risk_level_zcta":"Very High Risk (<60% vaccinated)","mean_vaccination_rate_zips":57.18,"cases":7},"geometry":{"type":"Polygon","coordinates":[[[-82.691081157442,27.4436592486103],[-82.69131085027941,27.441659487102697],[-82.6917896186621,27.4374912135327],[-82.691821,27.437218],[-82.690071,27.434415],[-82.6844575530436,27.430623764286295],[-82.6812299048555,27.428443860356197],[-82.675121,27.424318],[-82.6742400785719,27.423583114681296],[-82.661078,27.412603],[-82.64283454502659,27.3897369770961],[-82.642821,27.38972],[-82.637543,27.379977],[-82.623863,27.362206],[-82.6144642099557,27.352729107637003],[-82.6119412031604,27.3501851350918],[-82.597629,27.335754],[-82.5912796619039,27.329294527460096],[-82.590365,27.328364],[-82.5898157854789,27.327279922291897],[-82.57952,27.336823],[-82.58162,27.339123],[-82.58822,27.339823],[-82.59632,27.344822],[-82.59552,27.347022],[-82.61282,27.362421],[-82.61632,27.367721],[-82.61372,27.378421],[-82.62642,27.38632],[-82.625719,27.389621],[-82.62552,27.38962],[-82.62642,27.39542],[-82.636521,27.412319],[-82.651421,27.432418],[-82.671272,27.447134],[-82.680021,27.453517],[-82.688129,27.444614],[-82.691081157442,27.4436592486103]]]}},{"type":"Feature","properties":{"zcta5":"34288","AFFGEOID10":"8600000US34288","GEOID10":"34288","ALAND10":50091824,"AWATER10":1816808,"county_name":"Sarasota","state_code":"FL","county_state":"Sarasota County, FL","county_fips":"12115","risk_level_county":"Higher Risk (60–69% vaccinated)","mean_vaccination_rate_county":65.23,"risk_level_zcta":"Higher Risk (60–69% vaccinated)","mean_vaccination_rate_zips":67.76,"cases":7},"geometry":{"type":"Polygon","coordinates":[[[-82.155533,27.075983],[-82.165333,27.076133],[-82.165902,27.076173],[-82.165973,27.075443],[-82.166336,27.074086],[-82.166357,27.072806],[-82.165825,27.071145],[-82.164677,27.069645],[-82.164472,27.068458],[-82.162845,27.06525],[-82.163369,27.062544],[-82.16334,27.060595],[-82.161478,27.058283],[-82.159544,27.054617],[-82.159544,27.053861],[-82.161114,27.050108],[-82.167107,27.043315],[-82.170416,27.041737],[-82.173303,27.039046],[-82.174954,27.036843],[-82.176787,27.035664],[-82.177185,27.032789],[-82.118728,27.032503],[-82.118236,27.032509],[-82.108608,27.03243],[-82.108327,27.032435],[-82.102799,27.032375],[-82.078945,27.03213],[-82.077035,27.032124],[-82.070594,27.0321],[-82.068018,27.032082],[-82.057469,27.032119],[-82.057477,27.034076],[-82.05753,27.052658],[-82.057516,27.076488],[-82.070929,27.075704],[-82.09856,27.075767],[-82.101413,27.075891],[-82.102463,27.075788],[-82.107348,27.080154],[-82.108131,27.07913],[-82.107233,27.076033],[-82.107475,27.075809],[-82.135734,27.075938],[-82.136802,27.076077],[-82.155533,27.075983]]]}},{"type":"Feature","properties":{"zcta5":"34289","AFFGEOID10":"8600000US34289","GEOID10":"34289","ALAND10":8646627,"AWATER10":1581176,"county_name":"Sarasota","state_code":"FL","county_state":"Sarasota County, FL","county_fips":"12115","risk_level_county":"Higher Risk (60–69% vaccinated)","mean_vaccination_rate_county":65.23,"risk_level_zcta":"Higher Risk (60–69% vaccinated)","mean_vaccination_rate_zips":63.23,"cases":7},"geometry":{"type":"Polygon","coordinates":[[[-82.155517,27.098982],[-82.155579,27.09187],[-82.158064,27.091838],[-82.157755,27.089872],[-82.157727,27.080883],[-82.158062,27.079661],[-82.157163,27.078791],[-82.155495,27.078723],[-82.155533,27.075983],[-82.136802,27.076077],[-82.135734,27.075938],[-82.107475,27.075809],[-82.107233,27.076033],[-82.108131,27.07913],[-82.107348,27.080154],[-82.122998,27.094158],[-82.124309,27.095211],[-82.128572,27.097505],[-82.131853,27.098421],[-82.134775,27.098743],[-82.155345,27.09898],[-82.155517,27.098982]]]}},{"type":"Feature","properties":{"zcta5":"34292","AFFGEOID10":"8600000US34292","GEOID10":"34292","ALAND10":77327704,"AWATER10":3093796,"county_name":"Sarasota","state_code":"FL","county_state":"Sarasota County, FL","county_fips":"12115","risk_level_county":"Higher Risk (60–69% vaccinated)","mean_vaccination_rate_county":65.23,"risk_level_zcta":"Medium Risk (70–79% vaccinated)","mean_vaccination_rate_zips":70.11,"cases":7},"geometry":{"type":"Polygon","coordinates":[[[-82.417262,27.113534],[-82.417299,27.100986],[-82.413054,27.100967],[-82.413073,27.099776],[-82.416974,27.099784],[-82.41744,27.09361],[-82.41805,27.09356],[-82.418512,27.093798],[-82.417401,27.091507],[-82.413306,27.087654],[-82.410674,27.087234],[-82.406354,27.087938],[-82.404603,27.089008],[-82.396644,27.091343],[-82.395184,27.090307],[-82.393432,27.090022],[-82.392583,27.088039],[-82.392596,27.086194],[-82.391887,27.084853],[-82.392725,27.084203],[-82.392463,27.082622],[-82.389704,27.082624],[-82.389688,27.08044],[-82.391449,27.079119],[-82.352164,27.078802],[-82.332657,27.078742],[-82.332007,27.078895],[-82.330697,27.079499],[-82.329009,27.076942],[-82.328791,27.077],[-82.326193,27.08004],[-82.324376,27.079831],[-82.321437,27.080889],[-82.320212,27.079085],[-82.318705,27.079615],[-82.316987,27.077843],[-82.316538,27.073299],[-82.312891,27.070331],[-82.312526,27.068974],[-82.314707,27.066143],[-82.312428,27.064295],[-82.30997,27.063526],[-82.306092,27.060344],[-82.304066,27.056701],[-82.302825,27.055894],[-82.299915,27.054387],[-82.29652,27.053301],[-82.293708,27.053585],[-82.292922,27.054109],[-82.291293,27.053353],[-82.290631,27.054364],[-82.291947,27.055105],[-82.290551,27.056713],[-82.290617,27.057644],[-82.288668,27.059811],[-82.289089,27.061534],[-82.287518,27.062276],[-82.287646,27.063847],[-82.286584,27.064473],[-82.285817,27.06608],[-82.286078,27.067418],[-82.284857,27.069265],[-82.285406,27.070182],[-82.284569,27.07212],[-82.284842,27.073131],[-82.283751,27.076273],[-82.282689,27.077084],[-82.282641,27.078142],[-82.28174,27.079149],[-82.282489,27.079862],[-82.277728,27.085002],[-82.277003,27.0863],[-82.27203,27.090604],[-82.271999,27.091915],[-82.270922,27.093659],[-82.269678,27.093913],[-82.269802,27.097444],[-82.271792,27.098247],[-82.271501,27.099853],[-82.273086,27.099868],[-82.272165,27.122432],[-82.305055,27.122504],[-82.30526,27.12444],[-82.309156,27.124789],[-82.310509,27.123612],[-82.31419,27.12345],[-82.318113,27.122816],[-82.318515,27.123683],[-82.331173,27.123186],[-82.330637,27.125772],[-82.331901,27.126523],[-82.3347,27.125749],[-82.335443,27.12664],[-82.335176,27.127872],[-82.333949,27.126796],[-82.332037,27.127428],[-82.331259,27.129123],[-82.331641,27.131364],[-82.330684,27.135235],[-82.337023,27.13567],[-82.338297,27.138886],[-82.338411,27.140544],[-82.336863,27.14296],[-82.346789,27.143204],[-82.350873,27.142779],[-82.351915,27.142339],[-82.351773,27.137924],[-82.35129,27.135253],[-82.35742,27.135208],[-82.35917,27.136798],[-82.360117,27.136585],[-82.359859,27.139195],[-82.361002,27.139835],[-82.359265,27.141397],[-82.362486,27.142903],[-82.363203,27.145163],[-82.365198,27.145394],[-82.364352,27.146849],[-82.365023,27.147832],[-82.365123,27.150251],[-82.363709,27.150109],[-82.363154,27.150293],[-82.363115,27.14992],[-82.361828,27.151342],[-82.361755,27.152373],[-82.362013,27.15316],[-82.361397,27.15319],[-82.361461,27.153693],[-82.362246,27.152946],[-82.362202,27.151169],[-82.363064,27.150457],[-82.365105,27.150436],[-82.365403,27.149876],[-82.365336,27.147267],[-82.365976,27.144925],[-82.364032,27.144738],[-82.36378,27.142591],[-82.360256,27.140909],[-82.363528,27.141325],[-82.361459,27.139494],[-82.360314,27.138869],[-82.360423,27.137227],[-82.362288,27.137189],[-82.362538,27.13316],[-82.36174,27.129802],[-82.359883,27.128232],[-82.359919,27.1227],[-82.360724,27.122763],[-82.388594,27.122782],[-82.388599,27.12486],[-82.389622,27.124862],[-82.389618,27.122786],[-82.396381,27.122802],[-82.397562,27.122806],[-82.404476,27.130223],[-82.410465,27.137385],[-82.417143,27.137444],[-82.416996,27.133767],[-82.41137,27.133761],[-82.411362,27.132041],[-82.413113,27.13204],[-82.41311,27.130133],[-82.415155,27.130139],[-82.415171,27.128328],[-82.417129,27.128337],[-82.417262,27.113534]]]}},{"type":"Feature","properties":{"zcta5":"34223","AFFGEOID10":"8600000US34223","GEOID10":"34223","ALAND10":74508059,"AWATER10":24888678,"county_name":"Sarasota","state_code":"FL","county_state":"Sarasota County, FL","county_fips":"12115","risk_level_county":"Higher Risk (60–69% vaccinated)","mean_vaccination_rate_county":65.23,"risk_level_zcta":"Higher Risk (60–69% vaccinated)","mean_vaccination_rate_zips":61.98,"cases":7},"geometry":{"type":"Polygon","coordinates":[[[-82.44574980955439,27.0607139870448],[-82.445718,27.060634],[-82.419218,27.020736],[-82.409548,27.004508],[-82.400618,26.984937],[-82.392795,26.972711],[-82.381608,26.957687],[-82.377046,26.949227],[-82.3752262256954,26.9460406622791],[-82.3749868195969,26.9456214736575],[-82.371007,26.938653],[-82.358784,26.919542],[-82.3549718894048,26.9135804681119],[-82.351649,26.908384],[-82.342469,26.894676],[-82.34159758517309,26.8935404334298],[-82.340749,26.893583],[-82.340432,26.898243],[-82.335832,26.905867],[-82.33626,26.90776],[-82.340175,26.914325],[-82.342422,26.917753],[-82.338137,26.919846],[-82.334448,26.920881],[-82.331841,26.922246],[-82.331447,26.922545],[-82.331746,26.922793],[-82.331857,26.922308],[-82.332603,26.921852],[-82.333516,26.922283],[-82.336001,26.921227],[-82.341831,26.922399],[-82.3425,26.922782],[-82.34261,26.923917],[-82.341365,26.926257],[-82.339853,26.926796],[-82.337961,26.930167],[-82.33672,26.93082],[-82.3367,26.930921],[-82.334548,26.931477],[-82.333428,26.932689],[-82.333559,26.935466],[-82.328757,26.936362],[-82.328533,26.937232],[-82.325751,26.93726],[-82.329305,26.940285],[-82.325492,26.940317],[-82.329513,26.941476],[-82.327616,26.941299],[-82.325309,26.944387],[-82.323284,26.945675],[-82.322804,26.945646],[-82.321693,26.947326],[-82.320222,26.948287],[-82.318756,26.948335],[-82.318194,26.949846],[-82.317117,26.950264],[-82.314673,26.952373],[-82.31467,26.961519],[-82.303999,26.961342],[-82.303749,26.985511],[-82.307468,26.987542],[-82.295502,26.998394],[-82.295368,27.020057],[-82.302893,27.019945],[-82.305719,27.019318],[-82.307417,27.020114],[-82.310859,27.020266],[-82.313306,27.023784],[-82.314206,27.024239],[-82.322991,27.023527],[-82.327061,27.021784],[-82.329185,27.020431],[-82.336225,27.020568],[-82.339195,27.02192],[-82.342958,27.020887],[-82.347617,27.020588],[-82.351278,27.021848],[-82.352671,27.021695],[-82.354725,27.020488],[-82.36748,27.020448],[-82.367482,27.018289],[-82.373031,27.018754],[-82.373882,27.020837],[-82.387231,27.020938],[-82.389754,27.020885],[-82.390385,27.020866],[-82.392191,27.022448],[-82.396269,27.025941],[-82.397761,27.027913],[-82.398008,27.020934],[-82.411464,27.021047],[-82.414085,27.019586],[-82.414149,27.018609],[-82.41295,27.016599],[-82.413516,27.01638],[-82.427752,27.036642],[-82.427743,27.03804],[-82.430354,27.041337],[-82.43703,27.049904],[-82.438718,27.053534],[-82.437986,27.055796],[-82.438388,27.055705],[-82.438864,27.056172],[-82.438909,27.056378],[-82.439331,27.057162],[-82.440326,27.058273],[-82.442163,27.060531],[-82.442429,27.060706],[-82.44574980955439,27.0607139870448]]]}},{"type":"Feature","properties":{"zcta5":"34233","AFFGEOID10":"8600000US34233","GEOID10":"34233","ALAND10":15929281,"AWATER10":632237,"county_name":"Sarasota","state_code":"FL","county_state":"Sarasota County, FL","county_fips":"12115","risk_level_county":"Higher Risk (60–69% vaccinated)","mean_vaccination_rate_county":65.23,"risk_level_zcta":"Medium Risk (70–79% vaccinated)","mean_vaccination_rate_zips":70.51,"cases":7},"geometry":{"type":"Polygon","coordinates":[[[-82.497564,27.298778],[-82.497612,27.269192],[-82.473339,27.269061],[-82.473689,27.263695],[-82.471406,27.263439],[-82.469619,27.263844],[-82.467378,27.265182],[-82.464768,27.265531],[-82.464629,27.26795],[-82.46056,27.268315],[-82.46057,27.269047],[-82.449156,27.269284],[-82.448212,27.298799],[-82.451559,27.298831],[-82.451546,27.300882],[-82.454077,27.300943],[-82.454863,27.298867],[-82.475714,27.299498],[-82.481798,27.299486],[-82.481856,27.300439],[-82.484008,27.300433],[-82.484857,27.298753],[-82.494173,27.298766],[-82.494168,27.299729],[-82.497563,27.299919],[-82.497564,27.298778]]]}},{"type":"Feature","properties":{"zcta5":"34240","AFFGEOID10":"8600000US34240","GEOID10":"34240","ALAND10":176933039,"AWATER10":8759875,"county_name":"Sarasota","state_code":"FL","county_state":"Sarasota County, FL","county_fips":"12115","risk_level_county":"Higher Risk (60–69% vaccinated)","mean_vaccination_rate_county":65.23,"risk_level_zcta":"Medium Risk (70–79% vaccinated)","mean_vaccination_rate_zips":73.36,"cases":7},"geometry":{"type":"Polygon","coordinates":[[[-82.448609,27.388605],[-82.449001,27.388608],[-82.446975,27.380631],[-82.44682,27.37851],[-82.446772,27.357125],[-82.446849,27.344171],[-82.447846,27.326096],[-82.448197,27.308696],[-82.448212,27.298799],[-82.400812,27.298742],[-82.400188,27.29866],[-82.396224,27.299057],[-82.385301,27.299124],[-82.385588,27.295496],[-82.384198,27.293171],[-82.382417,27.295822],[-82.382482,27.300064],[-82.383878,27.305462],[-82.383645,27.325503],[-82.383321,27.325877],[-82.378498,27.327309],[-82.376323,27.32599],[-82.375129,27.326017],[-82.373566,27.324794],[-82.37019,27.324334],[-82.369246,27.325501],[-82.348964,27.30639],[-82.348208,27.305172],[-82.339763,27.303603],[-82.334134,27.30807],[-82.331733,27.312042],[-82.333799,27.308242],[-82.339652,27.303583],[-82.311156,27.298289],[-82.310031,27.300413],[-82.308861,27.301264],[-82.306708,27.301692],[-82.298083,27.299212],[-82.29558,27.29882],[-82.293959,27.300094],[-82.294122,27.300955],[-82.291563,27.304202],[-82.291854,27.305195],[-82.290991,27.309538],[-82.289832,27.30958],[-82.289619,27.309127],[-82.289404,27.298603],[-82.284621,27.298612],[-82.302022,27.298421],[-82.302555,27.283126],[-82.306351,27.282921],[-82.306468,27.27876],[-82.306968,27.277915],[-82.305945,27.272391],[-82.302955,27.273092],[-82.304681,27.271752],[-82.30419,27.270163],[-82.300754,27.269743],[-82.298251,27.268976],[-82.296686,27.269912],[-82.297153,27.271084],[-82.295783,27.270928],[-82.292274,27.26726],[-82.291732,27.265341],[-82.291518,27.265676],[-82.288356,27.265816],[-82.288658,27.263971],[-82.287617,27.259928],[-82.286233,27.261893],[-82.285753,27.266211],[-82.283074,27.268365],[-82.280342,27.271304],[-82.275198,27.270484],[-82.273386,27.271091],[-82.27107,27.27395],[-82.269873,27.274439],[-82.267545,27.274136],[-82.266508,27.274999],[-82.265914,27.276924],[-82.264529,27.278326],[-82.261276,27.279116],[-82.261172,27.28067],[-82.258736,27.282782],[-82.258124,27.283947],[-82.255915,27.285824],[-82.253424,27.286525],[-82.253166,27.287755],[-82.253189,27.289878],[-82.25307,27.290385],[-82.252978,27.299266],[-82.253117,27.300104],[-82.252645,27.350237],[-82.254688,27.349897],[-82.268716,27.350056],[-82.268238,27.386304],[-82.374815,27.386611],[-82.39267,27.386825],[-82.397394,27.386453],[-82.398117,27.386451],[-82.433135,27.38635],[-82.43624,27.386353],[-82.436927,27.386478],[-82.437702,27.386765],[-82.442069,27.388573],[-82.447461,27.388587],[-82.448609,27.388605]]]}},{"type":"Feature","properties":{"zcta5":"34251","AFFGEOID10":"8600000US34251","GEOID10":"34251","ALAND10":760441924,"AWATER10":5927805,"county_name":"Sarasota","state_code":"FL","county_state":"Sarasota County, FL","county_fips":"12115","risk_level_county":"Higher Risk (60–69% vaccinated)","mean_vaccination_rate_county":65.23,"risk_level_zcta":"Very High Risk (<60% vaccinated)","mean_vaccination_rate_zips":59.95,"cases":7},"geometry":{"type":"Polygon","coordinates":[[[-82.258626,27.555898],[-82.260864,27.553951],[-82.260941,27.551132],[-82.260041,27.546685],[-82.258882,27.544804],[-82.259062,27.542467],[-82.255248,27.540895],[-82.256786,27.539217],[-82.257721,27.536071],[-82.259953,27.533127],[-82.260005,27.531751],[-82.261218,27.530082],[-82.264588,27.528048],[-82.26607,27.526316],[-82.268412,27.529603],[-82.271473,27.531551],[-82.276308,27.532011],[-82.274946,27.530617],[-82.27451,27.528904],[-82.276236,27.52408],[-82.279406,27.518876],[-82.280713,27.517808],[-82.286287,27.517745],[-82.286376,27.513398],[-82.288988,27.512541],[-82.318146,27.512867],[-82.318189,27.514357],[-82.319794,27.512886],[-82.321952,27.512793],[-82.321114,27.511482],[-82.322286,27.508206],[-82.322397,27.50526],[-82.32359,27.500331],[-82.328649,27.498454],[-82.33111,27.498932],[-82.335834,27.497867],[-82.337673,27.498537],[-82.339835,27.498209],[-82.343177,27.4954],[-82.34572,27.497645],[-82.349551,27.49963],[-82.354539,27.493423],[-82.301628,27.47558],[-82.302058,27.475443],[-82.303789,27.474171],[-82.303819,27.470637],[-82.304853,27.470289],[-82.303337,27.467479],[-82.303206,27.466177],[-82.303954,27.401464],[-82.303834,27.39865],[-82.280579,27.387972],[-82.277039,27.387148],[-82.26821,27.387121],[-82.268238,27.386304],[-82.268716,27.350056],[-82.254688,27.349897],[-82.252645,27.350237],[-82.253117,27.300104],[-82.252978,27.299266],[-82.25307,27.290385],[-82.253189,27.289878],[-82.253166,27.287755],[-82.253596,27.208916],[-82.133348,27.208211],[-82.112918,27.208189],[-82.056497,27.207769],[-82.056067,27.249711],[-82.056126,27.250336],[-82.056273,27.275667],[-82.055753,27.338264],[-82.055487,27.473096],[-82.055016,27.512449],[-82.057178,27.515047],[-82.05923,27.516536],[-82.061834,27.519665],[-82.063639,27.522899],[-82.06514,27.52387],[-82.069408,27.527713],[-82.073025,27.533868],[-82.073496,27.537146],[-82.087629,27.537228],[-82.087533,27.515451],[-82.118421,27.515813],[-82.121404,27.515607],[-82.121825,27.516149],[-82.129428,27.517016],[-82.133894,27.516],[-82.140601,27.515991],[-82.141148,27.51448],[-82.143351,27.51226],[-82.147561,27.510713],[-82.14936,27.506494],[-82.152916,27.502612],[-82.152666,27.501679],[-82.156697,27.499664],[-82.16047,27.498433],[-82.166239,27.497815],[-82.16834,27.497021],[-82.171435,27.495014],[-82.172554,27.493841],[-82.174072,27.493548],[-82.175485,27.492173],[-82.177463,27.491461],[-82.18019,27.491455],[-82.187073,27.490329],[-82.188092,27.490726],[-82.191004,27.489553],[-82.192989,27.489504],[-82.19494,27.488703],[-82.197253,27.487526],[-82.197664,27.484648],[-82.201023,27.484079],[-82.201091,27.486285],[-82.199267,27.490084],[-82.199396,27.493569],[-82.203152,27.499323],[-82.203766,27.502437],[-82.203098,27.508834],[-82.201607,27.512319],[-82.202481,27.514039],[-82.20706,27.514313],[-82.209734,27.516743],[-82.208141,27.519357],[-82.208218,27.521765],[-82.208939,27.52541],[-82.208117,27.53066],[-82.209713,27.535887],[-82.212285,27.538271],[-82.213314,27.539784],[-82.213598,27.54171],[-82.21509,27.543315],[-82.215116,27.546593],[-82.212622,27.548932],[-82.211645,27.550469],[-82.211722,27.55173],[-82.213498,27.55354],[-82.213675,27.555296],[-82.214236,27.55566],[-82.223143,27.554568],[-82.242147,27.555828],[-82.258626,27.555898]]]}},{"type":"Feature","properties":{"zcta5":"34224","AFFGEOID10":"8600000US34224","GEOID10":"34224","ALAND10":33566256,"AWATER10":5100212,"county_name":"Sarasota","state_code":"FL","county_state":"Sarasota County, FL","county_fips":"12115","risk_level_county":"Higher Risk (60–69% vaccinated)","mean_vaccination_rate_county":65.23,"risk_level_zcta":"Higher Risk (60–69% vaccinated)","mean_vaccination_rate_zips":64.68,"cases":7},"geometry":{"type":"Polygon","coordinates":[[[-82.303999,26.961342],[-82.31467,26.961519],[-82.314673,26.952373],[-82.317117,26.950264],[-82.318194,26.949846],[-82.318756,26.948335],[-82.320222,26.948287],[-82.321693,26.947326],[-82.322804,26.945646],[-82.323284,26.945675],[-82.325309,26.944387],[-82.327616,26.941299],[-82.329513,26.941476],[-82.325492,26.940317],[-82.329305,26.940285],[-82.325751,26.93726],[-82.328533,26.937232],[-82.328757,26.936362],[-82.333559,26.935466],[-82.333428,26.932689],[-82.334548,26.931477],[-82.3367,26.930921],[-82.33672,26.93082],[-82.337961,26.930167],[-82.339853,26.926796],[-82.341365,26.926257],[-82.34261,26.923917],[-82.3425,26.922782],[-82.341831,26.922399],[-82.336001,26.921227],[-82.333516,26.922283],[-82.332603,26.921852],[-82.331857,26.922308],[-82.331746,26.922793],[-82.331447,26.922545],[-82.331841,26.922246],[-82.334448,26.920881],[-82.338137,26.919846],[-82.342422,26.917753],[-82.340175,26.914325],[-82.33626,26.90776],[-82.331968,26.902917],[-82.324061,26.88687],[-82.321312,26.886876],[-82.321267,26.879897],[-82.318694,26.876484],[-82.321244,26.876335],[-82.318356,26.876107],[-82.317771,26.875248],[-82.315019,26.875503],[-82.313662,26.872369],[-82.313681,26.872176],[-82.314305,26.871905],[-82.314185,26.871617],[-82.314179,26.871437],[-82.314194,26.871348],[-82.312319,26.871233],[-82.309283,26.871258],[-82.306833,26.867804],[-82.303585,26.869788],[-82.304254,26.870818],[-82.301099,26.870639],[-82.298451,26.868792],[-82.296574,26.872313],[-82.297075,26.886246],[-82.298835,26.886833],[-82.29665,26.887012],[-82.297136,26.889079],[-82.297368,26.890794],[-82.297454,26.892631],[-82.295967,26.89272],[-82.300024,26.892709],[-82.300448,26.89238],[-82.30289,26.887216],[-82.309223,26.887211],[-82.309151,26.890394],[-82.306259,26.891339],[-82.304963,26.892592],[-82.3048,26.916052],[-82.28842,26.916029],[-82.271998,26.91595],[-82.269035,26.916091],[-82.268176,26.916611],[-82.266973,26.921127],[-82.266194,26.921899],[-82.262472,26.923046],[-82.259002,26.926505],[-82.257356,26.932145],[-82.258236,26.934154],[-82.262733,26.940252],[-82.262714,26.943071],[-82.262619,26.945054],[-82.263651,26.94533],[-82.304261,26.945642],[-82.304425,26.945644],[-82.303999,26.961342]]]}}]}