{"type":"FeatureCollection","features":[{"type":"Feature","properties":{"zcta5":"47170","AFFGEOID10":"8600000US47170","GEOID10":"47170","ALAND10":412323950,"AWATER10":5305669,"county_name":"Scott","state_code":"IN","county_state":"Scott County, IN","county_fips":"18143","risk_level_county":"Medium Risk (70–79% vaccinated)","mean_vaccination_rate_county":77.22,"risk_level_zcta":"Medium Risk (70–79% vaccinated)","mean_vaccination_rate_zips":75.97,"cases":0},"geometry":{"type":"Polygon","coordinates":[[[-86.055666,38.732877],[-86.053754,38.731656],[-86.054412,38.728771],[-86.053706,38.726687],[-86.055106,38.723973],[-86.056555,38.723144],[-86.059343,38.718629],[-86.058542,38.712999],[-86.057803,38.71156],[-86.05938,38.710118],[-86.05792,38.709822],[-86.055701,38.707582],[-86.055526,38.705707],[-86.056344,38.700336],[-86.05616,38.697944],[-86.050724,38.697916],[-86.04202,38.688469],[-86.040186,38.688252],[-86.025532,38.68226],[-86.026247,38.680065],[-86.021744,38.680516],[-86.019496,38.678981],[-86.016047,38.677496],[-86.016068,38.679271],[-86.01429,38.678295],[-86.012611,38.680249],[-86.010763,38.681279],[-86.00941,38.683079],[-86.005662,38.685816],[-86.003868,38.688189],[-86.002008,38.688529],[-86.000361,38.690205],[-85.997346,38.690706],[-85.996445,38.68998],[-85.995949,38.689108],[-85.997044,38.685788],[-85.994942,38.682574],[-85.99337,38.679181],[-85.996505,38.673648],[-85.995528,38.670485],[-85.993478,38.667814],[-85.994391,38.664801],[-85.996215,38.664814],[-85.996317,38.662931],[-85.999837,38.662778],[-85.999945,38.655469],[-85.995965,38.65612],[-85.988633,38.656159],[-85.988605,38.654384],[-85.98988,38.652522],[-85.978855,38.658962],[-85.976488,38.660492],[-85.967744,38.668262],[-85.965305,38.669911],[-85.940913,38.676936],[-85.940854,38.665952],[-85.945257,38.665532],[-85.946288,38.664667],[-85.946777,38.658867],[-85.94503,38.657727],[-85.945915,38.655781],[-85.949142,38.655451],[-85.951381,38.654143],[-85.952159,38.652966],[-85.955625,38.650497],[-85.959195,38.650517],[-85.962936,38.648615],[-85.961027,38.648358],[-85.888108,38.648791],[-85.886834,38.648786],[-85.885643,38.575412],[-85.883712,38.575401],[-85.87497,38.57534],[-85.873427,38.57554],[-85.848575,38.576266],[-85.848697,38.575151],[-85.848567,38.562055],[-85.847893,38.561269],[-85.821162,38.561418],[-85.821408,38.573258],[-85.824736,38.57221],[-85.828707,38.575028],[-85.82821,38.576424],[-85.829297,38.578701],[-85.826133,38.582023],[-85.823471,38.582939],[-85.821732,38.585101],[-85.822949,38.586433],[-85.824934,38.59419],[-85.83089,38.595347],[-85.834857,38.593707],[-85.835512,38.590824],[-85.839911,38.590494],[-85.845484,38.5895],[-85.849887,38.590179],[-85.856671,38.590827],[-85.855728,38.593394],[-85.85521,38.598035],[-85.853649,38.599353],[-85.851918,38.602808],[-85.851998,38.605578],[-85.849132,38.608049],[-85.847791,38.608073],[-85.845312,38.609881],[-85.844934,38.611255],[-85.842455,38.612446],[-85.843505,38.614139],[-85.838978,38.614498],[-85.837372,38.615342],[-85.838068,38.617727],[-85.837199,38.618852],[-85.834169,38.619107],[-85.836092,38.623569],[-85.835779,38.625412],[-85.833219,38.626801],[-85.833367,38.627671],[-85.82935,38.628218],[-85.829008,38.630894],[-85.825945,38.635382],[-85.826026,38.638588],[-85.823887,38.641933],[-85.822408,38.646163],[-85.819699,38.645881],[-85.819353,38.643906],[-85.816696,38.641746],[-85.816639,38.638059],[-85.821275,38.634112],[-85.824384,38.63032],[-85.826592,38.626598],[-85.812533,38.626697],[-85.812366,38.60393],[-85.808685,38.60469],[-85.793584,38.604814],[-85.787687,38.604834],[-85.775596,38.605264],[-85.776615,38.608881],[-85.777031,38.612709],[-85.775925,38.615666],[-85.773583,38.619995],[-85.747005,38.620301],[-85.746887,38.614511],[-85.744401,38.61467],[-85.742117,38.611487],[-85.735186,38.610392],[-85.733602,38.609288],[-85.728187,38.607778],[-85.726738,38.606558],[-85.723885,38.607027],[-85.723068,38.607828],[-85.716578,38.61166],[-85.710945,38.61086],[-85.690891,38.622289],[-85.687751,38.620248],[-85.68577,38.620436],[-85.684633,38.618948],[-85.682737,38.617827],[-85.681628,38.615172],[-85.679878,38.615904],[-85.678449,38.614256],[-85.679466,38.611186],[-85.678328,38.609927],[-85.673974,38.607366],[-85.673825,38.60567],[-85.670333,38.60573],[-85.668931,38.607851],[-85.667918,38.611006],[-85.667231,38.611466],[-85.671077,38.615231],[-85.671053,38.620883],[-85.671971,38.621281],[-85.67305,38.623936],[-85.671971,38.624302],[-85.671047,38.622519],[-85.671009,38.631561],[-85.669098,38.633802],[-85.669264,38.634742],[-85.672413,38.638087],[-85.669196,38.638018],[-85.666042,38.636611],[-85.664974,38.637477],[-85.662244,38.63806],[-85.657197,38.643046],[-85.657567,38.643478],[-85.657661,38.649585],[-85.657067,38.650167],[-85.663267,38.651718],[-85.663379,38.656687],[-85.661092,38.657047],[-85.661148,38.664383],[-85.679899,38.664282],[-85.679616,38.667082],[-85.681043,38.671545],[-85.691381,38.671567],[-85.691571,38.683343],[-85.696513,38.686133],[-85.675921,38.686221],[-85.672106,38.689177],[-85.673244,38.688961],[-85.673727,38.710728],[-85.681826,38.710722],[-85.683725,38.710376],[-85.686641,38.727024],[-85.683143,38.727905],[-85.683373,38.729637],[-85.681911,38.735755],[-85.682294,38.736766],[-85.683338,38.736731],[-85.684033,38.809385],[-85.702666,38.808954],[-85.702634,38.794513],[-85.721032,38.793777],[-85.720869,38.772632],[-85.707266,38.772802],[-85.711251,38.764026],[-85.711594,38.762127],[-85.711239,38.738143],[-85.711009,38.736666],[-85.714491,38.735378],[-85.71731,38.735542],[-85.717633,38.733436],[-85.720096,38.732998],[-85.719981,38.726688],[-85.722406,38.724685],[-85.72582,38.723523],[-85.726302,38.722871],[-85.726035,38.719886],[-85.726536,38.718524],[-85.728798,38.718053],[-85.732473,38.718096],[-85.738611,38.716852],[-85.738766,38.729665],[-85.753722,38.729599],[-85.753738,38.733189],[-85.757415,38.733163],[-85.757364,38.729572],[-85.759941,38.729542],[-85.760011,38.72478],[-85.771461,38.724262],[-85.771352,38.717915],[-85.776202,38.722592],[-85.778197,38.723227],[-85.792602,38.723624],[-85.800178,38.733492],[-85.810414,38.727965],[-85.810688,38.72783],[-85.809175,38.725968],[-85.813444,38.726172],[-85.826759,38.726832],[-85.831693,38.727077],[-85.842338,38.725765],[-85.86702,38.72542],[-85.869559,38.726171],[-85.872977,38.726307],[-85.874323,38.728366],[-85.876785,38.728411],[-85.879209,38.729351],[-85.880467,38.72807],[-85.878773,38.726627],[-85.879914,38.725414],[-85.881404,38.725026],[-85.882368,38.725347],[-85.883927,38.7273],[-85.883738,38.72893],[-85.882258,38.730675],[-85.882982,38.731158],[-85.886549,38.730492],[-85.887674,38.731772],[-85.887598,38.733063],[-85.886011,38.733954],[-85.885986,38.735013],[-85.888334,38.734443],[-85.889725,38.733933],[-85.890194,38.7324],[-85.889553,38.730546],[-85.89116,38.729631],[-85.893351,38.729746],[-85.89449,38.731372],[-85.893144,38.735011],[-85.891886,38.736543],[-85.893577,38.737847],[-85.89527,38.738147],[-85.894894,38.740069],[-85.896471,38.74126],[-85.898721,38.740529],[-85.900442,38.742199],[-85.900123,38.743276],[-85.897171,38.74387],[-85.897024,38.744968],[-85.898396,38.747555],[-85.898015,38.748974],[-85.896173,38.749745],[-85.896263,38.75049],[-85.897899,38.751318],[-85.900587,38.753814],[-85.901552,38.753585],[-85.903043,38.751824],[-85.905937,38.752923],[-85.907136,38.751321],[-85.908919,38.751161],[-85.91,38.752855],[-85.908421,38.755098],[-85.908449,38.756151],[-85.910232,38.75725],[-85.911694,38.756586],[-85.911753,38.754343],[-85.912543,38.752673],[-85.912075,38.751437],[-85.90959,38.748817],[-85.911139,38.747353],[-85.912367,38.747468],[-85.914281,38.750056],[-85.916109,38.751872],[-85.916283,38.753978],[-85.918592,38.754185],[-85.919529,38.750551],[-85.918182,38.748842],[-85.915845,38.747423],[-85.915611,38.745958],[-85.916663,38.74566],[-85.922975,38.748271],[-85.925286,38.750615],[-85.928004,38.750661],[-85.928618,38.75343],[-85.927185,38.755101],[-85.927507,38.756062],[-85.932447,38.755811],[-85.934027,38.755102],[-85.93651,38.755834],[-85.93803,38.759449],[-85.937563,38.7608],[-85.936072,38.761921],[-85.936569,38.762837],[-85.938703,38.762425],[-85.941304,38.760273],[-85.943438,38.759998],[-85.945659,38.758396],[-85.945162,38.755857],[-85.946243,38.754186],[-85.948377,38.753636],[-85.950101,38.753842],[-85.951154,38.754757],[-85.952324,38.757297],[-85.952207,38.758808],[-85.950073,38.760547],[-85.952237,38.761417],[-85.955775,38.761165],[-85.957762,38.76137],[-85.959224,38.76224],[-85.960189,38.763796],[-85.96171,38.764047],[-85.964252,38.762719],[-85.966123,38.761185],[-85.966794,38.759652],[-85.967173,38.75615],[-85.967874,38.75512],[-85.972638,38.754157],[-85.974274,38.752852],[-85.976641,38.752393],[-85.977723,38.752713],[-85.98015,38.754887],[-85.980268,38.756191],[-85.979392,38.757863],[-85.98062,38.759052],[-85.983923,38.757495],[-85.985034,38.757632],[-85.985678,38.759417],[-85.984569,38.762392],[-85.985243,38.763857],[-85.984688,38.765482],[-85.982642,38.766216],[-85.982321,38.767131],[-85.984252,38.768115],[-85.989776,38.767311],[-85.992641,38.767401],[-85.994482,38.7666],[-85.996264,38.764996],[-85.996789,38.762547],[-85.997781,38.760899],[-86.000885,38.76005],[-86.003663,38.760784],[-86.00647,38.759961],[-86.0096,38.756964],[-86.010944,38.756713],[-86.014891,38.756989],[-86.016703,38.757974],[-86.017432,38.761087],[-86.015266,38.764588],[-86.017282,38.766512],[-86.020409,38.767566],[-86.022076,38.766926],[-86.023744,38.763996],[-86.025996,38.762097],[-86.026407,38.758687],[-86.025677,38.756993],[-86.026175,38.755757],[-86.027928,38.75617],[-86.030149,38.758551],[-86.031843,38.761321],[-86.034035,38.761733],[-86.038303,38.760888],[-86.040583,38.760888],[-86.043316,38.76245],[-86.047236,38.766676],[-86.047617,38.766664],[-86.047193,38.759477],[-86.046252,38.758434],[-86.046065,38.75564],[-86.042725,38.753798],[-86.045349,38.753993],[-86.051151,38.753775],[-86.051352,38.752011],[-86.050072,38.749191],[-86.048674,38.748408],[-86.048082,38.734024],[-86.049899,38.733707],[-86.049908,38.732686],[-86.054225,38.73252],[-86.055666,38.732877]]]}},{"type":"Feature","properties":{"zcta5":"47147","AFFGEOID10":"8600000US47147","GEOID10":"47147","ALAND10":72019586,"AWATER10":190946,"county_name":"Scott","state_code":"IN","county_state":"Scott County, IN","county_fips":"18143","risk_level_county":"Medium Risk (70–79% vaccinated)","mean_vaccination_rate_county":77.22,"risk_level_zcta":"Medium Risk (70–79% vaccinated)","mean_vaccination_rate_zips":70.65,"cases":0},"geometry":{"type":"Polygon","coordinates":[[[-85.518495,38.614337],[-85.523907,38.614554],[-85.524292,38.615092],[-85.523799,38.619223],[-85.526325,38.620826],[-85.542968,38.620636],[-85.542864,38.613139],[-85.559882,38.612836],[-85.570035,38.610999],[-85.570092,38.613452],[-85.588555,38.613319],[-85.58796,38.614565],[-85.584883,38.61495],[-85.583281,38.616581],[-85.584716,38.619168],[-85.584122,38.621338],[-85.584591,38.622865],[-85.583499,38.62696],[-85.585687,38.628347],[-85.590607,38.63496],[-85.607283,38.634744],[-85.607476,38.620226],[-85.625942,38.619999],[-85.627665,38.620625],[-85.629317,38.620008],[-85.635473,38.61989],[-85.636411,38.614974],[-85.643612,38.611382],[-85.64487,38.610456],[-85.648106,38.605643],[-85.642719,38.605628],[-85.632375,38.594887],[-85.626577,38.598207],[-85.624495,38.595852],[-85.620485,38.593023],[-85.613805,38.585938],[-85.613255,38.585644],[-85.607042,38.589074],[-85.605353,38.587547],[-85.588368,38.587695],[-85.588327,38.586552],[-85.583364,38.586598],[-85.586974,38.584185],[-85.586316,38.581977],[-85.58211,38.580572],[-85.581963,38.579457],[-85.582823,38.578896],[-85.584685,38.579582],[-85.587064,38.578511],[-85.584376,38.577067],[-85.584125,38.57498],[-85.585444,38.573584],[-85.583643,38.566617],[-85.583843,38.565714],[-85.582191,38.563819],[-85.581292,38.561396],[-85.581395,38.559748],[-85.580377,38.559864],[-85.579222,38.556382],[-85.57471,38.556031],[-85.574024,38.554565],[-85.571247,38.553669],[-85.56952,38.554598],[-85.5664,38.554873],[-85.564623,38.554351],[-85.560629,38.555257],[-85.557174,38.555576],[-85.556516,38.555153],[-85.553718,38.55574],[-85.551571,38.554773],[-85.545646,38.554344],[-85.542103,38.553724],[-85.542091,38.559316],[-85.54382,38.559344],[-85.544087,38.562053],[-85.542218,38.561997],[-85.542287,38.563241],[-85.551358,38.5713],[-85.551524,38.574535],[-85.557014,38.574609],[-85.559307,38.578466],[-85.554123,38.580484],[-85.552959,38.581271],[-85.550943,38.580659],[-85.54876,38.581048],[-85.54736,38.582202],[-85.544761,38.580231],[-85.542124,38.580265],[-85.542261,38.573191],[-85.530744,38.56312],[-85.523285,38.563128],[-85.517408,38.572598],[-85.506701,38.572656],[-85.500852,38.569402],[-85.499229,38.570278],[-85.500006,38.572829],[-85.498224,38.573817],[-85.498673,38.576179],[-85.496188,38.57616],[-85.496206,38.579176],[-85.49431,38.580624],[-85.49432,38.584767],[-85.496376,38.585228],[-85.496452,38.59222],[-85.478701,38.592434],[-85.478762,38.586178],[-85.468913,38.586129],[-85.468756,38.577378],[-85.462029,38.577502],[-85.46167,38.578983],[-85.450612,38.579191],[-85.44376,38.580019],[-85.444175,38.586019],[-85.42859349685769,38.5863523967306],[-85.4286295566672,38.5864087223653],[-85.431786,38.589266],[-85.434305,38.593708],[-85.435772,38.597039],[-85.437748,38.599974],[-85.438143,38.602063],[-85.43978,38.606918],[-85.440172,38.611362],[-85.440985,38.609725],[-85.441523,38.611169],[-85.44486,38.611097],[-85.441074,38.606755],[-85.441956,38.606067],[-85.442702,38.600954],[-85.444027,38.598902],[-85.442643,38.597834],[-85.447322,38.599104],[-85.449574,38.600375],[-85.451391,38.60021],[-85.452853,38.597197],[-85.454153,38.597399],[-85.455973,38.594747],[-85.460806,38.594943],[-85.460906,38.617703],[-85.469228,38.617924],[-85.468085,38.614765],[-85.466701,38.60823],[-85.468919,38.608225],[-85.469143,38.607223],[-85.478282,38.606961],[-85.482884,38.607316],[-85.487368,38.606845],[-85.496652,38.607107],[-85.496666,38.606736],[-85.5197,38.606555],[-85.51987,38.609862],[-85.520737,38.612372],[-85.518495,38.614337]]]}},{"type":"Feature","properties":{"zcta5":"47138","AFFGEOID10":"8600000US47138","GEOID10":"47138","ALAND10":190906786,"AWATER10":1385874,"county_name":"Scott","state_code":"IN","county_state":"Scott County, IN","county_fips":"18143","risk_level_county":"Medium Risk (70–79% vaccinated)","mean_vaccination_rate_county":77.22,"risk_level_zcta":"Higher Risk (60–69% vaccinated)","mean_vaccination_rate_zips":68.51,"cases":0},"geometry":{"type":"Polygon","coordinates":[[[-85.682294,38.736766],[-85.681911,38.735755],[-85.683373,38.729637],[-85.683143,38.727905],[-85.686641,38.727024],[-85.683725,38.710376],[-85.681826,38.710722],[-85.673727,38.710728],[-85.673244,38.688961],[-85.672106,38.689177],[-85.675921,38.686221],[-85.696513,38.686133],[-85.691571,38.683343],[-85.691381,38.671567],[-85.681043,38.671545],[-85.679616,38.667082],[-85.679899,38.664282],[-85.661148,38.664383],[-85.661092,38.657047],[-85.663379,38.656687],[-85.663267,38.651718],[-85.657067,38.650167],[-85.657661,38.649585],[-85.657567,38.643478],[-85.657197,38.643046],[-85.662244,38.63806],[-85.664974,38.637477],[-85.666042,38.636611],[-85.669196,38.638018],[-85.672413,38.638087],[-85.669264,38.634742],[-85.669098,38.633802],[-85.671009,38.631561],[-85.671047,38.622519],[-85.671971,38.624302],[-85.67305,38.623936],[-85.671971,38.621281],[-85.671053,38.620883],[-85.671077,38.615231],[-85.667231,38.611466],[-85.667918,38.611006],[-85.668931,38.607851],[-85.670333,38.60573],[-85.648106,38.605643],[-85.64487,38.610456],[-85.643612,38.611382],[-85.636411,38.614974],[-85.635473,38.61989],[-85.629317,38.620008],[-85.627665,38.620625],[-85.625942,38.619999],[-85.607476,38.620226],[-85.607283,38.634744],[-85.590607,38.63496],[-85.585687,38.628347],[-85.583499,38.62696],[-85.584591,38.622865],[-85.584122,38.621338],[-85.584716,38.619168],[-85.583281,38.616581],[-85.584883,38.61495],[-85.58796,38.614565],[-85.588555,38.613319],[-85.570092,38.613452],[-85.570035,38.610999],[-85.559882,38.612836],[-85.542864,38.613139],[-85.542968,38.620636],[-85.526325,38.620826],[-85.523799,38.619223],[-85.524292,38.615092],[-85.523907,38.614554],[-85.518495,38.614337],[-85.516226,38.616325],[-85.514691,38.618681],[-85.514262,38.620952],[-85.515093,38.620939],[-85.511318,38.628654],[-85.507025,38.633861],[-85.500919,38.638284],[-85.497061,38.639237],[-85.496534,38.647211],[-85.497359,38.650816],[-85.49876,38.651788],[-85.5065,38.655929],[-85.507675,38.665191],[-85.534681,38.664817],[-85.534892,38.695889],[-85.531745,38.700968],[-85.529118,38.703381],[-85.526216,38.704903],[-85.527675,38.708785],[-85.52418,38.708907],[-85.5212,38.709761],[-85.516514,38.712504],[-85.514161,38.712698],[-85.513065,38.714913],[-85.514416,38.716956],[-85.513999,38.721239],[-85.507609,38.721253],[-85.506689,38.727805],[-85.507317,38.735917],[-85.516781,38.736787],[-85.516642,38.730182],[-85.521558,38.730196],[-85.52511,38.730603],[-85.529903,38.730494],[-85.535418,38.731938],[-85.537694,38.734075],[-85.538905,38.734108],[-85.542806,38.736733],[-85.542918,38.73763],[-85.545206,38.737643],[-85.549471,38.745212],[-85.549677,38.75666],[-85.552402,38.756549],[-85.5548,38.754788],[-85.55676,38.75861],[-85.559305,38.757946],[-85.561848,38.75948],[-85.563077,38.762089],[-85.565269,38.764034],[-85.565123,38.764858],[-85.561469,38.766208],[-85.562288,38.767696],[-85.566906,38.768222],[-85.569128,38.770647],[-85.571174,38.770006],[-85.572928,38.768427],[-85.572623,38.759057],[-85.577196,38.759079],[-85.577053,38.751861],[-85.608886,38.75176],[-85.608731,38.748127],[-85.608721,38.737235],[-85.655522,38.736907],[-85.655359,38.729942],[-85.664274,38.730018],[-85.664357,38.736888],[-85.682294,38.736766]]]}},{"type":"Feature","properties":{"zcta5":"47177","AFFGEOID10":"8600000US47177","GEOID10":"47177","ALAND10":43193897,"AWATER10":287452,"county_name":"Scott","state_code":"IN","county_state":"Scott County, IN","county_fips":"18143","risk_level_county":"Medium Risk (70–79% vaccinated)","mean_vaccination_rate_county":77.22,"risk_level_zcta":"Medium Risk (70–79% vaccinated)","mean_vaccination_rate_zips":72.55,"cases":0},"geometry":{"type":"Polygon","coordinates":[[[-85.673825,38.60567],[-85.673974,38.607366],[-85.678328,38.609927],[-85.679466,38.611186],[-85.678449,38.614256],[-85.679878,38.615904],[-85.681628,38.615172],[-85.682737,38.617827],[-85.684633,38.618948],[-85.68577,38.620436],[-85.687751,38.620248],[-85.690891,38.622289],[-85.710945,38.61086],[-85.716578,38.61166],[-85.723068,38.607828],[-85.723885,38.607027],[-85.726738,38.606558],[-85.728187,38.607778],[-85.733602,38.609288],[-85.735186,38.610392],[-85.742117,38.611487],[-85.744401,38.61467],[-85.746887,38.614511],[-85.747005,38.620301],[-85.773583,38.619995],[-85.775925,38.615666],[-85.777031,38.612709],[-85.776615,38.608881],[-85.775596,38.605264],[-85.787687,38.604834],[-85.793584,38.604814],[-85.808685,38.60469],[-85.812366,38.60393],[-85.812533,38.626697],[-85.826592,38.626598],[-85.824384,38.63032],[-85.821275,38.634112],[-85.816639,38.638059],[-85.816696,38.641746],[-85.819353,38.643906],[-85.819699,38.645881],[-85.822408,38.646163],[-85.823887,38.641933],[-85.826026,38.638588],[-85.825945,38.635382],[-85.829008,38.630894],[-85.82935,38.628218],[-85.833367,38.627671],[-85.833219,38.626801],[-85.835779,38.625412],[-85.836092,38.623569],[-85.834169,38.619107],[-85.837199,38.618852],[-85.838068,38.617727],[-85.837372,38.615342],[-85.838978,38.614498],[-85.843505,38.614139],[-85.842455,38.612446],[-85.844934,38.611255],[-85.845312,38.609881],[-85.847791,38.608073],[-85.849132,38.608049],[-85.851998,38.605578],[-85.851918,38.602808],[-85.853649,38.599353],[-85.85521,38.598035],[-85.855728,38.593394],[-85.856671,38.590827],[-85.849887,38.590179],[-85.845484,38.5895],[-85.839911,38.590494],[-85.835512,38.590824],[-85.834857,38.593707],[-85.83089,38.595347],[-85.824934,38.59419],[-85.822949,38.586433],[-85.821732,38.585101],[-85.823471,38.582939],[-85.826133,38.582023],[-85.829297,38.578701],[-85.82821,38.576424],[-85.828707,38.575028],[-85.824736,38.57221],[-85.821408,38.573258],[-85.821457,38.57539],[-85.812158,38.575553],[-85.812247,38.579859],[-85.805629,38.578127],[-85.802604,38.578846],[-85.799465,38.57909],[-85.796736,38.579933],[-85.79547,38.578973],[-85.7923,38.579604],[-85.788739,38.57711],[-85.785862,38.575924],[-85.784084,38.574379],[-85.782235,38.571622],[-85.775472,38.568568],[-85.772344,38.566811],[-85.771719,38.567591],[-85.769355,38.566991],[-85.768495,38.565546],[-85.764284,38.564188],[-85.763631,38.565424],[-85.763746,38.573898],[-85.76433,38.579372],[-85.764824,38.581764],[-85.767316,38.588716],[-85.768486,38.590874],[-85.75619,38.59124],[-85.751162,38.593519],[-85.751195,38.594796],[-85.746571,38.594495],[-85.745424,38.595286],[-85.744239,38.593348],[-85.741629,38.593448],[-85.740781,38.59274],[-85.736729,38.593252],[-85.73465,38.591825],[-85.733416,38.592652],[-85.730828,38.592328],[-85.718026,38.599453],[-85.723834,38.605534],[-85.673825,38.60567]]]}},{"type":"Feature","properties":{"zcta5":"47230","AFFGEOID10":"8600000US47230","GEOID10":"47230","ALAND10":129825682,"AWATER10":517146,"county_name":"Scott","state_code":"IN","county_state":"Scott County, IN","county_fips":"18143","risk_level_county":"Medium Risk (70–79% vaccinated)","mean_vaccination_rate_county":77.22,"risk_level_zcta":"Medium Risk (70–79% vaccinated)","mean_vaccination_rate_zips":70.06,"cases":0},"geometry":{"type":"Polygon","coordinates":[[[-85.748156,38.820079],[-85.747033,38.815411],[-85.749518,38.815405],[-85.751268,38.820177],[-85.753023,38.820773],[-85.755042,38.820408],[-85.75829,38.818831],[-85.757181,38.815122],[-85.758219,38.814548],[-85.758155,38.802302],[-85.758273,38.799916],[-85.756672,38.799794],[-85.745916,38.797757],[-85.740568,38.79744],[-85.728997,38.797391],[-85.728057,38.797209],[-85.725792,38.796269],[-85.72323,38.794414],[-85.721032,38.793777],[-85.702634,38.794513],[-85.702666,38.808954],[-85.684033,38.809385],[-85.683338,38.736731],[-85.682294,38.736766],[-85.664357,38.736888],[-85.664274,38.730018],[-85.655359,38.729942],[-85.655522,38.736907],[-85.608721,38.737235],[-85.608731,38.748127],[-85.608886,38.75176],[-85.577053,38.751861],[-85.577196,38.759079],[-85.572623,38.759057],[-85.572928,38.768427],[-85.574682,38.7698],[-85.574273,38.771196],[-85.572022,38.77218],[-85.569918,38.771997],[-85.56831,38.772844],[-85.568222,38.775041],[-85.569012,38.776391],[-85.570737,38.776826],[-85.573747,38.774102],[-85.575531,38.773667],[-85.576203,38.775658],[-85.57518,38.77662],[-85.572345,38.778016],[-85.573181,38.779752],[-85.57317,38.782212],[-85.570972,38.782731],[-85.569105,38.782137],[-85.56791,38.780925],[-85.568268,38.778248],[-85.56716,38.777539],[-85.565088,38.777907],[-85.561091,38.77761],[-85.557387,38.779718],[-85.555111,38.779467],[-85.556172,38.776538],[-85.554861,38.775418],[-85.553343,38.775785],[-85.551187,38.777959],[-85.551452,38.778669],[-85.553972,38.780136],[-85.553334,38.782311],[-85.552021,38.782013],[-85.549485,38.779954],[-85.546073,38.780326],[-85.545646,38.78532],[-85.544613,38.785833],[-85.545245,38.794536],[-85.54665,38.795369],[-85.54594,38.797352],[-85.546256,38.810377],[-85.560128,38.810363],[-85.562204,38.81348],[-85.562874,38.815234],[-85.560331,38.820582],[-85.559613,38.82317],[-85.555282,38.825358],[-85.553701,38.827067],[-85.552965,38.829019],[-85.550308,38.831465],[-85.545712,38.83481],[-85.54236,38.835925],[-85.547032,38.837813],[-85.546266,38.840788],[-85.546166,38.845816],[-85.546619,38.846394],[-85.557235,38.846315],[-85.557983,38.840932],[-85.559561,38.839562],[-85.563821,38.839488],[-85.566827,38.837447],[-85.573583,38.835773],[-85.573776,38.853745],[-85.610999,38.853769],[-85.610927,38.849135],[-85.612448,38.849043],[-85.61473,38.847417],[-85.617488,38.847294],[-85.619358,38.845685],[-85.619391,38.842901],[-85.620058,38.843794],[-85.625952,38.844442],[-85.625221,38.848624],[-85.624375,38.855724],[-85.623733,38.858197],[-85.625835,38.862161],[-85.627149,38.863249],[-85.630062,38.864029],[-85.631557,38.862793],[-85.631411,38.861031],[-85.627899,38.860274],[-85.626671,38.859015],[-85.628165,38.857139],[-85.632261,38.859452],[-85.633696,38.859568],[-85.633989,38.858012],[-85.631269,38.856294],[-85.62934,38.853272],[-85.629663,38.85096],[-85.631508,38.849634],[-85.63505,38.848812],[-85.639089,38.848516],[-85.640319,38.846938],[-85.637042,38.845838],[-85.633182,38.842403],[-85.628998,38.841829],[-85.629087,38.840936],[-85.631488,38.839015],[-85.632046,38.83636],[-85.633158,38.836109],[-85.634796,38.83714],[-85.634648,38.838971],[-85.635407,38.840962],[-85.636373,38.841397],[-85.638685,38.840163],[-85.640384,38.837303],[-85.640449,38.835841],[-85.642987,38.834218],[-85.644028,38.83437],[-85.644041,38.842186],[-85.64308,38.845968],[-85.645357,38.845959],[-85.646241,38.838573],[-85.645753,38.833238],[-85.646866,38.829125],[-85.645375,38.828825],[-85.64306,38.827475],[-85.640992,38.827678],[-85.640115,38.824142],[-85.648856,38.824015],[-85.651006,38.818536],[-85.651719,38.812308],[-85.653562,38.812841],[-85.656017,38.811789],[-85.656133,38.809202],[-85.654727,38.807965],[-85.654376,38.806729],[-85.655369,38.805012],[-85.657531,38.803913],[-85.661388,38.803844],[-85.663405,38.80231],[-85.6639,38.800136],[-85.666297,38.798854],[-85.669304,38.800638],[-85.670882,38.802491],[-85.673657,38.804139],[-85.676147,38.806131],[-85.677057,38.808719],[-85.676445,38.810437],[-85.673321,38.813208],[-85.673,38.81394],[-85.674407,38.815635],[-85.677248,38.816666],[-85.679474,38.816484],[-85.681233,38.815387],[-85.683839,38.815406],[-85.691035,38.81596],[-85.694663,38.81747],[-85.697237,38.814793],[-85.698992,38.815479],[-85.698525,38.817814],[-85.699987,38.818134],[-85.703263,38.816577],[-85.70575,38.818797],[-85.706629,38.821273],[-85.705722,38.8231],[-85.706191,38.824404],[-85.709058,38.825891],[-85.710258,38.827516],[-85.712628,38.828454],[-85.715524,38.828224],[-85.719152,38.826232],[-85.718214,38.823784],[-85.71918,38.823188],[-85.723187,38.823027],[-85.726554,38.824514],[-85.72676,38.826963],[-85.729192,38.828731],[-85.731046,38.831107],[-85.733191,38.831812],[-85.734749,38.831285],[-85.735363,38.829981],[-85.734689,38.828859],[-85.7315,38.827579],[-85.730621,38.826664],[-85.730854,38.824604],[-85.734861,38.822909],[-85.736907,38.820505],[-85.742318,38.818694],[-85.745098,38.819471],[-85.744506,38.821763],[-85.74667,38.822912],[-85.748156,38.820079]]]}},{"type":"Feature","properties":{"zcta5":"47102","AFFGEOID10":"8600000US47102","GEOID10":"47102","ALAND10":103668068,"AWATER10":174152,"county_name":"Scott","state_code":"IN","county_state":"Scott County, IN","county_fips":"18143","risk_level_county":"Medium Risk (70–79% vaccinated)","mean_vaccination_rate_county":77.22,"risk_level_zcta":"Medium Risk (70–79% vaccinated)","mean_vaccination_rate_zips":74.18,"cases":0},"geometry":{"type":"Polygon","coordinates":[[[-85.896263,38.75049],[-85.896173,38.749745],[-85.898015,38.748974],[-85.898396,38.747555],[-85.897024,38.744968],[-85.897171,38.74387],[-85.900123,38.743276],[-85.900442,38.742199],[-85.898721,38.740529],[-85.896471,38.74126],[-85.894894,38.740069],[-85.89527,38.738147],[-85.893577,38.737847],[-85.891886,38.736543],[-85.893144,38.735011],[-85.89449,38.731372],[-85.893351,38.729746],[-85.89116,38.729631],[-85.889553,38.730546],[-85.890194,38.7324],[-85.889725,38.733933],[-85.888334,38.734443],[-85.885986,38.735013],[-85.886011,38.733954],[-85.887598,38.733063],[-85.887674,38.731772],[-85.886549,38.730492],[-85.882982,38.731158],[-85.882258,38.730675],[-85.883738,38.72893],[-85.883927,38.7273],[-85.882368,38.725347],[-85.881404,38.725026],[-85.879914,38.725414],[-85.878773,38.726627],[-85.880467,38.72807],[-85.879209,38.729351],[-85.876785,38.728411],[-85.874323,38.728366],[-85.872977,38.726307],[-85.869559,38.726171],[-85.86702,38.72542],[-85.842338,38.725765],[-85.831693,38.727077],[-85.826759,38.726832],[-85.813444,38.726172],[-85.809175,38.725968],[-85.810688,38.72783],[-85.810414,38.727965],[-85.800178,38.733492],[-85.792602,38.723624],[-85.778197,38.723227],[-85.776202,38.722592],[-85.771352,38.717915],[-85.771461,38.724262],[-85.760011,38.72478],[-85.759941,38.729542],[-85.757364,38.729572],[-85.757415,38.733163],[-85.753738,38.733189],[-85.753722,38.729599],[-85.738766,38.729665],[-85.738611,38.716852],[-85.732473,38.718096],[-85.728798,38.718053],[-85.726536,38.718524],[-85.726035,38.719886],[-85.726302,38.722871],[-85.72582,38.723523],[-85.722406,38.724685],[-85.719981,38.726688],[-85.720096,38.732998],[-85.717633,38.733436],[-85.71731,38.735542],[-85.714491,38.735378],[-85.711009,38.736666],[-85.711239,38.738143],[-85.711594,38.762127],[-85.711251,38.764026],[-85.707266,38.772802],[-85.720869,38.772632],[-85.721032,38.793777],[-85.72323,38.794414],[-85.725792,38.796269],[-85.728057,38.797209],[-85.728997,38.797391],[-85.740568,38.79744],[-85.745916,38.797757],[-85.756672,38.799794],[-85.758273,38.799916],[-85.758155,38.802302],[-85.758219,38.814548],[-85.759873,38.814689],[-85.762009,38.813683],[-85.763822,38.815514],[-85.76821,38.815127],[-85.769148,38.812885],[-85.769208,38.810962],[-85.771051,38.80975],[-85.77266,38.809613],[-85.774063,38.811696],[-85.775817,38.81291],[-85.779474,38.812682],[-85.78123,38.810806],[-85.782547,38.807511],[-85.783425,38.807145],[-85.789216,38.806986],[-85.791146,38.808543],[-85.791995,38.807627],[-85.794277,38.808268],[-85.795357,38.807508],[-85.797671,38.804538],[-85.800099,38.80296],[-85.799807,38.801312],[-85.802059,38.797787],[-85.801972,38.796574],[-85.804633,38.795476],[-85.805307,38.791996],[-85.80725,38.789377],[-85.806781,38.785832],[-85.805609,38.783246],[-85.805842,38.781622],[-85.804905,38.77954],[-85.809523,38.777665],[-85.811102,38.777849],[-85.810837,38.779429],[-85.81189,38.779727],[-85.813642,38.777691],[-85.817354,38.777876],[-85.819429,38.776503],[-85.820832,38.77387],[-85.822352,38.772131],[-85.822287,38.770574],[-85.823441,38.76992],[-85.830136,38.779631],[-85.829558,38.780559],[-85.832336,38.777922],[-85.834061,38.773986],[-85.833886,38.771254],[-85.832618,38.768306],[-85.846335,38.768115],[-85.846278,38.764437],[-85.878416,38.764415],[-85.878856,38.771657],[-85.881559,38.771665],[-85.883828,38.769325],[-85.884678,38.765275],[-85.887399,38.763079],[-85.888658,38.760218],[-85.891641,38.756832],[-85.892636,38.755116],[-85.89372,38.751386],[-85.896263,38.75049]]]}}]}