{"type":"FeatureCollection","features":[{"type":"Feature","properties":{"zcta5":"74854","AFFGEOID10":"8600000US74854","GEOID10":"74854","ALAND10":198800943,"AWATER10":1658927,"county_name":"Seminole","state_code":"OK","county_state":"Seminole County, OK","county_fips":"40133","risk_level_county":"Medium Risk (70–79% vaccinated)","mean_vaccination_rate_county":72.06,"risk_level_zcta":"Medium Risk (70–79% vaccinated)","mean_vaccination_rate_zips":70.39,"cases":1},"geometry":{"type":"Polygon","coordinates":[[[-96.897016,35.145117],[-96.89705,35.126331],[-96.894297,35.124349],[-96.89355,35.123384],[-96.890586,35.123366],[-96.888371,35.121795],[-96.884423,35.121135],[-96.881552,35.118233],[-96.879412,35.117605],[-96.879454,35.10338],[-96.88058,35.103623],[-96.880585,35.101472],[-96.8269,35.101344],[-96.826745,35.074243],[-96.818095,35.077599],[-96.818061,35.076043],[-96.817551,35.076033],[-96.815715,35.079689],[-96.814189,35.079643],[-96.813949,35.077995],[-96.809254,35.077754],[-96.809265,35.072401],[-96.79167,35.072435],[-96.791696,35.086757],[-96.783475,35.08388],[-96.779658,35.076595],[-96.780752,35.074331],[-96.780834,35.070496],[-96.778638,35.063936],[-96.778886,35.061842],[-96.778595,35.057917],[-96.775386,35.058155],[-96.775435,35.058481],[-96.775432,35.082192],[-96.76097,35.084384],[-96.757691,35.083505],[-96.757306,35.082107],[-96.75832,35.080378],[-96.757755,35.078579],[-96.756571,35.077025],[-96.754127,35.077452],[-96.747181,35.075967],[-96.745289,35.07516],[-96.74287,35.07632],[-96.738606,35.075597],[-96.736066,35.074109],[-96.73251,35.073368],[-96.731441,35.074566],[-96.729751,35.075369],[-96.727371,35.074936],[-96.725492,35.072689],[-96.724676,35.070074],[-96.723172,35.068256],[-96.721301,35.068416],[-96.719957,35.067548],[-96.717645,35.067653],[-96.721173,35.06596],[-96.720384,35.065169],[-96.718961,35.065345],[-96.717297,35.064005],[-96.717959,35.06584],[-96.715607,35.067511],[-96.714417,35.066786],[-96.711485,35.069929],[-96.709941,35.068814],[-96.706593,35.06877],[-96.705423,35.068271],[-96.70541,35.067265],[-96.703639,35.066101],[-96.701547,35.065656],[-96.700652,35.064898],[-96.70025,35.059739],[-96.695887,35.057734],[-96.6868,35.058652],[-96.683319,35.056789],[-96.682992,35.055921],[-96.681034,35.055091],[-96.678428,35.055877],[-96.678435,35.053965],[-96.677019,35.053272],[-96.67605,35.053789],[-96.671895,35.051107],[-96.671635,35.049398],[-96.67056,35.048129],[-96.66909,35.047656],[-96.666611,35.048139],[-96.66416,35.046875],[-96.662076,35.0466],[-96.662464,35.044787],[-96.660981,35.043842],[-96.661536,35.043144],[-96.662751,35.043991],[-96.664569,35.043431],[-96.664589,35.042167],[-96.667341,35.041294],[-96.668531,35.040025],[-96.668304,35.038734],[-96.66616,35.036575],[-96.665058,35.037964],[-96.663455,35.036733],[-96.660957,35.036255],[-96.656489,35.034595],[-96.65643,35.03149],[-96.652563,35.031127],[-96.650472,35.032956],[-96.650985,35.034011],[-96.649643,35.034038],[-96.648306,35.036031],[-96.645947,35.037234],[-96.645,35.035855],[-96.643823,35.037041],[-96.643504,35.035145],[-96.641548,35.033249],[-96.641822,35.032117],[-96.637069,35.028165],[-96.637858,35.027353],[-96.636183,35.025528],[-96.637432,35.024012],[-96.634755,35.023105],[-96.634682,35.022127],[-96.632986,35.022351],[-96.632739,35.021324],[-96.630716,35.020279],[-96.6294,35.021152],[-96.630895,35.023092],[-96.628455,35.025777],[-96.628341,35.027167],[-96.627419,35.027601],[-96.626756,35.029726],[-96.625754,35.02999],[-96.624247,35.028285],[-96.620641,35.027919],[-96.618664,35.027219],[-96.619026,35.023137],[-96.618454,35.022236],[-96.614329,35.022128],[-96.613181,35.021184],[-96.607571,35.023453],[-96.609904,35.023704],[-96.609236,35.025458],[-96.607897,35.026131],[-96.606717,35.024787],[-96.605425,35.026248],[-96.606108,35.030161],[-96.614287,35.033083],[-96.615045,35.03367],[-96.614652,35.035463],[-96.613469,35.036552],[-96.613503,35.037806],[-96.611475,35.038065],[-96.610835,35.039273],[-96.609115,35.03918],[-96.606212,35.040085],[-96.604981,35.042604],[-96.603563,35.042539],[-96.602627,35.044206],[-96.600322,35.0442],[-96.600805,35.042915],[-96.599585,35.042747],[-96.59873,35.044639],[-96.599517,35.048603],[-96.59712,35.04851],[-96.598559,35.049899],[-96.599731,35.052775],[-96.600166,35.050962],[-96.601514,35.052024],[-96.601106,35.055446],[-96.599858,35.056951],[-96.597397,35.05788],[-96.595418,35.059032],[-96.595411,35.060385],[-96.59703,35.062686],[-96.594673,35.06481],[-96.59545,35.066461],[-96.594167,35.067509],[-96.597621,35.070089],[-96.596369,35.069853],[-96.595058,35.073506],[-96.593916,35.075],[-96.595122,35.075979],[-96.594821,35.077697],[-96.596869,35.077428],[-96.597731,35.078997],[-96.599909,35.079147],[-96.602686,35.080427],[-96.602886,35.082249],[-96.605433,35.082421],[-96.604394,35.083105],[-96.604769,35.085134],[-96.606131,35.085034],[-96.606209,35.086135],[-96.602781,35.086688],[-96.602371,35.085272],[-96.600388,35.085747],[-96.599159,35.087916],[-96.600763,35.087824],[-96.600624,35.088916],[-96.60253,35.088798],[-96.601925,35.091394],[-96.604066,35.092472],[-96.606928,35.095861],[-96.608439,35.095261],[-96.607215,35.094509],[-96.607359,35.092159],[-96.606261,35.091083],[-96.606764,35.089112],[-96.607911,35.08827],[-96.609841,35.089182],[-96.610269,35.087877],[-96.614716,35.08901],[-96.613691,35.090354],[-96.615062,35.090096],[-96.616574,35.091798],[-96.618065,35.091847],[-96.617918,35.090283],[-96.619049,35.091385],[-96.620853,35.09139],[-96.623447,35.092387],[-96.624889,35.094604],[-96.624514,35.096431],[-96.622591,35.096893],[-96.62272,35.09779],[-96.6249,35.099518],[-96.626661,35.099503],[-96.62842,35.098631],[-96.628619,35.099719],[-96.630216,35.100604],[-96.63251,35.099506],[-96.635023,35.099881],[-96.63674,35.100744],[-96.63995,35.099444],[-96.640752,35.099884],[-96.636698,35.103618],[-96.634639,35.103979],[-96.634732,35.104908],[-96.632853,35.105363],[-96.632048,35.108867],[-96.633343,35.108657],[-96.63408,35.11044],[-96.632548,35.110675],[-96.631801,35.112624],[-96.634743,35.112721],[-96.635178,35.108697],[-96.640455,35.108558],[-96.643604,35.105135],[-96.644573,35.102801],[-96.644977,35.099952],[-96.648236,35.09674],[-96.650019,35.094131],[-96.650824,35.091904],[-96.651841,35.08689],[-96.655135,35.087031],[-96.678747,35.086896],[-96.678951,35.127899],[-96.681182,35.127715],[-96.688795,35.123469],[-96.690339,35.122931],[-96.692171,35.123107],[-96.692544,35.125913],[-96.694476,35.12782],[-96.697987,35.129099],[-96.698663,35.130583],[-96.70077,35.132],[-96.702054,35.133626],[-96.70388,35.133598],[-96.706696,35.136191],[-96.708147,35.136746],[-96.711257,35.136218],[-96.711277,35.135251],[-96.713731,35.135047],[-96.715745,35.135689],[-96.717804,35.135475],[-96.719022,35.136106],[-96.719892,35.137545],[-96.721484,35.138292],[-96.723356,35.137473],[-96.724788,35.137813],[-96.726406,35.137219],[-96.72749,35.138812],[-96.729328,35.139507],[-96.731833,35.141558],[-96.731712,35.119387],[-96.734165,35.119356],[-96.734498,35.115894],[-96.7386,35.115824],[-96.740112,35.11626],[-96.740253,35.130284],[-96.757963,35.130361],[-96.75797,35.15016],[-96.757375,35.152543],[-96.755328,35.15745],[-96.760518,35.15717],[-96.762691,35.158478],[-96.76328,35.159402],[-96.765861,35.161001],[-96.765773,35.162699],[-96.764635,35.164545],[-96.76543,35.165237],[-96.765583,35.167023],[-96.764497,35.170253],[-96.76356,35.171736],[-96.764348,35.173742],[-96.76339,35.17534],[-96.76377,35.177274],[-96.763307,35.178949],[-96.764364,35.179939],[-96.76408,35.184675],[-96.764661,35.186927],[-96.765457,35.187505],[-96.770396,35.187309],[-96.771213,35.186518],[-96.769507,35.185259],[-96.77183,35.183024],[-96.776308,35.180679],[-96.776877,35.180698],[-96.776758,35.170445],[-96.77834,35.170692],[-96.780007,35.169983],[-96.783881,35.170243],[-96.787153,35.169095],[-96.789601,35.170359],[-96.790109,35.172458],[-96.791657,35.173575],[-96.791649,35.187894],[-96.82648,35.188267],[-96.826553,35.166435],[-96.844321,35.166509],[-96.844333,35.156333],[-96.846079,35.154105],[-96.846297,35.151158],[-96.844216,35.148318],[-96.844174,35.145008],[-96.862091,35.144786],[-96.897016,35.145117]]]}},{"type":"Feature","properties":{"zcta5":"74859","AFFGEOID10":"8600000US74859","GEOID10":"74859","ALAND10":776794497,"AWATER10":13786139,"county_name":"Seminole","state_code":"OK","county_state":"Seminole County, OK","county_fips":"40133","risk_level_county":"Medium Risk (70–79% vaccinated)","mean_vaccination_rate_county":72.06,"risk_level_zcta":"Medium Risk (70–79% vaccinated)","mean_vaccination_rate_zips":70.09,"cases":1},"geometry":{"type":"Polygon","coordinates":[[[-96.529665,35.444458],[-96.532735,35.446523],[-96.536492,35.447165],[-96.539282,35.449769],[-96.540327,35.45339],[-96.543213,35.457323],[-96.544121,35.457827],[-96.546184,35.457474],[-96.54612,35.456419],[-96.543684,35.454141],[-96.544469,35.452733],[-96.54564,35.452677],[-96.548918,35.453543],[-96.553641,35.454309],[-96.554661,35.45345],[-96.553286,35.449907],[-96.554093,35.447831],[-96.556485,35.447356],[-96.558695,35.448915],[-96.560295,35.448753],[-96.561234,35.447466],[-96.562339,35.444178],[-96.563054,35.443276],[-96.565367,35.442267],[-96.568159,35.442218],[-96.569126,35.44168],[-96.569602,35.439564],[-96.568476,35.438165],[-96.564634,35.436057],[-96.555722,35.434566],[-96.556313,35.43262],[-96.559065,35.429198],[-96.560671,35.424427],[-96.56082,35.422691],[-96.560102,35.421559],[-96.556844,35.418816],[-96.555485,35.41984],[-96.555618,35.422001],[-96.554804,35.422835],[-96.552633,35.422987],[-96.551714,35.422251],[-96.551099,35.420131],[-96.549188,35.4196],[-96.547775,35.418546],[-96.548104,35.417534],[-96.550009,35.415739],[-96.549996,35.414942],[-96.546913,35.412963],[-96.544049,35.411842],[-96.54051,35.412041],[-96.537163,35.41094],[-96.536919,35.409689],[-96.538133,35.405235],[-96.537415,35.403535],[-96.534551,35.402708],[-96.531879,35.400906],[-96.5317,35.399812],[-96.533768,35.397152],[-96.534576,35.394978],[-96.534637,35.392305],[-96.535146,35.391371],[-96.535492,35.388106],[-96.538118,35.384515],[-96.535396,35.384259],[-96.533875,35.380882],[-96.528992,35.38126],[-96.512007,35.384117],[-96.511685,35.383463],[-96.511656,35.37799],[-96.512038,35.37703],[-96.491241,35.377146],[-96.490996,35.35761],[-96.490326,35.347995],[-96.467205,35.348039],[-96.464506,35.349083],[-96.463831,35.348547],[-96.459698,35.348505],[-96.459044,35.354756],[-96.459006,35.362589],[-96.461217,35.362567],[-96.461077,35.369377],[-96.458995,35.369532],[-96.458991,35.377262],[-96.441303,35.377324],[-96.441275,35.348138],[-96.441368,35.290122],[-96.421752,35.290249],[-96.388064,35.290141],[-96.368125,35.290115],[-96.368279,35.293737],[-96.366443,35.296294],[-96.36715,35.298456],[-96.366277,35.299088],[-96.362314,35.300429],[-96.361527,35.300993],[-96.35195,35.301015],[-96.35069,35.302986],[-96.349985,35.30456],[-96.352679,35.309938],[-96.352798,35.319129],[-96.299603,35.319073],[-96.299653,35.334637],[-96.296612,35.334873],[-96.291339,35.332141],[-96.287475,35.332177],[-96.285777,35.333008],[-96.282093,35.337046],[-96.281147,35.337688],[-96.278991,35.337433],[-96.27797,35.334846],[-96.276899,35.33452],[-96.276413,35.336741],[-96.274806,35.338218],[-96.271775,35.338452],[-96.270321,35.339084],[-96.269749,35.341243],[-96.268292,35.342567],[-96.263521,35.343677],[-96.261154,35.343423],[-96.259372,35.342098],[-96.25936,35.340958],[-96.260892,35.339236],[-96.263894,35.338248],[-96.26433,35.336375],[-96.262711,35.335326],[-96.260954,35.335255],[-96.258949,35.337822],[-96.256342,35.33893],[-96.25283,35.342482],[-96.251437,35.345556],[-96.249071,35.347742],[-96.246206,35.34793],[-96.244045,35.346822],[-96.243265,35.345483],[-96.24361,35.34404],[-96.245516,35.343632],[-96.245332,35.342419],[-96.242102,35.341506],[-96.239301,35.343342],[-96.238143,35.345578],[-96.236742,35.346792],[-96.235234,35.346397],[-96.232821,35.347897],[-96.231977,35.349035],[-96.229109,35.351128],[-96.229855,35.355752],[-96.232288,35.355159],[-96.232799,35.356812],[-96.230466,35.358389],[-96.233303,35.3607],[-96.232896,35.36382],[-96.234761,35.365775],[-96.233601,35.365978],[-96.233609,35.368076],[-96.234971,35.370602],[-96.237711,35.369424],[-96.237605,35.377093],[-96.229062,35.37708],[-96.229054,35.378746],[-96.246734,35.390155],[-96.246758,35.391644],[-96.200839,35.391559],[-96.200331,35.391351],[-96.200666,35.398427],[-96.202292,35.415608],[-96.20224,35.420714],[-96.17624,35.420597],[-96.176412,35.493106],[-96.145365,35.493011],[-96.143503,35.495971],[-96.141129,35.496941],[-96.140998,35.500004],[-96.143183,35.500918],[-96.14483,35.500375],[-96.149139,35.500692],[-96.149549,35.502649],[-96.147979,35.503687],[-96.151311,35.504079],[-96.149948,35.507022],[-96.150055,35.509447],[-96.151618,35.511105],[-96.156189,35.514333],[-96.158735,35.515016],[-96.158749,35.52213],[-96.154463,35.522093],[-96.150887,35.524217],[-96.145932,35.524273],[-96.143152,35.523536],[-96.141285,35.522137],[-96.127883,35.522093],[-96.123321,35.520501],[-96.123293,35.514871],[-96.101835,35.514788],[-96.10049,35.514506],[-96.094841,35.514888],[-96.092277,35.51596],[-96.091862,35.518146],[-96.087755,35.519997],[-96.087795,35.552119],[-96.123342,35.551892],[-96.126784,35.552105],[-96.192844,35.551902],[-96.192597,35.616739],[-96.192377,35.618469],[-96.192563,35.639087],[-96.323059,35.638933],[-96.325213,35.638798],[-96.332375,35.638953],[-96.340181,35.638864],[-96.340736,35.638823],[-96.344341,35.63896],[-96.35378,35.638989],[-96.355038,35.638528],[-96.357136,35.635588],[-96.357761,35.633556],[-96.359866,35.632495],[-96.356857,35.629893],[-96.355928,35.628372],[-96.353855,35.627537],[-96.351279,35.627725],[-96.349295,35.62928],[-96.347384,35.628221],[-96.346355,35.629989],[-96.344391,35.630078],[-96.344269,35.627145],[-96.34291,35.626915],[-96.342096,35.628837],[-96.340697,35.629002],[-96.339566,35.627701],[-96.334917,35.625983],[-96.334263,35.623449],[-96.334472,35.614421],[-96.336664,35.616517],[-96.339867,35.618698],[-96.342651,35.616797],[-96.344534,35.614973],[-96.346396,35.612364],[-96.346672,35.610716],[-96.343913,35.606185],[-96.342661,35.605471],[-96.344544,35.604499],[-96.344375,35.60117],[-96.345377,35.600577],[-96.345767,35.598836],[-96.347757,35.598451],[-96.347898,35.597165],[-96.349672,35.595412],[-96.352385,35.59544],[-96.352367,35.599321],[-96.353752,35.597888],[-96.355727,35.59748],[-96.35991,35.59577],[-96.362327,35.596365],[-96.363234,35.595458],[-96.366666,35.595518],[-96.365466,35.594654],[-96.36423,35.591147],[-96.361886,35.589874],[-96.358253,35.589759],[-96.357004,35.590363],[-96.356992,35.58692],[-96.354669,35.586298],[-96.353596,35.587192],[-96.350967,35.586777],[-96.351832,35.582065],[-96.354582,35.58073],[-96.356763,35.573902],[-96.356775,35.570381],[-96.358058,35.567953],[-96.361169,35.565458],[-96.361417,35.564359],[-96.362957,35.56449],[-96.364045,35.563199],[-96.367527,35.563121],[-96.368924,35.561961],[-96.369866,35.562845],[-96.370618,35.561966],[-96.373604,35.562882],[-96.375825,35.561763],[-96.376706,35.560467],[-96.379201,35.559727],[-96.379731,35.560655],[-96.381852,35.56144],[-96.383057,35.563904],[-96.382724,35.566547],[-96.388077,35.566554],[-96.388122,35.551997],[-96.381543,35.551957],[-96.378315,35.548758],[-96.379223,35.544329],[-96.388144,35.544274],[-96.388184,35.537185],[-96.3707,35.537051],[-96.370643,35.527221],[-96.370418,35.518805],[-96.370607,35.493584],[-96.352847,35.493466],[-96.35286,35.486362],[-96.355425,35.48595],[-96.35704,35.484485],[-96.356023,35.480792],[-96.356315,35.47871],[-96.35912,35.470989],[-96.357756,35.468113],[-96.352884,35.468593],[-96.352874,35.464414],[-96.358203,35.464588],[-96.370585,35.464498],[-96.37061,35.462061],[-96.381864,35.468298],[-96.383929,35.471801],[-96.386363,35.471881],[-96.386203,35.475896],[-96.388376,35.479152],[-96.389436,35.479972],[-96.393592,35.481491],[-96.39879,35.482998],[-96.405974,35.488933],[-96.408748,35.490687],[-96.412986,35.49247],[-96.417528,35.492715],[-96.420361,35.493728],[-96.423702,35.493755],[-96.423576,35.479223],[-96.434504,35.479015],[-96.441285,35.479082],[-96.441273,35.473922],[-96.439955,35.471089],[-96.44129,35.467712],[-96.442219,35.46556],[-96.443483,35.461144],[-96.446202,35.458444],[-96.449236,35.45943],[-96.452554,35.458209],[-96.45399,35.458813],[-96.454562,35.460149],[-96.45651,35.461263],[-96.459052,35.46151],[-96.462239,35.460914],[-96.463825,35.458727],[-96.465588,35.45811],[-96.4693,35.459567],[-96.470414,35.46058],[-96.471513,35.462988],[-96.473097,35.463958],[-96.475754,35.463421],[-96.476692,35.460907],[-96.476734,35.458874],[-96.481062,35.453883],[-96.484193,35.451197],[-96.485502,35.450775],[-96.487735,35.449159],[-96.488519,35.44696],[-96.487965,35.445829],[-96.484285,35.44453],[-96.48306,35.44249],[-96.483016,35.439842],[-96.484402,35.436548],[-96.487522,35.432521],[-96.49012,35.430944],[-96.496594,35.428896],[-96.498073,35.428682],[-96.501573,35.428723],[-96.505701,35.430001],[-96.511413,35.429642],[-96.518753,35.431269],[-96.520577,35.432966],[-96.519714,35.435809],[-96.521552,35.438493],[-96.52548,35.441137],[-96.529665,35.444458]]]}},{"type":"Feature","properties":{"zcta5":"74868","AFFGEOID10":"8600000US74868","GEOID10":"74868","ALAND10":551032902,"AWATER10":2162507,"county_name":"Seminole","state_code":"OK","county_state":"Seminole County, OK","county_fips":"40133","risk_level_county":"Medium Risk (70–79% vaccinated)","mean_vaccination_rate_county":72.06,"risk_level_zcta":"Higher Risk (60–69% vaccinated)","mean_vaccination_rate_zips":66.4,"cases":1},"geometry":{"type":"Polygon","coordinates":[[[-96.715715,35.41336],[-96.715982,35.411709],[-96.717525,35.410231],[-96.721101,35.410181],[-96.723731,35.407438],[-96.724463,35.406123],[-96.706689,35.406084],[-96.706731,35.384466],[-96.70297,35.384282],[-96.697036,35.384319],[-96.689012,35.384796],[-96.689033,35.377171],[-96.723912,35.377171],[-96.723928,35.348143],[-96.775608,35.348024],[-96.77668,35.347595],[-96.777078,35.304625],[-96.751976,35.304606],[-96.759598,35.311562],[-96.759327,35.31914],[-96.749356,35.319056],[-96.759302,35.325104],[-96.759279,35.333623],[-96.697552,35.333648],[-96.699325,35.332585],[-96.700465,35.332964],[-96.702034,35.331766],[-96.70194,35.330327],[-96.703535,35.329371],[-96.703535,35.328349],[-96.705392,35.327959],[-96.706832,35.32486],[-96.708321,35.325316],[-96.710647,35.324491],[-96.71259,35.322222],[-96.71208,35.320426],[-96.714433,35.319381],[-96.713983,35.317827],[-96.712917,35.317997],[-96.712937,35.316569],[-96.717004,35.312074],[-96.720114,35.311881],[-96.721059,35.310304],[-96.721863,35.31093],[-96.722968,35.308419],[-96.723557,35.30643],[-96.723094,35.304621],[-96.715442,35.304622],[-96.715276,35.297277],[-96.715777,35.290072],[-96.71517,35.275518],[-96.723593,35.27556],[-96.724013,35.263481],[-96.715141,35.263593],[-96.715078,35.246589],[-96.72403,35.246593],[-96.724007,35.26104],[-96.727321,35.26046],[-96.728159,35.261018],[-96.75379,35.261046],[-96.759385,35.257963],[-96.759324,35.251238],[-96.768062,35.253187],[-96.771752,35.251154],[-96.776833,35.253067],[-96.776794,35.195427],[-96.776877,35.180698],[-96.776308,35.180679],[-96.77183,35.183024],[-96.769507,35.185259],[-96.771213,35.186518],[-96.770396,35.187309],[-96.765457,35.187505],[-96.764661,35.186927],[-96.76408,35.184675],[-96.764364,35.179939],[-96.763307,35.178949],[-96.76377,35.177274],[-96.76339,35.17534],[-96.764348,35.173742],[-96.76356,35.171736],[-96.764497,35.170253],[-96.765583,35.167023],[-96.76543,35.165237],[-96.764635,35.164545],[-96.765773,35.162699],[-96.765861,35.161001],[-96.76328,35.159402],[-96.762691,35.158478],[-96.760518,35.15717],[-96.755328,35.15745],[-96.757375,35.152543],[-96.75797,35.15016],[-96.757963,35.130361],[-96.740253,35.130284],[-96.740112,35.11626],[-96.7386,35.115824],[-96.734498,35.115894],[-96.734165,35.119356],[-96.731712,35.119387],[-96.731833,35.141558],[-96.729328,35.139507],[-96.72749,35.138812],[-96.726406,35.137219],[-96.724788,35.137813],[-96.723356,35.137473],[-96.721484,35.138292],[-96.719892,35.137545],[-96.719022,35.136106],[-96.717804,35.135475],[-96.715745,35.135689],[-96.713731,35.135047],[-96.711277,35.135251],[-96.711257,35.136218],[-96.708147,35.136746],[-96.706696,35.136191],[-96.70388,35.133598],[-96.702054,35.133626],[-96.70077,35.132],[-96.698663,35.130583],[-96.697987,35.129099],[-96.694476,35.12782],[-96.692544,35.125913],[-96.692171,35.123107],[-96.690339,35.122931],[-96.688795,35.123469],[-96.681182,35.127715],[-96.678951,35.127899],[-96.678747,35.086896],[-96.655135,35.087031],[-96.651841,35.08689],[-96.650824,35.091904],[-96.650019,35.094131],[-96.648236,35.09674],[-96.644977,35.099952],[-96.644573,35.102801],[-96.643604,35.105135],[-96.640455,35.108558],[-96.635178,35.108697],[-96.634743,35.112721],[-96.631801,35.112624],[-96.632548,35.110675],[-96.63408,35.11044],[-96.633343,35.108657],[-96.632317,35.109026],[-96.628561,35.108686],[-96.617102,35.108748],[-96.617092,35.130416],[-96.610536,35.130385],[-96.609917,35.139567],[-96.608346,35.139658],[-96.608302,35.142867],[-96.606659,35.14463],[-96.604755,35.145278],[-96.634912,35.145245],[-96.634796,35.152162],[-96.617135,35.152162],[-96.617144,35.173956],[-96.60772,35.173932],[-96.607715,35.174903],[-96.60497,35.174907],[-96.604972,35.176212],[-96.600901,35.175759],[-96.600934,35.177853],[-96.599613,35.177859],[-96.599607,35.190093],[-96.596288,35.18795],[-96.578831,35.172362],[-96.573481,35.173489],[-96.57209,35.17237],[-96.570656,35.172659],[-96.570233,35.174318],[-96.569172,35.174219],[-96.566554,35.176044],[-96.564371,35.174725],[-96.562197,35.174122],[-96.560197,35.172872],[-96.55461,35.1728],[-96.552523,35.170699],[-96.550329,35.170905],[-96.550039,35.173115],[-96.54792,35.17278],[-96.546112,35.174096],[-96.538459,35.177733],[-96.542283,35.180117],[-96.553724,35.180387],[-96.551102,35.183235],[-96.551799,35.186118],[-96.552882,35.187267],[-96.551279,35.189551],[-96.551257,35.201557],[-96.552316,35.202965],[-96.55458,35.203187],[-96.558632,35.207187],[-96.55522,35.208634],[-96.554368,35.210233],[-96.551615,35.210231],[-96.552744,35.210832],[-96.552537,35.212295],[-96.553851,35.212878],[-96.556367,35.210542],[-96.557512,35.212482],[-96.558862,35.213488],[-96.560981,35.212675],[-96.561658,35.21111],[-96.561239,35.214301],[-96.557989,35.219256],[-96.558899,35.219083],[-96.558883,35.221142],[-96.559847,35.221082],[-96.560925,35.224237],[-96.562252,35.223704],[-96.56469,35.225625],[-96.565446,35.227486],[-96.567743,35.229184],[-96.570753,35.228568],[-96.572747,35.230834],[-96.572155,35.232561],[-96.575227,35.234299],[-96.575328,35.235461],[-96.577164,35.23576],[-96.576936,35.237139],[-96.57796,35.238749],[-96.579878,35.239735],[-96.581013,35.241271],[-96.582725,35.241397],[-96.584236,35.245364],[-96.584818,35.245318],[-96.584591,35.246471],[-96.575561,35.246428],[-96.575363,35.247604],[-96.573277,35.248867],[-96.573609,35.271894],[-96.565011,35.271826],[-96.565064,35.275373],[-96.556261,35.275365],[-96.556248,35.279105],[-96.55502,35.279638],[-96.555272,35.282766],[-96.529172,35.282709],[-96.529248,35.299875],[-96.529006,35.303038],[-96.525548,35.302769],[-96.52517,35.30431],[-96.523279,35.304585],[-96.522655,35.305862],[-96.520769,35.306665],[-96.520554,35.309712],[-96.515911,35.315298],[-96.514913,35.318866],[-96.513802,35.318999],[-96.494228,35.318978],[-96.494248,35.345929],[-96.493759,35.348003],[-96.490326,35.347995],[-96.490996,35.35761],[-96.491241,35.377146],[-96.512038,35.37703],[-96.511656,35.37799],[-96.511685,35.383463],[-96.512007,35.384117],[-96.528992,35.38126],[-96.533875,35.380882],[-96.535396,35.384259],[-96.538118,35.384515],[-96.535492,35.388106],[-96.535146,35.391371],[-96.536718,35.390772],[-96.538291,35.390932],[-96.539402,35.391827],[-96.541906,35.39256],[-96.546585,35.392608],[-96.550001,35.392178],[-96.554396,35.39366],[-96.55673,35.394974],[-96.55651,35.399021],[-96.554935,35.401692],[-96.555566,35.402437],[-96.556862,35.402401],[-96.561114,35.400187],[-96.565418,35.399367],[-96.566948,35.399383],[-96.569848,35.40108],[-96.574218,35.40194],[-96.576671,35.401934],[-96.577325,35.402658],[-96.57745,35.404787],[-96.578682,35.407178],[-96.581367,35.409527],[-96.585654,35.411474],[-96.589102,35.411575],[-96.591698,35.408784],[-96.594004,35.404278],[-96.595,35.403153],[-96.596254,35.400204],[-96.597282,35.398835],[-96.599717,35.396955],[-96.604829,35.399381],[-96.606708,35.399368],[-96.606372,35.397978],[-96.606764,35.395876],[-96.610198,35.394258],[-96.611392,35.394227],[-96.612608,35.396574],[-96.613776,35.396816],[-96.616029,35.395698],[-96.617305,35.395825],[-96.621297,35.398089],[-96.622639,35.400256],[-96.623699,35.400722],[-96.62542,35.400199],[-96.626897,35.398791],[-96.62866,35.39599],[-96.629055,35.394141],[-96.630995,35.392281],[-96.632125,35.392172],[-96.633823,35.393116],[-96.635632,35.396749],[-96.636243,35.39901],[-96.641402,35.394812],[-96.645548,35.392667],[-96.646668,35.392883],[-96.651766,35.391704],[-96.653747,35.392112],[-96.653489,35.394743],[-96.654854,35.395465],[-96.659408,35.394854],[-96.661162,35.395287],[-96.665411,35.398912],[-96.668295,35.399333],[-96.672272,35.40065],[-96.674556,35.400388],[-96.67438,35.401941],[-96.675319,35.403942],[-96.676906,35.403814],[-96.677737,35.402205],[-96.679001,35.402334],[-96.680222,35.405084],[-96.682537,35.405918],[-96.688615,35.403641],[-96.690002,35.403856],[-96.690793,35.405192],[-96.690037,35.406313],[-96.690412,35.407688],[-96.692844,35.408844],[-96.695055,35.408746],[-96.697089,35.409426],[-96.700219,35.409476],[-96.701177,35.410587],[-96.701805,35.414877],[-96.702399,35.416048],[-96.704536,35.416829],[-96.705702,35.416671],[-96.706445,35.415129],[-96.707696,35.414878],[-96.709213,35.415734],[-96.711746,35.415521],[-96.715715,35.41336]],[[-96.675527,35.144847],[-96.674818,35.150816],[-96.674035,35.171259],[-96.670273,35.171616],[-96.670192,35.149042],[-96.666447,35.148906],[-96.662006,35.146608],[-96.657666,35.145327],[-96.652512,35.145329],[-96.652477,35.13924],[-96.652524,35.131887],[-96.651766,35.130579],[-96.671686,35.13044],[-96.671567,35.133791],[-96.670287,35.139942],[-96.670217,35.144864],[-96.675527,35.144847]]]}},{"type":"Feature","properties":{"zcta5":"74830","AFFGEOID10":"8600000US74830","GEOID10":"74830","ALAND10":4213724,"AWATER10":0,"county_name":"Seminole","state_code":"OK","county_state":"Seminole County, OK","county_fips":"40133","risk_level_county":"Medium Risk (70–79% vaccinated)","mean_vaccination_rate_county":72.06,"risk_level_zcta":"Higher Risk (60–69% vaccinated)","mean_vaccination_rate_zips":66.87,"cases":1},"geometry":{"type":"Polygon","coordinates":[[[-96.675527,35.144847],[-96.670217,35.144864],[-96.670287,35.139942],[-96.671567,35.133791],[-96.671686,35.13044],[-96.651766,35.130579],[-96.652524,35.131887],[-96.652477,35.13924],[-96.652512,35.145329],[-96.657666,35.145327],[-96.662006,35.146608],[-96.666447,35.148906],[-96.670192,35.149042],[-96.670273,35.171616],[-96.674035,35.171259],[-96.674818,35.150816],[-96.675527,35.144847]]]}},{"type":"Feature","properties":{"zcta5":"74837","AFFGEOID10":"8600000US74837","GEOID10":"74837","ALAND10":6745822,"AWATER10":37974,"county_name":"Seminole","state_code":"OK","county_state":"Seminole County, OK","county_fips":"40133","risk_level_county":"Medium Risk (70–79% vaccinated)","mean_vaccination_rate_county":72.06,"risk_level_zcta":"Lower Risk (80–84% vaccinated)","mean_vaccination_rate_zips":83.73,"cases":1},"geometry":{"type":"Polygon","coordinates":[[[-96.441275,35.348138],[-96.441303,35.377324],[-96.458991,35.377262],[-96.458995,35.369532],[-96.461077,35.369377],[-96.461217,35.362567],[-96.459006,35.362589],[-96.459044,35.354756],[-96.459698,35.348505],[-96.463831,35.348547],[-96.464506,35.349083],[-96.467205,35.348039],[-96.460105,35.348051],[-96.459644,35.342264],[-96.460117,35.337121],[-96.460128,35.333468],[-96.459017,35.333442],[-96.459027,35.337114],[-96.4573,35.337111],[-96.457291,35.337965],[-96.454786,35.337122],[-96.454614,35.339827],[-96.45324,35.339055],[-96.450034,35.339075],[-96.449873,35.340892],[-96.445696,35.340865],[-96.445717,35.348127],[-96.441275,35.348138]]]}},{"type":"Feature","properties":{"zcta5":"74848","AFFGEOID10":"8600000US74848","GEOID10":"74848","ALAND10":656860599,"AWATER10":11797331,"county_name":"Seminole","state_code":"OK","county_state":"Seminole County, OK","county_fips":"40133","risk_level_county":"Medium Risk (70–79% vaccinated)","mean_vaccination_rate_county":72.06,"risk_level_zcta":"Higher Risk (60–69% vaccinated)","mean_vaccination_rate_zips":67.89,"cases":1},"geometry":{"type":"Polygon","coordinates":[[[-96.54677,35.057845],[-96.546706,35.043334],[-96.542059,35.043213],[-96.534056,35.04337],[-96.531632,35.045179],[-96.529123,35.045419],[-96.52834,35.043318],[-96.494129,35.043286],[-96.49411,35.051936],[-96.492585,35.052033],[-96.492446,35.049385],[-96.490658,35.049832],[-96.490705,34.976865],[-96.493861,34.977748],[-96.493871,34.987255],[-96.494453,34.987546],[-96.49761,34.986766],[-96.498899,34.985296],[-96.502081,34.985094],[-96.502065,34.98064],[-96.503545,34.980028],[-96.503473,34.977547],[-96.505943,34.976049],[-96.506522,34.97441],[-96.51157,34.97446],[-96.511532,34.999804],[-96.51633,34.999734],[-96.525427,35.000004],[-96.526931,35.004524],[-96.529869,35.007139],[-96.52922,35.010065],[-96.529159,35.014305],[-96.546715,35.014263],[-96.54694,34.985504],[-96.549274,34.985255],[-96.551273,34.983867],[-96.548885,34.979477],[-96.547653,34.978609],[-96.546386,34.976508],[-96.544675,34.977667],[-96.542866,34.976524],[-96.542661,34.978253],[-96.543988,34.979608],[-96.54231,34.980113],[-96.541243,34.97938],[-96.540534,34.98128],[-96.538999,34.98168],[-96.536859,34.98103],[-96.535394,34.98233],[-96.532182,34.984169],[-96.531705,34.98562],[-96.528507,34.983898],[-96.529637,34.981428],[-96.526986,34.980675],[-96.528034,34.979405],[-96.527625,34.978246],[-96.524522,34.979018],[-96.523972,34.97673],[-96.522911,34.975522],[-96.524433,34.973782],[-96.524758,34.97113],[-96.52877,34.972613],[-96.52844,34.970487],[-96.527193,34.969556],[-96.524342,34.969603],[-96.523952,34.966659],[-96.519236,34.965358],[-96.516835,34.964278],[-96.51543,34.965618],[-96.512583,34.96558],[-96.509447,34.964195],[-96.507954,34.962568],[-96.505794,34.96404],[-96.507377,34.966143],[-96.505419,34.966422],[-96.503852,34.965146],[-96.501053,34.965901],[-96.501896,34.963126],[-96.500903,34.962728],[-96.498333,34.964801],[-96.4956,34.965358],[-96.495004,34.964],[-96.4961,34.961162],[-96.493039,34.961424],[-96.490689,34.962421],[-96.490694,34.965651],[-96.488755,34.966824],[-96.487232,34.968856],[-96.48448,34.970434],[-96.480665,34.970951],[-96.467569,34.970746],[-96.467551,34.956322],[-96.458956,34.956204],[-96.458998,34.96558],[-96.457082,34.96546],[-96.454079,34.967792],[-96.451188,34.968181],[-96.445932,34.967334],[-96.446433,34.965321],[-96.443708,34.965184],[-96.441382,34.964352],[-96.441432,34.956217],[-96.414964,34.956172],[-96.414888,34.941621],[-96.490687,34.941767],[-96.490786,34.910585],[-96.489274,34.911648],[-96.478095,34.916352],[-96.475939,34.916375],[-96.465716,34.915223],[-96.463893,34.915898],[-96.46108,34.915636],[-96.460542,34.916464],[-96.45791,34.915919],[-96.453136,34.912665],[-96.449677,34.910678],[-96.444865,34.909086],[-96.444728,34.907632],[-96.442593,34.906398],[-96.437214,34.904774],[-96.437203,34.903049],[-96.435587,34.90228],[-96.431551,34.90258],[-96.431013,34.903468],[-96.427552,34.903043],[-96.424701,34.903687],[-96.420933,34.907441],[-96.418412,34.907851],[-96.417475,34.909652],[-96.417798,34.911726],[-96.413781,34.915619],[-96.413669,34.916382],[-96.410689,34.92214],[-96.410831,34.923692],[-96.409285,34.925081],[-96.40976,34.926093],[-96.409568,34.92945],[-96.408639,34.930673],[-96.407849,34.934028],[-96.407462,34.937313],[-96.406588,34.938058],[-96.398366,34.942315],[-96.395112,34.943638],[-96.392468,34.945637],[-96.388046,34.946479],[-96.385248,34.948082],[-96.382681,34.948455],[-96.379401,34.952664],[-96.376559,34.954092],[-96.376035,34.956205],[-96.374104,34.95733],[-96.371245,34.961148],[-96.370496,34.964835],[-96.370833,34.967123],[-96.372038,34.969104],[-96.371883,34.970113],[-96.369697,34.972248],[-96.365272,34.979271],[-96.36444,34.981105],[-96.366252,34.98662],[-96.364051,34.991247],[-96.362954,34.992921],[-96.36262,34.994506],[-96.363826,34.996867],[-96.362629,34.999473],[-96.360635,35.001076],[-96.359906,35.003205],[-96.357361,35.006056],[-96.355902,35.006777],[-96.35224,35.00714],[-96.350855,35.006923],[-96.34422,35.008179],[-96.340204,35.008183],[-96.336703,35.007795],[-96.331083,35.006743],[-96.32702,35.005577],[-96.322463,35.003898],[-96.320437,35.001993],[-96.319871,34.999864],[-96.318272,34.99941],[-96.317484,34.996275],[-96.311915,34.991552],[-96.306855,34.990308],[-96.304205,34.988511],[-96.302871,34.986273],[-96.299957,34.983166],[-96.29999,34.999846],[-96.251843,34.999698],[-96.251373,35.003543],[-96.24813,35.006235],[-96.247607,35.011834],[-96.24759,35.028793],[-96.184778,35.028755],[-96.183036,35.029236],[-96.181493,35.028815],[-96.175275,35.028672],[-96.171192,35.028774],[-96.169014,35.030673],[-96.166768,35.034536],[-96.162728,35.032919],[-96.160844,35.029868],[-96.159276,35.0289],[-96.150777,35.028806],[-96.148322,35.029303],[-96.146077,35.028861],[-96.141714,35.028998],[-96.141578,35.043372],[-96.12403,35.043376],[-96.12565,35.045493],[-96.125559,35.04737],[-96.124005,35.049196],[-96.12401,35.07245],[-96.157464,35.072404],[-96.158821,35.072841],[-96.159003,35.079426],[-96.159359,35.08342],[-96.15937,35.093249],[-96.16953,35.087531],[-96.172124,35.086912],[-96.212368,35.086869],[-96.212414,35.11578],[-96.240216,35.115808],[-96.24336,35.113086],[-96.245367,35.113403],[-96.247731,35.114593],[-96.247733,35.130343],[-96.282495,35.130291],[-96.283082,35.129235],[-96.283038,35.115835],[-96.285558,35.115694],[-96.30027,35.115891],[-96.300312,35.140013],[-96.295361,35.139197],[-96.28946,35.14033],[-96.289534,35.142145],[-96.291941,35.144895],[-96.283116,35.144873],[-96.28316,35.188468],[-96.265474,35.188452],[-96.265453,35.202996],[-96.252494,35.202982],[-96.251526,35.206125],[-96.252019,35.207545],[-96.253758,35.20737],[-96.254581,35.209358],[-96.254681,35.212505],[-96.253905,35.21415],[-96.255347,35.216808],[-96.257613,35.21662],[-96.257888,35.213776],[-96.260757,35.211924],[-96.264283,35.213721],[-96.266094,35.215147],[-96.26773,35.219116],[-96.270232,35.218413],[-96.271535,35.218643],[-96.273528,35.217417],[-96.277791,35.217948],[-96.277935,35.220208],[-96.278964,35.220224],[-96.28069,35.218592],[-96.281927,35.218622],[-96.284591,35.217457],[-96.28287,35.21602],[-96.285224,35.214362],[-96.286493,35.21488],[-96.287467,35.213329],[-96.289526,35.212157],[-96.291205,35.212917],[-96.291093,35.211226],[-96.29238,35.211208],[-96.293847,35.212956],[-96.295347,35.21177],[-96.2968,35.21369],[-96.297833,35.213613],[-96.297738,35.211801],[-96.301344,35.210737],[-96.299905,35.209442],[-96.300435,35.206502],[-96.3021,35.206045],[-96.302713,35.20726],[-96.304983,35.206421],[-96.305918,35.206842],[-96.309349,35.20603],[-96.307779,35.2049],[-96.30729,35.203237],[-96.309298,35.202959],[-96.31012,35.203757],[-96.313646,35.202904],[-96.311649,35.202255],[-96.311404,35.200393],[-96.314339,35.199644],[-96.316624,35.20168],[-96.318748,35.202573],[-96.319991,35.20223],[-96.31754,35.199947],[-96.317478,35.196868],[-96.320682,35.198274],[-96.322131,35.197668],[-96.323484,35.198544],[-96.326696,35.196184],[-96.32671,35.197676],[-96.328328,35.198744],[-96.329317,35.198038],[-96.328027,35.197321],[-96.32973,35.196588],[-96.333105,35.197569],[-96.335546,35.198685],[-96.337501,35.198449],[-96.336732,35.199729],[-96.337377,35.20062],[-96.339419,35.200197],[-96.3429,35.200721],[-96.345235,35.204562],[-96.345919,35.206695],[-96.348108,35.208435],[-96.349456,35.207928],[-96.352122,35.211272],[-96.352746,35.210801],[-96.352685,35.231934],[-96.388203,35.231932],[-96.388064,35.290141],[-96.421752,35.290249],[-96.421503,35.289049],[-96.423667,35.287439],[-96.420103,35.28483],[-96.420439,35.283605],[-96.418677,35.281902],[-96.414906,35.283005],[-96.413673,35.281236],[-96.411878,35.281499],[-96.410733,35.280488],[-96.408904,35.281526],[-96.408637,35.27934],[-96.405923,35.278286],[-96.405892,35.276962],[-96.414531,35.27768],[-96.415545,35.277071],[-96.415789,35.272847],[-96.416289,35.27206],[-96.419234,35.271925],[-96.419563,35.270646],[-96.424227,35.26999],[-96.425187,35.268367],[-96.424123,35.266189],[-96.424371,35.264242],[-96.423734,35.261064],[-96.441308,35.260925],[-96.441401,35.11577],[-96.458981,35.115807],[-96.458998,35.111468],[-96.466499,35.114746],[-96.468629,35.115808],[-96.490434,35.115857],[-96.490639,35.083444],[-96.494195,35.085258],[-96.494199,35.086817],[-96.511507,35.086827],[-96.511527,35.07233],[-96.519193,35.07233],[-96.520277,35.072558],[-96.52029,35.07962],[-96.528763,35.079597],[-96.528672,35.057626],[-96.54677,35.057845]]]}},{"type":"Feature","properties":{"zcta5":"74884","AFFGEOID10":"8600000US74884","GEOID10":"74884","ALAND10":345601350,"AWATER10":4798383,"county_name":"Seminole","state_code":"OK","county_state":"Seminole County, OK","county_fips":"40133","risk_level_county":"Medium Risk (70–79% vaccinated)","mean_vaccination_rate_county":72.06,"risk_level_zcta":"Higher Risk (60–69% vaccinated)","mean_vaccination_rate_zips":64.65,"cases":1},"geometry":{"type":"Polygon","coordinates":[[[-96.633343,35.108657],[-96.632048,35.108867],[-96.632853,35.105363],[-96.634732,35.104908],[-96.634639,35.103979],[-96.636698,35.103618],[-96.640752,35.099884],[-96.63995,35.099444],[-96.63674,35.100744],[-96.635023,35.099881],[-96.63251,35.099506],[-96.630216,35.100604],[-96.628619,35.099719],[-96.62842,35.098631],[-96.626661,35.099503],[-96.6249,35.099518],[-96.62272,35.09779],[-96.622591,35.096893],[-96.624514,35.096431],[-96.624889,35.094604],[-96.623447,35.092387],[-96.620853,35.09139],[-96.619049,35.091385],[-96.617918,35.090283],[-96.618065,35.091847],[-96.616574,35.091798],[-96.615062,35.090096],[-96.613691,35.090354],[-96.614716,35.08901],[-96.610269,35.087877],[-96.609841,35.089182],[-96.607911,35.08827],[-96.606764,35.089112],[-96.606261,35.091083],[-96.607359,35.092159],[-96.607215,35.094509],[-96.608439,35.095261],[-96.606928,35.095861],[-96.604066,35.092472],[-96.601925,35.091394],[-96.60253,35.088798],[-96.600624,35.088916],[-96.600763,35.087824],[-96.599159,35.087916],[-96.600388,35.085747],[-96.602371,35.085272],[-96.602781,35.086688],[-96.606209,35.086135],[-96.606131,35.085034],[-96.604769,35.085134],[-96.604394,35.083105],[-96.605433,35.082421],[-96.602886,35.082249],[-96.602686,35.080427],[-96.599909,35.079147],[-96.597731,35.078997],[-96.596869,35.077428],[-96.594821,35.077697],[-96.595122,35.075979],[-96.593916,35.075],[-96.595058,35.073506],[-96.596369,35.069853],[-96.597621,35.070089],[-96.594167,35.067509],[-96.59545,35.066461],[-96.594673,35.06481],[-96.59703,35.062686],[-96.595411,35.060385],[-96.595418,35.059032],[-96.597397,35.05788],[-96.555214,35.057757],[-96.555152,35.065],[-96.546426,35.06507],[-96.546367,35.061591],[-96.54677,35.057845],[-96.528672,35.057626],[-96.528763,35.079597],[-96.52029,35.07962],[-96.520277,35.072558],[-96.519193,35.07233],[-96.511527,35.07233],[-96.511507,35.086827],[-96.494199,35.086817],[-96.494195,35.085258],[-96.490639,35.083444],[-96.490434,35.115857],[-96.468629,35.115808],[-96.466499,35.114746],[-96.458998,35.111468],[-96.458981,35.115807],[-96.441401,35.11577],[-96.441308,35.260925],[-96.423734,35.261064],[-96.424371,35.264242],[-96.424123,35.266189],[-96.425187,35.268367],[-96.424227,35.26999],[-96.419563,35.270646],[-96.419234,35.271925],[-96.416289,35.27206],[-96.415789,35.272847],[-96.415545,35.277071],[-96.414531,35.27768],[-96.405892,35.276962],[-96.405923,35.278286],[-96.408637,35.27934],[-96.408904,35.281526],[-96.410733,35.280488],[-96.411878,35.281499],[-96.413673,35.281236],[-96.414906,35.283005],[-96.418677,35.281902],[-96.420439,35.283605],[-96.420103,35.28483],[-96.423667,35.287439],[-96.421503,35.289049],[-96.421752,35.290249],[-96.441368,35.290122],[-96.441275,35.348138],[-96.445717,35.348127],[-96.445696,35.340865],[-96.449873,35.340892],[-96.450034,35.339075],[-96.45324,35.339055],[-96.454614,35.339827],[-96.454786,35.337122],[-96.457291,35.337965],[-96.4573,35.337111],[-96.459027,35.337114],[-96.459017,35.333442],[-96.460128,35.333468],[-96.460117,35.337121],[-96.459644,35.342264],[-96.460105,35.348051],[-96.467205,35.348039],[-96.490326,35.347995],[-96.493759,35.348003],[-96.494248,35.345929],[-96.494228,35.318978],[-96.513802,35.318999],[-96.514913,35.318866],[-96.515911,35.315298],[-96.520554,35.309712],[-96.520769,35.306665],[-96.522655,35.305862],[-96.523279,35.304585],[-96.52517,35.30431],[-96.525548,35.302769],[-96.529006,35.303038],[-96.529248,35.299875],[-96.529172,35.282709],[-96.555272,35.282766],[-96.55502,35.279638],[-96.556248,35.279105],[-96.556261,35.275365],[-96.565064,35.275373],[-96.565011,35.271826],[-96.573609,35.271894],[-96.573277,35.248867],[-96.575363,35.247604],[-96.575561,35.246428],[-96.584591,35.246471],[-96.584818,35.245318],[-96.584236,35.245364],[-96.582725,35.241397],[-96.581013,35.241271],[-96.579878,35.239735],[-96.57796,35.238749],[-96.576936,35.237139],[-96.577164,35.23576],[-96.575328,35.235461],[-96.575227,35.234299],[-96.572155,35.232561],[-96.572747,35.230834],[-96.570753,35.228568],[-96.567743,35.229184],[-96.565446,35.227486],[-96.56469,35.225625],[-96.562252,35.223704],[-96.560925,35.224237],[-96.559847,35.221082],[-96.558883,35.221142],[-96.558899,35.219083],[-96.557989,35.219256],[-96.561239,35.214301],[-96.561658,35.21111],[-96.560981,35.212675],[-96.558862,35.213488],[-96.557512,35.212482],[-96.556367,35.210542],[-96.553851,35.212878],[-96.552537,35.212295],[-96.552744,35.210832],[-96.551615,35.210231],[-96.554368,35.210233],[-96.55522,35.208634],[-96.558632,35.207187],[-96.55458,35.203187],[-96.552316,35.202965],[-96.551257,35.201557],[-96.551279,35.189551],[-96.552882,35.187267],[-96.551799,35.186118],[-96.551102,35.183235],[-96.553724,35.180387],[-96.542283,35.180117],[-96.538459,35.177733],[-96.546112,35.174096],[-96.54792,35.17278],[-96.550039,35.173115],[-96.550329,35.170905],[-96.552523,35.170699],[-96.55461,35.1728],[-96.560197,35.172872],[-96.562197,35.174122],[-96.564371,35.174725],[-96.566554,35.176044],[-96.569172,35.174219],[-96.570233,35.174318],[-96.570656,35.172659],[-96.57209,35.17237],[-96.573481,35.173489],[-96.578831,35.172362],[-96.596288,35.18795],[-96.599607,35.190093],[-96.599613,35.177859],[-96.600934,35.177853],[-96.600901,35.175759],[-96.604972,35.176212],[-96.60497,35.174907],[-96.607715,35.174903],[-96.60772,35.173932],[-96.617144,35.173956],[-96.617135,35.152162],[-96.634796,35.152162],[-96.634912,35.145245],[-96.604755,35.145278],[-96.606659,35.14463],[-96.608302,35.142867],[-96.608346,35.139658],[-96.609917,35.139567],[-96.610536,35.130385],[-96.617092,35.130416],[-96.617102,35.108748],[-96.628561,35.108686],[-96.632317,35.109026],[-96.633343,35.108657]]]}},{"type":"Feature","properties":{"zcta5":"74840","AFFGEOID10":"8600000US74840","GEOID10":"74840","ALAND10":154296316,"AWATER10":211146,"county_name":"Seminole","state_code":"OK","county_state":"Seminole County, OK","county_fips":"40133","risk_level_county":"Medium Risk (70–79% vaccinated)","mean_vaccination_rate_county":72.06,"risk_level_zcta":"Higher Risk (60–69% vaccinated)","mean_vaccination_rate_zips":63.74,"cases":1},"geometry":{"type":"Polygon","coordinates":[[[-96.807248,35.347563],[-96.807254,35.32526],[-96.808164,35.32577],[-96.811374,35.325791],[-96.811427,35.318596],[-96.824724,35.318598],[-96.82474,35.304134],[-96.824744,35.289657],[-96.825949,35.289643],[-96.829033,35.290784],[-96.829034,35.28964],[-96.842388,35.289701],[-96.842216,35.260389],[-96.843306,35.26049],[-96.843413,35.259299],[-96.839414,35.258577],[-96.836142,35.25831],[-96.833377,35.258446],[-96.824663,35.259566],[-96.824648,35.244205],[-96.825236,35.236779],[-96.82525,35.227159],[-96.825975,35.220139],[-96.826407,35.217703],[-96.824447,35.217239],[-96.821388,35.215138],[-96.820422,35.215146],[-96.783491,35.198034],[-96.782567,35.195492],[-96.776794,35.195427],[-96.776833,35.253067],[-96.771752,35.251154],[-96.768062,35.253187],[-96.759324,35.251238],[-96.759385,35.257963],[-96.75379,35.261046],[-96.728159,35.261018],[-96.727321,35.26046],[-96.724007,35.26104],[-96.72403,35.246593],[-96.715078,35.246589],[-96.715141,35.263593],[-96.724013,35.263481],[-96.723593,35.27556],[-96.71517,35.275518],[-96.715777,35.290072],[-96.715276,35.297277],[-96.715442,35.304622],[-96.723094,35.304621],[-96.723557,35.30643],[-96.722968,35.308419],[-96.721863,35.31093],[-96.721059,35.310304],[-96.720114,35.311881],[-96.717004,35.312074],[-96.712937,35.316569],[-96.712917,35.317997],[-96.713983,35.317827],[-96.714433,35.319381],[-96.71208,35.320426],[-96.71259,35.322222],[-96.710647,35.324491],[-96.708321,35.325316],[-96.706832,35.32486],[-96.705392,35.327959],[-96.703535,35.328349],[-96.703535,35.329371],[-96.70194,35.330327],[-96.702034,35.331766],[-96.700465,35.332964],[-96.699325,35.332585],[-96.697552,35.333648],[-96.759279,35.333623],[-96.759302,35.325104],[-96.749356,35.319056],[-96.759327,35.31914],[-96.759598,35.311562],[-96.751976,35.304606],[-96.777078,35.304625],[-96.77668,35.347595],[-96.775608,35.348024],[-96.723928,35.348143],[-96.723912,35.377171],[-96.689033,35.377171],[-96.689012,35.384796],[-96.697036,35.384319],[-96.70297,35.384282],[-96.706731,35.384466],[-96.706689,35.406084],[-96.724463,35.406123],[-96.723731,35.407438],[-96.721101,35.410181],[-96.717525,35.410231],[-96.715982,35.411709],[-96.715715,35.41336],[-96.718812,35.411967],[-96.719826,35.41208],[-96.720533,35.413464],[-96.720009,35.414443],[-96.717195,35.41706],[-96.716876,35.419181],[-96.720274,35.423473],[-96.7217,35.424398],[-96.72463,35.425005],[-96.731324,35.423413],[-96.734933,35.420442],[-96.738135,35.41973],[-96.736294,35.417654],[-96.73314,35.416557],[-96.734264,35.4138],[-96.735754,35.413528],[-96.73686,35.415452],[-96.741446,35.414387],[-96.741664,35.412069],[-96.740119,35.408862],[-96.741155,35.407454],[-96.742784,35.406825],[-96.744271,35.406589],[-96.748759,35.40704],[-96.749954,35.406332],[-96.752593,35.406972],[-96.759034,35.407502],[-96.760647,35.407962],[-96.762372,35.40923],[-96.765048,35.409265],[-96.767024,35.408457],[-96.7692,35.41062],[-96.770564,35.407146],[-96.774473,35.405802],[-96.775093,35.406726],[-96.774381,35.40808],[-96.775809,35.411275],[-96.776695,35.410886],[-96.776649,35.362292],[-96.776766,35.362072],[-96.789484,35.36207],[-96.789461,35.347576],[-96.793718,35.347585],[-96.80271,35.353841],[-96.80276,35.347576],[-96.807248,35.347563]]]}},{"type":"Feature","properties":{"zcta5":"74849","AFFGEOID10":"8600000US74849","GEOID10":"74849","ALAND10":318047284,"AWATER10":9778560,"county_name":"Seminole","state_code":"OK","county_state":"Seminole County, OK","county_fips":"40133","risk_level_county":"Medium Risk (70–79% vaccinated)","mean_vaccination_rate_county":72.06,"risk_level_zcta":"Medium Risk (70–79% vaccinated)","mean_vaccination_rate_zips":72.58,"cases":1},"geometry":{"type":"Polygon","coordinates":[[[-96.818061,35.076043],[-96.819227,35.072659],[-96.822272,35.072599],[-96.822403,35.065239],[-96.826799,35.065239],[-96.826203,35.057944],[-96.829352,35.051815],[-96.831331,35.047493],[-96.831923,35.043743],[-96.831524,35.041426],[-96.838102,35.031739],[-96.83443,35.031713],[-96.832652,35.031182],[-96.830631,35.027629],[-96.828987,35.025958],[-96.826661,35.025466],[-96.826085,35.02359],[-96.826658,35.022101],[-96.826746,35.014514],[-96.84422,35.014525],[-96.844244,35.005067],[-96.845441,35.002152],[-96.844215,34.996804],[-96.844283,34.951028],[-96.844748,34.950523],[-96.84484,34.949589],[-96.842197,34.948902],[-96.840268,34.94415],[-96.840493,34.941485],[-96.839412,34.939656],[-96.837584,34.939195],[-96.840719,34.936694],[-96.845307,34.932012],[-96.853058,34.930177],[-96.853051,34.928819],[-96.849442,34.929689],[-96.846207,34.931504],[-96.841374,34.933797],[-96.837102,34.937798],[-96.834995,34.939427],[-96.830772,34.941908],[-96.825779,34.943368],[-96.821488,34.946112],[-96.819333,34.946591],[-96.817509,34.946329],[-96.813452,34.944649],[-96.811774,34.943504],[-96.809899,34.940967],[-96.807171,34.939512],[-96.803857,34.936712],[-96.801742,34.933548],[-96.799818,34.932119],[-96.798208,34.929992],[-96.798364,34.92757],[-96.797866,34.924425],[-96.799378,34.919972],[-96.799876,34.915334],[-96.799966,34.910463],[-96.798583,34.905939],[-96.797711,34.905132],[-96.790595,34.900834],[-96.785069,34.899145],[-96.779972,34.898853],[-96.775681,34.899958],[-96.772561,34.900638],[-96.771534,34.900248],[-96.767529,34.900652],[-96.763407,34.90038],[-96.760654,34.90084],[-96.755517,34.899809],[-96.750294,34.893133],[-96.748793,34.890283],[-96.747193,34.881783],[-96.742093,34.869383],[-96.740393,34.866883],[-96.738193,34.864183],[-96.734692,34.860484],[-96.732492,34.858884],[-96.727991,34.857182],[-96.722891,34.856782],[-96.717694,34.858064],[-96.712395,34.859681],[-96.710093,34.860883],[-96.703792,34.863384],[-96.697992,34.866884],[-96.694182,34.868495],[-96.694103,34.870068],[-96.694936,34.870623],[-96.690407,34.874997],[-96.687292,34.880984],[-96.68647,34.883185],[-96.686303,34.888546],[-96.686992,34.891283],[-96.689192,34.895583],[-96.690144,34.896272],[-96.693452,34.901257],[-96.695689,34.903614],[-96.700615,34.906908],[-96.701728,34.908266],[-96.70353,34.909305],[-96.710934,34.911715],[-96.712092,34.913883],[-96.711492,34.916282],[-96.708093,34.921083],[-96.706493,34.923983],[-96.704596,34.926281],[-96.70041,34.92967],[-96.694154,34.932792],[-96.691967,34.933314],[-96.685218,34.933177],[-96.68161,34.93286],[-96.667692,34.929583],[-96.665145,34.928207],[-96.669614,34.932219],[-96.668305,34.934258],[-96.667137,34.933707],[-96.665522,34.934578],[-96.663602,34.933981],[-96.661793,34.934553],[-96.66015,34.936684],[-96.660826,34.939069],[-96.658002,34.939912],[-96.654769,34.94142],[-96.652381,34.941939],[-96.649347,34.943275],[-96.645367,34.946332],[-96.643507,34.946526],[-96.641415,34.947577],[-96.639293,34.950064],[-96.638144,34.953338],[-96.636878,34.95463],[-96.635149,34.955109],[-96.640186,34.956283],[-96.643415,34.960652],[-96.648386,34.963633],[-96.652416,34.963595],[-96.652405,34.98534],[-96.639274,34.985427],[-96.638751,34.984524],[-96.638734,34.980202],[-96.633322,34.980646],[-96.632624,34.977127],[-96.630869,34.974045],[-96.629104,34.973112],[-96.62744,34.972983],[-96.623744,34.975902],[-96.622021,34.976307],[-96.618622,34.978933],[-96.617325,34.978965],[-96.617082,34.984625],[-96.616564,34.985836],[-96.612218,34.985668],[-96.606788,34.985042],[-96.601835,34.98385],[-96.599711,34.981977],[-96.599582,34.987664],[-96.598106,34.989041],[-96.599526,34.990365],[-96.599741,34.999583],[-96.598144,34.999284],[-96.596237,34.999883],[-96.596161,35.002485],[-96.597876,35.004069],[-96.600429,35.005444],[-96.601444,35.007247],[-96.603475,35.008079],[-96.605153,35.009898],[-96.604044,35.01219],[-96.604631,35.012798],[-96.606647,35.011779],[-96.608557,35.012579],[-96.613867,35.013332],[-96.616077,35.014115],[-96.614328,35.016353],[-96.616428,35.01706],[-96.61458,35.020291],[-96.613181,35.021184],[-96.614329,35.022128],[-96.618454,35.022236],[-96.619026,35.023137],[-96.618664,35.027219],[-96.620641,35.027919],[-96.624247,35.028285],[-96.625754,35.02999],[-96.626756,35.029726],[-96.627419,35.027601],[-96.628341,35.027167],[-96.628455,35.025777],[-96.630895,35.023092],[-96.6294,35.021152],[-96.630716,35.020279],[-96.632739,35.021324],[-96.632986,35.022351],[-96.634682,35.022127],[-96.634755,35.023105],[-96.637432,35.024012],[-96.636183,35.025528],[-96.637858,35.027353],[-96.637069,35.028165],[-96.641822,35.032117],[-96.641548,35.033249],[-96.643504,35.035145],[-96.643823,35.037041],[-96.645,35.035855],[-96.645947,35.037234],[-96.648306,35.036031],[-96.649643,35.034038],[-96.650985,35.034011],[-96.650472,35.032956],[-96.652563,35.031127],[-96.65643,35.03149],[-96.656489,35.034595],[-96.660957,35.036255],[-96.663455,35.036733],[-96.665058,35.037964],[-96.66616,35.036575],[-96.668304,35.038734],[-96.668531,35.040025],[-96.667341,35.041294],[-96.664589,35.042167],[-96.664569,35.043431],[-96.662751,35.043991],[-96.661536,35.043144],[-96.660981,35.043842],[-96.662464,35.044787],[-96.662076,35.0466],[-96.66416,35.046875],[-96.666611,35.048139],[-96.66909,35.047656],[-96.67056,35.048129],[-96.671635,35.049398],[-96.671895,35.051107],[-96.67605,35.053789],[-96.677019,35.053272],[-96.678435,35.053965],[-96.678428,35.055877],[-96.681034,35.055091],[-96.682992,35.055921],[-96.683319,35.056789],[-96.6868,35.058652],[-96.695887,35.057734],[-96.70025,35.059739],[-96.700652,35.064898],[-96.701547,35.065656],[-96.703639,35.066101],[-96.70541,35.067265],[-96.705423,35.068271],[-96.706593,35.06877],[-96.709941,35.068814],[-96.711485,35.069929],[-96.714417,35.066786],[-96.715607,35.067511],[-96.717959,35.06584],[-96.717297,35.064005],[-96.718961,35.065345],[-96.720384,35.065169],[-96.721173,35.06596],[-96.717645,35.067653],[-96.719957,35.067548],[-96.721301,35.068416],[-96.723172,35.068256],[-96.724676,35.070074],[-96.725492,35.072689],[-96.727371,35.074936],[-96.729751,35.075369],[-96.731441,35.074566],[-96.73251,35.073368],[-96.736066,35.074109],[-96.738606,35.075597],[-96.74287,35.07632],[-96.745289,35.07516],[-96.747181,35.075967],[-96.754127,35.077452],[-96.756571,35.077025],[-96.757755,35.078579],[-96.75832,35.080378],[-96.757306,35.082107],[-96.757691,35.083505],[-96.76097,35.084384],[-96.775432,35.082192],[-96.775435,35.058481],[-96.775386,35.058155],[-96.778595,35.057917],[-96.778886,35.061842],[-96.778638,35.063936],[-96.780834,35.070496],[-96.780752,35.074331],[-96.779658,35.076595],[-96.783475,35.08388],[-96.791696,35.086757],[-96.79167,35.072435],[-96.809265,35.072401],[-96.809254,35.077754],[-96.813949,35.077995],[-96.814189,35.079643],[-96.815715,35.079689],[-96.817551,35.076033],[-96.818061,35.076043]]]}},{"type":"Feature","properties":{"zcta5":"74867","AFFGEOID10":"8600000US74867","GEOID10":"74867","ALAND10":217752661,"AWATER10":3004593,"county_name":"Seminole","state_code":"OK","county_state":"Seminole County, OK","county_fips":"40133","risk_level_county":"Medium Risk (70–79% vaccinated)","mean_vaccination_rate_county":72.06,"risk_level_zcta":"Medium Risk (70–79% vaccinated)","mean_vaccination_rate_zips":77.71,"cases":1},"geometry":{"type":"Polygon","coordinates":[[[-96.613181,35.021184],[-96.61458,35.020291],[-96.616428,35.01706],[-96.614328,35.016353],[-96.616077,35.014115],[-96.613867,35.013332],[-96.608557,35.012579],[-96.606647,35.011779],[-96.604631,35.012798],[-96.604044,35.01219],[-96.605153,35.009898],[-96.603475,35.008079],[-96.601444,35.007247],[-96.600429,35.005444],[-96.597876,35.004069],[-96.596161,35.002485],[-96.596237,34.999883],[-96.598144,34.999284],[-96.599741,34.999583],[-96.599526,34.990365],[-96.598106,34.989041],[-96.599582,34.987664],[-96.599711,34.981977],[-96.601835,34.98385],[-96.606788,34.985042],[-96.612218,34.985668],[-96.616564,34.985836],[-96.617082,34.984625],[-96.617325,34.978965],[-96.618622,34.978933],[-96.622021,34.976307],[-96.623744,34.975902],[-96.62744,34.972983],[-96.629104,34.973112],[-96.630869,34.974045],[-96.632624,34.977127],[-96.633322,34.980646],[-96.638734,34.980202],[-96.638751,34.984524],[-96.639274,34.985427],[-96.652405,34.98534],[-96.652416,34.963595],[-96.648386,34.963633],[-96.643415,34.960652],[-96.640186,34.956283],[-96.635149,34.955109],[-96.636878,34.95463],[-96.638144,34.953338],[-96.639293,34.950064],[-96.641415,34.947577],[-96.643507,34.946526],[-96.645367,34.946332],[-96.649347,34.943275],[-96.652381,34.941939],[-96.654769,34.94142],[-96.658002,34.939912],[-96.660826,34.939069],[-96.66015,34.936684],[-96.661793,34.934553],[-96.663602,34.933981],[-96.665522,34.934578],[-96.667137,34.933707],[-96.668305,34.934258],[-96.669614,34.932219],[-96.665145,34.928207],[-96.662092,34.925883],[-96.659292,34.923083],[-96.657992,34.920983],[-96.655491,34.915083],[-96.65309,34.91038],[-96.64949,34.905282],[-96.64699,34.902184],[-96.64449,34.900583],[-96.640791,34.899484],[-96.636791,34.898784],[-96.63319,34.898584],[-96.61899,34.899284],[-96.61319,34.900484],[-96.60299,34.90378],[-96.59879,34.904884],[-96.59579,34.905984],[-96.592689,34.907584],[-96.589138,34.909968],[-96.584188,34.91219],[-96.578489,34.915984],[-96.577089,34.916584],[-96.571889,34.916784],[-96.568689,34.916584],[-96.564089,34.917284],[-96.560189,34.915484],[-96.558889,34.915284],[-96.556889,34.914184],[-96.555389,34.911284],[-96.555288,34.907484],[-96.556288,34.904584],[-96.556588,34.900884],[-96.555888,34.898084],[-96.552962,34.893613],[-96.551767,34.890914],[-96.549579,34.887112],[-96.545984,34.88227],[-96.543762,34.880097],[-96.533787,34.872184],[-96.530287,34.869985],[-96.528587,34.869586],[-96.521486,34.869887],[-96.519886,34.870187],[-96.516736,34.871781],[-96.514587,34.873386],[-96.512599,34.875466],[-96.509887,34.879485],[-96.506187,34.886485],[-96.504508,34.888181],[-96.502224,34.891874],[-96.500287,34.893465],[-96.499607,34.896974],[-96.498487,34.899085],[-96.497987,34.902685],[-96.496887,34.904585],[-96.494387,34.907385],[-96.490786,34.910585],[-96.490687,34.941767],[-96.414888,34.941621],[-96.414964,34.956172],[-96.441432,34.956217],[-96.441382,34.964352],[-96.443708,34.965184],[-96.446433,34.965321],[-96.445932,34.967334],[-96.451188,34.968181],[-96.454079,34.967792],[-96.457082,34.96546],[-96.458998,34.96558],[-96.458956,34.956204],[-96.467551,34.956322],[-96.467569,34.970746],[-96.480665,34.970951],[-96.48448,34.970434],[-96.487232,34.968856],[-96.488755,34.966824],[-96.490694,34.965651],[-96.490689,34.962421],[-96.493039,34.961424],[-96.4961,34.961162],[-96.495004,34.964],[-96.4956,34.965358],[-96.498333,34.964801],[-96.500903,34.962728],[-96.501896,34.963126],[-96.501053,34.965901],[-96.503852,34.965146],[-96.505419,34.966422],[-96.507377,34.966143],[-96.505794,34.96404],[-96.507954,34.962568],[-96.509447,34.964195],[-96.512583,34.96558],[-96.51543,34.965618],[-96.516835,34.964278],[-96.519236,34.965358],[-96.523952,34.966659],[-96.524342,34.969603],[-96.527193,34.969556],[-96.52844,34.970487],[-96.52877,34.972613],[-96.524758,34.97113],[-96.524433,34.973782],[-96.522911,34.975522],[-96.523972,34.97673],[-96.524522,34.979018],[-96.527625,34.978246],[-96.528034,34.979405],[-96.526986,34.980675],[-96.529637,34.981428],[-96.528507,34.983898],[-96.531705,34.98562],[-96.532182,34.984169],[-96.535394,34.98233],[-96.536859,34.98103],[-96.538999,34.98168],[-96.540534,34.98128],[-96.541243,34.97938],[-96.54231,34.980113],[-96.543988,34.979608],[-96.542661,34.978253],[-96.542866,34.976524],[-96.544675,34.977667],[-96.546386,34.976508],[-96.547653,34.978609],[-96.548885,34.979477],[-96.551273,34.983867],[-96.549274,34.985255],[-96.54694,34.985504],[-96.546715,35.014263],[-96.529159,35.014305],[-96.52922,35.010065],[-96.529869,35.007139],[-96.526931,35.004524],[-96.525427,35.000004],[-96.51633,34.999734],[-96.511532,34.999804],[-96.51157,34.97446],[-96.506522,34.97441],[-96.505943,34.976049],[-96.503473,34.977547],[-96.503545,34.980028],[-96.502065,34.98064],[-96.502081,34.985094],[-96.498899,34.985296],[-96.49761,34.986766],[-96.494453,34.987546],[-96.493871,34.987255],[-96.493861,34.977748],[-96.490705,34.976865],[-96.490658,35.049832],[-96.492446,35.049385],[-96.492585,35.052033],[-96.49411,35.051936],[-96.494129,35.043286],[-96.52834,35.043318],[-96.529123,35.045419],[-96.531632,35.045179],[-96.534056,35.04337],[-96.542059,35.043213],[-96.546706,35.043334],[-96.54677,35.057845],[-96.546367,35.061591],[-96.546426,35.06507],[-96.555152,35.065],[-96.555214,35.057757],[-96.597397,35.05788],[-96.599858,35.056951],[-96.601106,35.055446],[-96.601514,35.052024],[-96.600166,35.050962],[-96.599731,35.052775],[-96.598559,35.049899],[-96.59712,35.04851],[-96.599517,35.048603],[-96.59873,35.044639],[-96.599585,35.042747],[-96.600805,35.042915],[-96.600322,35.0442],[-96.602627,35.044206],[-96.603563,35.042539],[-96.604981,35.042604],[-96.606212,35.040085],[-96.609115,35.03918],[-96.610835,35.039273],[-96.611475,35.038065],[-96.613503,35.037806],[-96.613469,35.036552],[-96.614652,35.035463],[-96.615045,35.03367],[-96.614287,35.033083],[-96.606108,35.030161],[-96.605425,35.026248],[-96.606717,35.024787],[-96.607897,35.026131],[-96.609236,35.025458],[-96.609904,35.023704],[-96.607571,35.023453],[-96.613181,35.021184]]]}}]}