{"type":"FeatureCollection","features":[{"type":"Feature","properties":{"zcta5":"37338","AFFGEOID10":"8600000US37338","GEOID10":"37338","ALAND10":195021395,"AWATER10":199083,"county_name":"Sequatchie","state_code":"TN","county_state":"Sequatchie County, TN","county_fips":"47153","risk_level_county":"Medium Risk (70–79% vaccinated)","mean_vaccination_rate_county":70.78,"risk_level_zcta":"Higher Risk (60–69% vaccinated)","mean_vaccination_rate_zips":62.51,"cases":3},"geometry":{"type":"Polygon","coordinates":[[[-85.222077,35.500744],[-85.222542,35.497151],[-85.222522,35.4929],[-85.220859,35.489094],[-85.221457,35.486521],[-85.226106,35.487208],[-85.22825,35.486981],[-85.234656,35.485513],[-85.237325,35.483993],[-85.240341,35.481761],[-85.244765,35.477893],[-85.246817,35.475586],[-85.253943,35.468641],[-85.255863,35.465298],[-85.255517,35.462686],[-85.252554,35.458127],[-85.251442,35.455712],[-85.249052,35.455585],[-85.249961,35.45353],[-85.249961,35.45032],[-85.252563,35.449179],[-85.255655,35.447137],[-85.259325,35.445224],[-85.264468,35.444194],[-85.267187,35.442844],[-85.267287,35.43862],[-85.268226,35.433855],[-85.268346,35.430616],[-85.271221,35.42875],[-85.273419,35.424576],[-85.278151,35.418792],[-85.284232,35.413542],[-85.285889,35.41115],[-85.289499,35.409723],[-85.291243,35.412049],[-85.292657,35.412112],[-85.291606,35.409399],[-85.29043,35.408816],[-85.289574,35.406535],[-85.285503,35.404789],[-85.282518,35.401644],[-85.281678,35.400046],[-85.279731,35.398959],[-85.2787,35.399651],[-85.278653,35.397837],[-85.280372,35.396096],[-85.282949,35.397729],[-85.288247,35.398484],[-85.291377,35.399044],[-85.292612,35.399912],[-85.294847,35.400083],[-85.29733,35.401237],[-85.299511,35.401315],[-85.304739,35.402683],[-85.309625,35.405074],[-85.312894,35.404585],[-85.315418,35.404997],[-85.317109,35.404569],[-85.32068,35.401972],[-85.321304,35.402552],[-85.323345,35.399719],[-85.325266,35.39374],[-85.329361,35.388544],[-85.331413,35.387758],[-85.33056,35.385205],[-85.330617,35.380436],[-85.33219,35.373595],[-85.332179,35.369737],[-85.331262,35.366924],[-85.326248,35.371507],[-85.319076,35.376072],[-85.314275,35.378709],[-85.313198,35.380494],[-85.309817,35.379143],[-85.301058,35.377817],[-85.298495,35.377658],[-85.295825,35.375965],[-85.29554,35.37353],[-85.294608,35.371151],[-85.295769,35.368607],[-85.294705,35.365958],[-85.293787,35.366984],[-85.292814,35.364094],[-85.287965,35.358187],[-85.288634,35.357123],[-85.293179,35.355073],[-85.292383,35.351654],[-85.296698,35.353131],[-85.29971,35.349817],[-85.30353,35.347457],[-85.306065,35.344955],[-85.309044,35.342919],[-85.310802,35.338987],[-85.309886,35.337154],[-85.306701,35.33611],[-85.303778,35.334115],[-85.300351,35.332916],[-85.293485,35.332014],[-85.292077,35.32998],[-85.290575,35.329101],[-85.29138,35.327359],[-85.289838,35.325963],[-85.289886,35.323919],[-85.288633,35.32305],[-85.286863,35.321736],[-85.282927,35.321845],[-85.280829,35.320322],[-85.280179,35.319003],[-85.277149,35.318469],[-85.276372,35.317485],[-85.275917,35.31488],[-85.273752,35.313753],[-85.271331,35.314851],[-85.270186,35.31329],[-85.268591,35.312438],[-85.267975,35.310531],[-85.266749,35.308816],[-85.266087,35.306409],[-85.265021,35.306348],[-85.262392,35.307775],[-85.260685,35.30539],[-85.25751,35.305535],[-85.254249,35.309174],[-85.249958,35.314667],[-85.246005,35.319077],[-85.225877,35.354276],[-85.229563,35.356688],[-85.235492,35.361104],[-85.261844,35.379566],[-85.263643,35.381979],[-85.263233,35.384242],[-85.264553,35.385971],[-85.261331,35.389851],[-85.259436,35.393449],[-85.256397,35.395805],[-85.253883,35.3986],[-85.253028,35.401218],[-85.251277,35.399876],[-85.248391,35.400681],[-85.248955,35.401065],[-85.243568,35.40325],[-85.241687,35.404604],[-85.24001,35.405121],[-85.238301,35.404347],[-85.234197,35.40496],[-85.232782,35.405999],[-85.230156,35.406935],[-85.223424,35.408202],[-85.220506,35.407795],[-85.21626,35.408765],[-85.211421,35.408201],[-85.206565,35.407887],[-85.202865,35.406134],[-85.201648,35.404978],[-85.198706,35.405512],[-85.195973,35.403494],[-85.21312,35.375422],[-85.20929,35.375836],[-85.207792,35.375616],[-85.204685,35.373224],[-85.201861,35.372263],[-85.196974,35.373434],[-85.192321,35.37329],[-85.190657,35.373885],[-85.18874,35.372776],[-85.189493,35.371009],[-85.187715,35.371115],[-85.185035,35.37364],[-85.185003,35.374415],[-85.182285,35.372893],[-85.180571,35.372815],[-85.179609,35.371344],[-85.177884,35.370334],[-85.174838,35.369418],[-85.172902,35.367977],[-85.172067,35.36831],[-85.173446,35.369495],[-85.171338,35.37047],[-85.171644,35.371595],[-85.168468,35.36994],[-85.168753,35.370995],[-85.16521,35.369247],[-85.163493,35.370153],[-85.159193,35.370223],[-85.156086,35.371662],[-85.154315,35.371904],[-85.153362,35.371244],[-85.149801,35.370473],[-85.148015,35.372511],[-85.148625,35.373633],[-85.146555,35.375166],[-85.144905,35.375418],[-85.144454,35.378704],[-85.141841,35.382841],[-85.138834,35.384818],[-85.133413,35.384849],[-85.131685,35.384405],[-85.131347,35.385004],[-85.13467,35.38563],[-85.136003,35.386789],[-85.138618,35.387508],[-85.138282,35.389109],[-85.139509,35.390505],[-85.141439,35.394704],[-85.141324,35.39627],[-85.137772,35.399269],[-85.137926,35.400467],[-85.139595,35.402979],[-85.139587,35.405594],[-85.13782,35.407989],[-85.136028,35.408417],[-85.137315,35.411566],[-85.139408,35.412891],[-85.139871,35.41382],[-85.142542,35.41397],[-85.1443,35.414981],[-85.146791,35.414361],[-85.148797,35.415983],[-85.152193,35.416418],[-85.151118,35.418495],[-85.151641,35.419539],[-85.15497,35.420265],[-85.156661,35.421672],[-85.158078,35.421387],[-85.159891,35.420162],[-85.162951,35.422333],[-85.164085,35.422037],[-85.16522,35.420597],[-85.167254,35.421982],[-85.168154,35.420884],[-85.170471,35.4209],[-85.172886,35.420181],[-85.174538,35.418373],[-85.175626,35.418005],[-85.177445,35.419242],[-85.179237,35.419352],[-85.182466,35.418171],[-85.184083,35.418632],[-85.185768,35.417253],[-85.18892,35.418001],[-85.184094,35.428156],[-85.168302,35.455614],[-85.164291,35.451753],[-85.163473,35.449533],[-85.162546,35.448533],[-85.16078,35.448395],[-85.159142,35.447345],[-85.157497,35.44779],[-85.154133,35.447217],[-85.151233,35.445205],[-85.148792,35.445594],[-85.145341,35.449782],[-85.135191,35.458649],[-85.132431,35.457871],[-85.126879,35.4582],[-85.125385,35.459232],[-85.125723,35.455145],[-85.123735,35.455082],[-85.123716,35.456883],[-85.120039,35.458137],[-85.11711,35.456411],[-85.11502,35.457052],[-85.111443,35.456891],[-85.109643,35.45545],[-85.108209,35.452707],[-85.107257,35.452425],[-85.109558,35.450306],[-85.103325,35.445525],[-85.103687,35.444685],[-85.110728,35.437238],[-85.108331,35.434764],[-85.105926,35.434395],[-85.104347,35.432528],[-85.106401,35.432095],[-85.102158,35.428442],[-85.101125,35.429366],[-85.094769,35.431084],[-85.091609,35.436516],[-85.090573,35.437662],[-85.08917,35.438715],[-85.085154,35.44113],[-85.083368,35.438892],[-85.079256,35.441679],[-85.075833,35.446265],[-85.072594,35.445883],[-85.072271,35.445735],[-85.070769,35.445558],[-85.069936,35.445619],[-85.068881,35.445952],[-85.06847,35.446208],[-85.069975,35.44783],[-85.067108,35.447592],[-85.064053,35.449427],[-85.061783,35.451405],[-85.059379,35.454801],[-85.061922,35.456309],[-85.064757,35.45378],[-85.070049,35.450942],[-85.071865,35.450528],[-85.07384,35.450511],[-85.076509,35.451272],[-85.07899,35.451652],[-85.07937,35.453661],[-85.07939,35.454187],[-85.083222,35.455528],[-85.084704,35.455227],[-85.084085,35.452397],[-85.090357,35.452945],[-85.090727,35.452898],[-85.092389,35.45408],[-85.09583,35.455582],[-85.097214,35.457577],[-85.105366,35.457872],[-85.106843,35.459789],[-85.110128,35.461761],[-85.108998,35.464735],[-85.109357,35.468266],[-85.11339,35.47378],[-85.115946,35.47567],[-85.11988,35.47698],[-85.122717,35.478735],[-85.124465,35.477913],[-85.125126,35.478888],[-85.124684,35.480635],[-85.126514,35.481955],[-85.128838,35.481522],[-85.131243,35.481875],[-85.131612,35.483265],[-85.13501,35.484943],[-85.134411,35.485866],[-85.132792,35.486145],[-85.132791,35.48775],[-85.133778,35.488585],[-85.133957,35.4913],[-85.136713,35.489774],[-85.138043,35.489983],[-85.140429,35.487962],[-85.141672,35.488446],[-85.142282,35.489804],[-85.141737,35.492248],[-85.143826,35.492645],[-85.144969,35.491305],[-85.146393,35.491299],[-85.148221,35.490756],[-85.145333,35.489492],[-85.144279,35.488167],[-85.145717,35.487321],[-85.147671,35.488311],[-85.151467,35.488604],[-85.150875,35.489845],[-85.151788,35.490922],[-85.154227,35.491577],[-85.155839,35.491512],[-85.156766,35.492347],[-85.156396,35.49349],[-85.160077,35.496041],[-85.160184,35.497167],[-85.158454,35.50017],[-85.157009,35.500241],[-85.155231,35.498759],[-85.154905,35.502241],[-85.156242,35.504115],[-85.155777,35.50539],[-85.158405,35.505984],[-85.159426,35.50705],[-85.159546,35.508325],[-85.156938,35.509654],[-85.157045,35.511066],[-85.158134,35.510242],[-85.159122,35.51099],[-85.158725,35.512545],[-85.157663,35.51338],[-85.15902,35.514166],[-85.158236,35.517453],[-85.158949,35.519134],[-85.160093,35.519838],[-85.162659,35.518728],[-85.165104,35.518646],[-85.167857,35.517741],[-85.17259,35.514651],[-85.175743,35.511977],[-85.178872,35.509817],[-85.180347,35.509416],[-85.182285,35.507627],[-85.183594,35.504374],[-85.184698,35.502804],[-85.195231,35.502226],[-85.200768,35.504695],[-85.200986,35.505755],[-85.198757,35.509557],[-85.194765,35.51184],[-85.190735,35.511009],[-85.186019,35.513981],[-85.18232,35.51407],[-85.179685,35.516834],[-85.178025,35.517542],[-85.178084,35.520235],[-85.181385,35.522965],[-85.184828,35.524195],[-85.186871,35.524365],[-85.188808,35.524326],[-85.190234,35.523505],[-85.191318,35.524202],[-85.195218,35.523253],[-85.195325,35.520623],[-85.194548,35.519539],[-85.196577,35.51765],[-85.197161,35.515724],[-85.196974,35.513402],[-85.199631,35.513964],[-85.207736,35.511579],[-85.209381,35.51028],[-85.215093,35.507509],[-85.218293,35.505353],[-85.221169,35.502949],[-85.222077,35.500744]]]}},{"type":"Feature","properties":{"zcta5":"37377","AFFGEOID10":"8600000US37377","GEOID10":"37377","ALAND10":193258487,"AWATER10":168911,"county_name":"Sequatchie","state_code":"TN","county_state":"Sequatchie County, TN","county_fips":"47153","risk_level_county":"Medium Risk (70–79% vaccinated)","mean_vaccination_rate_county":70.78,"risk_level_zcta":"Medium Risk (70–79% vaccinated)","mean_vaccination_rate_zips":77.86,"cases":3},"geometry":{"type":"MultiPolygon","coordinates":[[[[-85.340483,35.086481],[-85.340117,35.087048],[-85.338538,35.085449],[-85.33541,35.084583],[-85.337416,35.085498],[-85.338654,35.088484],[-85.340197,35.088034],[-85.340632,35.088654],[-85.340688,35.088755],[-85.341957,35.088027],[-85.340483,35.086481]]],[[[-85.392276,35.26626],[-85.392221,35.26459],[-85.393111,35.263041],[-85.394783,35.262367],[-85.398232,35.262484],[-85.401527,35.262055],[-85.402493,35.261467],[-85.404101,35.259421],[-85.406787,35.253598],[-85.408035,35.250071],[-85.407918,35.246955],[-85.409537,35.242162],[-85.411578,35.239155],[-85.414863,35.236703],[-85.418071,35.235752],[-85.417028,35.234735],[-85.407774,35.225715],[-85.405865,35.225162],[-85.403816,35.223952],[-85.400986,35.219637],[-85.401436,35.216406],[-85.398934,35.212234],[-85.397897,35.209618],[-85.39593,35.207545],[-85.39362,35.206248],[-85.392303,35.203807],[-85.391427,35.201367],[-85.391609,35.199933],[-85.392654,35.198356],[-85.395883,35.195681],[-85.395984,35.193521],[-85.394774,35.190135],[-85.393115,35.187728],[-85.390232,35.185276],[-85.388327,35.18117],[-85.388441,35.18017],[-85.390851,35.178626],[-85.392171,35.176665],[-85.393531,35.173703],[-85.394063,35.169005],[-85.39478,35.167126],[-85.394031,35.16546],[-85.391109,35.161574],[-85.388267,35.158754],[-85.386864,35.15506],[-85.387072,35.153494],[-85.386571,35.151246],[-85.387089,35.147169],[-85.382889,35.152221],[-85.381868,35.152023],[-85.382144,35.150454],[-85.383899,35.148623],[-85.382552,35.147234],[-85.383937,35.146689],[-85.383274,35.14547],[-85.384415,35.144881],[-85.383564,35.143216],[-85.381019,35.14286],[-85.381985,35.13868],[-85.38146,35.137907],[-85.380914,35.128304],[-85.380285,35.125393],[-85.379283,35.123968],[-85.377872,35.123345],[-85.376188,35.124128],[-85.375745,35.126663],[-85.37614,35.129006],[-85.375434,35.127505],[-85.373294,35.126549],[-85.37149,35.127292],[-85.365418,35.128512],[-85.359637,35.133004],[-85.359106,35.133155],[-85.359687,35.131114],[-85.360676,35.130845],[-85.362996,35.128431],[-85.361912,35.127525],[-85.367739,35.123842],[-85.367898,35.122019],[-85.369036,35.12082],[-85.366027,35.118291],[-85.359388,35.114424],[-85.356897,35.113126],[-85.354078,35.111958],[-85.353026,35.110964],[-85.353557,35.11056],[-85.352532,35.109369],[-85.352474,35.109141],[-85.355571,35.108696],[-85.358105,35.107448],[-85.360137,35.10559],[-85.355854,35.102691],[-85.3527,35.102006],[-85.348231,35.100011],[-85.344942,35.100381],[-85.344921,35.101148],[-85.338831,35.102201],[-85.334647,35.103719],[-85.333009,35.103681],[-85.333235,35.105645],[-85.338463,35.105472],[-85.339002,35.104723],[-85.347342,35.10454],[-85.348941,35.106269],[-85.34794,35.105762],[-85.343311,35.10643],[-85.338694,35.107537],[-85.337635,35.110045],[-85.335335,35.107168],[-85.33117,35.108276],[-85.32841,35.109707],[-85.327413,35.109027],[-85.327443,35.107432],[-85.326459,35.106672],[-85.327238,35.108742],[-85.32659,35.111072],[-85.32707,35.111262],[-85.321891,35.117721],[-85.320311,35.119356],[-85.322111,35.121371],[-85.318832,35.125458],[-85.31779,35.124877],[-85.316484,35.126422],[-85.313996,35.126144],[-85.312861,35.12876],[-85.312065,35.131895],[-85.313168,35.132688],[-85.310062,35.142315],[-85.306385,35.139753],[-85.30563,35.140721],[-85.310045,35.143734],[-85.312588,35.146306],[-85.312831,35.147139],[-85.310663,35.148042],[-85.308415,35.150304],[-85.306405,35.153225],[-85.304817,35.154889],[-85.30239,35.158261],[-85.301456,35.160164],[-85.300473,35.160858],[-85.298931,35.162982],[-85.291463,35.173254],[-85.288007,35.177542],[-85.285799,35.181512],[-85.284299,35.18286],[-85.279693,35.186104],[-85.279145,35.186725],[-85.28064,35.189357],[-85.280458,35.190498],[-85.281936,35.190595],[-85.280335,35.191895],[-85.284866,35.19343],[-85.286834,35.195507],[-85.284654,35.198267],[-85.281253,35.196873],[-85.280053,35.197172],[-85.276928,35.200751],[-85.27637,35.202035],[-85.273293,35.202991],[-85.271919,35.202884],[-85.273285,35.20459],[-85.271315,35.205914],[-85.266449,35.207725],[-85.263224,35.209747],[-85.261948,35.211432],[-85.261487,35.215671],[-85.26306,35.216964],[-85.266423,35.217404],[-85.265398,35.217701],[-85.261756,35.216798],[-85.260322,35.214834],[-85.258011,35.214406],[-85.250628,35.214566],[-85.243736,35.219905],[-85.241444,35.222085],[-85.239687,35.224499],[-85.238815,35.228244],[-85.240886,35.229399],[-85.236733,35.231329],[-85.233631,35.233333],[-85.233173,35.233609],[-85.23641,35.239814],[-85.237127,35.240572],[-85.236954,35.242506],[-85.23607,35.24434],[-85.238343,35.247067],[-85.238625,35.248149],[-85.239275,35.248715],[-85.243067,35.249614],[-85.246536,35.247646],[-85.249463,35.247183],[-85.256517,35.248304],[-85.256771,35.249436],[-85.255963,35.251738],[-85.256062,35.252925],[-85.257964,35.25492],[-85.257292,35.256777],[-85.257673,35.259075],[-85.256103,35.262272],[-85.256859,35.263185],[-85.260458,35.262483],[-85.261884,35.26283],[-85.262862,35.263902],[-85.263088,35.266457],[-85.263925,35.267243],[-85.267812,35.266959],[-85.268905,35.265432],[-85.26843,35.264031],[-85.269187,35.263036],[-85.272691,35.263373],[-85.274313,35.263181],[-85.275439,35.261055],[-85.277524,35.258742],[-85.278355,35.258594],[-85.281471,35.255138],[-85.283555,35.25471],[-85.284432,35.256727],[-85.286013,35.256716],[-85.287085,35.255678],[-85.288103,35.256508],[-85.288277,35.257964],[-85.290608,35.25858],[-85.289656,35.260289],[-85.292544,35.26291],[-85.289701,35.266402],[-85.29031,35.270175],[-85.293587,35.269637],[-85.294143,35.270275],[-85.293017,35.271764],[-85.295429,35.273809],[-85.296259,35.275792],[-85.298477,35.277057],[-85.300066,35.275337],[-85.303148,35.27454],[-85.304086,35.275321],[-85.306579,35.275634],[-85.307095,35.276711],[-85.309011,35.276299],[-85.310566,35.277388],[-85.313213,35.277107],[-85.31586,35.278261],[-85.316138,35.279082],[-85.319681,35.28061],[-85.324365,35.281219],[-85.326651,35.280974],[-85.328921,35.278785],[-85.331016,35.278335],[-85.332032,35.279303],[-85.33486,35.280122],[-85.340482,35.283161],[-85.343224,35.284129],[-85.34499,35.287621],[-85.347676,35.289598],[-85.350193,35.289878],[-85.35246,35.291762],[-85.358503,35.294663],[-85.360433,35.295147],[-85.362141,35.29717],[-85.363233,35.297401],[-85.36992,35.300417],[-85.370368,35.301013],[-85.371375,35.300352],[-85.370988,35.296723],[-85.36825,35.292717],[-85.366921,35.288751],[-85.365966,35.287446],[-85.367929,35.286687],[-85.36986,35.286964],[-85.372021,35.283845],[-85.373493,35.283164],[-85.377451,35.283898],[-85.378432,35.28262],[-85.379761,35.282447],[-85.381845,35.283431],[-85.3834,35.281185],[-85.384737,35.281367],[-85.387488,35.27915],[-85.386936,35.277848],[-85.389709,35.275644],[-85.389837,35.27369],[-85.389011,35.272357],[-85.388363,35.267713],[-85.388693,35.266012],[-85.390381,35.262763],[-85.391916,35.260951],[-85.391757,35.265117],[-85.392276,35.26626]]]]}},{"type":"Feature","properties":{"zcta5":"37379","AFFGEOID10":"8600000US37379","GEOID10":"37379","ALAND10":273656895,"AWATER10":18744988,"county_name":"Sequatchie","state_code":"TN","county_state":"Sequatchie County, TN","county_fips":"47153","risk_level_county":"Medium Risk (70–79% vaccinated)","mean_vaccination_rate_county":70.78,"risk_level_zcta":"Higher Risk (60–69% vaccinated)","mean_vaccination_rate_zips":69.97,"cases":3},"geometry":{"type":"Polygon","coordinates":[[[-85.288633,35.32305],[-85.291361,35.320901],[-85.292243,35.314545],[-85.296367,35.304936],[-85.295208,35.302708],[-85.302426,35.303431],[-85.305189,35.300912],[-85.305666,35.298038],[-85.304506,35.297264],[-85.304004,35.29484],[-85.300981,35.295301],[-85.298407,35.293515],[-85.298019,35.291652],[-85.299038,35.289888],[-85.296545,35.289108],[-85.295345,35.289855],[-85.293401,35.289272],[-85.290788,35.287222],[-85.289985,35.284935],[-85.288872,35.283957],[-85.285508,35.283615],[-85.284201,35.28489],[-85.282586,35.284472],[-85.280971,35.282719],[-85.278793,35.2833],[-85.278217,35.282624],[-85.276066,35.282963],[-85.289701,35.266402],[-85.292544,35.26291],[-85.289656,35.260289],[-85.290608,35.25858],[-85.288277,35.257964],[-85.288103,35.256508],[-85.287085,35.255678],[-85.286013,35.256716],[-85.284432,35.256727],[-85.283555,35.25471],[-85.281471,35.255138],[-85.278355,35.258594],[-85.277524,35.258742],[-85.275439,35.261055],[-85.274313,35.263181],[-85.272691,35.263373],[-85.269187,35.263036],[-85.26843,35.264031],[-85.268905,35.265432],[-85.267812,35.266959],[-85.263925,35.267243],[-85.263088,35.266457],[-85.262862,35.263902],[-85.261884,35.26283],[-85.260458,35.262483],[-85.256859,35.263185],[-85.256103,35.262272],[-85.257673,35.259075],[-85.257292,35.256777],[-85.257964,35.25492],[-85.256062,35.252925],[-85.255963,35.251738],[-85.256771,35.249436],[-85.256517,35.248304],[-85.249463,35.247183],[-85.246536,35.247646],[-85.243067,35.249614],[-85.239275,35.248715],[-85.238625,35.248149],[-85.238343,35.247067],[-85.23607,35.24434],[-85.236954,35.242506],[-85.237127,35.240572],[-85.23641,35.239814],[-85.233173,35.233609],[-85.233631,35.233333],[-85.233093,35.230595],[-85.231655,35.228351],[-85.231396,35.228022],[-85.232187,35.223331],[-85.235901,35.215872],[-85.236892,35.212841],[-85.235893,35.212806],[-85.234929,35.212949],[-85.233743,35.212949],[-85.2336,35.212679],[-85.231931,35.211477],[-85.230798,35.211406],[-85.227994,35.215506],[-85.219236,35.214053],[-85.220039,35.213154],[-85.219856,35.212124],[-85.220007,35.211488],[-85.220474,35.210764],[-85.218192,35.212783],[-85.217786,35.213193],[-85.217054,35.212443],[-85.216252,35.211852],[-85.214382,35.210701],[-85.212898,35.210121],[-85.21357,35.20689],[-85.212594,35.205665],[-85.211215,35.203936],[-85.208599,35.203381],[-85.207022,35.202261],[-85.206409,35.203854],[-85.20324,35.205114],[-85.200663,35.208766],[-85.199614,35.211832],[-85.198096,35.212637],[-85.195662,35.212516],[-85.193723,35.214958],[-85.187861,35.218073],[-85.195772,35.220216],[-85.197638,35.219766],[-85.197039,35.221241],[-85.183851,35.228713],[-85.174901,35.225652],[-85.174182,35.227282],[-85.175849,35.223471],[-85.17322,35.223958],[-85.16724,35.216974],[-85.168048,35.214786],[-85.158518,35.210398],[-85.156432,35.207993],[-85.156477,35.207154],[-85.152919,35.205897],[-85.151327,35.203504],[-85.152166,35.202607],[-85.152126,35.200667],[-85.150202,35.198664],[-85.143502,35.196793],[-85.142014,35.196414],[-85.140995,35.192934],[-85.139378,35.192095],[-85.131509,35.19069],[-85.128798,35.193039],[-85.125843,35.196577],[-85.122477,35.201459],[-85.120666,35.2051],[-85.117768,35.207336],[-85.113713,35.209339],[-85.110243,35.210405],[-85.107074,35.210918],[-85.105698,35.210653],[-85.102905,35.211419],[-85.100551,35.211435],[-85.09898,35.211959],[-85.094695,35.212533],[-85.092043,35.213726],[-85.090257,35.213605],[-85.087042,35.21441],[-85.085337,35.2156],[-85.083054,35.218119],[-85.079787,35.223042],[-85.078869,35.225165],[-85.077914,35.228784],[-85.077944,35.230287],[-85.07851,35.232623],[-85.080052,35.236176],[-85.081875,35.238897],[-85.084687,35.240872],[-85.086084,35.244574],[-85.092012,35.251442],[-85.096588,35.255599],[-85.097797,35.256277],[-85.100484,35.260419],[-85.102869,35.26591],[-85.102715,35.268267],[-85.101071,35.273893],[-85.099617,35.276421],[-85.097843,35.278178],[-85.093253,35.281782],[-85.088585,35.284504],[-85.08305,35.287106],[-85.078751,35.29057],[-85.07057,35.300514],[-85.067773,35.304695],[-85.065587,35.307386],[-85.063381,35.309558],[-85.057859,35.317096],[-85.054898,35.322563],[-85.053062,35.328753],[-85.051205,35.333672],[-85.050244,35.338212],[-85.049028,35.341585],[-85.047546,35.349318],[-85.047415,35.350248],[-85.048312,35.358911],[-85.05186,35.358877],[-85.056078,35.359719],[-85.059329,35.359825],[-85.06108,35.359318],[-85.064752,35.36044],[-85.065972,35.361757],[-85.066218,35.365628],[-85.069918,35.367466],[-85.072365,35.369512],[-85.074093,35.370276],[-85.075116,35.368971],[-85.074795,35.366487],[-85.076817,35.363919],[-85.077583,35.361908],[-85.075486,35.360724],[-85.0751,35.359316],[-85.073561,35.358197],[-85.073643,35.356077],[-85.078785,35.356017],[-85.08037,35.356415],[-85.082957,35.353151],[-85.086311,35.351061],[-85.088051,35.348545],[-85.089862,35.350406],[-85.094167,35.347043],[-85.099745,35.340874],[-85.109484,35.338045],[-85.112717,35.34117],[-85.112321,35.348044],[-85.113809,35.347908],[-85.115427,35.345514],[-85.116993,35.34427],[-85.1198,35.340338],[-85.121953,35.339166],[-85.124694,35.339217],[-85.127467,35.34082],[-85.129205,35.341064],[-85.129425,35.337672],[-85.130525,35.337771],[-85.134818,35.341365],[-85.141303,35.345419],[-85.146325,35.347047],[-85.151601,35.350599],[-85.155089,35.350215],[-85.155941,35.350886],[-85.155947,35.35288],[-85.154429,35.35599],[-85.159069,35.360157],[-85.162127,35.361575],[-85.164462,35.360334],[-85.167045,35.360527],[-85.168681,35.361791],[-85.170559,35.364401],[-85.172624,35.365825],[-85.174697,35.366358],[-85.176883,35.368902],[-85.179057,35.368996],[-85.184075,35.372871],[-85.185003,35.374415],[-85.185035,35.37364],[-85.187715,35.371115],[-85.189493,35.371009],[-85.18874,35.372776],[-85.190657,35.373885],[-85.192321,35.37329],[-85.196974,35.373434],[-85.201861,35.372263],[-85.204685,35.373224],[-85.207792,35.375616],[-85.20929,35.375836],[-85.21312,35.375422],[-85.195973,35.403494],[-85.198706,35.405512],[-85.201648,35.404978],[-85.202865,35.406134],[-85.206565,35.407887],[-85.211421,35.408201],[-85.21626,35.408765],[-85.220506,35.407795],[-85.223424,35.408202],[-85.230156,35.406935],[-85.232782,35.405999],[-85.234197,35.40496],[-85.238301,35.404347],[-85.24001,35.405121],[-85.241687,35.404604],[-85.243568,35.40325],[-85.248955,35.401065],[-85.248391,35.400681],[-85.251277,35.399876],[-85.253028,35.401218],[-85.253883,35.3986],[-85.256397,35.395805],[-85.259436,35.393449],[-85.261331,35.389851],[-85.264553,35.385971],[-85.263233,35.384242],[-85.263643,35.381979],[-85.261844,35.379566],[-85.235492,35.361104],[-85.229563,35.356688],[-85.225877,35.354276],[-85.246005,35.319077],[-85.249958,35.314667],[-85.254249,35.309174],[-85.25751,35.305535],[-85.260685,35.30539],[-85.262392,35.307775],[-85.265021,35.306348],[-85.266087,35.306409],[-85.266749,35.308816],[-85.267975,35.310531],[-85.268591,35.312438],[-85.270186,35.31329],[-85.271331,35.314851],[-85.273752,35.313753],[-85.275917,35.31488],[-85.276372,35.317485],[-85.277149,35.318469],[-85.280179,35.319003],[-85.280829,35.320322],[-85.282927,35.321845],[-85.286863,35.321736],[-85.288633,35.32305]]]}},{"type":"Feature","properties":{"zcta5":"37327","AFFGEOID10":"8600000US37327","GEOID10":"37327","ALAND10":523670649,"AWATER10":446094,"county_name":"Sequatchie","state_code":"TN","county_state":"Sequatchie County, TN","county_fips":"47153","risk_level_county":"Medium Risk (70–79% vaccinated)","mean_vaccination_rate_county":70.78,"risk_level_zcta":"Medium Risk (70–79% vaccinated)","mean_vaccination_rate_zips":71.22,"cases":3},"geometry":{"type":"MultiPolygon","coordinates":[[[[-85.441609,35.311753],[-85.441021,35.31124],[-85.43883,35.311434],[-85.438076,35.31215],[-85.440184,35.312655],[-85.441609,35.311753]]],[[[-85.492257,35.54757],[-85.49523,35.547752],[-85.503539,35.545008],[-85.504781,35.545823],[-85.513468,35.544234],[-85.516979,35.543887],[-85.523415,35.542599],[-85.526798,35.541685],[-85.529892,35.540332],[-85.532995,35.54172],[-85.543566,35.542718],[-85.544739,35.542534],[-85.546132,35.536285],[-85.553282,35.535198],[-85.556713,35.536495],[-85.557535,35.532977],[-85.607326,35.531651],[-85.605136,35.529673],[-85.600457,35.527842],[-85.59872,35.526904],[-85.596282,35.524913],[-85.589775,35.521363],[-85.587464,35.518486],[-85.584933,35.516304],[-85.580454,35.514863],[-85.576943,35.512479],[-85.573229,35.50933],[-85.56957,35.505776],[-85.55797,35.50029],[-85.554276,35.497903],[-85.540232,35.490677],[-85.536658,35.487095],[-85.53683,35.481109],[-85.541332,35.461405],[-85.540117,35.459028],[-85.537985,35.445394],[-85.53657,35.446468],[-85.535187,35.446456],[-85.535186,35.448864],[-85.533909,35.450638],[-85.529784,35.452994],[-85.529274,35.45372],[-85.526755,35.453917],[-85.526902,35.455098],[-85.525834,35.45584],[-85.524102,35.455053],[-85.522415,35.455811],[-85.522219,35.45167],[-85.522811,35.449925],[-85.524518,35.447471],[-85.521816,35.444072],[-85.522133,35.439803],[-85.523453,35.439395],[-85.524778,35.437869],[-85.524932,35.435391],[-85.528097,35.430911],[-85.528303,35.429564],[-85.52768,35.426244],[-85.52355,35.424002],[-85.520466,35.421557],[-85.518246,35.423891],[-85.512284,35.422958],[-85.511751,35.421063],[-85.512878,35.407612],[-85.485635,35.406433],[-85.488586,35.40175],[-85.491001,35.399083],[-85.491812,35.397555],[-85.492172,35.395093],[-85.494535,35.394966],[-85.495873,35.39333],[-85.494088,35.391724],[-85.494578,35.386388],[-85.489224,35.383494],[-85.492542,35.381163],[-85.49428,35.380763],[-85.495993,35.378496],[-85.498492,35.376881],[-85.500227,35.373827],[-85.499499,35.373159],[-85.502743,35.371009],[-85.503584,35.368724],[-85.505718,35.36897],[-85.505475,35.366677],[-85.502928,35.365435],[-85.504263,35.36291],[-85.50655,35.361831],[-85.507366,35.358911],[-85.506528,35.357477],[-85.505956,35.356693],[-85.503651,35.355617],[-85.499972,35.354644],[-85.496563,35.352957],[-85.495286,35.350658],[-85.489487,35.348184],[-85.487132,35.346913],[-85.48643,35.343346],[-85.487993,35.338648],[-85.487613,35.336493],[-85.48579,35.33479],[-85.482693,35.333516],[-85.479817,35.329349],[-85.478022,35.328412],[-85.475772,35.328023],[-85.473051,35.325934],[-85.470872,35.322489],[-85.469433,35.322429],[-85.467252,35.32057],[-85.467258,35.319067],[-85.466424,35.318706],[-85.464017,35.319124],[-85.461671,35.320707],[-85.461101,35.321806],[-85.458011,35.323401],[-85.455906,35.325808],[-85.454652,35.326495],[-85.451768,35.324825],[-85.448563,35.324011],[-85.447383,35.324105],[-85.444318,35.32326],[-85.447405,35.322971],[-85.447797,35.318845],[-85.439566,35.318068],[-85.439496,35.320064],[-85.438401,35.319941],[-85.439036,35.317769],[-85.435706,35.316003],[-85.435943,35.314455],[-85.432954,35.312225],[-85.430966,35.311354],[-85.427231,35.310702],[-85.425713,35.309094],[-85.426065,35.306684],[-85.423687,35.304697],[-85.420267,35.301272],[-85.418487,35.301661],[-85.41678,35.300261],[-85.413124,35.301452],[-85.408062,35.297166],[-85.409747,35.294773],[-85.410002,35.292593],[-85.412473,35.289783],[-85.40769,35.288876],[-85.405943,35.289517],[-85.403079,35.289655],[-85.397868,35.296899],[-85.392039,35.303295],[-85.389885,35.302047],[-85.387433,35.299232],[-85.385953,35.296791],[-85.382091,35.294493],[-85.382103,35.293577],[-85.380827,35.291944],[-85.384698,35.291553],[-85.387866,35.289825],[-85.390218,35.287309],[-85.391185,35.283933],[-85.39312,35.282241],[-85.395407,35.278059],[-85.396165,35.275509],[-85.395726,35.272602],[-85.393485,35.269521],[-85.392276,35.26626],[-85.391757,35.265117],[-85.391916,35.260951],[-85.390381,35.262763],[-85.388693,35.266012],[-85.388363,35.267713],[-85.389011,35.272357],[-85.389837,35.27369],[-85.389709,35.275644],[-85.386936,35.277848],[-85.387488,35.27915],[-85.384737,35.281367],[-85.3834,35.281185],[-85.381845,35.283431],[-85.379761,35.282447],[-85.378432,35.28262],[-85.377451,35.283898],[-85.373493,35.283164],[-85.372021,35.283845],[-85.36986,35.286964],[-85.367929,35.286687],[-85.365966,35.287446],[-85.366921,35.288751],[-85.36825,35.292717],[-85.370988,35.296723],[-85.371375,35.300352],[-85.370368,35.301013],[-85.36992,35.300417],[-85.363233,35.297401],[-85.362141,35.29717],[-85.360433,35.295147],[-85.358503,35.294663],[-85.35246,35.291762],[-85.350193,35.289878],[-85.347676,35.289598],[-85.34499,35.287621],[-85.343224,35.284129],[-85.340482,35.283161],[-85.33486,35.280122],[-85.332032,35.279303],[-85.331016,35.278335],[-85.328921,35.278785],[-85.326651,35.280974],[-85.324365,35.281219],[-85.319681,35.28061],[-85.316138,35.279082],[-85.31586,35.278261],[-85.313213,35.277107],[-85.310566,35.277388],[-85.309011,35.276299],[-85.307095,35.276711],[-85.306579,35.275634],[-85.304086,35.275321],[-85.303148,35.27454],[-85.300066,35.275337],[-85.298477,35.277057],[-85.296259,35.275792],[-85.295429,35.273809],[-85.293017,35.271764],[-85.294143,35.270275],[-85.293587,35.269637],[-85.29031,35.270175],[-85.289701,35.266402],[-85.276066,35.282963],[-85.278217,35.282624],[-85.278793,35.2833],[-85.280971,35.282719],[-85.282586,35.284472],[-85.284201,35.28489],[-85.285508,35.283615],[-85.288872,35.283957],[-85.289985,35.284935],[-85.290788,35.287222],[-85.293401,35.289272],[-85.295345,35.289855],[-85.296545,35.289108],[-85.299038,35.289888],[-85.298019,35.291652],[-85.298407,35.293515],[-85.300981,35.295301],[-85.304004,35.29484],[-85.304506,35.297264],[-85.305666,35.298038],[-85.305189,35.300912],[-85.302426,35.303431],[-85.295208,35.302708],[-85.296367,35.304936],[-85.292243,35.314545],[-85.291361,35.320901],[-85.288633,35.32305],[-85.289886,35.323919],[-85.289838,35.325963],[-85.29138,35.327359],[-85.290575,35.329101],[-85.292077,35.32998],[-85.293485,35.332014],[-85.300351,35.332916],[-85.303778,35.334115],[-85.306701,35.33611],[-85.309886,35.337154],[-85.310802,35.338987],[-85.309044,35.342919],[-85.306065,35.344955],[-85.30353,35.347457],[-85.29971,35.349817],[-85.296698,35.353131],[-85.292383,35.351654],[-85.293179,35.355073],[-85.288634,35.357123],[-85.287965,35.358187],[-85.292814,35.364094],[-85.293787,35.366984],[-85.294705,35.365958],[-85.295769,35.368607],[-85.294608,35.371151],[-85.29554,35.37353],[-85.295825,35.375965],[-85.298495,35.377658],[-85.301058,35.377817],[-85.309817,35.379143],[-85.313198,35.380494],[-85.314275,35.378709],[-85.319076,35.376072],[-85.326248,35.371507],[-85.331262,35.366924],[-85.332179,35.369737],[-85.33219,35.373595],[-85.330617,35.380436],[-85.33056,35.385205],[-85.331413,35.387758],[-85.329361,35.388544],[-85.325266,35.39374],[-85.323345,35.399719],[-85.321304,35.402552],[-85.32068,35.401972],[-85.317109,35.404569],[-85.315418,35.404997],[-85.312894,35.404585],[-85.309625,35.405074],[-85.304739,35.402683],[-85.299511,35.401315],[-85.29733,35.401237],[-85.294847,35.400083],[-85.292612,35.399912],[-85.291377,35.399044],[-85.288247,35.398484],[-85.282949,35.397729],[-85.280372,35.396096],[-85.278653,35.397837],[-85.2787,35.399651],[-85.279731,35.398959],[-85.281678,35.400046],[-85.282518,35.401644],[-85.285503,35.404789],[-85.289574,35.406535],[-85.29043,35.408816],[-85.291606,35.409399],[-85.292657,35.412112],[-85.291243,35.412049],[-85.289499,35.409723],[-85.285889,35.41115],[-85.284232,35.413542],[-85.278151,35.418792],[-85.273419,35.424576],[-85.271221,35.42875],[-85.268346,35.430616],[-85.268226,35.433855],[-85.267287,35.43862],[-85.267187,35.442844],[-85.264468,35.444194],[-85.259325,35.445224],[-85.255655,35.447137],[-85.252563,35.449179],[-85.249961,35.45032],[-85.249961,35.45353],[-85.249052,35.455585],[-85.251442,35.455712],[-85.252554,35.458127],[-85.255517,35.462686],[-85.255863,35.465298],[-85.253943,35.468641],[-85.246817,35.475586],[-85.244765,35.477893],[-85.240341,35.481761],[-85.237325,35.483993],[-85.234656,35.485513],[-85.22825,35.486981],[-85.226106,35.487208],[-85.221457,35.486521],[-85.220859,35.489094],[-85.222522,35.4929],[-85.222542,35.497151],[-85.222077,35.500744],[-85.246873,35.499264],[-85.260738,35.490678],[-85.26152,35.488506],[-85.263144,35.486539],[-85.265693,35.484982],[-85.272498,35.479475],[-85.278277,35.472327],[-85.27997,35.468753],[-85.28062,35.462168],[-85.282436,35.462742],[-85.283693,35.464703],[-85.283027,35.467015],[-85.281437,35.467078],[-85.28172,35.468078],[-85.28646,35.470131],[-85.28359,35.474568],[-85.283978,35.476066],[-85.266226,35.487241],[-85.264956,35.486501],[-85.263568,35.487397],[-85.264284,35.488869],[-85.262457,35.490398],[-85.261448,35.492701],[-85.262141,35.495508],[-85.264393,35.496698],[-85.262945,35.498797],[-85.260898,35.499714],[-85.256584,35.499526],[-85.263544,35.502256],[-85.284999,35.509245],[-85.287325,35.506461],[-85.290341,35.503502],[-85.302513,35.489858],[-85.304434,35.490043],[-85.304504,35.493514],[-85.302765,35.496715],[-85.296415,35.503639],[-85.294419,35.506446],[-85.292297,35.507894],[-85.289457,35.511388],[-85.294401,35.513951],[-85.301843,35.519492],[-85.305031,35.516749],[-85.306141,35.516623],[-85.310021,35.519985],[-85.308252,35.522002],[-85.311346,35.520936],[-85.317056,35.519489],[-85.314315,35.518319],[-85.31466,35.514778],[-85.317125,35.507057],[-85.320003,35.505491],[-85.324072,35.506572],[-85.325839,35.507559],[-85.325664,35.503686],[-85.322827,35.49999],[-85.323723,35.499282],[-85.327039,35.499439],[-85.329256,35.500356],[-85.332629,35.501012],[-85.336946,35.504013],[-85.337093,35.50203],[-85.336297,35.500313],[-85.330966,35.49628],[-85.326861,35.494949],[-85.325457,35.494044],[-85.325203,35.493265],[-85.329053,35.490493],[-85.334109,35.48943],[-85.332625,35.487567],[-85.332498,35.484875],[-85.335802,35.484123],[-85.337261,35.481304],[-85.341573,35.478972],[-85.342058,35.476089],[-85.345938,35.47106],[-85.349655,35.464983],[-85.3533,35.461668],[-85.354669,35.461197],[-85.355045,35.458882],[-85.357722,35.456273],[-85.35878,35.454622],[-85.403298,35.49228],[-85.402184,35.493629],[-85.403635,35.494003],[-85.405811,35.495839],[-85.406483,35.496961],[-85.405696,35.498719],[-85.407936,35.502344],[-85.40895,35.504878],[-85.410986,35.505538],[-85.411644,35.506434],[-85.410527,35.509379],[-85.411367,35.511231],[-85.410869,35.51189],[-85.408383,35.511593],[-85.407368,35.512373],[-85.407784,35.514],[-85.408825,35.514879],[-85.408636,35.516418],[-85.407595,35.516824],[-85.407345,35.518099],[-85.409072,35.519342],[-85.411243,35.519111],[-85.41252,35.521112],[-85.413797,35.522068],[-85.416526,35.520091],[-85.417434,35.520866],[-85.417292,35.522102],[-85.415578,35.523052],[-85.416781,35.524234],[-85.418636,35.524476],[-85.419657,35.526839],[-85.422568,35.526796],[-85.424934,35.529863],[-85.426776,35.527983],[-85.430755,35.529077],[-85.43171,35.53027],[-85.432416,35.532501],[-85.432167,35.534045],[-85.433774,35.535133],[-85.435057,35.539848],[-85.43452,35.540733],[-85.436147,35.541365],[-85.43618,35.542156],[-85.433955,35.543255],[-85.43345,35.544937],[-85.431951,35.545783],[-85.432051,35.549388],[-85.431043,35.551097],[-85.431318,35.552515],[-85.429624,35.553268],[-85.430269,35.553949],[-85.428514,35.555696],[-85.428218,35.558268],[-85.426106,35.557773],[-85.426173,35.559466],[-85.42464,35.560087],[-85.425393,35.561675],[-85.427161,35.562368],[-85.425607,35.56362],[-85.425399,35.564588],[-85.423549,35.566016],[-85.423804,35.567422],[-85.45352,35.55813],[-85.454984,35.552727],[-85.455855,35.552032],[-85.46016,35.55044],[-85.459856,35.54685],[-85.46511,35.547257],[-85.474464,35.547634],[-85.486399,35.547082],[-85.492257,35.54757]],[[-85.315392,35.502021],[-85.309448,35.505066],[-85.305483,35.502621],[-85.302588,35.499363],[-85.305494,35.500099],[-85.308785,35.498549],[-85.316423,35.500472],[-85.315392,35.502021]]]]}},{"type":"Feature","properties":{"zcta5":"37397","AFFGEOID10":"8600000US37397","GEOID10":"37397","ALAND10":422522707,"AWATER10":5994273,"county_name":"Sequatchie","state_code":"TN","county_state":"Sequatchie County, TN","county_fips":"47153","risk_level_county":"Medium Risk (70–79% vaccinated)","mean_vaccination_rate_county":70.78,"risk_level_zcta":"Medium Risk (70–79% vaccinated)","mean_vaccination_rate_zips":73.72,"cases":3},"geometry":{"type":"Polygon","coordinates":[[[-85.645353,35.301997],[-85.643355,35.300327],[-85.64219,35.296617],[-85.640823,35.29533],[-85.640167,35.293764],[-85.638821,35.292329],[-85.63921,35.291082],[-85.641188,35.290896],[-85.641838,35.29017],[-85.644771,35.284275],[-85.643833,35.282516],[-85.641963,35.282235],[-85.640409,35.280783],[-85.637609,35.27943],[-85.63706,35.278655],[-85.638503,35.274149],[-85.639322,35.272698],[-85.637687,35.271054],[-85.635466,35.265975],[-85.633357,35.26315],[-85.630511,35.260362],[-85.629602,35.257421],[-85.62774,35.255376],[-85.625577,35.25399],[-85.623375,35.250915],[-85.621106,35.249183],[-85.620388,35.247634],[-85.620513,35.245177],[-85.620024,35.24438],[-85.614979,35.243607],[-85.611427,35.240383],[-85.612222,35.236739],[-85.612127,35.234447],[-85.61092,35.231947],[-85.610872,35.230183],[-85.609551,35.227611],[-85.610072,35.224951],[-85.608123,35.225028],[-85.606032,35.222831],[-85.604919,35.220984],[-85.602621,35.219062],[-85.601884,35.217842],[-85.601293,35.214127],[-85.596992,35.209077],[-85.595565,35.206714],[-85.596488,35.204131],[-85.596292,35.200465],[-85.597924,35.194974],[-85.597936,35.192078],[-85.598979,35.190275],[-85.597841,35.188429],[-85.599062,35.186412],[-85.598279,35.184268],[-85.59662,35.183108],[-85.594973,35.183192],[-85.594109,35.181357],[-85.590547,35.178494],[-85.588957,35.178412],[-85.590832,35.174953],[-85.591702,35.172192],[-85.591945,35.168635],[-85.589996,35.162721],[-85.584908,35.16516],[-85.58106,35.16763],[-85.579216,35.166394],[-85.577889,35.162047],[-85.57922,35.157451],[-85.581369,35.15394],[-85.582903,35.152018],[-85.585238,35.15007],[-85.588736,35.148618],[-85.589848,35.144804],[-85.589795,35.14099],[-85.588907,35.14049],[-85.586243,35.140401],[-85.582859,35.141903],[-85.581141,35.143201],[-85.577762,35.140421],[-85.576638,35.139964],[-85.57453,35.136662],[-85.575925,35.133897],[-85.579611,35.13176],[-85.583575,35.131415],[-85.586072,35.129571],[-85.585729,35.128828],[-85.582141,35.127479],[-85.582248,35.125287],[-85.580995,35.124822],[-85.579004,35.126081],[-85.577083,35.12502],[-85.577447,35.123184],[-85.576782,35.12256],[-85.57518,35.123279],[-85.57454,35.124351],[-85.57342,35.123553],[-85.574216,35.12262],[-85.574621,35.11952],[-85.576129,35.117801],[-85.579304,35.116299],[-85.579869,35.114341],[-85.579104,35.112498],[-85.580161,35.111066],[-85.58197,35.112425],[-85.582892,35.11217],[-85.582836,35.108398],[-85.581499,35.106577],[-85.579721,35.10593],[-85.578326,35.1081],[-85.577341,35.107913],[-85.576486,35.106104],[-85.575231,35.10606],[-85.575695,35.103708],[-85.574609,35.103216],[-85.574157,35.100926],[-85.576161,35.098847],[-85.575348,35.097353],[-85.573064,35.095846],[-85.574512,35.09264],[-85.576155,35.090069],[-85.577639,35.088913],[-85.57582,35.086821],[-85.576027,35.085988],[-85.573837,35.082847],[-85.57232,35.081845],[-85.566788,35.079368],[-85.559996,35.079363],[-85.555892,35.080833],[-85.554637,35.083411],[-85.555094,35.085841],[-85.557653,35.088543],[-85.558759,35.090513],[-85.560352,35.095287],[-85.55993,35.097337],[-85.557556,35.097976],[-85.551171,35.090621],[-85.546569,35.086191],[-85.544766,35.085432],[-85.542003,35.082299],[-85.542007,35.081508],[-85.54094,35.080944],[-85.534324,35.079448],[-85.532657,35.07932],[-85.527991,35.080268],[-85.524132,35.08035],[-85.519813,35.08],[-85.517106,35.080615],[-85.513187,35.078057],[-85.50805,35.07688],[-85.508313,35.074458],[-85.504043,35.075184],[-85.502958,35.075856],[-85.500521,35.076023],[-85.4943,35.078053],[-85.48949,35.079273],[-85.484208,35.079353],[-85.482091,35.07763],[-85.479363,35.074338],[-85.478162,35.070305],[-85.478713,35.069657],[-85.479527,35.066551],[-85.4804,35.060868],[-85.482058,35.05624],[-85.481894,35.052855],[-85.481221,35.048875],[-85.474701,35.036823],[-85.473924,35.036209],[-85.472179,35.031657],[-85.471961,35.029356],[-85.469975,35.02633],[-85.468291,35.024721],[-85.462467,35.022426],[-85.457172,35.021879],[-85.451971,35.022346],[-85.44995,35.023235],[-85.44643,35.023689],[-85.438998,35.026655],[-85.436035,35.028715],[-85.434003,35.031009],[-85.432279,35.034657],[-85.431996,35.03722],[-85.432234,35.041295],[-85.433062,35.046091],[-85.432789,35.048858],[-85.431529,35.052373],[-85.430261,35.053839],[-85.42792,35.054726],[-85.426909,35.056018],[-85.4225,35.058795],[-85.415884,35.061422],[-85.41054,35.062431],[-85.407313,35.064384],[-85.399187,35.06618],[-85.392258,35.068694],[-85.390027,35.072509],[-85.38555,35.074823],[-85.383657,35.077262],[-85.38314,35.079386],[-85.383244,35.082124],[-85.383849,35.083453],[-85.386299,35.086435],[-85.389656,35.089122],[-85.393134,35.090691],[-85.39736,35.091482],[-85.402796,35.090985],[-85.404929,35.091507],[-85.409642,35.094787],[-85.411178,35.096211],[-85.414707,35.104369],[-85.415479,35.107796],[-85.414993,35.110056],[-85.415011,35.114583],[-85.413284,35.116808],[-85.410937,35.118314],[-85.4117,35.119033],[-85.416386,35.115061],[-85.415906,35.110087],[-85.416669,35.107779],[-85.414084,35.099585],[-85.412673,35.097386],[-85.412293,35.095485],[-85.405782,35.090482],[-85.402767,35.089755],[-85.399344,35.090496],[-85.393333,35.089653],[-85.390573,35.088185],[-85.385475,35.082648],[-85.384995,35.080236],[-85.385653,35.076906],[-85.388188,35.074626],[-85.390702,35.073149],[-85.392923,35.070259],[-85.39531,35.068738],[-85.399141,35.067272],[-85.403058,35.066344],[-85.404997,35.066394],[-85.406537,35.07172],[-85.412083,35.070358],[-85.418131,35.067491],[-85.42046,35.066959],[-85.42723,35.068003],[-85.429454,35.067897],[-85.428972,35.066436],[-85.429981,35.063426],[-85.433394,35.060663],[-85.436137,35.059551],[-85.437777,35.057904],[-85.441774,35.056612],[-85.442384,35.055711],[-85.440941,35.053835],[-85.439297,35.050257],[-85.438705,35.043014],[-85.439132,35.039863],[-85.440182,35.03688],[-85.441849,35.03509],[-85.444348,35.03347],[-85.447156,35.032699],[-85.449966,35.032524],[-85.45215,35.032774],[-85.454647,35.034129],[-85.45694,35.036162],[-85.461011,35.042181],[-85.462061,35.045404],[-85.462386,35.048541],[-85.45991,35.051168],[-85.456397,35.051077],[-85.45713,35.05261],[-85.459941,35.053549],[-85.462126,35.053467],[-85.465041,35.05262],[-85.46754,35.053388],[-85.467959,35.054325],[-85.46725,35.057985],[-85.465715,35.062325],[-85.464477,35.063348],[-85.461058,35.063374],[-85.462418,35.067261],[-85.460449,35.070321],[-85.458583,35.07134],[-85.453297,35.073209],[-85.452468,35.073975],[-85.452261,35.078309],[-85.451225,35.080178],[-85.449462,35.081793],[-85.446146,35.082897],[-85.44345,35.084597],[-85.442828,35.085956],[-85.440446,35.088591],[-85.43889,35.09187],[-85.439081,35.093812],[-85.440885,35.099865],[-85.439366,35.101339],[-85.440032,35.102582],[-85.44288,35.103046],[-85.445157,35.103979],[-85.447056,35.10654],[-85.446488,35.108557],[-85.442938,35.109513],[-85.444483,35.109222],[-85.447292,35.110535],[-85.449156,35.109321],[-85.452689,35.110955],[-85.451301,35.109194],[-85.452354,35.106571],[-85.452275,35.102173],[-85.45181,35.09901],[-85.454105,35.094536],[-85.455151,35.093921],[-85.458388,35.094015],[-85.461417,35.096349],[-85.465564,35.092755],[-85.466361,35.09736],[-85.466194,35.098624],[-85.467417,35.098977],[-85.469086,35.096668],[-85.471772,35.094539],[-85.47671,35.092179],[-85.47729,35.093074],[-85.47758,35.096891],[-85.479176,35.100471],[-85.480773,35.102679],[-85.481645,35.104946],[-85.483242,35.104713],[-85.485565,35.1074],[-85.484911,35.109904],[-85.48353,35.112053],[-85.48381,35.11453],[-85.482479,35.116338],[-85.478386,35.118453],[-85.481131,35.118778],[-85.484775,35.117419],[-85.485231,35.121633],[-85.486871,35.123181],[-85.485948,35.125932],[-85.484617,35.127937],[-85.484739,35.129929],[-85.483775,35.132064],[-85.485021,35.133908],[-85.482954,35.138408],[-85.479496,35.140323],[-85.48,35.142138],[-85.479391,35.1446],[-85.475571,35.147118],[-85.47209,35.149141],[-85.470374,35.154839],[-85.470098,35.159708],[-85.469651,35.162288],[-85.465449,35.172272],[-85.463315,35.176607],[-85.460995,35.179877],[-85.457966,35.182041],[-85.451153,35.183279],[-85.450486,35.184424],[-85.448443,35.184981],[-85.446709,35.186695],[-85.445643,35.188611],[-85.446431,35.193567],[-85.446294,35.195361],[-85.44294,35.196249],[-85.426583,35.203027],[-85.426404,35.204886],[-85.429426,35.205692],[-85.431731,35.208876],[-85.4315,35.210968],[-85.432497,35.213511],[-85.431293,35.215894],[-85.429102,35.222186],[-85.427555,35.224619],[-85.425513,35.225359],[-85.424796,35.227556],[-85.423204,35.22861],[-85.422604,35.230642],[-85.419911,35.233285],[-85.417028,35.234735],[-85.418071,35.235752],[-85.414863,35.236703],[-85.411578,35.239155],[-85.409537,35.242162],[-85.407918,35.246955],[-85.408035,35.250071],[-85.406787,35.253598],[-85.404101,35.259421],[-85.402493,35.261467],[-85.401527,35.262055],[-85.398232,35.262484],[-85.394783,35.262367],[-85.393111,35.263041],[-85.392221,35.26459],[-85.392276,35.26626],[-85.393485,35.269521],[-85.395726,35.272602],[-85.396165,35.275509],[-85.395407,35.278059],[-85.39312,35.282241],[-85.391185,35.283933],[-85.390218,35.287309],[-85.387866,35.289825],[-85.384698,35.291553],[-85.380827,35.291944],[-85.382103,35.293577],[-85.382091,35.294493],[-85.385953,35.296791],[-85.387433,35.299232],[-85.389885,35.302047],[-85.392039,35.303295],[-85.397868,35.296899],[-85.403079,35.289655],[-85.405943,35.289517],[-85.40769,35.288876],[-85.412473,35.289783],[-85.410002,35.292593],[-85.409747,35.294773],[-85.408062,35.297166],[-85.413124,35.301452],[-85.41678,35.300261],[-85.418487,35.301661],[-85.420267,35.301272],[-85.423687,35.304697],[-85.426065,35.306684],[-85.425713,35.309094],[-85.427231,35.310702],[-85.430966,35.311354],[-85.432954,35.312225],[-85.435943,35.314455],[-85.435706,35.316003],[-85.439036,35.317769],[-85.438401,35.319941],[-85.439496,35.320064],[-85.439566,35.318068],[-85.447797,35.318845],[-85.447405,35.322971],[-85.444318,35.32326],[-85.447383,35.324105],[-85.448563,35.324011],[-85.451768,35.324825],[-85.454652,35.326495],[-85.455906,35.325808],[-85.458011,35.323401],[-85.461101,35.321806],[-85.461671,35.320707],[-85.464017,35.319124],[-85.466424,35.318706],[-85.467258,35.319067],[-85.467252,35.32057],[-85.469433,35.322429],[-85.470872,35.322489],[-85.473051,35.325934],[-85.475772,35.328023],[-85.478022,35.328412],[-85.479817,35.329349],[-85.482693,35.333516],[-85.48579,35.33479],[-85.487613,35.336493],[-85.487993,35.338648],[-85.48643,35.343346],[-85.487132,35.346913],[-85.489487,35.348184],[-85.495286,35.350658],[-85.496563,35.352957],[-85.499972,35.354644],[-85.503651,35.355617],[-85.505956,35.356693],[-85.506528,35.357477],[-85.514192,35.353619],[-85.515108,35.354872],[-85.519734,35.350804],[-85.520686,35.350961],[-85.523353,35.348852],[-85.526324,35.34842],[-85.52696,35.344258],[-85.528737,35.344546],[-85.529023,35.342831],[-85.533619,35.343234],[-85.535061,35.343675],[-85.538887,35.343205],[-85.542347,35.341453],[-85.543839,35.34004],[-85.544244,35.338148],[-85.551172,35.328578],[-85.558551,35.319292],[-85.560119,35.318691],[-85.579242,35.314746],[-85.584356,35.313548],[-85.590324,35.31247],[-85.632885,35.3037],[-85.645353,35.301997]],[[-85.441609,35.311753],[-85.440184,35.312655],[-85.438076,35.31215],[-85.43883,35.311434],[-85.441021,35.31124],[-85.441609,35.311753]]]}},{"type":"Feature","properties":{"zcta5":"37110","AFFGEOID10":"8600000US37110","GEOID10":"37110","ALAND10":957399241,"AWATER10":778443,"county_name":"Sequatchie","state_code":"TN","county_state":"Sequatchie County, TN","county_fips":"47153","risk_level_county":"Medium Risk (70–79% vaccinated)","mean_vaccination_rate_county":70.78,"risk_level_zcta":"Medium Risk (70–79% vaccinated)","mean_vaccination_rate_zips":70.41,"cases":3},"geometry":{"type":"Polygon","coordinates":[[[-85.967001,35.719757],[-85.964682,35.709194],[-85.962883,35.706505],[-85.962305,35.704716],[-85.958987,35.70514],[-85.956838,35.703288],[-85.955773,35.703003],[-85.955907,35.701266],[-85.956965,35.700178],[-85.956688,35.69882],[-85.955516,35.698326],[-85.956843,35.695995],[-85.958506,35.694923],[-85.957199,35.691994],[-85.955097,35.69111],[-85.956329,35.689747],[-85.955224,35.688796],[-85.953695,35.686147],[-85.951128,35.684136],[-85.949039,35.683532],[-85.948278,35.682295],[-85.944142,35.680284],[-85.942323,35.680713],[-85.939784,35.678597],[-85.93581,35.676321],[-85.935257,35.673738],[-85.931829,35.672568],[-85.930597,35.671765],[-85.923289,35.670973],[-85.921699,35.671292],[-85.919355,35.672813],[-85.918971,35.675215],[-85.917105,35.677369],[-85.907884,35.676521],[-85.906679,35.675152],[-85.906747,35.671734],[-85.903407,35.671557],[-85.901925,35.672408],[-85.898988,35.671935],[-85.897932,35.669631],[-85.898297,35.666664],[-85.897765,35.666142],[-85.895045,35.666273],[-85.892081,35.667107],[-85.888227,35.669628],[-85.88622,35.670143],[-85.883627,35.668878],[-85.880774,35.666277],[-85.881288,35.663343],[-85.880568,35.662342],[-85.877726,35.661599],[-85.872303,35.661452],[-85.869025,35.663581],[-85.867571,35.66384],[-85.86501,35.661252],[-85.864092,35.658032],[-85.863317,35.657565],[-85.859142,35.657298],[-85.856826,35.657749],[-85.854699,35.659272],[-85.854282,35.660976],[-85.851973,35.661807],[-85.852681,35.664686],[-85.853605,35.666472],[-85.852548,35.667978],[-85.850117,35.66915],[-85.846488,35.6697],[-85.84143,35.669223],[-85.838957,35.667339],[-85.837051,35.666998],[-85.83466,35.664745],[-85.835346,35.66175],[-85.838765,35.657452],[-85.838543,35.656215],[-85.835055,35.656018],[-85.833095,35.655387],[-85.828866,35.6552],[-85.827345,35.656695],[-85.828025,35.658009],[-85.826059,35.659586],[-85.822557,35.660098],[-85.819224,35.661461],[-85.818988,35.662065],[-85.821272,35.666984],[-85.820572,35.667737],[-85.816928,35.667308],[-85.814174,35.663687],[-85.814113,35.660411],[-85.812584,35.658691],[-85.810836,35.658322],[-85.812805,35.655358],[-85.811886,35.653995],[-85.811633,35.652045],[-85.840561,35.640866],[-85.837232,35.640199],[-85.878033,35.62207],[-85.876143,35.618945],[-85.878147,35.618237],[-85.883782,35.618136],[-85.883897,35.616851],[-85.880089,35.61507],[-85.879035,35.614071],[-85.876073,35.61318],[-85.875901,35.614471],[-85.87427,35.615171],[-85.870892,35.613155],[-85.866154,35.613448],[-85.865166,35.614213],[-85.862551,35.611889],[-85.86105,35.612186],[-85.86213,35.610598],[-85.859773,35.609591],[-85.853804,35.605694],[-85.851508,35.605092],[-85.84865,35.606761],[-85.846606,35.606777],[-85.847306,35.606486],[-85.849437,35.601451],[-85.854116,35.60506],[-85.858214,35.6044],[-85.859195,35.601756],[-85.860325,35.6012],[-85.861057,35.599458],[-85.863552,35.596258],[-85.866666,35.594037],[-85.866598,35.593158],[-85.864177,35.593075],[-85.858544,35.594295],[-85.854742,35.593306],[-85.851114,35.592987],[-85.845029,35.593447],[-85.843378,35.592031],[-85.83925,35.59189],[-85.837658,35.590771],[-85.835016,35.590582],[-85.835217,35.588347],[-85.831732,35.582264],[-85.830272,35.580599],[-85.830963,35.576658],[-85.8286,35.576129],[-85.827671,35.575108],[-85.829151,35.575625],[-85.830725,35.574635],[-85.833705,35.573986],[-85.834767,35.573195],[-85.834464,35.570172],[-85.832311,35.5702],[-85.830461,35.569063],[-85.828813,35.568997],[-85.827299,35.566953],[-85.823499,35.565591],[-85.825154,35.561708],[-85.826304,35.560032],[-85.828442,35.554993],[-85.828976,35.551652],[-85.827573,35.552029],[-85.823008,35.551818],[-85.821194,35.552631],[-85.817775,35.552885],[-85.81858,35.549113],[-85.818038,35.547212],[-85.816895,35.545209],[-85.813232,35.544699],[-85.811634,35.543778],[-85.809697,35.543874],[-85.807297,35.542102],[-85.807088,35.538208],[-85.805199,35.536345],[-85.799812,35.533245],[-85.796394,35.532169],[-85.795567,35.530302],[-85.795921,35.528591],[-85.794925,35.5247],[-85.795245,35.523917],[-85.791307,35.517884],[-85.815908,35.513715],[-85.814095,35.511918],[-85.814041,35.510984],[-85.810754,35.508351],[-85.810196,35.506691],[-85.808724,35.50651],[-85.807898,35.503025],[-85.802156,35.49854],[-85.800448,35.494406],[-85.798266,35.494023],[-85.797339,35.49057],[-85.794608,35.487629],[-85.791489,35.485687],[-85.785685,35.485562],[-85.784957,35.485889],[-85.784068,35.484066],[-85.785764,35.482954],[-85.784233,35.481117],[-85.785186,35.476926],[-85.782143,35.473206],[-85.782093,35.471637],[-85.777883,35.470719],[-85.775756,35.473424],[-85.772436,35.475923],[-85.77189,35.479379],[-85.772507,35.480919],[-85.769523,35.483209],[-85.769024,35.484962],[-85.769386,35.487303],[-85.767917,35.489065],[-85.764123,35.489407],[-85.763271,35.490496],[-85.760795,35.491501],[-85.758533,35.493439],[-85.758661,35.495818],[-85.752654,35.494155],[-85.752575,35.492237],[-85.749532,35.489658],[-85.748756,35.486659],[-85.746994,35.483733],[-85.744897,35.482273],[-85.744743,35.481401],[-85.74148,35.477196],[-85.741343,35.478824],[-85.737187,35.480157],[-85.730125,35.481252],[-85.73018,35.475415],[-85.729666,35.473488],[-85.728645,35.474389],[-85.726005,35.474192],[-85.725609,35.475143],[-85.723772,35.475329],[-85.724822,35.474747],[-85.724763,35.4731],[-85.725851,35.471946],[-85.696416,35.470104],[-85.693997,35.469252],[-85.690463,35.470107],[-85.688827,35.470056],[-85.688538,35.470998],[-85.684938,35.472807],[-85.679405,35.473359],[-85.674458,35.475095],[-85.673505,35.477408],[-85.674401,35.478782],[-85.673505,35.479721],[-85.673785,35.483522],[-85.674849,35.484369],[-85.67482,35.485995],[-85.675819,35.487016],[-85.675192,35.48795],[-85.674458,35.493951],[-85.674339,35.500804],[-85.672939,35.503728],[-85.673546,35.505507],[-85.674533,35.505935],[-85.675861,35.508262],[-85.676579,35.510862],[-85.676095,35.513231],[-85.677083,35.516538],[-85.679118,35.517719],[-85.681717,35.516449],[-85.68452,35.516525],[-85.689445,35.520783],[-85.687592,35.523002],[-85.688863,35.524843],[-85.686853,35.52537],[-85.686638,35.527624],[-85.688123,35.529248],[-85.683849,35.529265],[-85.683064,35.527648],[-85.679943,35.526649],[-85.678376,35.525182],[-85.675853,35.524123],[-85.672878,35.517676],[-85.671656,35.516795],[-85.669468,35.513617],[-85.667176,35.511426],[-85.665849,35.508902],[-85.664124,35.506951],[-85.663034,35.504806],[-85.660076,35.503018],[-85.654646,35.497067],[-85.653128,35.493085],[-85.652105,35.487771],[-85.650957,35.484561],[-85.649405,35.482014],[-85.649091,35.479913],[-85.650215,35.476331],[-85.649644,35.475429],[-85.645854,35.472633],[-85.64355,35.472367],[-85.642667,35.470943],[-85.641267,35.470814],[-85.640638,35.469149],[-85.637545,35.46471],[-85.643018,35.46782],[-85.644812,35.467871],[-85.647395,35.468962],[-85.649187,35.468905],[-85.652039,35.470451],[-85.654424,35.471112],[-85.656093,35.470275],[-85.654018,35.470168],[-85.650323,35.466716],[-85.645863,35.465256],[-85.64262,35.462751],[-85.640505,35.459669],[-85.637825,35.457864],[-85.634727,35.454592],[-85.634998,35.453195],[-85.636554,35.45113],[-85.638735,35.450162],[-85.642504,35.449329],[-85.645573,35.446977],[-85.649186,35.445787],[-85.652912,35.446849],[-85.652382,35.448893],[-85.651242,35.449508],[-85.652872,35.450232],[-85.653932,35.449364],[-85.654184,35.447118],[-85.652143,35.446365],[-85.648209,35.44328],[-85.646671,35.4434],[-85.644711,35.441998],[-85.642125,35.442926],[-85.642595,35.442025],[-85.642207,35.439425],[-85.644493,35.437308],[-85.643725,35.437414],[-85.641684,35.439702],[-85.641619,35.442637],[-85.638394,35.444721],[-85.636743,35.444743],[-85.6354,35.445682],[-85.629131,35.447052],[-85.627423,35.447715],[-85.626303,35.449134],[-85.625881,35.451904],[-85.623652,35.45412],[-85.623734,35.455175],[-85.621235,35.455281],[-85.618065,35.456052],[-85.616896,35.455558],[-85.613855,35.457372],[-85.607435,35.458974],[-85.604223,35.457595],[-85.600966,35.457464],[-85.59678,35.454086],[-85.59336,35.452668],[-85.59244,35.452938],[-85.589848,35.451828],[-85.584219,35.451252],[-85.578336,35.451044],[-85.575481,35.450368],[-85.574232,35.449335],[-85.571297,35.448242],[-85.565756,35.447846],[-85.564098,35.447049],[-85.559665,35.446961],[-85.55843,35.445983],[-85.55845,35.443999],[-85.555522,35.443707],[-85.553326,35.440355],[-85.553165,35.438475],[-85.548693,35.438557],[-85.547518,35.437018],[-85.545276,35.436573],[-85.542261,35.436621],[-85.54173,35.437687],[-85.540058,35.437357],[-85.540239,35.438912],[-85.539191,35.440022],[-85.539875,35.441858],[-85.537985,35.445394],[-85.540117,35.459028],[-85.541332,35.461405],[-85.53683,35.481109],[-85.536658,35.487095],[-85.540232,35.490677],[-85.554276,35.497903],[-85.55797,35.50029],[-85.56957,35.505776],[-85.573229,35.50933],[-85.576943,35.512479],[-85.580454,35.514863],[-85.584933,35.516304],[-85.587464,35.518486],[-85.589775,35.521363],[-85.596282,35.524913],[-85.59872,35.526904],[-85.600457,35.527842],[-85.605136,35.529673],[-85.607326,35.531651],[-85.557535,35.532977],[-85.556713,35.536495],[-85.553282,35.535198],[-85.546132,35.536285],[-85.544739,35.542534],[-85.543566,35.542718],[-85.532995,35.54172],[-85.529892,35.540332],[-85.526798,35.541685],[-85.523415,35.542599],[-85.516979,35.543887],[-85.513468,35.544234],[-85.504781,35.545823],[-85.503539,35.545008],[-85.49523,35.547752],[-85.492257,35.54757],[-85.492132,35.548838],[-85.493154,35.549568],[-85.493283,35.551277],[-85.495551,35.554063],[-85.497515,35.554567],[-85.497415,35.555694],[-85.495412,35.557223],[-85.496249,35.5613],[-85.493385,35.562928],[-85.493225,35.564417],[-85.491854,35.565407],[-85.491559,35.567352],[-85.494156,35.568807],[-85.495335,35.570637],[-85.497588,35.570405],[-85.499143,35.573289],[-85.500472,35.573699],[-85.503439,35.573316],[-85.502965,35.577218],[-85.504815,35.576317],[-85.506349,35.576598],[-85.5078,35.578336],[-85.510242,35.579139],[-85.50905,35.580386],[-85.509325,35.581452],[-85.510853,35.580596],[-85.513059,35.5808],[-85.515076,35.582257],[-85.513427,35.583856],[-85.513575,35.584658],[-85.515034,35.584538],[-85.516998,35.585281],[-85.51823,35.58383],[-85.520174,35.585276],[-85.520415,35.586634],[-85.522473,35.588382],[-85.522996,35.591059],[-85.521562,35.592704],[-85.522416,35.592753],[-85.525245,35.590971],[-85.527453,35.591342],[-85.528617,35.590046],[-85.529907,35.587279],[-85.533078,35.583944],[-85.533905,35.580793],[-85.541493,35.586295],[-85.543176,35.587507],[-85.545925,35.591052],[-85.554314,35.59643],[-85.556759,35.600803],[-85.557496,35.604908],[-85.555373,35.609155],[-85.554875,35.612169],[-85.557233,35.61239],[-85.560639,35.61215],[-85.562968,35.612603],[-85.566073,35.61174],[-85.567442,35.612132],[-85.56856,35.613548],[-85.57093,35.613436],[-85.573381,35.614148],[-85.575762,35.616367],[-85.580096,35.618336],[-85.583427,35.620278],[-85.586499,35.620091],[-85.590084,35.622521],[-85.591486,35.625213],[-85.594325,35.626545],[-85.594967,35.628986],[-85.593184,35.631492],[-85.590901,35.633013],[-85.590477,35.636426],[-85.592117,35.63851],[-85.595358,35.641867],[-85.594738,35.644549],[-85.59529,35.645651],[-85.597375,35.646696],[-85.603362,35.693637],[-85.606205,35.689982],[-85.607719,35.686981],[-85.608194,35.683753],[-85.612571,35.681507],[-85.617086,35.676147],[-85.621132,35.675215],[-85.624085,35.675689],[-85.624977,35.674628],[-85.627798,35.673681],[-85.630081,35.674249],[-85.63338,35.677432],[-85.636521,35.67792],[-85.639939,35.679102],[-85.641722,35.678768],[-85.645458,35.679592],[-85.652421,35.679357],[-85.649615,35.682719],[-85.649142,35.684103],[-85.648821,35.689771],[-85.648324,35.691223],[-85.645519,35.693696],[-85.644658,35.698306],[-85.644608,35.700588],[-85.643755,35.70557],[-85.644816,35.708753],[-85.644055,35.711208],[-85.64875,35.711523],[-85.649037,35.712584],[-85.654699,35.715801],[-85.6572,35.715075],[-85.65631,35.714043],[-85.657451,35.71123],[-85.658014,35.707333],[-85.655804,35.705997],[-85.657138,35.703674],[-85.660694,35.705094],[-85.66487,35.707675],[-85.667755,35.708084],[-85.669263,35.707609],[-85.672231,35.707817],[-85.673081,35.706581],[-85.677115,35.706699],[-85.681917,35.708149],[-85.68331,35.709216],[-85.689336,35.710475],[-85.694156,35.711107],[-85.696821,35.711007],[-85.6994,35.711876],[-85.700926,35.713287],[-85.696111,35.716922],[-85.694705,35.719169],[-85.690567,35.720691],[-85.690521,35.7218],[-85.688288,35.72422],[-85.690537,35.72671],[-85.693352,35.728461],[-85.695369,35.729022],[-85.698865,35.731404],[-85.700372,35.733121],[-85.698789,35.734398],[-85.700684,35.736306],[-85.7003,35.740857],[-85.695887,35.74083],[-85.693447,35.742204],[-85.692598,35.745517],[-85.694383,35.746066],[-85.696625,35.745427],[-85.698403,35.746242],[-85.698568,35.749257],[-85.700607,35.751381],[-85.706291,35.752287],[-85.712331,35.751468],[-85.71492,35.751494],[-85.717017,35.752676],[-85.71755,35.754863],[-85.716095,35.757226],[-85.713587,35.757924],[-85.709393,35.758189],[-85.70665,35.759343],[-85.706198,35.760948],[-85.706907,35.763487],[-85.708451,35.763965],[-85.712193,35.762931],[-85.714418,35.763645],[-85.713178,35.765893],[-85.710205,35.766201],[-85.705842,35.765202],[-85.702545,35.765279],[-85.701358,35.766186],[-85.701008,35.767329],[-85.702107,35.769065],[-85.706652,35.77084],[-85.70877,35.773587],[-85.708939,35.775049],[-85.707315,35.777572],[-85.706135,35.778286],[-85.702824,35.778424],[-85.6974,35.777647],[-85.697087,35.783495],[-85.696059,35.786313],[-85.695581,35.793196],[-85.697126,35.79347],[-85.700156,35.79179],[-85.701167,35.78968],[-85.707371,35.790381],[-85.708756,35.790864],[-85.7128,35.790508],[-85.715515,35.78911],[-85.718458,35.791182],[-85.721042,35.792241],[-85.725025,35.792263],[-85.728734,35.793324],[-85.730194,35.793305],[-85.732735,35.795019],[-85.733807,35.79706],[-85.733775,35.799321],[-85.746625,35.799696],[-85.749211,35.800921],[-85.751047,35.802449],[-85.74967,35.803758],[-85.752086,35.804644],[-85.754482,35.80282],[-85.758084,35.803465],[-85.760055,35.802768],[-85.760662,35.801928],[-85.760159,35.797921],[-85.761597,35.796389],[-85.76426,35.798225],[-85.765751,35.798268],[-85.765886,35.801314],[-85.767923,35.802329],[-85.766798,35.805672],[-85.77214,35.807472],[-85.776449,35.807936],[-85.776033,35.808924],[-85.778279,35.809892],[-85.77867,35.810947],[-85.780713,35.812431],[-85.782217,35.815828],[-85.781129,35.820059],[-85.784137,35.823995],[-85.785221,35.826012],[-85.791246,35.826776],[-85.792151,35.830541],[-85.795334,35.831605],[-85.79523,35.834299],[-85.796179,35.840301],[-85.798694,35.841599],[-85.806342,35.842288],[-85.806669,35.843498],[-85.812424,35.845651],[-85.813624,35.845816],[-85.817686,35.838516],[-85.817848,35.836681],[-85.818773,35.834351],[-85.821325,35.832454],[-85.822088,35.830777],[-85.858429,35.835696],[-85.863521,35.836207],[-85.866426,35.833541],[-85.867322,35.832249],[-85.869786,35.827274],[-85.866988,35.825289],[-85.865111,35.824416],[-85.862485,35.822126],[-85.858741,35.820535],[-85.858542,35.816519],[-85.860223,35.817034],[-85.866586,35.817259],[-85.873717,35.818355],[-85.876485,35.819735],[-85.884918,35.827962],[-85.888335,35.829212],[-85.895674,35.829877],[-85.885595,35.830539],[-85.885556,35.837304],[-85.885156,35.839658],[-85.885768,35.84283],[-85.889589,35.842771],[-85.894269,35.844095],[-85.895294,35.846119],[-85.897178,35.846822],[-85.903081,35.847559],[-85.906714,35.84636],[-85.907418,35.84347],[-85.910778,35.842214],[-85.91579,35.842413],[-85.929881,35.844065],[-85.932949,35.844795],[-85.935852,35.844661],[-85.932712,35.839773],[-85.928654,35.831728],[-85.927671,35.830222],[-85.921932,35.823349],[-85.925574,35.82354],[-85.928372,35.82285],[-85.92927,35.821905],[-85.929198,35.819743],[-85.931778,35.819303],[-85.931935,35.818235],[-85.927521,35.814549],[-85.926992,35.813595],[-85.927492,35.811366],[-85.923442,35.810429],[-85.942133,35.786779],[-85.944692,35.78781],[-85.945798,35.789354],[-85.946176,35.794828],[-85.947127,35.796707],[-85.950028,35.798147],[-85.952558,35.798103],[-85.954413,35.799218],[-85.956331,35.801189],[-85.960532,35.796949],[-85.961978,35.793619],[-85.962321,35.787981],[-85.963934,35.785709],[-85.964727,35.782656],[-85.961438,35.781201],[-85.960271,35.779737],[-85.958494,35.774763],[-85.954239,35.770211],[-85.953382,35.768591],[-85.954798,35.767081],[-85.962273,35.762277],[-85.961282,35.761379],[-85.962456,35.760076],[-85.962947,35.756949],[-85.964396,35.755427],[-85.964711,35.751968],[-85.962842,35.75159],[-85.964341,35.743527],[-85.963475,35.736012],[-85.961244,35.733568],[-85.961036,35.73019],[-85.961952,35.728315],[-85.959694,35.726205],[-85.956425,35.725475],[-85.955912,35.724387],[-85.958331,35.722452],[-85.960198,35.722171],[-85.961449,35.720295],[-85.967001,35.719757]]]}},{"type":"Feature","properties":{"zcta5":"38585","AFFGEOID10":"8600000US38585","GEOID10":"38585","ALAND10":429047820,"AWATER10":810026,"county_name":"Sequatchie","state_code":"TN","county_state":"Sequatchie County, TN","county_fips":"47153","risk_level_county":"Medium Risk (70–79% vaccinated)","mean_vaccination_rate_county":70.78,"risk_level_zcta":"Medium Risk (70–79% vaccinated)","mean_vaccination_rate_zips":74.84,"cases":3},"geometry":{"type":"Polygon","coordinates":[[[-85.495565,35.768847],[-85.497428,35.766503],[-85.49636,35.76553],[-85.497736,35.76311],[-85.50118,35.763005],[-85.504483,35.76424],[-85.50709,35.762012],[-85.508753,35.761567],[-85.507711,35.758745],[-85.509293,35.758173],[-85.511922,35.758334],[-85.513622,35.756818],[-85.515125,35.756604],[-85.51684,35.751945],[-85.515625,35.748682],[-85.512721,35.747136],[-85.513402,35.746548],[-85.517084,35.744374],[-85.520569,35.744265],[-85.5234,35.743629],[-85.525362,35.743701],[-85.525733,35.742454],[-85.524494,35.739689],[-85.52095,35.738226],[-85.519096,35.736352],[-85.523035,35.734824],[-85.527593,35.734449],[-85.531001,35.732811],[-85.535013,35.733958],[-85.540012,35.733539],[-85.5398,35.730562],[-85.549838,35.714842],[-85.554408,35.701529],[-85.553517,35.700769],[-85.551812,35.697607],[-85.549264,35.69545],[-85.548013,35.690593],[-85.54534,35.688039],[-85.546479,35.687857],[-85.548247,35.684171],[-85.548191,35.682911],[-85.549679,35.681744],[-85.550661,35.678492],[-85.553731,35.676209],[-85.553283,35.673267],[-85.554915,35.669431],[-85.55823,35.669472],[-85.559817,35.667163],[-85.562396,35.661272],[-85.56173,35.66014],[-85.562289,35.658805],[-85.56515,35.656277],[-85.563218,35.656387],[-85.557421,35.653139],[-85.555091,35.650803],[-85.546389,35.645946],[-85.544829,35.646182],[-85.542514,35.645409],[-85.541845,35.642694],[-85.540622,35.641719],[-85.539978,35.639652],[-85.53761,35.637336],[-85.533329,35.636555],[-85.530402,35.633856],[-85.529939,35.630157],[-85.528251,35.627871],[-85.528211,35.626161],[-85.52489,35.624549],[-85.523538,35.622213],[-85.520376,35.619826],[-85.519165,35.619793],[-85.516111,35.617626],[-85.515621,35.615884],[-85.51754,35.613692],[-85.518564,35.611714],[-85.523465,35.608276],[-85.523244,35.606534],[-85.524328,35.605485],[-85.527712,35.60536],[-85.529133,35.604283],[-85.528171,35.602661],[-85.529814,35.600722],[-85.528845,35.599381],[-85.527513,35.599974],[-85.527595,35.59788],[-85.528685,35.596023],[-85.529977,35.59609],[-85.530981,35.593518],[-85.532435,35.591403],[-85.534703,35.589365],[-85.536028,35.589629],[-85.538195,35.587854],[-85.541493,35.586295],[-85.533905,35.580793],[-85.533078,35.583944],[-85.529907,35.587279],[-85.528617,35.590046],[-85.527453,35.591342],[-85.525245,35.590971],[-85.522416,35.592753],[-85.521562,35.592704],[-85.522996,35.591059],[-85.522473,35.588382],[-85.520415,35.586634],[-85.520174,35.585276],[-85.51823,35.58383],[-85.516998,35.585281],[-85.515034,35.584538],[-85.513575,35.584658],[-85.513427,35.583856],[-85.515076,35.582257],[-85.513059,35.5808],[-85.510853,35.580596],[-85.509325,35.581452],[-85.50905,35.580386],[-85.510242,35.579139],[-85.5078,35.578336],[-85.506349,35.576598],[-85.504815,35.576317],[-85.502965,35.577218],[-85.503439,35.573316],[-85.500472,35.573699],[-85.499143,35.573289],[-85.497588,35.570405],[-85.495335,35.570637],[-85.494156,35.568807],[-85.491559,35.567352],[-85.491854,35.565407],[-85.493225,35.564417],[-85.493385,35.562928],[-85.496249,35.5613],[-85.495412,35.557223],[-85.497415,35.555694],[-85.497515,35.554567],[-85.495551,35.554063],[-85.493283,35.551277],[-85.493154,35.549568],[-85.492132,35.548838],[-85.492257,35.54757],[-85.486399,35.547082],[-85.474464,35.547634],[-85.46511,35.547257],[-85.459856,35.54685],[-85.46016,35.55044],[-85.455855,35.552032],[-85.454984,35.552727],[-85.45352,35.55813],[-85.423804,35.567422],[-85.374966,35.612075],[-85.374372,35.612778],[-85.360032,35.625674],[-85.360952,35.627596],[-85.357963,35.630069],[-85.357801,35.631853],[-85.358929,35.635423],[-85.360363,35.636186],[-85.361201,35.638459],[-85.363558,35.639963],[-85.363965,35.643911],[-85.363378,35.645299],[-85.363447,35.647658],[-85.361484,35.649255],[-85.361413,35.651058],[-85.363491,35.651509],[-85.363521,35.652301],[-85.366935,35.654812],[-85.372435,35.656831],[-85.375488,35.657239],[-85.376817,35.658776],[-85.378237,35.658308],[-85.380029,35.656607],[-85.381398,35.656339],[-85.385695,35.657397],[-85.386355,35.659628],[-85.385126,35.661515],[-85.386496,35.663776],[-85.387699,35.664483],[-85.391025,35.669142],[-85.391497,35.671449],[-85.393816,35.674555],[-85.39566,35.67766],[-85.402146,35.678806],[-85.40159,35.680204],[-85.406889,35.681327],[-85.408212,35.682708],[-85.41047,35.682948],[-85.431129,35.684374],[-85.43036,35.685087],[-85.430813,35.688301],[-85.429967,35.691886],[-85.42777,35.693697],[-85.427144,35.696012],[-85.423747,35.695823],[-85.421288,35.694238],[-85.416809,35.693887],[-85.415682,35.694689],[-85.412681,35.693741],[-85.40987,35.692241],[-85.408097,35.690534],[-85.406035,35.689878],[-85.403448,35.691174],[-85.401756,35.690629],[-85.3987,35.692208],[-85.395625,35.690998],[-85.394308,35.691057],[-85.393319,35.692312],[-85.390482,35.692844],[-85.387355,35.697257],[-85.387615,35.700562],[-85.38434,35.704218],[-85.383674,35.706256],[-85.38002,35.707795],[-85.380462,35.704083],[-85.378801,35.702543],[-85.377561,35.702673],[-85.376092,35.700172],[-85.376265,35.694494],[-85.374463,35.690347],[-85.368906,35.687178],[-85.366228,35.686719],[-85.362262,35.689999],[-85.357738,35.690649],[-85.356086,35.691532],[-85.354464,35.690341],[-85.351833,35.693005],[-85.349605,35.693719],[-85.349524,35.695538],[-85.350762,35.694753],[-85.351443,35.696815],[-85.353463,35.697409],[-85.352926,35.698538],[-85.354306,35.700267],[-85.354075,35.702467],[-85.349951,35.70631],[-85.348724,35.707038],[-85.348315,35.708872],[-85.340444,35.703677],[-85.335322,35.70161],[-85.336645,35.703924],[-85.33723,35.706614],[-85.330691,35.708814],[-85.331184,35.710173],[-85.330245,35.71344],[-85.328185,35.714266],[-85.329184,35.715061],[-85.329929,35.717673],[-85.330999,35.718949],[-85.333706,35.71968],[-85.338417,35.718535],[-85.34065,35.71869],[-85.342894,35.717606],[-85.345061,35.717595],[-85.347275,35.718391],[-85.348126,35.720452],[-85.347006,35.721026],[-85.344995,35.726009],[-85.342534,35.727417],[-85.340448,35.729218],[-85.339057,35.729008],[-85.334961,35.726442],[-85.331049,35.726869],[-85.332746,35.727836],[-85.332193,35.729745],[-85.334221,35.73055],[-85.337713,35.730657],[-85.336769,35.732293],[-85.336187,35.731178],[-85.333287,35.732121],[-85.332855,35.731506],[-85.327425,35.730333],[-85.326087,35.729364],[-85.32322,35.729435],[-85.321881,35.730638],[-85.31826,35.731717],[-85.316606,35.731043],[-85.313352,35.726988],[-85.30946,35.725844],[-85.309437,35.726589],[-85.305861,35.727132],[-85.300874,35.727163],[-85.297206,35.726858],[-85.295509,35.726287],[-85.294227,35.726928],[-85.29479,35.728477],[-85.293966,35.730052],[-85.290268,35.729528],[-85.288444,35.727988],[-85.28591,35.727342],[-85.284977,35.726506],[-85.28323,35.727398],[-85.283546,35.725932],[-85.281499,35.725547],[-85.280257,35.726814],[-85.278195,35.725879],[-85.277132,35.726497],[-85.276952,35.724685],[-85.273748,35.725312],[-85.272111,35.723283],[-85.270585,35.723184],[-85.269292,35.721996],[-85.267937,35.723107],[-85.266327,35.725817],[-85.267796,35.726748],[-85.270286,35.727103],[-85.270805,35.7286],[-85.268219,35.729921],[-85.267642,35.731265],[-85.270517,35.732299],[-85.269845,35.733881],[-85.267559,35.735962],[-85.267792,35.737072],[-85.269037,35.737523],[-85.266754,35.740116],[-85.264992,35.740813],[-85.266236,35.742716],[-85.267885,35.742388],[-85.269013,35.743414],[-85.270427,35.747175],[-85.268177,35.747876],[-85.2659,35.746563],[-85.265066,35.747207],[-85.264873,35.75023],[-85.261889,35.750608],[-85.259657,35.750291],[-85.259358,35.752404],[-85.26023,35.753402],[-85.262274,35.753445],[-85.264395,35.755026],[-85.263442,35.756011],[-85.261375,35.755642],[-85.260952,35.756754],[-85.263769,35.758192],[-85.265532,35.758354],[-85.265775,35.760476],[-85.264077,35.76079],[-85.262178,35.761858],[-85.259601,35.760014],[-85.258066,35.760244],[-85.255092,35.762219],[-85.256295,35.763118],[-85.256931,35.764635],[-85.254062,35.765611],[-85.253518,35.766927],[-85.25429,35.768218],[-85.256125,35.768277],[-85.257842,35.771483],[-85.255871,35.774128],[-85.25678,35.775167],[-85.2586,35.774874],[-85.259497,35.775945],[-85.258988,35.777206],[-85.255304,35.777754],[-85.256585,35.779418],[-85.256846,35.780818],[-85.257667,35.781476],[-85.260971,35.779112],[-85.26294,35.778764],[-85.266535,35.780011],[-85.268056,35.779556],[-85.270213,35.78227],[-85.273945,35.78365],[-85.274319,35.784433],[-85.273533,35.787037],[-85.272664,35.787718],[-85.273288,35.787948],[-85.269359,35.793388],[-85.268569,35.794633],[-85.268453,35.79697],[-85.271727,35.798344],[-85.274029,35.797861],[-85.276278,35.799243],[-85.276984,35.80179],[-85.276982,35.804129],[-85.277535,35.805095],[-85.277184,35.807519],[-85.277446,35.809461],[-85.274601,35.81011],[-85.273904,35.811084],[-85.271923,35.812129],[-85.270425,35.814769],[-85.268059,35.816999],[-85.265651,35.820255],[-85.265064,35.821973],[-85.274379,35.81965],[-85.277093,35.818752],[-85.320371,35.80758],[-85.362267,35.796774],[-85.363021,35.79689],[-85.362261,35.79595],[-85.362676,35.79384],[-85.364908,35.79127],[-85.366058,35.79089],[-85.368263,35.788622],[-85.365823,35.786815],[-85.363984,35.784757],[-85.363857,35.783287],[-85.364878,35.781809],[-85.363226,35.781575],[-85.362448,35.779762],[-85.362775,35.777025],[-85.365108,35.775005],[-85.370207,35.777302],[-85.376997,35.781046],[-85.379141,35.778769],[-85.379349,35.777475],[-85.380883,35.775507],[-85.381357,35.777428],[-85.383128,35.7792],[-85.387457,35.780499],[-85.39019,35.781956],[-85.392428,35.782024],[-85.393336,35.782966],[-85.394146,35.785671],[-85.395335,35.786309],[-85.398289,35.786381],[-85.399167,35.787095],[-85.40224,35.787655],[-85.401485,35.78467],[-85.404694,35.782325],[-85.405648,35.782584],[-85.407066,35.788165],[-85.40717,35.790921],[-85.410312,35.795912],[-85.411797,35.796687],[-85.413099,35.796161],[-85.417639,35.797302],[-85.419119,35.798126],[-85.422408,35.800897],[-85.426397,35.802441],[-85.428226,35.802699],[-85.428935,35.800215],[-85.42809,35.798808],[-85.425451,35.798417],[-85.424345,35.797183],[-85.425971,35.794021],[-85.428007,35.79217],[-85.42522,35.792],[-85.423836,35.790716],[-85.425592,35.790244],[-85.427139,35.788788],[-85.426014,35.786449],[-85.428411,35.784026],[-85.43078,35.782669],[-85.444624,35.792503],[-85.450762,35.793881],[-85.451406,35.797245],[-85.455028,35.799281],[-85.459845,35.799558],[-85.460268,35.797976],[-85.45998,35.795258],[-85.458194,35.792078],[-85.458037,35.790485],[-85.460206,35.786031],[-85.460862,35.782633],[-85.463668,35.778225],[-85.464196,35.776061],[-85.463624,35.773504],[-85.465758,35.77922],[-85.466993,35.779591],[-85.469577,35.777975],[-85.470058,35.77559],[-85.47282,35.773384],[-85.475415,35.771863],[-85.47835,35.772316],[-85.482761,35.770954],[-85.484774,35.776095],[-85.48671,35.777482],[-85.489094,35.776457],[-85.493032,35.775869],[-85.494115,35.77524],[-85.492994,35.772565],[-85.491195,35.769619],[-85.492787,35.769696],[-85.495565,35.768847]]]}},{"type":"Feature","properties":{"zcta5":"37365","AFFGEOID10":"8600000US37365","GEOID10":"37365","ALAND10":117259412,"AWATER10":64085,"county_name":"Sequatchie","state_code":"TN","county_state":"Sequatchie County, TN","county_fips":"47153","risk_level_county":"Medium Risk (70–79% vaccinated)","mean_vaccination_rate_county":70.78,"risk_level_zcta":"Medium Risk (70–79% vaccinated)","mean_vaccination_rate_zips":74.65,"cases":3},"geometry":{"type":"Polygon","coordinates":[[[-85.623652,35.45412],[-85.621124,35.450291],[-85.617906,35.448973],[-85.615602,35.448441],[-85.614258,35.446963],[-85.610751,35.444069],[-85.60897,35.442987],[-85.605995,35.442433],[-85.603939,35.44001],[-85.602842,35.43557],[-85.604017,35.434151],[-85.60478,35.4302],[-85.603369,35.428881],[-85.602732,35.429387],[-85.599796,35.427014],[-85.599863,35.424843],[-85.599331,35.422475],[-85.598229,35.420788],[-85.595469,35.419134],[-85.595555,35.416222],[-85.593338,35.412034],[-85.588907,35.409172],[-85.587697,35.406227],[-85.586778,35.405507],[-85.587818,35.403726],[-85.589059,35.403534],[-85.590494,35.400308],[-85.591863,35.399038],[-85.593286,35.398807],[-85.593547,35.395817],[-85.594963,35.396141],[-85.596835,35.395052],[-85.597888,35.392881],[-85.596357,35.391491],[-85.596114,35.389623],[-85.594846,35.388766],[-85.596182,35.38743],[-85.592648,35.387294],[-85.590869,35.384088],[-85.591041,35.383394],[-85.581871,35.383023],[-85.579371,35.382637],[-85.574584,35.380702],[-85.57677,35.379611],[-85.57772,35.378029],[-85.57588,35.377954],[-85.573785,35.376997],[-85.579092,35.373542],[-85.596661,35.361321],[-85.595777,35.359986],[-85.59718,35.357769],[-85.598746,35.357045],[-85.599321,35.355954],[-85.599086,35.353112],[-85.59974,35.352283],[-85.597343,35.351121],[-85.599932,35.350043],[-85.602984,35.350762],[-85.606277,35.350349],[-85.608558,35.349167],[-85.610039,35.347567],[-85.613829,35.346159],[-85.61477,35.344427],[-85.617057,35.343098],[-85.618695,35.341313],[-85.620523,35.340265],[-85.624608,35.3369],[-85.625874,35.335455],[-85.626111,35.332336],[-85.623866,35.330612],[-85.619281,35.32973],[-85.623429,35.328157],[-85.625149,35.326857],[-85.62649,35.324354],[-85.628644,35.323377],[-85.63049,35.321773],[-85.630342,35.319588],[-85.630829,35.318042],[-85.630241,35.314321],[-85.630982,35.311666],[-85.633106,35.306503],[-85.632885,35.3037],[-85.590324,35.31247],[-85.584356,35.313548],[-85.579242,35.314746],[-85.560119,35.318691],[-85.558551,35.319292],[-85.551172,35.328578],[-85.544244,35.338148],[-85.543839,35.34004],[-85.542347,35.341453],[-85.538887,35.343205],[-85.535061,35.343675],[-85.533619,35.343234],[-85.529023,35.342831],[-85.528737,35.344546],[-85.52696,35.344258],[-85.526324,35.34842],[-85.523353,35.348852],[-85.520686,35.350961],[-85.519734,35.350804],[-85.515108,35.354872],[-85.514192,35.353619],[-85.506528,35.357477],[-85.507366,35.358911],[-85.50655,35.361831],[-85.504263,35.36291],[-85.502928,35.365435],[-85.505475,35.366677],[-85.505718,35.36897],[-85.503584,35.368724],[-85.502743,35.371009],[-85.499499,35.373159],[-85.500227,35.373827],[-85.498492,35.376881],[-85.495993,35.378496],[-85.49428,35.380763],[-85.492542,35.381163],[-85.489224,35.383494],[-85.494578,35.386388],[-85.494088,35.391724],[-85.495873,35.39333],[-85.494535,35.394966],[-85.492172,35.395093],[-85.491812,35.397555],[-85.491001,35.399083],[-85.488586,35.40175],[-85.485635,35.406433],[-85.512878,35.407612],[-85.511751,35.421063],[-85.512284,35.422958],[-85.518246,35.423891],[-85.520466,35.421557],[-85.52355,35.424002],[-85.52768,35.426244],[-85.528303,35.429564],[-85.528097,35.430911],[-85.524932,35.435391],[-85.524778,35.437869],[-85.523453,35.439395],[-85.522133,35.439803],[-85.521816,35.444072],[-85.524518,35.447471],[-85.522811,35.449925],[-85.522219,35.45167],[-85.522415,35.455811],[-85.524102,35.455053],[-85.525834,35.45584],[-85.526902,35.455098],[-85.526755,35.453917],[-85.529274,35.45372],[-85.529784,35.452994],[-85.533909,35.450638],[-85.535186,35.448864],[-85.535187,35.446456],[-85.53657,35.446468],[-85.537985,35.445394],[-85.539875,35.441858],[-85.539191,35.440022],[-85.540239,35.438912],[-85.540058,35.437357],[-85.54173,35.437687],[-85.542261,35.436621],[-85.545276,35.436573],[-85.547518,35.437018],[-85.548693,35.438557],[-85.553165,35.438475],[-85.553326,35.440355],[-85.555522,35.443707],[-85.55845,35.443999],[-85.55843,35.445983],[-85.559665,35.446961],[-85.564098,35.447049],[-85.565756,35.447846],[-85.571297,35.448242],[-85.574232,35.449335],[-85.575481,35.450368],[-85.578336,35.451044],[-85.584219,35.451252],[-85.589848,35.451828],[-85.59244,35.452938],[-85.59336,35.452668],[-85.59678,35.454086],[-85.600966,35.457464],[-85.604223,35.457595],[-85.607435,35.458974],[-85.613855,35.457372],[-85.616896,35.455558],[-85.618065,35.456052],[-85.621235,35.455281],[-85.623734,35.455175],[-85.623652,35.45412]]]}}]}