{"type":"FeatureCollection","features":[{"type":"Feature","properties":{"zcta5":"57429","AFFGEOID10":"8600000US57429","GEOID10":"57429","ALAND10":70103543,"AWATER10":0,"county_name":"Spink","state_code":"SD","county_state":"Spink County, SD","county_fips":"46115","risk_level_county":"Lower Risk (80–84% vaccinated)","mean_vaccination_rate_county":80.94,"risk_level_zcta":"Medium Risk (70–79% vaccinated)","mean_vaccination_rate_zips":77.25,"cases":16},"geometry":{"type":"Polygon","coordinates":[[[-98.327182,45.241534],[-98.327549,45.210399],[-98.328931,45.209533],[-98.329778,45.170659],[-98.328899,45.170653],[-98.329213,45.156158],[-98.329914,45.12711],[-98.321108,45.127053],[-98.320848,45.112522],[-98.309434,45.112431],[-98.288766,45.112316],[-98.28879,45.097898],[-98.268331,45.097799],[-98.26762,45.241306],[-98.327182,45.241534]]]}},{"type":"Feature","properties":{"zcta5":"57258","AFFGEOID10":"8600000US57258","GEOID10":"57258","ALAND10":315046047,"AWATER10":563612,"county_name":"Spink","state_code":"SD","county_state":"Spink County, SD","county_fips":"46115","risk_level_county":"Lower Risk (80–84% vaccinated)","mean_vaccination_rate_county":80.94,"risk_level_zcta":"Higher Risk (60–69% vaccinated)","mean_vaccination_rate_zips":63.48,"cases":16},"geometry":{"type":"Polygon","coordinates":[[[-97.982379,45.022807],[-97.981975,45.00079],[-97.982371,44.999918],[-97.982806,44.938377],[-97.982876,44.937557],[-97.982727,44.896142],[-97.982823,44.892297],[-97.977194,44.892274],[-97.97701,44.805589],[-97.997404,44.805699],[-97.997294,44.776779],[-97.977055,44.776726],[-97.977171,44.718742],[-97.957608,44.718549],[-97.957708,44.776544],[-97.937529,44.776531],[-97.937483,44.762027],[-97.917043,44.761936],[-97.916974,44.747408],[-97.896797,44.747289],[-97.896714,44.718408],[-97.856207,44.718243],[-97.856051,44.877184],[-97.891792,44.877633],[-97.893583,44.877714],[-97.896854,44.878133],[-97.896753,44.891867],[-97.892779,44.891977],[-97.875052,44.891989],[-97.871088,44.892146],[-97.860442,44.892076],[-97.86088,44.977347],[-97.871032,44.977307],[-97.875012,44.977581],[-97.877674,44.978716],[-97.875523,44.9788],[-97.860888,44.978724],[-97.861365,45.036577],[-97.982278,45.037324],[-97.982379,45.022807]]]}},{"type":"Feature","properties":{"zcta5":"57424","AFFGEOID10":"8600000US57424","GEOID10":"57424","ALAND10":392724900,"AWATER10":756019,"county_name":"Spink","state_code":"SD","county_state":"Spink County, SD","county_fips":"46115","risk_level_county":"Lower Risk (80–84% vaccinated)","mean_vaccination_rate_county":80.94,"risk_level_zcta":"Medium Risk (70–79% vaccinated)","mean_vaccination_rate_zips":74.55,"cases":16},"geometry":{"type":"Polygon","coordinates":[[[-98.79867,45.056289],[-98.79863,45.041922],[-98.798496,45.041274],[-98.795222,45.041844],[-98.778142,45.041945],[-98.778973,45.039344],[-98.778136,45.038288],[-98.778108,45.027387],[-98.737397,45.027306],[-98.73711,44.98384],[-98.71659,44.983677],[-98.716589,44.954902],[-98.69636,44.954857],[-98.696444,44.969329],[-98.676252,44.969487],[-98.666199,44.976659],[-98.655716,44.976802],[-98.655601,44.969749],[-98.635163,44.969922],[-98.635277,44.984654],[-98.617435,44.9849],[-98.614921,44.984764],[-98.585681,44.984911],[-98.578469,44.970491],[-98.574636,44.961829],[-98.574542,44.956007],[-98.513525,44.955319],[-98.51287,44.926295],[-98.495962,44.926073],[-98.493423,44.925336],[-98.490352,44.925099],[-98.487896,44.925822],[-98.485556,44.925929],[-98.486286,44.927139],[-98.491292,44.925373],[-98.494502,44.926057],[-98.495237,44.927473],[-98.493623,44.928388],[-98.490975,44.927016],[-98.48962,44.927244],[-98.487777,44.929827],[-98.483289,44.931747],[-98.487076,44.933229],[-98.487491,44.934372],[-98.486103,44.935399],[-98.484231,44.935674],[-98.480067,44.937891],[-98.481283,44.939124],[-98.483786,44.938115],[-98.48616,44.939005],[-98.484834,44.94161],[-98.481927,44.94321],[-98.480083,44.945907],[-98.480498,44.946843],[-98.482522,44.946521],[-98.483837,44.947367],[-98.484149,44.950907],[-98.482979,44.954699],[-98.486477,44.95449],[-98.486796,44.955564],[-98.484276,44.957872],[-98.488258,44.958853],[-98.489701,44.957707],[-98.492816,44.95798],[-98.495709,44.960699],[-98.49452,44.961661],[-98.491975,44.960155],[-98.486953,44.960573],[-98.487019,44.96197],[-98.491595,44.962086],[-98.49353,44.964855],[-98.492728,44.966206],[-98.489153,44.965388],[-98.486319,44.965552],[-98.479884,44.969393],[-98.472343,44.969307],[-98.472255,44.954786],[-98.349965,44.952881],[-98.329644,44.952648],[-98.329869,44.996329],[-98.329699,45.02536],[-98.370568,45.025759],[-98.3706,45.040254],[-98.329638,45.039856],[-98.329701,45.054396],[-98.350094,45.054631],[-98.35008,45.069218],[-98.436698,45.070376],[-98.440579,45.070201],[-98.441669,45.070393],[-98.45232,45.070552],[-98.452339,45.085053],[-98.495487,45.085545],[-98.495525,45.071034],[-98.534209,45.071503],[-98.554669,45.071715],[-98.554398,45.042643],[-98.534025,45.042436],[-98.533889,45.030803],[-98.533288,45.027926],[-98.531726,45.027128],[-98.531757,45.021458],[-98.534017,45.021412],[-98.533973,45.013458],[-98.538863,45.013503],[-98.541179,45.012676],[-98.543147,45.013567],[-98.574603,45.013848],[-98.57502,45.057335],[-98.593861,45.057594],[-98.598164,45.057544],[-98.597364,45.062174],[-98.593996,45.071889],[-98.607584,45.072011],[-98.615527,45.07189],[-98.615545,45.074183],[-98.617974,45.074659],[-98.625919,45.074713],[-98.628755,45.075273],[-98.635979,45.075215],[-98.635985,45.071695],[-98.656375,45.071429],[-98.656565,45.100407],[-98.677016,45.100196],[-98.67676,45.071162],[-98.717256,45.070687],[-98.75743,45.070749],[-98.757715,45.067613],[-98.765639,45.067689],[-98.767901,45.06692],[-98.767891,45.063506],[-98.778456,45.063354],[-98.778229,45.056411],[-98.79867,45.056289]]]}},{"type":"Feature","properties":{"zcta5":"57322","AFFGEOID10":"8600000US57322","GEOID10":"57322","ALAND10":415883127,"AWATER10":328010,"county_name":"Spink","state_code":"SD","county_state":"Spink County, SD","county_fips":"46115","risk_level_county":"Lower Risk (80–84% vaccinated)","mean_vaccination_rate_county":80.94,"risk_level_zcta":"Higher Risk (60–69% vaccinated)","mean_vaccination_rate_zips":64.21,"cases":16},"geometry":{"type":"Polygon","coordinates":[[[-98.119401,44.689963],[-98.119393,44.63211],[-98.159929,44.632262],[-98.159939,44.617785],[-98.17999,44.61781],[-98.180121,44.606828],[-98.178761,44.605883],[-98.176192,44.606615],[-98.175291,44.605517],[-98.178414,44.603385],[-98.180087,44.603401],[-98.180049,44.595987],[-98.174979,44.595986],[-98.17498,44.58884],[-98.169815,44.588817],[-98.16992,44.592738],[-98.166358,44.59395],[-98.165519,44.595276],[-98.164671,44.594494],[-98.165668,44.592266],[-98.167913,44.58929],[-98.165112,44.58869],[-98.161679,44.588815],[-98.139463,44.588733],[-98.139464,44.580259],[-98.1344,44.580298],[-98.134215,44.578072],[-98.129343,44.578211],[-98.125184,44.576873],[-98.123848,44.574707],[-98.122401,44.574172],[-98.099041,44.574094],[-98.099055,44.588563],[-98.06841,44.588232],[-98.068226,44.603008],[-98.058668,44.60295],[-98.058553,44.562985],[-98.026668,44.57383],[-98.019247,44.573798],[-98.018134,44.574747],[-98.018139,44.573794],[-97.997818,44.573697],[-97.997848,44.560317],[-97.997491,44.559207],[-97.957436,44.559101],[-97.957395,44.544624],[-97.914018,44.54453],[-97.913807,44.527823],[-97.89368,44.527828],[-97.893646,44.513373],[-97.971847,44.513802],[-97.971905,44.499358],[-97.954182,44.499083],[-97.873367,44.498805],[-97.873356,44.48432],[-97.853212,44.484173],[-97.85321,44.543897],[-97.853028,44.544398],[-97.856271,44.544406],[-97.856226,44.631178],[-97.856232,44.689164],[-97.83635,44.689035],[-97.83621,44.718089],[-97.837908,44.718066],[-97.856207,44.718243],[-97.896714,44.718408],[-97.896797,44.747289],[-97.916974,44.747408],[-97.917043,44.761936],[-97.937483,44.762027],[-97.937529,44.776531],[-97.957708,44.776544],[-97.957608,44.718549],[-97.977171,44.718742],[-97.977395,44.660608],[-97.99765,44.660715],[-97.997402,44.704133],[-98.017781,44.704205],[-98.017764,44.718745],[-98.038064,44.718789],[-98.038113,44.704245],[-98.078675,44.704366],[-98.078759,44.689974],[-98.119401,44.689963]]]}},{"type":"Feature","properties":{"zcta5":"57440","AFFGEOID10":"8600000US57440","GEOID10":"57440","ALAND10":369096534,"AWATER10":1752714,"county_name":"Spink","state_code":"SD","county_state":"Spink County, SD","county_fips":"46115","risk_level_county":"Lower Risk (80–84% vaccinated)","mean_vaccination_rate_county":80.94,"risk_level_zcta":"Medium Risk (70–79% vaccinated)","mean_vaccination_rate_zips":79.42,"cases":16},"geometry":{"type":"Polygon","coordinates":[[[-98.349965,44.952881],[-98.349824,44.923896],[-98.370245,44.92412],[-98.370271,44.909625],[-98.349788,44.909355],[-98.349759,44.89485],[-98.351315,44.894866],[-98.351341,44.885092],[-98.346746,44.884977],[-98.346296,44.8844],[-98.341546,44.883363],[-98.341587,44.878784],[-98.34822,44.879593],[-98.354384,44.881502],[-98.355026,44.882292],[-98.354993,44.882823],[-98.35168,44.887211],[-98.352387,44.887666],[-98.358199,44.884238],[-98.360804,44.884088],[-98.36312,44.884486],[-98.364825,44.886004],[-98.363726,44.88862],[-98.360988,44.889818],[-98.358185,44.891725],[-98.357282,44.892942],[-98.3522,44.897564],[-98.352412,44.898508],[-98.356653,44.899896],[-98.357599,44.900648],[-98.363585,44.902481],[-98.365193,44.902447],[-98.368102,44.901292],[-98.371374,44.900631],[-98.37792,44.900383],[-98.380897,44.901301],[-98.387472,44.90197],[-98.391093,44.900741],[-98.393182,44.90103],[-98.394297,44.902066],[-98.396623,44.902285],[-98.398194,44.90125],[-98.401012,44.901144],[-98.40455,44.900468],[-98.408948,44.901337],[-98.408912,44.90376],[-98.407446,44.906354],[-98.412555,44.910383],[-98.415619,44.909971],[-98.416619,44.910708],[-98.417053,44.913375],[-98.419262,44.915501],[-98.421237,44.916335],[-98.421079,44.917335],[-98.42258,44.917704],[-98.423747,44.91637],[-98.426495,44.916308],[-98.425248,44.919539],[-98.427862,44.918999],[-98.431467,44.920346],[-98.431131,44.89633],[-98.382031,44.89534],[-98.382108,44.878899],[-98.361733,44.87884],[-98.361904,44.849908],[-98.341473,44.849837],[-98.341673,44.806343],[-98.322143,44.806354],[-98.322105,44.791888],[-98.295208,44.791798],[-98.29385,44.790365],[-98.291709,44.790735],[-98.292194,44.789891],[-98.294547,44.78873],[-98.294358,44.787887],[-98.291097,44.78595],[-98.291068,44.785107],[-98.293168,44.782119],[-98.295361,44.780366],[-98.298098,44.780028],[-98.298394,44.781726],[-98.300004,44.782278],[-98.302161,44.780592],[-98.303455,44.777081],[-98.304133,44.776377],[-98.302421,44.774785],[-98.301776,44.772236],[-98.301707,44.748373],[-98.301662,44.719523],[-98.220621,44.719434],[-98.220631,44.704907],[-98.160043,44.704738],[-98.160071,44.675747],[-98.139728,44.675607],[-98.139683,44.690138],[-98.139731,44.719124],[-98.160066,44.719201],[-98.160065,44.806068],[-98.200744,44.806113],[-98.200718,44.894026],[-98.217865,44.894104],[-98.21634,44.896929],[-98.213005,44.897223],[-98.212426,44.899194],[-98.212939,44.900847],[-98.212444,44.901979],[-98.21478,44.902881],[-98.213962,44.905106],[-98.215747,44.906559],[-98.214804,44.909062],[-98.211806,44.909025],[-98.210809,44.910718],[-98.213184,44.911723],[-98.21144,44.912638],[-98.211788,44.914282],[-98.213489,44.913986],[-98.21297,44.915357],[-98.215313,44.9165],[-98.213693,44.919517],[-98.216709,44.919928],[-98.216995,44.921185],[-98.215277,44.923219],[-98.20717,44.923142],[-98.207206,44.937577],[-98.1867,44.937456],[-98.186843,44.951925],[-98.20724,44.952137],[-98.207354,44.98004],[-98.207526,44.981029],[-98.227658,44.981354],[-98.227621,44.995916],[-98.329869,44.996329],[-98.329644,44.952648],[-98.349965,44.952881]]]}},{"type":"Feature","properties":{"zcta5":"57469","AFFGEOID10":"8600000US57469","GEOID10":"57469","ALAND10":754181617,"AWATER10":8811633,"county_name":"Spink","state_code":"SD","county_state":"Spink County, SD","county_fips":"46115","risk_level_county":"Lower Risk (80–84% vaccinated)","mean_vaccination_rate_county":80.94,"risk_level_zcta":"Medium Risk (70–79% vaccinated)","mean_vaccination_rate_zips":74.29,"cases":16},"geometry":{"type":"Polygon","coordinates":[[[-98.73711,44.98384],[-98.77793,44.983749],[-98.777584,44.897029],[-98.786901,44.897048],[-98.786932,44.852323],[-98.807212,44.852586],[-98.807409,44.794428],[-98.82563,44.794671],[-98.825715,44.76553],[-98.746194,44.76484],[-98.746201,44.750447],[-98.725913,44.750366],[-98.725866,44.735801],[-98.705513,44.735589],[-98.70546,44.76458],[-98.701985,44.76456],[-98.698184,44.765608],[-98.696495,44.764652],[-98.693176,44.764633],[-98.691748,44.765163],[-98.689204,44.764546],[-98.625334,44.764175],[-98.625318,44.778643],[-98.635078,44.77868],[-98.635056,44.793015],[-98.631115,44.793011],[-98.629326,44.792221],[-98.628678,44.793139],[-98.614796,44.79303],[-98.613544,44.79609],[-98.611155,44.79979],[-98.607919,44.800095],[-98.604673,44.798231],[-98.604733,44.796928],[-98.603067,44.79741],[-98.602309,44.799989],[-98.601159,44.800788],[-98.599647,44.799423],[-98.597884,44.799677],[-98.597095,44.802871],[-98.599348,44.804456],[-98.598936,44.805345],[-98.594898,44.805835],[-98.594979,44.807277],[-98.57457,44.807213],[-98.57449,44.799894],[-98.564459,44.79994],[-98.564379,44.807167],[-98.523836,44.807071],[-98.523969,44.794311],[-98.523594,44.793475],[-98.521689,44.792486],[-98.503591,44.792417],[-98.503601,44.785118],[-98.483292,44.784882],[-98.483311,44.777843],[-98.44321,44.777696],[-98.443145,44.763211],[-98.455746,44.763246],[-98.451921,44.74995],[-98.451718,44.748719],[-98.422751,44.748577],[-98.422813,44.763104],[-98.402483,44.763112],[-98.402473,44.74866],[-98.361969,44.748527],[-98.361853,44.734036],[-98.341493,44.734001],[-98.341555,44.748513],[-98.301707,44.748373],[-98.301776,44.772236],[-98.302421,44.774785],[-98.304133,44.776377],[-98.303455,44.777081],[-98.302161,44.780592],[-98.300004,44.782278],[-98.298394,44.781726],[-98.298098,44.780028],[-98.295361,44.780366],[-98.293168,44.782119],[-98.291068,44.785107],[-98.291097,44.78595],[-98.294358,44.787887],[-98.294547,44.78873],[-98.292194,44.789891],[-98.291709,44.790735],[-98.29385,44.790365],[-98.295208,44.791798],[-98.322105,44.791888],[-98.322143,44.806354],[-98.341673,44.806343],[-98.341473,44.849837],[-98.361904,44.849908],[-98.361733,44.87884],[-98.382108,44.878899],[-98.382031,44.89534],[-98.431131,44.89633],[-98.431467,44.920346],[-98.427862,44.918999],[-98.425248,44.919539],[-98.426495,44.916308],[-98.423747,44.91637],[-98.42258,44.917704],[-98.421079,44.917335],[-98.421237,44.916335],[-98.419262,44.915501],[-98.417053,44.913375],[-98.416619,44.910708],[-98.415619,44.909971],[-98.412555,44.910383],[-98.407446,44.906354],[-98.408912,44.90376],[-98.408948,44.901337],[-98.40455,44.900468],[-98.401012,44.901144],[-98.398194,44.90125],[-98.396623,44.902285],[-98.394297,44.902066],[-98.393182,44.90103],[-98.391093,44.900741],[-98.387472,44.90197],[-98.380897,44.901301],[-98.37792,44.900383],[-98.371374,44.900631],[-98.368102,44.901292],[-98.365193,44.902447],[-98.363585,44.902481],[-98.357599,44.900648],[-98.356653,44.899896],[-98.352412,44.898508],[-98.3522,44.897564],[-98.357282,44.892942],[-98.358185,44.891725],[-98.360988,44.889818],[-98.363726,44.88862],[-98.364825,44.886004],[-98.36312,44.884486],[-98.360804,44.884088],[-98.358199,44.884238],[-98.352387,44.887666],[-98.35168,44.887211],[-98.354993,44.882823],[-98.355026,44.882292],[-98.354384,44.881502],[-98.34822,44.879593],[-98.341587,44.878784],[-98.341546,44.883363],[-98.346296,44.8844],[-98.346746,44.884977],[-98.351341,44.885092],[-98.351315,44.894866],[-98.349759,44.89485],[-98.349788,44.909355],[-98.370271,44.909625],[-98.370245,44.92412],[-98.349824,44.923896],[-98.349965,44.952881],[-98.472255,44.954786],[-98.472343,44.969307],[-98.479884,44.969393],[-98.486319,44.965552],[-98.489153,44.965388],[-98.492728,44.966206],[-98.49353,44.964855],[-98.491595,44.962086],[-98.487019,44.96197],[-98.486953,44.960573],[-98.491975,44.960155],[-98.49452,44.961661],[-98.495709,44.960699],[-98.492816,44.95798],[-98.489701,44.957707],[-98.488258,44.958853],[-98.484276,44.957872],[-98.486796,44.955564],[-98.486477,44.95449],[-98.482979,44.954699],[-98.484149,44.950907],[-98.483837,44.947367],[-98.482522,44.946521],[-98.480498,44.946843],[-98.480083,44.945907],[-98.481927,44.94321],[-98.484834,44.94161],[-98.48616,44.939005],[-98.483786,44.938115],[-98.481283,44.939124],[-98.480067,44.937891],[-98.484231,44.935674],[-98.486103,44.935399],[-98.487491,44.934372],[-98.487076,44.933229],[-98.483289,44.931747],[-98.487777,44.929827],[-98.48962,44.927244],[-98.490975,44.927016],[-98.493623,44.928388],[-98.495237,44.927473],[-98.494502,44.926057],[-98.491292,44.925373],[-98.486286,44.927139],[-98.485556,44.925929],[-98.487896,44.925822],[-98.490352,44.925099],[-98.493423,44.925336],[-98.495962,44.926073],[-98.51287,44.926295],[-98.513525,44.955319],[-98.574542,44.956007],[-98.574636,44.961829],[-98.578469,44.970491],[-98.585681,44.984911],[-98.614921,44.984764],[-98.617435,44.9849],[-98.635277,44.984654],[-98.635163,44.969922],[-98.655601,44.969749],[-98.655716,44.976802],[-98.666199,44.976659],[-98.676252,44.969487],[-98.696444,44.969329],[-98.69636,44.954857],[-98.716589,44.954902],[-98.71659,44.983677],[-98.73711,44.98384]]]}},{"type":"Feature","properties":{"zcta5":"57477","AFFGEOID10":"8600000US57477","GEOID10":"57477","ALAND10":237113503,"AWATER10":37619,"county_name":"Spink","state_code":"SD","county_state":"Spink County, SD","county_fips":"46115","risk_level_county":"Lower Risk (80–84% vaccinated)","mean_vaccination_rate_county":80.94,"risk_level_zcta":"Higher Risk (60–69% vaccinated)","mean_vaccination_rate_zips":61.49,"cases":16},"geometry":{"type":"Polygon","coordinates":[[[-98.329701,45.054396],[-98.329638,45.039856],[-98.3706,45.040254],[-98.370568,45.025759],[-98.329699,45.02536],[-98.329869,44.996329],[-98.227621,44.995916],[-98.227579,45.010437],[-98.189893,45.009942],[-98.185536,45.00946],[-98.183453,45.009878],[-98.146037,45.009415],[-98.145986,44.994943],[-98.105104,44.994521],[-98.105122,44.979967],[-98.049652,44.979585],[-98.048102,44.979204],[-98.044219,44.979552],[-98.044175,44.981495],[-98.045915,44.983304],[-98.045733,44.984761],[-98.044138,44.987098],[-98.044091,44.994092],[-98.023885,44.993968],[-98.023297,44.995161],[-98.023575,45.008475],[-98.00265,45.008402],[-98.002533,45.022903],[-98.002503,45.037404],[-98.043781,45.037636],[-98.043677,45.052158],[-98.053943,45.052246],[-98.05401,45.066624],[-98.023089,45.066564],[-98.022865,45.081003],[-98.043392,45.081105],[-98.043359,45.095537],[-98.046113,45.095592],[-98.046044,45.099191],[-98.044693,45.099271],[-98.043193,45.103207],[-98.04317,45.110119],[-98.063395,45.11024],[-98.063562,45.11789],[-98.073963,45.118144],[-98.073907,45.124803],[-98.104724,45.125152],[-98.104825,45.096121],[-98.12524,45.09634],[-98.125237,45.081847],[-98.144887,45.082069],[-98.145649,45.074995],[-98.166327,45.07522],[-98.166246,45.082345],[-98.176364,45.08244],[-98.176279,45.067944],[-98.320454,45.069025],[-98.329821,45.069077],[-98.329701,45.054396]]]}},{"type":"Feature","properties":{"zcta5":"57476","AFFGEOID10":"8600000US57476","GEOID10":"57476","ALAND10":425949141,"AWATER10":4796641,"county_name":"Spink","state_code":"SD","county_state":"Spink County, SD","county_fips":"46115","risk_level_county":"Lower Risk (80–84% vaccinated)","mean_vaccination_rate_county":80.94,"risk_level_zcta":"Lower Risk (80–84% vaccinated)","mean_vaccination_rate_zips":84.14,"cases":16},"geometry":{"type":"Polygon","coordinates":[[[-98.866628,44.721959],[-98.866537,44.70736],[-98.82584,44.707307],[-98.819949,44.707775],[-98.817154,44.707297],[-98.808166,44.707236],[-98.806263,44.704754],[-98.802697,44.704732],[-98.800423,44.707221],[-98.776341,44.707008],[-98.776317,44.704972],[-98.773033,44.703914],[-98.770601,44.704108],[-98.769594,44.702925],[-98.766642,44.702853],[-98.766745,44.66348],[-98.775752,44.663543],[-98.775464,44.642696],[-98.745816,44.641968],[-98.73669,44.641645],[-98.735045,44.641762],[-98.725944,44.635581],[-98.723793,44.634274],[-98.705762,44.634159],[-98.645882,44.633888],[-98.504611,44.633312],[-98.505451,44.647789],[-98.50544,44.652131],[-98.503845,44.652129],[-98.50392,44.691177],[-98.433934,44.690965],[-98.436334,44.696769],[-98.438748,44.705361],[-98.422571,44.705398],[-98.422715,44.734162],[-98.402411,44.734215],[-98.402473,44.74866],[-98.402483,44.763112],[-98.422813,44.763104],[-98.422751,44.748577],[-98.451718,44.748719],[-98.451921,44.74995],[-98.455746,44.763246],[-98.443145,44.763211],[-98.44321,44.777696],[-98.483311,44.777843],[-98.483292,44.784882],[-98.503601,44.785118],[-98.503591,44.792417],[-98.521689,44.792486],[-98.523594,44.793475],[-98.523969,44.794311],[-98.523836,44.807071],[-98.564379,44.807167],[-98.564459,44.79994],[-98.57449,44.799894],[-98.57457,44.807213],[-98.594979,44.807277],[-98.594898,44.805835],[-98.598936,44.805345],[-98.599348,44.804456],[-98.597095,44.802871],[-98.597884,44.799677],[-98.599647,44.799423],[-98.601159,44.800788],[-98.602309,44.799989],[-98.603067,44.79741],[-98.604733,44.796928],[-98.604673,44.798231],[-98.607919,44.800095],[-98.611155,44.79979],[-98.613544,44.79609],[-98.614796,44.79303],[-98.628678,44.793139],[-98.629326,44.792221],[-98.631115,44.793011],[-98.635056,44.793015],[-98.635078,44.77868],[-98.625318,44.778643],[-98.625334,44.764175],[-98.689204,44.764546],[-98.691748,44.765163],[-98.693176,44.764633],[-98.696495,44.764652],[-98.698184,44.765608],[-98.701985,44.76456],[-98.70546,44.76458],[-98.705513,44.735589],[-98.725866,44.735801],[-98.725913,44.750366],[-98.746201,44.750447],[-98.746194,44.76484],[-98.825715,44.76553],[-98.825861,44.722057],[-98.866628,44.721959]]]}},{"type":"Feature","properties":{"zcta5":"57348","AFFGEOID10":"8600000US57348","GEOID10":"57348","ALAND10":654057674,"AWATER10":995097,"county_name":"Spink","state_code":"SD","county_state":"Spink County, SD","county_fips":"46115","risk_level_county":"Lower Risk (80–84% vaccinated)","mean_vaccination_rate_county":80.94,"risk_level_zcta":"Medium Risk (70–79% vaccinated)","mean_vaccination_rate_zips":70.85,"cases":16},"geometry":{"type":"Polygon","coordinates":[[[-98.645882,44.633888],[-98.645702,44.624808],[-98.646755,44.624096],[-98.645669,44.619562],[-98.645637,44.605054],[-98.625288,44.6049],[-98.62511,44.582292],[-98.604784,44.582261],[-98.604766,44.575863],[-98.584438,44.575686],[-98.584435,44.561205],[-98.523896,44.560968],[-98.523733,44.546475],[-98.478858,44.546298],[-98.478682,44.530065],[-98.437871,44.530133],[-98.438107,44.493864],[-98.427109,44.493832],[-98.427057,44.486697],[-98.387255,44.486575],[-98.38727,44.487583],[-98.380932,44.487633],[-98.380302,44.488378],[-98.380339,44.492202],[-98.377248,44.492068],[-98.377146,44.494206],[-98.356842,44.494042],[-98.356878,44.500931],[-98.41787,44.501213],[-98.417714,44.523038],[-98.397444,44.52275],[-98.396828,44.515669],[-98.32212,44.515723],[-98.322474,44.501185],[-98.316126,44.501235],[-98.316022,44.486725],[-98.299254,44.486699],[-98.295789,44.487931],[-98.295616,44.50122],[-98.254961,44.501226],[-98.254738,44.545716],[-98.26085,44.545719],[-98.260726,44.581931],[-98.240107,44.582087],[-98.240578,44.583453],[-98.240646,44.588772],[-98.237361,44.588229],[-98.233449,44.589042],[-98.220455,44.58903],[-98.220484,44.596551],[-98.200186,44.596398],[-98.200157,44.588902],[-98.17498,44.58884],[-98.174979,44.595986],[-98.180049,44.595987],[-98.180087,44.603401],[-98.178414,44.603385],[-98.175291,44.605517],[-98.176192,44.606615],[-98.178761,44.605883],[-98.180121,44.606828],[-98.17999,44.61781],[-98.159939,44.617785],[-98.159929,44.632262],[-98.119393,44.63211],[-98.119401,44.689963],[-98.139683,44.690138],[-98.139728,44.675607],[-98.160071,44.675747],[-98.160043,44.704738],[-98.220631,44.704907],[-98.220621,44.719434],[-98.301662,44.719523],[-98.301707,44.748373],[-98.341555,44.748513],[-98.341493,44.734001],[-98.361853,44.734036],[-98.361969,44.748527],[-98.402473,44.74866],[-98.402411,44.734215],[-98.422715,44.734162],[-98.422571,44.705398],[-98.438748,44.705361],[-98.436334,44.696769],[-98.433934,44.690965],[-98.50392,44.691177],[-98.503845,44.652129],[-98.50544,44.652131],[-98.505451,44.647789],[-98.504611,44.633312],[-98.645882,44.633888]]]}},{"type":"Feature","properties":{"zcta5":"57436","AFFGEOID10":"8600000US57436","GEOID10":"57436","ALAND10":551573528,"AWATER10":347378,"county_name":"Spink","state_code":"SD","county_state":"Spink County, SD","county_fips":"46115","risk_level_county":"Lower Risk (80–84% vaccinated)","mean_vaccination_rate_county":80.94,"risk_level_zcta":"Medium Risk (70–79% vaccinated)","mean_vaccination_rate_zips":77.13,"cases":16},"geometry":{"type":"Polygon","coordinates":[[[-98.227621,44.995916],[-98.227658,44.981354],[-98.207526,44.981029],[-98.207354,44.98004],[-98.20724,44.952137],[-98.186843,44.951925],[-98.1867,44.937456],[-98.207206,44.937577],[-98.20717,44.923142],[-98.215277,44.923219],[-98.216995,44.921185],[-98.216709,44.919928],[-98.213693,44.919517],[-98.215313,44.9165],[-98.21297,44.915357],[-98.213489,44.913986],[-98.211788,44.914282],[-98.21144,44.912638],[-98.213184,44.911723],[-98.210809,44.910718],[-98.211806,44.909025],[-98.214804,44.909062],[-98.215747,44.906559],[-98.213962,44.905106],[-98.21478,44.902881],[-98.212444,44.901979],[-98.212939,44.900847],[-98.212426,44.899194],[-98.213005,44.897223],[-98.21634,44.896929],[-98.217865,44.894104],[-98.200718,44.894026],[-98.200744,44.806113],[-98.160065,44.806068],[-98.160066,44.719201],[-98.139731,44.719124],[-98.139683,44.690138],[-98.119401,44.689963],[-98.078759,44.689974],[-98.078675,44.704366],[-98.038113,44.704245],[-98.038064,44.718789],[-98.017764,44.718745],[-98.017781,44.704205],[-97.997402,44.704133],[-97.99765,44.660715],[-97.977395,44.660608],[-97.977171,44.718742],[-97.977055,44.776726],[-97.997294,44.776779],[-97.997404,44.805699],[-97.97701,44.805589],[-97.977194,44.892274],[-97.982823,44.892297],[-97.982727,44.896142],[-97.982876,44.937557],[-97.982806,44.938377],[-97.982371,44.999918],[-97.981975,45.00079],[-97.982379,45.022807],[-98.002533,45.022903],[-98.00265,45.008402],[-98.023575,45.008475],[-98.023297,44.995161],[-98.023885,44.993968],[-98.044091,44.994092],[-98.044138,44.987098],[-98.045733,44.984761],[-98.045915,44.983304],[-98.044175,44.981495],[-98.044219,44.979552],[-98.048102,44.979204],[-98.049652,44.979585],[-98.105122,44.979967],[-98.105104,44.994521],[-98.145986,44.994943],[-98.146037,45.009415],[-98.183453,45.009878],[-98.185536,45.00946],[-98.189893,45.009942],[-98.227579,45.010437],[-98.227621,44.995916]]]}},{"type":"Feature","properties":{"zcta5":"57460","AFFGEOID10":"8600000US57460","GEOID10":"57460","ALAND10":310706113,"AWATER10":9165878,"county_name":"Spink","state_code":"SD","county_state":"Spink County, SD","county_fips":"46115","risk_level_county":"Lower Risk (80–84% vaccinated)","mean_vaccination_rate_county":80.94,"risk_level_zcta":"Very High Risk (<60% vaccinated)","mean_vaccination_rate_zips":46.89,"cases":16},"geometry":{"type":"Polygon","coordinates":[[[-98.82537,45.287998],[-98.825468,45.273507],[-98.845787,45.273612],[-98.845827,45.244705],[-98.856697,45.244693],[-98.856876,45.228012],[-98.855926,45.229565],[-98.85379,45.230217],[-98.836445,45.230164],[-98.836664,45.201208],[-98.820274,45.201172],[-98.820416,45.215642],[-98.779541,45.21561],[-98.779443,45.201118],[-98.761354,45.201162],[-98.761438,45.194293],[-98.762769,45.191108],[-98.763119,45.18666],[-98.753687,45.186861],[-98.75564,45.188231],[-98.752555,45.197458],[-98.748884,45.200585],[-98.746722,45.206648],[-98.748244,45.208261],[-98.746954,45.211814],[-98.74661,45.215615],[-98.738162,45.215604],[-98.738233,45.201112],[-98.717755,45.201109],[-98.717759,45.243732],[-98.678148,45.243471],[-98.677882,45.216271],[-98.657328,45.21644],[-98.657207,45.203975],[-98.65519,45.202094],[-98.636645,45.20219],[-98.636788,45.231186],[-98.595601,45.231633],[-98.595544,45.217145],[-98.575124,45.216854],[-98.575226,45.231358],[-98.564233,45.231217],[-98.55484,45.240916],[-98.5548,45.242745],[-98.548347,45.242699],[-98.454536,45.24192],[-98.454322,45.256425],[-98.475011,45.256515],[-98.474871,45.285471],[-98.516042,45.285788],[-98.515973,45.300274],[-98.516392,45.285792],[-98.536254,45.285947],[-98.536102,45.329283],[-98.556677,45.329433],[-98.556754,45.31503],[-98.57723,45.315222],[-98.577209,45.329588],[-98.618776,45.329942],[-98.618825,45.344419],[-98.639364,45.344597],[-98.63939,45.359094],[-98.651334,45.359168],[-98.680536,45.35935],[-98.680452,45.344879],[-98.722217,45.345095],[-98.722186,45.330654],[-98.78382,45.331118],[-98.784073,45.302186],[-98.825325,45.3025],[-98.82537,45.287998]]]}},{"type":"Feature","properties":{"zcta5":"57474","AFFGEOID10":"8600000US57474","GEOID10":"57474","ALAND10":157452768,"AWATER10":958,"county_name":"Spink","state_code":"SD","county_state":"Spink County, SD","county_fips":"46115","risk_level_county":"Lower Risk (80–84% vaccinated)","mean_vaccination_rate_county":80.94,"risk_level_zcta":"Medium Risk (70–79% vaccinated)","mean_vaccination_rate_zips":73.4,"cases":16},"geometry":{"type":"Polygon","coordinates":[[[-98.392123,45.328565],[-98.392252,45.314108],[-98.371677,45.314072],[-98.371602,45.29966],[-98.351269,45.299539],[-98.351404,45.241656],[-98.327182,45.241534],[-98.26762,45.241306],[-98.228451,45.241123],[-98.227795,45.243896],[-98.227669,45.277327],[-98.206954,45.277193],[-98.206927,45.284461],[-98.145367,45.28421],[-98.145183,45.327585],[-98.186182,45.327743],[-98.186241,45.342262],[-98.267877,45.34258],[-98.267746,45.349903],[-98.25234,45.350073],[-98.227186,45.34973],[-98.227139,45.356897],[-98.268106,45.357064],[-98.268217,45.342581],[-98.298925,45.342686],[-98.298995,45.33566],[-98.309275,45.335721],[-98.308932,45.350429],[-98.314729,45.350539],[-98.315104,45.351752],[-98.31396,45.353031],[-98.313152,45.351694],[-98.311333,45.35099],[-98.310985,45.35391],[-98.308376,45.354361],[-98.306943,45.357242],[-98.321695,45.357301],[-98.328352,45.356406],[-98.329612,45.357338],[-98.329761,45.339908],[-98.331224,45.338289],[-98.332598,45.340264],[-98.33432,45.338556],[-98.334952,45.339723],[-98.332647,45.342781],[-98.334398,45.344152],[-98.336458,45.34309],[-98.337236,45.341979],[-98.338064,45.338209],[-98.339443,45.337426],[-98.34187,45.33929],[-98.342808,45.338805],[-98.342623,45.336176],[-98.340583,45.335774],[-98.339981,45.336434],[-98.337424,45.336217],[-98.337622,45.334969],[-98.341361,45.332527],[-98.342527,45.33106],[-98.343233,45.328358],[-98.392123,45.328565]]]}},{"type":"Feature","properties":{"zcta5":"57434","AFFGEOID10":"8600000US57434","GEOID10":"57434","ALAND10":746092459,"AWATER10":2099744,"county_name":"Spink","state_code":"SD","county_state":"Spink County, SD","county_fips":"46115","risk_level_county":"Lower Risk (80–84% vaccinated)","mean_vaccination_rate_county":80.94,"risk_level_zcta":"Medium Risk (70–79% vaccinated)","mean_vaccination_rate_zips":70.23,"cases":16},"geometry":{"type":"Polygon","coordinates":[[[-98.309434,45.112431],[-98.309426,45.097966],[-98.329874,45.098086],[-98.329922,45.083576],[-98.32065,45.083532],[-98.320454,45.069025],[-98.176279,45.067944],[-98.176364,45.08244],[-98.166246,45.082345],[-98.166327,45.07522],[-98.145649,45.074995],[-98.144887,45.082069],[-98.125237,45.081847],[-98.12524,45.09634],[-98.104825,45.096121],[-98.104724,45.125152],[-98.073907,45.124803],[-98.073963,45.118144],[-98.063562,45.11789],[-98.063395,45.11024],[-98.04317,45.110119],[-98.043193,45.103207],[-98.044693,45.099271],[-98.046044,45.099191],[-98.046113,45.095592],[-98.043359,45.095537],[-98.043392,45.081105],[-98.022865,45.081003],[-98.023089,45.066564],[-98.05401,45.066624],[-98.053943,45.052246],[-98.043677,45.052158],[-98.043781,45.037636],[-98.002503,45.037404],[-98.002533,45.022903],[-97.982379,45.022807],[-97.982278,45.037324],[-97.861365,45.036577],[-97.861058,45.049983],[-97.861444,45.065639],[-97.861596,45.10883],[-97.861744,45.152179],[-97.862174,45.152184],[-97.860425,45.155025],[-97.861969,45.171759],[-97.862057,45.1811],[-97.862175,45.188303],[-97.882374,45.188533],[-97.882606,45.195672],[-97.903566,45.196008],[-97.903104,45.210406],[-97.933971,45.210954],[-97.937324,45.211581],[-97.941896,45.210885],[-97.981435,45.211301],[-97.981457,45.240415],[-97.981255,45.269347],[-97.981027,45.31285],[-98.022086,45.312765],[-98.022061,45.298348],[-98.063078,45.298428],[-98.063098,45.312884],[-98.083574,45.312887],[-98.083538,45.327312],[-98.10431,45.327364],[-98.10406,45.341816],[-98.12462,45.341935],[-98.124572,45.349041],[-98.12582,45.349456],[-98.14505,45.349436],[-98.145183,45.327585],[-98.145367,45.28421],[-98.206927,45.284461],[-98.206954,45.277193],[-98.227669,45.277327],[-98.227795,45.243896],[-98.228451,45.241123],[-98.26762,45.241306],[-98.268331,45.097799],[-98.28879,45.097898],[-98.288766,45.112316],[-98.309434,45.112431]]]}},{"type":"Feature","properties":{"zcta5":"57461","AFFGEOID10":"8600000US57461","GEOID10":"57461","ALAND10":319629361,"AWATER10":0,"county_name":"Spink","state_code":"SD","county_state":"Spink County, SD","county_fips":"46115","risk_level_county":"Lower Risk (80–84% vaccinated)","mean_vaccination_rate_county":80.94,"risk_level_zcta":"Medium Risk (70–79% vaccinated)","mean_vaccination_rate_zips":76.27,"cases":16},"geometry":{"type":"Polygon","coordinates":[[[-98.548347,45.242699],[-98.54438,45.158592],[-98.534226,45.158481],[-98.534065,45.143828],[-98.513644,45.143627],[-98.513648,45.129194],[-98.544409,45.129532],[-98.544345,45.086063],[-98.534202,45.085962],[-98.534209,45.071503],[-98.495525,45.071034],[-98.495487,45.085545],[-98.452339,45.085053],[-98.45232,45.070552],[-98.441669,45.070393],[-98.440579,45.070201],[-98.436698,45.070376],[-98.35008,45.069218],[-98.350094,45.054631],[-98.329701,45.054396],[-98.329821,45.069077],[-98.320454,45.069025],[-98.32065,45.083532],[-98.329922,45.083576],[-98.329874,45.098086],[-98.309426,45.097966],[-98.309434,45.112431],[-98.320848,45.112522],[-98.321108,45.127053],[-98.329914,45.12711],[-98.329213,45.156158],[-98.328899,45.170653],[-98.329778,45.170659],[-98.328931,45.209533],[-98.327549,45.210399],[-98.327182,45.241534],[-98.351404,45.241656],[-98.454536,45.24192],[-98.548347,45.242699]]]}},{"type":"Feature","properties":{"zcta5":"57465","AFFGEOID10":"8600000US57465","GEOID10":"57465","ALAND10":399376818,"AWATER10":2878833,"county_name":"Spink","state_code":"SD","county_state":"Spink County, SD","county_fips":"46115","risk_level_county":"Lower Risk (80–84% vaccinated)","mean_vaccination_rate_county":80.94,"risk_level_zcta":"Very High Risk (<60% vaccinated)","mean_vaccination_rate_zips":57.3,"cases":16},"geometry":{"type":"Polygon","coordinates":[[[-98.836664,45.201208],[-98.85732,45.201253],[-98.857821,45.1578],[-98.837203,45.157751],[-98.837207,45.133837],[-98.837619,45.124937],[-98.837424,45.122351],[-98.837692,45.114304],[-98.819903,45.114228],[-98.819317,45.070708],[-98.809263,45.07066],[-98.808696,45.056493],[-98.79867,45.056289],[-98.778229,45.056411],[-98.778456,45.063354],[-98.767891,45.063506],[-98.767901,45.06692],[-98.765639,45.067689],[-98.757715,45.067613],[-98.75743,45.070749],[-98.717256,45.070687],[-98.67676,45.071162],[-98.677016,45.100196],[-98.656565,45.100407],[-98.656375,45.071429],[-98.635985,45.071695],[-98.635979,45.075215],[-98.628755,45.075273],[-98.625919,45.074713],[-98.617974,45.074659],[-98.615545,45.074183],[-98.615527,45.07189],[-98.607584,45.072011],[-98.593996,45.071889],[-98.597364,45.062174],[-98.598164,45.057544],[-98.593861,45.057594],[-98.57502,45.057335],[-98.574603,45.013848],[-98.543147,45.013567],[-98.541179,45.012676],[-98.538863,45.013503],[-98.533973,45.013458],[-98.534017,45.021412],[-98.531757,45.021458],[-98.531726,45.027128],[-98.533288,45.027926],[-98.533889,45.030803],[-98.534025,45.042436],[-98.554398,45.042643],[-98.554669,45.071715],[-98.534209,45.071503],[-98.534202,45.085962],[-98.544345,45.086063],[-98.544409,45.129532],[-98.513648,45.129194],[-98.513644,45.143627],[-98.534065,45.143828],[-98.534226,45.158481],[-98.54438,45.158592],[-98.548347,45.242699],[-98.5548,45.242745],[-98.55484,45.240916],[-98.564233,45.231217],[-98.575226,45.231358],[-98.575124,45.216854],[-98.595544,45.217145],[-98.595601,45.231633],[-98.636788,45.231186],[-98.636645,45.20219],[-98.65519,45.202094],[-98.657207,45.203975],[-98.657328,45.21644],[-98.677882,45.216271],[-98.678148,45.243471],[-98.717759,45.243732],[-98.717755,45.201109],[-98.738233,45.201112],[-98.738162,45.215604],[-98.74661,45.215615],[-98.746954,45.211814],[-98.748244,45.208261],[-98.746722,45.206648],[-98.748884,45.200585],[-98.752555,45.197458],[-98.75564,45.188231],[-98.753687,45.186861],[-98.763119,45.18666],[-98.762769,45.191108],[-98.761438,45.194293],[-98.761354,45.201162],[-98.779443,45.201118],[-98.779541,45.21561],[-98.820416,45.215642],[-98.820274,45.201172],[-98.836664,45.201208]]]}}]}