{"type":"FeatureCollection","features":[{"type":"Feature","properties":{"zcta5":"51646","AFFGEOID10":"8600000US51646","GEOID10":"51646","ALAND10":162181420,"AWATER10":686011,"county_name":"Taylor","state_code":"IA","county_state":"Taylor County, IA","county_fips":"19173","risk_level_county":"Medium Risk (70–79% vaccinated)","mean_vaccination_rate_county":71.58,"risk_level_zcta":"Medium Risk (70–79% vaccinated)","mean_vaccination_rate_zips":70.44,"cases":9},"geometry":{"type":"Polygon","coordinates":[[[-94.919477,40.84279],[-94.919438,40.820895],[-94.9134,40.820872],[-94.913429,40.818342],[-94.914518,40.815708],[-94.916984,40.814916],[-94.918241,40.81364],[-94.928664,40.813596],[-94.928938,40.750742],[-94.928276,40.749177],[-94.928448,40.747318],[-94.928529,40.727399],[-94.913124,40.727285],[-94.91471,40.666024],[-94.914429,40.6641],[-94.914732,40.635121],[-94.914742,40.631095],[-94.912553,40.630306],[-94.909346,40.628061],[-94.876946,40.627721],[-94.876731,40.649389],[-94.876448,40.685543],[-94.847677,40.685308],[-94.847918,40.678307],[-94.82879,40.677918],[-94.828472,40.695452],[-94.827903,40.695936],[-94.823705,40.6959],[-94.823439,40.710371],[-94.818695,40.710366],[-94.818395,40.726944],[-94.794868,40.726929],[-94.794957,40.741491],[-94.814541,40.741359],[-94.814524,40.755791],[-94.821431,40.755796],[-94.821133,40.757208],[-94.822024,40.761545],[-94.823535,40.764719],[-94.823621,40.770023],[-94.833371,40.770283],[-94.833301,40.799111],[-94.814769,40.799119],[-94.814497,40.813605],[-94.852656,40.813464],[-94.85266,40.827955],[-94.852683,40.838633],[-94.862959,40.838793],[-94.862916,40.842506],[-94.871805,40.84257],[-94.871722,40.835453],[-94.881301,40.835368],[-94.881594,40.842573],[-94.919477,40.84279]]]}},{"type":"Feature","properties":{"zcta5":"50862","AFFGEOID10":"8600000US50862","GEOID10":"50862","ALAND10":56002800,"AWATER10":215401,"county_name":"Taylor","state_code":"IA","county_state":"Taylor County, IA","county_fips":"19173","risk_level_county":"Medium Risk (70–79% vaccinated)","mean_vaccination_rate_county":71.58,"risk_level_zcta":"Medium Risk (70–79% vaccinated)","mean_vaccination_rate_zips":75.2,"cases":9},"geometry":{"type":"Polygon","coordinates":[[[-94.719334,40.833779],[-94.719406,40.813107],[-94.709884,40.813088],[-94.709724,40.798954],[-94.701335,40.799048],[-94.700324,40.798736],[-94.700317,40.791817],[-94.680586,40.791828],[-94.642813,40.79212],[-94.642809,40.78541],[-94.640574,40.784877],[-94.635728,40.784763],[-94.633132,40.781496],[-94.629985,40.780767],[-94.626989,40.778739],[-94.624925,40.778364],[-94.62398,40.777275],[-94.604855,40.777259],[-94.604838,40.771452],[-94.604233,40.7716],[-94.602234,40.772709],[-94.600001,40.774927],[-94.599885,40.776425],[-94.598222,40.779252],[-94.594913,40.78036],[-94.594129,40.782452],[-94.595368,40.785138],[-94.596662,40.784494],[-94.597216,40.78617],[-94.595029,40.786668],[-94.596054,40.788289],[-94.598039,40.789095],[-94.598806,40.792233],[-94.600898,40.793547],[-94.599179,40.794533],[-94.599676,40.797238],[-94.596751,40.798899],[-94.585763,40.798747],[-94.585813,40.812753],[-94.604801,40.812826],[-94.604982,40.841744],[-94.623787,40.841637],[-94.623951,40.827403],[-94.652544,40.827552],[-94.65274,40.848658],[-94.654247,40.847888],[-94.657507,40.844707],[-94.660674,40.844163],[-94.662621,40.845352],[-94.665394,40.845467],[-94.666965,40.843767],[-94.668222,40.844182],[-94.672094,40.84216],[-94.673437,40.843494],[-94.674868,40.84206],[-94.674798,40.842941],[-94.677373,40.843208],[-94.679031,40.844273],[-94.679511,40.843019],[-94.683215,40.843307],[-94.684559,40.841435],[-94.687879,40.842489],[-94.689617,40.841632],[-94.697615,40.844813],[-94.700304,40.845253],[-94.703897,40.844319],[-94.713664,40.836853],[-94.719334,40.833779]]]}},{"type":"Feature","properties":{"zcta5":"50848","AFFGEOID10":"8600000US50848","GEOID10":"50848","ALAND10":117220675,"AWATER10":499439,"county_name":"Taylor","state_code":"IA","county_state":"Taylor County, IA","county_fips":"19173","risk_level_county":"Medium Risk (70–79% vaccinated)","mean_vaccination_rate_county":71.58,"risk_level_zcta":"Higher Risk (60–69% vaccinated)","mean_vaccination_rate_zips":64.16,"cases":9},"geometry":{"type":"Polygon","coordinates":[[[-94.85266,40.827955],[-94.852656,40.813464],[-94.814497,40.813605],[-94.814769,40.799119],[-94.833301,40.799111],[-94.833371,40.770283],[-94.823621,40.770023],[-94.823535,40.764719],[-94.822024,40.761545],[-94.821133,40.757208],[-94.821431,40.755796],[-94.814524,40.755791],[-94.814541,40.741359],[-94.794957,40.741491],[-94.786167,40.741396],[-94.784409,40.740883],[-94.778674,40.740838],[-94.779204,40.732739],[-94.778762,40.726961],[-94.73816,40.726947],[-94.737817,40.72998],[-94.736535,40.728456],[-94.733613,40.726893],[-94.719244,40.726843],[-94.719205,40.741322],[-94.700319,40.741235],[-94.700295,40.770175],[-94.680475,40.770155],[-94.680586,40.791828],[-94.700317,40.791817],[-94.700324,40.798736],[-94.701335,40.799048],[-94.709724,40.798954],[-94.709884,40.813088],[-94.719406,40.813107],[-94.719334,40.833779],[-94.729016,40.833815],[-94.728503,40.832357],[-94.730019,40.830543],[-94.733507,40.829165],[-94.738398,40.827847],[-94.738399,40.825332],[-94.742936,40.825364],[-94.746639,40.826297],[-94.749875,40.827739],[-94.766711,40.827817],[-94.77719,40.827555],[-94.785718,40.827766],[-94.785701,40.836732],[-94.804718,40.836515],[-94.804742,40.842358],[-94.816542,40.842446],[-94.835523,40.833175],[-94.846395,40.827957],[-94.85266,40.827955]]]}},{"type":"Feature","properties":{"zcta5":"50841","AFFGEOID10":"8600000US50841","GEOID10":"50841","ALAND10":606072453,"AWATER10":4763865,"county_name":"Taylor","state_code":"IA","county_state":"Taylor County, IA","county_fips":"19173","risk_level_county":"Medium Risk (70–79% vaccinated)","mean_vaccination_rate_county":71.58,"risk_level_zcta":"Higher Risk (60–69% vaccinated)","mean_vaccination_rate_zips":69.27,"cases":9},"geometry":{"type":"Polygon","coordinates":[[[-94.927576,41.137294],[-94.927654,41.133428],[-94.927683,41.066023],[-94.910132,41.065595],[-94.910171,41.052495],[-94.881597,41.051857],[-94.881855,41.040673],[-94.881645,41.030247],[-94.87711,41.030338],[-94.872384,41.031977],[-94.872192,41.00099],[-94.85324,41.001032],[-94.85329,40.98136],[-94.85281,40.979776],[-94.87233,40.980449],[-94.872327,40.973136],[-94.876901,40.973173],[-94.876914,40.966408],[-94.880639,40.966418],[-94.880581,40.958895],[-94.872265,40.958638],[-94.872267,40.95636],[-94.851711,40.961286],[-94.847396,40.9625],[-94.840275,40.963806],[-94.83768,40.964653],[-94.824244,40.967561],[-94.824286,40.958313],[-94.82747,40.958325],[-94.829019,40.956933],[-94.829014,40.947996],[-94.830663,40.944646],[-94.832987,40.943751],[-94.833784,40.942629],[-94.833891,40.900583],[-94.816179,40.900595],[-94.813304,40.895286],[-94.812443,40.890788],[-94.813408,40.886726],[-94.814787,40.886824],[-94.814652,40.85687],[-94.804743,40.856785],[-94.804742,40.842358],[-94.804718,40.836515],[-94.785701,40.836732],[-94.785718,40.827766],[-94.77719,40.827555],[-94.766711,40.827817],[-94.749875,40.827739],[-94.746639,40.826297],[-94.742936,40.825364],[-94.738399,40.825332],[-94.738398,40.827847],[-94.733507,40.829165],[-94.730019,40.830543],[-94.728503,40.832357],[-94.729016,40.833815],[-94.719334,40.833779],[-94.713664,40.836853],[-94.703897,40.844319],[-94.700304,40.845253],[-94.700226,40.893928],[-94.696269,40.894923],[-94.692543,40.895079],[-94.689458,40.895593],[-94.687133,40.896416],[-94.681145,40.896535],[-94.680633,40.899756],[-94.642618,40.899673],[-94.642776,40.921362],[-94.604613,40.921277],[-94.604612,40.942961],[-94.585572,40.942819],[-94.585586,40.957256],[-94.630616,40.957563],[-94.633287,40.955662],[-94.633335,40.957555],[-94.642745,40.957486],[-94.641927,41.011688],[-94.646524,41.011804],[-94.648759,41.01105],[-94.657305,41.011281],[-94.660054,41.012334],[-94.666832,41.012473],[-94.644408,41.029082],[-94.641812,41.029085],[-94.641562,41.043561],[-94.660837,41.043563],[-94.661427,41.114312],[-94.651541,41.114241],[-94.651441,41.122255],[-94.651924,41.129889],[-94.651921,41.134077],[-94.660819,41.134189],[-94.660961,41.157941],[-94.675988,41.158068],[-94.675802,41.155309],[-94.674288,41.15397],[-94.674182,41.144473],[-94.675471,41.143812],[-94.680645,41.143791],[-94.682915,41.142603],[-94.686454,41.142631],[-94.687537,41.138985],[-94.690411,41.138184],[-94.695465,41.137567],[-94.705268,41.135987],[-94.706357,41.135552],[-94.7092,41.13363],[-94.722735,41.122259],[-94.748071,41.12245],[-94.748022,41.136344],[-94.747271,41.137328],[-94.748022,41.140507],[-94.748032,41.144089],[-94.776471,41.144457],[-94.776577,41.158262],[-94.834081,41.158453],[-94.872398,41.158446],[-94.872215,41.130332],[-94.899756,41.130197],[-94.901711,41.129548],[-94.919137,41.129506],[-94.920064,41.129979],[-94.920095,41.136538],[-94.9204,41.137023],[-94.927576,41.137294]],[[-94.832951,41.055194],[-94.814981,41.05506],[-94.815091,41.046805],[-94.814949,41.044217],[-94.832923,41.044172],[-94.832951,41.055194]]]}},{"type":"Feature","properties":{"zcta5":"50851","AFFGEOID10":"8600000US50851","GEOID10":"50851","ALAND10":333872431,"AWATER10":1341909,"county_name":"Taylor","state_code":"IA","county_state":"Taylor County, IA","county_fips":"19173","risk_level_county":"Medium Risk (70–79% vaccinated)","mean_vaccination_rate_county":71.58,"risk_level_zcta":"Higher Risk (60–69% vaccinated)","mean_vaccination_rate_zips":67.3,"cases":9},"geometry":{"type":"Polygon","coordinates":[[[-94.585586,40.957256],[-94.585572,40.942819],[-94.604612,40.942961],[-94.604613,40.921277],[-94.642776,40.921362],[-94.642618,40.899673],[-94.680633,40.899756],[-94.681145,40.896535],[-94.687133,40.896416],[-94.689458,40.895593],[-94.692543,40.895079],[-94.696269,40.894923],[-94.700226,40.893928],[-94.700304,40.845253],[-94.697615,40.844813],[-94.689617,40.841632],[-94.687879,40.842489],[-94.684559,40.841435],[-94.683215,40.843307],[-94.679511,40.843019],[-94.679031,40.844273],[-94.677373,40.843208],[-94.674798,40.842941],[-94.674868,40.84206],[-94.673437,40.843494],[-94.672094,40.84216],[-94.668222,40.844182],[-94.666965,40.843767],[-94.665394,40.845467],[-94.662621,40.845352],[-94.660674,40.844163],[-94.657507,40.844707],[-94.654247,40.847888],[-94.65274,40.848658],[-94.652544,40.827552],[-94.623951,40.827403],[-94.623787,40.841637],[-94.604982,40.841744],[-94.604801,40.812826],[-94.585813,40.812753],[-94.585763,40.798747],[-94.585756,40.781981],[-94.583248,40.784531],[-94.581693,40.785029],[-94.578778,40.787105],[-94.576026,40.787633],[-94.574416,40.786728],[-94.572851,40.787686],[-94.565766,40.788787],[-94.562098,40.788843],[-94.559523,40.789319],[-94.556651,40.790812],[-94.556426,40.798661],[-94.566205,40.798741],[-94.566777,40.812599],[-94.564071,40.81264],[-94.556131,40.815218],[-94.550663,40.815578],[-94.547491,40.816906],[-94.539736,40.81845],[-94.538261,40.819552],[-94.536349,40.823345],[-94.533786,40.825389],[-94.533722,40.827156],[-94.509668,40.827102],[-94.509672,40.841582],[-94.482799,40.841569],[-94.471863,40.855961],[-94.471647,40.855962],[-94.453376,40.856179],[-94.453071,40.870753],[-94.438892,40.870986],[-94.4344,40.87088],[-94.433997,40.899265],[-94.395329,40.899261],[-94.395002,40.913352],[-94.394354,40.914201],[-94.39495,40.916753],[-94.394975,40.923752],[-94.391097,40.924766],[-94.390262,40.925864],[-94.390137,40.928961],[-94.389016,40.930502],[-94.38663,40.932316],[-94.384368,40.93578],[-94.385337,40.936597],[-94.383009,40.9376],[-94.379839,40.939828],[-94.378748,40.940402],[-94.376059,40.939973],[-94.376059,40.9425],[-94.394786,40.942548],[-94.39476,40.953369],[-94.40465,40.953467],[-94.410772,40.952874],[-94.413992,40.953218],[-94.414154,40.956654],[-94.451772,40.957329],[-94.451972,40.960865],[-94.451806,40.971925],[-94.433059,40.971752],[-94.433103,40.985395],[-94.41411,40.985442],[-94.414163,41.007006],[-94.423713,41.007002],[-94.424908,41.001767],[-94.42621,40.999468],[-94.442657,40.987526],[-94.442591,40.985466],[-94.452107,40.985507],[-94.452112,41.006479],[-94.458269,41.004112],[-94.463948,41.002771],[-94.467425,41.001337],[-94.470788,40.999159],[-94.471094,41.014522],[-94.490181,41.014563],[-94.489864,41.000117],[-94.508926,41.000194],[-94.508535,40.986045],[-94.51858,40.985721],[-94.527565,40.985807],[-94.565687,40.985731],[-94.565663,40.978873],[-94.585408,40.978879],[-94.585586,40.957256]]]}},{"type":"Feature","properties":{"zcta5":"50840","AFFGEOID10":"8600000US50840","GEOID10":"50840","ALAND10":129509331,"AWATER10":439485,"county_name":"Taylor","state_code":"IA","county_state":"Taylor County, IA","county_fips":"19173","risk_level_county":"Medium Risk (70–79% vaccinated)","mean_vaccination_rate_county":71.58,"risk_level_zcta":"Very High Risk (<60% vaccinated)","mean_vaccination_rate_zips":56.22,"cases":9},"geometry":{"type":"Polygon","coordinates":[[[-94.453376,40.856179],[-94.471647,40.855962],[-94.471863,40.855961],[-94.482799,40.841569],[-94.509672,40.841582],[-94.509668,40.827102],[-94.533722,40.827156],[-94.533786,40.825389],[-94.536349,40.823345],[-94.538261,40.819552],[-94.539736,40.81845],[-94.547491,40.816906],[-94.550663,40.815578],[-94.556131,40.815218],[-94.564071,40.81264],[-94.566777,40.812599],[-94.566205,40.798741],[-94.556426,40.798661],[-94.556651,40.790812],[-94.552671,40.791896],[-94.547763,40.792489],[-94.547887,40.769693],[-94.533918,40.769479],[-94.54277,40.755121],[-94.544699,40.75232],[-94.550623,40.744056],[-94.549792,40.744267],[-94.560785,40.726322],[-94.47147,40.725934],[-94.471468,40.740388],[-94.452506,40.740331],[-94.452641,40.769123],[-94.44333,40.769214],[-94.433846,40.76906],[-94.434077,40.783487],[-94.414802,40.783712],[-94.414849,40.798098],[-94.405273,40.798129],[-94.405111,40.806341],[-94.405796,40.80798],[-94.410084,40.813275],[-94.414881,40.82392],[-94.415021,40.827664],[-94.41491,40.840178],[-94.415449,40.846056],[-94.415301,40.848947],[-94.424168,40.849276],[-94.424441,40.856154],[-94.453376,40.856179]]]}},{"type":"Feature","properties":{"zcta5":"50836","AFFGEOID10":"8600000US50836","GEOID10":"50836","ALAND10":231152092,"AWATER10":1676661,"county_name":"Taylor","state_code":"IA","county_state":"Taylor County, IA","county_fips":"19173","risk_level_county":"Medium Risk (70–79% vaccinated)","mean_vaccination_rate_county":71.58,"risk_level_zcta":"Medium Risk (70–79% vaccinated)","mean_vaccination_rate_zips":75.04,"cases":9},"geometry":{"type":"Polygon","coordinates":[[[-94.471084,40.711825],[-94.471172,40.697341],[-94.50851,40.697407],[-94.518519,40.697586],[-94.518427,40.675873],[-94.52792,40.67597],[-94.528005,40.657834],[-94.547106,40.657881],[-94.5472,40.639815],[-94.556696,40.639836],[-94.557157,40.653772],[-94.561065,40.654237],[-94.572449,40.654296],[-94.570653,40.653034],[-94.574838,40.650856],[-94.57714,40.648198],[-94.578678,40.647166],[-94.581202,40.647327],[-94.585778,40.642448],[-94.585778,40.639938],[-94.623508,40.640136],[-94.623592,40.589345],[-94.647275,40.589458],[-94.647286,40.582519],[-94.642491,40.581897],[-94.6426024900192,40.571311627647404],[-94.632032,40.571186],[-94.594001,40.570966],[-94.542154,40.570809],[-94.541828,40.570809],[-94.538318,40.570763],[-94.537058,40.570763],[-94.533878,40.570739],[-94.48928,40.570707],[-94.471213,40.570825],[-94.470648,40.57083],[-94.470464889832,40.570832028777396],[-94.460088,40.570947],[-94.429725,40.571041],[-94.3892019661846,40.57122370487679],[-94.386929,40.574778],[-94.386727,40.578169],[-94.38635,40.599561],[-94.395841,40.599623],[-94.395816,40.614154],[-94.386208,40.614048],[-94.385533,40.639315],[-94.411088,40.639407],[-94.412269,40.641594],[-94.416345,40.641939],[-94.419821,40.642814],[-94.419585,40.639409],[-94.432904,40.639474],[-94.433298,40.653068],[-94.432456,40.653774],[-94.418876,40.653937],[-94.419302,40.660027],[-94.418875,40.66087],[-94.415487,40.661035],[-94.414835,40.661678],[-94.414726,40.665563],[-94.409846,40.665629],[-94.409918,40.668137],[-94.404773,40.668189],[-94.404778,40.675517],[-94.416257,40.675474],[-94.416078,40.678556],[-94.413604,40.683169],[-94.412527,40.684657],[-94.405498,40.697923],[-94.405089,40.699525],[-94.404745,40.721802],[-94.404174,40.722921],[-94.405329,40.725092],[-94.407414,40.725822],[-94.433562,40.725897],[-94.433101,40.718973],[-94.433074,40.711624],[-94.471084,40.711825]]]}},{"type":"Feature","properties":{"zcta5":"50864","AFFGEOID10":"8600000US50864","GEOID10":"50864","ALAND10":377081675,"AWATER10":772031,"county_name":"Taylor","state_code":"IA","county_state":"Taylor County, IA","county_fips":"19173","risk_level_county":"Medium Risk (70–79% vaccinated)","mean_vaccination_rate_county":71.58,"risk_level_zcta":"Higher Risk (60–69% vaccinated)","mean_vaccination_rate_zips":64.82,"cases":9},"geometry":{"type":"Polygon","coordinates":[[[-95.118458,40.900957],[-95.118679,40.86506],[-95.111444,40.85736],[-95.080643,40.857454],[-95.08061,40.871418],[-94.995192,40.871729],[-94.995227,40.864645],[-94.990468,40.864427],[-94.99042,40.857278],[-94.985834,40.857309],[-94.985761,40.842773],[-94.9746,40.842768],[-94.974694,40.838692],[-94.973843,40.835352],[-94.973861,40.832155],[-94.969111,40.832074],[-94.969079,40.827884],[-94.956039,40.828042],[-94.95606,40.831803],[-94.95209,40.831818],[-94.952072,40.828628],[-94.928924,40.842899],[-94.919512,40.848993],[-94.919477,40.84279],[-94.881594,40.842573],[-94.881301,40.835368],[-94.871722,40.835453],[-94.871805,40.84257],[-94.862916,40.842506],[-94.862959,40.838793],[-94.852683,40.838633],[-94.85266,40.827955],[-94.846395,40.827957],[-94.835523,40.833175],[-94.835552,40.835916],[-94.833014,40.843534],[-94.832064,40.844698],[-94.830137,40.845016],[-94.828854,40.844361],[-94.82882,40.845897],[-94.819753,40.845988],[-94.819769,40.856884],[-94.852795,40.856898],[-94.852881,40.870495],[-94.87199,40.871519],[-94.872031,40.885967],[-94.887722,40.886006],[-94.888627,40.884238],[-94.89101,40.8815],[-94.89838,40.878611],[-94.901401,40.87672],[-94.90349,40.874258],[-94.908705,40.874231],[-94.910394,40.873761],[-94.910416,40.890793],[-94.910836,40.896695],[-94.913398,40.898347],[-94.913663,40.900685],[-94.928459,40.900653],[-94.928604,40.90177],[-94.927884,41.00333],[-94.927733,41.005595],[-94.927873,41.006255],[-94.92784,41.029968],[-94.910376,41.030579],[-94.910346,41.04125],[-94.914634,41.041434],[-94.915165,41.041961],[-94.915067,41.052148],[-94.910171,41.052495],[-94.910132,41.065595],[-94.927683,41.066023],[-94.927654,41.133428],[-94.927576,41.137294],[-94.927587,41.158508],[-94.958532,41.158298],[-94.957463,41.159004],[-94.95816,41.160514],[-94.952258,41.161818],[-94.946627,41.163504],[-94.946616,41.172971],[-94.96628,41.173041],[-94.984771,41.172996],[-94.984589,41.161484],[-94.984891,41.158475],[-94.988452,41.144682],[-94.985968,41.144689],[-94.985959,41.143735],[-94.983494,41.144566],[-94.975,41.144619],[-94.975093,41.137397],[-94.984769,41.137429],[-94.984777,41.138595],[-94.988632,41.138547],[-94.985983,41.129108],[-94.988103,41.128403],[-94.991775,41.128243],[-94.992691,41.126281],[-94.994692,41.124777],[-94.993233,41.123191],[-94.9932,41.118305],[-94.994929,41.118409],[-94.993369,41.116549],[-94.994938,41.116257],[-94.994526,41.115539],[-94.984786,41.115785],[-94.985104,41.080728],[-94.988496,41.080775],[-94.990128,41.081458],[-94.991494,41.080862],[-94.99444,41.080721],[-94.995957,41.083661],[-94.999406,41.086647],[-94.999366,41.083349],[-95.003739,41.083409],[-95.003895,41.079737],[-95.041942,41.079851],[-95.041694,41.115926],[-95.079885,41.11618],[-95.080216,41.101682],[-95.07047,41.101677],[-95.070416,41.087231],[-95.080191,41.087176],[-95.080422,41.079914],[-95.080308,41.07264],[-95.095607,41.072676],[-95.099325,41.0728],[-95.09877,41.059665],[-95.079452,41.059693],[-95.079895,41.066824],[-95.056087,41.066706],[-95.055863,41.059509],[-95.032532,41.059271],[-95.032681,41.045631],[-95.023183,41.045588],[-95.022965,41.023098],[-95.032699,41.023103],[-95.032737,41.030302],[-95.036376,41.030305],[-95.036226,41.028611],[-95.036246,41.015867],[-95.023268,41.015803],[-95.02339,41.001901],[-95.018363,41.001348],[-95.0043,41.001308],[-95.004375,40.981265],[-95.023503,40.981716],[-95.023504,40.977769],[-95.025718,40.976994],[-95.027786,40.975288],[-95.029324,40.978605],[-95.032916,40.977098],[-95.035904,40.977693],[-95.039645,40.979683],[-95.04206,40.980096],[-95.037497,40.976675],[-95.039425,40.974999],[-95.036792,40.975167],[-95.038093,40.973115],[-95.03752,40.97192],[-95.039663,40.96767],[-95.042003,40.966097],[-95.042021,40.955041],[-95.050734,40.955064],[-95.051465,40.958726],[-95.060399,40.958749],[-95.060758,40.929833],[-95.070033,40.929881],[-95.070418,40.922648],[-95.079912,40.92268],[-95.080193,40.915403],[-95.099339,40.915415],[-95.099395,40.900916],[-95.118458,40.900957]]]}},{"type":"Feature","properties":{"zcta5":"51632","AFFGEOID10":"8600000US51632","GEOID10":"51632","ALAND10":540328741,"AWATER10":377776,"county_name":"Taylor","state_code":"IA","county_state":"Taylor County, IA","county_fips":"19173","risk_level_county":"Medium Risk (70–79% vaccinated)","mean_vaccination_rate_county":71.58,"risk_level_zcta":"Higher Risk (60–69% vaccinated)","mean_vaccination_rate_zips":68.06,"cases":9},"geometry":{"type":"Polygon","coordinates":[[[-95.193866,40.771303],[-95.194153,40.770005],[-95.197174,40.763036],[-95.200366,40.753262],[-95.198131,40.753289],[-95.198183,40.745505],[-95.194364,40.745366],[-95.194604,40.735261],[-95.196806,40.735202],[-95.196778,40.731557],[-95.197287,40.72798],[-95.198048,40.722819],[-95.199887,40.722736],[-95.199982,40.717685],[-95.189064,40.717641],[-95.189033,40.713983],[-95.18111,40.713902],[-95.181224,40.711823],[-95.176417,40.71176],[-95.176883,40.693621],[-95.172219,40.693585],[-95.172301,40.689798],[-95.153205,40.689157],[-95.153711,40.675225],[-95.144317,40.675133],[-95.144961,40.653355],[-95.127346,40.653155],[-95.126033,40.651008],[-95.125783,40.640737],[-95.124913,40.639293],[-95.125701,40.638686],[-95.125793,40.629156],[-95.120877,40.629202],[-95.120866,40.638602],[-95.10588,40.638448],[-95.106412,40.635714],[-95.107882,40.633243],[-95.10734,40.631687],[-95.108149,40.630017],[-95.106856,40.626976],[-95.106239,40.623906],[-95.059059,40.623448],[-95.059136,40.608864],[-95.030388,40.608517],[-95.03045,40.615601],[-95.021712,40.615367],[-95.019353,40.615592],[-95.019832,40.61788],[-95.01941,40.620922],[-95.01977,40.622432],[-95.019582,40.626905],[-95.0206,40.631321],[-95.019458,40.634477],[-95.019948,40.637206],[-95.008683,40.637433],[-95.005201,40.637686],[-95.003575,40.63713],[-94.962243,40.636239],[-94.962294,40.62174],[-94.952844,40.621926],[-94.953041,40.636055],[-94.914732,40.635121],[-94.914429,40.6641],[-94.91471,40.666024],[-94.913124,40.727285],[-94.928529,40.727399],[-94.928448,40.747318],[-94.928276,40.749177],[-94.928938,40.750742],[-94.928664,40.813596],[-94.918241,40.81364],[-94.916984,40.814916],[-94.914518,40.815708],[-94.913429,40.818342],[-94.9134,40.820872],[-94.919438,40.820895],[-94.919477,40.84279],[-94.919512,40.848993],[-94.928924,40.842899],[-94.952072,40.828628],[-94.95209,40.831818],[-94.95606,40.831803],[-94.956039,40.828042],[-94.969079,40.827884],[-94.969111,40.832074],[-94.973861,40.832155],[-94.973843,40.835352],[-94.974694,40.838692],[-94.9746,40.842768],[-94.985761,40.842773],[-94.985834,40.857309],[-94.99042,40.857278],[-94.990468,40.864427],[-94.995227,40.864645],[-94.995192,40.871729],[-95.08061,40.871418],[-95.080643,40.857454],[-95.111444,40.85736],[-95.118679,40.86506],[-95.118458,40.900957],[-95.156199,40.901035],[-95.156332,40.874992],[-95.156074,40.871977],[-95.15626,40.857475],[-95.137749,40.857453],[-95.137692,40.828467],[-95.147209,40.828491],[-95.147129,40.818404],[-95.167372,40.828583],[-95.171632,40.828196],[-95.173448,40.828607],[-95.17787,40.828598],[-95.179091,40.818983],[-95.179236,40.814082],[-95.173381,40.814295],[-95.167979,40.814084],[-95.156384,40.814049],[-95.156414,40.800475],[-95.160854,40.798387],[-95.164436,40.794447],[-95.166603,40.790499],[-95.175519,40.790571],[-95.175568,40.78588],[-95.186875,40.785781],[-95.192161,40.77416],[-95.193866,40.771303]],[[-95.159095,40.739049],[-95.154611,40.739053],[-95.153678,40.738047],[-95.154015,40.734374],[-95.15046,40.733445],[-95.153843,40.73205],[-95.159061,40.729393],[-95.159095,40.739049]]]}},{"type":"Feature","properties":{"zcta5":"50833","AFFGEOID10":"8600000US50833","GEOID10":"50833","ALAND10":532934620,"AWATER10":3390650,"county_name":"Taylor","state_code":"IA","county_state":"Taylor County, IA","county_fips":"19173","risk_level_county":"Medium Risk (70–79% vaccinated)","mean_vaccination_rate_county":71.58,"risk_level_zcta":"Higher Risk (60–69% vaccinated)","mean_vaccination_rate_zips":66,"cases":9},"geometry":{"type":"Polygon","coordinates":[[[-94.914742,40.631095],[-94.914818,40.599179],[-94.914896,40.575068],[-94.901451,40.574877],[-94.896801,40.574738],[-94.8870843110024,40.5746321105316],[-94.823758,40.573942],[-94.819978,40.573714],[-94.811188,40.573532],[-94.773988,40.572977],[-94.716665,40.572201],[-94.714925,40.572201],[-94.6871851848644,40.5718457134183],[-94.682601,40.571787],[-94.6426024900192,40.571311627647404],[-94.642491,40.581897],[-94.647286,40.582519],[-94.647275,40.589458],[-94.623592,40.589345],[-94.623508,40.640136],[-94.585778,40.639938],[-94.585778,40.642448],[-94.581202,40.647327],[-94.578678,40.647166],[-94.57714,40.648198],[-94.574838,40.650856],[-94.570653,40.653034],[-94.572449,40.654296],[-94.561065,40.654237],[-94.557157,40.653772],[-94.556696,40.639836],[-94.5472,40.639815],[-94.547106,40.657881],[-94.528005,40.657834],[-94.52792,40.67597],[-94.518427,40.675873],[-94.518519,40.697586],[-94.50851,40.697407],[-94.471172,40.697341],[-94.471084,40.711825],[-94.47147,40.725934],[-94.560785,40.726322],[-94.549792,40.744267],[-94.550623,40.744056],[-94.544699,40.75232],[-94.54277,40.755121],[-94.533918,40.769479],[-94.547887,40.769693],[-94.547763,40.792489],[-94.552671,40.791896],[-94.556651,40.790812],[-94.559523,40.789319],[-94.562098,40.788843],[-94.565766,40.788787],[-94.572851,40.787686],[-94.574416,40.786728],[-94.576026,40.787633],[-94.578778,40.787105],[-94.581693,40.785029],[-94.583248,40.784531],[-94.585756,40.781981],[-94.585763,40.798747],[-94.596751,40.798899],[-94.599676,40.797238],[-94.599179,40.794533],[-94.600898,40.793547],[-94.598806,40.792233],[-94.598039,40.789095],[-94.596054,40.788289],[-94.595029,40.786668],[-94.597216,40.78617],[-94.596662,40.784494],[-94.595368,40.785138],[-94.594129,40.782452],[-94.594913,40.78036],[-94.598222,40.779252],[-94.599885,40.776425],[-94.600001,40.774927],[-94.602234,40.772709],[-94.604233,40.7716],[-94.604838,40.771452],[-94.604855,40.777259],[-94.62398,40.777275],[-94.624925,40.778364],[-94.626989,40.778739],[-94.629985,40.780767],[-94.633132,40.781496],[-94.635728,40.784763],[-94.640574,40.784877],[-94.642809,40.78541],[-94.642813,40.79212],[-94.680586,40.791828],[-94.680475,40.770155],[-94.700295,40.770175],[-94.700319,40.741235],[-94.719205,40.741322],[-94.719244,40.726843],[-94.733613,40.726893],[-94.736535,40.728456],[-94.737817,40.72998],[-94.73816,40.726947],[-94.778762,40.726961],[-94.779204,40.732739],[-94.778674,40.740838],[-94.784409,40.740883],[-94.786167,40.741396],[-94.794957,40.741491],[-94.794868,40.726929],[-94.818395,40.726944],[-94.818695,40.710366],[-94.823439,40.710371],[-94.823705,40.6959],[-94.827903,40.695936],[-94.828472,40.695452],[-94.82879,40.677918],[-94.847918,40.678307],[-94.847677,40.685308],[-94.876448,40.685543],[-94.876731,40.649389],[-94.876946,40.627721],[-94.909346,40.628061],[-94.912553,40.630306],[-94.914742,40.631095]]]}},{"type":"Feature","properties":{"zcta5":"50857","AFFGEOID10":"8600000US50857","GEOID10":"50857","ALAND10":131037149,"AWATER10":227997,"county_name":"Taylor","state_code":"IA","county_state":"Taylor County, IA","county_fips":"19173","risk_level_county":"Medium Risk (70–79% vaccinated)","mean_vaccination_rate_county":71.58,"risk_level_zcta":"Very High Risk (<60% vaccinated)","mean_vaccination_rate_zips":59.61,"cases":9},"geometry":{"type":"Polygon","coordinates":[[[-94.910171,41.052495],[-94.915067,41.052148],[-94.915165,41.041961],[-94.914634,41.041434],[-94.910346,41.04125],[-94.910376,41.030579],[-94.92784,41.029968],[-94.927873,41.006255],[-94.927733,41.005595],[-94.927884,41.00333],[-94.928604,40.90177],[-94.928459,40.900653],[-94.913663,40.900685],[-94.913398,40.898347],[-94.910836,40.896695],[-94.910416,40.890793],[-94.910394,40.873761],[-94.908705,40.874231],[-94.90349,40.874258],[-94.901401,40.87672],[-94.89838,40.878611],[-94.89101,40.8815],[-94.888627,40.884238],[-94.887722,40.886006],[-94.872031,40.885967],[-94.87199,40.871519],[-94.852881,40.870495],[-94.852795,40.856898],[-94.819769,40.856884],[-94.819753,40.845988],[-94.82882,40.845897],[-94.828854,40.844361],[-94.830137,40.845016],[-94.832064,40.844698],[-94.833014,40.843534],[-94.835552,40.835916],[-94.835523,40.833175],[-94.816542,40.842446],[-94.804742,40.842358],[-94.804743,40.856785],[-94.814652,40.85687],[-94.814787,40.886824],[-94.813408,40.886726],[-94.812443,40.890788],[-94.813304,40.895286],[-94.816179,40.900595],[-94.833891,40.900583],[-94.833784,40.942629],[-94.832987,40.943751],[-94.830663,40.944646],[-94.829014,40.947996],[-94.829019,40.956933],[-94.82747,40.958325],[-94.824286,40.958313],[-94.824244,40.967561],[-94.83768,40.964653],[-94.840275,40.963806],[-94.847396,40.9625],[-94.851711,40.961286],[-94.872267,40.95636],[-94.872265,40.958638],[-94.880581,40.958895],[-94.880639,40.966418],[-94.876914,40.966408],[-94.876901,40.973173],[-94.872327,40.973136],[-94.87233,40.980449],[-94.85281,40.979776],[-94.85329,40.98136],[-94.85324,41.001032],[-94.872192,41.00099],[-94.872384,41.031977],[-94.87711,41.030338],[-94.881645,41.030247],[-94.881855,41.040673],[-94.881597,41.051857],[-94.910171,41.052495]]]}}]}