{"type":"FeatureCollection","features":[{"type":"Feature","properties":{"zcta5":"56479","AFFGEOID10":"8600000US56479","GEOID10":"56479","ALAND10":512886872,"AWATER10":9784859,"county_name":"Todd","state_code":"MN","county_state":"Todd County, MN","county_fips":"27153","risk_level_county":"Higher Risk (60–69% vaccinated)","mean_vaccination_rate_county":69.61,"risk_level_zcta":"Medium Risk (70–79% vaccinated)","mean_vaccination_rate_zips":78.49,"cases":17},"geometry":{"type":"Polygon","coordinates":[[[-94.946064,46.29638],[-94.945981,46.28941],[-94.94061,46.28926],[-94.94085,46.281846],[-94.916452,46.281878],[-94.915959,46.259447],[-94.903984,46.259412],[-94.904391,46.255506],[-94.907578,46.252475],[-94.90909,46.250137],[-94.909363,46.245808],[-94.907685,46.237846],[-94.908231,46.235015],[-94.910244,46.234189],[-94.91033,46.23035],[-94.904418,46.230289],[-94.90447,46.226476],[-94.899288,46.22647],[-94.899133,46.230477],[-94.895058,46.23049],[-94.895063,46.238266],[-94.885109,46.238281],[-94.885155,46.245642],[-94.875466,46.245794],[-94.875664,46.259513],[-94.875286,46.261446],[-94.875706,46.26398],[-94.86858,46.264059],[-94.866348,46.262073],[-94.866419,46.260787],[-94.864013,46.259247],[-94.86275,46.258862],[-94.859457,46.259348],[-94.855896,46.260705],[-94.85133,46.259187],[-94.848025,46.259761],[-94.843779,46.259871],[-94.842927,46.255385],[-94.84241,46.253465],[-94.812811,46.252843],[-94.812423,46.239124],[-94.810563,46.238656],[-94.807335,46.238837],[-94.806879,46.237695],[-94.804955,46.237652],[-94.805442,46.236706],[-94.802875,46.236842],[-94.801048,46.238204],[-94.803707,46.239495],[-94.804357,46.241112],[-94.802157,46.243112],[-94.799945,46.244235],[-94.799062,46.245991],[-94.795157,46.248507],[-94.795653,46.250289],[-94.79494,46.251922],[-94.792288,46.252658],[-94.790565,46.254025],[-94.787351,46.254402],[-94.786123,46.256636],[-94.782694,46.258507],[-94.781,46.260388],[-94.775523,46.260604],[-94.771204,46.262559],[-94.767571,46.261402],[-94.764102,46.261231],[-94.762428,46.262003],[-94.761261,46.263662],[-94.752046,46.270015],[-94.748028,46.270797],[-94.74762,46.27166],[-94.749233,46.273354],[-94.747878,46.274759],[-94.74157,46.276059],[-94.738449,46.278378],[-94.732851,46.279351],[-94.731188,46.279321],[-94.728059,46.28044],[-94.727217,46.28232],[-94.729323,46.284912],[-94.728885,46.286122],[-94.726323,46.285771],[-94.725932,46.284301],[-94.724313,46.284339],[-94.723497,46.286896],[-94.721684,46.287201],[-94.731602,46.296635],[-94.745468,46.31104],[-94.727758,46.311],[-94.699101,46.311389],[-94.695336,46.31314],[-94.695822,46.343678],[-94.666626,46.340825],[-94.658562,46.34069],[-94.658519,46.342421],[-94.661437,46.342151],[-94.662518,46.34551],[-94.660889,46.346542],[-94.653461,46.346501],[-94.653462,46.348678],[-94.658485,46.35212],[-94.659961,46.351932],[-94.662477,46.350034],[-94.663509,46.350236],[-94.66481,46.352143],[-94.6662,46.359051],[-94.669385,46.360755],[-94.672221,46.359754],[-94.673823,46.35821],[-94.676136,46.350662],[-94.682034,46.350027],[-94.684704,46.350842],[-94.68713,46.351038],[-94.693788,46.349653],[-94.697337,46.349425],[-94.69944,46.349981],[-94.702835,46.350004],[-94.708448,46.351219],[-94.714809,46.352254],[-94.717922,46.350791],[-94.721382,46.35154],[-94.722769,46.352321],[-94.726621,46.356523],[-94.728074,46.359699],[-94.730136,46.361776],[-94.731672,46.36418],[-94.731885,46.366906],[-94.731442,46.368605],[-94.731583,46.372348],[-94.730885,46.376421],[-94.729599,46.37891],[-94.72831,46.379798],[-94.728231,46.381241],[-94.73196,46.383999],[-94.736302,46.382839],[-94.738807,46.380965],[-94.741111,46.379995],[-94.742929,46.38051],[-94.743615,46.38178],[-94.743008,46.383991],[-94.743991,46.384728],[-94.746153,46.384669],[-94.748221,46.383313],[-94.749367,46.380301],[-94.751798,46.379053],[-94.752963,46.380111],[-94.753365,46.383123],[-94.755042,46.384523],[-94.758857,46.382514],[-94.760012,46.383122],[-94.760431,46.384972],[-94.759723,46.387713],[-94.761757,46.389469],[-94.764766,46.38949],[-94.765434,46.390228],[-94.76284,46.392548],[-94.76264,46.393829],[-94.764885,46.395713],[-94.769599,46.396856],[-94.771544,46.396164],[-94.771036,46.393792],[-94.772599,46.392007],[-94.775144,46.39224],[-94.77882,46.394012],[-94.778908,46.455374],[-94.767853,46.4554],[-94.758655,46.455996],[-94.758682,46.469967],[-94.748999,46.470033],[-94.743783,46.472991],[-94.737824,46.47722],[-94.73015,46.477371],[-94.726,46.481362],[-94.720548,46.483766],[-94.717478,46.484836],[-94.717828,46.499271],[-94.696639,46.499385],[-94.696827,46.508314],[-94.693134,46.510251],[-94.6902,46.510735],[-94.685651,46.509778],[-94.684186,46.507497],[-94.68268,46.506336],[-94.680917,46.505994],[-94.678179,46.503914],[-94.672822,46.502641],[-94.66822,46.502266],[-94.666107,46.503312],[-94.663821,46.505419],[-94.66376,46.506751],[-94.66611,46.508879],[-94.666025,46.511334],[-94.664475,46.514161],[-94.696959,46.513826],[-94.697122,46.536837],[-94.696058,46.539579],[-94.692487,46.541994],[-94.692756,46.543133],[-94.692204,46.543464],[-94.695297,46.545006],[-94.697048,46.547845],[-94.697032,46.560031],[-94.689153,46.559051],[-94.686672,46.559487],[-94.685545,46.560675],[-94.68286,46.562015],[-94.681674,46.563604],[-94.678017,46.563935],[-94.676547,46.565666],[-94.67524,46.5662],[-94.670149,46.566465],[-94.667811,46.567879],[-94.664855,46.568567],[-94.660562,46.570365],[-94.657916,46.572122],[-94.6551,46.572142],[-94.655561,46.62996],[-94.66122,46.629985],[-94.660948,46.716675],[-94.702193,46.716473],[-94.702489,46.687809],[-94.712305,46.687638],[-94.712652,46.680607],[-94.722764,46.680335],[-94.732515,46.680354],[-94.732348,46.678416],[-94.733483,46.676739],[-94.733811,46.658955],[-94.74432,46.658955],[-94.744324,46.651812],[-94.749643,46.651534],[-94.74959,46.647001],[-94.754529,46.644144],[-94.765077,46.643891],[-94.765331,46.643028],[-94.765407,46.630066],[-94.707786,46.63005],[-94.714563,46.623098],[-94.715991,46.619947],[-94.714416,46.61855],[-94.715224,46.617739],[-94.716357,46.614083],[-94.717965,46.613472],[-94.717901,46.586631],[-94.717936,46.577598],[-94.72244,46.575836],[-94.72803,46.575875],[-94.73155,46.572211],[-94.749568,46.572252],[-94.747111,46.5746],[-94.745632,46.577262],[-94.7443,46.578309],[-94.743292,46.580505],[-94.738186,46.584574],[-94.735376,46.586584],[-94.779848,46.586539],[-94.779817,46.57199],[-94.79853,46.57196],[-94.7991,46.57456],[-94.801575,46.573708],[-94.800442,46.572005],[-94.802956,46.570269],[-94.806676,46.569661],[-94.807946,46.567675],[-94.812772,46.565257],[-94.82079,46.564608],[-94.821996,46.564044],[-94.822657,46.562042],[-94.821109,46.561086],[-94.817699,46.560406],[-94.815491,46.560528],[-94.81672,46.5595],[-94.81667,46.55747],[-94.82188,46.55745],[-94.821487,46.543638],[-94.811617,46.543612],[-94.812838,46.541799],[-94.81666,46.5428],[-94.81703,46.54035],[-94.82142,46.5403],[-94.82283,46.53892],[-94.83019,46.53913],[-94.8318,46.53826],[-94.83189,46.53764],[-94.831757,46.51565],[-94.84248,46.515538],[-94.842468,46.529432],[-94.863348,46.52894],[-94.863334,46.543148],[-94.88471,46.54298],[-94.88403,46.49915],[-94.86298,46.49916],[-94.86287,46.48675],[-94.85827,46.48663],[-94.85457,46.48554],[-94.85351,46.48461],[-94.859188,46.484971],[-94.863025,46.484763],[-94.86285,46.45564],[-94.88397,46.45566],[-94.883956,46.4457],[-94.890775,46.445627],[-94.89084,46.440924],[-94.88394,46.44077],[-94.883995,46.431289],[-94.889684,46.431163],[-94.889813,46.427116],[-94.89706,46.427123],[-94.897009,46.42467],[-94.900488,46.423299],[-94.903118,46.423649],[-94.90463,46.423101],[-94.90453,46.38322],[-94.904368,46.368748],[-94.904648,46.342589],[-94.907593,46.335777],[-94.909431,46.330798],[-94.91361,46.327439],[-94.919446,46.325318],[-94.908544,46.325304],[-94.910034,46.315642],[-94.91396,46.310954],[-94.915327,46.303492],[-94.919813,46.300051],[-94.919789,46.29636],[-94.946064,46.29638]]]}},{"type":"Feature","properties":{"zcta5":"56389","AFFGEOID10":"8600000US56389","GEOID10":"56389","ALAND10":1494174,"AWATER10":334065,"county_name":"Todd","state_code":"MN","county_state":"Todd County, MN","county_fips":"27153","risk_level_county":"Higher Risk (60–69% vaccinated)","mean_vaccination_rate_county":69.61,"risk_level_zcta":"Lowest Risk (85%+)","mean_vaccination_rate_zips":90.93,"cases":17},"geometry":{"type":"Polygon","coordinates":[[[-95.078586,45.802672],[-95.080768,45.802597],[-95.083442,45.80072],[-95.088632,45.806204],[-95.096498,45.806053],[-95.09641,45.801768],[-95.102245,45.80164],[-95.096513,45.795899],[-95.093638,45.794033],[-95.083699,45.789488],[-95.083796,45.795568],[-95.078558,45.795571],[-95.078586,45.802672]]]}},{"type":"Feature","properties":{"zcta5":"56378","AFFGEOID10":"8600000US56378","GEOID10":"56378","ALAND10":547473228,"AWATER10":19138327,"county_name":"Todd","state_code":"MN","county_state":"Todd County, MN","county_fips":"27153","risk_level_county":"Higher Risk (60–69% vaccinated)","mean_vaccination_rate_county":69.61,"risk_level_zcta":"Medium Risk (70–79% vaccinated)","mean_vaccination_rate_zips":79.05,"cases":17},"geometry":{"type":"Polygon","coordinates":[[[-95.083699,45.789488],[-95.083664,45.787454],[-95.088483,45.790972],[-95.092241,45.792671],[-95.094091,45.793018],[-95.105642,45.792747],[-95.10562,45.789492],[-95.110937,45.789484],[-95.110866,45.785271],[-95.11161,45.77355],[-95.139731,45.773416],[-95.13967,45.758891],[-95.13961,45.613965],[-95.1083,45.61411],[-95.10844,45.607137],[-95.104248,45.604202],[-95.102831,45.601969],[-95.100239,45.599711],[-95.059487,45.599799],[-95.05763,45.60025],[-95.05667,45.60236],[-95.05666,45.5998],[-95.03815,45.599717],[-95.037598,45.603878],[-95.039586,45.607022],[-95.038695,45.608459],[-95.036377,45.609856],[-95.035997,45.610852],[-95.032841,45.611633],[-95.031313,45.612776],[-95.027455,45.612488],[-95.026062,45.614337],[-95.015149,45.614439],[-95.01553,45.59987],[-95.005409,45.599874],[-95.005383,45.591425],[-94.995036,45.591494],[-94.995028,45.585333],[-94.941216,45.585484],[-94.941331,45.591987],[-94.932768,45.591946],[-94.93272,45.59463],[-94.92878,45.59452],[-94.92547,45.59612],[-94.92153,45.59504],[-94.91779,45.59637],[-94.91724,45.59889],[-94.91473,45.5978],[-94.91213,45.59747],[-94.91173,45.59906],[-94.90952,45.60006],[-94.89146,45.60014],[-94.891361,45.620846],[-94.89259,45.62113],[-94.89267,45.62528],[-94.89139,45.62587],[-94.89148,45.66312],[-94.89042,45.66517],[-94.88157,45.66578],[-94.88068,45.66657],[-94.88123,45.6708],[-94.87279,45.67285],[-94.86567,45.67288],[-94.86567,45.67797],[-94.86052,45.68095],[-94.86034,45.67751],[-94.85548,45.67708],[-94.85457,45.67534],[-94.85006,45.67554],[-94.85011,45.67287],[-94.839819,45.67285],[-94.839884,45.67511],[-94.841327,45.676884],[-94.843861,45.677976],[-94.846891,45.678228],[-94.846902,45.680936],[-94.85712,45.685528],[-94.856459,45.687889],[-94.853442,45.68824],[-94.854514,45.690846],[-94.8502,45.69097],[-94.84977,45.71463],[-94.85186,45.71637],[-94.8578,45.7164],[-94.859253,45.716817],[-94.86021,45.71828],[-94.86072,45.752465],[-94.858185,45.752488],[-94.858189,45.756242],[-94.849808,45.756165],[-94.849789,45.768207],[-94.846266,45.768223],[-94.846255,45.774478],[-94.829724,45.774399],[-94.829713,45.777822],[-94.828151,45.779664],[-94.827743,45.781605],[-94.822691,45.782127],[-94.820132,45.782974],[-94.808932,45.7898],[-94.808633,45.804665],[-94.8092,45.805823],[-94.811897,45.80678],[-94.856422,45.807003],[-94.858628,45.807526],[-94.859762,45.809044],[-94.860363,45.813851],[-94.860271,45.824134],[-94.859742,45.828715],[-94.859475,45.836207],[-94.859753,45.838059],[-94.859734,45.846433],[-94.845716,45.846409],[-94.848092,45.848297],[-94.847006,45.848617],[-94.848258,45.850686],[-94.851228,45.850688],[-94.854972,45.852076],[-94.855613,45.853715],[-94.860012,45.858818],[-94.859873,45.860971],[-94.86993,45.860937],[-94.870074,45.846427],[-94.909131,45.846324],[-94.90932,45.848028],[-94.907398,45.850139],[-94.901904,45.852257],[-94.901426,45.860811],[-94.911938,45.86076],[-94.912701,45.856675],[-94.912757,45.846328],[-94.913839,45.848187],[-94.917244,45.849271],[-94.917109,45.850394],[-94.914667,45.851652],[-94.915301,45.855393],[-94.917158,45.856433],[-94.918026,45.858189],[-94.919901,45.857058],[-94.92172,45.857147],[-94.919207,45.860121],[-94.919756,45.863893],[-94.918812,45.866272],[-94.922755,45.86661],[-94.923687,45.865534],[-94.925643,45.86548],[-94.927536,45.867566],[-94.92855,45.866816],[-94.932416,45.865697],[-94.933894,45.866355],[-94.941116,45.864796],[-94.941033,45.862935],[-94.944511,45.862842],[-94.949668,45.864124],[-94.95145,45.865601],[-94.956869,45.866751],[-94.958118,45.867806],[-94.962615,45.867425],[-94.967424,45.866364],[-94.967191,45.863745],[-94.967955,45.863145],[-94.974044,45.861927],[-94.976688,45.860806],[-94.985253,45.860822],[-94.985858,45.853806],[-94.99217,45.853605],[-94.994108,45.851312],[-94.996869,45.849062],[-95.000303,45.848364],[-95.003157,45.84856],[-95.003707,45.847356],[-95.005446,45.848175],[-95.007892,45.847066],[-95.010714,45.847766],[-95.010131,45.846493],[-95.016684,45.846565],[-95.016647,45.832162],[-95.020337,45.831655],[-95.02386,45.828713],[-95.027068,45.828441],[-95.027074,45.825102],[-95.048175,45.825096],[-95.048159,45.821702],[-95.052982,45.821614],[-95.053006,45.825081],[-95.06868,45.825083],[-95.06869,45.820976],[-95.073482,45.820941],[-95.073556,45.813603],[-95.078723,45.813542],[-95.078586,45.802672],[-95.078558,45.795571],[-95.083796,45.795568],[-95.083699,45.789488]]]}},{"type":"Feature","properties":{"zcta5":"56438","AFFGEOID10":"8600000US56438","GEOID10":"56438","ALAND10":372081208,"AWATER10":6426063,"county_name":"Todd","state_code":"MN","county_state":"Todd County, MN","county_fips":"27153","risk_level_county":"Higher Risk (60–69% vaccinated)","mean_vaccination_rate_county":69.61,"risk_level_zcta":"Medium Risk (70–79% vaccinated)","mean_vaccination_rate_zips":77.86,"cases":17},"geometry":{"type":"Polygon","coordinates":[[[-94.895058,46.23049],[-94.895375,46.194117],[-94.916307,46.194293],[-94.91649,46.179408],[-94.89571,46.179462],[-94.896536,46.135918],[-94.916448,46.135735],[-94.91827,46.132851],[-94.917511,46.132027],[-94.917121,46.098162],[-94.917949,46.095842],[-94.921334,46.095054],[-94.924063,46.095907],[-94.924916,46.094096],[-94.927589,46.092114],[-94.942872,46.092201],[-94.94282,46.085293],[-94.948039,46.084471],[-94.948016,46.077683],[-94.932508,46.077654],[-94.932969,46.071191],[-94.936876,46.070331],[-94.938535,46.070786],[-94.94592,46.067911],[-94.946598,46.064578],[-94.947438,46.063165],[-94.963873,46.06313],[-94.964306,46.048601],[-94.959124,46.048587],[-94.959431,46.025896],[-94.931039,46.025944],[-94.931083,46.030009],[-94.927191,46.029962],[-94.927189,46.025748],[-94.921162,46.025702],[-94.917616,46.030674],[-94.917571,46.034074],[-94.873121,46.034092],[-94.869348,46.034325],[-94.867882,46.053554],[-94.863761,46.053081],[-94.858639,46.053019],[-94.856062,46.050881],[-94.853091,46.049137],[-94.850147,46.048831],[-94.850026,46.056089],[-94.813556,46.056318],[-94.802997,46.056026],[-94.80323,46.049909],[-94.806525,46.049124],[-94.813654,46.049091],[-94.813656,46.041506],[-94.810236,46.041455],[-94.810317,46.039371],[-94.806975,46.039338],[-94.806986,46.044999],[-94.792665,46.044983],[-94.792777,46.041969],[-94.772006,46.042144],[-94.772164,46.049391],[-94.762164,46.049449],[-94.762205,46.045684],[-94.751551,46.045611],[-94.751475,46.055007],[-94.745951,46.054906],[-94.746072,46.048805],[-94.741075,46.04875],[-94.741092,46.047275],[-94.735289,46.047118],[-94.735242,46.048933],[-94.730132,46.0489],[-94.730671,46.041369],[-94.719513,46.041228],[-94.719129,46.037878],[-94.714024,46.038036],[-94.71407,46.041676],[-94.709892,46.041632],[-94.709985,46.033924],[-94.699109,46.033909],[-94.699043,46.0375],[-94.689795,46.037457],[-94.689632,46.041528],[-94.684604,46.041399],[-94.684742,46.048939],[-94.67883,46.048894],[-94.678956,46.041365],[-94.65775,46.041374],[-94.65766,46.048993],[-94.647856,46.048921],[-94.647849,46.050001],[-94.647787,46.107816],[-94.755564,46.107571],[-94.758364,46.107916],[-94.762552,46.107502],[-94.771907,46.107416],[-94.771791,46.122605],[-94.76961,46.122262],[-94.766797,46.124771],[-94.765719,46.127143],[-94.766062,46.12903],[-94.765392,46.129924],[-94.765656,46.132972],[-94.767903,46.136757],[-94.770943,46.137719],[-94.771602,46.1398],[-94.771197,46.150701],[-94.761926,46.150779],[-94.760948,46.151861],[-94.753071,46.153853],[-94.752301,46.154389],[-94.752187,46.157797],[-94.750931,46.161008],[-94.752194,46.163773],[-94.752142,46.194751],[-94.739207,46.195199],[-94.716416,46.19506],[-94.710815,46.198048],[-94.710083,46.201365],[-94.709761,46.22376],[-94.692027,46.223851],[-94.68982,46.223312],[-94.688912,46.224416],[-94.689089,46.230823],[-94.685397,46.232947],[-94.69438,46.23765],[-94.695848,46.23798],[-94.699479,46.237252],[-94.700577,46.237614],[-94.701096,46.239916],[-94.702314,46.241012],[-94.700688,46.242718],[-94.700728,46.243745],[-94.702791,46.245568],[-94.705245,46.245485],[-94.706558,46.244537],[-94.706957,46.243026],[-94.709134,46.241573],[-94.7126,46.241578],[-94.716304,46.245295],[-94.718726,46.246833],[-94.720057,46.249163],[-94.71989,46.250668],[-94.717748,46.253785],[-94.714102,46.256758],[-94.712898,46.26025],[-94.714309,46.262656],[-94.714874,46.265082],[-94.714449,46.269482],[-94.71538,46.273106],[-94.716874,46.274649],[-94.720579,46.274677],[-94.726673,46.277051],[-94.728862,46.278192],[-94.729593,46.279541],[-94.727523,46.280372],[-94.727217,46.28232],[-94.728059,46.28044],[-94.731188,46.279321],[-94.732851,46.279351],[-94.738449,46.278378],[-94.74157,46.276059],[-94.747878,46.274759],[-94.749233,46.273354],[-94.74762,46.27166],[-94.748028,46.270797],[-94.752046,46.270015],[-94.761261,46.263662],[-94.762428,46.262003],[-94.764102,46.261231],[-94.767571,46.261402],[-94.771204,46.262559],[-94.775523,46.260604],[-94.781,46.260388],[-94.782694,46.258507],[-94.786123,46.256636],[-94.787351,46.254402],[-94.790565,46.254025],[-94.792288,46.252658],[-94.79494,46.251922],[-94.795653,46.250289],[-94.795157,46.248507],[-94.799062,46.245991],[-94.799945,46.244235],[-94.802157,46.243112],[-94.804357,46.241112],[-94.803707,46.239495],[-94.801048,46.238204],[-94.802875,46.236842],[-94.805442,46.236706],[-94.804955,46.237652],[-94.806879,46.237695],[-94.807335,46.238837],[-94.810563,46.238656],[-94.812423,46.239124],[-94.812811,46.252843],[-94.84241,46.253465],[-94.842927,46.255385],[-94.843779,46.259871],[-94.848025,46.259761],[-94.85133,46.259187],[-94.855896,46.260705],[-94.859457,46.259348],[-94.86275,46.258862],[-94.864013,46.259247],[-94.866419,46.260787],[-94.866348,46.262073],[-94.86858,46.264059],[-94.875706,46.26398],[-94.875286,46.261446],[-94.875664,46.259513],[-94.875466,46.245794],[-94.885155,46.245642],[-94.885109,46.238281],[-94.895063,46.238266],[-94.895058,46.23049]],[[-94.689632,46.041528],[-94.69406,46.041571],[-94.699443,46.041624],[-94.699408,46.044767],[-94.689593,46.04452],[-94.689523,46.04426],[-94.68961,46.042074],[-94.689632,46.041528]]]}},{"type":"Feature","properties":{"zcta5":"56318","AFFGEOID10":"8600000US56318","GEOID10":"56318","ALAND10":103356168,"AWATER10":10907579,"county_name":"Todd","state_code":"MN","county_state":"Todd County, MN","county_fips":"27153","risk_level_county":"Higher Risk (60–69% vaccinated)","mean_vaccination_rate_county":69.61,"risk_level_zcta":"Medium Risk (70–79% vaccinated)","mean_vaccination_rate_zips":73.79,"cases":17},"geometry":{"type":"Polygon","coordinates":[[[-94.714837,45.943331],[-94.714809,45.940622],[-94.720859,45.941401],[-94.725003,45.941122],[-94.726309,45.940305],[-94.726009,45.943957],[-94.750103,45.944127],[-94.743956,45.937567],[-94.739105,45.936405],[-94.742841,45.931388],[-94.744628,45.926036],[-94.746663,45.923481],[-94.746613,45.918913],[-94.748828,45.918612],[-94.766118,45.918605],[-94.765976,45.910809],[-94.76622,45.90405],[-94.756388,45.902432],[-94.754868,45.906995],[-94.752287,45.909459],[-94.74968,45.910792],[-94.748527,45.910137],[-94.748766,45.908142],[-94.751281,45.907402],[-94.752012,45.905835],[-94.755833,45.874965],[-94.755846,45.871774],[-94.756684,45.871359],[-94.754638,45.86927],[-94.755731,45.868703],[-94.755176,45.866933],[-94.75406,45.86589],[-94.750695,45.865282],[-94.747963,45.865757],[-94.745745,45.867989],[-94.745899,45.871165],[-94.745413,45.873177],[-94.741463,45.877475],[-94.741603,45.875164],[-94.736288,45.875181],[-94.736392,45.861079],[-94.736261,45.846709],[-94.73452,45.846196],[-94.716865,45.846098],[-94.714024,45.846519],[-94.709663,45.846032],[-94.694575,45.8458],[-94.695195,45.844425],[-94.695247,45.839037],[-94.690216,45.832642],[-94.690319,45.82393],[-94.689711,45.8228],[-94.686008,45.819062],[-94.6852,45.817154],[-94.68507,45.80268],[-94.669822,45.802803],[-94.669844,45.813389],[-94.65908,45.813636],[-94.659108,45.810209],[-94.654384,45.810234],[-94.654396,45.807245],[-94.649124,45.807229],[-94.649025,45.811606],[-94.644066,45.80979],[-94.64399,45.77395],[-94.58558,45.77425],[-94.586381,45.786749],[-94.5863,45.79162],[-94.585182,45.792322],[-94.58209,45.792393],[-94.581455,45.793033],[-94.581478,45.796048],[-94.571316,45.795705],[-94.571366,45.799511],[-94.577345,45.799668],[-94.576568,45.800466],[-94.576597,45.803292],[-94.581726,45.803247],[-94.579132,45.804075],[-94.578447,45.806299],[-94.576009,45.809873],[-94.57155,45.810321],[-94.576668,45.810524],[-94.576856,45.817763],[-94.587241,45.817691],[-94.587474,45.824498],[-94.582212,45.824636],[-94.582268,45.831396],[-94.587446,45.832373],[-94.598027,45.832248],[-94.598114,45.839195],[-94.596626,45.846223],[-94.606716,45.846104],[-94.607487,45.849225],[-94.612263,45.848064],[-94.617409,45.850981],[-94.625758,45.851044],[-94.626561,45.850398],[-94.635238,45.850429],[-94.63515,45.856725],[-94.64373,45.856441],[-94.643701,45.853597],[-94.643757,45.853048],[-94.646397,45.853333],[-94.649881,45.854836],[-94.652662,45.855538],[-94.656364,45.855052],[-94.655322,45.858473],[-94.6569,45.863528],[-94.658678,45.863581],[-94.658582,45.87164],[-94.657539,45.872626],[-94.655181,45.872582],[-94.653968,45.874133],[-94.655536,45.875437],[-94.654197,45.881089],[-94.655182,45.881988],[-94.655022,45.884999],[-94.654274,45.886698],[-94.656662,45.887958],[-94.656738,45.889233],[-94.683949,45.889245],[-94.68695,45.889445],[-94.70557,45.889422],[-94.705516,45.902496],[-94.703171,45.904003],[-94.684721,45.903758],[-94.684718,45.906037],[-94.683126,45.909279],[-94.679636,45.91117],[-94.680808,45.914107],[-94.684378,45.915469],[-94.684694,45.916212],[-94.684968,45.928919],[-94.684332,45.931326],[-94.68535,45.932915],[-94.687914,45.933407],[-94.692015,45.932554],[-94.694001,45.933248],[-94.711063,45.933325],[-94.710792,45.938978],[-94.711945,45.939778],[-94.711344,45.942724],[-94.714837,45.943331]]]}},{"type":"Feature","properties":{"zcta5":"56382","AFFGEOID10":"8600000US56382","GEOID10":"56382","ALAND10":188639300,"AWATER10":5101361,"county_name":"Todd","state_code":"MN","county_state":"Todd County, MN","county_fips":"27153","risk_level_county":"Higher Risk (60–69% vaccinated)","mean_vaccination_rate_county":69.61,"risk_level_zcta":"Higher Risk (60–69% vaccinated)","mean_vaccination_rate_zips":69.36,"cases":17},"geometry":{"type":"Polygon","coordinates":[[[-94.648217,46.020416],[-94.648182,46.020217],[-94.648321,45.976668],[-94.699903,45.976682],[-94.699973,45.969377],[-94.702691,45.969624],[-94.710397,45.9694],[-94.710209,45.947275],[-94.71488,45.947285],[-94.714837,45.943331],[-94.711344,45.942724],[-94.711945,45.939778],[-94.710792,45.938978],[-94.711063,45.933325],[-94.694001,45.933248],[-94.692015,45.932554],[-94.687914,45.933407],[-94.68535,45.932915],[-94.684332,45.931326],[-94.684968,45.928919],[-94.684694,45.916212],[-94.684378,45.915469],[-94.680808,45.914107],[-94.679636,45.91117],[-94.683126,45.909279],[-94.684718,45.906037],[-94.684721,45.903758],[-94.703171,45.904003],[-94.705516,45.902496],[-94.70557,45.889422],[-94.68695,45.889445],[-94.683949,45.889245],[-94.656738,45.889233],[-94.656662,45.887958],[-94.654274,45.886698],[-94.655022,45.884999],[-94.655182,45.881988],[-94.654197,45.881089],[-94.655536,45.875437],[-94.653968,45.874133],[-94.655181,45.872582],[-94.657539,45.872626],[-94.658582,45.87164],[-94.658678,45.863581],[-94.6569,45.863528],[-94.655322,45.858473],[-94.656364,45.855052],[-94.652662,45.855538],[-94.649881,45.854836],[-94.646397,45.853333],[-94.643757,45.853048],[-94.643701,45.853597],[-94.64373,45.856441],[-94.63515,45.856725],[-94.635238,45.850429],[-94.626561,45.850398],[-94.625758,45.851044],[-94.617409,45.850981],[-94.612263,45.848064],[-94.607487,45.849225],[-94.606716,45.846104],[-94.596626,45.846223],[-94.598114,45.839195],[-94.598027,45.832248],[-94.587446,45.832373],[-94.582268,45.831396],[-94.582212,45.824636],[-94.587474,45.824498],[-94.587241,45.817691],[-94.576856,45.817763],[-94.566396,45.817733],[-94.556133,45.816461],[-94.550953,45.816615],[-94.550885,45.823637],[-94.556049,45.823367],[-94.556021,45.828336],[-94.556864,45.829837],[-94.555458,45.830621],[-94.54544,45.83123],[-94.543825,45.861773],[-94.523554,45.861442],[-94.523447,45.869296],[-94.522841,45.869707],[-94.513629,45.865654],[-94.513708,45.890222],[-94.521588,45.890244],[-94.522308,45.891139],[-94.523194,45.893233],[-94.522201,45.894346],[-94.517178,45.895445],[-94.517398,45.897073],[-94.518692,45.899517],[-94.521722,45.900229],[-94.525032,45.899604],[-94.528189,45.900282],[-94.530014,45.899651],[-94.534536,45.902589],[-94.534254,45.904741],[-94.524503,45.904574],[-94.524325,45.915404],[-94.529705,45.915459],[-94.52955,45.926376],[-94.53481,45.926243],[-94.535117,45.943827],[-94.53774,45.942329],[-94.540915,45.941296],[-94.547544,45.939914],[-94.552558,45.939991],[-94.552632,45.942702],[-94.557836,45.942702],[-94.557892,45.940164],[-94.566365,45.940057],[-94.566469,45.946696],[-94.576869,45.946799],[-94.576635,45.95021],[-94.582252,45.950236],[-94.582291,45.95479],[-94.581905,45.95765],[-94.587606,45.957681],[-94.587529,45.962219],[-94.582422,45.962265],[-94.582319,45.96884],[-94.588167,45.968904],[-94.588032,45.97675],[-94.577179,45.976814],[-94.576997,46.005882],[-94.597877,46.005808],[-94.597855,46.020947],[-94.618255,46.021105],[-94.648217,46.020416]]]}},{"type":"Feature","properties":{"zcta5":"56336","AFFGEOID10":"8600000US56336","GEOID10":"56336","ALAND10":128624727,"AWATER10":14956494,"county_name":"Todd","state_code":"MN","county_state":"Todd County, MN","county_fips":"27153","risk_level_county":"Higher Risk (60–69% vaccinated)","mean_vaccination_rate_county":69.61,"risk_level_zcta":"Lower Risk (80–84% vaccinated)","mean_vaccination_rate_zips":81.39,"cases":17},"geometry":{"type":"Polygon","coordinates":[[[-94.845716,45.846409],[-94.859734,45.846433],[-94.859753,45.838059],[-94.859475,45.836207],[-94.859742,45.828715],[-94.860271,45.824134],[-94.860363,45.813851],[-94.859762,45.809044],[-94.858628,45.807526],[-94.856422,45.807003],[-94.811897,45.80678],[-94.8092,45.805823],[-94.808633,45.804665],[-94.808932,45.7898],[-94.820132,45.782974],[-94.822691,45.782127],[-94.827743,45.781605],[-94.828151,45.779664],[-94.829713,45.777822],[-94.829724,45.774399],[-94.809014,45.774145],[-94.80876,45.74514],[-94.79456,45.74498],[-94.7889,45.74582],[-94.789513,45.747197],[-94.788719,45.751661],[-94.793523,45.756019],[-94.795812,45.757038],[-94.798362,45.756927],[-94.797662,45.761743],[-94.798501,45.764701],[-94.800914,45.765489],[-94.800124,45.769195],[-94.80247,45.772213],[-94.799902,45.774094],[-94.73602,45.773565],[-94.734947,45.771548],[-94.735644,45.767104],[-94.734723,45.76415],[-94.729777,45.761015],[-94.723664,45.762386],[-94.73211,45.76851],[-94.73252,45.76896],[-94.734419,45.773564],[-94.694881,45.773667],[-94.694841,45.780544],[-94.67466,45.78046],[-94.674608,45.774712],[-94.674953,45.773622],[-94.64399,45.77395],[-94.644066,45.80979],[-94.649025,45.811606],[-94.649124,45.807229],[-94.654396,45.807245],[-94.654384,45.810234],[-94.659108,45.810209],[-94.65908,45.813636],[-94.669844,45.813389],[-94.669822,45.802803],[-94.68507,45.80268],[-94.6852,45.817154],[-94.686008,45.819062],[-94.689711,45.8228],[-94.690319,45.82393],[-94.690216,45.832642],[-94.695247,45.839037],[-94.695195,45.844425],[-94.694575,45.8458],[-94.709663,45.846032],[-94.714024,45.846519],[-94.716865,45.846098],[-94.73452,45.846196],[-94.736261,45.846709],[-94.736392,45.861079],[-94.736288,45.875181],[-94.741603,45.875164],[-94.741463,45.877475],[-94.745413,45.873177],[-94.745899,45.871165],[-94.745745,45.867989],[-94.747963,45.865757],[-94.750695,45.865282],[-94.75406,45.86589],[-94.755176,45.866933],[-94.755731,45.868703],[-94.754638,45.86927],[-94.756684,45.871359],[-94.755846,45.871774],[-94.755833,45.874965],[-94.752012,45.905835],[-94.751281,45.907402],[-94.748766,45.908142],[-94.748527,45.910137],[-94.74968,45.910792],[-94.752287,45.909459],[-94.754868,45.906995],[-94.756388,45.902432],[-94.76622,45.90405],[-94.807222,45.904436],[-94.807542,45.868119],[-94.827305,45.867724],[-94.828517,45.866606],[-94.828428,45.864844],[-94.832278,45.860786],[-94.828222,45.860579],[-94.828352,45.853963],[-94.8271,45.853532],[-94.818077,45.853616],[-94.818204,45.846324],[-94.845716,45.846409]]]}},{"type":"Feature","properties":{"zcta5":"56453","AFFGEOID10":"8600000US56453","GEOID10":"56453","ALAND10":141416472,"AWATER10":351824,"county_name":"Todd","state_code":"MN","county_state":"Todd County, MN","county_fips":"27153","risk_level_county":"Higher Risk (60–69% vaccinated)","mean_vaccination_rate_county":69.61,"risk_level_zcta":"Medium Risk (70–79% vaccinated)","mean_vaccination_rate_zips":77.99,"cases":17},"geometry":{"type":"Polygon","coordinates":[[[-95.279565,46.296863],[-95.279526,46.289508],[-95.273465,46.289778],[-95.258722,46.2895],[-95.258815,46.286769],[-95.258261,46.282501],[-95.249101,46.28246],[-95.25048,46.280291],[-95.250686,46.266377],[-95.248692,46.266376],[-95.245785,46.267743],[-95.187899,46.267111],[-95.145746,46.266771],[-95.145791,46.282368],[-95.072526,46.281967],[-95.076305,46.292778],[-95.07111,46.292739],[-95.071073,46.303618],[-95.060567,46.303694],[-95.060327,46.29645],[-95.029014,46.296314],[-95.029671,46.325228],[-95.040117,46.325267],[-95.040366,46.329443],[-95.042629,46.325298],[-95.045326,46.325332],[-95.045511,46.332797],[-95.045272,46.335453],[-95.042825,46.339964],[-95.050905,46.340063],[-95.07181,46.339836],[-95.071953,46.346693],[-95.094778,46.346882],[-95.095255,46.348376],[-95.095435,46.346418],[-95.097565,46.34565],[-95.098909,46.344176],[-95.097877,46.34197],[-95.096746,46.341249],[-95.098011,46.340284],[-95.113876,46.340212],[-95.114032,46.347426],[-95.135105,46.347605],[-95.14868,46.347312],[-95.145938,46.357941],[-95.150554,46.358042],[-95.15058,46.354643],[-95.155403,46.354686],[-95.15557,46.36888],[-95.18635,46.369055],[-95.186249,46.361635],[-95.196603,46.361498],[-95.196633,46.354743],[-95.212071,46.354778],[-95.212434,46.366227],[-95.215246,46.365782],[-95.237001,46.365343],[-95.237706,46.362766],[-95.237204,46.361271],[-95.238069,46.35865],[-95.236586,46.357126],[-95.236034,46.354905],[-95.23727,46.353315],[-95.240206,46.350362],[-95.243542,46.349043],[-95.24669,46.346133],[-95.247983,46.344267],[-95.249727,46.343287],[-95.249428,46.340372],[-95.248449,46.34012],[-95.248827,46.325864],[-95.256415,46.325828],[-95.256895,46.325021],[-95.256021,46.322045],[-95.256051,46.317631],[-95.256335,46.316882],[-95.254436,46.314927],[-95.254898,46.314092],[-95.260549,46.31038],[-95.260094,46.308113],[-95.258252,46.307324],[-95.256357,46.304876],[-95.259518,46.303642],[-95.263013,46.298951],[-95.27404,46.298948],[-95.273876,46.296859],[-95.279565,46.296863]]]}},{"type":"Feature","properties":{"zcta5":"56360","AFFGEOID10":"8600000US56360","GEOID10":"56360","ALAND10":336266813,"AWATER10":34743535,"county_name":"Todd","state_code":"MN","county_state":"Todd County, MN","county_fips":"27153","risk_level_county":"Higher Risk (60–69% vaccinated)","mean_vaccination_rate_county":69.61,"risk_level_zcta":"Medium Risk (70–79% vaccinated)","mean_vaccination_rate_zips":75.79,"cases":17},"geometry":{"type":"Polygon","coordinates":[[[-95.263915,45.880122],[-95.264392,45.845757],[-95.262656,45.842429],[-95.26421,45.838425],[-95.26382,45.824269],[-95.243226,45.824094],[-95.242999,45.787775],[-95.222215,45.787784],[-95.222655,45.762344],[-95.207819,45.762401],[-95.207828,45.758744],[-95.13967,45.758891],[-95.139731,45.773416],[-95.11161,45.77355],[-95.110866,45.785271],[-95.110937,45.789484],[-95.10562,45.789492],[-95.105642,45.792747],[-95.094091,45.793018],[-95.092241,45.792671],[-95.088483,45.790972],[-95.083664,45.787454],[-95.083699,45.789488],[-95.093638,45.794033],[-95.096513,45.795899],[-95.102245,45.80164],[-95.09641,45.801768],[-95.096498,45.806053],[-95.088632,45.806204],[-95.083442,45.80072],[-95.080768,45.802597],[-95.078586,45.802672],[-95.078723,45.813542],[-95.073556,45.813603],[-95.073482,45.820941],[-95.06869,45.820976],[-95.06868,45.825083],[-95.053006,45.825081],[-95.052982,45.821614],[-95.048159,45.821702],[-95.048175,45.825096],[-95.027074,45.825102],[-95.027068,45.828441],[-95.02386,45.828713],[-95.020337,45.831655],[-95.016647,45.832162],[-95.016684,45.846565],[-95.010131,45.846493],[-95.010714,45.847766],[-95.007892,45.847066],[-95.005446,45.848175],[-95.003707,45.847356],[-95.003157,45.84856],[-95.000303,45.848364],[-94.996869,45.849062],[-94.994108,45.851312],[-94.99217,45.853605],[-94.985858,45.853806],[-94.985253,45.860822],[-94.976688,45.860806],[-94.974044,45.861927],[-94.967955,45.863145],[-94.967191,45.863745],[-94.967424,45.866364],[-94.962615,45.867425],[-94.958118,45.867806],[-94.956869,45.866751],[-94.95145,45.865601],[-94.949668,45.864124],[-94.944511,45.862842],[-94.941033,45.862935],[-94.941116,45.864796],[-94.933894,45.866355],[-94.932416,45.865697],[-94.92855,45.866816],[-94.927536,45.867566],[-94.925643,45.86548],[-94.923687,45.865534],[-94.922755,45.86661],[-94.918812,45.866272],[-94.919756,45.863893],[-94.919207,45.860121],[-94.918141,45.86167],[-94.918175,45.866581],[-94.922232,45.868615],[-94.922783,45.86965],[-94.922207,45.875177],[-94.974213,45.874974],[-94.974191,45.87853],[-94.994865,45.879058],[-94.995003,45.897045],[-95.000044,45.896997],[-95.000482,45.899284],[-95.003414,45.899329],[-95.004406,45.90117],[-95.005819,45.901987],[-95.011183,45.903631],[-95.015567,45.903455],[-95.015593,45.918392],[-94.994848,45.918584],[-94.99457,45.93208],[-95.021698,45.932168],[-95.021935,45.957327],[-95.032388,45.9571],[-95.032444,45.975919],[-95.058533,45.976013],[-95.058626,45.984948],[-95.059294,45.985765],[-95.060667,45.983564],[-95.063342,45.983678],[-95.064588,45.982991],[-95.06908,45.982378],[-95.071246,45.980772],[-95.070844,45.978518],[-95.074056,45.977677],[-95.071845,45.977495],[-95.072213,45.975435],[-95.073569,45.974367],[-95.073458,45.972457],[-95.076783,45.971259],[-95.074504,45.969246],[-95.077829,45.967501],[-95.078417,45.966594],[-95.080219,45.967945],[-95.086665,45.969172],[-95.093136,45.971078],[-95.092768,45.972563],[-95.094186,45.974177],[-95.09599,45.974262],[-95.096355,45.976073],[-95.104745,45.978239],[-95.104877,45.994166],[-95.129073,45.994335],[-95.130837,45.995521],[-95.130783,45.996853],[-95.13285,45.99797],[-95.141252,45.998022],[-95.141356,45.983517],[-95.146654,45.98359],[-95.157113,45.983524],[-95.165454,45.980033],[-95.171093,45.979874],[-95.168398,45.976523],[-95.167192,45.974655],[-95.167438,45.972615],[-95.16507,45.97256],[-95.158473,45.968512],[-95.153045,45.963587],[-95.153018,45.955314],[-95.15489,45.947374],[-95.186543,45.947487],[-95.18655,45.932953],[-95.201021,45.933131],[-95.201023,45.930478],[-95.210779,45.924884],[-95.212702,45.921104],[-95.221049,45.915235],[-95.222611,45.900098],[-95.225546,45.904147],[-95.224621,45.912583],[-95.228286,45.912213],[-95.231734,45.913535],[-95.234548,45.914055],[-95.234673,45.916344],[-95.235938,45.918318],[-95.242959,45.918292],[-95.243411,45.889269],[-95.254528,45.889348],[-95.254587,45.886103],[-95.259111,45.886708],[-95.259466,45.878819],[-95.263915,45.880122]]]}},{"type":"Feature","properties":{"zcta5":"56440","AFFGEOID10":"8600000US56440","GEOID10":"56440","ALAND10":140721494,"AWATER10":29076,"county_name":"Todd","state_code":"MN","county_state":"Todd County, MN","county_fips":"27153","risk_level_county":"Higher Risk (60–69% vaccinated)","mean_vaccination_rate_county":69.61,"risk_level_zcta":"Medium Risk (70–79% vaccinated)","mean_vaccination_rate_zips":77.8,"cases":17},"geometry":{"type":"MultiPolygon","coordinates":[[[[-94.985241,46.164655],[-94.990089,46.164678],[-94.990395,46.151858],[-94.983897,46.149848],[-94.983033,46.152874],[-94.982001,46.153396],[-94.982226,46.155072],[-94.983776,46.155912],[-94.984565,46.157874],[-94.985348,46.158585],[-94.985841,46.161616],[-94.985307,46.162779],[-94.985241,46.164655]]],[[[-94.983897,46.149848],[-94.983552,46.14828],[-94.980765,46.145334],[-94.978979,46.144317],[-94.9789,46.142938],[-94.97933,46.142611],[-94.985827,46.146431],[-94.99047,46.147856],[-94.990693,46.130324],[-94.991041,46.128417],[-95.011509,46.128406],[-95.011372,46.106587],[-95.021365,46.106564],[-95.021779,46.04845],[-95.000931,46.048583],[-95.000939,46.041509],[-94.979884,46.041506],[-94.979799,46.048622],[-94.964306,46.048601],[-94.963873,46.06313],[-94.947438,46.063165],[-94.946598,46.064578],[-94.94592,46.067911],[-94.938535,46.070786],[-94.936876,46.070331],[-94.932969,46.071191],[-94.932508,46.077654],[-94.948016,46.077683],[-94.948039,46.084471],[-94.94282,46.085293],[-94.942872,46.092201],[-94.927589,46.092114],[-94.924916,46.094096],[-94.924063,46.095907],[-94.921334,46.095054],[-94.917949,46.095842],[-94.917121,46.098162],[-94.917511,46.132027],[-94.91827,46.132851],[-94.916448,46.135735],[-94.896536,46.135918],[-94.89571,46.179462],[-94.91649,46.179408],[-94.916307,46.194293],[-94.895375,46.194117],[-94.895058,46.23049],[-94.899133,46.230477],[-94.899288,46.22647],[-94.90447,46.226476],[-94.904418,46.230289],[-94.91033,46.23035],[-94.936113,46.230485],[-94.93587,46.238093],[-94.947161,46.238159],[-94.947271,46.252053],[-94.979287,46.252297],[-94.979385,46.25031],[-94.977721,46.248728],[-94.97779,46.246197],[-94.976524,46.245208],[-94.976724,46.24195],[-94.977448,46.238677],[-94.9786,46.237433],[-94.978331,46.219828],[-94.988671,46.219783],[-94.988658,46.223232],[-94.990045,46.223246],[-94.990053,46.216002],[-94.990083,46.179242],[-94.981729,46.179171],[-94.980893,46.178456],[-94.979653,46.175367],[-94.980374,46.173821],[-94.980048,46.171997],[-94.982124,46.167602],[-94.985241,46.164655],[-94.979522,46.164627],[-94.979896,46.150112],[-94.983897,46.149848]]]]}},{"type":"Feature","properties":{"zcta5":"56434","AFFGEOID10":"8600000US56434","GEOID10":"56434","ALAND10":38702179,"AWATER10":0,"county_name":"Todd","state_code":"MN","county_state":"Todd County, MN","county_fips":"27153","risk_level_county":"Higher Risk (60–69% vaccinated)","mean_vaccination_rate_county":69.61,"risk_level_zcta":"Medium Risk (70–79% vaccinated)","mean_vaccination_rate_zips":72.38,"cases":17},"geometry":{"type":"Polygon","coordinates":[[[-94.90453,46.38322],[-94.913218,46.383174],[-94.913393,46.390525],[-94.939806,46.390497],[-94.939699,46.37966],[-94.946549,46.379623],[-94.946566,46.375571],[-94.941853,46.374759],[-94.942648,46.374343],[-94.94565,46.37497],[-94.94647,46.37424],[-94.946567,46.368894],[-94.945573,46.368878],[-94.945971,46.366608],[-94.947663,46.362938],[-94.945943,46.361437],[-94.946235,46.360662],[-94.94245,46.360533],[-94.94643,46.350364],[-94.946285,46.339906],[-94.965662,46.339925],[-94.966702,46.337826],[-94.968477,46.337679],[-94.968945,46.335941],[-94.968638,46.333439],[-94.96977,46.333391],[-94.971969,46.330846],[-94.971895,46.328428],[-94.97783,46.328572],[-94.978033,46.314125],[-94.967052,46.313955],[-94.967082,46.296326],[-94.946712,46.296491],[-94.946064,46.29638],[-94.919789,46.29636],[-94.919813,46.300051],[-94.915327,46.303492],[-94.91396,46.310954],[-94.910034,46.315642],[-94.908544,46.325304],[-94.919446,46.325318],[-94.91361,46.327439],[-94.909431,46.330798],[-94.907593,46.335777],[-94.904648,46.342589],[-94.904368,46.368748],[-94.90453,46.38322]]]}},{"type":"Feature","properties":{"zcta5":"56437","AFFGEOID10":"8600000US56437","GEOID10":"56437","ALAND10":172402489,"AWATER10":12966,"county_name":"Todd","state_code":"MN","county_state":"Todd County, MN","county_fips":"27153","risk_level_county":"Higher Risk (60–69% vaccinated)","mean_vaccination_rate_county":69.61,"risk_level_zcta":"Medium Risk (70–79% vaccinated)","mean_vaccination_rate_zips":73.63,"cases":17},"geometry":{"type":"Polygon","coordinates":[[[-95.187899,46.267111],[-95.187939,46.240033],[-95.189516,46.238139],[-95.187898,46.238148],[-95.187944,46.223598],[-95.198454,46.223587],[-95.198558,46.209539],[-95.187486,46.209438],[-95.187554,46.194537],[-95.162478,46.19451],[-95.146337,46.194073],[-95.146372,46.208642],[-95.136325,46.208782],[-95.078479,46.208543],[-95.078533,46.194053],[-95.052349,46.193984],[-95.05233,46.197587],[-95.057856,46.197732],[-95.057713,46.201358],[-95.050716,46.201267],[-95.054142,46.208541],[-95.020874,46.208617],[-95.020946,46.215907],[-94.990053,46.216002],[-94.990045,46.223246],[-94.988658,46.223232],[-94.988671,46.219783],[-94.978331,46.219828],[-94.9786,46.237433],[-94.977448,46.238677],[-94.976724,46.24195],[-94.976524,46.245208],[-94.97779,46.246197],[-94.977721,46.248728],[-94.979385,46.25031],[-94.979287,46.252297],[-94.947271,46.252053],[-94.947161,46.238159],[-94.93587,46.238093],[-94.936113,46.230485],[-94.91033,46.23035],[-94.910244,46.234189],[-94.908231,46.235015],[-94.907685,46.237846],[-94.909363,46.245808],[-94.90909,46.250137],[-94.907578,46.252475],[-94.904391,46.255506],[-94.903984,46.259412],[-94.915959,46.259447],[-94.916452,46.281878],[-94.94085,46.281846],[-94.94061,46.28926],[-94.945981,46.28941],[-94.946064,46.29638],[-94.946712,46.296491],[-94.967082,46.296326],[-95.029014,46.296314],[-95.060327,46.29645],[-95.060567,46.303694],[-95.071073,46.303618],[-95.07111,46.292739],[-95.076305,46.292778],[-95.072526,46.281967],[-95.145791,46.282368],[-95.145746,46.266771],[-95.187899,46.267111]]]}},{"type":"Feature","properties":{"zcta5":"56481","AFFGEOID10":"8600000US56481","GEOID10":"56481","ALAND10":383010666,"AWATER10":1063854,"county_name":"Todd","state_code":"MN","county_state":"Todd County, MN","county_fips":"27153","risk_level_county":"Higher Risk (60–69% vaccinated)","mean_vaccination_rate_county":69.61,"risk_level_zcta":"Lower Risk (80–84% vaccinated)","mean_vaccination_rate_zips":80.12,"cases":17},"geometry":{"type":"Polygon","coordinates":[[[-95.030146,46.49928],[-95.03015,46.44134],[-95.00986,46.4413],[-95.00996,46.433559],[-95.011838,46.431806],[-95.01395,46.431059],[-95.015311,46.429209],[-95.018746,46.428259],[-95.018894,46.42637],[-95.023581,46.42357],[-95.02168,46.420556],[-95.01857,46.418755],[-95.017849,46.416972],[-95.016276,46.415732],[-95.018706,46.414482],[-95.01848,46.413067],[-95.020253,46.413247],[-95.025425,46.409428],[-95.027317,46.409274],[-95.029355,46.407759],[-95.030078,46.407876],[-95.03008,46.41233],[-95.04714,46.4122],[-95.0509,46.41283],[-95.05134,46.41122],[-95.05119,46.39764],[-95.07225,46.39779],[-95.07232,46.39072],[-95.06243,46.39047],[-95.063024,46.387961],[-95.062046,46.388174],[-95.062113,46.382725],[-95.063079,46.383304],[-95.067098,46.383207],[-95.068755,46.381693],[-95.068972,46.3794],[-95.074385,46.377964],[-95.07781,46.377456],[-95.08161,46.374304],[-95.084085,46.373821],[-95.093027,46.370949],[-95.09295,46.36877],[-95.123933,46.368795],[-95.124173,46.357971],[-95.128509,46.35799],[-95.128469,46.361392],[-95.135154,46.361445],[-95.13544,46.354967],[-95.135105,46.347605],[-95.114032,46.347426],[-95.113876,46.340212],[-95.098011,46.340284],[-95.096746,46.341249],[-95.097877,46.34197],[-95.098909,46.344176],[-95.097565,46.34565],[-95.095435,46.346418],[-95.095255,46.348376],[-95.094778,46.346882],[-95.071953,46.346693],[-95.07181,46.339836],[-95.050905,46.340063],[-95.042825,46.339964],[-95.045272,46.335453],[-95.045511,46.332797],[-95.045326,46.325332],[-95.042629,46.325298],[-95.040366,46.329443],[-95.040117,46.325267],[-95.029671,46.325228],[-95.029014,46.296314],[-94.967082,46.296326],[-94.967052,46.313955],[-94.978033,46.314125],[-94.97783,46.328572],[-94.971895,46.328428],[-94.971969,46.330846],[-94.96977,46.333391],[-94.968638,46.333439],[-94.968945,46.335941],[-94.968477,46.337679],[-94.966702,46.337826],[-94.965662,46.339925],[-94.946285,46.339906],[-94.94643,46.350364],[-94.94245,46.360533],[-94.946235,46.360662],[-94.945943,46.361437],[-94.947663,46.362938],[-94.945971,46.366608],[-94.945573,46.368878],[-94.946567,46.368894],[-94.94647,46.37424],[-94.94565,46.37497],[-94.942648,46.374343],[-94.941853,46.374759],[-94.946566,46.375571],[-94.946549,46.379623],[-94.939699,46.37966],[-94.939806,46.390497],[-94.913393,46.390525],[-94.913218,46.383174],[-94.90453,46.38322],[-94.90463,46.423101],[-94.903118,46.423649],[-94.900488,46.423299],[-94.897009,46.42467],[-94.89706,46.427123],[-94.889813,46.427116],[-94.889684,46.431163],[-94.883995,46.431289],[-94.88394,46.44077],[-94.89084,46.440924],[-94.890775,46.445627],[-94.883956,46.4457],[-94.88397,46.45566],[-94.86285,46.45564],[-94.863025,46.484763],[-94.859188,46.484971],[-94.85351,46.48461],[-94.85457,46.48554],[-94.85827,46.48663],[-94.86287,46.48675],[-94.86298,46.49916],[-94.88403,46.49915],[-94.88471,46.54298],[-94.863334,46.543148],[-94.863348,46.52894],[-94.842468,46.529432],[-94.84248,46.515538],[-94.831757,46.51565],[-94.83189,46.53764],[-94.8318,46.53826],[-94.83019,46.53913],[-94.82283,46.53892],[-94.82142,46.5403],[-94.81703,46.54035],[-94.81666,46.5428],[-94.812838,46.541799],[-94.811617,46.543612],[-94.821487,46.543638],[-94.82188,46.55745],[-94.81667,46.55747],[-94.81672,46.5595],[-94.815491,46.560528],[-94.817699,46.560406],[-94.821109,46.561086],[-94.822657,46.562042],[-94.821996,46.564044],[-94.82079,46.564608],[-94.812772,46.565257],[-94.807946,46.567675],[-94.806676,46.569661],[-94.802956,46.570269],[-94.800442,46.572005],[-94.801575,46.573708],[-94.7991,46.57456],[-94.79853,46.57196],[-94.779817,46.57199],[-94.779848,46.586539],[-94.735376,46.586584],[-94.738186,46.584574],[-94.743292,46.580505],[-94.7443,46.578309],[-94.745632,46.577262],[-94.747111,46.5746],[-94.749568,46.572252],[-94.73155,46.572211],[-94.72803,46.575875],[-94.72244,46.575836],[-94.717936,46.577598],[-94.717901,46.586631],[-94.717965,46.613472],[-94.716357,46.614083],[-94.715224,46.617739],[-94.714416,46.61855],[-94.715991,46.619947],[-94.714563,46.623098],[-94.707786,46.63005],[-94.765407,46.630066],[-94.780973,46.630102],[-94.785899,46.630199],[-94.813757,46.630152],[-94.818523,46.62496],[-94.8229,46.618093],[-94.823157,46.615548],[-94.824992,46.614778],[-94.827384,46.611658],[-94.829114,46.610683],[-94.830323,46.610945],[-94.83142,46.613681],[-94.832512,46.613738],[-94.831544,46.611589],[-94.831686,46.60971],[-94.830786,46.607187],[-94.834687,46.604248],[-94.836101,46.601119],[-94.834324,46.598913],[-94.831728,46.597512],[-94.828933,46.597667],[-94.827532,46.596982],[-94.826365,46.594371],[-94.826694,46.592953],[-94.828834,46.591151],[-94.827683,46.589254],[-94.823852,46.586827],[-94.822581,46.586953],[-94.820171,46.588633],[-94.818891,46.588762],[-94.816014,46.586286],[-94.817821,46.585123],[-94.818085,46.583673],[-94.819712,46.584193],[-94.822276,46.586128],[-94.823671,46.585786],[-94.8296,46.58992],[-94.836914,46.59005],[-94.840455,46.593346],[-94.843079,46.593095],[-94.84302,46.61523],[-94.88518,46.61552],[-94.88524,46.57199],[-94.90481,46.57192],[-94.90492,46.59396],[-94.90721,46.59495],[-94.9088,46.59735],[-94.90896,46.6011],[-94.9262,46.60117],[-94.92616,46.58673],[-94.94704,46.58685],[-94.94691,46.57612],[-94.9456,46.57399],[-94.94632,46.57233],[-94.947964,46.572908],[-94.948784,46.573859],[-94.947444,46.575073],[-94.948557,46.576918],[-94.951781,46.578418],[-94.951135,46.580531],[-94.95327,46.583088],[-94.952921,46.584131],[-94.955317,46.585771],[-94.958598,46.585435],[-94.960147,46.588646],[-94.961377,46.589213],[-94.96096,46.590622],[-94.96356,46.591124],[-94.964029,46.593134],[-94.965206,46.593632],[-94.96623,46.595661],[-94.963944,46.597802],[-94.965547,46.598293],[-94.966225,46.601014],[-94.96801,46.60119],[-94.96812,46.52821],[-94.978314,46.528251],[-94.978284,46.523807],[-94.968149,46.523903],[-94.9682,46.51371],[-94.979155,46.513809],[-94.979205,46.506593],[-94.989297,46.506596],[-94.98914,46.49935],[-95.030146,46.49928]]]}},{"type":"Feature","properties":{"zcta5":"56446","AFFGEOID10":"8600000US56446","GEOID10":"56446","ALAND10":257998708,"AWATER10":1053340,"county_name":"Todd","state_code":"MN","county_state":"Todd County, MN","county_fips":"27153","risk_level_county":"Higher Risk (60–69% vaccinated)","mean_vaccination_rate_county":69.61,"risk_level_zcta":"Medium Risk (70–79% vaccinated)","mean_vaccination_rate_zips":71.88,"cases":17},"geometry":{"type":"MultiPolygon","coordinates":[[[[-94.985241,46.164655],[-94.985307,46.162779],[-94.985841,46.161616],[-94.985348,46.158585],[-94.984565,46.157874],[-94.983776,46.155912],[-94.982226,46.155072],[-94.982001,46.153396],[-94.983033,46.152874],[-94.983897,46.149848],[-94.979896,46.150112],[-94.979522,46.164627],[-94.985241,46.164655]]],[[[-95.187554,46.194537],[-95.209613,46.194778],[-95.208978,46.181126],[-95.209925,46.179861],[-95.208986,46.179663],[-95.188057,46.179413],[-95.187534,46.135966],[-95.166589,46.136054],[-95.166851,46.10695],[-95.188003,46.106731],[-95.187378,46.091963],[-95.17707,46.092023],[-95.177082,46.077487],[-95.166826,46.077557],[-95.167183,46.048606],[-95.146173,46.048787],[-95.146429,46.034309],[-95.11538,46.034518],[-95.11517,46.048993],[-95.105016,46.049107],[-95.105224,46.020064],[-95.042783,46.01977],[-95.042704,46.041352],[-95.036812,46.041105],[-95.021785,46.041534],[-95.021779,46.04845],[-95.021365,46.106564],[-95.011372,46.106587],[-95.011509,46.128406],[-94.991041,46.128417],[-94.990693,46.130324],[-94.99047,46.147856],[-94.985827,46.146431],[-94.97933,46.142611],[-94.9789,46.142938],[-94.978979,46.144317],[-94.980765,46.145334],[-94.983552,46.14828],[-94.983897,46.149848],[-94.990395,46.151858],[-94.990089,46.164678],[-94.985241,46.164655],[-94.982124,46.167602],[-94.980048,46.171997],[-94.980374,46.173821],[-94.979653,46.175367],[-94.980893,46.178456],[-94.981729,46.179171],[-94.990083,46.179242],[-94.990053,46.216002],[-95.020946,46.215907],[-95.020874,46.208617],[-95.054142,46.208541],[-95.050716,46.201267],[-95.057713,46.201358],[-95.057856,46.197732],[-95.05233,46.197587],[-95.052349,46.193984],[-95.078533,46.194053],[-95.078479,46.208543],[-95.136325,46.208782],[-95.146372,46.208642],[-95.146337,46.194073],[-95.162478,46.19451],[-95.187554,46.194537]]]]}},{"type":"Feature","properties":{"zcta5":"56319","AFFGEOID10":"8600000US56319","GEOID10":"56319","ALAND10":104088793,"AWATER10":196577,"county_name":"Todd","state_code":"MN","county_state":"Todd County, MN","county_fips":"27153","risk_level_county":"Higher Risk (60–69% vaccinated)","mean_vaccination_rate_county":69.61,"risk_level_zcta":"Higher Risk (60–69% vaccinated)","mean_vaccination_rate_zips":68.41,"cases":17},"geometry":{"type":"MultiPolygon","coordinates":[[[[-95.312629,46.019863],[-95.312524,46.010747],[-95.341466,46.010776],[-95.345473,46.011413],[-95.345699,46.016258],[-95.345753,46.012046],[-95.346913,46.008909],[-95.34643,46.005676],[-95.336573,46.005469],[-95.334092,46.004707],[-95.3334,46.005459],[-95.332671,46.008995],[-95.312533,46.009095],[-95.312612,45.981596],[-95.312657,45.979079],[-95.309807,45.979052],[-95.309666,45.976929],[-95.305389,45.976637],[-95.312694,45.976703],[-95.312707,45.962312],[-95.299995,45.962124],[-95.306809,45.947736],[-95.29188,45.947553],[-95.28662,45.947621],[-95.28649,45.944033],[-95.28183,45.94408],[-95.281644,45.933286],[-95.271233,45.933284],[-95.271232,45.962263],[-95.291925,45.962052],[-95.291992,45.965529],[-95.291974,45.967531],[-95.290498,45.967539],[-95.286785,45.967558],[-95.286801,45.973707],[-95.286809,45.97658],[-95.203794,45.976454],[-95.203579,45.983714],[-95.191277,45.983262],[-95.189346,45.980568],[-95.189335,45.978404],[-95.186945,45.976367],[-95.183856,45.975852],[-95.183479,45.973708],[-95.182036,45.972942],[-95.178847,45.97361],[-95.17559,45.973246],[-95.174474,45.975063],[-95.170666,45.975357],[-95.168767,45.973043],[-95.167747,45.973577],[-95.168717,45.975465],[-95.168398,45.976523],[-95.171093,45.979874],[-95.165454,45.980033],[-95.157113,45.983524],[-95.146654,45.98359],[-95.141356,45.983517],[-95.141252,45.998022],[-95.13285,45.99797],[-95.130783,45.996853],[-95.130837,45.995521],[-95.129073,45.994335],[-95.104877,45.994166],[-95.105224,46.020064],[-95.105016,46.049107],[-95.11517,46.048993],[-95.11538,46.034518],[-95.146429,46.034309],[-95.16736,46.034212],[-95.167432,46.019783],[-95.229774,46.019992],[-95.229778,46.028492],[-95.235307,46.031023],[-95.237515,46.033217],[-95.242358,46.035219],[-95.260597,46.040632],[-95.267295,46.041876],[-95.270944,46.041404],[-95.270866,46.049341],[-95.281341,46.049182],[-95.281225,46.041912],[-95.291493,46.041535],[-95.292093,46.038564],[-95.292142,46.034612],[-95.312359,46.034364],[-95.312629,46.019863]]],[[[-95.356871,45.968748],[-95.357889,45.966897],[-95.354619,45.964994],[-95.353466,45.962879],[-95.353404,45.961264],[-95.355037,45.958295],[-95.354494,45.956859],[-95.353599,45.957327],[-95.352069,45.960049],[-95.351592,45.962187],[-95.337111,45.962206],[-95.337139,45.973099],[-95.328004,45.973083],[-95.327928,45.979073],[-95.32788,45.982688],[-95.328118,45.983177],[-95.329231,45.983866],[-95.332028,45.983968],[-95.332311,45.986362],[-95.330689,45.988622],[-95.330125,45.990612],[-95.328704,45.991231],[-95.330061,45.991998],[-95.332689,45.996581],[-95.333001,46.00043],[-95.335495,46.000582],[-95.335891,45.997838],[-95.335339,45.996787],[-95.332556,45.995631],[-95.331041,45.993076],[-95.33061,45.990855],[-95.331679,45.987885],[-95.333424,45.985802],[-95.333296,45.982945],[-95.334421,45.981353],[-95.33641,45.979788],[-95.341217,45.977694],[-95.342886,45.977514],[-95.345013,45.978177],[-95.348224,45.977794],[-95.349319,45.975504],[-95.352541,45.971329],[-95.356871,45.968748]]]]}},{"type":"Feature","properties":{"zcta5":"56482","AFFGEOID10":"8600000US56482","GEOID10":"56482","ALAND10":340063008,"AWATER10":309117,"county_name":"Todd","state_code":"MN","county_state":"Todd County, MN","county_fips":"27153","risk_level_county":"Higher Risk (60–69% vaccinated)","mean_vaccination_rate_county":69.61,"risk_level_zcta":"Medium Risk (70–79% vaccinated)","mean_vaccination_rate_zips":70.05,"cases":17},"geometry":{"type":"Polygon","coordinates":[[[-95.270507,46.448909],[-95.271228,46.426762],[-95.280056,46.427061],[-95.280101,46.412547],[-95.270587,46.412195],[-95.250373,46.421368],[-95.249647,46.412069],[-95.249458,46.390678],[-95.224377,46.390705],[-95.225285,46.390675],[-95.224428,46.389176],[-95.225581,46.387872],[-95.229408,46.388118],[-95.231616,46.387017],[-95.234498,46.387471],[-95.236087,46.386735],[-95.237137,46.387359],[-95.239335,46.387201],[-95.24123,46.384289],[-95.245618,46.383994],[-95.247761,46.382291],[-95.24901,46.381957],[-95.249324,46.38154],[-95.248915,46.368604],[-95.248647,46.365218],[-95.237001,46.365343],[-95.215246,46.365782],[-95.212434,46.366227],[-95.212071,46.354778],[-95.196633,46.354743],[-95.196603,46.361498],[-95.186249,46.361635],[-95.18635,46.369055],[-95.15557,46.36888],[-95.155403,46.354686],[-95.15058,46.354643],[-95.150554,46.358042],[-95.145938,46.357941],[-95.14868,46.347312],[-95.135105,46.347605],[-95.13544,46.354967],[-95.135154,46.361445],[-95.128469,46.361392],[-95.128509,46.35799],[-95.124173,46.357971],[-95.123933,46.368795],[-95.09295,46.36877],[-95.093027,46.370949],[-95.084085,46.373821],[-95.08161,46.374304],[-95.07781,46.377456],[-95.074385,46.377964],[-95.068972,46.3794],[-95.068755,46.381693],[-95.067098,46.383207],[-95.063079,46.383304],[-95.062113,46.382725],[-95.062046,46.388174],[-95.063024,46.387961],[-95.06243,46.39047],[-95.07232,46.39072],[-95.07225,46.39779],[-95.05119,46.39764],[-95.05134,46.41122],[-95.0509,46.41283],[-95.04714,46.4122],[-95.03008,46.41233],[-95.030078,46.407876],[-95.029355,46.407759],[-95.027317,46.409274],[-95.025425,46.409428],[-95.020253,46.413247],[-95.01848,46.413067],[-95.018706,46.414482],[-95.016276,46.415732],[-95.017849,46.416972],[-95.01857,46.418755],[-95.02168,46.420556],[-95.023581,46.42357],[-95.018894,46.42637],[-95.018746,46.428259],[-95.015311,46.429209],[-95.01395,46.431059],[-95.011838,46.431806],[-95.00996,46.433559],[-95.00986,46.4413],[-95.03015,46.44134],[-95.030146,46.49928],[-95.030216,46.5138],[-95.0619,46.51387],[-95.06203,46.51754],[-95.06337,46.5225],[-95.06349,46.52749],[-95.06293,46.52841],[-95.041,46.52821],[-95.0408,46.53836],[-95.03822,46.54279],[-95.07204,46.54282],[-95.07231,46.55719],[-95.12454,46.55729],[-95.12516,46.57184],[-95.1555,46.57194],[-95.15588,46.60111],[-95.176457,46.600986],[-95.176277,46.60981],[-95.179439,46.60773],[-95.179803,46.605779],[-95.183145,46.605937],[-95.184129,46.606686],[-95.187114,46.61022],[-95.193483,46.613135],[-95.197137,46.613743],[-95.197391,46.571692],[-95.210414,46.568879],[-95.223795,46.564534],[-95.223764,46.568904],[-95.235691,46.568947],[-95.235518,46.57216],[-95.239774,46.57219],[-95.239655,46.564627],[-95.238778,46.543643],[-95.242013,46.543248],[-95.238726,46.543207],[-95.238286,46.535671],[-95.207946,46.535603],[-95.207928,46.532006],[-95.197046,46.53206],[-95.197192,46.485512],[-95.198258,46.484902],[-95.217591,46.48479],[-95.217955,46.48449],[-95.218294,46.466648],[-95.221741,46.466479],[-95.229377,46.466831],[-95.22891,46.465728],[-95.227233,46.464415],[-95.222269,46.463721],[-95.224834,46.461917],[-95.232093,46.459195],[-95.23725,46.458033],[-95.23901,46.458099],[-95.241548,46.456384],[-95.243483,46.45587],[-95.245942,46.454432],[-95.246245,46.453437],[-95.249821,46.452303],[-95.251125,46.45014],[-95.253265,46.449795],[-95.267466,46.448321],[-95.270507,46.448909]]]}},{"type":"Feature","properties":{"zcta5":"56466","AFFGEOID10":"8600000US56466","GEOID10":"56466","ALAND10":483876925,"AWATER10":14531172,"county_name":"Todd","state_code":"MN","county_state":"Todd County, MN","county_fips":"27153","risk_level_county":"Higher Risk (60–69% vaccinated)","mean_vaccination_rate_county":69.61,"risk_level_zcta":"Medium Risk (70–79% vaccinated)","mean_vaccination_rate_zips":77.24,"cases":17},"geometry":{"type":"Polygon","coordinates":[[[-94.6551,46.572142],[-94.657916,46.572122],[-94.660562,46.570365],[-94.664855,46.568567],[-94.667811,46.567879],[-94.670149,46.566465],[-94.67524,46.5662],[-94.676547,46.565666],[-94.678017,46.563935],[-94.681674,46.563604],[-94.68286,46.562015],[-94.685545,46.560675],[-94.686672,46.559487],[-94.689153,46.559051],[-94.697032,46.560031],[-94.697048,46.547845],[-94.695297,46.545006],[-94.692204,46.543464],[-94.692756,46.543133],[-94.692487,46.541994],[-94.696058,46.539579],[-94.697122,46.536837],[-94.696959,46.513826],[-94.664475,46.514161],[-94.666025,46.511334],[-94.66611,46.508879],[-94.66376,46.506751],[-94.663821,46.505419],[-94.666107,46.503312],[-94.66822,46.502266],[-94.672822,46.502641],[-94.678179,46.503914],[-94.680917,46.505994],[-94.68268,46.506336],[-94.684186,46.507497],[-94.685651,46.509778],[-94.6902,46.510735],[-94.693134,46.510251],[-94.696827,46.508314],[-94.696639,46.499385],[-94.717828,46.499271],[-94.717478,46.484836],[-94.720548,46.483766],[-94.726,46.481362],[-94.73015,46.477371],[-94.737824,46.47722],[-94.743783,46.472991],[-94.748999,46.470033],[-94.758682,46.469967],[-94.758655,46.455996],[-94.767853,46.4554],[-94.778908,46.455374],[-94.77882,46.394012],[-94.775144,46.39224],[-94.772599,46.392007],[-94.771036,46.393792],[-94.771544,46.396164],[-94.769599,46.396856],[-94.764885,46.395713],[-94.76264,46.393829],[-94.76284,46.392548],[-94.765434,46.390228],[-94.764766,46.38949],[-94.761757,46.389469],[-94.759723,46.387713],[-94.760431,46.384972],[-94.760012,46.383122],[-94.758857,46.382514],[-94.755042,46.384523],[-94.753365,46.383123],[-94.752963,46.380111],[-94.751798,46.379053],[-94.749367,46.380301],[-94.748221,46.383313],[-94.746153,46.384669],[-94.743991,46.384728],[-94.743008,46.383991],[-94.743615,46.38178],[-94.742929,46.38051],[-94.741111,46.379995],[-94.738807,46.380965],[-94.736302,46.382839],[-94.73196,46.383999],[-94.728231,46.381241],[-94.72831,46.379798],[-94.729599,46.37891],[-94.730885,46.376421],[-94.731583,46.372348],[-94.731442,46.368605],[-94.731885,46.366906],[-94.731672,46.36418],[-94.730136,46.361776],[-94.728074,46.359699],[-94.726621,46.356523],[-94.722769,46.352321],[-94.721382,46.35154],[-94.717922,46.350791],[-94.714809,46.352254],[-94.708448,46.351219],[-94.702835,46.350004],[-94.69944,46.349981],[-94.697337,46.349425],[-94.693788,46.349653],[-94.68713,46.351038],[-94.684704,46.350842],[-94.682034,46.350027],[-94.676136,46.350662],[-94.673823,46.35821],[-94.672221,46.359754],[-94.669385,46.360755],[-94.6662,46.359051],[-94.66481,46.352143],[-94.663509,46.350236],[-94.662477,46.350034],[-94.659961,46.351932],[-94.658485,46.35212],[-94.653462,46.348678],[-94.653461,46.346501],[-94.660889,46.346542],[-94.662518,46.34551],[-94.661437,46.342151],[-94.658519,46.342421],[-94.658562,46.34069],[-94.666626,46.340825],[-94.695822,46.343678],[-94.695336,46.31314],[-94.699101,46.311389],[-94.727758,46.311],[-94.745468,46.31104],[-94.731602,46.296635],[-94.721684,46.287201],[-94.723497,46.286896],[-94.724313,46.284339],[-94.725932,46.284301],[-94.726323,46.285771],[-94.728885,46.286122],[-94.729323,46.284912],[-94.727217,46.28232],[-94.727523,46.280372],[-94.729593,46.279541],[-94.728862,46.278192],[-94.726673,46.277051],[-94.720579,46.274677],[-94.716874,46.274649],[-94.71538,46.273106],[-94.714449,46.269482],[-94.714874,46.265082],[-94.714309,46.262656],[-94.712898,46.26025],[-94.714102,46.256758],[-94.717748,46.253785],[-94.71989,46.250668],[-94.720057,46.249163],[-94.716181,46.249128],[-94.71297,46.248516],[-94.711883,46.248598],[-94.702978,46.251062],[-94.699764,46.252791],[-94.691126,46.252918],[-94.688466,46.253458],[-94.686355,46.253008],[-94.67181,46.252954],[-94.670229,46.252062],[-94.668513,46.252959],[-94.650545,46.253238],[-94.647625,46.252454],[-94.647815,46.242598],[-94.647436,46.23773],[-94.647413,46.224263],[-94.64442,46.224422],[-94.642159,46.227686],[-94.641163,46.230242],[-94.641077,46.238636],[-94.558045,46.237094],[-94.536477,46.237287],[-94.537037,46.238656],[-94.537427,46.249595],[-94.538211,46.25215],[-94.534857,46.253554],[-94.533095,46.253618],[-94.531577,46.252149],[-94.525487,46.252451],[-94.520961,46.251863],[-94.516103,46.251702],[-94.515676,46.253702],[-94.516428,46.254641],[-94.516589,46.270952],[-94.515525,46.272257],[-94.511473,46.273607],[-94.511414,46.277478],[-94.50116,46.277505],[-94.500851,46.278949],[-94.495079,46.280467],[-94.492481,46.282194],[-94.486089,46.282611],[-94.500288,46.283223],[-94.516856,46.283235],[-94.517145,46.302539],[-94.525253,46.303596],[-94.526966,46.303547],[-94.530411,46.301475],[-94.533357,46.300936],[-94.533398,46.303247],[-94.534724,46.302797],[-94.540523,46.303504],[-94.545061,46.304756],[-94.547391,46.306376],[-94.550436,46.307532],[-94.556183,46.307136],[-94.557405,46.307735],[-94.559094,46.311203],[-94.561223,46.312424],[-94.565992,46.313499],[-94.566044,46.316068],[-94.581092,46.322762],[-94.580569,46.323306],[-94.57248,46.319716],[-94.566086,46.318156],[-94.566303,46.329854],[-94.580786,46.329711],[-94.580347,46.339155],[-94.580752,46.36554],[-94.590097,46.365842],[-94.601765,46.367003],[-94.601795,46.377541],[-94.601515,46.383428],[-94.601784,46.398462],[-94.580808,46.398292],[-94.581544,46.427481],[-94.602609,46.427605],[-94.603105,46.456122],[-94.582268,46.45645],[-94.582185,46.442104],[-94.566794,46.441873],[-94.561434,46.441631],[-94.546286,46.441651],[-94.545397,46.442287],[-94.545387,46.446911],[-94.546416,46.448684],[-94.550631,46.451358],[-94.552068,46.453678],[-94.550691,46.456372],[-94.518065,46.456806],[-94.518262,46.476042],[-94.517119,46.478533],[-94.518233,46.478967],[-94.519628,46.572468],[-94.552369,46.572509],[-94.557402,46.573679],[-94.559923,46.573986],[-94.564634,46.573509],[-94.569229,46.572482],[-94.57632,46.572422],[-94.580917,46.573401],[-94.589399,46.572347],[-94.606817,46.572116],[-94.614006,46.572842],[-94.61997,46.572025],[-94.6551,46.572142]]]}},{"type":"Feature","properties":{"zcta5":"56347","AFFGEOID10":"8600000US56347","GEOID10":"56347","ALAND10":485358201,"AWATER10":9717016,"county_name":"Todd","state_code":"MN","county_state":"Todd County, MN","county_fips":"27153","risk_level_county":"Higher Risk (60–69% vaccinated)","mean_vaccination_rate_county":69.61,"risk_level_zcta":"Higher Risk (60–69% vaccinated)","mean_vaccination_rate_zips":69.51,"cases":17},"geometry":{"type":"MultiPolygon","coordinates":[[[[-94.689632,46.041528],[-94.68961,46.042074],[-94.689523,46.04426],[-94.689593,46.04452],[-94.699408,46.044767],[-94.699443,46.041624],[-94.69406,46.041571],[-94.689632,46.041528]]],[[[-95.105224,46.020064],[-95.104877,45.994166],[-95.104745,45.978239],[-95.096355,45.976073],[-95.09599,45.974262],[-95.094186,45.974177],[-95.092768,45.972563],[-95.093136,45.971078],[-95.086665,45.969172],[-95.080219,45.967945],[-95.078417,45.966594],[-95.077829,45.967501],[-95.074504,45.969246],[-95.076783,45.971259],[-95.073458,45.972457],[-95.073569,45.974367],[-95.072213,45.975435],[-95.071845,45.977495],[-95.074056,45.977677],[-95.070844,45.978518],[-95.071246,45.980772],[-95.06908,45.982378],[-95.064588,45.982991],[-95.063342,45.983678],[-95.060667,45.983564],[-95.059294,45.985765],[-95.058626,45.984948],[-95.058533,45.976013],[-95.032444,45.975919],[-95.032388,45.9571],[-95.021935,45.957327],[-95.021698,45.932168],[-94.99457,45.93208],[-94.994848,45.918584],[-95.015593,45.918392],[-95.015567,45.903455],[-95.011183,45.903631],[-95.005819,45.901987],[-95.004406,45.90117],[-95.003414,45.899329],[-95.000482,45.899284],[-95.000044,45.896997],[-94.995003,45.897045],[-94.994865,45.879058],[-94.974191,45.87853],[-94.974213,45.874974],[-94.922207,45.875177],[-94.922783,45.86965],[-94.922232,45.868615],[-94.918175,45.866581],[-94.918141,45.86167],[-94.919207,45.860121],[-94.92172,45.857147],[-94.919901,45.857058],[-94.918026,45.858189],[-94.917158,45.856433],[-94.915301,45.855393],[-94.914667,45.851652],[-94.917109,45.850394],[-94.917244,45.849271],[-94.913839,45.848187],[-94.912757,45.846328],[-94.912701,45.856675],[-94.911938,45.86076],[-94.901426,45.860811],[-94.901904,45.852257],[-94.907398,45.850139],[-94.90932,45.848028],[-94.909131,45.846324],[-94.870074,45.846427],[-94.86993,45.860937],[-94.859873,45.860971],[-94.860012,45.858818],[-94.855613,45.853715],[-94.854972,45.852076],[-94.851228,45.850688],[-94.848258,45.850686],[-94.847006,45.848617],[-94.848092,45.848297],[-94.845716,45.846409],[-94.818204,45.846324],[-94.818077,45.853616],[-94.8271,45.853532],[-94.828352,45.853963],[-94.828222,45.860579],[-94.832278,45.860786],[-94.828428,45.864844],[-94.828517,45.866606],[-94.827305,45.867724],[-94.807542,45.868119],[-94.807222,45.904436],[-94.76622,45.90405],[-94.765976,45.910809],[-94.766118,45.918605],[-94.748828,45.918612],[-94.746613,45.918913],[-94.746663,45.923481],[-94.744628,45.926036],[-94.742841,45.931388],[-94.739105,45.936405],[-94.743956,45.937567],[-94.750103,45.944127],[-94.726009,45.943957],[-94.726309,45.940305],[-94.725003,45.941122],[-94.720859,45.941401],[-94.714809,45.940622],[-94.714837,45.943331],[-94.71488,45.947285],[-94.710209,45.947275],[-94.710397,45.9694],[-94.702691,45.969624],[-94.699973,45.969377],[-94.699903,45.976682],[-94.648321,45.976668],[-94.648182,46.020217],[-94.648217,46.020416],[-94.647856,46.048921],[-94.65766,46.048993],[-94.65775,46.041374],[-94.678956,46.041365],[-94.67883,46.048894],[-94.684742,46.048939],[-94.684604,46.041399],[-94.689632,46.041528],[-94.689795,46.037457],[-94.699043,46.0375],[-94.699109,46.033909],[-94.709985,46.033924],[-94.709892,46.041632],[-94.71407,46.041676],[-94.714024,46.038036],[-94.719129,46.037878],[-94.719513,46.041228],[-94.730671,46.041369],[-94.730132,46.0489],[-94.735242,46.048933],[-94.735289,46.047118],[-94.741092,46.047275],[-94.741075,46.04875],[-94.746072,46.048805],[-94.745951,46.054906],[-94.751475,46.055007],[-94.751551,46.045611],[-94.762205,46.045684],[-94.762164,46.049449],[-94.772164,46.049391],[-94.772006,46.042144],[-94.792777,46.041969],[-94.792665,46.044983],[-94.806986,46.044999],[-94.806975,46.039338],[-94.810317,46.039371],[-94.810236,46.041455],[-94.813656,46.041506],[-94.813654,46.049091],[-94.806525,46.049124],[-94.80323,46.049909],[-94.802997,46.056026],[-94.813556,46.056318],[-94.850026,46.056089],[-94.850147,46.048831],[-94.853091,46.049137],[-94.856062,46.050881],[-94.858639,46.053019],[-94.863761,46.053081],[-94.867882,46.053554],[-94.869348,46.034325],[-94.873121,46.034092],[-94.917571,46.034074],[-94.917616,46.030674],[-94.921162,46.025702],[-94.927189,46.025748],[-94.927191,46.029962],[-94.931083,46.030009],[-94.931039,46.025944],[-94.959431,46.025896],[-94.959124,46.048587],[-94.964306,46.048601],[-94.979799,46.048622],[-94.979884,46.041506],[-95.000939,46.041509],[-95.000931,46.048583],[-95.021779,46.04845],[-95.021785,46.041534],[-95.036812,46.041105],[-95.042704,46.041352],[-95.042783,46.01977],[-95.105224,46.020064]]]]}},{"type":"Feature","properties":{"zcta5":"56443","AFFGEOID10":"8600000US56443","GEOID10":"56443","ALAND10":261400422,"AWATER10":26978776,"county_name":"Todd","state_code":"MN","county_state":"Todd County, MN","county_fips":"27153","risk_level_county":"Higher Risk (60–69% vaccinated)","mean_vaccination_rate_county":69.61,"risk_level_zcta":"Medium Risk (70–79% vaccinated)","mean_vaccination_rate_zips":77.85,"cases":17},"geometry":{"type":"Polygon","coordinates":[[[-94.720057,46.249163],[-94.718726,46.246833],[-94.716304,46.245295],[-94.7126,46.241578],[-94.709134,46.241573],[-94.706957,46.243026],[-94.706558,46.244537],[-94.705245,46.245485],[-94.702791,46.245568],[-94.700728,46.243745],[-94.700688,46.242718],[-94.702314,46.241012],[-94.701096,46.239916],[-94.700577,46.237614],[-94.699479,46.237252],[-94.695848,46.23798],[-94.69438,46.23765],[-94.685397,46.232947],[-94.689089,46.230823],[-94.688912,46.224416],[-94.68982,46.223312],[-94.692027,46.223851],[-94.709761,46.22376],[-94.710083,46.201365],[-94.710815,46.198048],[-94.716416,46.19506],[-94.739207,46.195199],[-94.752142,46.194751],[-94.752194,46.163773],[-94.750931,46.161008],[-94.752187,46.157797],[-94.752301,46.154389],[-94.753071,46.153853],[-94.760948,46.151861],[-94.761926,46.150779],[-94.771197,46.150701],[-94.771602,46.1398],[-94.770943,46.137719],[-94.767903,46.136757],[-94.765656,46.132972],[-94.765392,46.129924],[-94.766062,46.12903],[-94.765719,46.127143],[-94.766797,46.124771],[-94.76961,46.122262],[-94.771791,46.122605],[-94.771907,46.107416],[-94.762552,46.107502],[-94.758364,46.107916],[-94.755564,46.107571],[-94.647787,46.107816],[-94.535593,46.107579],[-94.53558,46.112133],[-94.533828,46.115804],[-94.53575,46.11605],[-94.545533,46.120396],[-94.555291,46.123069],[-94.559168,46.125161],[-94.567804,46.132927],[-94.570837,46.135046],[-94.577129,46.137483],[-94.577246,46.139435],[-94.568704,46.134227],[-94.565339,46.131066],[-94.558145,46.125048],[-94.554109,46.123007],[-94.544479,46.120244],[-94.535983,46.117137],[-94.53571,46.12142],[-94.536046,46.136472],[-94.524087,46.136385],[-94.515203,46.136121],[-94.515393,46.143363],[-94.506295,46.143583],[-94.50629,46.145635],[-94.504674,46.147677],[-94.497961,46.150256],[-94.496169,46.152054],[-94.49633,46.154127],[-94.499449,46.150954],[-94.505067,46.148994],[-94.505237,46.152691],[-94.507539,46.153295],[-94.512438,46.153631],[-94.514437,46.155072],[-94.517898,46.155183],[-94.518561,46.153084],[-94.52066,46.153081],[-94.520908,46.15162],[-94.522191,46.151747],[-94.52609,46.153787],[-94.527253,46.156256],[-94.525065,46.158036],[-94.525488,46.159168],[-94.523296,46.159891],[-94.522577,46.163194],[-94.521253,46.16499],[-94.519459,46.1654],[-94.520591,46.167986],[-94.52269,46.169047],[-94.52745,46.164884],[-94.533291,46.164172],[-94.53641,46.164854],[-94.536545,46.172944],[-94.532269,46.174985],[-94.527643,46.179171],[-94.491406,46.17916],[-94.49133,46.177291],[-94.492336,46.175532],[-94.495974,46.172735],[-94.496312,46.17143],[-94.495751,46.165527],[-94.495762,46.171636],[-94.495074,46.173129],[-94.486633,46.178603],[-94.485046,46.18082],[-94.485934,46.182889],[-94.485979,46.185378],[-94.484833,46.187732],[-94.48579,46.194405],[-94.476077,46.194636],[-94.476482,46.202054],[-94.476251,46.207417],[-94.475143,46.207902],[-94.478492,46.211465],[-94.481336,46.21322],[-94.483136,46.216627],[-94.485752,46.217956],[-94.485742,46.228757],[-94.484973,46.23046],[-94.482437,46.230032],[-94.471152,46.230122],[-94.469363,46.231197],[-94.4644,46.238145],[-94.476155,46.238109],[-94.473895,46.242813],[-94.473323,46.252538],[-94.47512,46.253265],[-94.47466,46.259292],[-94.472155,46.262069],[-94.474794,46.267507],[-94.474515,46.277126],[-94.476219,46.278306],[-94.479944,46.278351],[-94.486089,46.282611],[-94.492481,46.282194],[-94.495079,46.280467],[-94.500851,46.278949],[-94.50116,46.277505],[-94.511414,46.277478],[-94.511473,46.273607],[-94.515525,46.272257],[-94.516589,46.270952],[-94.516428,46.254641],[-94.515676,46.253702],[-94.516103,46.251702],[-94.520961,46.251863],[-94.525487,46.252451],[-94.531577,46.252149],[-94.533095,46.253618],[-94.534857,46.253554],[-94.538211,46.25215],[-94.537427,46.249595],[-94.537037,46.238656],[-94.536477,46.237287],[-94.558045,46.237094],[-94.641077,46.238636],[-94.641163,46.230242],[-94.642159,46.227686],[-94.64442,46.224422],[-94.647413,46.224263],[-94.647436,46.23773],[-94.647815,46.242598],[-94.647625,46.252454],[-94.650545,46.253238],[-94.668513,46.252959],[-94.670229,46.252062],[-94.67181,46.252954],[-94.686355,46.253008],[-94.688466,46.253458],[-94.691126,46.252918],[-94.699764,46.252791],[-94.702978,46.251062],[-94.711883,46.248598],[-94.71297,46.248516],[-94.716181,46.249128],[-94.720057,46.249163]]]}}]}