{"type":"FeatureCollection","features":[{"type":"Feature","properties":{"zcta5":"30286","AFFGEOID10":"8600000US30286","GEOID10":"30286","ALAND10":502935735,"AWATER10":6686657,"county_name":"Upson","state_code":"GA","county_state":"Upson County, GA","county_fips":"13293","risk_level_county":"Medium Risk (70–79% vaccinated)","mean_vaccination_rate_county":76.17,"risk_level_zcta":"Higher Risk (60–69% vaccinated)","mean_vaccination_rate_zips":66.47,"cases":5},"geometry":{"type":"MultiPolygon","coordinates":[[[[-84.320104,32.974466],[-84.319403,32.975071],[-84.317555,32.977376],[-84.321818,32.978648],[-84.322552,32.976239],[-84.321467,32.9744],[-84.320674,32.974458],[-84.320104,32.974466]]],[[[-84.47709,32.877519],[-84.475892,32.876855],[-84.475083,32.873629],[-84.475304,32.872463],[-84.478092,32.869818],[-84.480778,32.868543],[-84.482283,32.867167],[-84.484898,32.866019],[-84.486929,32.863751],[-84.489152,32.862302],[-84.490277,32.860312],[-84.490086,32.856899],[-84.489509,32.855874],[-84.487484,32.854808],[-84.485139,32.854469],[-84.483057,32.852252],[-84.480868,32.852086],[-84.479294,32.854382],[-84.476452,32.856065],[-84.474603,32.855745],[-84.471873,32.854055],[-84.46731,32.853006],[-84.466008,32.851439],[-84.464527,32.848092],[-84.462092,32.845875],[-84.459698,32.843015],[-84.458222,32.839239],[-84.457287,32.829881],[-84.456641,32.828662],[-84.455412,32.828631],[-84.448362,32.825024],[-84.442729,32.825208],[-84.441071,32.82658],[-84.43965,32.829687],[-84.437193,32.831863],[-84.43509,32.835106],[-84.434179,32.838063],[-84.433479,32.838465],[-84.422122,32.838652],[-84.420547,32.838417],[-84.420107,32.836477],[-84.418629,32.835625],[-84.417104,32.835571],[-84.414908,32.83453],[-84.410185,32.827305],[-84.408365,32.826428],[-84.408034,32.824675],[-84.408623,32.821953],[-84.406551,32.819781],[-84.402694,32.817369],[-84.401758,32.816046],[-84.402874,32.812683],[-84.401151,32.810935],[-84.400905,32.810026],[-84.398711,32.80867],[-84.396873,32.805838],[-84.395337,32.801673],[-84.395792,32.800359],[-84.392318,32.79462],[-84.391017,32.786956],[-84.386395,32.786355],[-84.385795,32.783254],[-84.382542,32.780281],[-84.380398,32.779176],[-84.374918,32.777262],[-84.369306,32.776199],[-84.363533,32.778286],[-84.362403,32.777903],[-84.359378,32.774803],[-84.357282,32.773682],[-84.355579,32.773564],[-84.354415,32.77498],[-84.354698,32.776517],[-84.357402,32.781743],[-84.356861,32.783002],[-84.35511,32.783659],[-84.351074,32.78287],[-84.349454,32.781791],[-84.344843,32.775812],[-84.34395,32.772064],[-84.341997,32.768765],[-84.341384,32.766587],[-84.339101,32.761758],[-84.336132,32.759708],[-84.332985,32.759461],[-84.331255,32.760151],[-84.330077,32.761397],[-84.328328,32.762238],[-84.325776,32.762456],[-84.323833,32.761864],[-84.32095,32.759213],[-84.316289,32.755591],[-84.313912,32.755693],[-84.311935,32.75687],[-84.309449,32.759016],[-84.306936,32.759556],[-84.304978,32.760619],[-84.304101,32.76165],[-84.301121,32.761817],[-84.300131,32.760633],[-84.300683,32.759234],[-84.300323,32.757264],[-84.298583,32.75549],[-84.295513,32.755293],[-84.291693,32.754525],[-84.289529,32.753264],[-84.286682,32.749664],[-84.284377,32.74521],[-84.28201,32.744334],[-84.27712,32.743864],[-84.274904,32.745672],[-84.269664,32.746145],[-84.271564,32.746657],[-84.272037,32.748444],[-84.270868,32.750763],[-84.268592,32.752851],[-84.268839,32.755661],[-84.267088,32.756667],[-84.269404,32.759172],[-84.269716,32.760072],[-84.271968,32.759718],[-84.271861,32.761308],[-84.274122,32.762811],[-84.274229,32.765673],[-84.275088,32.766449],[-84.276006,32.769278],[-84.275832,32.770741],[-84.272771,32.771124],[-84.270909,32.773377],[-84.272162,32.773801],[-84.271708,32.774666],[-84.269257,32.775813],[-84.265234,32.776904],[-84.264233,32.778844],[-84.262962,32.779871],[-84.264344,32.78141],[-84.264708,32.784025],[-84.250657,32.78819],[-84.248898,32.789939],[-84.248133,32.789472],[-84.246575,32.791479],[-84.238254,32.791673],[-84.208541,32.800944],[-84.207969,32.802885],[-84.209382,32.803299],[-84.212084,32.802025],[-84.214143,32.804375],[-84.214392,32.805425],[-84.216347,32.806759],[-84.217687,32.806807],[-84.221216,32.809345],[-84.221703,32.810536],[-84.220703,32.812451],[-84.218615,32.829219],[-84.217974,32.830661],[-84.216187,32.832168],[-84.213783,32.833281],[-84.210814,32.83588],[-84.202569,32.840155],[-84.199973,32.840852],[-84.194705,32.840559],[-84.192216,32.840778],[-84.188341,32.84319],[-84.187205,32.846518],[-84.188982,32.855907],[-84.190587,32.856426],[-84.189401,32.858012],[-84.189108,32.861292],[-84.195719,32.865909],[-84.197548,32.864534],[-84.200198,32.863614],[-84.201627,32.86375],[-84.20221,32.862758],[-84.204869,32.862813],[-84.207435,32.86067],[-84.207917,32.861344],[-84.20715,32.864171],[-84.204717,32.865672],[-84.205617,32.869273],[-84.20683,32.869992],[-84.206353,32.872104],[-84.207404,32.872586],[-84.205448,32.878431],[-84.203554,32.879424],[-84.203333,32.883649],[-84.202705,32.884276],[-84.202799,32.88731],[-84.2021,32.888627],[-84.202698,32.890811],[-84.201791,32.891787],[-84.202748,32.892753],[-84.205516,32.893276],[-84.20543,32.894505],[-84.203384,32.896971],[-84.199983,32.898161],[-84.199298,32.899444],[-84.197711,32.900351],[-84.193479,32.900686],[-84.192087,32.902853],[-84.190483,32.902915],[-84.184886,32.905471],[-84.184157,32.904731],[-84.182564,32.90564],[-84.180429,32.909222],[-84.177877,32.911436],[-84.178865,32.91384],[-84.176734,32.916556],[-84.173894,32.91843],[-84.171736,32.916992],[-84.171944,32.920223],[-84.170168,32.921895],[-84.169009,32.92197],[-84.167952,32.923762],[-84.16848,32.924678],[-84.165781,32.928272],[-84.163546,32.92955],[-84.160384,32.930196],[-84.159489,32.93104],[-84.159462,32.933126],[-84.158752,32.935003],[-84.159864,32.93725],[-84.159699,32.939945],[-84.166008,32.940087],[-84.172419,32.939028],[-84.176913,32.938746],[-84.183259,32.941234],[-84.18767,32.941239],[-84.189482,32.942494],[-84.193976,32.947293],[-84.195191,32.950021],[-84.195355,32.952897],[-84.196968,32.956586],[-84.200264,32.959716],[-84.202911,32.962927],[-84.20317,32.961241],[-84.205557,32.9613],[-84.206734,32.959755],[-84.208477,32.959116],[-84.210988,32.957369],[-84.212406,32.957333],[-84.212469,32.954331],[-84.214332,32.953324],[-84.216165,32.953753],[-84.217364,32.95606],[-84.218166,32.953947],[-84.22168,32.950952],[-84.226115,32.948772],[-84.22939,32.951245],[-84.232593,32.952241],[-84.237912,32.953037],[-84.238292,32.945894],[-84.239182,32.945064],[-84.239943,32.941456],[-84.257196,32.941687],[-84.256885,32.944479],[-84.248516,32.959387],[-84.24716,32.960689],[-84.248674,32.962018],[-84.257552,32.961097],[-84.264683,32.960853],[-84.268358,32.961577],[-84.270374,32.961204],[-84.26994,32.962746],[-84.270351,32.965282],[-84.270217,32.970585],[-84.269498,32.973436],[-84.270116,32.971628],[-84.27214,32.970187],[-84.273703,32.970309],[-84.275355,32.972397],[-84.278769,32.972161],[-84.279911,32.970444],[-84.281791,32.969574],[-84.28446,32.969799],[-84.28615,32.971406],[-84.286726,32.970683],[-84.286764,32.968234],[-84.285846,32.96712],[-84.286738,32.965718],[-84.287864,32.965815],[-84.29016,32.964913],[-84.291527,32.966037],[-84.294695,32.967224],[-84.296157,32.966962],[-84.295603,32.964973],[-84.296604,32.964894],[-84.299106,32.966865],[-84.299886,32.968286],[-84.301642,32.968646],[-84.302876,32.970187],[-84.304614,32.971199],[-84.306999,32.971907],[-84.311432,32.974457],[-84.312577,32.976016],[-84.314299,32.976491],[-84.316296,32.977739],[-84.316132,32.975074],[-84.320104,32.974466],[-84.326929,32.968488],[-84.328077,32.967723],[-84.330495,32.969945],[-84.331567,32.974752],[-84.332383,32.975209],[-84.336778,32.975565],[-84.343269,32.975593],[-84.343193,32.970526],[-84.342373,32.968468],[-84.348875,32.968534],[-84.350103,32.965935],[-84.347813,32.963636],[-84.35566,32.96808],[-84.365302,32.970283],[-84.365543,32.972425],[-84.367523,32.973687],[-84.367584,32.97477],[-84.372795,32.978326],[-84.373254,32.977314],[-84.377487,32.975614],[-84.378525,32.977354],[-84.378505,32.980023],[-84.377544,32.981566],[-84.386128,32.987425],[-84.387697,32.98612],[-84.389428,32.988934],[-84.390257,32.992472],[-84.397702,32.99253],[-84.397782,32.989441],[-84.396205,32.987175],[-84.396454,32.984384],[-84.386658,32.983997],[-84.384843,32.980499],[-84.383867,32.977311],[-84.382999,32.976121],[-84.3806,32.975059],[-84.378623,32.974947],[-84.376798,32.974012],[-84.376556,32.972695],[-84.387847,32.975191],[-84.391094,32.976706],[-84.395916,32.976228],[-84.396938,32.975065],[-84.399848,32.975765],[-84.40347,32.975677],[-84.428161,32.976064],[-84.427545,32.972655],[-84.438708,32.961036],[-84.435856,32.957245],[-84.436526,32.955117],[-84.438966,32.955089],[-84.446686,32.952522],[-84.448423,32.953513],[-84.450602,32.957243],[-84.45239,32.957821],[-84.45635,32.956324],[-84.459603,32.959432],[-84.462099,32.960972],[-84.466071,32.962349],[-84.466974,32.962058],[-84.471331,32.96356],[-84.478663,32.968384],[-84.480711,32.969374],[-84.490242,32.972906],[-84.489554,32.969236],[-84.489706,32.96412],[-84.486943,32.965137],[-84.482515,32.961506],[-84.478039,32.955365],[-84.47721,32.953471],[-84.476657,32.950204],[-84.474487,32.948134],[-84.474385,32.947163],[-84.471826,32.945769],[-84.469274,32.945977],[-84.466463,32.939476],[-84.471708,32.937511],[-84.474805,32.937295],[-84.478524,32.938398],[-84.478376,32.934221],[-84.481958,32.93442],[-84.48188,32.927134],[-84.477952,32.925358],[-84.476074,32.923862],[-84.476998,32.92304],[-84.478951,32.923234],[-84.481833,32.922647],[-84.481441,32.886184],[-84.479945,32.885468],[-84.480463,32.884106],[-84.477676,32.882534],[-84.476629,32.880988],[-84.47709,32.877519]]]]}},{"type":"Feature","properties":{"zcta5":"30204","AFFGEOID10":"8600000US30204","GEOID10":"30204","ALAND10":323477756,"AWATER10":3078723,"county_name":"Upson","state_code":"GA","county_state":"Upson County, GA","county_fips":"13293","risk_level_county":"Medium Risk (70–79% vaccinated)","mean_vaccination_rate_county":76.17,"risk_level_zcta":"Higher Risk (60–69% vaccinated)","mean_vaccination_rate_zips":66.76,"cases":5},"geometry":{"type":"Polygon","coordinates":[[[-84.26946,33.01784],[-84.26955,33.012583],[-84.267193,33.013399],[-84.262525,33.013733],[-84.260401,33.014194],[-84.260502,33.01673],[-84.259602,33.018079],[-84.253588,33.016148],[-84.250665,33.016762],[-84.246581,33.014856],[-84.245495,33.013891],[-84.241115,33.011777],[-84.240059,33.010119],[-84.238542,33.009262],[-84.23608,33.009165],[-84.230026,33.006849],[-84.227575,33.003971],[-84.225233,33.000161],[-84.223885,32.998573],[-84.223302,32.995258],[-84.221629,32.995424],[-84.221629,32.990589],[-84.224791,32.990554],[-84.225069,32.984077],[-84.226238,32.98138],[-84.224842,32.978924],[-84.224338,32.975873],[-84.218956,32.974685],[-84.216854,32.97388],[-84.213923,32.97384],[-84.211348,32.974541],[-84.208583,32.974738],[-84.203771,32.97852],[-84.202888,32.979571],[-84.202103,32.981627],[-84.201961,32.983463],[-84.185696,32.983451],[-84.177786,32.981375],[-84.177649,32.979802],[-84.175832,32.976911],[-84.174401,32.976059],[-84.17019,32.971905],[-84.167255,32.973104],[-84.165937,32.975263],[-84.159735,32.974795],[-84.157239,32.975296],[-84.151922,32.975755],[-84.147104,32.975384],[-84.144612,32.974071],[-84.140535,32.972645],[-84.13595,32.969368],[-84.136724,32.971922],[-84.136154,32.97292],[-84.137317,32.975493],[-84.138215,32.975492],[-84.140419,32.977803],[-84.14059,32.979158],[-84.142179,32.981652],[-84.141077,32.982888],[-84.141164,32.985698],[-84.138492,32.987861],[-84.137935,32.990104],[-84.134883,32.989824],[-84.122361,32.989576],[-84.121347,32.989827],[-84.116385,32.98039],[-84.112402,32.980147],[-84.112578,32.972608],[-84.113573,32.972591],[-84.111929,32.967401],[-84.109852,32.958236],[-84.108971,32.956564],[-84.107447,32.955247],[-84.102118,32.952604],[-84.099019,32.950575],[-84.094642,32.951731],[-84.089916,32.95187],[-84.087595,32.952876],[-84.080116,32.95337],[-84.074618,32.953006],[-84.074826,32.955216],[-84.076446,32.960648],[-84.075758,32.967846],[-84.070887,32.967337],[-84.068616,32.96743],[-84.068613,32.968514],[-84.066778,32.969276],[-84.064007,32.968421],[-84.063059,32.967143],[-84.059173,32.967545],[-84.056683,32.967126],[-84.054577,32.967346],[-84.054025,32.965958],[-84.05167,32.965987],[-84.050582,32.96472],[-84.046739,32.963935],[-84.045873,32.962466],[-84.045028,32.963305],[-84.046153,32.96388],[-84.045374,32.96557],[-84.043765,32.966004],[-84.041994,33.10655],[-84.041071,33.125135],[-84.041355,33.129603],[-84.037906,33.129619],[-84.03661,33.130948],[-84.033377,33.130695],[-84.030464,33.132002],[-84.029522,33.133192],[-84.023278,33.135983],[-84.022494,33.136936],[-84.01943,33.13572],[-84.028419,33.144202],[-84.030912,33.147395],[-84.032124,33.149776],[-84.029186,33.150609],[-84.027589,33.150367],[-84.025618,33.151584],[-84.020925,33.151477],[-84.016478,33.15282],[-84.014492,33.153868],[-84.011872,33.154139],[-84.009696,33.156579],[-84.006037,33.157707],[-84.0128,33.160148],[-84.016151,33.162147],[-84.017364,33.164486],[-84.017795,33.165738],[-84.020025,33.168947],[-84.021551,33.170368],[-84.024284,33.174087],[-84.025471,33.173539],[-84.029973,33.174064],[-84.03174,33.173699],[-84.035492,33.170632],[-84.038301,33.167768],[-84.040184,33.166426],[-84.040939,33.167935],[-84.040915,33.167342],[-84.043579,33.172666],[-84.047589,33.178897],[-84.051938,33.183931],[-84.053972,33.184002],[-84.055417,33.183275],[-84.057894,33.180604],[-84.058929,33.181402],[-84.058824,33.183345],[-84.059772,33.184646],[-84.060977,33.184629],[-84.062289,33.18302],[-84.064216,33.182619],[-84.065194,33.178599],[-84.066744,33.177821],[-84.068383,33.178306],[-84.068453,33.180003],[-84.069822,33.181669],[-84.069584,33.183284],[-84.07088,33.185321],[-84.073213,33.184877],[-84.074262,33.183403],[-84.075682,33.183968],[-84.079221,33.183878],[-84.084531,33.176729],[-84.088908,33.177523],[-84.093176,33.17685],[-84.08816,33.173803],[-84.087533,33.172922],[-84.090236,33.17131],[-84.096039,33.167087],[-84.097496,33.166272],[-84.104852,33.163269],[-84.10503,33.154134],[-84.101388,33.154072],[-84.095089,33.155102],[-84.090061,33.15551],[-84.088782,33.154353],[-84.088309,33.151518],[-84.088883,33.148809],[-84.088726,33.145733],[-84.089875,33.140937],[-84.088434,33.138115],[-84.086997,33.136359],[-84.087378,33.130979],[-84.089831,33.128646],[-84.09148,33.126047],[-84.095274,33.124625],[-84.096625,33.12323],[-84.099725,33.122239],[-84.102347,33.120877],[-84.107601,33.120896],[-84.109493,33.120333],[-84.110308,33.121356],[-84.111318,33.120876],[-84.118121,33.121631],[-84.119521,33.119841],[-84.121075,33.118904],[-84.124719,33.118552],[-84.125262,33.11936],[-84.129732,33.119872],[-84.128829,33.121373],[-84.129869,33.122875],[-84.132382,33.121792],[-84.133631,33.122554],[-84.135268,33.121563],[-84.137398,33.1225],[-84.138121,33.120326],[-84.141168,33.118769],[-84.143065,33.120375],[-84.140196,33.122453],[-84.13725,33.125808],[-84.134972,33.127374],[-84.134725,33.130876],[-84.137246,33.133653],[-84.141744,33.135377],[-84.143742,33.137788],[-84.146088,33.138787],[-84.147458,33.140613],[-84.151474,33.137909],[-84.153336,33.136248],[-84.153854,33.134724],[-84.15398,33.122666],[-84.156768,33.122979],[-84.158419,33.121115],[-84.157329,33.120131],[-84.158101,33.117584],[-84.163159,33.119662],[-84.169336,33.12008],[-84.169855,33.115947],[-84.169174,33.112752],[-84.173892,33.11345],[-84.176565,33.115558],[-84.178088,33.115724],[-84.178002,33.114006],[-84.178832,33.113815],[-84.181197,33.111178],[-84.185658,33.107626],[-84.187998,33.104566],[-84.187156,33.10277],[-84.19152,33.105251],[-84.19228,33.104968],[-84.197097,33.105176],[-84.196729,33.102419],[-84.199537,33.100884],[-84.201311,33.101896],[-84.201411,33.105046],[-84.198903,33.105167],[-84.198917,33.106209],[-84.197376,33.106237],[-84.19746,33.107247],[-84.2005,33.107258],[-84.201486,33.10707],[-84.201754,33.105297],[-84.204687,33.103994],[-84.209944,33.104602],[-84.211431,33.103717],[-84.213459,33.101419],[-84.214739,33.101177],[-84.214291,33.097966],[-84.214495,33.093637],[-84.212203,33.090811],[-84.210262,33.089245],[-84.213502,33.08645],[-84.216047,33.084823],[-84.217984,33.081404],[-84.215571,33.078178],[-84.21547,33.075533],[-84.217143,33.073951],[-84.215369,33.071827],[-84.215498,33.071182],[-84.216705,33.070321],[-84.220711,33.069558],[-84.221873,33.068781],[-84.226269,33.068385],[-84.230511,33.068542],[-84.230544,33.069598],[-84.232214,33.073476],[-84.232439,33.075797],[-84.233951,33.078463],[-84.235563,33.079355],[-84.241586,33.079376],[-84.244812,33.077363],[-84.24837,33.078557],[-84.248133,33.075488],[-84.248196,33.065824],[-84.248453,33.063222],[-84.248523,33.048631],[-84.245699,33.050061],[-84.243504,33.049476],[-84.241025,33.047168],[-84.235739,33.050659],[-84.23286,33.052294],[-84.232036,33.049875],[-84.233291,33.045029],[-84.234442,33.043548],[-84.237118,33.042479],[-84.238884,33.041083],[-84.239258,33.037681],[-84.242936,33.033805],[-84.245624,33.029835],[-84.248491,33.027982],[-84.252863,33.024515],[-84.257749,33.021199],[-84.259799,33.018172],[-84.264596,33.019649],[-84.268128,33.01934],[-84.26946,33.01784]],[[-84.084531,33.176729],[-84.083642,33.17689],[-84.07727,33.178267],[-84.076639,33.175203],[-84.078864,33.17535],[-84.080551,33.170811],[-84.080631,33.168143],[-84.084612,33.166915],[-84.085927,33.169275],[-84.08647,33.17407],[-84.085156,33.175838],[-84.084531,33.176729]]]}},{"type":"Feature","properties":{"zcta5":"30256","AFFGEOID10":"8600000US30256","GEOID10":"30256","ALAND10":88966942,"AWATER10":1083568,"county_name":"Upson","state_code":"GA","county_state":"Upson County, GA","county_fips":"13293","risk_level_county":"Medium Risk (70–79% vaccinated)","mean_vaccination_rate_county":76.17,"risk_level_zcta":"Higher Risk (60–69% vaccinated)","mean_vaccination_rate_zips":68.33,"cases":5},"geometry":{"type":"Polygon","coordinates":[[[-84.359106,33.036603],[-84.362191,33.032071],[-84.362019,33.028866],[-84.364598,33.025412],[-84.365685,33.023314],[-84.368917,33.024137],[-84.373582,33.023961],[-84.375978,33.022933],[-84.376998,33.02143],[-84.382059,33.020339],[-84.383078,33.019143],[-84.382426,33.01223],[-84.388613,33.010269],[-84.390975,33.011547],[-84.39531,33.007066],[-84.396188,33.0043],[-84.39727,33.003295],[-84.397968,33.001927],[-84.397259,33.000366],[-84.397529,32.998694],[-84.397278,32.993525],[-84.397702,32.99253],[-84.390257,32.992472],[-84.389428,32.988934],[-84.387697,32.98612],[-84.386128,32.987425],[-84.377544,32.981566],[-84.378505,32.980023],[-84.378525,32.977354],[-84.377487,32.975614],[-84.373254,32.977314],[-84.372795,32.978326],[-84.367584,32.97477],[-84.367523,32.973687],[-84.365543,32.972425],[-84.365302,32.970283],[-84.35566,32.96808],[-84.347813,32.963636],[-84.350103,32.965935],[-84.348875,32.968534],[-84.342373,32.968468],[-84.343193,32.970526],[-84.343269,32.975593],[-84.336778,32.975565],[-84.332383,32.975209],[-84.331567,32.974752],[-84.330495,32.969945],[-84.328077,32.967723],[-84.326929,32.968488],[-84.320104,32.974466],[-84.316132,32.975074],[-84.316296,32.977739],[-84.314299,32.976491],[-84.312577,32.976016],[-84.311432,32.974457],[-84.306999,32.971907],[-84.304614,32.971199],[-84.302876,32.970187],[-84.301642,32.968646],[-84.299886,32.968286],[-84.299106,32.966865],[-84.296604,32.964894],[-84.295603,32.964973],[-84.296157,32.966962],[-84.294695,32.967224],[-84.291527,32.966037],[-84.29016,32.964913],[-84.287864,32.965815],[-84.286738,32.965718],[-84.285846,32.96712],[-84.286764,32.968234],[-84.286726,32.970683],[-84.28615,32.971406],[-84.285487,32.973384],[-84.285645,32.974957],[-84.286959,32.975141],[-84.286989,32.978816],[-84.285603,32.979069],[-84.286546,32.980744],[-84.285827,32.981364],[-84.286534,32.983964],[-84.286452,32.985461],[-84.288741,32.989874],[-84.289102,32.991326],[-84.274033,32.991106],[-84.274689,32.991642],[-84.279423,32.992967],[-84.279042,33.009239],[-84.273457,33.011508],[-84.26955,33.012583],[-84.26946,33.01784],[-84.269327,33.023117],[-84.273368,33.023013],[-84.278754,33.02329],[-84.278864,33.024833],[-84.281341,33.028382],[-84.282483,33.030758],[-84.285327,33.033662],[-84.285045,33.034654],[-84.28219,33.036172],[-84.281802,33.041012],[-84.269621,33.029612],[-84.269237,33.027754],[-84.269169,33.031438],[-84.259056,33.031518],[-84.258853,33.039681],[-84.249915,33.039735],[-84.248659,33.03933],[-84.248523,33.048631],[-84.248453,33.063222],[-84.248196,33.065824],[-84.250515,33.065775],[-84.253516,33.067704],[-84.253634,33.069456],[-84.258054,33.07151],[-84.263697,33.069772],[-84.268995,33.069704],[-84.27135,33.069353],[-84.278544,33.064785],[-84.282426,33.062066],[-84.283804,33.058888],[-84.283775,33.056648],[-84.290862,33.056255],[-84.29741,33.052892],[-84.305746,33.056567],[-84.305765,33.055239],[-84.31249,33.056725],[-84.316125,33.059838],[-84.31668,33.056361],[-84.319574,33.053255],[-84.320819,33.052971],[-84.323348,33.053527],[-84.323505,33.04872],[-84.339848,33.048808],[-84.339819,33.046754],[-84.334171,33.040425],[-84.334178,33.036215],[-84.33302,33.03298],[-84.333549,33.032189],[-84.339197,33.028357],[-84.340867,33.031906],[-84.340826,33.033836],[-84.342312,33.034473],[-84.343943,33.036973],[-84.34412,33.039991],[-84.3439,33.042847],[-84.345984,33.04251],[-84.356491,33.036859],[-84.359106,33.036603]],[[-84.320104,32.974466],[-84.320674,32.974458],[-84.321467,32.9744],[-84.322552,32.976239],[-84.321818,32.978648],[-84.317555,32.977376],[-84.319403,32.975071],[-84.320104,32.974466]]]}},{"type":"Feature","properties":{"zcta5":"31016","AFFGEOID10":"8600000US31016","GEOID10":"31016","ALAND10":236088071,"AWATER10":1689245,"county_name":"Upson","state_code":"GA","county_state":"Upson County, GA","county_fips":"13293","risk_level_county":"Medium Risk (70–79% vaccinated)","mean_vaccination_rate_county":76.17,"risk_level_zcta":"Medium Risk (70–79% vaccinated)","mean_vaccination_rate_zips":74.9,"cases":5},"geometry":{"type":"Polygon","coordinates":[[[-84.208541,32.800944],[-84.238254,32.791673],[-84.246575,32.791479],[-84.248133,32.789472],[-84.248898,32.789939],[-84.250657,32.78819],[-84.264708,32.784025],[-84.264344,32.78141],[-84.262962,32.779871],[-84.264233,32.778844],[-84.265234,32.776904],[-84.269257,32.775813],[-84.271708,32.774666],[-84.272162,32.773801],[-84.270909,32.773377],[-84.272771,32.771124],[-84.275832,32.770741],[-84.276006,32.769278],[-84.275088,32.766449],[-84.274229,32.765673],[-84.274122,32.762811],[-84.271861,32.761308],[-84.271968,32.759718],[-84.269716,32.760072],[-84.269404,32.759172],[-84.267088,32.756667],[-84.268839,32.755661],[-84.268592,32.752851],[-84.270868,32.750763],[-84.272037,32.748444],[-84.271564,32.746657],[-84.269664,32.746145],[-84.274904,32.745672],[-84.27712,32.743864],[-84.28201,32.744334],[-84.284377,32.74521],[-84.286682,32.749664],[-84.289529,32.753264],[-84.291693,32.754525],[-84.295513,32.755293],[-84.298583,32.75549],[-84.300323,32.757264],[-84.300683,32.759234],[-84.300131,32.760633],[-84.301121,32.761817],[-84.304101,32.76165],[-84.304978,32.760619],[-84.30281,32.761445],[-84.301393,32.761338],[-84.300615,32.76061],[-84.30082,32.75866],[-84.3006,32.75734],[-84.29902,32.75546],[-84.297324,32.754759],[-84.294054,32.754618],[-84.291135,32.754026],[-84.289997,32.753244],[-84.287536,32.750137],[-84.286246,32.747626],[-84.284264,32.744517],[-84.278874,32.743783],[-84.270291,32.741073],[-84.265073,32.740478],[-84.262706,32.739306],[-84.26153,32.735463],[-84.256777,32.729307],[-84.256278,32.725988],[-84.257536,32.724339],[-84.25644,32.722717],[-84.253653,32.722214],[-84.253271,32.72319],[-84.254661,32.725319],[-84.252808,32.727373],[-84.24693,32.730052],[-84.245693,32.730918],[-84.242817,32.734299],[-84.241059,32.737637],[-84.238523,32.73857],[-84.235803,32.738284],[-84.23297,32.736378],[-84.229885,32.733629],[-84.22924,32.73266],[-84.230434,32.730459],[-84.233792,32.728131],[-84.23556,32.725045],[-84.236469,32.721785],[-84.236303,32.721043],[-84.231951,32.722378],[-84.229356,32.722141],[-84.226698,32.721316],[-84.220333,32.720869],[-84.219376,32.720294],[-84.217824,32.718024],[-84.216877,32.714944],[-84.214733,32.71107],[-84.213583,32.706249],[-84.211353,32.701335],[-84.210159,32.699959],[-84.206706,32.699646],[-84.203368,32.697834],[-84.202804,32.696598],[-84.202628,32.690018],[-84.196761,32.701294],[-84.195726,32.70375],[-84.174237,32.748746],[-84.173213,32.750138],[-84.149328,32.801206],[-84.127881,32.801049],[-84.124332,32.800935],[-84.12424,32.827272],[-84.103208,32.817495],[-84.076369,32.806212],[-84.074174,32.80732],[-84.071049,32.810424],[-84.065797,32.814709],[-84.064226,32.816724],[-84.06414,32.82126],[-84.066783,32.821925],[-84.068764,32.824148],[-84.07402,32.833437],[-84.076412,32.837023],[-84.077508,32.840969],[-84.077645,32.846946],[-84.078929,32.849375],[-83.978409,32.848936],[-83.978167,32.855537],[-83.979,32.857862],[-83.981369,32.860448],[-83.981103,32.861528],[-83.981843,32.863357],[-83.982944,32.864133],[-83.987338,32.864057],[-83.990621,32.86258],[-83.991477,32.864346],[-83.994548,32.865462],[-83.994249,32.870708],[-83.994423,32.872788],[-83.996142,32.881563],[-83.995768,32.88542],[-83.992179,32.900971],[-83.991507,32.902597],[-83.989313,32.9044],[-83.983562,32.905983],[-83.981633,32.906753],[-83.977899,32.908968],[-83.975029,32.911786],[-83.972525,32.91535],[-83.970648,32.917135],[-83.967348,32.918813],[-83.968777,32.920826],[-83.9725,32.922023],[-83.97488,32.920258],[-83.97777,32.921285],[-83.97862,32.922715],[-83.980899,32.924145],[-83.9821,32.923164],[-83.983007,32.92404],[-83.983331,32.925737],[-83.985134,32.926948],[-83.985625,32.925672],[-83.985048,32.923893],[-83.987676,32.923573],[-83.989804,32.922769],[-83.990624,32.925056],[-83.992225,32.923982],[-83.99406,32.924927],[-83.995068,32.924361],[-83.996836,32.924879],[-83.998166,32.924079],[-83.997561,32.922494],[-83.99983,32.9207],[-84.001828,32.92156],[-84.002156,32.922704],[-84.005118,32.924192],[-84.00713,32.926741],[-84.009557,32.926452],[-84.010678,32.928244],[-84.012462,32.926832],[-84.014754,32.9275],[-84.015675,32.927008],[-84.018731,32.92721],[-84.018219,32.930004],[-84.021571,32.931365],[-84.024337,32.932027],[-84.026705,32.931872],[-84.028008,32.933334],[-84.028007,32.934559],[-84.025071,32.937415],[-84.025898,32.938739],[-84.023872,32.94047],[-84.025962,32.943846],[-84.025703,32.944791],[-84.027379,32.946905],[-84.027267,32.948168],[-84.03329,32.947404],[-84.035286,32.948023],[-84.038793,32.951188],[-84.04218,32.952035],[-84.044001,32.953817],[-84.043765,32.966004],[-84.045374,32.96557],[-84.046153,32.96388],[-84.045028,32.963305],[-84.045873,32.962466],[-84.046739,32.963935],[-84.050582,32.96472],[-84.05167,32.965987],[-84.054025,32.965958],[-84.054577,32.967346],[-84.056683,32.967126],[-84.059173,32.967545],[-84.063059,32.967143],[-84.064007,32.968421],[-84.066778,32.969276],[-84.068613,32.968514],[-84.068616,32.96743],[-84.070887,32.967337],[-84.075758,32.967846],[-84.076446,32.960648],[-84.074826,32.955216],[-84.074618,32.953006],[-84.080116,32.95337],[-84.087595,32.952876],[-84.089916,32.95187],[-84.094642,32.951731],[-84.099019,32.950575],[-84.095876,32.948462],[-84.092841,32.946047],[-84.091527,32.94453],[-84.085483,32.934787],[-84.081876,32.931771],[-84.105227,32.932034],[-84.104801,32.927482],[-84.103042,32.926342],[-84.101961,32.923334],[-84.102835,32.92141],[-84.103933,32.92049],[-84.106295,32.920055],[-84.108055,32.918604],[-84.109125,32.918377],[-84.112172,32.92073],[-84.113956,32.921197],[-84.114433,32.921999],[-84.117034,32.922929],[-84.123476,32.919229],[-84.124275,32.849562],[-84.124231,32.832061],[-84.126997,32.828318],[-84.14764,32.837908],[-84.146059,32.833131],[-84.146138,32.83016],[-84.148105,32.826028],[-84.148701,32.821992],[-84.148445,32.820084],[-84.149322,32.81676],[-84.147827,32.815446],[-84.134991,32.817123],[-84.135371,32.813277],[-84.134978,32.809734],[-84.138614,32.809283],[-84.145469,32.809368],[-84.150475,32.809095],[-84.152777,32.810845],[-84.156564,32.808314],[-84.157958,32.805918],[-84.157902,32.803272],[-84.15946,32.799337],[-84.162209,32.800299],[-84.165924,32.802795],[-84.16947,32.803573],[-84.180231,32.8033],[-84.184318,32.804488],[-84.186079,32.806351],[-84.191452,32.806137],[-84.208541,32.800944]]]}},{"type":"Feature","properties":{"zcta5":"30285","AFFGEOID10":"8600000US30285","GEOID10":"30285","ALAND10":44107481,"AWATER10":686356,"county_name":"Upson","state_code":"GA","county_state":"Upson County, GA","county_fips":"13293","risk_level_county":"Medium Risk (70–79% vaccinated)","mean_vaccination_rate_county":76.17,"risk_level_zcta":"Medium Risk (70–79% vaccinated)","mean_vaccination_rate_zips":72.14,"cases":5},"geometry":{"type":"MultiPolygon","coordinates":[[[[-84.248523,33.048631],[-84.248659,33.03933],[-84.249915,33.039735],[-84.258853,33.039681],[-84.259056,33.031518],[-84.269169,33.031438],[-84.269237,33.027754],[-84.269621,33.029612],[-84.281802,33.041012],[-84.28219,33.036172],[-84.285045,33.034654],[-84.285327,33.033662],[-84.282483,33.030758],[-84.281341,33.028382],[-84.278864,33.024833],[-84.278754,33.02329],[-84.273368,33.023013],[-84.269327,33.023117],[-84.26946,33.01784],[-84.268128,33.01934],[-84.264596,33.019649],[-84.259799,33.018172],[-84.257749,33.021199],[-84.252863,33.024515],[-84.248491,33.027982],[-84.245624,33.029835],[-84.242936,33.033805],[-84.239258,33.037681],[-84.238884,33.041083],[-84.237118,33.042479],[-84.234442,33.043548],[-84.233291,33.045029],[-84.232036,33.049875],[-84.23286,33.052294],[-84.235739,33.050659],[-84.241025,33.047168],[-84.243504,33.049476],[-84.245699,33.050061],[-84.248523,33.048631]]],[[[-84.26955,33.012583],[-84.273457,33.011508],[-84.279042,33.009239],[-84.279423,32.992967],[-84.274689,32.991642],[-84.274033,32.991106],[-84.289102,32.991326],[-84.288741,32.989874],[-84.286452,32.985461],[-84.286534,32.983964],[-84.285827,32.981364],[-84.286546,32.980744],[-84.285603,32.979069],[-84.286989,32.978816],[-84.286959,32.975141],[-84.285645,32.974957],[-84.285487,32.973384],[-84.28615,32.971406],[-84.28446,32.969799],[-84.281791,32.969574],[-84.279911,32.970444],[-84.278769,32.972161],[-84.275355,32.972397],[-84.273703,32.970309],[-84.27214,32.970187],[-84.270116,32.971628],[-84.269498,32.973436],[-84.270217,32.970585],[-84.270351,32.965282],[-84.26994,32.962746],[-84.270374,32.961204],[-84.268358,32.961577],[-84.264683,32.960853],[-84.257552,32.961097],[-84.248674,32.962018],[-84.24716,32.960689],[-84.248516,32.959387],[-84.256885,32.944479],[-84.257196,32.941687],[-84.239943,32.941456],[-84.239182,32.945064],[-84.238292,32.945894],[-84.237912,32.953037],[-84.232593,32.952241],[-84.22939,32.951245],[-84.226115,32.948772],[-84.22168,32.950952],[-84.218166,32.953947],[-84.217364,32.95606],[-84.216165,32.953753],[-84.214332,32.953324],[-84.212469,32.954331],[-84.212406,32.957333],[-84.210988,32.957369],[-84.208477,32.959116],[-84.206734,32.959755],[-84.205557,32.9613],[-84.20317,32.961241],[-84.202911,32.962927],[-84.203077,32.963551],[-84.202888,32.979571],[-84.203771,32.97852],[-84.208583,32.974738],[-84.211348,32.974541],[-84.213923,32.97384],[-84.216854,32.97388],[-84.218956,32.974685],[-84.224338,32.975873],[-84.224842,32.978924],[-84.226238,32.98138],[-84.225069,32.984077],[-84.224791,32.990554],[-84.221629,32.990589],[-84.221629,32.995424],[-84.223302,32.995258],[-84.223885,32.998573],[-84.225233,33.000161],[-84.227575,33.003971],[-84.230026,33.006849],[-84.23608,33.009165],[-84.238542,33.009262],[-84.240059,33.010119],[-84.241115,33.011777],[-84.245495,33.013891],[-84.246581,33.014856],[-84.250665,33.016762],[-84.253588,33.016148],[-84.259602,33.018079],[-84.260502,33.01673],[-84.260401,33.014194],[-84.262525,33.013733],[-84.267193,33.013399],[-84.26955,33.012583]]]]}},{"type":"Feature","properties":{"zcta5":"30258","AFFGEOID10":"8600000US30258","GEOID10":"30258","ALAND10":144935668,"AWATER10":2166484,"county_name":"Upson","state_code":"GA","county_state":"Upson County, GA","county_fips":"13293","risk_level_county":"Medium Risk (70–79% vaccinated)","mean_vaccination_rate_county":76.17,"risk_level_zcta":"Higher Risk (60–69% vaccinated)","mean_vaccination_rate_zips":65.58,"cases":5},"geometry":{"type":"Polygon","coordinates":[[[-84.5345,33.026398],[-84.534748,33.025616],[-84.533863,33.022709],[-84.533879,33.020477],[-84.537661,33.013133],[-84.537994,33.011547],[-84.536832,33.009359],[-84.53541,33.008135],[-84.532879,33.00482],[-84.530058,33.003577],[-84.527004,33.000332],[-84.530775,32.995992],[-84.531248,32.993656],[-84.528635,32.98959],[-84.5304,32.985917],[-84.529371,32.983441],[-84.5252,32.981128],[-84.52326,32.978878],[-84.521606,32.976138],[-84.521759,32.973716],[-84.524698,32.971348],[-84.52702,32.970548],[-84.529699,32.970705],[-84.531482,32.970149],[-84.53257,32.968975],[-84.53364,32.965477],[-84.534397,32.964191],[-84.533403,32.96155],[-84.532118,32.960729],[-84.527891,32.961239],[-84.524443,32.960548],[-84.523143,32.959195],[-84.519335,32.952379],[-84.518751,32.948301],[-84.520482,32.942897],[-84.522187,32.94061],[-84.522928,32.937904],[-84.522349,32.933906],[-84.523086,32.932145],[-84.526304,32.930262],[-84.52799,32.927897],[-84.52769,32.925412],[-84.525401,32.923257],[-84.524428,32.920851],[-84.524448,32.916998],[-84.527016,32.915145],[-84.526614,32.913477],[-84.523317,32.913131],[-84.518867,32.914704],[-84.516244,32.914944],[-84.512779,32.91366],[-84.511594,32.91234],[-84.510428,32.907083],[-84.508171,32.903366],[-84.50801,32.898816],[-84.509181,32.894146],[-84.508912,32.888297],[-84.509688,32.884538],[-84.509441,32.883904],[-84.506888,32.881788],[-84.503347,32.881692],[-84.498256,32.883595],[-84.497043,32.883398],[-84.490401,32.880989],[-84.486686,32.879139],[-84.48304,32.878135],[-84.478118,32.877833],[-84.47709,32.877519],[-84.476629,32.880988],[-84.477676,32.882534],[-84.480463,32.884106],[-84.479945,32.885468],[-84.481441,32.886184],[-84.481833,32.922647],[-84.478951,32.923234],[-84.476998,32.92304],[-84.476074,32.923862],[-84.477952,32.925358],[-84.48188,32.927134],[-84.481958,32.93442],[-84.478376,32.934221],[-84.478524,32.938398],[-84.474805,32.937295],[-84.471708,32.937511],[-84.466463,32.939476],[-84.469274,32.945977],[-84.471826,32.945769],[-84.474385,32.947163],[-84.474487,32.948134],[-84.476657,32.950204],[-84.47721,32.953471],[-84.478039,32.955365],[-84.482515,32.961506],[-84.486943,32.965137],[-84.489706,32.96412],[-84.489554,32.969236],[-84.490242,32.972906],[-84.480711,32.969374],[-84.478663,32.968384],[-84.471331,32.96356],[-84.466974,32.962058],[-84.466071,32.962349],[-84.462099,32.960972],[-84.459603,32.959432],[-84.45635,32.956324],[-84.45239,32.957821],[-84.450602,32.957243],[-84.448423,32.953513],[-84.446686,32.952522],[-84.438966,32.955089],[-84.436526,32.955117],[-84.435856,32.957245],[-84.438708,32.961036],[-84.427545,32.972655],[-84.428161,32.976064],[-84.40347,32.975677],[-84.399848,32.975765],[-84.396938,32.975065],[-84.395916,32.976228],[-84.391094,32.976706],[-84.387847,32.975191],[-84.376556,32.972695],[-84.376798,32.974012],[-84.378623,32.974947],[-84.3806,32.975059],[-84.382999,32.976121],[-84.383867,32.977311],[-84.384843,32.980499],[-84.386658,32.983997],[-84.396454,32.984384],[-84.396205,32.987175],[-84.397782,32.989441],[-84.397702,32.99253],[-84.397278,32.993525],[-84.397529,32.998694],[-84.397259,33.000366],[-84.397968,33.001927],[-84.39727,33.003295],[-84.396188,33.0043],[-84.39531,33.007066],[-84.390975,33.011547],[-84.388613,33.010269],[-84.382426,33.01223],[-84.383078,33.019143],[-84.382059,33.020339],[-84.376998,33.02143],[-84.375978,33.022933],[-84.373582,33.023961],[-84.368917,33.024137],[-84.365685,33.023314],[-84.364598,33.025412],[-84.362019,33.028866],[-84.362191,33.032071],[-84.359106,33.036603],[-84.366109,33.037176],[-84.368699,33.037602],[-84.373175,33.036527],[-84.375756,33.039161],[-84.376151,33.043325],[-84.37807,33.045732],[-84.37761,33.046492],[-84.379698,33.047154],[-84.382193,33.046391],[-84.385189,33.048186],[-84.388474,33.051809],[-84.39237,33.055939],[-84.398162,33.054212],[-84.408201,33.049602],[-84.406603,33.045816],[-84.407137,33.043878],[-84.422598,33.03589],[-84.425602,33.033946],[-84.427573,33.034318],[-84.429839,33.033057],[-84.430108,33.031695],[-84.433898,33.029845],[-84.434876,33.030558],[-84.437306,33.030275],[-84.440939,33.035027],[-84.443758,33.035894],[-84.445322,33.035868],[-84.449933,33.039385],[-84.452883,33.039895],[-84.455626,33.041206],[-84.458489,33.039639],[-84.461993,33.036566],[-84.464144,33.03687],[-84.46478,33.03591],[-84.467696,33.038424],[-84.469586,33.037519],[-84.469277,33.035034],[-84.469946,33.032564],[-84.470793,33.03163],[-84.472653,33.031661],[-84.472583,33.029916],[-84.477829,33.030008],[-84.489926,33.044868],[-84.492289,33.046856],[-84.497075,33.044558],[-84.501058,33.043177],[-84.504475,33.038182],[-84.507554,33.039599],[-84.510031,33.041635],[-84.513115,33.042384],[-84.516161,33.041611],[-84.520915,33.042611],[-84.522147,33.040996],[-84.523766,33.04025],[-84.526959,33.041193],[-84.528496,33.043027],[-84.531509,33.042867],[-84.535174,33.042177],[-84.536107,33.040169],[-84.536998,33.035922],[-84.535168,33.033686],[-84.534811,33.030683],[-84.533197,33.028208],[-84.5345,33.026398]]]}},{"type":"Feature","properties":{"zcta5":"31097","AFFGEOID10":"8600000US31097","GEOID10":"31097","ALAND10":138532926,"AWATER10":1266814,"county_name":"Upson","state_code":"GA","county_state":"Upson County, GA","county_fips":"13293","risk_level_county":"Medium Risk (70–79% vaccinated)","mean_vaccination_rate_county":76.17,"risk_level_zcta":"Very High Risk (<60% vaccinated)","mean_vaccination_rate_zips":58.08,"cases":5},"geometry":{"type":"Polygon","coordinates":[[[-84.202911,32.962927],[-84.200264,32.959716],[-84.196968,32.956586],[-84.195355,32.952897],[-84.195191,32.950021],[-84.193976,32.947293],[-84.189482,32.942494],[-84.18767,32.941239],[-84.183259,32.941234],[-84.176913,32.938746],[-84.172419,32.939028],[-84.166008,32.940087],[-84.159699,32.939945],[-84.159864,32.93725],[-84.158752,32.935003],[-84.159462,32.933126],[-84.159489,32.93104],[-84.160384,32.930196],[-84.163546,32.92955],[-84.165781,32.928272],[-84.16848,32.924678],[-84.167952,32.923762],[-84.169009,32.92197],[-84.170168,32.921895],[-84.171944,32.920223],[-84.171736,32.916992],[-84.173894,32.91843],[-84.176734,32.916556],[-84.178865,32.91384],[-84.177877,32.911436],[-84.180429,32.909222],[-84.182564,32.90564],[-84.184157,32.904731],[-84.184886,32.905471],[-84.190483,32.902915],[-84.192087,32.902853],[-84.193479,32.900686],[-84.197711,32.900351],[-84.199298,32.899444],[-84.199983,32.898161],[-84.203384,32.896971],[-84.20543,32.894505],[-84.205516,32.893276],[-84.202748,32.892753],[-84.201791,32.891787],[-84.202698,32.890811],[-84.2021,32.888627],[-84.202799,32.88731],[-84.202705,32.884276],[-84.203333,32.883649],[-84.203554,32.879424],[-84.205448,32.878431],[-84.207404,32.872586],[-84.206353,32.872104],[-84.20683,32.869992],[-84.205617,32.869273],[-84.204717,32.865672],[-84.20715,32.864171],[-84.207917,32.861344],[-84.207435,32.86067],[-84.204869,32.862813],[-84.20221,32.862758],[-84.201627,32.86375],[-84.200198,32.863614],[-84.197548,32.864534],[-84.195719,32.865909],[-84.189108,32.861292],[-84.189401,32.858012],[-84.190587,32.856426],[-84.188982,32.855907],[-84.187205,32.846518],[-84.188341,32.84319],[-84.192216,32.840778],[-84.194705,32.840559],[-84.199973,32.840852],[-84.202569,32.840155],[-84.210814,32.83588],[-84.213783,32.833281],[-84.216187,32.832168],[-84.217974,32.830661],[-84.218615,32.829219],[-84.220703,32.812451],[-84.221703,32.810536],[-84.221216,32.809345],[-84.217687,32.806807],[-84.216347,32.806759],[-84.214392,32.805425],[-84.214143,32.804375],[-84.212084,32.802025],[-84.209382,32.803299],[-84.207969,32.802885],[-84.208541,32.800944],[-84.191452,32.806137],[-84.186079,32.806351],[-84.184318,32.804488],[-84.180231,32.8033],[-84.16947,32.803573],[-84.165924,32.802795],[-84.162209,32.800299],[-84.15946,32.799337],[-84.157902,32.803272],[-84.157958,32.805918],[-84.156564,32.808314],[-84.152777,32.810845],[-84.150475,32.809095],[-84.145469,32.809368],[-84.138614,32.809283],[-84.134978,32.809734],[-84.135371,32.813277],[-84.134991,32.817123],[-84.147827,32.815446],[-84.149322,32.81676],[-84.148445,32.820084],[-84.148701,32.821992],[-84.148105,32.826028],[-84.146138,32.83016],[-84.146059,32.833131],[-84.14764,32.837908],[-84.126997,32.828318],[-84.124231,32.832061],[-84.124275,32.849562],[-84.123476,32.919229],[-84.117034,32.922929],[-84.114433,32.921999],[-84.113956,32.921197],[-84.112172,32.92073],[-84.109125,32.918377],[-84.108055,32.918604],[-84.106295,32.920055],[-84.103933,32.92049],[-84.102835,32.92141],[-84.101961,32.923334],[-84.103042,32.926342],[-84.104801,32.927482],[-84.105227,32.932034],[-84.081876,32.931771],[-84.085483,32.934787],[-84.091527,32.94453],[-84.092841,32.946047],[-84.095876,32.948462],[-84.099019,32.950575],[-84.102118,32.952604],[-84.107447,32.955247],[-84.108971,32.956564],[-84.109852,32.958236],[-84.111929,32.967401],[-84.113573,32.972591],[-84.112578,32.972608],[-84.112402,32.980147],[-84.116385,32.98039],[-84.121347,32.989827],[-84.122361,32.989576],[-84.134883,32.989824],[-84.137935,32.990104],[-84.138492,32.987861],[-84.141164,32.985698],[-84.141077,32.982888],[-84.142179,32.981652],[-84.14059,32.979158],[-84.140419,32.977803],[-84.138215,32.975492],[-84.137317,32.975493],[-84.136154,32.97292],[-84.136724,32.971922],[-84.13595,32.969368],[-84.140535,32.972645],[-84.144612,32.974071],[-84.147104,32.975384],[-84.151922,32.975755],[-84.157239,32.975296],[-84.159735,32.974795],[-84.165937,32.975263],[-84.167255,32.973104],[-84.17019,32.971905],[-84.174401,32.976059],[-84.175832,32.976911],[-84.177649,32.979802],[-84.177786,32.981375],[-84.185696,32.983451],[-84.201961,32.983463],[-84.202103,32.981627],[-84.202888,32.979571],[-84.203077,32.963551],[-84.202911,32.962927]]]}}]}