{"type":"FeatureCollection","features":[{"type":"Feature","properties":{"zcta5":"05674","AFFGEOID10":"8600000US05674","GEOID10":"05674","ALAND10":103409229,"AWATER10":128835,"county_name":"Washington","state_code":"VT","county_state":"Washington County, VT","county_fips":"50023","risk_level_county":"Lowest Risk (85%+)","mean_vaccination_rate_county":85.01,"risk_level_zcta":"Higher Risk (60–69% vaccinated)","mean_vaccination_rate_zips":63.54,"cases":1},"geometry":{"type":"Polygon","coordinates":[[[-72.934285,44.163619],[-72.933281,44.153997],[-72.928077,44.127181],[-72.925957,44.113773],[-72.923016,44.103401],[-72.921762,44.094721],[-72.916778,44.071886],[-72.909019,44.072587],[-72.896904,44.07366],[-72.854622,44.062055],[-72.852432,44.061281],[-72.847154,44.060044],[-72.821553,44.052634],[-72.770121,44.126433],[-72.782261,44.129784],[-72.843424,44.146721],[-72.861766,44.152325],[-72.868463,44.154563],[-72.891703,44.160781],[-72.893189,44.165309],[-72.934285,44.163619]]]}},{"type":"Feature","properties":{"zcta5":"05648","AFFGEOID10":"8600000US05648","GEOID10":"05648","ALAND10":23100319,"AWATER10":570077,"county_name":"Washington","state_code":"VT","county_state":"Washington County, VT","county_fips":"50023","risk_level_county":"Lowest Risk (85%+)","mean_vaccination_rate_county":85.01,"risk_level_zcta":"Lower Risk (80–84% vaccinated)","mean_vaccination_rate_zips":81.48,"cases":1},"geometry":{"type":"Polygon","coordinates":[[[-72.490548,44.425693],[-72.499553,44.415565],[-72.519727,44.387879],[-72.516709,44.389369],[-72.51585,44.389508],[-72.508588,44.389109],[-72.505546,44.389435],[-72.503854,44.388782],[-72.503478,44.387773],[-72.504989,44.385767],[-72.50604,44.382743],[-72.505995,44.381159],[-72.503748,44.378765],[-72.50632,44.374218],[-72.5068,44.372151],[-72.508244,44.371476],[-72.512292,44.366978],[-72.515347,44.365411],[-72.516164,44.363975],[-72.518838,44.361374],[-72.52111,44.35766],[-72.522883,44.358354],[-72.526462,44.354586],[-72.528244,44.351073],[-72.530836,44.348397],[-72.532067,44.344224],[-72.533931,44.342234],[-72.534968,44.33989],[-72.5084,44.330151],[-72.505591,44.330615],[-72.508034,44.332115],[-72.50882,44.336146],[-72.509779,44.337662],[-72.509765,44.340141],[-72.510457,44.341211],[-72.516117,44.342346],[-72.517322,44.343377],[-72.513646,44.348031],[-72.510903,44.351887],[-72.5108,44.355979],[-72.5091,44.358522],[-72.502379,44.365371],[-72.498866,44.36401],[-72.497243,44.364168],[-72.493644,44.363305],[-72.490887,44.361097],[-72.485055,44.368869],[-72.482253,44.367993],[-72.478287,44.366035],[-72.476265,44.366547],[-72.474074,44.369354],[-72.471171,44.370144],[-72.472669,44.373022],[-72.472564,44.374269],[-72.473789,44.3755],[-72.474261,44.379542],[-72.475162,44.38084],[-72.476964,44.381557],[-72.475518,44.382001],[-72.46956,44.389936],[-72.468198,44.390619],[-72.467849,44.393389],[-72.471045,44.396642],[-72.472344,44.400264],[-72.471757,44.403055],[-72.472264,44.404768],[-72.474423,44.404078],[-72.475063,44.406022],[-72.471172,44.406661],[-72.470236,44.40774],[-72.466287,44.408066],[-72.463209,44.409214],[-72.455978,44.410105],[-72.45392,44.409355],[-72.451045,44.404624],[-72.449722,44.401448],[-72.446167,44.401422],[-72.445908,44.399014],[-72.443535,44.399636],[-72.44193,44.402544],[-72.43934,44.405638],[-72.47475,44.419444],[-72.486808,44.424044],[-72.490548,44.425693]]]}},{"type":"Feature","properties":{"zcta5":"05664","AFFGEOID10":"8600000US05664","GEOID10":"05664","ALAND10":43125,"AWATER10":0,"county_name":"Washington","state_code":"VT","county_state":"Washington County, VT","county_fips":"50023","risk_level_county":"Lowest Risk (85%+)","mean_vaccination_rate_county":85.01,"risk_level_zcta":"Uninhabited","mean_vaccination_rate_zips":null,"cases":1},"geometry":{"type":"Polygon","coordinates":[[[-72.654329,44.166902],[-72.654931,44.166259],[-72.654038,44.166016],[-72.65308,44.165762],[-72.651629,44.167767],[-72.652278,44.168472],[-72.652746,44.16867],[-72.654329,44.166902]]]}},{"type":"Feature","properties":{"zcta5":"05651","AFFGEOID10":"8600000US05651","GEOID10":"05651","ALAND10":44496796,"AWATER10":480388,"county_name":"Washington","state_code":"VT","county_state":"Washington County, VT","county_fips":"50023","risk_level_county":"Lowest Risk (85%+)","mean_vaccination_rate_county":85.01,"risk_level_zcta":"Higher Risk (60–69% vaccinated)","mean_vaccination_rate_zips":67.65,"cases":1},"geometry":{"type":"Polygon","coordinates":[[[-72.503627,44.328404],[-72.505268,44.322196],[-72.509837,44.308482],[-72.512924,44.303188],[-72.516267,44.299558],[-72.517959,44.294343],[-72.51655,44.293342],[-72.515099,44.28966],[-72.512981,44.287845],[-72.512624,44.28681],[-72.517895,44.286912],[-72.521076,44.286709],[-72.521827,44.285963],[-72.516368,44.283889],[-72.513471,44.282476],[-72.511105,44.28184],[-72.50794,44.278606],[-72.507707,44.277323],[-72.505143,44.273747],[-72.503931,44.269196],[-72.509405,44.26334],[-72.512548,44.260459],[-72.517172,44.256802],[-72.516304,44.258024],[-72.516548,44.259501],[-72.519981,44.26206],[-72.521253,44.263436],[-72.521166,44.266906],[-72.518593,44.271314],[-72.518052,44.272901],[-72.521314,44.277753],[-72.521139,44.280838],[-72.525024,44.282685],[-72.525462,44.283607],[-72.529907,44.283408],[-72.531713,44.282633],[-72.530359,44.279215],[-72.529911,44.276981],[-72.528151,44.274322],[-72.529445,44.271669],[-72.530855,44.269829],[-72.532426,44.265172],[-72.541174,44.267863],[-72.542573,44.267527],[-72.544362,44.265796],[-72.544615,44.264682],[-72.535946,44.261339],[-72.540212,44.255566],[-72.527072,44.250232],[-72.52548,44.250222],[-72.52146,44.251423],[-72.521413,44.248631],[-72.516955,44.250441],[-72.515186,44.252152],[-72.511914,44.251631],[-72.510433,44.249307],[-72.50854,44.243189],[-72.516478,44.242817],[-72.518571,44.241475],[-72.480371,44.23383],[-72.476037,44.239469],[-72.466602,44.250065],[-72.446331,44.27785],[-72.448428,44.278174],[-72.447086,44.279832],[-72.448374,44.280424],[-72.448185,44.282126],[-72.450184,44.282211],[-72.449105,44.281214],[-72.450487,44.280638],[-72.451,44.282801],[-72.452982,44.283421],[-72.452297,44.285882],[-72.452407,44.28836],[-72.450889,44.288002],[-72.449444,44.289158],[-72.449398,44.291124],[-72.450706,44.290298],[-72.45195,44.29164],[-72.451822,44.293366],[-72.448406,44.294667],[-72.449239,44.296067],[-72.447761,44.296534],[-72.444263,44.29895],[-72.445526,44.298861],[-72.447081,44.300266],[-72.445434,44.301019],[-72.445056,44.302325],[-72.447081,44.3035],[-72.447466,44.302868],[-72.449379,44.305856],[-72.455349,44.307908],[-72.454835,44.3101],[-72.460989,44.312467],[-72.498019,44.326603],[-72.503627,44.328404]]]}},{"type":"Feature","properties":{"zcta5":"05667","AFFGEOID10":"8600000US05667","GEOID10":"05667","ALAND10":117473814,"AWATER10":621641,"county_name":"Washington","state_code":"VT","county_state":"Washington County, VT","county_fips":"50023","risk_level_county":"Lowest Risk (85%+)","mean_vaccination_rate_county":85.01,"risk_level_zcta":"Medium Risk (70–79% vaccinated)","mean_vaccination_rate_zips":71.32,"cases":1},"geometry":{"type":"MultiPolygon","coordinates":[[[[-72.420718,44.342795],[-72.420549,44.342943],[-72.419944,44.343677],[-72.423761,44.345474],[-72.426694,44.345157],[-72.423078,44.343946],[-72.420842,44.342862],[-72.420718,44.342795]]],[[[-72.460989,44.312467],[-72.454835,44.3101],[-72.455349,44.307908],[-72.449379,44.305856],[-72.447466,44.302868],[-72.447081,44.3035],[-72.445056,44.302325],[-72.445434,44.301019],[-72.447081,44.300266],[-72.445526,44.298861],[-72.444263,44.29895],[-72.447761,44.296534],[-72.449239,44.296067],[-72.448406,44.294667],[-72.451822,44.293366],[-72.45195,44.29164],[-72.450706,44.290298],[-72.449398,44.291124],[-72.449444,44.289158],[-72.450889,44.288002],[-72.452407,44.28836],[-72.452297,44.285882],[-72.452982,44.283421],[-72.451,44.282801],[-72.450487,44.280638],[-72.449105,44.281214],[-72.450184,44.282211],[-72.448185,44.282126],[-72.448374,44.280424],[-72.447086,44.279832],[-72.448428,44.278174],[-72.446331,44.27785],[-72.466602,44.250065],[-72.476037,44.239469],[-72.480371,44.23383],[-72.425994,44.223084],[-72.419747,44.220979],[-72.397368,44.213426],[-72.375468,44.206207],[-72.368353,44.204057],[-72.316302,44.272583],[-72.317621,44.298384],[-72.308938,44.305594],[-72.310397,44.306626],[-72.32447,44.318744],[-72.327239,44.321519],[-72.32993,44.32295],[-72.332792,44.323695],[-72.337547,44.323813],[-72.344866,44.326286],[-72.34899,44.326893],[-72.35094,44.328698],[-72.349836,44.331727],[-72.350441,44.335523],[-72.352367,44.337022],[-72.35549,44.33751],[-72.359194,44.332441],[-72.360472,44.328924],[-72.364055,44.326203],[-72.365184,44.324654],[-72.367512,44.323118],[-72.368388,44.320329],[-72.370119,44.317832],[-72.371976,44.313803],[-72.375359,44.309498],[-72.378761,44.307917],[-72.379753,44.306904],[-72.380523,44.304177],[-72.37954,44.302601],[-72.380983,44.29931],[-72.3827,44.299889],[-72.383479,44.29915],[-72.387039,44.298204],[-72.388771,44.301039],[-72.389865,44.300595],[-72.394374,44.301396],[-72.396905,44.30126],[-72.397171,44.303038],[-72.398634,44.301984],[-72.399314,44.306695],[-72.401395,44.305471],[-72.404529,44.305423],[-72.409011,44.304257],[-72.410366,44.302057],[-72.414454,44.300142],[-72.418178,44.302626],[-72.42079,44.303765],[-72.425258,44.304288],[-72.427734,44.303412],[-72.431901,44.300561],[-72.439995,44.304375],[-72.412395,44.340704],[-72.420254,44.342615],[-72.420718,44.342795],[-72.423064,44.341699],[-72.428787,44.33408],[-72.431366,44.331658],[-72.431825,44.329115],[-72.430864,44.32808],[-72.433082,44.325683],[-72.433377,44.322935],[-72.434517,44.322294],[-72.435508,44.31998],[-72.438464,44.31718],[-72.43823,44.31541],[-72.440788,44.314923],[-72.441992,44.315671],[-72.44413,44.315349],[-72.444995,44.313951],[-72.444519,44.314431],[-72.440694,44.312666],[-72.440531,44.311308],[-72.443452,44.31041],[-72.443287,44.30956],[-72.44437,44.306076],[-72.447124,44.307157],[-72.446542,44.314475],[-72.444884,44.321429],[-72.443978,44.323899],[-72.443905,44.328768],[-72.445995,44.331563],[-72.445766,44.333764],[-72.446871,44.334015],[-72.452371,44.338423],[-72.45332,44.339934],[-72.455563,44.341198],[-72.457761,44.341369],[-72.459429,44.342428],[-72.45993,44.344453],[-72.461222,44.345429],[-72.462121,44.344855],[-72.462806,44.341743],[-72.46419,44.340683],[-72.467277,44.341789],[-72.468127,44.337582],[-72.468912,44.335878],[-72.470273,44.3298],[-72.468173,44.327917],[-72.468169,44.324745],[-72.469201,44.320821],[-72.467623,44.318852],[-72.461682,44.315036],[-72.460989,44.312467]]]]}},{"type":"Feature","properties":{"zcta5":"05673","AFFGEOID10":"8600000US05673","GEOID10":"05673","ALAND10":142017703,"AWATER10":475850,"county_name":"Washington","state_code":"VT","county_state":"Washington County, VT","county_fips":"50023","risk_level_county":"Lowest Risk (85%+)","mean_vaccination_rate_county":85.01,"risk_level_zcta":"Higher Risk (60–69% vaccinated)","mean_vaccination_rate_zips":68.2,"cases":1},"geometry":{"type":"Polygon","coordinates":[[[-72.92207,44.222232],[-72.947077,44.172905],[-72.952167,44.161271],[-72.934285,44.163619],[-72.893189,44.165309],[-72.891703,44.160781],[-72.868463,44.154563],[-72.861766,44.152325],[-72.843424,44.146721],[-72.782261,44.129784],[-72.762292,44.148809],[-72.770305,44.1532],[-72.746128,44.176262],[-72.75229,44.179618],[-72.73455,44.197084],[-72.742738,44.201371],[-72.73341,44.210761],[-72.743112,44.215709],[-72.749564,44.219451],[-72.769447,44.229729],[-72.786759,44.23838],[-72.792012,44.236844],[-72.796846,44.231683],[-72.794807,44.230317],[-72.790604,44.229371],[-72.789178,44.227701],[-72.787606,44.227918],[-72.786613,44.229177],[-72.78386,44.228638],[-72.782449,44.226751],[-72.783014,44.226213],[-72.785516,44.226311],[-72.787867,44.223782],[-72.788868,44.220659],[-72.789936,44.223852],[-72.80012,44.228174],[-72.812873,44.213642],[-72.815658,44.215021],[-72.817859,44.21517],[-72.821928,44.216537],[-72.830751,44.215884],[-72.834118,44.216417],[-72.836303,44.215762],[-72.840853,44.217875],[-72.844836,44.219127],[-72.848648,44.220801],[-72.851314,44.223835],[-72.851639,44.225272],[-72.849602,44.228499],[-72.848793,44.231533],[-72.849178,44.2333],[-72.85129,44.234883],[-72.854383,44.235604],[-72.858959,44.235633],[-72.860707,44.237102],[-72.86266,44.236224],[-72.864291,44.233682],[-72.866072,44.231899],[-72.867487,44.231349],[-72.869682,44.232505],[-72.87175,44.232972],[-72.878542,44.232889],[-72.879393,44.233576],[-72.876938,44.233659],[-72.873684,44.234504],[-72.865236,44.233369],[-72.864711,44.234656],[-72.861935,44.236931],[-72.860458,44.237705],[-72.863632,44.240249],[-72.868311,44.241867],[-72.868534,44.242902],[-72.870329,44.244205],[-72.871413,44.244036],[-72.874054,44.24544],[-72.874362,44.248417],[-72.873771,44.251269],[-72.872696,44.252252],[-72.872371,44.255339],[-72.873376,44.256812],[-72.873186,44.258415],[-72.874068,44.26106],[-72.873712,44.263606],[-72.873048,44.263999],[-72.871312,44.267695],[-72.89598,44.276284],[-72.908226,44.250526],[-72.908638,44.249877],[-72.92207,44.222232]]]}},{"type":"Feature","properties":{"zcta5":"05658","AFFGEOID10":"8600000US05658","GEOID10":"05658","ALAND10":96917442,"AWATER10":2491305,"county_name":"Washington","state_code":"VT","county_state":"Washington County, VT","county_fips":"50023","risk_level_county":"Lowest Risk (85%+)","mean_vaccination_rate_county":85.01,"risk_level_zcta":"Very High Risk (<60% vaccinated)","mean_vaccination_rate_zips":55.77,"cases":1},"geometry":{"type":"Polygon","coordinates":[[[-72.412395,44.340704],[-72.439995,44.304375],[-72.431901,44.300561],[-72.427734,44.303412],[-72.425258,44.304288],[-72.42079,44.303765],[-72.418178,44.302626],[-72.414454,44.300142],[-72.410366,44.302057],[-72.409011,44.304257],[-72.404529,44.305423],[-72.401395,44.305471],[-72.399314,44.306695],[-72.398634,44.301984],[-72.397171,44.303038],[-72.396905,44.30126],[-72.394374,44.301396],[-72.389865,44.300595],[-72.388771,44.301039],[-72.387039,44.298204],[-72.383479,44.29915],[-72.3827,44.299889],[-72.380983,44.29931],[-72.37954,44.302601],[-72.380523,44.304177],[-72.379753,44.306904],[-72.378761,44.307917],[-72.375359,44.309498],[-72.371976,44.313803],[-72.370119,44.317832],[-72.368388,44.320329],[-72.367512,44.323118],[-72.365184,44.324654],[-72.364055,44.326203],[-72.360472,44.328924],[-72.359194,44.332441],[-72.35549,44.33751],[-72.352367,44.337022],[-72.350441,44.335523],[-72.349836,44.331727],[-72.35094,44.328698],[-72.34899,44.326893],[-72.344866,44.326286],[-72.337547,44.323813],[-72.332792,44.323695],[-72.32993,44.32295],[-72.327239,44.321519],[-72.32447,44.318744],[-72.310397,44.306626],[-72.308938,44.305594],[-72.295269,44.319127],[-72.289809,44.323539],[-72.283888,44.327713],[-72.282026,44.329272],[-72.271233,44.339317],[-72.269779,44.340276],[-72.267559,44.343754],[-72.255662,44.359582],[-72.257008,44.360868],[-72.262135,44.363837],[-72.261905,44.366529],[-72.262664,44.367812],[-72.265195,44.369388],[-72.268548,44.370762],[-72.272904,44.369788],[-72.275876,44.366704],[-72.275585,44.362916],[-72.277376,44.360743],[-72.282095,44.362474],[-72.284064,44.363832],[-72.287856,44.364752],[-72.289484,44.366051],[-72.281404,44.365412],[-72.276979,44.368813],[-72.282337,44.366701],[-72.285802,44.366298],[-72.290217,44.366962],[-72.29232,44.366771],[-72.303123,44.363963],[-72.304564,44.364022],[-72.309009,44.362708],[-72.31676,44.364159],[-72.326445,44.362169],[-72.337628,44.36642],[-72.334023,44.380785],[-72.334147,44.383572],[-72.333554,44.388603],[-72.331455,44.392112],[-72.32903,44.392572],[-72.327039,44.394115],[-72.327043,44.395303],[-72.324865,44.397174],[-72.324578,44.400976],[-72.322759,44.402176],[-72.326125,44.403759],[-72.324964,44.404845],[-72.326256,44.404476],[-72.328639,44.405073],[-72.3295,44.406247],[-72.331665,44.406297],[-72.336547,44.408372],[-72.337639,44.410786],[-72.337706,44.412845],[-72.340101,44.414257],[-72.340852,44.411303],[-72.342168,44.409489],[-72.343061,44.405337],[-72.344909,44.405199],[-72.346936,44.406633],[-72.348226,44.406596],[-72.349886,44.40888],[-72.352125,44.409657],[-72.35481,44.411344],[-72.356853,44.413602],[-72.352624,44.420601],[-72.362707,44.424785],[-72.370444,44.430412],[-72.376857,44.431963],[-72.381787,44.432535],[-72.382762,44.433248],[-72.387539,44.433521],[-72.392464,44.424649],[-72.40017,44.419501],[-72.408573,44.417508],[-72.410095,44.41875],[-72.410296,44.417581],[-72.415486,44.407652],[-72.412617,44.407245],[-72.408878,44.405783],[-72.402201,44.407432],[-72.401065,44.405921],[-72.399665,44.405834],[-72.396443,44.404326],[-72.392302,44.402906],[-72.396219,44.397344],[-72.397878,44.396663],[-72.403653,44.391788],[-72.404459,44.389373],[-72.408019,44.385247],[-72.408139,44.384178],[-72.410904,44.379777],[-72.405985,44.379332],[-72.403418,44.378417],[-72.404657,44.376557],[-72.404218,44.372912],[-72.402023,44.370688],[-72.396309,44.37698],[-72.394548,44.37815],[-72.385769,44.379952],[-72.381307,44.381974],[-72.412395,44.340704]]]}},{"type":"Feature","properties":{"zcta5":"05060","AFFGEOID10":"8600000US05060","GEOID10":"05060","ALAND10":179968691,"AWATER10":744455,"county_name":"Washington","state_code":"VT","county_state":"Washington County, VT","county_fips":"50023","risk_level_county":"Lowest Risk (85%+)","mean_vaccination_rate_county":85.01,"risk_level_zcta":"Higher Risk (60–69% vaccinated)","mean_vaccination_rate_zips":65.11,"cases":1},"geometry":{"type":"Polygon","coordinates":[[[-72.791336,43.961855],[-72.787283,43.960478],[-72.79206,43.953821],[-72.786454,43.952231],[-72.790809,43.945734],[-72.780262,43.942691],[-72.784649,43.936145],[-72.779113,43.934594],[-72.783208,43.928967],[-72.751028,43.920805],[-72.748535,43.919782],[-72.74391,43.91896],[-72.707792,43.910383],[-72.723047,43.888775],[-72.718322,43.886531],[-72.715512,43.887159],[-72.714365,43.886722],[-72.71334,43.883676],[-72.711341,43.883375],[-72.710624,43.881926],[-72.706104,43.879485],[-72.703771,43.878967],[-72.701197,43.877549],[-72.697936,43.878181],[-72.694559,43.877634],[-72.691622,43.875951],[-72.690142,43.873819],[-72.686231,43.87085],[-72.68494,43.87106],[-72.682104,43.870113],[-72.680059,43.870231],[-72.6756,43.872486],[-72.672754,43.876972],[-72.671297,43.877745],[-72.665543,43.878334],[-72.663587,43.877947],[-72.659318,43.875848],[-72.65496,43.875155],[-72.651701,43.874143],[-72.648226,43.874054],[-72.644518,43.872548],[-72.64416,43.873193],[-72.639909,43.873931],[-72.640854,43.876035],[-72.642935,43.878414],[-72.643968,43.883353],[-72.645004,43.886463],[-72.648441,43.890878],[-72.650023,43.894559],[-72.633631,43.890037],[-72.617742,43.885896],[-72.61615,43.887137],[-72.616297,43.892688],[-72.615402,43.896992],[-72.616045,43.898431],[-72.614008,43.908037],[-72.613441,43.913308],[-72.614032,43.91827],[-72.615348,43.922312],[-72.619974,43.931592],[-72.621664,43.936141],[-72.621935,43.940354],[-72.621988,43.944834],[-72.621448,43.950836],[-72.621868,43.955741],[-72.624998,43.967597],[-72.625776,43.973351],[-72.625699,43.97738],[-72.626802,43.977562],[-72.627879,43.984872],[-72.627918,43.988263],[-72.627378,43.991052],[-72.624815,43.997174],[-72.636014,44.000363],[-72.643685,44.001046],[-72.644446,44.003444],[-72.644221,44.010891],[-72.644747,44.013807],[-72.645785,44.016359],[-72.643747,44.018979],[-72.641858,44.023389],[-72.638638,44.02798],[-72.635058,44.031151],[-72.63231,44.034703],[-72.629535,44.037458],[-72.625766,44.044185],[-72.625558,44.047104],[-72.627058,44.05313],[-72.625845,44.055439],[-72.627456,44.057739],[-72.630177,44.058856],[-72.630842,44.06053],[-72.629964,44.062129],[-72.630317,44.066029],[-72.631287,44.067219],[-72.632978,44.067014],[-72.634228,44.070352],[-72.636681,44.072819],[-72.638727,44.075586],[-72.642513,44.07621],[-72.643301,44.075088],[-72.64627,44.075375],[-72.649139,44.076717],[-72.648447,44.072531],[-72.646916,44.070354],[-72.648295,44.067775],[-72.651822,44.063394],[-72.651027,44.062603],[-72.683772,44.012938],[-72.684681,44.013243],[-72.712907,44.021256],[-72.723737,44.024996],[-72.727745,44.025551],[-72.742303,44.029655],[-72.754731,44.011175],[-72.752241,43.997667],[-72.751605,43.992741],[-72.752369,43.989308],[-72.750842,43.989398],[-72.750338,43.986873],[-72.752495,43.987288],[-72.752743,43.985963],[-72.754871,43.985483],[-72.755928,43.984144],[-72.759136,43.982688],[-72.769593,43.984505],[-72.771432,43.985487],[-72.773629,43.985585],[-72.791336,43.961855]]]}},{"type":"Feature","properties":{"zcta5":"05678","AFFGEOID10":"8600000US05678","GEOID10":"05678","ALAND10":1831716,"AWATER10":118895,"county_name":"Washington","state_code":"VT","county_state":"Washington County, VT","county_fips":"50023","risk_level_county":"Lowest Risk (85%+)","mean_vaccination_rate_county":85.01,"risk_level_zcta":"Lowest Risk (85%+)","mean_vaccination_rate_zips":88.41,"cases":1},"geometry":{"type":"Polygon","coordinates":[[[-72.469779,44.15103],[-72.466272,44.151463],[-72.463924,44.156269],[-72.46836,44.159319],[-72.469915,44.157097],[-72.471459,44.158241],[-72.46987,44.160957],[-72.470634,44.163068],[-72.473617,44.164322],[-72.479594,44.163015],[-72.48387,44.160397],[-72.484656,44.15935],[-72.48394,44.156531],[-72.484629,44.155814],[-72.484827,44.153095],[-72.485922,44.152392],[-72.484412,44.150999],[-72.482747,44.150263],[-72.479708,44.14938],[-72.47715,44.149517],[-72.475809,44.150285],[-72.469779,44.15103]]]}},{"type":"Feature","properties":{"zcta5":"05663","AFFGEOID10":"8600000US05663","GEOID10":"05663","ALAND10":141985676,"AWATER10":450002,"county_name":"Washington","state_code":"VT","county_state":"Washington County, VT","county_fips":"50023","risk_level_county":"Lowest Risk (85%+)","mean_vaccination_rate_county":85.01,"risk_level_zcta":"Medium Risk (70–79% vaccinated)","mean_vaccination_rate_zips":79.05,"cases":1},"geometry":{"type":"Polygon","coordinates":[[[-72.782261,44.129784],[-72.770121,44.126433],[-72.677544,44.101106],[-72.67848,44.100522],[-72.678517,44.09793],[-72.677985,44.096368],[-72.679512,44.094639],[-72.681641,44.093249],[-72.682542,44.090113],[-72.685243,44.08769],[-72.685344,44.086702],[-72.684097,44.085375],[-72.684532,44.084157],[-72.683915,44.08135],[-72.682929,44.080318],[-72.679157,44.078811],[-72.67757,44.079049],[-72.673746,44.077386],[-72.674654,44.078792],[-72.672675,44.078839],[-72.671547,44.079812],[-72.669633,44.080069],[-72.669554,44.081574],[-72.674953,44.083733],[-72.674649,44.088595],[-72.672454,44.091321],[-72.670529,44.091644],[-72.671061,44.09446],[-72.670422,44.097254],[-72.669153,44.098755],[-72.648134,44.093068],[-72.650041,44.091361],[-72.650813,44.088964],[-72.649775,44.086723],[-72.65055,44.086413],[-72.650577,44.084272],[-72.651555,44.080935],[-72.650934,44.080427],[-72.651406,44.077907],[-72.650215,44.077869],[-72.649139,44.076717],[-72.64627,44.075375],[-72.643301,44.075088],[-72.642513,44.07621],[-72.634789,44.08945],[-72.62891,44.088639],[-72.629184,44.087863],[-72.614961,44.083997],[-72.614662,44.086679],[-72.612537,44.093461],[-72.612191,44.098379],[-72.613183,44.103406],[-72.612981,44.106605],[-72.611299,44.110299],[-72.607072,44.117214],[-72.602512,44.126279],[-72.601693,44.128693],[-72.601395,44.134863],[-72.596709,44.142892],[-72.589855,44.159343],[-72.589333,44.160282],[-72.644405,44.174778],[-72.642473,44.176616],[-72.639539,44.177757],[-72.63878,44.178519],[-72.639252,44.184623],[-72.638496,44.184217],[-72.635075,44.182734],[-72.634018,44.183309],[-72.632716,44.186241],[-72.633213,44.187274],[-72.632394,44.189988],[-72.630859,44.191015],[-72.626236,44.191949],[-72.621884,44.191644],[-72.621763,44.193543],[-72.61993,44.192558],[-72.61866,44.193039],[-72.614437,44.197996],[-72.612554,44.19832],[-72.608544,44.197353],[-72.604254,44.197802],[-72.600914,44.197138],[-72.592615,44.198295],[-72.591435,44.203355],[-72.585153,44.205967],[-72.583182,44.207539],[-72.582106,44.209271],[-72.582851,44.211591],[-72.589644,44.213234],[-72.590481,44.212106],[-72.594125,44.212624],[-72.597611,44.21422],[-72.601096,44.217002],[-72.602623,44.217056],[-72.604662,44.215787],[-72.605067,44.213841],[-72.60768,44.212025],[-72.61302,44.21133],[-72.615653,44.210248],[-72.618544,44.207048],[-72.620612,44.206765],[-72.625448,44.207994],[-72.626567,44.207763],[-72.628327,44.205129],[-72.628681,44.203455],[-72.630299,44.202536],[-72.630357,44.200423],[-72.631436,44.200078],[-72.6311,44.200975],[-72.633845,44.20342],[-72.635065,44.201635],[-72.634653,44.206056],[-72.637537,44.207959],[-72.640795,44.208757],[-72.645371,44.208284],[-72.650535,44.208769],[-72.657644,44.21162],[-72.661482,44.215042],[-72.667605,44.216754],[-72.67964,44.19312],[-72.681713,44.194565],[-72.685164,44.196143],[-72.685729,44.197712],[-72.688348,44.200029],[-72.688405,44.200705],[-72.691361,44.202597],[-72.692142,44.203662],[-72.696938,44.206676],[-72.697986,44.208592],[-72.700011,44.209857],[-72.700383,44.211138],[-72.70222,44.211468],[-72.703451,44.21319],[-72.706977,44.213689],[-72.707006,44.215157],[-72.708862,44.219155],[-72.710621,44.215612],[-72.712687,44.216164],[-72.714338,44.212892],[-72.714367,44.211969],[-72.716069,44.209265],[-72.716194,44.206149],[-72.717017,44.202359],[-72.73341,44.210761],[-72.742738,44.201371],[-72.73455,44.197084],[-72.75229,44.179618],[-72.746128,44.176262],[-72.770305,44.1532],[-72.762292,44.148809],[-72.782261,44.129784]],[[-72.654329,44.166902],[-72.652746,44.16867],[-72.652278,44.168472],[-72.651629,44.167767],[-72.65308,44.165762],[-72.654038,44.166016],[-72.654931,44.166259],[-72.654329,44.166902]]]}},{"type":"Feature","properties":{"zcta5":"05676","AFFGEOID10":"8600000US05676","GEOID10":"05676","ALAND10":262960695,"AWATER10":3584446,"county_name":"Washington","state_code":"VT","county_state":"Washington County, VT","county_fips":"50023","risk_level_county":"Lowest Risk (85%+)","mean_vaccination_rate_county":85.01,"risk_level_zcta":"Medium Risk (70–79% vaccinated)","mean_vaccination_rate_zips":73.78,"cases":1},"geometry":{"type":"Polygon","coordinates":[[[-72.931586,44.388311],[-72.933392,44.382429],[-72.93498,44.380058],[-72.946857,44.359326],[-72.953599,44.345781],[-72.939303,44.342792],[-72.934318,44.34221],[-72.927594,44.339763],[-72.917535,44.337583],[-72.879139,44.330026],[-72.911398,44.281769],[-72.89598,44.276284],[-72.871312,44.267695],[-72.802647,44.243696],[-72.789385,44.239749],[-72.785622,44.246603],[-72.786113,44.248674],[-72.788878,44.248828],[-72.793914,44.248233],[-72.799191,44.252054],[-72.803591,44.253353],[-72.808091,44.255846],[-72.809607,44.257501],[-72.813241,44.259205],[-72.815422,44.260688],[-72.818839,44.26191],[-72.821631,44.261558],[-72.826221,44.260395],[-72.832744,44.262826],[-72.828543,44.272057],[-72.828151,44.273342],[-72.824416,44.272632],[-72.822564,44.270405],[-72.81881,44.269119],[-72.816415,44.269155],[-72.807257,44.265503],[-72.805072,44.263711],[-72.801848,44.262722],[-72.799178,44.25998],[-72.797905,44.256943],[-72.790577,44.253459],[-72.787922,44.252452],[-72.786266,44.249006],[-72.784546,44.248424],[-72.770509,44.278465],[-72.765894,44.276275],[-72.764192,44.276528],[-72.762218,44.275835],[-72.759128,44.277264],[-72.755787,44.276742],[-72.753495,44.275484],[-72.749022,44.274187],[-72.745598,44.27225],[-72.743157,44.277742],[-72.741224,44.27921],[-72.736192,44.281403],[-72.734965,44.282725],[-72.734078,44.285196],[-72.732539,44.286862],[-72.728048,44.289437],[-72.725771,44.290442],[-72.723053,44.290842],[-72.720071,44.290472],[-72.715288,44.28907],[-72.7097,44.286357],[-72.707968,44.285858],[-72.705093,44.285866],[-72.703586,44.286489],[-72.702413,44.287514],[-72.701739,44.289679],[-72.702493,44.292566],[-72.703676,44.294035],[-72.703357,44.295334],[-72.70194,44.296637],[-72.700922,44.297391],[-72.697517,44.297997],[-72.696147,44.298896],[-72.695825,44.300396],[-72.695948,44.303166],[-72.696819,44.304876],[-72.695823,44.307006],[-72.695592,44.310496],[-72.699896,44.312507],[-72.700468,44.313435],[-72.706139,44.313768],[-72.70944,44.314541],[-72.712885,44.313669],[-72.714105,44.31275],[-72.716576,44.312525],[-72.715317,44.314585],[-72.704572,44.329615],[-72.694797,44.326148],[-72.678161,44.34968],[-72.671539,44.347453],[-72.660136,44.363624],[-72.668307,44.366316],[-72.671504,44.365985],[-72.675124,44.366172],[-72.676228,44.365577],[-72.679651,44.365796],[-72.68318,44.364733],[-72.686535,44.365545],[-72.689259,44.360462],[-72.692724,44.357003],[-72.701462,44.357244],[-72.702276,44.357251],[-72.720782,44.361291],[-72.722472,44.361465],[-72.722944,44.361626],[-72.723958,44.360674],[-72.723447,44.360078],[-72.724453,44.35913],[-72.724741,44.358164],[-72.724011,44.357744],[-72.723903,44.357161],[-72.724371,44.356045],[-72.724934,44.355489],[-72.725811,44.355723],[-72.727953,44.355063],[-72.729681,44.355418],[-72.731205,44.354574],[-72.733732,44.355407],[-72.735422,44.353118],[-72.736574,44.353535],[-72.736002,44.353868],[-72.735147,44.355695],[-72.735727,44.355791],[-72.733537,44.358533],[-72.732967,44.361841],[-72.727871,44.369754],[-72.726369,44.372851],[-72.726412,44.374581],[-72.724363,44.37796],[-72.726245,44.377018],[-72.728985,44.379184],[-72.732108,44.380652],[-72.734979,44.382945],[-72.740687,44.384375],[-72.744448,44.38591],[-72.747849,44.388924],[-72.751754,44.389202],[-72.755985,44.388339],[-72.757042,44.391908],[-72.756463,44.398073],[-72.753387,44.401692],[-72.751912,44.404831],[-72.753021,44.407126],[-72.755009,44.40864],[-72.755749,44.41028],[-72.755407,44.415846],[-72.754339,44.417769],[-72.74869,44.422518],[-72.750687,44.423429],[-72.748731,44.424011],[-72.749308,44.42522],[-72.745317,44.42714],[-72.744287,44.429775],[-72.744398,44.428049],[-72.74107,44.430572],[-72.739512,44.43293],[-72.749796,44.436466],[-72.765856,44.442595],[-72.804995,44.451676],[-72.834128,44.41044],[-72.835786,44.410632],[-72.838149,44.409331],[-72.841376,44.409311],[-72.84705,44.408437],[-72.858421,44.405739],[-72.862279,44.406639],[-72.865542,44.406254],[-72.866638,44.406864],[-72.871741,44.406915],[-72.873599,44.406452],[-72.87404,44.404038],[-72.878659,44.399965],[-72.878755,44.397859],[-72.876438,44.393117],[-72.874567,44.388482],[-72.873639,44.384393],[-72.876186,44.380217],[-72.876211,44.379172],[-72.874495,44.377273],[-72.877006,44.375519],[-72.88087,44.375424],[-72.912682,44.382817],[-72.915008,44.383121],[-72.921512,44.384531],[-72.923406,44.384522],[-72.924984,44.384893],[-72.931586,44.388311]],[[-72.791452,44.264037],[-72.790055,44.266638],[-72.790237,44.269535],[-72.787777,44.272641],[-72.784998,44.273858],[-72.785336,44.272444],[-72.784633,44.267925],[-72.785681,44.264714],[-72.787718,44.261517],[-72.788124,44.258674],[-72.791452,44.264037]]]}},{"type":"Feature","properties":{"zcta5":"05681","AFFGEOID10":"8600000US05681","GEOID10":"05681","ALAND10":66107261,"AWATER10":3025282,"county_name":"Washington","state_code":"VT","county_state":"Washington County, VT","county_fips":"50023","risk_level_county":"Lowest Risk (85%+)","mean_vaccination_rate_county":85.01,"risk_level_zcta":"Medium Risk (70–79% vaccinated)","mean_vaccination_rate_zips":72.8,"cases":1},"geometry":{"type":"MultiPolygon","coordinates":[[[[-72.415486,44.407652],[-72.417655,44.408112],[-72.417753,44.409598],[-72.41973,44.412614],[-72.419167,44.413582],[-72.421209,44.415028],[-72.422025,44.414578],[-72.424026,44.410501],[-72.426875,44.407723],[-72.424798,44.405464],[-72.423817,44.403227],[-72.425003,44.40005],[-72.41814,44.397372],[-72.416098,44.399122],[-72.414765,44.402428],[-72.413082,44.401435],[-72.414515,44.395981],[-72.403653,44.391788],[-72.397878,44.396663],[-72.396219,44.397344],[-72.392302,44.402906],[-72.396443,44.404326],[-72.399665,44.405834],[-72.401065,44.405921],[-72.402201,44.407432],[-72.408878,44.405783],[-72.412617,44.407245],[-72.415486,44.407652]]],[[[-72.490548,44.425693],[-72.486808,44.424044],[-72.47475,44.419444],[-72.472257,44.422636],[-72.469338,44.425674],[-72.468227,44.427534],[-72.467268,44.431022],[-72.464203,44.432852],[-72.460764,44.437169],[-72.459123,44.438589],[-72.458586,44.440109],[-72.45671,44.441805],[-72.453762,44.443179],[-72.451767,44.446403],[-72.450072,44.447759],[-72.446708,44.448913],[-72.443461,44.447666],[-72.443432,44.444411],[-72.440067,44.445116],[-72.439076,44.443671],[-72.4381,44.444261],[-72.436865,44.441718],[-72.434468,44.440151],[-72.43316,44.438038],[-72.432203,44.436279],[-72.433037,44.433484],[-72.430847,44.429479],[-72.430071,44.431486],[-72.42496,44.436683],[-72.422923,44.439605],[-72.419189,44.439095],[-72.4152,44.441058],[-72.412581,44.436431],[-72.412767,44.432988],[-72.411581,44.431791],[-72.411661,44.429504],[-72.412555,44.4282],[-72.411689,44.426487],[-72.412241,44.425349],[-72.410516,44.420576],[-72.411078,44.41886],[-72.410095,44.41875],[-72.408573,44.417508],[-72.40017,44.419501],[-72.392464,44.424649],[-72.387539,44.433521],[-72.382762,44.433248],[-72.381787,44.432535],[-72.376857,44.431963],[-72.370444,44.430412],[-72.362707,44.424785],[-72.352624,44.420601],[-72.325488,44.457587],[-72.321277,44.462572],[-72.381117,44.485666],[-72.403386,44.494103],[-72.407927,44.492988],[-72.417792,44.495525],[-72.423988,44.494711],[-72.426983,44.496335],[-72.431052,44.496678],[-72.434155,44.496295],[-72.435669,44.495489],[-72.437797,44.491153],[-72.441005,44.492345],[-72.442695,44.494174],[-72.462144,44.468165],[-72.47031,44.454447],[-72.490548,44.425693]]]]}},{"type":"Feature","properties":{"zcta5":"05680","AFFGEOID10":"8600000US05680","GEOID10":"05680","ALAND10":171990329,"AWATER10":1488897,"county_name":"Washington","state_code":"VT","county_state":"Washington County, VT","county_fips":"50023","risk_level_county":"Lowest Risk (85%+)","mean_vaccination_rate_county":85.01,"risk_level_zcta":"Higher Risk (60–69% vaccinated)","mean_vaccination_rate_zips":64.44,"cases":1},"geometry":{"type":"Polygon","coordinates":[[[-72.518462,44.525801],[-72.513901,44.518516],[-72.513521,44.517269],[-72.512726,44.510823],[-72.516909,44.502564],[-72.517541,44.49887],[-72.518258,44.496974],[-72.523455,44.488774],[-72.526003,44.485241],[-72.530295,44.476104],[-72.531291,44.472378],[-72.533321,44.469567],[-72.534728,44.468537],[-72.541841,44.465661],[-72.54452,44.463286],[-72.545381,44.460009],[-72.547169,44.456848],[-72.547188,44.455208],[-72.546407,44.451934],[-72.544364,44.451123],[-72.516219,44.436043],[-72.503784,44.429045],[-72.490548,44.425693],[-72.47031,44.454447],[-72.462144,44.468165],[-72.442695,44.494174],[-72.438843,44.499979],[-72.434315,44.506098],[-72.395687,44.555609],[-72.38785,44.567083],[-72.374786,44.584125],[-72.368151,44.592287],[-72.443966,44.619954],[-72.482067,44.633803],[-72.480906,44.636723],[-72.476651,44.641841],[-72.494637,44.648581],[-72.500028,44.649925],[-72.522388,44.658001],[-72.523185,44.65377],[-72.523825,44.647396],[-72.523599,44.646136],[-72.521705,44.643871],[-72.520895,44.64375],[-72.519212,44.645248],[-72.518674,44.647357],[-72.51712,44.648813],[-72.516634,44.64815],[-72.514947,44.651151],[-72.513179,44.650811],[-72.512739,44.649996],[-72.514853,44.647775],[-72.516814,44.64768],[-72.518414,44.646101],[-72.517054,44.645871],[-72.514886,44.643103],[-72.514686,44.641396],[-72.512757,44.639443],[-72.513312,44.637734],[-72.512176,44.634727],[-72.512118,44.631573],[-72.51024,44.630428],[-72.508512,44.62857],[-72.505187,44.626331],[-72.503225,44.626658],[-72.502017,44.625234],[-72.502177,44.62189],[-72.501018,44.619875],[-72.50208,44.618343],[-72.503511,44.617845],[-72.504999,44.615937],[-72.507276,44.61435],[-72.508517,44.609717],[-72.506478,44.610145],[-72.502579,44.608433],[-72.500357,44.608217],[-72.502339,44.60573],[-72.524735,44.573301],[-72.527754,44.569814],[-72.531599,44.563961],[-72.539797,44.553439],[-72.540252,44.552661],[-72.538187,44.55156],[-72.528904,44.54561],[-72.525556,44.542491],[-72.523225,44.540649],[-72.521742,44.538613],[-72.521812,44.537377],[-72.519719,44.531978],[-72.519642,44.530637],[-72.518462,44.525801]]]}},{"type":"Feature","properties":{"zcta5":"05654","AFFGEOID10":"8600000US05654","GEOID10":"05654","ALAND10":7487880,"AWATER10":109072,"county_name":"Washington","state_code":"VT","county_state":"Washington County, VT","county_fips":"50023","risk_level_county":"Lowest Risk (85%+)","mean_vaccination_rate_county":85.01,"risk_level_zcta":"Medium Risk (70–79% vaccinated)","mean_vaccination_rate_zips":71.41,"cases":1},"geometry":{"type":"Polygon","coordinates":[[[-72.485922,44.152392],[-72.491271,44.15651],[-72.494372,44.154224],[-72.497707,44.155819],[-72.504111,44.157772],[-72.506303,44.156828],[-72.506017,44.154951],[-72.504058,44.154812],[-72.504625,44.153254],[-72.505702,44.152989],[-72.505723,44.150279],[-72.507036,44.147945],[-72.492397,44.14374],[-72.491907,44.14352],[-72.491014,44.140956],[-72.492243,44.136813],[-72.490681,44.133756],[-72.485961,44.134019],[-72.483698,44.135202],[-72.478777,44.135732],[-72.475179,44.137572],[-72.472735,44.137982],[-72.468836,44.136888],[-72.463334,44.129422],[-72.463176,44.128233],[-72.463802,44.124162],[-72.462555,44.121429],[-72.459195,44.119912],[-72.455787,44.119293],[-72.440632,44.123299],[-72.441828,44.124275],[-72.44404,44.127474],[-72.444433,44.129202],[-72.460074,44.134411],[-72.459338,44.137231],[-72.459516,44.141705],[-72.460178,44.143903],[-72.458699,44.145464],[-72.461155,44.146863],[-72.462697,44.147466],[-72.467125,44.147521],[-72.470576,44.147975],[-72.469779,44.15103],[-72.475809,44.150285],[-72.47715,44.149517],[-72.479708,44.14938],[-72.482747,44.150263],[-72.484412,44.150999],[-72.485922,44.152392]]]}},{"type":"Feature","properties":{"zcta5":"05647","AFFGEOID10":"8600000US05647","GEOID10":"05647","ALAND10":76233476,"AWATER10":1685991,"county_name":"Washington","state_code":"VT","county_state":"Washington County, VT","county_fips":"50023","risk_level_county":"Lowest Risk (85%+)","mean_vaccination_rate_county":85.01,"risk_level_zcta":"Medium Risk (70–79% vaccinated)","mean_vaccination_rate_zips":70.98,"cases":1},"geometry":{"type":"Polygon","coordinates":[[[-72.352624,44.420601],[-72.356853,44.413602],[-72.35481,44.411344],[-72.352125,44.409657],[-72.349886,44.40888],[-72.348226,44.406596],[-72.346936,44.406633],[-72.344909,44.405199],[-72.343061,44.405337],[-72.342168,44.409489],[-72.340852,44.411303],[-72.340101,44.414257],[-72.337706,44.412845],[-72.337639,44.410786],[-72.336547,44.408372],[-72.331665,44.406297],[-72.3295,44.406247],[-72.328639,44.405073],[-72.326256,44.404476],[-72.324964,44.404845],[-72.326125,44.403759],[-72.322759,44.402176],[-72.324578,44.400976],[-72.324865,44.397174],[-72.327043,44.395303],[-72.327039,44.394115],[-72.32903,44.392572],[-72.331455,44.392112],[-72.333554,44.388603],[-72.334147,44.383572],[-72.334023,44.380785],[-72.337628,44.36642],[-72.326445,44.362169],[-72.31676,44.364159],[-72.309009,44.362708],[-72.304564,44.364022],[-72.303123,44.363963],[-72.29232,44.366771],[-72.290217,44.366962],[-72.285802,44.366298],[-72.282337,44.366701],[-72.276979,44.368813],[-72.281404,44.365412],[-72.289484,44.366051],[-72.287856,44.364752],[-72.284064,44.363832],[-72.282095,44.362474],[-72.277376,44.360743],[-72.275585,44.362916],[-72.275876,44.366704],[-72.272904,44.369788],[-72.268548,44.370762],[-72.265195,44.369388],[-72.262664,44.367812],[-72.261905,44.366529],[-72.262135,44.363837],[-72.257008,44.360868],[-72.255662,44.359582],[-72.249662,44.367162],[-72.248324,44.369511],[-72.244192,44.37525],[-72.24014,44.38042],[-72.224365,44.395751],[-72.226262,44.398726],[-72.223603,44.402875],[-72.222453,44.403753],[-72.217204,44.411152],[-72.219047,44.41288],[-72.222157,44.414167],[-72.222788,44.416037],[-72.22033,44.416472],[-72.221554,44.418104],[-72.21953,44.418312],[-72.220442,44.421197],[-72.222005,44.422617],[-72.225401,44.421673],[-72.225534,44.420578],[-72.227507,44.41932],[-72.22863,44.419447],[-72.228908,44.421681],[-72.227921,44.422189],[-72.223435,44.423437],[-72.223689,44.424573],[-72.230972,44.427489],[-72.236973,44.429199],[-72.23719,44.430035],[-72.24147,44.43131],[-72.249899,44.435013],[-72.268733,44.442354],[-72.321277,44.462572],[-72.325488,44.457587],[-72.352624,44.420601]]]}},{"type":"Feature","properties":{"zcta5":"05641","AFFGEOID10":"8600000US05641","GEOID10":"05641","ALAND10":140074118,"AWATER10":986923,"county_name":"Washington","state_code":"VT","county_state":"Washington County, VT","county_fips":"50023","risk_level_county":"Lowest Risk (85%+)","mean_vaccination_rate_county":85.01,"risk_level_zcta":"Medium Risk (70–79% vaccinated)","mean_vaccination_rate_zips":75.72,"cases":1},"geometry":{"type":"Polygon","coordinates":[[[-72.518571,44.241475],[-72.522394,44.2407],[-72.524252,44.237825],[-72.530575,44.239272],[-72.533259,44.241286],[-72.53867,44.241924],[-72.540087,44.242442],[-72.542965,44.242288],[-72.540893,44.240606],[-72.54596,44.239001],[-72.548986,44.240025],[-72.549639,44.239989],[-72.552851,44.2368],[-72.55337,44.234903],[-72.551577,44.232575],[-72.553657,44.231996],[-72.55495,44.231142],[-72.55788,44.225973],[-72.556236,44.223386],[-72.555877,44.221465],[-72.557984,44.220989],[-72.559785,44.218282],[-72.558792,44.217417],[-72.562223,44.214559],[-72.563975,44.213666],[-72.566516,44.207678],[-72.579931,44.210859],[-72.580742,44.209747],[-72.581377,44.208963],[-72.577699,44.201066],[-72.576808,44.196816],[-72.575429,44.175894],[-72.576145,44.170532],[-72.577221,44.167838],[-72.579167,44.165711],[-72.583809,44.159587],[-72.575056,44.156537],[-72.564001,44.153629],[-72.559688,44.162858],[-72.549625,44.15994],[-72.55129,44.158401],[-72.547129,44.157433],[-72.544646,44.155138],[-72.541013,44.153544],[-72.539719,44.153714],[-72.538852,44.15692],[-72.531782,44.154951],[-72.521846,44.152134],[-72.521229,44.151874],[-72.507036,44.147945],[-72.505723,44.150279],[-72.505702,44.152989],[-72.504625,44.153254],[-72.504058,44.154812],[-72.506017,44.154951],[-72.506303,44.156828],[-72.504111,44.157772],[-72.497707,44.155819],[-72.494372,44.154224],[-72.491271,44.15651],[-72.485922,44.152392],[-72.484827,44.153095],[-72.484629,44.155814],[-72.48394,44.156531],[-72.484656,44.15935],[-72.48387,44.160397],[-72.479594,44.163015],[-72.473617,44.164322],[-72.470634,44.163068],[-72.46987,44.160957],[-72.471459,44.158241],[-72.469915,44.157097],[-72.46836,44.159319],[-72.463924,44.156269],[-72.466272,44.151463],[-72.469779,44.15103],[-72.470576,44.147975],[-72.467125,44.147521],[-72.462697,44.147466],[-72.461155,44.146863],[-72.458699,44.145464],[-72.460178,44.143903],[-72.459516,44.141705],[-72.459338,44.137231],[-72.460074,44.134411],[-72.444433,44.129202],[-72.443032,44.128669],[-72.438009,44.148925],[-72.445625,44.154507],[-72.450245,44.157873],[-72.45074,44.158211],[-72.454815,44.159987],[-72.453066,44.160701],[-72.451259,44.159457],[-72.448407,44.161005],[-72.446252,44.159329],[-72.441673,44.157434],[-72.438988,44.154711],[-72.436829,44.153629],[-72.430376,44.15262],[-72.431853,44.149567],[-72.430146,44.150128],[-72.426761,44.14839],[-72.425678,44.147236],[-72.426874,44.144783],[-72.426708,44.142434],[-72.429305,44.140881],[-72.428259,44.135946],[-72.426749,44.133868],[-72.424661,44.133155],[-72.424325,44.131338],[-72.426141,44.130306],[-72.428996,44.129861],[-72.43079,44.130162],[-72.429917,44.126816],[-72.434936,44.1275],[-72.436294,44.12638],[-72.429881,44.124336],[-72.425558,44.12262],[-72.426746,44.123727],[-72.426718,44.125166],[-72.425555,44.126741],[-72.40762,44.129919],[-72.407614,44.130558],[-72.410715,44.13345],[-72.410421,44.13366],[-72.408374,44.134644],[-72.406134,44.139606],[-72.402876,44.14862],[-72.401002,44.148364],[-72.399607,44.154218],[-72.398499,44.155626],[-72.396044,44.15688],[-72.392715,44.158014],[-72.389245,44.15789],[-72.384848,44.156804],[-72.383786,44.156931],[-72.380837,44.159667],[-72.381969,44.159751],[-72.387267,44.161897],[-72.341923,44.195338],[-72.368353,44.204057],[-72.375468,44.206207],[-72.397368,44.213426],[-72.419747,44.220979],[-72.425994,44.223084],[-72.480371,44.23383],[-72.518571,44.241475]],[[-72.556921,44.194753],[-72.555919,44.194684],[-72.553049,44.196054],[-72.549263,44.197274],[-72.547831,44.200862],[-72.546828,44.20238],[-72.546685,44.205123],[-72.545914,44.20593],[-72.543715,44.206387],[-72.543395,44.209481],[-72.537294,44.204967],[-72.537486,44.204613],[-72.539006,44.201339],[-72.545576,44.19049],[-72.554656,44.19247],[-72.555609,44.193008],[-72.556921,44.194753]]]}},{"type":"Feature","properties":{"zcta5":"05660","AFFGEOID10":"8600000US05660","GEOID10":"05660","ALAND10":102910335,"AWATER10":478466,"county_name":"Washington","state_code":"VT","county_state":"Washington County, VT","county_fips":"50023","risk_level_county":"Lowest Risk (85%+)","mean_vaccination_rate_county":85.01,"risk_level_zcta":"Higher Risk (60–69% vaccinated)","mean_vaccination_rate_zips":68.64,"cases":1},"geometry":{"type":"MultiPolygon","coordinates":[[[[-72.791452,44.264037],[-72.788124,44.258674],[-72.787718,44.261517],[-72.785681,44.264714],[-72.784633,44.267925],[-72.785336,44.272444],[-72.784998,44.273858],[-72.787777,44.272641],[-72.790237,44.269535],[-72.790055,44.266638],[-72.791452,44.264037]]],[[[-72.871312,44.267695],[-72.873048,44.263999],[-72.873712,44.263606],[-72.874068,44.26106],[-72.873186,44.258415],[-72.873376,44.256812],[-72.872371,44.255339],[-72.872696,44.252252],[-72.873771,44.251269],[-72.874362,44.248417],[-72.874054,44.24544],[-72.871413,44.244036],[-72.870329,44.244205],[-72.868534,44.242902],[-72.868311,44.241867],[-72.863632,44.240249],[-72.860458,44.237705],[-72.861935,44.236931],[-72.864711,44.234656],[-72.865236,44.233369],[-72.873684,44.234504],[-72.876938,44.233659],[-72.879393,44.233576],[-72.878542,44.232889],[-72.87175,44.232972],[-72.869682,44.232505],[-72.867487,44.231349],[-72.866072,44.231899],[-72.864291,44.233682],[-72.86266,44.236224],[-72.860707,44.237102],[-72.858959,44.235633],[-72.854383,44.235604],[-72.85129,44.234883],[-72.849178,44.2333],[-72.848793,44.231533],[-72.849602,44.228499],[-72.851639,44.225272],[-72.851314,44.223835],[-72.848648,44.220801],[-72.844836,44.219127],[-72.840853,44.217875],[-72.836303,44.215762],[-72.834118,44.216417],[-72.830751,44.215884],[-72.821928,44.216537],[-72.817859,44.21517],[-72.815658,44.215021],[-72.812873,44.213642],[-72.80012,44.228174],[-72.789936,44.223852],[-72.788868,44.220659],[-72.787867,44.223782],[-72.785516,44.226311],[-72.783014,44.226213],[-72.782449,44.226751],[-72.78386,44.228638],[-72.786613,44.229177],[-72.787606,44.227918],[-72.789178,44.227701],[-72.790604,44.229371],[-72.794807,44.230317],[-72.796846,44.231683],[-72.792012,44.236844],[-72.786759,44.23838],[-72.769447,44.229729],[-72.749564,44.219451],[-72.743112,44.215709],[-72.73341,44.210761],[-72.717017,44.202359],[-72.716194,44.206149],[-72.716069,44.209265],[-72.714367,44.211969],[-72.714338,44.212892],[-72.712687,44.216164],[-72.710621,44.215612],[-72.708862,44.219155],[-72.707006,44.215157],[-72.706977,44.213689],[-72.703451,44.21319],[-72.70222,44.211468],[-72.700383,44.211138],[-72.700011,44.209857],[-72.697986,44.208592],[-72.696938,44.206676],[-72.692142,44.203662],[-72.691361,44.202597],[-72.688405,44.200705],[-72.688348,44.200029],[-72.685729,44.197712],[-72.685164,44.196143],[-72.681713,44.194565],[-72.67964,44.19312],[-72.667605,44.216754],[-72.656957,44.237489],[-72.658898,44.241341],[-72.657159,44.246983],[-72.653315,44.250575],[-72.647572,44.25539],[-72.645861,44.257434],[-72.640211,44.269293],[-72.641972,44.269826],[-72.643623,44.268205],[-72.650923,44.272311],[-72.660009,44.273867],[-72.668336,44.280119],[-72.672616,44.287855],[-72.67432,44.286822],[-72.680506,44.290198],[-72.680481,44.290895],[-72.68632,44.292165],[-72.690688,44.293614],[-72.696227,44.296367],[-72.698313,44.296898],[-72.701301,44.295968],[-72.70194,44.296637],[-72.703357,44.295334],[-72.703676,44.294035],[-72.702493,44.292566],[-72.701739,44.289679],[-72.702413,44.287514],[-72.703586,44.286489],[-72.705093,44.285866],[-72.707968,44.285858],[-72.7097,44.286357],[-72.715288,44.28907],[-72.720071,44.290472],[-72.723053,44.290842],[-72.725771,44.290442],[-72.728048,44.289437],[-72.732539,44.286862],[-72.734078,44.285196],[-72.734965,44.282725],[-72.736192,44.281403],[-72.741224,44.27921],[-72.743157,44.277742],[-72.745598,44.27225],[-72.749022,44.274187],[-72.753495,44.275484],[-72.755787,44.276742],[-72.759128,44.277264],[-72.762218,44.275835],[-72.764192,44.276528],[-72.765894,44.276275],[-72.770509,44.278465],[-72.784546,44.248424],[-72.786266,44.249006],[-72.787922,44.252452],[-72.790577,44.253459],[-72.797905,44.256943],[-72.799178,44.25998],[-72.801848,44.262722],[-72.805072,44.263711],[-72.807257,44.265503],[-72.816415,44.269155],[-72.81881,44.269119],[-72.822564,44.270405],[-72.824416,44.272632],[-72.828151,44.273342],[-72.828543,44.272057],[-72.832744,44.262826],[-72.826221,44.260395],[-72.821631,44.261558],[-72.818839,44.26191],[-72.815422,44.260688],[-72.813241,44.259205],[-72.809607,44.257501],[-72.808091,44.255846],[-72.803591,44.253353],[-72.799191,44.252054],[-72.793914,44.248233],[-72.788878,44.248828],[-72.786113,44.248674],[-72.785622,44.246603],[-72.789385,44.239749],[-72.802647,44.243696],[-72.871312,44.267695]]]]}},{"type":"Feature","properties":{"zcta5":"05843","AFFGEOID10":"8600000US05843","GEOID10":"05843","ALAND10":93636014,"AWATER10":827162,"county_name":"Washington","state_code":"VT","county_state":"Washington County, VT","county_fips":"50023","risk_level_county":"Lowest Risk (85%+)","mean_vaccination_rate_county":85.01,"risk_level_zcta":"Medium Risk (70–79% vaccinated)","mean_vaccination_rate_zips":72.03,"cases":1},"geometry":{"type":"Polygon","coordinates":[[[-72.442695,44.494174],[-72.441005,44.492345],[-72.437797,44.491153],[-72.435669,44.495489],[-72.434155,44.496295],[-72.431052,44.496678],[-72.426983,44.496335],[-72.423988,44.494711],[-72.417792,44.495525],[-72.407927,44.492988],[-72.403386,44.494103],[-72.381117,44.485666],[-72.321277,44.462572],[-72.268733,44.442354],[-72.265991,44.443865],[-72.263858,44.44641],[-72.259665,44.448966],[-72.258061,44.453451],[-72.256167,44.452725],[-72.252121,44.453594],[-72.249684,44.45556],[-72.247783,44.457987],[-72.240117,44.46496],[-72.237914,44.467619],[-72.235056,44.469195],[-72.233866,44.470678],[-72.229913,44.466525],[-72.226389,44.463284],[-72.22289,44.462212],[-72.225433,44.466496],[-72.22781,44.468272],[-72.234808,44.472769],[-72.235792,44.474964],[-72.239579,44.476253],[-72.244601,44.479847],[-72.251481,44.480324],[-72.252775,44.481319],[-72.25641,44.48155],[-72.259658,44.483309],[-72.260294,44.484416],[-72.26377,44.484229],[-72.265839,44.485368],[-72.268821,44.484526],[-72.268957,44.483755],[-72.271448,44.484265],[-72.272607,44.483572],[-72.279119,44.483174],[-72.282375,44.482684],[-72.285571,44.483895],[-72.286406,44.484824],[-72.289072,44.483766],[-72.294772,44.484514],[-72.297789,44.482604],[-72.299183,44.482377],[-72.304806,44.48573],[-72.305925,44.485196],[-72.308517,44.487611],[-72.31093,44.490771],[-72.31313,44.492874],[-72.313989,44.494591],[-72.318501,44.495048],[-72.321097,44.496667],[-72.323865,44.499488],[-72.321587,44.500586],[-72.318063,44.50402],[-72.317584,44.505744],[-72.32131,44.505551],[-72.323483,44.502561],[-72.324845,44.501465],[-72.330025,44.502115],[-72.331025,44.501589],[-72.332175,44.502161],[-72.330847,44.503741],[-72.338552,44.50357],[-72.337029,44.505389],[-72.334056,44.505801],[-72.334147,44.507905],[-72.332191,44.508584],[-72.331234,44.510344],[-72.331857,44.511327],[-72.336714,44.514019],[-72.335165,44.516468],[-72.335306,44.519275],[-72.334059,44.521817],[-72.335518,44.523106],[-72.334903,44.524024],[-72.334745,44.529858],[-72.33527,44.530914],[-72.321751,44.548493],[-72.331626,44.552371],[-72.330158,44.554971],[-72.32866,44.556147],[-72.326848,44.561443],[-72.322581,44.565036],[-72.364296,44.579947],[-72.374786,44.584125],[-72.38785,44.567083],[-72.395687,44.555609],[-72.434315,44.506098],[-72.438843,44.499979],[-72.442695,44.494174]]]}},{"type":"Feature","properties":{"zcta5":"05640","AFFGEOID10":"8600000US05640","GEOID10":"05640","ALAND10":9628233,"AWATER10":144982,"county_name":"Washington","state_code":"VT","county_state":"Washington County, VT","county_fips":"50023","risk_level_county":"Lowest Risk (85%+)","mean_vaccination_rate_county":85.01,"risk_level_zcta":"Higher Risk (60–69% vaccinated)","mean_vaccination_rate_zips":60.32,"cases":1},"geometry":{"type":"Polygon","coordinates":[[[-72.490887,44.361097],[-72.493644,44.363305],[-72.497243,44.364168],[-72.498866,44.36401],[-72.502379,44.365371],[-72.5091,44.358522],[-72.5108,44.355979],[-72.510903,44.351887],[-72.513646,44.348031],[-72.517322,44.343377],[-72.516117,44.342346],[-72.510457,44.341211],[-72.509765,44.340141],[-72.509779,44.337662],[-72.50882,44.336146],[-72.508034,44.332115],[-72.505591,44.330615],[-72.5084,44.330151],[-72.503627,44.328404],[-72.502941,44.329154],[-72.501128,44.328625],[-72.49824,44.329185],[-72.491883,44.331766],[-72.489022,44.334955],[-72.486022,44.33433],[-72.482425,44.332981],[-72.478104,44.330943],[-72.474512,44.331243],[-72.470273,44.3298],[-72.468912,44.335878],[-72.468127,44.337582],[-72.467277,44.341789],[-72.469121,44.344553],[-72.474751,44.346144],[-72.47494,44.346959],[-72.476788,44.346676],[-72.480399,44.348506],[-72.482302,44.350436],[-72.481103,44.356389],[-72.481286,44.357502],[-72.487225,44.360185],[-72.490887,44.361097]]]}},{"type":"Feature","properties":{"zcta5":"05677","AFFGEOID10":"8600000US05677","GEOID10":"05677","ALAND10":39859973,"AWATER10":1590575,"county_name":"Washington","state_code":"VT","county_state":"Washington County, VT","county_fips":"50023","risk_level_county":"Lowest Risk (85%+)","mean_vaccination_rate_county":85.01,"risk_level_zcta":"Higher Risk (60–69% vaccinated)","mean_vaccination_rate_zips":62.83,"cases":1},"geometry":{"type":"Polygon","coordinates":[[[-72.739512,44.43293],[-72.74107,44.430572],[-72.744398,44.428049],[-72.744287,44.429775],[-72.745317,44.42714],[-72.749308,44.42522],[-72.748731,44.424011],[-72.750687,44.423429],[-72.74869,44.422518],[-72.754339,44.417769],[-72.755407,44.415846],[-72.755749,44.41028],[-72.755009,44.40864],[-72.753021,44.407126],[-72.751912,44.404831],[-72.753387,44.401692],[-72.756463,44.398073],[-72.757042,44.391908],[-72.755985,44.388339],[-72.751754,44.389202],[-72.747849,44.388924],[-72.744448,44.38591],[-72.740687,44.384375],[-72.734979,44.382945],[-72.732108,44.380652],[-72.728985,44.379184],[-72.726245,44.377018],[-72.724363,44.37796],[-72.726412,44.374581],[-72.726369,44.372851],[-72.727871,44.369754],[-72.732967,44.361841],[-72.733537,44.358533],[-72.735727,44.355791],[-72.735147,44.355695],[-72.736002,44.353868],[-72.736574,44.353535],[-72.735422,44.353118],[-72.733732,44.355407],[-72.731205,44.354574],[-72.729681,44.355418],[-72.727953,44.355063],[-72.725811,44.355723],[-72.724934,44.355489],[-72.724371,44.356045],[-72.723903,44.357161],[-72.724011,44.357744],[-72.724741,44.358164],[-72.724453,44.35913],[-72.723447,44.360078],[-72.723958,44.360674],[-72.722944,44.361626],[-72.722472,44.361465],[-72.720782,44.361291],[-72.702276,44.357251],[-72.701462,44.357244],[-72.692724,44.357003],[-72.689259,44.360462],[-72.686535,44.365545],[-72.68318,44.364733],[-72.679651,44.365796],[-72.676228,44.365577],[-72.675124,44.366172],[-72.671504,44.365985],[-72.668307,44.366316],[-72.66318,44.372773],[-72.671257,44.375758],[-72.654398,44.398224],[-72.720009,44.425019],[-72.724269,44.426266],[-72.729694,44.428876],[-72.739512,44.43293]]]}},{"type":"Feature","properties":{"zcta5":"05873","AFFGEOID10":"8600000US05873","GEOID10":"05873","ALAND10":76625140,"AWATER10":1185155,"county_name":"Washington","state_code":"VT","county_state":"Washington County, VT","county_fips":"50023","risk_level_county":"Lowest Risk (85%+)","mean_vaccination_rate_county":85.01,"risk_level_zcta":"Higher Risk (60–69% vaccinated)","mean_vaccination_rate_zips":60.87,"cases":1},"geometry":{"type":"Polygon","coordinates":[[[-72.22289,44.462212],[-72.226389,44.463284],[-72.229913,44.466525],[-72.233866,44.470678],[-72.235056,44.469195],[-72.237914,44.467619],[-72.240117,44.46496],[-72.247783,44.457987],[-72.249684,44.45556],[-72.252121,44.453594],[-72.256167,44.452725],[-72.258061,44.453451],[-72.259665,44.448966],[-72.263858,44.44641],[-72.265991,44.443865],[-72.268733,44.442354],[-72.249899,44.435013],[-72.24147,44.43131],[-72.23719,44.430035],[-72.236973,44.429199],[-72.230972,44.427489],[-72.223689,44.424573],[-72.223435,44.423437],[-72.227921,44.422189],[-72.228908,44.421681],[-72.22863,44.419447],[-72.227507,44.41932],[-72.225534,44.420578],[-72.225401,44.421673],[-72.222005,44.422617],[-72.220442,44.421197],[-72.21953,44.418312],[-72.221554,44.418104],[-72.22033,44.416472],[-72.222788,44.416037],[-72.222157,44.414167],[-72.219047,44.41288],[-72.217204,44.411152],[-72.222453,44.403753],[-72.223603,44.402875],[-72.226262,44.398726],[-72.224365,44.395751],[-72.24014,44.38042],[-72.244192,44.37525],[-72.248324,44.369511],[-72.249662,44.367162],[-72.255662,44.359582],[-72.252962,44.358619],[-72.249925,44.358187],[-72.246306,44.359188],[-72.243167,44.360892],[-72.24094,44.359554],[-72.231319,44.356957],[-72.227204,44.354877],[-72.222731,44.350802],[-72.21984,44.349945],[-72.213618,44.34451],[-72.211691,44.342514],[-72.201835,44.338059],[-72.197595,44.33775],[-72.195922,44.337187],[-72.19192,44.333532],[-72.189312,44.332313],[-72.186467,44.331794],[-72.185729,44.335683],[-72.185693,44.338556],[-72.187335,44.342202],[-72.187625,44.345777],[-72.182166,44.344894],[-72.18473,44.349334],[-72.186066,44.351032],[-72.188099,44.354861],[-72.189281,44.356205],[-72.191974,44.357988],[-72.192675,44.360671],[-72.194372,44.363889],[-72.196367,44.366269],[-72.196075,44.368994],[-72.194692,44.370136],[-72.189002,44.37119],[-72.187206,44.370992],[-72.180875,44.368676],[-72.179483,44.370791],[-72.179612,44.37175],[-72.176922,44.372853],[-72.174342,44.37473],[-72.173227,44.376074],[-72.171217,44.376876],[-72.173092,44.374675],[-72.17293,44.374103],[-72.169712,44.371288],[-72.150951,44.367572],[-72.149287,44.368122],[-72.15289,44.374681],[-72.154329,44.377368],[-72.15945,44.384073],[-72.163626,44.38664],[-72.165735,44.386496],[-72.167903,44.385551],[-72.169715,44.385523],[-72.176171,44.386828],[-72.17711,44.388107],[-72.180085,44.390175],[-72.186855,44.391959],[-72.189019,44.396154],[-72.192452,44.398737],[-72.193031,44.405861],[-72.194681,44.407967],[-72.196477,44.408656],[-72.194666,44.408775],[-72.190582,44.408181],[-72.180106,44.409396],[-72.178882,44.41381],[-72.177193,44.41682],[-72.177527,44.424251],[-72.177402,44.426729],[-72.175065,44.430672],[-72.173795,44.431657],[-72.176247,44.433222],[-72.180872,44.433906],[-72.182325,44.435767],[-72.185764,44.436375],[-72.189595,44.437487],[-72.190726,44.43956],[-72.19396,44.44225],[-72.15268,44.499841],[-72.151982,44.501151],[-72.18067,44.511763],[-72.180124,44.506996],[-72.181438,44.505345],[-72.182792,44.505275],[-72.183666,44.503649],[-72.181554,44.502341],[-72.181651,44.501367],[-72.184119,44.499361],[-72.184494,44.495963],[-72.186903,44.494204],[-72.189039,44.494527],[-72.191622,44.495824],[-72.196149,44.492266],[-72.202755,44.490592],[-72.206295,44.487474],[-72.20717,44.48542],[-72.210889,44.486155],[-72.213278,44.48823],[-72.217226,44.488798],[-72.219102,44.488336],[-72.219315,44.487296],[-72.221206,44.486721],[-72.22185,44.483456],[-72.223241,44.482657],[-72.223471,44.479876],[-72.222629,44.477547],[-72.22125,44.476239],[-72.221349,44.469287],[-72.221974,44.466341],[-72.219768,44.462888],[-72.221543,44.461138],[-72.22289,44.462212]]]}},{"type":"Feature","properties":{"zcta5":"05602","AFFGEOID10":"8600000US05602","GEOID10":"05602","ALAND10":210287415,"AWATER10":3096198,"county_name":"Washington","state_code":"VT","county_state":"Washington County, VT","county_fips":"50023","risk_level_county":"Lowest Risk (85%+)","mean_vaccination_rate_county":85.01,"risk_level_zcta":"Medium Risk (70–79% vaccinated)","mean_vaccination_rate_zips":77.77,"cases":1},"geometry":{"type":"MultiPolygon","coordinates":[[[[-72.556921,44.194753],[-72.555609,44.193008],[-72.554656,44.19247],[-72.545576,44.19049],[-72.539006,44.201339],[-72.537486,44.204613],[-72.537294,44.204967],[-72.543395,44.209481],[-72.543715,44.206387],[-72.545914,44.20593],[-72.546685,44.205123],[-72.546828,44.20238],[-72.547831,44.200862],[-72.549263,44.197274],[-72.553049,44.196054],[-72.555919,44.194684],[-72.556921,44.194753]]],[[[-72.668307,44.366316],[-72.660136,44.363624],[-72.671539,44.347453],[-72.678161,44.34968],[-72.694797,44.326148],[-72.704572,44.329615],[-72.715317,44.314585],[-72.716576,44.312525],[-72.714105,44.31275],[-72.712885,44.313669],[-72.70944,44.314541],[-72.706139,44.313768],[-72.700468,44.313435],[-72.699896,44.312507],[-72.695592,44.310496],[-72.695823,44.307006],[-72.696819,44.304876],[-72.695948,44.303166],[-72.695825,44.300396],[-72.696147,44.298896],[-72.697517,44.297997],[-72.700922,44.297391],[-72.70194,44.296637],[-72.701301,44.295968],[-72.698313,44.296898],[-72.696227,44.296367],[-72.690688,44.293614],[-72.68632,44.292165],[-72.680481,44.290895],[-72.680506,44.290198],[-72.67432,44.286822],[-72.672616,44.287855],[-72.668336,44.280119],[-72.660009,44.273867],[-72.650923,44.272311],[-72.643623,44.268205],[-72.641972,44.269826],[-72.640211,44.269293],[-72.645861,44.257434],[-72.647572,44.25539],[-72.653315,44.250575],[-72.657159,44.246983],[-72.658898,44.241341],[-72.656957,44.237489],[-72.667605,44.216754],[-72.661482,44.215042],[-72.657644,44.21162],[-72.650535,44.208769],[-72.645371,44.208284],[-72.640795,44.208757],[-72.637537,44.207959],[-72.634653,44.206056],[-72.635065,44.201635],[-72.633845,44.20342],[-72.6311,44.200975],[-72.631436,44.200078],[-72.630357,44.200423],[-72.630299,44.202536],[-72.628681,44.203455],[-72.628327,44.205129],[-72.626567,44.207763],[-72.625448,44.207994],[-72.620612,44.206765],[-72.618544,44.207048],[-72.615653,44.210248],[-72.61302,44.21133],[-72.60768,44.212025],[-72.605067,44.213841],[-72.604662,44.215787],[-72.602623,44.217056],[-72.601096,44.217002],[-72.597611,44.21422],[-72.594125,44.212624],[-72.590481,44.212106],[-72.589644,44.213234],[-72.582851,44.211591],[-72.582106,44.209271],[-72.583182,44.207539],[-72.585153,44.205967],[-72.591435,44.203355],[-72.592615,44.198295],[-72.600914,44.197138],[-72.604254,44.197802],[-72.608544,44.197353],[-72.612554,44.19832],[-72.614437,44.197996],[-72.61866,44.193039],[-72.61993,44.192558],[-72.621763,44.193543],[-72.621884,44.191644],[-72.626236,44.191949],[-72.630859,44.191015],[-72.632394,44.189988],[-72.633213,44.187274],[-72.632716,44.186241],[-72.634018,44.183309],[-72.635075,44.182734],[-72.638496,44.184217],[-72.639252,44.184623],[-72.63878,44.178519],[-72.639539,44.177757],[-72.642473,44.176616],[-72.644405,44.174778],[-72.589333,44.160282],[-72.588174,44.15994],[-72.583809,44.159587],[-72.579167,44.165711],[-72.577221,44.167838],[-72.576145,44.170532],[-72.575429,44.175894],[-72.576808,44.196816],[-72.577699,44.201066],[-72.581377,44.208963],[-72.580742,44.209747],[-72.579931,44.210859],[-72.566516,44.207678],[-72.563975,44.213666],[-72.562223,44.214559],[-72.558792,44.217417],[-72.559785,44.218282],[-72.557984,44.220989],[-72.555877,44.221465],[-72.556236,44.223386],[-72.55788,44.225973],[-72.55495,44.231142],[-72.553657,44.231996],[-72.551577,44.232575],[-72.55337,44.234903],[-72.552851,44.2368],[-72.549639,44.239989],[-72.548986,44.240025],[-72.54596,44.239001],[-72.540893,44.240606],[-72.542965,44.242288],[-72.540087,44.242442],[-72.53867,44.241924],[-72.533259,44.241286],[-72.530575,44.239272],[-72.524252,44.237825],[-72.522394,44.2407],[-72.518571,44.241475],[-72.516478,44.242817],[-72.50854,44.243189],[-72.510433,44.249307],[-72.511914,44.251631],[-72.515186,44.252152],[-72.516955,44.250441],[-72.521413,44.248631],[-72.52146,44.251423],[-72.52548,44.250222],[-72.527072,44.250232],[-72.540212,44.255566],[-72.535946,44.261339],[-72.544615,44.264682],[-72.544362,44.265796],[-72.542573,44.267527],[-72.541174,44.267863],[-72.532426,44.265172],[-72.530855,44.269829],[-72.529445,44.271669],[-72.528151,44.274322],[-72.529911,44.276981],[-72.530359,44.279215],[-72.531713,44.282633],[-72.529907,44.283408],[-72.525462,44.283607],[-72.525024,44.282685],[-72.521139,44.280838],[-72.521314,44.277753],[-72.518052,44.272901],[-72.518593,44.271314],[-72.521166,44.266906],[-72.521253,44.263436],[-72.519981,44.26206],[-72.516548,44.259501],[-72.516304,44.258024],[-72.517172,44.256802],[-72.512548,44.260459],[-72.509405,44.26334],[-72.503931,44.269196],[-72.505143,44.273747],[-72.507707,44.277323],[-72.50794,44.278606],[-72.511105,44.28184],[-72.513471,44.282476],[-72.516368,44.283889],[-72.521827,44.285963],[-72.521076,44.286709],[-72.517895,44.286912],[-72.512624,44.28681],[-72.512981,44.287845],[-72.515099,44.28966],[-72.51655,44.293342],[-72.517959,44.294343],[-72.516267,44.299558],[-72.512924,44.303188],[-72.509837,44.308482],[-72.505268,44.322196],[-72.503627,44.328404],[-72.5084,44.330151],[-72.534968,44.33989],[-72.550612,44.345628],[-72.57264,44.315041],[-72.572014,44.31597],[-72.574349,44.318631],[-72.572805,44.321073],[-72.572823,44.32287],[-72.57158,44.322488],[-72.571808,44.323618],[-72.573708,44.325018],[-72.575236,44.325001],[-72.576343,44.326564],[-72.573057,44.328308],[-72.570976,44.329979],[-72.569961,44.332104],[-72.567591,44.334192],[-72.567447,44.335422],[-72.566011,44.336224],[-72.5661,44.337262],[-72.564534,44.33793],[-72.564307,44.339726],[-72.56535,44.341801],[-72.566228,44.341853],[-72.567193,44.338586],[-72.568712,44.337357],[-72.573436,44.335317],[-72.575671,44.333895],[-72.578792,44.330292],[-72.578902,44.331734],[-72.581563,44.336248],[-72.581464,44.338401],[-72.583635,44.339864],[-72.587042,44.341496],[-72.588032,44.342444],[-72.590116,44.346936],[-72.592533,44.348053],[-72.594307,44.350508],[-72.596768,44.351784],[-72.598233,44.353746],[-72.601129,44.353604],[-72.602707,44.352719],[-72.606533,44.353273],[-72.607365,44.354659],[-72.610849,44.357498],[-72.610796,44.361538],[-72.60943,44.363083],[-72.611442,44.365366],[-72.613141,44.370484],[-72.614731,44.371885],[-72.615334,44.373735],[-72.617339,44.375055],[-72.620766,44.380946],[-72.654398,44.398224],[-72.671257,44.375758],[-72.66318,44.372773],[-72.668307,44.366316]]]]}},{"type":"Feature","properties":{"zcta5":"05682","AFFGEOID10":"8600000US05682","GEOID10":"05682","ALAND10":119592468,"AWATER10":494340,"county_name":"Washington","state_code":"VT","county_state":"Washington County, VT","county_fips":"50023","risk_level_county":"Lowest Risk (85%+)","mean_vaccination_rate_county":85.01,"risk_level_zcta":"Higher Risk (60–69% vaccinated)","mean_vaccination_rate_zips":67.78,"cases":1},"geometry":{"type":"Polygon","coordinates":[[[-72.654398,44.398224],[-72.620766,44.380946],[-72.617339,44.375055],[-72.615334,44.373735],[-72.614731,44.371885],[-72.613141,44.370484],[-72.611442,44.365366],[-72.60943,44.363083],[-72.610796,44.361538],[-72.610849,44.357498],[-72.607365,44.354659],[-72.606533,44.353273],[-72.602707,44.352719],[-72.601129,44.353604],[-72.598233,44.353746],[-72.596768,44.351784],[-72.594307,44.350508],[-72.592533,44.348053],[-72.590116,44.346936],[-72.588032,44.342444],[-72.587042,44.341496],[-72.583635,44.339864],[-72.581464,44.338401],[-72.581563,44.336248],[-72.578902,44.331734],[-72.578792,44.330292],[-72.575671,44.333895],[-72.573436,44.335317],[-72.568712,44.337357],[-72.567193,44.338586],[-72.566228,44.341853],[-72.56535,44.341801],[-72.564307,44.339726],[-72.564534,44.33793],[-72.5661,44.337262],[-72.566011,44.336224],[-72.567447,44.335422],[-72.567591,44.334192],[-72.569961,44.332104],[-72.570976,44.329979],[-72.573057,44.328308],[-72.576343,44.326564],[-72.575236,44.325001],[-72.573708,44.325018],[-72.571808,44.323618],[-72.57158,44.322488],[-72.572823,44.32287],[-72.572805,44.321073],[-72.574349,44.318631],[-72.572014,44.31597],[-72.57264,44.315041],[-72.550612,44.345628],[-72.534968,44.33989],[-72.533931,44.342234],[-72.532067,44.344224],[-72.530836,44.348397],[-72.528244,44.351073],[-72.526462,44.354586],[-72.522883,44.358354],[-72.52111,44.35766],[-72.518838,44.361374],[-72.516164,44.363975],[-72.515347,44.365411],[-72.512292,44.366978],[-72.508244,44.371476],[-72.5068,44.372151],[-72.50632,44.374218],[-72.503748,44.378765],[-72.505995,44.381159],[-72.50604,44.382743],[-72.504989,44.385767],[-72.503478,44.387773],[-72.503854,44.388782],[-72.505546,44.389435],[-72.508588,44.389109],[-72.51585,44.389508],[-72.516709,44.389369],[-72.519727,44.387879],[-72.499553,44.415565],[-72.490548,44.425693],[-72.503784,44.429045],[-72.516219,44.436043],[-72.544364,44.451123],[-72.546407,44.451934],[-72.596807,44.479292],[-72.654398,44.398224]]]}},{"type":"Feature","properties":{"zcta5":"05669","AFFGEOID10":"8600000US05669","GEOID10":"05669","ALAND10":109855074,"AWATER10":127442,"county_name":"Washington","state_code":"VT","county_state":"Washington County, VT","county_fips":"50023","risk_level_county":"Lowest Risk (85%+)","mean_vaccination_rate_county":85.01,"risk_level_zcta":"Very High Risk (<60% vaccinated)","mean_vaccination_rate_zips":58.94,"cases":1},"geometry":{"type":"MultiPolygon","coordinates":[[[[-72.773629,43.985585],[-72.771432,43.985487],[-72.769593,43.984505],[-72.759136,43.982688],[-72.755928,43.984144],[-72.754871,43.985483],[-72.752743,43.985963],[-72.752495,43.987288],[-72.750338,43.986873],[-72.750842,43.989398],[-72.752369,43.989308],[-72.751605,43.992741],[-72.752241,43.997667],[-72.754731,44.011175],[-72.773629,43.985585]]],[[[-72.770121,44.126433],[-72.821553,44.052634],[-72.762902,44.0357],[-72.761199,44.032964],[-72.76022,44.033201],[-72.759739,44.032458],[-72.759267,44.028281],[-72.760316,44.021851],[-72.759815,44.018234],[-72.754836,44.012954],[-72.754731,44.011175],[-72.742303,44.029655],[-72.727745,44.025551],[-72.723737,44.024996],[-72.712907,44.021256],[-72.684681,44.013243],[-72.683772,44.012938],[-72.651027,44.062603],[-72.651822,44.063394],[-72.648295,44.067775],[-72.646916,44.070354],[-72.648447,44.072531],[-72.649139,44.076717],[-72.650215,44.077869],[-72.651406,44.077907],[-72.650934,44.080427],[-72.651555,44.080935],[-72.650577,44.084272],[-72.65055,44.086413],[-72.649775,44.086723],[-72.650813,44.088964],[-72.650041,44.091361],[-72.648134,44.093068],[-72.669153,44.098755],[-72.670422,44.097254],[-72.671061,44.09446],[-72.670529,44.091644],[-72.672454,44.091321],[-72.674649,44.088595],[-72.674953,44.083733],[-72.669554,44.081574],[-72.669633,44.080069],[-72.671547,44.079812],[-72.672675,44.078839],[-72.674654,44.078792],[-72.673746,44.077386],[-72.67757,44.079049],[-72.679157,44.078811],[-72.682929,44.080318],[-72.683915,44.08135],[-72.684532,44.084157],[-72.684097,44.085375],[-72.685344,44.086702],[-72.685243,44.08769],[-72.682542,44.090113],[-72.681641,44.093249],[-72.679512,44.094639],[-72.677985,44.096368],[-72.678517,44.09793],[-72.67848,44.100522],[-72.677544,44.101106],[-72.770121,44.126433]]]]}},{"type":"Feature","properties":{"zcta5":"05649","AFFGEOID10":"8600000US05649","GEOID10":"05649","ALAND10":40439592,"AWATER10":117979,"county_name":"Washington","state_code":"VT","county_state":"Washington County, VT","county_fips":"50023","risk_level_county":"Lowest Risk (85%+)","mean_vaccination_rate_county":85.01,"risk_level_zcta":"Higher Risk (60–69% vaccinated)","mean_vaccination_rate_zips":65.7,"cases":1},"geometry":{"type":"MultiPolygon","coordinates":[[[[-72.341923,44.195338],[-72.387267,44.161897],[-72.381969,44.159751],[-72.380837,44.159667],[-72.383786,44.156931],[-72.384848,44.156804],[-72.389245,44.15789],[-72.392715,44.158014],[-72.396044,44.15688],[-72.398499,44.155626],[-72.399607,44.154218],[-72.401002,44.148364],[-72.402876,44.14862],[-72.406134,44.139606],[-72.408374,44.134644],[-72.410421,44.13366],[-72.402884,44.133397],[-72.39858,44.131453],[-72.383474,44.134039],[-72.381002,44.134287],[-72.375234,44.133573],[-72.370986,44.135827],[-72.350323,44.132376],[-72.345697,44.133097],[-72.343036,44.13258],[-72.341054,44.126746],[-72.335932,44.123978],[-72.331323,44.122662],[-72.327282,44.12019],[-72.323623,44.118944],[-72.318265,44.136266],[-72.318111,44.137314],[-72.319443,44.139462],[-72.322618,44.141307],[-72.323728,44.142939],[-72.329815,44.142566],[-72.3274,44.148181],[-72.311382,44.161053],[-72.30498,44.183149],[-72.341923,44.195338]]],[[[-72.436294,44.12638],[-72.434936,44.1275],[-72.429917,44.126816],[-72.43079,44.130162],[-72.428996,44.129861],[-72.426141,44.130306],[-72.424325,44.131338],[-72.424661,44.133155],[-72.426749,44.133868],[-72.428259,44.135946],[-72.429305,44.140881],[-72.426708,44.142434],[-72.426874,44.144783],[-72.425678,44.147236],[-72.426761,44.14839],[-72.430146,44.150128],[-72.431853,44.149567],[-72.430376,44.15262],[-72.436829,44.153629],[-72.438988,44.154711],[-72.441673,44.157434],[-72.446252,44.159329],[-72.448407,44.161005],[-72.451259,44.159457],[-72.453066,44.160701],[-72.454815,44.159987],[-72.45074,44.158211],[-72.450245,44.157873],[-72.445625,44.154507],[-72.438009,44.148925],[-72.443032,44.128669],[-72.436294,44.12638]]]]}},{"type":"Feature","properties":{"zcta5":"05650","AFFGEOID10":"8600000US05650","GEOID10":"05650","ALAND10":60979708,"AWATER10":1783724,"county_name":"Washington","state_code":"VT","county_state":"Washington County, VT","county_fips":"50023","risk_level_county":"Lowest Risk (85%+)","mean_vaccination_rate_county":85.01,"risk_level_zcta":"Medium Risk (70–79% vaccinated)","mean_vaccination_rate_zips":73.02,"cases":1},"geometry":{"type":"MultiPolygon","coordinates":[[[[-72.490887,44.361097],[-72.487225,44.360185],[-72.481286,44.357502],[-72.481103,44.356389],[-72.482302,44.350436],[-72.480399,44.348506],[-72.476788,44.346676],[-72.47494,44.346959],[-72.474751,44.346144],[-72.469121,44.344553],[-72.467277,44.341789],[-72.46419,44.340683],[-72.462806,44.341743],[-72.462121,44.344855],[-72.461222,44.345429],[-72.45993,44.344453],[-72.459429,44.342428],[-72.457761,44.341369],[-72.455563,44.341198],[-72.45332,44.339934],[-72.452371,44.338423],[-72.446871,44.334015],[-72.445766,44.333764],[-72.445995,44.331563],[-72.443905,44.328768],[-72.443978,44.323899],[-72.444884,44.321429],[-72.446542,44.314475],[-72.447124,44.307157],[-72.44437,44.306076],[-72.443287,44.30956],[-72.443452,44.31041],[-72.440531,44.311308],[-72.440694,44.312666],[-72.444519,44.314431],[-72.444995,44.313951],[-72.44413,44.315349],[-72.441992,44.315671],[-72.440788,44.314923],[-72.43823,44.31541],[-72.438464,44.31718],[-72.435508,44.31998],[-72.434517,44.322294],[-72.433377,44.322935],[-72.433082,44.325683],[-72.430864,44.32808],[-72.431825,44.329115],[-72.431366,44.331658],[-72.428787,44.33408],[-72.423064,44.341699],[-72.420718,44.342795],[-72.420254,44.342615],[-72.412395,44.340704],[-72.381307,44.381974],[-72.385769,44.379952],[-72.394548,44.37815],[-72.396309,44.37698],[-72.402023,44.370688],[-72.404218,44.372912],[-72.404657,44.376557],[-72.403418,44.378417],[-72.405985,44.379332],[-72.410904,44.379777],[-72.408139,44.384178],[-72.408019,44.385247],[-72.404459,44.389373],[-72.403653,44.391788],[-72.414515,44.395981],[-72.413082,44.401435],[-72.414765,44.402428],[-72.416098,44.399122],[-72.41814,44.397372],[-72.425003,44.40005],[-72.423817,44.403227],[-72.424798,44.405464],[-72.426875,44.407723],[-72.424026,44.410501],[-72.422025,44.414578],[-72.421209,44.415028],[-72.419167,44.413582],[-72.41973,44.412614],[-72.417753,44.409598],[-72.417655,44.408112],[-72.415486,44.407652],[-72.410296,44.417581],[-72.410095,44.41875],[-72.411078,44.41886],[-72.410516,44.420576],[-72.412241,44.425349],[-72.411689,44.426487],[-72.412555,44.4282],[-72.411661,44.429504],[-72.411581,44.431791],[-72.412767,44.432988],[-72.412581,44.436431],[-72.4152,44.441058],[-72.419189,44.439095],[-72.422923,44.439605],[-72.42496,44.436683],[-72.430071,44.431486],[-72.430847,44.429479],[-72.433037,44.433484],[-72.432203,44.436279],[-72.43316,44.438038],[-72.434468,44.440151],[-72.436865,44.441718],[-72.4381,44.444261],[-72.439076,44.443671],[-72.440067,44.445116],[-72.443432,44.444411],[-72.443461,44.447666],[-72.446708,44.448913],[-72.450072,44.447759],[-72.451767,44.446403],[-72.453762,44.443179],[-72.45671,44.441805],[-72.458586,44.440109],[-72.459123,44.438589],[-72.460764,44.437169],[-72.464203,44.432852],[-72.467268,44.431022],[-72.468227,44.427534],[-72.469338,44.425674],[-72.472257,44.422636],[-72.47475,44.419444],[-72.43934,44.405638],[-72.44193,44.402544],[-72.443535,44.399636],[-72.445908,44.399014],[-72.446167,44.401422],[-72.449722,44.401448],[-72.451045,44.404624],[-72.45392,44.409355],[-72.455978,44.410105],[-72.463209,44.409214],[-72.466287,44.408066],[-72.470236,44.40774],[-72.471172,44.406661],[-72.475063,44.406022],[-72.474423,44.404078],[-72.472264,44.404768],[-72.471757,44.403055],[-72.472344,44.400264],[-72.471045,44.396642],[-72.467849,44.393389],[-72.468198,44.390619],[-72.46956,44.389936],[-72.475518,44.382001],[-72.476964,44.381557],[-72.475162,44.38084],[-72.474261,44.379542],[-72.473789,44.3755],[-72.472564,44.374269],[-72.472669,44.373022],[-72.471171,44.370144],[-72.474074,44.369354],[-72.476265,44.366547],[-72.478287,44.366035],[-72.482253,44.367993],[-72.485055,44.368869],[-72.490887,44.361097]],[[-72.420718,44.342795],[-72.420842,44.342862],[-72.423078,44.343946],[-72.426694,44.345157],[-72.423761,44.345474],[-72.419944,44.343677],[-72.420549,44.342943],[-72.420718,44.342795]]],[[[-72.470273,44.3298],[-72.474512,44.331243],[-72.478104,44.330943],[-72.482425,44.332981],[-72.486022,44.33433],[-72.489022,44.334955],[-72.491883,44.331766],[-72.49824,44.329185],[-72.501128,44.328625],[-72.502941,44.329154],[-72.503627,44.328404],[-72.498019,44.326603],[-72.460989,44.312467],[-72.461682,44.315036],[-72.467623,44.318852],[-72.469201,44.320821],[-72.468169,44.324745],[-72.468173,44.327917],[-72.470273,44.3298]]]]}}]}