{"type":"FeatureCollection","features":[{"type":"Feature","properties":{"zcta5":"21740","AFFGEOID10":"8600000US21740","GEOID10":"21740","ALAND10":180880111,"AWATER10":758494,"county_name":"Washington","state_code":"MD","county_state":"Washington County, MD","county_fips":"24043","risk_level_county":"Medium Risk (70–79% vaccinated)","mean_vaccination_rate_county":73.06,"risk_level_zcta":"Medium Risk (70–79% vaccinated)","mean_vaccination_rate_zips":73.45,"cases":11},"geometry":{"type":"MultiPolygon","coordinates":[[[[-77.71062,39.61026],[-77.710679,39.610099],[-77.7109,39.60945],[-77.70872,39.60897],[-77.70844,39.60973],[-77.710185,39.610147],[-77.71062,39.61026]]],[[[-77.848106,39.657252],[-77.848295,39.656325],[-77.846539,39.652286],[-77.842676,39.650021],[-77.836448,39.648633],[-77.833082,39.647372],[-77.830626,39.647142],[-77.828332,39.64572],[-77.8287,39.642806],[-77.82961,39.641669],[-77.82639,39.63941],[-77.822308,39.637435],[-77.82189,39.63594],[-77.82063,39.63508],[-77.82044,39.63135],[-77.819308,39.62971],[-77.81869,39.6273],[-77.81694,39.62411],[-77.81573,39.62262],[-77.815555,39.621665],[-77.81174,39.62181],[-77.81146,39.62524],[-77.810314,39.627439],[-77.808141,39.626917],[-77.807534,39.628693],[-77.80998,39.62887],[-77.8097,39.63003],[-77.79191,39.62274],[-77.80996,39.61569],[-77.80755,39.61522],[-77.804308,39.61354],[-77.801916,39.613677],[-77.80145,39.61301],[-77.80176,39.6094],[-77.802556,39.606876],[-77.80045,39.61051],[-77.79804,39.61283],[-77.79435,39.61471],[-77.78776,39.61627],[-77.782407,39.61865],[-77.781895,39.617133],[-77.780448,39.616227],[-77.77657,39.616405],[-77.775284,39.615048],[-77.77262,39.61581],[-77.774175,39.613944],[-77.772099,39.613236],[-77.77223,39.612168],[-77.770276,39.611146],[-77.770102,39.610004],[-77.76783,39.609443],[-77.76564,39.60688],[-77.761315,39.606881],[-77.761978,39.606239],[-77.754405,39.606385],[-77.755538,39.605056],[-77.76438,39.60111],[-77.76602,39.59999],[-77.7676,39.600778],[-77.785402,39.585523],[-77.778787,39.580323],[-77.781857,39.576383],[-77.785731,39.570494],[-77.790128,39.565658],[-77.777955,39.56252],[-77.774798,39.561342],[-77.772743,39.565153],[-77.768109,39.569711],[-77.76552,39.56861],[-77.76079,39.57549],[-77.760608,39.576693],[-77.75554,39.57627],[-77.756602,39.570879],[-77.755853,39.570545],[-77.752541,39.569318],[-77.731805,39.565799],[-77.73084,39.565616],[-77.732998,39.559945],[-77.734577,39.560221],[-77.73654,39.558656],[-77.73688,39.556949],[-77.738923,39.554867],[-77.73763,39.55375],[-77.731293,39.550619],[-77.72812,39.54917],[-77.726928,39.55046],[-77.722198,39.549536],[-77.720765,39.54921],[-77.719615,39.549124],[-77.719676,39.548381],[-77.717664,39.548316],[-77.716673,39.549828],[-77.7164,39.55021],[-77.71384,39.55917],[-77.712,39.55936],[-77.71148,39.56209],[-77.71828,39.56333],[-77.71835,39.564212],[-77.721756,39.569415],[-77.708998,39.568716],[-77.708746,39.565156],[-77.697414,39.562908],[-77.695693,39.562706],[-77.693588,39.56333],[-77.69325,39.564564],[-77.69661,39.567335],[-77.69574,39.568742],[-77.69245,39.568162],[-77.690634,39.56965],[-77.689468,39.571466],[-77.690159,39.568379],[-77.68986,39.5671],[-77.68353,39.55879],[-77.6803,39.55917],[-77.66837,39.55832],[-77.666329,39.559282],[-77.665541,39.561434],[-77.666285,39.563723],[-77.6642,39.564184],[-77.661924,39.562981],[-77.660158,39.56415],[-77.659803,39.565539],[-77.658199,39.566713],[-77.657461,39.568519],[-77.6548,39.570763],[-77.65409,39.572509],[-77.654345,39.574117],[-77.656001,39.578041],[-77.64754,39.57233],[-77.64635,39.57153],[-77.646,39.57501],[-77.64393,39.5806],[-77.63982,39.5857],[-77.63555,39.58371],[-77.6317,39.58113],[-77.62902,39.57848],[-77.6268,39.57861],[-77.62512,39.57562],[-77.617374,39.573929],[-77.61745,39.57211],[-77.612867,39.571926],[-77.589308,39.567092],[-77.587821,39.570377],[-77.586761,39.571365],[-77.585708,39.575363],[-77.58451,39.581607],[-77.585304,39.583297],[-77.581977,39.58876],[-77.581054,39.591735],[-77.577919,39.598793],[-77.577751,39.601608],[-77.588707,39.604548],[-77.590095,39.601872],[-77.592889,39.599395],[-77.595273,39.598286],[-77.597918,39.595551],[-77.600657,39.596865],[-77.6023,39.59422],[-77.60722,39.596],[-77.608596,39.595607],[-77.607659,39.594427],[-77.605388,39.594],[-77.60337,39.592686],[-77.604269,39.59072],[-77.607259,39.587303],[-77.611944,39.588981],[-77.611396,39.590575],[-77.614792,39.591553],[-77.618698,39.591477],[-77.618165,39.592345],[-77.623067,39.593901],[-77.621454,39.597008],[-77.626441,39.59974],[-77.62401,39.60241],[-77.625644,39.602914],[-77.627902,39.601324],[-77.63051,39.596884],[-77.628843,39.596175],[-77.630547,39.594398],[-77.633229,39.593701],[-77.634763,39.592489],[-77.636905,39.589503],[-77.639038,39.590698],[-77.641144,39.589556],[-77.642862,39.587446],[-77.648082,39.590422],[-77.655708,39.595222],[-77.65479,39.60241],[-77.65051,39.60756],[-77.64761,39.61003],[-77.648211,39.610441],[-77.650819,39.608161],[-77.653253,39.607481],[-77.656057,39.605346],[-77.657895,39.605116],[-77.658704,39.605775],[-77.662621,39.607093],[-77.661676,39.610693],[-77.659788,39.614369],[-77.66315,39.61565],[-77.66764,39.61624],[-77.67227,39.61627],[-77.67863,39.61853],[-77.68372,39.61886],[-77.68828,39.61966],[-77.69214,39.62142],[-77.69514,39.62357],[-77.69744,39.624704],[-77.699116,39.629225],[-77.701315,39.631235],[-77.698783,39.632716],[-77.693817,39.631854],[-77.693394,39.633346],[-77.691077,39.634172],[-77.690125,39.636511],[-77.690021,39.638696],[-77.686916,39.637851],[-77.685919,39.638958],[-77.687838,39.640372],[-77.688044,39.641814],[-77.692377,39.64175],[-77.693537,39.642133],[-77.694675,39.640136],[-77.696038,39.640583],[-77.695446,39.641667],[-77.69812,39.64102],[-77.697996,39.643868],[-77.69903,39.64739],[-77.69863,39.64995],[-77.701531,39.650406],[-77.70136,39.65135],[-77.70561,39.64983],[-77.707818,39.649745],[-77.71431,39.65235],[-77.71694,39.65315],[-77.71956,39.6529],[-77.72202,39.6506],[-77.72327,39.65422],[-77.73554,39.67098],[-77.734816,39.6738],[-77.733599,39.682876],[-77.7333,39.68692],[-77.73358,39.68959],[-77.73471,39.69327],[-77.73603,39.6957],[-77.74154,39.70315],[-77.742926,39.706616],[-77.742937,39.710077],[-77.740745,39.714635],[-77.738217,39.717023],[-77.7329355264234,39.7210973599427],[-77.74057410328959,39.7211774319072],[-77.7431786841493,39.7212047346247],[-77.743204,39.721205],[-77.768534,39.721358],[-77.8476047555743,39.721999144422895],[-77.847399,39.72089],[-77.84437,39.713762],[-77.841104,39.710444],[-77.83827,39.70881],[-77.8417,39.70627],[-77.84252,39.70373],[-77.8443,39.70047],[-77.843058,39.697107],[-77.84036,39.69169],[-77.83826,39.69192],[-77.83368,39.69329],[-77.82559,39.69273],[-77.82187,39.6942],[-77.818579,39.689743],[-77.818689,39.685721],[-77.812487,39.684324],[-77.809276,39.683968],[-77.804594,39.684615],[-77.801028,39.685823],[-77.802811,39.68445],[-77.808054,39.683589],[-77.811954,39.683759],[-77.820273,39.685872],[-77.823861,39.686985],[-77.827533,39.687122],[-77.830389,39.686413],[-77.831078,39.685843],[-77.834088,39.681187],[-77.8345,39.6797],[-77.833618,39.677741],[-77.830712,39.675667],[-77.825101,39.674685],[-77.821727,39.673341],[-77.818708,39.671348],[-77.817351,39.66996],[-77.812948,39.667227],[-77.810383,39.666586],[-77.805491,39.662539],[-77.805015,39.661035],[-77.805825,39.659619],[-77.806812,39.659005],[-77.810355,39.65828],[-77.817485,39.65935],[-77.819587,39.65941],[-77.825375,39.660628],[-77.827867,39.660837],[-77.834301,39.660797],[-77.838378,39.6618],[-77.841999,39.66203],[-77.845806,39.661634],[-77.846785,39.660936],[-77.848106,39.657252]],[[-77.75275,39.69651],[-77.755229,39.699789],[-77.74721,39.700344],[-77.746557,39.702524],[-77.745004,39.702199],[-77.744889,39.702748],[-77.74445,39.70267],[-77.74299,39.70041],[-77.74343,39.69711],[-77.74201,39.69703],[-77.74226,39.69311],[-77.74633,39.69202],[-77.75275,39.69651]],[[-77.71062,39.61026],[-77.710074,39.612475],[-77.703798,39.612357],[-77.70286,39.61154],[-77.70377,39.60867],[-77.70504,39.60898],[-77.70477,39.604484],[-77.706414,39.604097],[-77.706942,39.600821],[-77.712228,39.602676],[-77.710721,39.604108],[-77.705504,39.605095],[-77.705717,39.60575],[-77.710326,39.606556],[-77.71248,39.608265],[-77.712246,39.610751],[-77.71062,39.61026]],[[-77.677953,39.615702],[-77.676908,39.61744],[-77.67323,39.61607],[-77.67447,39.61411],[-77.67629,39.61519],[-77.677953,39.615702]]]]}},{"type":"Feature","properties":{"zcta5":"21746","AFFGEOID10":"8600000US21746","GEOID10":"21746","ALAND10":932544,"AWATER10":0,"county_name":"Washington","state_code":"MD","county_state":"Washington County, MD","county_fips":"24043","risk_level_county":"Medium Risk (70–79% vaccinated)","mean_vaccination_rate_county":73.06,"risk_level_zcta":"Uninhabited","mean_vaccination_rate_zips":null,"cases":11},"geometry":{"type":"Polygon","coordinates":[[[-77.695693,39.562706],[-77.697414,39.562908],[-77.708746,39.565156],[-77.708998,39.568716],[-77.721756,39.569415],[-77.71835,39.564212],[-77.71828,39.56333],[-77.71148,39.56209],[-77.7086,39.56187],[-77.698778,39.559911],[-77.700601,39.560476],[-77.701565,39.561503],[-77.701034,39.56238],[-77.695693,39.562706]]]}},{"type":"Feature","properties":{"zcta5":"21733","AFFGEOID10":"8600000US21733","GEOID10":"21733","ALAND10":15655015,"AWATER10":0,"county_name":"Washington","state_code":"MD","county_state":"Washington County, MD","county_fips":"24043","risk_level_county":"Medium Risk (70–79% vaccinated)","mean_vaccination_rate_county":73.06,"risk_level_zcta":"Higher Risk (60–69% vaccinated)","mean_vaccination_rate_zips":66.7,"cases":11},"geometry":{"type":"Polygon","coordinates":[[[-77.774798,39.561342],[-77.776803,39.557649],[-77.777699,39.554747],[-77.782868,39.54217],[-77.79637,39.54708],[-77.797142,39.547839],[-77.797632,39.546153],[-77.800343,39.544335],[-77.79077,39.53989],[-77.78482,39.53712],[-77.782807,39.537269],[-77.779013,39.534995],[-77.778229,39.531932],[-77.766269,39.531699],[-77.765743,39.534388],[-77.764671,39.53604],[-77.76607,39.53173],[-77.75132,39.53145],[-77.75171,39.53056],[-77.750748,39.530419],[-77.749771,39.531888],[-77.744619,39.534439],[-77.743549,39.532897],[-77.740565,39.533653],[-77.738773,39.540974],[-77.73158,39.53962],[-77.73185,39.54048],[-77.7315,39.5426],[-77.731473,39.543613],[-77.731293,39.550619],[-77.73763,39.55375],[-77.738923,39.554867],[-77.73688,39.556949],[-77.73654,39.558656],[-77.734577,39.560221],[-77.732998,39.559945],[-77.73084,39.565616],[-77.731805,39.565799],[-77.752541,39.569318],[-77.755853,39.570545],[-77.755954,39.569898],[-77.75719,39.567384],[-77.756603,39.565042],[-77.76552,39.56861],[-77.768109,39.569711],[-77.772743,39.565153],[-77.774798,39.561342]]]}},{"type":"Feature","properties":{"zcta5":"21767","AFFGEOID10":"8600000US21767","GEOID10":"21767","ALAND10":737108,"AWATER10":0,"county_name":"Washington","state_code":"MD","county_state":"Washington County, MD","county_fips":"24043","risk_level_county":"Medium Risk (70–79% vaccinated)","mean_vaccination_rate_county":73.06,"risk_level_zcta":"Medium Risk (70–79% vaccinated)","mean_vaccination_rate_zips":75.1,"cases":11},"geometry":{"type":"Polygon","coordinates":[[[-77.75275,39.69651],[-77.74633,39.69202],[-77.74226,39.69311],[-77.74201,39.69703],[-77.74343,39.69711],[-77.74299,39.70041],[-77.74445,39.70267],[-77.744889,39.702748],[-77.745004,39.702199],[-77.746557,39.702524],[-77.74721,39.700344],[-77.755229,39.699789],[-77.75275,39.69651]]]}},{"type":"Feature","properties":{"zcta5":"21756","AFFGEOID10":"8600000US21756","GEOID10":"21756","ALAND10":54168241,"AWATER10":28102,"county_name":"Washington","state_code":"MD","county_state":"Washington County, MD","county_fips":"24043","risk_level_county":"Medium Risk (70–79% vaccinated)","mean_vaccination_rate_county":73.06,"risk_level_zcta":"Medium Risk (70–79% vaccinated)","mean_vaccination_rate_zips":78.87,"cases":11},"geometry":{"type":"Polygon","coordinates":[[[-77.73334,39.50427],[-77.73634,39.50263],[-77.73614,39.49686],[-77.736837,39.495785],[-77.7408,39.49233],[-77.74097,39.48789],[-77.74208,39.48426],[-77.74345,39.48456],[-77.74505,39.48869],[-77.75094,39.4884],[-77.75076,39.48707],[-77.74838,39.48077],[-77.7415,39.48129],[-77.7438,39.47857],[-77.74197,39.47778],[-77.74152,39.47589],[-77.74252,39.47422],[-77.74335,39.47114],[-77.74146,39.4713],[-77.73654,39.46926],[-77.73716,39.46713],[-77.73514,39.46645],[-77.73519,39.46291],[-77.73594,39.46211],[-77.73693,39.4577],[-77.7383,39.4552],[-77.73638,39.45452],[-77.732773,39.453967],[-77.73183,39.455383],[-77.728174,39.45901],[-77.725415,39.464337],[-77.725513,39.465275],[-77.723201,39.466694],[-77.72113,39.46698],[-77.72359,39.4661],[-77.72266,39.46438],[-77.723014,39.462807],[-77.721781,39.461766],[-77.723251,39.459172],[-77.721596,39.458207],[-77.724312,39.455841],[-77.726157,39.45352],[-77.72747,39.453434],[-77.72871,39.44967],[-77.72598,39.44721],[-77.72559,39.4463],[-77.72338,39.44541],[-77.720323,39.441955],[-77.72008,39.44513],[-77.7179,39.44621],[-77.71619,39.44822],[-77.71358,39.44716],[-77.71169,39.45037],[-77.710089,39.449983],[-77.706581,39.447902],[-77.708555,39.434068],[-77.710508,39.432476],[-77.709708,39.4305],[-77.711072,39.424873],[-77.708926,39.422359],[-77.705664,39.422448],[-77.704148,39.420422],[-77.70518,39.415293],[-77.705674,39.410931],[-77.712486,39.404085],[-77.71855,39.399782],[-77.721679,39.394795],[-77.724259,39.389387],[-77.722327,39.387422],[-77.717734,39.38425],[-77.715534,39.384032],[-77.713151,39.385443],[-77.712749,39.387183],[-77.709248,39.39076],[-77.706081,39.389255],[-77.707505,39.386689],[-77.691686,39.386905],[-77.690185,39.38713],[-77.686967,39.391209],[-77.685638,39.395492],[-77.683274,39.398871],[-77.683031,39.400614],[-77.683872,39.403455],[-77.671065,39.415398],[-77.672951,39.420109],[-77.674246,39.421713],[-77.670044,39.42457],[-77.667949,39.425104],[-77.667347,39.427899],[-77.66812,39.428482],[-77.667159,39.429946],[-77.66641,39.43287],[-77.665943,39.437227],[-77.667364,39.437799],[-77.671594,39.437455],[-77.67248,39.43872],[-77.670819,39.439358],[-77.67158,39.440217],[-77.670451,39.44198],[-77.667167,39.441098],[-77.666612,39.441915],[-77.664397,39.441823],[-77.66524,39.448366],[-77.669046,39.448403],[-77.671239,39.44965],[-77.670653,39.451593],[-77.671551,39.454645],[-77.672549,39.456234],[-77.66879,39.45543],[-77.665062,39.453915],[-77.662585,39.459806],[-77.657574,39.467394],[-77.655416,39.472941],[-77.659474,39.4719],[-77.660435,39.475036],[-77.659577,39.47676],[-77.657827,39.477528],[-77.664284,39.481673],[-77.665053,39.482888],[-77.66841,39.48237],[-77.67167,39.4786],[-77.674008,39.476637],[-77.674785,39.4773],[-77.677675,39.47736],[-77.678677,39.47673],[-77.68681,39.477],[-77.687925,39.47676],[-77.689782,39.480117],[-77.690355,39.484601],[-77.6911,39.487666],[-77.68966,39.48733],[-77.685395,39.489736],[-77.695743,39.496262],[-77.701455,39.492526],[-77.702722,39.495696],[-77.7062,39.4975],[-77.707765,39.500099],[-77.710398,39.502629],[-77.71826,39.5069],[-77.718856,39.507943],[-77.717954,39.511507],[-77.717801,39.515281],[-77.720073,39.514201],[-77.72376,39.51423],[-77.7242,39.51217],[-77.72381,39.50941],[-77.72549,39.50396],[-77.73334,39.50427]]]}},{"type":"Feature","properties":{"zcta5":"21781","AFFGEOID10":"8600000US21781","GEOID10":"21781","ALAND10":656098,"AWATER10":0,"county_name":"Washington","state_code":"MD","county_state":"Washington County, MD","county_fips":"24043","risk_level_county":"Medium Risk (70–79% vaccinated)","mean_vaccination_rate_county":73.06,"risk_level_zcta":"Uninhabited","mean_vaccination_rate_zips":null,"cases":11},"geometry":{"type":"Polygon","coordinates":[[[-77.755853,39.570545],[-77.756602,39.570879],[-77.75554,39.57627],[-77.760608,39.576693],[-77.76079,39.57549],[-77.76552,39.56861],[-77.756603,39.565042],[-77.75719,39.567384],[-77.755954,39.569898],[-77.755853,39.570545]]]}},{"type":"Feature","properties":{"zcta5":"21795","AFFGEOID10":"8600000US21795","GEOID10":"21795","ALAND10":78237901,"AWATER10":4401682,"county_name":"Washington","state_code":"MD","county_state":"Washington County, MD","county_fips":"24043","risk_level_county":"Medium Risk (70–79% vaccinated)","mean_vaccination_rate_county":73.06,"risk_level_zcta":"Lower Risk (80–84% vaccinated)","mean_vaccination_rate_zips":83.71,"cases":11},"geometry":{"type":"Polygon","coordinates":[[[-77.8667612159463,39.6105636695977],[-77.8578,39.60788],[-77.853436,39.607117],[-77.842785,39.607255],[-77.838008,39.606125],[-77.833568,39.602936],[-77.831813,39.601105],[-77.83164721811309,39.60029580734349],[-77.83007066657639,39.5926005521484],[-77.829753,39.59105],[-77.829814,39.587288],[-77.830775,39.581178],[-77.833217,39.571016],[-77.83633,39.56637],[-77.842174,39.564333],[-77.855847,39.564607],[-77.865734,39.563547],[-77.872723,39.563895],[-77.878451,39.563493],[-77.8806510292637,39.5626165958386],[-77.886135,39.560432],[-77.887968,39.559198],[-77.888648,39.558054],[-77.888945,39.55595],[-77.886436,39.551947],[-77.88312995925969,39.5502460724247],[-77.87153,39.544278],[-77.865351,39.538381],[-77.864434,39.536483],[-77.864315,39.534813],[-77.865078,39.528226],[-77.866138,39.524727],[-77.866518,39.520039],[-77.866132,39.517661],[-77.86368,39.515032],[-77.860195,39.514325],[-77.850747,39.515403],[-77.84192,39.51847],[-77.840651,39.520941],[-77.840536,39.529196],[-77.839061,39.531117],[-77.836935,39.53217],[-77.833509,39.532628],[-77.827188,39.530458],[-77.825357,39.529177],[-77.8250793452803,39.5286077643051],[-77.823416,39.529134],[-77.822145,39.525767],[-77.822144,39.522408],[-77.81824,39.52338],[-77.81468,39.52371],[-77.81144,39.525351],[-77.80281,39.52558],[-77.798476,39.52589],[-77.792213,39.531851],[-77.794579,39.533989],[-77.79228,39.53701],[-77.79077,39.53989],[-77.800343,39.544335],[-77.797632,39.546153],[-77.797142,39.547839],[-77.79637,39.54708],[-77.782868,39.54217],[-77.777699,39.554747],[-77.776803,39.557649],[-77.774798,39.561342],[-77.777955,39.56252],[-77.790128,39.565658],[-77.785731,39.570494],[-77.781857,39.576383],[-77.778787,39.580323],[-77.785402,39.585523],[-77.7676,39.600778],[-77.76602,39.59999],[-77.76438,39.60111],[-77.755538,39.605056],[-77.754405,39.606385],[-77.761978,39.606239],[-77.761315,39.606881],[-77.76564,39.60688],[-77.76783,39.609443],[-77.770102,39.610004],[-77.770276,39.611146],[-77.77223,39.612168],[-77.772099,39.613236],[-77.774175,39.613944],[-77.77262,39.61581],[-77.775284,39.615048],[-77.77657,39.616405],[-77.780448,39.616227],[-77.781895,39.617133],[-77.782407,39.61865],[-77.78776,39.61627],[-77.79435,39.61471],[-77.79804,39.61283],[-77.80045,39.61051],[-77.802556,39.606876],[-77.80176,39.6094],[-77.80145,39.61301],[-77.801916,39.613677],[-77.804308,39.61354],[-77.80755,39.61522],[-77.80996,39.61569],[-77.79191,39.62274],[-77.8097,39.63003],[-77.80998,39.62887],[-77.807534,39.628693],[-77.808141,39.626917],[-77.810314,39.627439],[-77.81146,39.62524],[-77.81174,39.62181],[-77.815555,39.621665],[-77.81573,39.62262],[-77.81694,39.62411],[-77.81869,39.6273],[-77.819308,39.62971],[-77.82044,39.63135],[-77.82063,39.63508],[-77.82189,39.63594],[-77.822308,39.637435],[-77.82639,39.63941],[-77.82961,39.641669],[-77.8287,39.642806],[-77.828332,39.64572],[-77.830626,39.647142],[-77.833082,39.647372],[-77.836448,39.648633],[-77.842676,39.650021],[-77.846539,39.652286],[-77.848295,39.656325],[-77.848106,39.657252],[-77.8505,39.65715],[-77.85071,39.65593],[-77.853266,39.649743],[-77.855038,39.6486],[-77.856893,39.650364],[-77.86499,39.65045],[-77.877584,39.650957],[-77.880032,39.635043],[-77.865674,39.631502],[-77.867594,39.625055],[-77.865636,39.623994],[-77.86584,39.621016],[-77.86497,39.6207],[-77.86695,39.61574],[-77.865392,39.613132],[-77.86545,39.611845],[-77.8667612159463,39.6105636695977]]]}},{"type":"Feature","properties":{"zcta5":"21783","AFFGEOID10":"8600000US21783","GEOID10":"21783","ALAND10":116294508,"AWATER10":140918,"county_name":"Washington","state_code":"MD","county_state":"Washington County, MD","county_fips":"24043","risk_level_county":"Medium Risk (70–79% vaccinated)","mean_vaccination_rate_county":73.06,"risk_level_zcta":"Lower Risk (80–84% vaccinated)","mean_vaccination_rate_zips":81.67,"cases":11},"geometry":{"type":"Polygon","coordinates":[[[-77.56742114839349,39.7202869923236],[-77.56708,39.71853],[-77.565643,39.71869],[-77.565646,39.711883],[-77.56791,39.71167],[-77.56669,39.71097],[-77.56689,39.70958],[-77.56896,39.70785],[-77.57294,39.70783],[-77.57317,39.70499],[-77.57277,39.70116],[-77.57525,39.69109],[-77.575163,39.688201],[-77.579385,39.68833],[-77.580877,39.687506],[-77.582497,39.687676],[-77.5869,39.68586],[-77.59138,39.68313],[-77.59387,39.68022],[-77.602601,39.681866],[-77.60581,39.67914],[-77.60807,39.68242],[-77.60906,39.68203],[-77.61218,39.67826],[-77.61677,39.67525],[-77.6172,39.67336],[-77.61604,39.67256],[-77.61911,39.6675],[-77.62086,39.66388],[-77.61193,39.659668],[-77.611062,39.655451],[-77.613988,39.65529],[-77.617268,39.653751],[-77.618986,39.653602],[-77.620599,39.654715],[-77.62273,39.655038],[-77.623994,39.653922],[-77.624712,39.655723],[-77.626112,39.656041],[-77.627282,39.657822],[-77.63052,39.65951],[-77.634376,39.659591],[-77.638367,39.660289],[-77.64334,39.64363],[-77.6439,39.64311],[-77.64418,39.64291],[-77.6445,39.64289],[-77.647347,39.642917],[-77.6475,39.64289],[-77.6431,39.64183],[-77.64328,39.64113],[-77.64625,39.63693],[-77.64957,39.63355],[-77.65113,39.63074],[-77.64696,39.62686],[-77.64557,39.62525],[-77.63655,39.62317],[-77.63332,39.62919],[-77.63099,39.6347],[-77.62708,39.63246],[-77.62538,39.63044],[-77.61743,39.62608],[-77.61253,39.6247],[-77.6087,39.62272],[-77.607542,39.624199],[-77.60343,39.62557],[-77.60065,39.6248],[-77.597349,39.624601],[-77.596457,39.622009],[-77.590004,39.618876],[-77.585819,39.618724],[-77.573722,39.613037],[-77.570182,39.619998],[-77.559097,39.623034],[-77.561583,39.617328],[-77.562271,39.614717],[-77.563415,39.613641],[-77.563923,39.610869],[-77.565236,39.608547],[-77.568704,39.603686],[-77.569661,39.598258],[-77.57068,39.594483],[-77.570478,39.588661],[-77.560853,39.589124],[-77.561958,39.583431],[-77.56024,39.580396],[-77.558069,39.579008],[-77.553919,39.57791],[-77.553755,39.579008],[-77.551307,39.580434],[-77.546613,39.585083],[-77.545577,39.586594],[-77.541493,39.588802],[-77.540804,39.59014],[-77.540609,39.593431],[-77.540047,39.592459],[-77.540154,39.589881],[-77.542013,39.587637],[-77.527577,39.593422],[-77.525252,39.598396],[-77.524797,39.601047],[-77.522134,39.60421],[-77.503896,39.598898],[-77.504266,39.600287],[-77.502221,39.60301],[-77.500447,39.607075],[-77.501675,39.611547],[-77.50019,39.613958],[-77.495922,39.618019],[-77.491907,39.620783],[-77.491411,39.621526],[-77.486786,39.617584],[-77.486284,39.614785],[-77.486373,39.611327],[-77.48532,39.610274],[-77.481605,39.609176],[-77.478667,39.609896],[-77.476263,39.611857],[-77.474667,39.613839],[-77.472716,39.615289],[-77.470347,39.618298],[-77.466751,39.619597],[-77.466476,39.62252],[-77.46471,39.625281],[-77.462285,39.625318],[-77.460286,39.627124],[-77.459821,39.631328],[-77.464762,39.631035],[-77.468097,39.63218],[-77.468559,39.633774],[-77.471088,39.632617],[-77.47374,39.632412],[-77.477171,39.633866],[-77.481413,39.636226],[-77.48857,39.637019],[-77.489428,39.636256],[-77.492176,39.636342],[-77.495775,39.635056],[-77.499061,39.63551],[-77.503979,39.630966],[-77.515792,39.633766],[-77.516346,39.635473],[-77.518123,39.635523],[-77.520821,39.632746],[-77.521118,39.631142],[-77.524188,39.632444],[-77.52499,39.629935],[-77.53042,39.623854],[-77.531539,39.622207],[-77.535469,39.63165],[-77.53276,39.631183],[-77.530357,39.63169],[-77.526138,39.635231],[-77.52655,39.636703],[-77.522888,39.639244],[-77.520164,39.640678],[-77.517234,39.644714],[-77.516113,39.647003],[-77.513236,39.649917],[-77.513229,39.651344],[-77.512077,39.654205],[-77.508262,39.658866],[-77.504508,39.661692],[-77.504783,39.662979],[-77.509211,39.66191],[-77.5138,39.66278],[-77.51616,39.66289],[-77.514471,39.664943],[-77.51138,39.66708],[-77.510486,39.669125],[-77.506222,39.671961],[-77.503308,39.673025],[-77.500765,39.676441],[-77.496199,39.682008],[-77.497082,39.683133],[-77.499708,39.684061],[-77.50836,39.684072],[-77.51288,39.68277],[-77.509562,39.686183],[-77.506991,39.690121],[-77.508946,39.688033],[-77.511879,39.689886],[-77.509026,39.693341],[-77.506145,39.696184],[-77.510899,39.698378],[-77.509626,39.699287],[-77.51255,39.700471],[-77.512072,39.70468],[-77.510329,39.705832],[-77.515702,39.706761],[-77.51507,39.70729],[-77.522089,39.707953],[-77.52378,39.70849],[-77.52021,39.71032],[-77.51885,39.71212],[-77.51713,39.71296],[-77.51332,39.71308],[-77.51161,39.71355],[-77.50951,39.7175],[-77.50690963050779,39.7201044354107],[-77.5225830742969,39.7201403086744],[-77.5266890422751,39.7201497063839],[-77.533371,39.720165],[-77.534758,39.720134],[-77.56742114839349,39.7202869923236]]]}},{"type":"Feature","properties":{"zcta5":"21750","AFFGEOID10":"8600000US21750","GEOID10":"21750","ALAND10":156355398,"AWATER10":4205420,"county_name":"Washington","state_code":"MD","county_state":"Washington County, MD","county_fips":"24043","risk_level_county":"Medium Risk (70–79% vaccinated)","mean_vaccination_rate_county":73.06,"risk_level_zcta":"Lower Risk (80–84% vaccinated)","mean_vaccination_rate_zips":83.09,"cases":11},"geometry":{"type":"Polygon","coordinates":[[[-78.34283416608379,39.7225388108199],[-78.343666,39.721723],[-78.346047,39.721478],[-78.342962,39.717196],[-78.340186,39.716157],[-78.338686,39.716487],[-78.33587,39.72011],[-78.333801,39.719379],[-78.33151,39.714511],[-78.329033,39.712258],[-78.330754,39.711251],[-78.3339,39.71269],[-78.334294,39.709861],[-78.327629,39.707479],[-78.323438,39.705153],[-78.320893,39.702987],[-78.318364,39.702622],[-78.317449,39.699177],[-78.319661,39.696441],[-78.319474,39.695071],[-78.317085,39.693313],[-78.314673,39.693768],[-78.313325,39.692474],[-78.316314,39.68928],[-78.319173,39.689144],[-78.322235,39.689544],[-78.323057,39.688354],[-78.321424,39.687213],[-78.316764,39.686693],[-78.315192,39.685887],[-78.314913,39.684504],[-78.316711,39.683168],[-78.319099,39.683513],[-78.321626,39.684592],[-78.322879,39.683861],[-78.321625,39.682157],[-78.318662,39.682133],[-78.318009,39.680515],[-78.321047,39.678945],[-78.319677,39.677286],[-78.320177,39.676136],[-78.324531,39.677593],[-78.326782,39.676475],[-78.329185,39.677883],[-78.338073,39.679977],[-78.341847,39.67785],[-78.343478,39.675535],[-78.340948,39.673364],[-78.340188,39.671984],[-78.335923,39.670353],[-78.335348,39.667406],[-78.333192,39.66641],[-78.333556,39.663157],[-78.334139,39.662397],[-78.338855,39.663989],[-78.342345,39.663131],[-78.344213,39.661843],[-78.349288,39.66057],[-78.353721,39.66142],[-78.356139,39.663834],[-78.357089,39.663861],[-78.356326,39.661538],[-78.354698,39.66044],[-78.357112,39.659465],[-78.362258,39.660965],[-78.363458,39.659793],[-78.362395,39.658479],[-78.359294,39.657275],[-78.357049,39.657645],[-78.35565,39.656138],[-78.353183,39.655278],[-78.347071,39.654443],[-78.344237,39.653131],[-78.340024,39.652748],[-78.339617,39.652072],[-78.340397,39.648733],[-78.345505,39.649752],[-78.346031,39.649174],[-78.342029,39.643881],[-78.336266,39.642439],[-78.33371,39.640928],[-78.334228,39.638594],[-78.33388026831301,39.6364859193412],[-78.331934,39.636054],[-78.313033,39.631001],[-78.308152,39.629606],[-78.283039,39.62047],[-78.28267271486979,39.6204445502989],[-78.271122,39.619642],[-78.266833,39.618818],[-78.265088,39.619274],[-78.263371,39.621675],[-78.263344,39.626417],[-78.262189,39.630464],[-78.254077,39.640089],[-78.246722,39.644758],[-78.238059,39.652081],[-78.227677,39.656796],[-78.225075,39.658878],[-78.223597,39.661097],[-78.223864,39.662607],[-78.233012,39.670471],[-78.233138,39.672875],[-78.231564,39.674382],[-78.227333,39.676121],[-78.206763,39.67599],[-78.202945,39.676653],[-78.201081,39.677866],[-78.196701,39.682074],[-78.192439,39.689118],[-78.191107,39.690262],[-78.182759,39.69511],[-78.176625,39.695967],[-78.171361,39.695612],[-78.162126,39.693643],[-78.154164,39.690531],[-78.143478,39.690412],[-78.135221,39.688305],[-78.132706,39.686977],[-78.123939,39.685652],[-78.11183,39.682593],[-78.107834,39.682137],[-78.101737,39.680286],[-78.097118,39.678161],[-78.089835,39.671668],[-78.088592,39.671211],[-78.0856799338741,39.6711903046469],[-78.08226,39.671166],[-78.077525,39.66888],[-78.074595,39.666686],[-78.068291,39.66106],[-78.051932,39.648207],[-78.05156254360018,39.647674252073294],[-78.05212,39.648877],[-78.051458,39.650455],[-78.046615,39.651689],[-78.048824,39.653576],[-78.05833,39.65932],[-78.063022,39.662956],[-78.060611,39.666551],[-78.05912,39.66994],[-78.0589,39.67342],[-78.057173,39.675401],[-78.05586,39.6751],[-78.05613,39.67234],[-78.054409,39.671559],[-78.052167,39.673111],[-78.051106,39.677785],[-78.052453,39.678045],[-78.056803,39.683479],[-78.056625,39.686853],[-78.05747,39.68836],[-78.059652,39.689713],[-78.060864,39.691635],[-78.061055,39.693721],[-78.062618,39.694815],[-78.061025,39.696098],[-78.055991,39.695187],[-78.053159,39.694331],[-78.047941,39.695699],[-78.045477,39.697271],[-78.039904,39.704074],[-78.039258,39.706084],[-78.039474,39.709225],[-78.040882,39.710666],[-78.045594,39.719136],[-78.045417,39.720807],[-78.0464909914103,39.7223009946999],[-78.073736,39.722314],[-78.075771,39.722301],[-78.0991400639512,39.7223221403225],[-78.1406170116908,39.7223596615536],[-78.1761508273421,39.72239180645779],[-78.202895,39.722416],[-78.20445,39.72252],[-78.240334,39.722498],[-78.243103,39.722481],[-78.268948,39.72259],[-78.26902,39.722613],[-78.330715,39.722689],[-78.337111,39.722461],[-78.339539,39.722552],[-78.340498,39.722514],[-78.34252,39.722539],[-78.34283416608379,39.7225388108199]]]}},{"type":"Feature","properties":{"zcta5":"21758","AFFGEOID10":"8600000US21758","GEOID10":"21758","ALAND10":84021200,"AWATER10":6270059,"county_name":"Washington","state_code":"MD","county_state":"Washington County, MD","county_fips":"24043","risk_level_county":"Medium Risk (70–79% vaccinated)","mean_vaccination_rate_county":73.06,"risk_level_zcta":"Medium Risk (70–79% vaccinated)","mean_vaccination_rate_zips":77.15,"cases":11},"geometry":{"type":"Polygon","coordinates":[[[-77.73690051241029,39.38723776088],[-77.738084,39.386211],[-77.740765,39.385409],[-77.749715,39.384171],[-77.752209,39.383328],[-77.753389,39.382094],[-77.753804,39.379624],[-77.753274,39.37832],[-77.744144,39.365139],[-77.743874,39.359947],[-77.74593,39.353221],[-77.750387,39.34945],[-77.759315,39.345314],[-77.760435,39.344171],[-77.761084,39.342524],[-77.761115,39.339757],[-77.759615,39.337331],[-77.755789,39.333899],[-77.735009,39.327015],[-77.730914,39.324684],[-77.727379,39.321666],[-77.719519,39.321314],[-77.715865,39.320641],[-77.707709,39.321559],[-77.697461,39.318633],[-77.692984,39.31845],[-77.687124,39.319914],[-77.681706,39.323666],[-77.6791207675353,39.3238980532895],[-77.67712301274629,39.32407737394119],[-77.675846,39.324192],[-77.671341,39.321675],[-77.66613,39.317008],[-77.650997,39.310784],[-77.6456353941699,39.3095115255599],[-77.645374,39.309809],[-77.643318,39.31443],[-77.642415,39.316658],[-77.642038,39.317519],[-77.642469,39.317636],[-77.642278,39.318061],[-77.648346,39.320151],[-77.65068,39.320932],[-77.649693,39.324363],[-77.646917,39.323083],[-77.641595,39.321408],[-77.641365,39.321964],[-77.642412,39.322775],[-77.646699,39.323787],[-77.644058,39.327228],[-77.643577,39.328876],[-77.64492,39.330062],[-77.64212,39.333386],[-77.639991,39.331996],[-77.640625,39.330108],[-77.63887,39.328582],[-77.639978,39.330506],[-77.637722,39.33264],[-77.633732,39.330968],[-77.629926,39.330119],[-77.623901,39.326004],[-77.617391,39.323808],[-77.615971,39.322622],[-77.614782,39.319626],[-77.611697,39.317446],[-77.607198,39.319999],[-77.606207,39.318697],[-77.602088,39.315505],[-77.596936,39.3151],[-77.596854,39.314147],[-77.590841,39.313244],[-77.589573,39.312313],[-77.59028,39.311143],[-77.589023,39.310528],[-77.589986,39.307973],[-77.589392,39.30741],[-77.586825,39.309352],[-77.584725,39.306304],[-77.5830918701483,39.303682572250004],[-77.578491,39.305228],[-77.570041,39.30635],[-77.566596,39.306121],[-77.5658310251171,39.3056199030448],[-77.565709,39.308196],[-77.568722,39.311538],[-77.569369,39.314079],[-77.568613,39.315819],[-77.566846,39.315814],[-77.565935,39.316692],[-77.569822,39.319486],[-77.566578,39.321084],[-77.567639,39.321797],[-77.570508,39.322209],[-77.571194,39.323235],[-77.569618,39.325283],[-77.564664,39.326673],[-77.563003,39.328018],[-77.563186,39.32905],[-77.570355,39.332755],[-77.572348,39.332233],[-77.577649,39.331744],[-77.5804,39.333461],[-77.581736,39.335498],[-77.57997,39.338957],[-77.577111,39.343451],[-77.579605,39.346214],[-77.580058,39.348311],[-77.578128,39.349646],[-77.576276,39.349937],[-77.57272,39.351606],[-77.571496,39.355528],[-77.573879,39.354833],[-77.577776,39.354751],[-77.58253,39.356054],[-77.590666,39.353141],[-77.59102,39.355912],[-77.600517,39.354436],[-77.61565,39.351641],[-77.610407,39.362979],[-77.610935,39.363828],[-77.607835,39.364118],[-77.605694,39.36565],[-77.602514,39.369555],[-77.60842,39.371013],[-77.610756,39.373356],[-77.612539,39.37403],[-77.614595,39.37393],[-77.614809,39.365716],[-77.625921,39.366017],[-77.636685,39.367008],[-77.636858,39.368021],[-77.642676,39.368614],[-77.644112,39.367463],[-77.656177,39.368397],[-77.657701,39.366948],[-77.658843,39.365437],[-77.661778,39.365902],[-77.663411,39.371283],[-77.658358,39.373658],[-77.655486,39.379817],[-77.65539,39.382169],[-77.653151,39.385716],[-77.654042,39.388914],[-77.656244,39.389471],[-77.65795,39.38617],[-77.65953,39.38437],[-77.66378,39.38116],[-77.666421,39.382475],[-77.664486,39.385011],[-77.664935,39.387264],[-77.664502,39.388864],[-77.662169,39.391941],[-77.662223,39.395688],[-77.66048,39.399437],[-77.66055,39.40166],[-77.662655,39.402448],[-77.662027,39.403644],[-77.665709,39.404751],[-77.6645,39.406041],[-77.667808,39.408396],[-77.669717,39.410769],[-77.671065,39.415398],[-77.683872,39.403455],[-77.683031,39.400614],[-77.683274,39.398871],[-77.685638,39.395492],[-77.686967,39.391209],[-77.690185,39.38713],[-77.691668,39.385944],[-77.695332,39.380647],[-77.698634,39.375099],[-77.702083,39.370664],[-77.703072,39.368867],[-77.714609,39.368999],[-77.718132,39.370021],[-77.72055,39.37178],[-77.72232,39.37515],[-77.725579,39.377845],[-77.727661,39.37547],[-77.729732,39.374753],[-77.732289,39.371217],[-77.734191,39.369487],[-77.7362,39.370249],[-77.737435,39.367532],[-77.740821,39.365592],[-77.74028,39.36343],[-77.742032,39.367644],[-77.744318,39.370338],[-77.750292,39.378615],[-77.750941,39.380745],[-77.748248,39.382608],[-77.744542,39.383296],[-77.741119,39.383512],[-77.737724,39.384194],[-77.734482,39.386698],[-77.73690051241029,39.38723776088]]]}},{"type":"Feature","properties":{"zcta5":"21769","AFFGEOID10":"8600000US21769","GEOID10":"21769","ALAND10":105655744,"AWATER10":733482,"county_name":"Washington","state_code":"MD","county_state":"Washington County, MD","county_fips":"24043","risk_level_county":"Medium Risk (70–79% vaccinated)","mean_vaccination_rate_county":73.06,"risk_level_zcta":"Lower Risk (80–84% vaccinated)","mean_vaccination_rate_zips":80.87,"cases":11},"geometry":{"type":"Polygon","coordinates":[[[-77.621025,39.464981],[-77.621734,39.463962],[-77.621856,39.459674],[-77.626811,39.457106],[-77.628554,39.451547],[-77.626518,39.448455],[-77.629264,39.4486],[-77.633842,39.446819],[-77.634689,39.445549],[-77.634628,39.443016],[-77.637008,39.438529],[-77.637969,39.434665],[-77.637725,39.432086],[-77.638305,39.430324],[-77.637741,39.424823],[-77.638076,39.422779],[-77.639793,39.416881],[-77.640922,39.414733],[-77.640037,39.408428],[-77.63932,39.407356],[-77.640068,39.405767],[-77.637082,39.407294],[-77.635003,39.412097],[-77.631755,39.41264],[-77.630897,39.414891],[-77.627616,39.416538],[-77.622515,39.41703],[-77.623878,39.419054],[-77.622202,39.420182],[-77.598707,39.425253],[-77.592297,39.419949],[-77.59304,39.4195],[-77.595468,39.415949],[-77.599712,39.412823],[-77.603569,39.410908],[-77.60657,39.408461],[-77.604929,39.406351],[-77.603124,39.40605],[-77.602509,39.407016],[-77.600184,39.406554],[-77.596914,39.408641],[-77.59304,39.409693],[-77.584629,39.411334],[-77.580053,39.399831],[-77.58155,39.398262],[-77.581193,39.394701],[-77.581971,39.39114],[-77.584296,39.389459],[-77.583729,39.38865],[-77.579088,39.389829],[-77.578393,39.389385],[-77.577427,39.383006],[-77.576999,39.37705],[-77.578052,39.374833],[-77.575113,39.373625],[-77.572182,39.369388],[-77.570575,39.368427],[-77.569034,39.368665],[-77.570609,39.370107],[-77.570079,39.372232],[-77.565765,39.37221],[-77.564336,39.372951],[-77.560637,39.373561],[-77.559456,39.372622],[-77.560065,39.375238],[-77.562825,39.376929],[-77.561805,39.378415],[-77.559303,39.378919],[-77.556275,39.380969],[-77.554401,39.387333],[-77.551752,39.389725],[-77.552672,39.394302],[-77.551379,39.397688],[-77.547095,39.396275],[-77.5393,39.39331],[-77.539992,39.398044],[-77.542025,39.405488],[-77.538652,39.404184],[-77.536925,39.404985],[-77.529772,39.402387],[-77.52702,39.401711],[-77.523485,39.402048],[-77.525547,39.407234],[-77.513991,39.406168],[-77.511887,39.41532],[-77.51126,39.412727],[-77.507274,39.414729],[-77.50698,39.416702],[-77.506542,39.418368],[-77.505149,39.419855],[-77.504482,39.420226],[-77.506716,39.420909],[-77.507354,39.422007],[-77.504581,39.424842],[-77.505364,39.425619],[-77.504066,39.426892],[-77.504577,39.429075],[-77.504123,39.431235],[-77.505264,39.431147],[-77.504356,39.435144],[-77.504605,39.436651],[-77.507033,39.437978],[-77.504616,39.453452],[-77.504919,39.454097],[-77.508457,39.457692],[-77.507354,39.459804],[-77.505103,39.460798],[-77.498489,39.458923],[-77.495124,39.456737],[-77.494854,39.458486],[-77.490819,39.459649],[-77.489845,39.458992],[-77.489419,39.460543],[-77.490925,39.461837],[-77.493655,39.463321],[-77.495095,39.465428],[-77.495818,39.467239],[-77.494703,39.469763],[-77.493612,39.473625],[-77.492431,39.475213],[-77.492509,39.478047],[-77.49343,39.479665],[-77.496283,39.481282],[-77.497594,39.483004],[-77.507403,39.48254],[-77.507998,39.485166],[-77.507607,39.491219],[-77.507941,39.491981],[-77.509181,39.49216],[-77.511007,39.495878],[-77.512997,39.497564],[-77.51474,39.497663],[-77.518192,39.496188],[-77.520296,39.49677],[-77.523896,39.495964],[-77.526602,39.495965],[-77.530309,39.492436],[-77.533733,39.488215],[-77.532685,39.485009],[-77.532693,39.482643],[-77.537404,39.481428],[-77.541216,39.479185],[-77.541217,39.476287],[-77.538809,39.475221],[-77.540765,39.472114],[-77.543967,39.470336],[-77.549499,39.475177],[-77.554585,39.475513],[-77.559066,39.481168],[-77.563358,39.482555],[-77.565188,39.485641],[-77.566926,39.487678],[-77.569158,39.486857],[-77.570483,39.489561],[-77.572031,39.490024],[-77.571233,39.491751],[-77.571519,39.49323],[-77.574728,39.493148],[-77.577569,39.493949],[-77.580058,39.492144],[-77.581941,39.491517],[-77.584151,39.49168],[-77.583842,39.490081],[-77.594126,39.493513],[-77.606323,39.500392],[-77.610419,39.501016],[-77.614911,39.500186],[-77.613829,39.505746],[-77.609926,39.509261],[-77.605418,39.512846],[-77.604649,39.513018],[-77.605804,39.512993],[-77.60849,39.510891],[-77.614906,39.509926],[-77.616839,39.508607],[-77.618766,39.504041],[-77.621075,39.504755],[-77.623161,39.501148],[-77.623008,39.499898],[-77.620437,39.497425],[-77.623147,39.498622],[-77.625088,39.496303],[-77.626754,39.497142],[-77.627028,39.496303],[-77.63059,39.491496],[-77.62948,39.48721],[-77.625461,39.487975],[-77.623496,39.4901],[-77.621428,39.496139],[-77.619902,39.49689],[-77.61441,39.491551],[-77.614997,39.490242],[-77.618537,39.485996],[-77.621078,39.484325],[-77.622024,39.481754],[-77.620666,39.47789],[-77.61869,39.476043],[-77.616049,39.469157],[-77.616156,39.468371],[-77.618453,39.466197],[-77.621025,39.464981]]]}},{"type":"Feature","properties":{"zcta5":"21779","AFFGEOID10":"8600000US21779","GEOID10":"21779","ALAND10":23210302,"AWATER10":0,"county_name":"Washington","state_code":"MD","county_state":"Washington County, MD","county_fips":"24043","risk_level_county":"Medium Risk (70–79% vaccinated)","mean_vaccination_rate_county":73.06,"risk_level_zcta":"Medium Risk (70–79% vaccinated)","mean_vaccination_rate_zips":73.91,"cases":11},"geometry":{"type":"Polygon","coordinates":[[[-77.657574,39.467394],[-77.662585,39.459806],[-77.665062,39.453915],[-77.66879,39.45543],[-77.672549,39.456234],[-77.671551,39.454645],[-77.670653,39.451593],[-77.671239,39.44965],[-77.669046,39.448403],[-77.66524,39.448366],[-77.664397,39.441823],[-77.666612,39.441915],[-77.667167,39.441098],[-77.670451,39.44198],[-77.67158,39.440217],[-77.670819,39.439358],[-77.67248,39.43872],[-77.671594,39.437455],[-77.667364,39.437799],[-77.665943,39.437227],[-77.66641,39.43287],[-77.667159,39.429946],[-77.66812,39.428482],[-77.667347,39.427899],[-77.667949,39.425104],[-77.670044,39.42457],[-77.674246,39.421713],[-77.672951,39.420109],[-77.671065,39.415398],[-77.669717,39.410769],[-77.667808,39.408396],[-77.6645,39.406041],[-77.665709,39.404751],[-77.662027,39.403644],[-77.662655,39.402448],[-77.66055,39.40166],[-77.66048,39.399437],[-77.662223,39.395688],[-77.662169,39.391941],[-77.664502,39.388864],[-77.664935,39.387264],[-77.664486,39.385011],[-77.666421,39.382475],[-77.66378,39.38116],[-77.65953,39.38437],[-77.65795,39.38617],[-77.656244,39.389471],[-77.654042,39.388914],[-77.653151,39.385716],[-77.65539,39.382169],[-77.655486,39.379817],[-77.658358,39.373658],[-77.663411,39.371283],[-77.661778,39.365902],[-77.658843,39.365437],[-77.657701,39.366948],[-77.656177,39.368397],[-77.654334,39.371422],[-77.651552,39.375112],[-77.649694,39.380631],[-77.647857,39.383247],[-77.647079,39.387229],[-77.646086,39.390315],[-77.645333,39.391389],[-77.640411,39.402538],[-77.640068,39.405767],[-77.63932,39.407356],[-77.640037,39.408428],[-77.640922,39.414733],[-77.639793,39.416881],[-77.638076,39.422779],[-77.637741,39.424823],[-77.638305,39.430324],[-77.637725,39.432086],[-77.637969,39.434665],[-77.637008,39.438529],[-77.634628,39.443016],[-77.634689,39.445549],[-77.633842,39.446819],[-77.629264,39.4486],[-77.626518,39.448455],[-77.628554,39.451547],[-77.626811,39.457106],[-77.621856,39.459674],[-77.621734,39.463962],[-77.621025,39.464981],[-77.622771,39.46707],[-77.632015,39.466745],[-77.633636,39.46331],[-77.633985,39.461536],[-77.63787,39.45875],[-77.6412,39.45541],[-77.64318,39.45631],[-77.6475,39.4552],[-77.648119,39.458412],[-77.649485,39.459378],[-77.648414,39.462523],[-77.647585,39.463445],[-77.647583,39.465864],[-77.649899,39.467417],[-77.653121,39.467877],[-77.657574,39.467394]]]}},{"type":"Feature","properties":{"zcta5":"21780","AFFGEOID10":"8600000US21780","GEOID10":"21780","ALAND10":58241150,"AWATER10":39449,"county_name":"Washington","state_code":"MD","county_state":"Washington County, MD","county_fips":"24043","risk_level_county":"Medium Risk (70–79% vaccinated)","mean_vaccination_rate_county":73.06,"risk_level_zcta":"Lowest Risk (85%+)","mean_vaccination_rate_zips":86.16,"cases":11},"geometry":{"type":"Polygon","coordinates":[[[-77.50836,39.684072],[-77.499708,39.684061],[-77.497082,39.683133],[-77.496199,39.682008],[-77.500765,39.676441],[-77.503308,39.673025],[-77.506222,39.671961],[-77.510486,39.669125],[-77.51138,39.66708],[-77.514471,39.664943],[-77.51616,39.66289],[-77.5138,39.66278],[-77.509211,39.66191],[-77.504783,39.662979],[-77.504508,39.661692],[-77.508262,39.658866],[-77.512077,39.654205],[-77.513229,39.651344],[-77.513236,39.649917],[-77.516113,39.647003],[-77.517234,39.644714],[-77.520164,39.640678],[-77.522888,39.639244],[-77.52655,39.636703],[-77.526138,39.635231],[-77.530357,39.63169],[-77.53276,39.631183],[-77.535469,39.63165],[-77.531539,39.622207],[-77.53042,39.623854],[-77.52499,39.629935],[-77.524188,39.632444],[-77.521118,39.631142],[-77.520821,39.632746],[-77.518123,39.635523],[-77.516346,39.635473],[-77.515792,39.633766],[-77.503979,39.630966],[-77.499061,39.63551],[-77.495775,39.635056],[-77.492176,39.636342],[-77.489428,39.636256],[-77.48857,39.637019],[-77.481413,39.636226],[-77.477171,39.633866],[-77.47374,39.632412],[-77.471088,39.632617],[-77.468559,39.633774],[-77.468097,39.63218],[-77.464762,39.631035],[-77.459821,39.631328],[-77.457555,39.66739],[-77.454269,39.671756],[-77.45425,39.670106],[-77.452908,39.667353],[-77.455698,39.667256],[-77.455201,39.664636],[-77.453284,39.665571],[-77.452528,39.663974],[-77.446366,39.65829],[-77.44367,39.654997],[-77.439555,39.651795],[-77.437447,39.651014],[-77.43295,39.646405],[-77.430308,39.646765],[-77.431619,39.644322],[-77.424283,39.643502],[-77.420742,39.645652],[-77.419127,39.644441],[-77.415934,39.645175],[-77.418205,39.645847],[-77.422728,39.650991],[-77.426623,39.649049],[-77.428824,39.64971],[-77.430816,39.649236],[-77.433525,39.64987],[-77.43514,39.651345],[-77.43909,39.652814],[-77.441562,39.654803],[-77.443984,39.658116],[-77.44169,39.659281],[-77.440478,39.661812],[-77.43852,39.663262],[-77.432733,39.66559],[-77.42736,39.669104],[-77.417872,39.672875],[-77.414522,39.674404],[-77.413674,39.6759],[-77.408817,39.67923],[-77.408046,39.682853],[-77.408574,39.684233],[-77.412773,39.683598],[-77.419143,39.684707],[-77.422302,39.684562],[-77.424705,39.682964],[-77.417927,39.697537],[-77.419896,39.699361],[-77.422388,39.704426],[-77.424486,39.706189],[-77.424278,39.708808],[-77.418955,39.706203],[-77.413872,39.7066],[-77.413012,39.70746],[-77.411772,39.71076],[-77.40741998640318,39.7200125336911],[-77.4594270595719,39.720017139388396],[-77.4674551555875,39.720017850349],[-77.469145,39.720018],[-77.469779,39.71888],[-77.467994,39.71883],[-77.464923,39.717585],[-77.468067,39.716541],[-77.46811,39.715266],[-77.470897,39.71349],[-77.474392,39.713227],[-77.476815,39.712005],[-77.479766,39.708915],[-77.483322,39.706737],[-77.483558,39.706606],[-77.484345,39.705953],[-77.48465,39.705735],[-77.485323,39.705455],[-77.485704,39.705108],[-77.485902,39.704809],[-77.486239,39.704619],[-77.486743,39.703027],[-77.487601,39.701245],[-77.489662,39.698793],[-77.490537,39.695568],[-77.491674,39.694915],[-77.493519,39.69259],[-77.495798,39.691498],[-77.496888,39.690396],[-77.499656,39.689506],[-77.503158,39.689231],[-77.505592,39.687461],[-77.50836,39.684072]]]}},{"type":"Feature","properties":{"zcta5":"21782","AFFGEOID10":"8600000US21782","GEOID10":"21782","ALAND10":77594050,"AWATER10":5574496,"county_name":"Washington","state_code":"MD","county_state":"Washington County, MD","county_fips":"24043","risk_level_county":"Medium Risk (70–79% vaccinated)","mean_vaccination_rate_county":73.06,"risk_level_zcta":"Lower Risk (80–84% vaccinated)","mean_vaccination_rate_zips":84.11,"cases":11},"geometry":{"type":"Polygon","coordinates":[[[-77.8250793452803,39.5286077643051],[-77.823762,39.525907],[-77.823555,39.524077],[-77.82565,39.516895],[-77.829045,39.514425],[-77.845103,39.505845],[-77.847611,39.503351],[-77.848112,39.502093],[-77.8478531897793,39.5013297013575],[-77.847639,39.500698],[-77.845666,39.498628],[-77.831909,39.494744],[-77.8254985217078,39.4942577990943],[-77.820781,39.4939],[-77.807821,39.490241],[-77.80183,39.489395],[-77.795631,39.489623],[-77.791765,39.490789],[-77.789757,39.492207],[-77.786539,39.496598],[-77.784442,39.498061],[-77.781608,39.499067],[-77.774374,39.4995],[-77.77095,39.499087],[-77.768442,39.497783],[-77.765993,39.495724],[-77.765403,39.494397],[-77.765551,39.493025],[-77.767087,39.491333],[-77.769125,39.490281],[-77.771723,39.489207],[-77.78176,39.487128],[-77.788519,39.485048],[-77.795485,39.481824],[-77.796695,39.480498],[-77.797787,39.47876],[-77.798201,39.475719],[-77.796755,39.472448],[-77.795634,39.471259],[-77.789645,39.467827],[-77.778522,39.463663],[-77.777815,39.462816],[-77.777815,39.461924],[-77.779202,39.460392],[-77.780471,39.459867],[-77.783539,39.460073],[-77.793157,39.462042],[-77.796196,39.461722],[-77.798468,39.46067],[-77.799294,39.458383],[-77.798144,39.455981],[-77.7931,39.451406],[-77.78611,39.447197],[-77.78558,39.445367],[-77.786052,39.444224],[-77.78856,39.442829],[-77.80086,39.440841],[-77.802866,39.439285],[-77.803249,39.437136],[-77.8026840240856,39.4362034301384],[-77.8026780063912,39.4361934971125],[-77.802542,39.435969],[-77.798855,39.433339],[-77.7976927415663,39.432816136032294],[-77.792751,39.430593],[-77.79214823123749,39.430454753308396],[-77.787266,39.429335],[-77.77485,39.427845],[-77.763319,39.428436],[-77.75872,39.42681],[-77.754681,39.424658],[-77.75309,39.423262],[-77.75268,39.420174],[-77.747478,39.41093],[-77.740012,39.401694],[-77.7378445331828,39.3962738290249],[-77.736409,39.392684],[-77.735905,39.389665],[-77.736317,39.387744],[-77.73690051241029,39.38723776088],[-77.734482,39.386698],[-77.737724,39.384194],[-77.741119,39.383512],[-77.744542,39.383296],[-77.748248,39.382608],[-77.750941,39.380745],[-77.750292,39.378615],[-77.744318,39.370338],[-77.742032,39.367644],[-77.74028,39.36343],[-77.740821,39.365592],[-77.737435,39.367532],[-77.7362,39.370249],[-77.734191,39.369487],[-77.732289,39.371217],[-77.729732,39.374753],[-77.727661,39.37547],[-77.725579,39.377845],[-77.72232,39.37515],[-77.72055,39.37178],[-77.718132,39.370021],[-77.714609,39.368999],[-77.703072,39.368867],[-77.702083,39.370664],[-77.698634,39.375099],[-77.695332,39.380647],[-77.691668,39.385944],[-77.690185,39.38713],[-77.691686,39.386905],[-77.707505,39.386689],[-77.706081,39.389255],[-77.709248,39.39076],[-77.712749,39.387183],[-77.713151,39.385443],[-77.715534,39.384032],[-77.717734,39.38425],[-77.722327,39.387422],[-77.724259,39.389387],[-77.721679,39.394795],[-77.71855,39.399782],[-77.712486,39.404085],[-77.705674,39.410931],[-77.70518,39.415293],[-77.704148,39.420422],[-77.705664,39.422448],[-77.708926,39.422359],[-77.711072,39.424873],[-77.709708,39.4305],[-77.710508,39.432476],[-77.708555,39.434068],[-77.706581,39.447902],[-77.710089,39.449983],[-77.71169,39.45037],[-77.71358,39.44716],[-77.71619,39.44822],[-77.7179,39.44621],[-77.72008,39.44513],[-77.720323,39.441955],[-77.72338,39.44541],[-77.72559,39.4463],[-77.72598,39.44721],[-77.72871,39.44967],[-77.72747,39.453434],[-77.726157,39.45352],[-77.724312,39.455841],[-77.721596,39.458207],[-77.723251,39.459172],[-77.721781,39.461766],[-77.723014,39.462807],[-77.72266,39.46438],[-77.72359,39.4661],[-77.72113,39.46698],[-77.723201,39.466694],[-77.725513,39.465275],[-77.725415,39.464337],[-77.728174,39.45901],[-77.73183,39.455383],[-77.732773,39.453967],[-77.73638,39.45452],[-77.7383,39.4552],[-77.73693,39.4577],[-77.73594,39.46211],[-77.73519,39.46291],[-77.73514,39.46645],[-77.73716,39.46713],[-77.73654,39.46926],[-77.74146,39.4713],[-77.74335,39.47114],[-77.74252,39.47422],[-77.74152,39.47589],[-77.74197,39.47778],[-77.7438,39.47857],[-77.7415,39.48129],[-77.74838,39.48077],[-77.75076,39.48707],[-77.75094,39.4884],[-77.74505,39.48869],[-77.74345,39.48456],[-77.74208,39.48426],[-77.74097,39.48789],[-77.7408,39.49233],[-77.736837,39.495785],[-77.73614,39.49686],[-77.73634,39.50263],[-77.73334,39.50427],[-77.73611,39.50529],[-77.74301,39.50624],[-77.7468,39.50887],[-77.747557,39.505951],[-77.748758,39.504116],[-77.75142,39.502974],[-77.75659,39.50427],[-77.75592,39.50505],[-77.75827,39.50818],[-77.75821,39.51026],[-77.75896,39.51159],[-77.75841,39.5136],[-77.755562,39.512663],[-77.75545,39.51343],[-77.75752,39.51454],[-77.76156,39.51549],[-77.76382,39.51117],[-77.76591,39.5085],[-77.76447,39.50656],[-77.7658,39.50597],[-77.76784,39.50642],[-77.77236,39.50651],[-77.77202,39.51106],[-77.775589,39.512243],[-77.775361,39.514034],[-77.77369,39.5158],[-77.774766,39.516006],[-77.777253,39.514687],[-77.776193,39.516673],[-77.778998,39.51955],[-77.784872,39.521099],[-77.787015,39.523603],[-77.786798,39.524789],[-77.77775,39.52478],[-77.77909,39.52618],[-77.77992,39.53427],[-77.78482,39.53712],[-77.79077,39.53989],[-77.79228,39.53701],[-77.794579,39.533989],[-77.792213,39.531851],[-77.798476,39.52589],[-77.80281,39.52558],[-77.81144,39.525351],[-77.81468,39.52371],[-77.81824,39.52338],[-77.822144,39.522408],[-77.822145,39.525767],[-77.823416,39.529134],[-77.8250793452803,39.5286077643051]]]}},{"type":"Feature","properties":{"zcta5":"21711","AFFGEOID10":"8600000US21711","GEOID10":"21711","ALAND10":61795567,"AWATER10":1768550,"county_name":"Washington","state_code":"MD","county_state":"Washington County, MD","county_fips":"24043","risk_level_county":"Medium Risk (70–79% vaccinated)","mean_vaccination_rate_county":73.06,"risk_level_zcta":"Lowest Risk (85%+)","mean_vaccination_rate_zips":87.63,"cases":11},"geometry":{"type":"Polygon","coordinates":[[[-78.0464909914103,39.7223009946999],[-78.045417,39.720807],[-78.045594,39.719136],[-78.040882,39.710666],[-78.039474,39.709225],[-78.039258,39.706084],[-78.039904,39.704074],[-78.045477,39.697271],[-78.047941,39.695699],[-78.053159,39.694331],[-78.055991,39.695187],[-78.061025,39.696098],[-78.062618,39.694815],[-78.061055,39.693721],[-78.060864,39.691635],[-78.059652,39.689713],[-78.05747,39.68836],[-78.056625,39.686853],[-78.056803,39.683479],[-78.052453,39.678045],[-78.051106,39.677785],[-78.052167,39.673111],[-78.054409,39.671559],[-78.05613,39.67234],[-78.05586,39.6751],[-78.057173,39.675401],[-78.0589,39.67342],[-78.05912,39.66994],[-78.060611,39.666551],[-78.063022,39.662956],[-78.05833,39.65932],[-78.048824,39.653576],[-78.046615,39.651689],[-78.051458,39.650455],[-78.05212,39.648877],[-78.05156254360018,39.647674252073294],[-78.04995,39.645349],[-78.047672,39.643107],[-78.03886,39.638121],[-78.035992,39.63572],[-78.03014,39.627462],[-78.023896,39.621697],[-78.0224018601498,39.619600466954395],[-78.011343,39.604083],[-78.009985,39.602893],[-78.006734,39.601337],[-78.00233,39.600488],[-77.991437,39.600194],[-77.984815,39.59942],[-77.976686,39.599744],[-77.973967,39.601071],[-77.97015,39.605091],[-77.96899850295969,39.6057783208715],[-77.97011,39.607245],[-77.973031,39.603545],[-77.974706,39.60417],[-77.976096,39.603407],[-77.976515,39.604422],[-77.978351,39.605068],[-77.98137,39.60482],[-77.989064,39.614717],[-77.983764,39.620229],[-77.983344,39.621789],[-77.97843,39.62068],[-77.975576,39.621762],[-77.974889,39.622882],[-77.977041,39.628246],[-77.981785,39.627976],[-78.002327,39.643881],[-78.0039,39.645415],[-78.001525,39.645699],[-78.002889,39.646756],[-78.004963,39.645992],[-78.005266,39.648245],[-78.006601,39.648657],[-78.007971,39.651607],[-78.002979,39.650999],[-78.002651,39.659129],[-77.99739,39.65826],[-77.99672,39.65903],[-77.99422,39.65528],[-77.99039,39.65297],[-77.98951,39.652],[-77.98656,39.65062],[-77.986687,39.653668],[-77.98581,39.656276],[-77.984573,39.656493],[-77.9841,39.6601],[-77.98166,39.66421],[-77.98128,39.6667],[-77.97953,39.66917],[-77.97933,39.67171],[-77.9774,39.6739],[-77.9767,39.67964],[-77.97773,39.68063],[-77.979705,39.679143],[-77.982948,39.678188],[-77.98501,39.67702],[-77.98822,39.67637],[-77.98842,39.68094],[-77.989223,39.683257],[-77.99138,39.68504],[-77.99527,39.68592],[-78.000745,39.686002],[-77.999727,39.686928],[-77.995293,39.688385],[-77.99327,39.689984],[-77.990535,39.691],[-77.989835,39.694585],[-77.988855,39.695139],[-77.988118,39.697565],[-77.989847,39.699683],[-77.987569,39.704075],[-77.9876,39.706544],[-77.986883,39.708076],[-77.987247,39.710183],[-77.98601,39.717538],[-77.9847204778316,39.7222715087826],[-78.0464909914103,39.7223009946999]]]}},{"type":"Feature","properties":{"zcta5":"21722","AFFGEOID10":"8600000US21722","GEOID10":"21722","ALAND10":153716563,"AWATER10":3368083,"county_name":"Washington","state_code":"MD","county_state":"Washington County, MD","county_fips":"24043","risk_level_county":"Medium Risk (70–79% vaccinated)","mean_vaccination_rate_county":73.06,"risk_level_zcta":"Lowest Risk (85%+)","mean_vaccination_rate_zips":87.14,"cases":11},"geometry":{"type":"Polygon","coordinates":[[[-77.9847204778316,39.7222715087826],[-77.98601,39.717538],[-77.987247,39.710183],[-77.986883,39.708076],[-77.9876,39.706544],[-77.987569,39.704075],[-77.989847,39.699683],[-77.988118,39.697565],[-77.988855,39.695139],[-77.989835,39.694585],[-77.990535,39.691],[-77.99327,39.689984],[-77.995293,39.688385],[-77.999727,39.686928],[-78.000745,39.686002],[-77.99527,39.68592],[-77.99138,39.68504],[-77.989223,39.683257],[-77.98842,39.68094],[-77.98822,39.67637],[-77.98501,39.67702],[-77.982948,39.678188],[-77.979705,39.679143],[-77.97773,39.68063],[-77.9767,39.67964],[-77.9774,39.6739],[-77.97933,39.67171],[-77.97953,39.66917],[-77.98128,39.6667],[-77.98166,39.66421],[-77.9841,39.6601],[-77.984573,39.656493],[-77.98581,39.656276],[-77.986687,39.653668],[-77.98656,39.65062],[-77.98951,39.652],[-77.99039,39.65297],[-77.99422,39.65528],[-77.99672,39.65903],[-77.99739,39.65826],[-78.002651,39.659129],[-78.002979,39.650999],[-78.007971,39.651607],[-78.006601,39.648657],[-78.005266,39.648245],[-78.004963,39.645992],[-78.002889,39.646756],[-78.001525,39.645699],[-78.0039,39.645415],[-78.002327,39.643881],[-77.981785,39.627976],[-77.977041,39.628246],[-77.974889,39.622882],[-77.975576,39.621762],[-77.97843,39.62068],[-77.983344,39.621789],[-77.983764,39.620229],[-77.989064,39.614717],[-77.98137,39.60482],[-77.978351,39.605068],[-77.976515,39.604422],[-77.976096,39.603407],[-77.974706,39.60417],[-77.973031,39.603545],[-77.97011,39.607245],[-77.96899850295969,39.6057783208715],[-77.966223,39.607435],[-77.962092,39.608702],[-77.957642,39.608614],[-77.952104,39.606358],[-77.950599,39.603944],[-77.950916,39.601163],[-77.952152,39.597272],[-77.951955,39.592709],[-77.949836,39.58711],[-77.946182,39.584814],[-77.94215,39.584933],[-77.93905,39.587139],[-77.93645731838708,39.5942705680498],[-77.936371,39.594508],[-77.93545,39.608076],[-77.938362,39.61258],[-77.944133,39.614617],[-77.944622,39.616772],[-77.94194,39.61879],[-77.937492,39.61915],[-77.932862,39.617676],[-77.928738,39.613908],[-77.925988,39.607642],[-77.923298,39.604852],[-77.916836,39.602942],[-77.91641,39.602816],[-77.9111415613907,39.6017837383557],[-77.888477,39.597343],[-77.885077,39.597937],[-77.882977,39.598828],[-77.881823,39.600039],[-77.880993,39.602852],[-77.88111,39.606214],[-77.881936,39.608112],[-77.886959,39.613329],[-77.887017,39.614518],[-77.885124,39.615775],[-77.874718,39.614293],[-77.868679,39.611138],[-77.8667612159463,39.6105636695977],[-77.86545,39.611845],[-77.865392,39.613132],[-77.86695,39.61574],[-77.86497,39.6207],[-77.86584,39.621016],[-77.865636,39.623994],[-77.867594,39.625055],[-77.865674,39.631502],[-77.880032,39.635043],[-77.877584,39.650957],[-77.86499,39.65045],[-77.856893,39.650364],[-77.855038,39.6486],[-77.853266,39.649743],[-77.85071,39.65593],[-77.8505,39.65715],[-77.848106,39.657252],[-77.846785,39.660936],[-77.845806,39.661634],[-77.841999,39.66203],[-77.838378,39.6618],[-77.834301,39.660797],[-77.827867,39.660837],[-77.825375,39.660628],[-77.819587,39.65941],[-77.817485,39.65935],[-77.810355,39.65828],[-77.806812,39.659005],[-77.805825,39.659619],[-77.805015,39.661035],[-77.805491,39.662539],[-77.810383,39.666586],[-77.812948,39.667227],[-77.817351,39.66996],[-77.818708,39.671348],[-77.821727,39.673341],[-77.825101,39.674685],[-77.830712,39.675667],[-77.833618,39.677741],[-77.8345,39.6797],[-77.834088,39.681187],[-77.831078,39.685843],[-77.830389,39.686413],[-77.827533,39.687122],[-77.823861,39.686985],[-77.820273,39.685872],[-77.811954,39.683759],[-77.808054,39.683589],[-77.802811,39.68445],[-77.801028,39.685823],[-77.804594,39.684615],[-77.809276,39.683968],[-77.812487,39.684324],[-77.818689,39.685721],[-77.818579,39.689743],[-77.82187,39.6942],[-77.82559,39.69273],[-77.83368,39.69329],[-77.83826,39.69192],[-77.84036,39.69169],[-77.843058,39.697107],[-77.8443,39.70047],[-77.84252,39.70373],[-77.8417,39.70627],[-77.83827,39.70881],[-77.841104,39.710444],[-77.84437,39.713762],[-77.847399,39.72089],[-77.8476047555743,39.721999144422895],[-77.86554205124509,39.7221445888037],[-77.874719,39.722219],[-77.9847204778316,39.7222715087826]]]}},{"type":"Feature","properties":{"zcta5":"21734","AFFGEOID10":"8600000US21734","GEOID10":"21734","ALAND10":585227,"AWATER10":0,"county_name":"Washington","state_code":"MD","county_state":"Washington County, MD","county_fips":"24043","risk_level_county":"Medium Risk (70–79% vaccinated)","mean_vaccination_rate_county":73.06,"risk_level_zcta":"Medium Risk (70–79% vaccinated)","mean_vaccination_rate_zips":78.22,"cases":11},"geometry":{"type":"Polygon","coordinates":[[[-77.71062,39.61026],[-77.712246,39.610751],[-77.71248,39.608265],[-77.710326,39.606556],[-77.705717,39.60575],[-77.705504,39.605095],[-77.710721,39.604108],[-77.712228,39.602676],[-77.706942,39.600821],[-77.706414,39.604097],[-77.70477,39.604484],[-77.70504,39.60898],[-77.70377,39.60867],[-77.70286,39.61154],[-77.703798,39.612357],[-77.710074,39.612475],[-77.71062,39.61026]],[[-77.71062,39.61026],[-77.710185,39.610147],[-77.70844,39.60973],[-77.70872,39.60897],[-77.7109,39.60945],[-77.710679,39.610099],[-77.71062,39.61026]]]}},{"type":"Feature","properties":{"zcta5":"21713","AFFGEOID10":"8600000US21713","GEOID10":"21713","ALAND10":109328900,"AWATER10":158956,"county_name":"Washington","state_code":"MD","county_state":"Washington County, MD","county_fips":"24043","risk_level_county":"Medium Risk (70–79% vaccinated)","mean_vaccination_rate_county":73.06,"risk_level_zcta":"Lower Risk (80–84% vaccinated)","mean_vaccination_rate_zips":81.88,"cases":11},"geometry":{"type":"Polygon","coordinates":[[[-77.78482,39.53712],[-77.77992,39.53427],[-77.77909,39.52618],[-77.77775,39.52478],[-77.786798,39.524789],[-77.787015,39.523603],[-77.784872,39.521099],[-77.778998,39.51955],[-77.776193,39.516673],[-77.777253,39.514687],[-77.774766,39.516006],[-77.77369,39.5158],[-77.775361,39.514034],[-77.775589,39.512243],[-77.77202,39.51106],[-77.77236,39.50651],[-77.76784,39.50642],[-77.7658,39.50597],[-77.76447,39.50656],[-77.76591,39.5085],[-77.76382,39.51117],[-77.76156,39.51549],[-77.75752,39.51454],[-77.75545,39.51343],[-77.755562,39.512663],[-77.75841,39.5136],[-77.75896,39.51159],[-77.75821,39.51026],[-77.75827,39.50818],[-77.75592,39.50505],[-77.75659,39.50427],[-77.75142,39.502974],[-77.748758,39.504116],[-77.747557,39.505951],[-77.7468,39.50887],[-77.74301,39.50624],[-77.73611,39.50529],[-77.73334,39.50427],[-77.72549,39.50396],[-77.72381,39.50941],[-77.7242,39.51217],[-77.72376,39.51423],[-77.720073,39.514201],[-77.717801,39.515281],[-77.717954,39.511507],[-77.718856,39.507943],[-77.71826,39.5069],[-77.710398,39.502629],[-77.707765,39.500099],[-77.7062,39.4975],[-77.702722,39.495696],[-77.701455,39.492526],[-77.695743,39.496262],[-77.685395,39.489736],[-77.68966,39.48733],[-77.6911,39.487666],[-77.690355,39.484601],[-77.689782,39.480117],[-77.687925,39.47676],[-77.68681,39.477],[-77.678677,39.47673],[-77.677675,39.47736],[-77.674785,39.4773],[-77.674008,39.476637],[-77.67167,39.4786],[-77.66841,39.48237],[-77.665053,39.482888],[-77.664284,39.481673],[-77.657827,39.477528],[-77.659577,39.47676],[-77.660435,39.475036],[-77.659474,39.4719],[-77.655416,39.472941],[-77.657574,39.467394],[-77.653121,39.467877],[-77.649899,39.467417],[-77.647583,39.465864],[-77.647585,39.463445],[-77.648414,39.462523],[-77.649485,39.459378],[-77.648119,39.458412],[-77.6475,39.4552],[-77.64318,39.45631],[-77.6412,39.45541],[-77.63787,39.45875],[-77.633985,39.461536],[-77.633636,39.46331],[-77.632015,39.466745],[-77.622771,39.46707],[-77.621025,39.464981],[-77.618453,39.466197],[-77.616156,39.468371],[-77.616049,39.469157],[-77.61869,39.476043],[-77.620666,39.47789],[-77.622024,39.481754],[-77.621078,39.484325],[-77.618537,39.485996],[-77.614997,39.490242],[-77.61441,39.491551],[-77.619902,39.49689],[-77.621428,39.496139],[-77.623496,39.4901],[-77.625461,39.487975],[-77.62948,39.48721],[-77.63059,39.491496],[-77.627028,39.496303],[-77.626754,39.497142],[-77.625088,39.496303],[-77.623147,39.498622],[-77.620437,39.497425],[-77.623008,39.499898],[-77.623161,39.501148],[-77.621075,39.504755],[-77.62117,39.506553],[-77.622604,39.507598],[-77.621261,39.510452],[-77.619781,39.511791],[-77.620384,39.513118],[-77.618448,39.517141],[-77.618117,39.518577],[-77.61482,39.522153],[-77.614347,39.524249],[-77.614801,39.525994],[-77.613165,39.527397],[-77.613484,39.528667],[-77.612532,39.529929],[-77.610461,39.530476],[-77.610345,39.531566],[-77.60879,39.534158],[-77.606473,39.535557],[-77.606195,39.536569],[-77.602654,39.539318],[-77.599775,39.539891],[-77.597704,39.540781],[-77.597068,39.541975],[-77.598214,39.544044],[-77.598419,39.5475],[-77.599418,39.549709],[-77.599128,39.550525],[-77.597358,39.550281],[-77.595909,39.551109],[-77.594856,39.552986],[-77.594337,39.555702],[-77.59452,39.559051],[-77.593833,39.561298],[-77.594467,39.562294],[-77.593971,39.563919],[-77.591407,39.565208],[-77.589308,39.567092],[-77.612867,39.571926],[-77.61745,39.57211],[-77.617374,39.573929],[-77.62512,39.57562],[-77.6268,39.57861],[-77.62902,39.57848],[-77.6317,39.58113],[-77.63555,39.58371],[-77.63982,39.5857],[-77.64393,39.5806],[-77.646,39.57501],[-77.64635,39.57153],[-77.64754,39.57233],[-77.656001,39.578041],[-77.654345,39.574117],[-77.65409,39.572509],[-77.6548,39.570763],[-77.657461,39.568519],[-77.658199,39.566713],[-77.659803,39.565539],[-77.660158,39.56415],[-77.661924,39.562981],[-77.6642,39.564184],[-77.666285,39.563723],[-77.665541,39.561434],[-77.666329,39.559282],[-77.66837,39.55832],[-77.6803,39.55917],[-77.68353,39.55879],[-77.68986,39.5671],[-77.690159,39.568379],[-77.689468,39.571466],[-77.690634,39.56965],[-77.69245,39.568162],[-77.69574,39.568742],[-77.69661,39.567335],[-77.69325,39.564564],[-77.693588,39.56333],[-77.695693,39.562706],[-77.701034,39.56238],[-77.701565,39.561503],[-77.700601,39.560476],[-77.698778,39.559911],[-77.7086,39.56187],[-77.71148,39.56209],[-77.712,39.55936],[-77.71384,39.55917],[-77.7164,39.55021],[-77.716673,39.549828],[-77.717664,39.548316],[-77.719676,39.548381],[-77.719615,39.549124],[-77.720765,39.54921],[-77.722198,39.549536],[-77.726928,39.55046],[-77.72812,39.54917],[-77.731293,39.550619],[-77.731473,39.543613],[-77.7315,39.5426],[-77.73185,39.54048],[-77.73158,39.53962],[-77.738773,39.540974],[-77.740565,39.533653],[-77.743549,39.532897],[-77.744619,39.534439],[-77.749771,39.531888],[-77.750748,39.530419],[-77.75171,39.53056],[-77.75132,39.53145],[-77.76607,39.53173],[-77.764671,39.53604],[-77.765743,39.534388],[-77.766269,39.531699],[-77.778229,39.531932],[-77.779013,39.534995],[-77.782807,39.537269],[-77.78482,39.53712]]]}},{"type":"Feature","properties":{"zcta5":"21719","AFFGEOID10":"8600000US21719","GEOID10":"21719","ALAND10":8705491,"AWATER10":68393,"county_name":"Washington","state_code":"MD","county_state":"Washington County, MD","county_fips":"24043","risk_level_county":"Medium Risk (70–79% vaccinated)","mean_vaccination_rate_county":73.06,"risk_level_zcta":"Lower Risk (80–84% vaccinated)","mean_vaccination_rate_zips":83.14,"cases":11},"geometry":{"type":"Polygon","coordinates":[[[-77.50690963050779,39.7201044354107],[-77.50951,39.7175],[-77.51161,39.71355],[-77.51332,39.71308],[-77.51713,39.71296],[-77.51885,39.71212],[-77.52021,39.71032],[-77.52378,39.70849],[-77.522089,39.707953],[-77.51507,39.70729],[-77.515702,39.706761],[-77.510329,39.705832],[-77.512072,39.70468],[-77.51255,39.700471],[-77.509626,39.699287],[-77.510899,39.698378],[-77.506145,39.696184],[-77.509026,39.693341],[-77.511879,39.689886],[-77.508946,39.688033],[-77.506991,39.690121],[-77.509562,39.686183],[-77.51288,39.68277],[-77.50836,39.684072],[-77.505592,39.687461],[-77.503158,39.689231],[-77.499656,39.689506],[-77.496888,39.690396],[-77.495798,39.691498],[-77.493519,39.69259],[-77.491674,39.694915],[-77.490537,39.695568],[-77.489662,39.698793],[-77.487601,39.701245],[-77.486743,39.703027],[-77.486239,39.704619],[-77.485902,39.704809],[-77.485704,39.705108],[-77.485323,39.705455],[-77.48465,39.705735],[-77.484345,39.705953],[-77.483558,39.706606],[-77.483322,39.706737],[-77.479766,39.708915],[-77.476815,39.712005],[-77.474392,39.713227],[-77.470897,39.71349],[-77.46811,39.715266],[-77.468067,39.716541],[-77.464923,39.717585],[-77.467994,39.71883],[-77.469779,39.71888],[-77.469145,39.720018],[-77.4816180650483,39.7200465482602],[-77.5065895040124,39.720103702707505],[-77.50690963050779,39.7201044354107]]]}},{"type":"Feature","properties":{"zcta5":"21742","AFFGEOID10":"8600000US21742","GEOID10":"21742","ALAND10":130703281,"AWATER10":73363,"county_name":"Washington","state_code":"MD","county_state":"Washington County, MD","county_fips":"24043","risk_level_county":"Medium Risk (70–79% vaccinated)","mean_vaccination_rate_county":73.06,"risk_level_zcta":"Lower Risk (80–84% vaccinated)","mean_vaccination_rate_zips":81.54,"cases":11},"geometry":{"type":"MultiPolygon","coordinates":[[[[-77.677953,39.615702],[-77.67629,39.61519],[-77.67447,39.61411],[-77.67323,39.61607],[-77.676908,39.61744],[-77.677953,39.615702]]],[[[-77.7329355264234,39.7210973599427],[-77.738217,39.717023],[-77.740745,39.714635],[-77.742937,39.710077],[-77.742926,39.706616],[-77.74154,39.70315],[-77.73603,39.6957],[-77.73471,39.69327],[-77.73358,39.68959],[-77.7333,39.68692],[-77.733599,39.682876],[-77.734816,39.6738],[-77.73554,39.67098],[-77.72327,39.65422],[-77.72202,39.6506],[-77.71956,39.6529],[-77.71694,39.65315],[-77.71431,39.65235],[-77.707818,39.649745],[-77.70561,39.64983],[-77.70136,39.65135],[-77.701531,39.650406],[-77.69863,39.64995],[-77.69903,39.64739],[-77.697996,39.643868],[-77.69812,39.64102],[-77.695446,39.641667],[-77.696038,39.640583],[-77.694675,39.640136],[-77.693537,39.642133],[-77.692377,39.64175],[-77.688044,39.641814],[-77.687838,39.640372],[-77.685919,39.638958],[-77.686916,39.637851],[-77.690021,39.638696],[-77.690125,39.636511],[-77.691077,39.634172],[-77.693394,39.633346],[-77.693817,39.631854],[-77.698783,39.632716],[-77.701315,39.631235],[-77.699116,39.629225],[-77.69744,39.624704],[-77.69514,39.62357],[-77.69214,39.62142],[-77.68828,39.61966],[-77.68372,39.61886],[-77.67863,39.61853],[-77.67227,39.61627],[-77.66764,39.61624],[-77.66315,39.61565],[-77.659788,39.614369],[-77.661676,39.610693],[-77.662621,39.607093],[-77.658704,39.605775],[-77.657895,39.605116],[-77.656057,39.605346],[-77.653253,39.607481],[-77.650819,39.608161],[-77.648211,39.610441],[-77.64761,39.61003],[-77.65051,39.60756],[-77.65479,39.60241],[-77.655708,39.595222],[-77.648082,39.590422],[-77.642862,39.587446],[-77.641144,39.589556],[-77.639038,39.590698],[-77.636905,39.589503],[-77.634763,39.592489],[-77.633229,39.593701],[-77.630547,39.594398],[-77.628843,39.596175],[-77.63051,39.596884],[-77.627902,39.601324],[-77.625644,39.602914],[-77.62401,39.60241],[-77.626441,39.59974],[-77.621454,39.597008],[-77.623067,39.593901],[-77.618165,39.592345],[-77.618698,39.591477],[-77.614792,39.591553],[-77.611396,39.590575],[-77.611944,39.588981],[-77.607259,39.587303],[-77.604269,39.59072],[-77.60337,39.592686],[-77.605388,39.594],[-77.607659,39.594427],[-77.608596,39.595607],[-77.60722,39.596],[-77.6023,39.59422],[-77.600657,39.596865],[-77.597918,39.595551],[-77.595273,39.598286],[-77.592889,39.599395],[-77.590095,39.601872],[-77.588707,39.604548],[-77.577751,39.601608],[-77.577239,39.6049],[-77.575027,39.61127],[-77.573722,39.613037],[-77.585819,39.618724],[-77.590004,39.618876],[-77.596457,39.622009],[-77.597349,39.624601],[-77.60065,39.6248],[-77.60343,39.62557],[-77.607542,39.624199],[-77.6087,39.62272],[-77.61253,39.6247],[-77.61743,39.62608],[-77.62538,39.63044],[-77.62708,39.63246],[-77.63099,39.6347],[-77.63332,39.62919],[-77.63655,39.62317],[-77.64557,39.62525],[-77.64696,39.62686],[-77.65113,39.63074],[-77.64957,39.63355],[-77.64625,39.63693],[-77.64328,39.64113],[-77.6431,39.64183],[-77.6475,39.64289],[-77.647347,39.642917],[-77.6445,39.64289],[-77.64418,39.64291],[-77.6439,39.64311],[-77.64334,39.64363],[-77.638367,39.660289],[-77.634376,39.659591],[-77.63052,39.65951],[-77.627282,39.657822],[-77.626112,39.656041],[-77.624712,39.655723],[-77.623994,39.653922],[-77.62273,39.655038],[-77.620599,39.654715],[-77.618986,39.653602],[-77.617268,39.653751],[-77.613988,39.65529],[-77.611062,39.655451],[-77.61193,39.659668],[-77.62086,39.66388],[-77.61911,39.6675],[-77.61604,39.67256],[-77.6172,39.67336],[-77.61677,39.67525],[-77.61218,39.67826],[-77.60906,39.68203],[-77.60807,39.68242],[-77.60581,39.67914],[-77.602601,39.681866],[-77.59387,39.68022],[-77.59138,39.68313],[-77.5869,39.68586],[-77.582497,39.687676],[-77.580877,39.687506],[-77.579385,39.68833],[-77.575163,39.688201],[-77.57525,39.69109],[-77.57277,39.70116],[-77.57317,39.70499],[-77.57294,39.70783],[-77.56896,39.70785],[-77.56689,39.70958],[-77.56669,39.71097],[-77.56791,39.71167],[-77.565646,39.711883],[-77.565643,39.71869],[-77.56708,39.71853],[-77.56742114839349,39.7202869923236],[-77.66960560397459,39.7207656184838],[-77.672249,39.720778],[-77.674522,39.720847],[-77.7135431715544,39.720883980926004],[-77.71482419030579,39.720885194966],[-77.7159131428898,39.720886226982],[-77.72407300003769,39.720893960196],[-77.724115,39.720894],[-77.732615,39.721094],[-77.7329355264234,39.7210973599427]]]]}}]}