{"type":"FeatureCollection","features":[{"type":"Feature","properties":{"zcta5":"22980","AFFGEOID10":"8600000US22980","GEOID10":"22980","ALAND10":192782685,"AWATER10":1064699,"county_name":"Waynesboro","state_code":"VA","county_state":"Waynesboro County, VA","county_fips":"51820","risk_level_county":"Lower Risk (80–84% vaccinated)","mean_vaccination_rate_county":80.62,"risk_level_zcta":"Medium Risk (70–79% vaccinated)","mean_vaccination_rate_zips":76.53,"cases":176},"geometry":{"type":"Polygon","coordinates":[[[-78.999269,38.075527],[-79.000613,38.075029],[-79.001746,38.06678],[-79.003862,38.065268],[-79.006424,38.066482],[-79.009696,38.065753],[-79.01194,38.066397],[-79.014719,38.065311],[-79.016317,38.0653],[-79.017783,38.063769],[-79.017917,38.062063],[-79.015862,38.059377],[-79.015249,38.058953],[-79.015612,38.058723],[-79.015785,38.058197],[-79.015514,38.057501],[-79.01586,38.057041],[-79.015925,38.056302],[-79.015678,38.055881],[-79.015189,38.055886],[-79.014835,38.0556],[-79.014255,38.0554],[-79.013663,38.055404],[-79.012942,38.055677],[-79.011991,38.054622],[-79.013991,38.052536],[-79.015987,38.053288],[-79.017037,38.051944],[-79.015226,38.051087],[-79.017779,38.047871],[-79.014741,38.048738],[-79.014549,38.04541],[-79.013517,38.044622],[-79.010378,38.043007],[-79.010065,38.042586],[-79.006598,38.043098],[-78.996805,38.044536],[-78.994446,38.036162],[-78.988864,38.035399],[-78.985026,38.034571],[-78.977735,38.035374],[-78.976251,38.036694],[-78.974093,38.035056],[-78.970274,38.032926],[-78.969688,38.03498],[-78.967399,38.036372],[-78.967251,38.033926],[-78.968382,38.032212],[-78.966979,38.030186],[-78.965383,38.031955],[-78.964306,38.03201],[-78.962849,38.033609],[-78.961525,38.033764],[-78.960897,38.032419],[-78.9557,38.026647],[-78.953342,38.027167],[-78.949678,38.028743],[-78.94532,38.030246],[-78.934181,38.028564],[-78.931246,38.028945],[-78.93191,38.03254],[-78.933071,38.032866],[-78.932395,38.035784],[-78.934218,38.035199],[-78.934559,38.037028],[-78.93212,38.041118],[-78.927662,38.042309],[-78.925633,38.043822],[-78.923209,38.033771],[-78.924319,38.032706],[-78.92167,38.031735],[-78.918574,38.035527],[-78.907978,38.042316],[-78.901919,38.043644],[-78.901666,38.044641],[-78.896053,38.040765],[-78.892982,38.039352],[-78.887683,38.038904],[-78.884547,38.039603],[-78.878024,38.041581],[-78.874107,38.040922],[-78.872163,38.039587],[-78.869857,38.035026],[-78.868397,38.033731],[-78.866644,38.033022],[-78.857456,38.03263],[-78.85519,38.03579],[-78.85279,38.037235],[-78.85033,38.037788],[-78.847065,38.04109],[-78.84216,38.044359],[-78.839048,38.047295],[-78.837013,38.048258],[-78.829927,38.054025],[-78.826512,38.054427],[-78.825203,38.05604],[-78.822221,38.057962],[-78.821691,38.059231],[-78.81862,38.059855],[-78.817289,38.05963],[-78.811857,38.061726],[-78.810497,38.061478],[-78.806482,38.063204],[-78.805067,38.064649],[-78.801617,38.066024],[-78.798372,38.066627],[-78.792788,38.069504],[-78.79218,38.070436],[-78.793149,38.073246],[-78.792841,38.076009],[-78.793647,38.077808],[-78.791606,38.078184],[-78.78884,38.079695],[-78.78807,38.080941],[-78.78603,38.08167],[-78.781078,38.080757],[-78.780813,38.08203],[-78.7792,38.08347],[-78.778945,38.087004],[-78.779306,38.089297],[-78.777688,38.091206],[-78.777203,38.093217],[-78.777887,38.094478],[-78.779569,38.095579],[-78.78094,38.096924],[-78.780703,38.098949],[-78.782744,38.099231],[-78.783819,38.100812],[-78.78256,38.102673],[-78.780155,38.104242],[-78.779041,38.106491],[-78.780972,38.107639],[-78.779988,38.109563],[-78.780654,38.112784],[-78.782742,38.113284],[-78.783798,38.114321],[-78.78579,38.114494],[-78.785853,38.116112],[-78.787544,38.117288],[-78.786896,38.118559],[-78.785311,38.119242],[-78.785356,38.120743],[-78.787187,38.121921],[-78.787288,38.125134],[-78.788073,38.126404],[-78.78594,38.129031],[-78.783489,38.129318],[-78.780144,38.131495],[-78.779496,38.132092],[-78.77946,38.137125],[-78.779075,38.139889],[-78.775432,38.141008],[-78.77411,38.145517],[-78.774141,38.149611],[-78.777175,38.143465],[-78.779045,38.143102],[-78.782016,38.139088],[-78.781596,38.136841],[-78.782229,38.135195],[-78.784478,38.134644],[-78.785455,38.133613],[-78.783279,38.131263],[-78.785945,38.132138],[-78.787977,38.134019],[-78.789515,38.134539],[-78.794635,38.134888],[-78.798655,38.134771],[-78.802483,38.137227],[-78.803237,38.140378],[-78.804247,38.141247],[-78.802117,38.144459],[-78.806107,38.143784],[-78.807918,38.142633],[-78.808953,38.143034],[-78.81197,38.14109],[-78.813462,38.141725],[-78.815875,38.143934],[-78.8182,38.138949],[-78.818861,38.138199],[-78.8194,38.139624],[-78.828404,38.140186],[-78.829368,38.139251],[-78.835835,38.139781],[-78.836958,38.14055],[-78.835688,38.14394],[-78.835477,38.146916],[-78.837547,38.147107],[-78.837824,38.147893],[-78.841323,38.149506],[-78.845535,38.145387],[-78.849944,38.145693],[-78.851488,38.146154],[-78.851315,38.147549],[-78.854967,38.147965],[-78.857018,38.147113],[-78.860147,38.147436],[-78.859064,38.150534],[-78.857695,38.151885],[-78.856438,38.15462],[-78.854591,38.156027],[-78.856109,38.157449],[-78.858208,38.158153],[-78.862178,38.158381],[-78.865093,38.159266],[-78.869146,38.161896],[-78.879172,38.164436],[-78.882339,38.165275],[-78.887485,38.167384],[-78.890949,38.173397],[-78.892381,38.174723],[-78.897454,38.175536],[-78.896146,38.180218],[-78.896728,38.182133],[-78.906158,38.184065],[-78.911619,38.182663],[-78.912829,38.180669],[-78.915551,38.181678],[-78.916874,38.179099],[-78.915714,38.176879],[-78.915652,38.172541],[-78.917816,38.168165],[-78.920756,38.163521],[-78.923926,38.165439],[-78.926672,38.168769],[-78.926981,38.170464],[-78.929208,38.16723],[-78.929215,38.165972],[-78.935733,38.161832],[-78.936218,38.16119],[-78.938483,38.162467],[-78.9423,38.157568],[-78.943508,38.158589],[-78.944814,38.157032],[-78.942164,38.156946],[-78.94277,38.155156],[-78.945092,38.151052],[-78.946375,38.150124],[-78.947833,38.145033],[-78.943253,38.145176],[-78.937224,38.141194],[-78.93923,38.138241],[-78.941924,38.135882],[-78.943509,38.133021],[-78.945102,38.131245],[-78.946687,38.128276],[-78.943625,38.124951],[-78.941874,38.122356],[-78.938723,38.120679],[-78.938478,38.11936],[-78.93871,38.115437],[-78.937799,38.114064],[-78.935302,38.111715],[-78.934643,38.11006],[-78.932057,38.107372],[-78.93073,38.104771],[-78.931386,38.103007],[-78.930645,38.101561],[-78.933927,38.10046],[-78.935313,38.09939],[-78.940357,38.101835],[-78.942796,38.10231],[-78.945882,38.09895],[-78.947229,38.099647],[-78.949078,38.099412],[-78.946829,38.092565],[-78.947489,38.089735],[-78.945045,38.08858],[-78.945274,38.086243],[-78.948127,38.085491],[-78.952144,38.084934],[-78.955627,38.083912],[-78.958033,38.082758],[-78.96058,38.070672],[-78.963477,38.068066],[-78.96378,38.067809],[-78.965306,38.066518],[-78.965516,38.066354],[-78.964379,38.065642],[-78.962113,38.064657],[-78.971108,38.059004],[-78.986306,38.061398],[-78.994856,38.069692],[-78.991222,38.071893],[-78.993288,38.074204],[-78.994656,38.076759],[-78.99477,38.075913],[-78.998531,38.074491],[-78.999269,38.075527]]]}}]}