{"type":"FeatureCollection","features":[{"type":"Feature","properties":{"zcta5":"68932","AFFGEOID10":"8600000US68932","GEOID10":"68932","ALAND10":189754920,"AWATER10":84288,"county_name":"Webster","state_code":"NE","county_state":"Webster County, NE","county_fips":"31181","risk_level_county":"Medium Risk (70–79% vaccinated)","mean_vaccination_rate_county":73.25,"risk_level_zcta":"Higher Risk (60–69% vaccinated)","mean_vaccination_rate_zips":64.47,"cases":1},"geometry":{"type":"Polygon","coordinates":[[[-98.812451,40.350375],[-98.812213,40.335152],[-98.802838,40.335174],[-98.802391,40.291439],[-98.783572,40.291502],[-98.783586,40.277078],[-98.802172,40.27707],[-98.801896,40.262868],[-98.820685,40.262888],[-98.820929,40.248165],[-98.839934,40.247734],[-98.839817,40.236541],[-98.839944,40.233469],[-98.726106,40.234227],[-98.726242,40.248578],[-98.654317,40.248588],[-98.654268,40.245394],[-98.651473,40.245125],[-98.651526,40.248571],[-98.632607,40.248486],[-98.632692,40.277825],[-98.651701,40.277793],[-98.651509,40.306704],[-98.708528,40.306303],[-98.708567,40.335475],[-98.689537,40.335457],[-98.689136,40.35033],[-98.648113,40.350298],[-98.648095,40.357586],[-98.629162,40.357566],[-98.629148,40.364845],[-98.638403,40.36485],[-98.638407,40.379252],[-98.629151,40.379243],[-98.629005,40.393697],[-98.638235,40.393729],[-98.638047,40.401318],[-98.647836,40.401319],[-98.647841,40.394105],[-98.648382,40.393758],[-98.676393,40.393806],[-98.676384,40.408288],[-98.724085,40.408317],[-98.723948,40.350391],[-98.726827,40.350398],[-98.812451,40.350375]]]}},{"type":"Feature","properties":{"zcta5":"68928","AFFGEOID10":"8600000US68928","GEOID10":"68928","ALAND10":296457603,"AWATER10":29964,"county_name":"Webster","state_code":"NE","county_state":"Webster County, NE","county_fips":"31181","risk_level_county":"Medium Risk (70–79% vaccinated)","mean_vaccination_rate_county":73.25,"risk_level_zcta":"Higher Risk (60–69% vaccinated)","mean_vaccination_rate_zips":66.94,"cases":1},"geometry":{"type":"Polygon","coordinates":[[[-98.629005,40.393697],[-98.629151,40.379243],[-98.638407,40.379252],[-98.638403,40.36485],[-98.629148,40.364845],[-98.629162,40.357566],[-98.648095,40.357586],[-98.648113,40.350298],[-98.689136,40.35033],[-98.689537,40.335457],[-98.708567,40.335475],[-98.708528,40.306303],[-98.651509,40.306704],[-98.651701,40.277793],[-98.632692,40.277825],[-98.632607,40.248486],[-98.651526,40.248571],[-98.651473,40.245125],[-98.654268,40.245394],[-98.654317,40.248588],[-98.726242,40.248578],[-98.726106,40.234227],[-98.726115,40.176395],[-98.724112,40.177631],[-98.724447,40.176395],[-98.689024,40.176255],[-98.688475,40.161785],[-98.613546,40.161676],[-98.613646,40.176165],[-98.611156,40.176172],[-98.611551,40.180175],[-98.612686,40.180766],[-98.611406,40.182546],[-98.613169,40.183616],[-98.61347,40.185282],[-98.614575,40.18624],[-98.613685,40.187746],[-98.614673,40.189913],[-98.613915,40.190724],[-98.594807,40.190758],[-98.595011,40.219755],[-98.538023,40.219701],[-98.538453,40.248806],[-98.538496,40.256004],[-98.534479,40.256019],[-98.521877,40.273845],[-98.520459,40.276477],[-98.519911,40.291867],[-98.516544,40.291452],[-98.514609,40.291881],[-98.500857,40.291881],[-98.500787,40.301534],[-98.519843,40.296531],[-98.519543,40.350372],[-98.534368,40.350365],[-98.534334,40.358037],[-98.505367,40.358111],[-98.505361,40.364998],[-98.505359,40.379552],[-98.524583,40.37938],[-98.52464,40.39383],[-98.534188,40.393715],[-98.534212,40.38703],[-98.54315,40.387017],[-98.54316,40.393787],[-98.572151,40.393854],[-98.572254,40.364903],[-98.591226,40.364826],[-98.591179,40.393785],[-98.629005,40.393697]]]}},{"type":"Feature","properties":{"zcta5":"68930","AFFGEOID10":"8600000US68930","GEOID10":"68930","ALAND10":363719739,"AWATER10":71634,"county_name":"Webster","state_code":"NE","county_state":"Webster County, NE","county_fips":"31181","risk_level_county":"Medium Risk (70–79% vaccinated)","mean_vaccination_rate_county":73.25,"risk_level_zcta":"Medium Risk (70–79% vaccinated)","mean_vaccination_rate_zips":70.22,"cases":1},"geometry":{"type":"Polygon","coordinates":[[[-98.505361,40.364998],[-98.505367,40.358111],[-98.534334,40.358037],[-98.534368,40.350365],[-98.519543,40.350372],[-98.519843,40.296531],[-98.500787,40.301534],[-98.500857,40.291881],[-98.514609,40.291881],[-98.516544,40.291452],[-98.519911,40.291867],[-98.520459,40.276477],[-98.521877,40.273845],[-98.534479,40.256019],[-98.538496,40.256004],[-98.538453,40.248806],[-98.538023,40.219701],[-98.537956,40.205168],[-98.519388,40.205006],[-98.519501,40.219484],[-98.504386,40.219502],[-98.500725,40.219369],[-98.490766,40.219501],[-98.489616,40.219064],[-98.48645,40.219527],[-98.462795,40.219532],[-98.462965,40.234074],[-98.445909,40.234202],[-98.444778,40.229562],[-98.44596,40.22381],[-98.447023,40.221644],[-98.449105,40.219698],[-98.443908,40.219768],[-98.443836,40.205285],[-98.462668,40.205081],[-98.462556,40.194343],[-98.447592,40.194335],[-98.447698,40.185366],[-98.448928,40.185362],[-98.450314,40.182957],[-98.450273,40.179984],[-98.448742,40.176835],[-98.449772,40.176208],[-98.500541,40.175889],[-98.500451,40.154216],[-98.500208,40.153007],[-98.497818,40.152101],[-98.497774,40.147091],[-98.443744,40.147178],[-98.443718,40.161665],[-98.424734,40.161689],[-98.424816,40.176312],[-98.407009,40.176357],[-98.400947,40.175988],[-98.39652,40.176408],[-98.396369,40.205402],[-98.33966,40.205395],[-98.339873,40.211102],[-98.339693,40.219846],[-98.311563,40.219894],[-98.311562,40.234354],[-98.301898,40.2344],[-98.301944,40.227186],[-98.292571,40.227154],[-98.292608,40.248844],[-98.330539,40.248777],[-98.330397,40.263429],[-98.33976,40.263457],[-98.339395,40.3142],[-98.349252,40.314269],[-98.349213,40.321435],[-98.358819,40.321484],[-98.358787,40.335948],[-98.339368,40.335903],[-98.339152,40.350313],[-98.331142,40.350224],[-98.27809,40.350347],[-98.278018,40.400707],[-98.27787,40.401043],[-98.278033,40.429812],[-98.284996,40.429975],[-98.292089,40.429987],[-98.292089,40.426484],[-98.29707,40.426523],[-98.297119,40.415543],[-98.316126,40.415311],[-98.319807,40.415425],[-98.320376,40.417691],[-98.32301,40.41959],[-98.326034,40.419818],[-98.326902,40.416042],[-98.32774,40.41547],[-98.33316,40.418627],[-98.336334,40.42],[-98.337293,40.421098],[-98.336305,40.422997],[-98.337862,40.4235],[-98.338433,40.423172],[-98.338411,40.41552],[-98.344371,40.417876],[-98.344369,40.415462],[-98.344335,40.382016],[-98.344244,40.380533],[-98.344705,40.379247],[-98.401608,40.379361],[-98.401491,40.350294],[-98.420264,40.3503],[-98.420651,40.379357],[-98.453053,40.379499],[-98.454118,40.376623],[-98.454922,40.373124],[-98.454329,40.364944],[-98.505361,40.364998]]]}},{"type":"Feature","properties":{"zcta5":"68970","AFFGEOID10":"8600000US68970","GEOID10":"68970","ALAND10":396061131,"AWATER10":7469,"county_name":"Webster","state_code":"NE","county_state":"Webster County, NE","county_fips":"31181","risk_level_county":"Medium Risk (70–79% vaccinated)","mean_vaccination_rate_county":73.25,"risk_level_zcta":"Very High Risk (<60% vaccinated)","mean_vaccination_rate_zips":59.82,"cases":1},"geometry":{"type":"Polygon","coordinates":[[[-98.613546,40.161676],[-98.613388,40.147188],[-98.650802,40.147226],[-98.650822,40.128819],[-98.651536,40.127096],[-98.650873,40.125175],[-98.650839,40.118283],[-98.632171,40.118166],[-98.632132,40.104233],[-98.634529,40.104412],[-98.635641,40.105564],[-98.638317,40.105153],[-98.637797,40.103598],[-98.632128,40.103715],[-98.63211,40.096732],[-98.633229,40.093862],[-98.632073,40.091984],[-98.644188,40.089374],[-98.643605,40.088264],[-98.650901,40.087699],[-98.65077,40.060215],[-98.587786,40.060198],[-98.584833,40.05993],[-98.579502,40.058411],[-98.575367,40.058802],[-98.57554017489669,40.0024799291122],[-98.575219,40.00248],[-98.560578,40.002274],[-98.543186,40.002285],[-98.523053,40.002336],[-98.5044549849831,40.0023285653691],[-98.490533,40.002323],[-98.4295196565301,40.0023773861263],[-98.4202609524351,40.0023856391579],[-98.42145,40.003682],[-98.421492,40.00572],[-98.422822,40.005788],[-98.421546,40.008489],[-98.423408,40.009611],[-98.423304,40.011327],[-98.421778,40.011967],[-98.422163,40.015858],[-98.421233,40.01643],[-98.422509,40.018375],[-98.422062,40.019313],[-98.423431,40.020229],[-98.422359,40.021579],[-98.423432,40.024783],[-98.422835,40.025858],[-98.420663,40.026201],[-98.419146,40.028215],[-98.418401,40.030595],[-98.418907,40.031551],[-98.416816,40.032458],[-98.417411,40.033556],[-98.415952,40.034082],[-98.417171,40.036531],[-98.41619,40.038188],[-98.417499,40.038789],[-98.417768,40.040977],[-98.415803,40.04174],[-98.416815,40.043191],[-98.416935,40.04681],[-98.41643,40.04786],[-98.417411,40.049073],[-98.416399,40.049941],[-98.414672,40.049299],[-98.412767,40.050532],[-98.412528,40.051722],[-98.414553,40.053322],[-98.413898,40.053916],[-98.411576,40.05309],[-98.410264,40.054759],[-98.412915,40.055902],[-98.412529,40.056679],[-98.410652,40.056563],[-98.409075,40.055027],[-98.408866,40.058251],[-98.410533,40.058479],[-98.410533,40.060218],[-98.409064,40.06343],[-98.404088,40.063923],[-98.407277,40.06578],[-98.406503,40.067904],[-98.404835,40.069085],[-98.403198,40.071879],[-98.404718,40.075689],[-98.406047,40.077554],[-98.401874,40.076188],[-98.393864,40.074022],[-98.392995,40.074855],[-98.386896,40.074809],[-98.387113,40.117736],[-98.404236,40.117814],[-98.405981,40.118286],[-98.406014,40.136617],[-98.403884,40.134078],[-98.400566,40.132732],[-98.397959,40.134106],[-98.393526,40.134398],[-98.39012,40.132893],[-98.390112,40.135668],[-98.389372,40.136989],[-98.38938,40.140079],[-98.381972,40.140138],[-98.381947,40.147328],[-98.396686,40.147258],[-98.39652,40.176408],[-98.400947,40.175988],[-98.407009,40.176357],[-98.424816,40.176312],[-98.424734,40.161689],[-98.443718,40.161665],[-98.443744,40.147178],[-98.497774,40.147091],[-98.497818,40.152101],[-98.500208,40.153007],[-98.500451,40.154216],[-98.500541,40.175889],[-98.449772,40.176208],[-98.448742,40.176835],[-98.450273,40.179984],[-98.450314,40.182957],[-98.448928,40.185362],[-98.447698,40.185366],[-98.447592,40.194335],[-98.462556,40.194343],[-98.462668,40.205081],[-98.443836,40.205285],[-98.443908,40.219768],[-98.449105,40.219698],[-98.447023,40.221644],[-98.44596,40.22381],[-98.444778,40.229562],[-98.445909,40.234202],[-98.462965,40.234074],[-98.462795,40.219532],[-98.48645,40.219527],[-98.489616,40.219064],[-98.490766,40.219501],[-98.500725,40.219369],[-98.504386,40.219502],[-98.519501,40.219484],[-98.519388,40.205006],[-98.537956,40.205168],[-98.538023,40.219701],[-98.595011,40.219755],[-98.594807,40.190758],[-98.613915,40.190724],[-98.614673,40.189913],[-98.613685,40.187746],[-98.614575,40.18624],[-98.61347,40.185282],[-98.613169,40.183616],[-98.611406,40.182546],[-98.612686,40.180766],[-98.611551,40.180175],[-98.611156,40.176172],[-98.613646,40.176165],[-98.613546,40.161676]]]}},{"type":"Feature","properties":{"zcta5":"68952","AFFGEOID10":"8600000US68952","GEOID10":"68952","ALAND10":169999624,"AWATER10":1925,"county_name":"Webster","state_code":"NE","county_state":"Webster County, NE","county_fips":"31181","risk_level_county":"Medium Risk (70–79% vaccinated)","mean_vaccination_rate_county":73.25,"risk_level_zcta":"Medium Risk (70–79% vaccinated)","mean_vaccination_rate_zips":72.77,"cases":1},"geometry":{"type":"Polygon","coordinates":[[[-98.7263734167054,40.0022221837665],[-98.726295,40.002222],[-98.710404,40.00218],[-98.693096,40.002373],[-98.691443,40.002505],[-98.690287,40.002548],[-98.672819,40.002364],[-98.669724,40.00241],[-98.653833,40.002269],[-98.652494,40.002245],[-98.64071,40.002493],[-98.613755,40.0024],[-98.593342,40.002476],[-98.57554017489669,40.0024799291122],[-98.575367,40.058802],[-98.579502,40.058411],[-98.584833,40.05993],[-98.587786,40.060198],[-98.65077,40.060215],[-98.650901,40.087699],[-98.643605,40.088264],[-98.644188,40.089374],[-98.632073,40.091984],[-98.633229,40.093862],[-98.63211,40.096732],[-98.632128,40.103715],[-98.637797,40.103598],[-98.638317,40.105153],[-98.635641,40.105564],[-98.634529,40.104412],[-98.632132,40.104233],[-98.632171,40.118166],[-98.650839,40.118283],[-98.650873,40.125175],[-98.651536,40.127096],[-98.650822,40.128819],[-98.650802,40.147226],[-98.613388,40.147188],[-98.613546,40.161676],[-98.688475,40.161785],[-98.689024,40.176255],[-98.724447,40.176395],[-98.724112,40.177631],[-98.726115,40.176395],[-98.726008,40.022475],[-98.726249,40.017014],[-98.7263734167054,40.0022221837665]]]}},{"type":"Feature","properties":{"zcta5":"68972","AFFGEOID10":"8600000US68972","GEOID10":"68972","ALAND10":334208520,"AWATER10":216580,"county_name":"Webster","state_code":"NE","county_state":"Webster County, NE","county_fips":"31181","risk_level_county":"Medium Risk (70–79% vaccinated)","mean_vaccination_rate_county":73.25,"risk_level_zcta":"Lowest Risk (85%+)","mean_vaccination_rate_zips":87.15,"cases":1},"geometry":{"type":"Polygon","coordinates":[[[-98.878579,40.20517],[-98.878543,40.195704],[-98.878288,40.190717],[-98.879068,40.189343],[-98.881043,40.188268],[-98.881614,40.186986],[-98.882861,40.187043],[-98.882189,40.179899],[-98.880338,40.179971],[-98.877221,40.176215],[-98.869669,40.17577],[-98.839832,40.175721],[-98.839672,40.132426],[-98.858301,40.132466],[-98.858113,40.096187],[-98.839393,40.096204],[-98.839431,40.103466],[-98.820037,40.104339],[-98.820221,40.097042],[-98.815485,40.096786],[-98.816465,40.096688],[-98.81727,40.094098],[-98.819487,40.092707],[-98.818859,40.089617],[-98.854365,40.086045],[-98.858417,40.086156],[-98.870112,40.088871],[-98.877711,40.089211],[-98.930383,40.088937],[-98.928293,40.087749],[-98.927698,40.085506],[-98.928741,40.083149],[-98.931363,40.080975],[-98.931929,40.077909],[-98.923916,40.076626],[-98.918136,40.078662],[-98.917064,40.078548],[-98.921163,40.076572],[-98.914947,40.076831],[-98.914903,40.016813],[-98.933664,40.016773],[-98.933916,40.0022063794451],[-98.834456,40.002363],[-98.82059,40.002319],[-98.777203,40.002359],[-98.774941,40.002336],[-98.72927257073219,40.00222897782059],[-98.7263734167054,40.0022221837665],[-98.726249,40.017014],[-98.726008,40.022475],[-98.726115,40.176395],[-98.726106,40.234227],[-98.839944,40.233469],[-98.859708,40.233836],[-98.859174,40.204787],[-98.863696,40.205011],[-98.878579,40.20517]]]}},{"type":"Feature","properties":{"zcta5":"68942","AFFGEOID10":"8600000US68942","GEOID10":"68942","ALAND10":376304638,"AWATER10":244028,"county_name":"Webster","state_code":"NE","county_state":"Webster County, NE","county_fips":"31181","risk_level_county":"Medium Risk (70–79% vaccinated)","mean_vaccination_rate_county":73.25,"risk_level_zcta":"Higher Risk (60–69% vaccinated)","mean_vaccination_rate_zips":65.22,"cases":1},"geometry":{"type":"Polygon","coordinates":[[[-98.39652,40.176408],[-98.396686,40.147258],[-98.381947,40.147328],[-98.381972,40.140138],[-98.38938,40.140079],[-98.389372,40.136989],[-98.390112,40.135668],[-98.39012,40.132893],[-98.393526,40.134398],[-98.397959,40.134106],[-98.400566,40.132732],[-98.403884,40.134078],[-98.406014,40.136617],[-98.405981,40.118286],[-98.404236,40.117814],[-98.387113,40.117736],[-98.386896,40.074809],[-98.392995,40.074855],[-98.393864,40.074022],[-98.401874,40.076188],[-98.406047,40.077554],[-98.404718,40.075689],[-98.403198,40.071879],[-98.404835,40.069085],[-98.406503,40.067904],[-98.407277,40.06578],[-98.404088,40.063923],[-98.409064,40.06343],[-98.410533,40.060218],[-98.410533,40.058479],[-98.408866,40.058251],[-98.409075,40.055027],[-98.410652,40.056563],[-98.412529,40.056679],[-98.412915,40.055902],[-98.410264,40.054759],[-98.411576,40.05309],[-98.413898,40.053916],[-98.414553,40.053322],[-98.412528,40.051722],[-98.412767,40.050532],[-98.414672,40.049299],[-98.416399,40.049941],[-98.417411,40.049073],[-98.41643,40.04786],[-98.416935,40.04681],[-98.416815,40.043191],[-98.415803,40.04174],[-98.417768,40.040977],[-98.417499,40.038789],[-98.41619,40.038188],[-98.417171,40.036531],[-98.415952,40.034082],[-98.417411,40.033556],[-98.416816,40.032458],[-98.418907,40.031551],[-98.418401,40.030595],[-98.419146,40.028215],[-98.420663,40.026201],[-98.422835,40.025858],[-98.423432,40.024783],[-98.422359,40.021579],[-98.423431,40.020229],[-98.422062,40.019313],[-98.422509,40.018375],[-98.421233,40.01643],[-98.422163,40.015858],[-98.421778,40.011967],[-98.423304,40.011327],[-98.423408,40.009611],[-98.421546,40.008489],[-98.422822,40.005788],[-98.421492,40.00572],[-98.42145,40.003682],[-98.4202609524351,40.0023856391579],[-98.274015,40.002516],[-98.268218,40.00249],[-98.250008,40.002307],[-98.193483,40.002614],[-98.179315,40.002483],[-98.172269,40.002438],[-98.15684409451629,40.0024451416323],[-98.142031,40.002452],[-98.14191722092279,40.0024513958205],[-98.142067,40.016835],[-98.110299,40.01682],[-98.106426,40.021934],[-98.105349,40.02296],[-98.106517,40.024351],[-98.113839,40.02467],[-98.116874,40.023022],[-98.120595,40.023546],[-98.121399,40.023935],[-98.122176,40.027138],[-98.12432,40.028602],[-98.129421,40.030685],[-98.129897,40.031554],[-98.128555,40.033476],[-98.130551,40.032768],[-98.130519,40.034415],[-98.13415,40.034692],[-98.129156,40.03862],[-98.142029,40.038686],[-98.142493,40.034909],[-98.146743,40.035206],[-98.164314,40.038058],[-98.168692,40.039457],[-98.193114,40.050084],[-98.198163,40.052344],[-98.198843,40.052534],[-98.199156,40.11841],[-98.218244,40.118468],[-98.218193,40.14753],[-98.226219,40.147508],[-98.235364,40.144244],[-98.256097,40.133059],[-98.273697,40.133038],[-98.273542,40.227102],[-98.292571,40.227154],[-98.301944,40.227186],[-98.301898,40.2344],[-98.311562,40.234354],[-98.311563,40.219894],[-98.339693,40.219846],[-98.339873,40.211102],[-98.33966,40.205395],[-98.396369,40.205402],[-98.39652,40.176408]]]}},{"type":"Feature","properties":{"zcta5":"68957","AFFGEOID10":"8600000US68957","GEOID10":"68957","ALAND10":278330255,"AWATER10":139460,"county_name":"Webster","state_code":"NE","county_state":"Webster County, NE","county_fips":"31181","risk_level_county":"Medium Risk (70–79% vaccinated)","mean_vaccination_rate_county":73.25,"risk_level_zcta":"Lowest Risk (85%+)","mean_vaccination_rate_zips":91.88,"cases":1},"geometry":{"type":"Polygon","coordinates":[[[-98.27809,40.350347],[-98.331142,40.350224],[-98.339152,40.350313],[-98.339368,40.335903],[-98.358787,40.335948],[-98.358819,40.321484],[-98.349213,40.321435],[-98.349252,40.314269],[-98.339395,40.3142],[-98.33976,40.263457],[-98.330397,40.263429],[-98.330539,40.248777],[-98.292608,40.248844],[-98.292571,40.227154],[-98.273542,40.227102],[-98.273697,40.133038],[-98.256097,40.133059],[-98.256009,40.147407],[-98.23716,40.147471],[-98.237214,40.176453],[-98.18045,40.176496],[-98.180528,40.191018],[-98.161574,40.191091],[-98.161567,40.220117],[-98.142727,40.220109],[-98.142813,40.249121],[-98.124011,40.249245],[-98.123857,40.293059],[-98.14287,40.292813],[-98.143029,40.307282],[-98.180483,40.307343],[-98.180719,40.337888],[-98.179507,40.339775],[-98.179872,40.342011],[-98.182202,40.343194],[-98.181573,40.344426],[-98.180467,40.34358],[-98.17948,40.345479],[-98.182142,40.345639],[-98.179949,40.34636],[-98.180066,40.350443],[-98.203576,40.350392],[-98.273571,40.350359],[-98.27809,40.350347]]]}}]}