{"type":"FeatureCollection","features":[{"type":"Feature","properties":{"zcta5":"22601","AFFGEOID10":"8600000US22601","GEOID10":"22601","ALAND10":25455070,"AWATER10":54462,"county_name":"Winchester","state_code":"VA","county_state":"Winchester County, VA","county_fips":"51840","risk_level_county":"Medium Risk (70–79% vaccinated)","mean_vaccination_rate_county":70.28,"risk_level_zcta":"Medium Risk (70–79% vaccinated)","mean_vaccination_rate_zips":75.79,"cases":5},"geometry":{"type":"Polygon","coordinates":[[[-78.198858,39.191046],[-78.203032,39.185284],[-78.203962,39.183724],[-78.201089,39.180647],[-78.200497,39.180163],[-78.200513,39.180137],[-78.194662,39.177049],[-78.189348,39.175189],[-78.191602,39.170614],[-78.193628,39.165454],[-78.193787,39.163096],[-78.195836,39.154929],[-78.199948,39.153141],[-78.198123,39.149432],[-78.198141,39.146922],[-78.197033,39.143112],[-78.196629,39.142151],[-78.195098,39.142152],[-78.194337,39.141271],[-78.19178,39.140709],[-78.190297,39.140944],[-78.187336,39.139793],[-78.18249,39.136695],[-78.182676,39.134275],[-78.183799,39.131425],[-78.183183,39.131027],[-78.17424,39.139844],[-78.17162,39.143174],[-78.165287,39.154997],[-78.163899,39.157158],[-78.160327,39.160631],[-78.157734,39.162629],[-78.155849,39.164846],[-78.15284,39.170677],[-78.151097,39.173166],[-78.148895,39.175352],[-78.140615,39.181587],[-78.139283,39.182964],[-78.136725,39.184371],[-78.137607,39.184895],[-78.137382,39.184885],[-78.135142,39.18895],[-78.134191,39.192318],[-78.134227,39.196403],[-78.136755,39.206825],[-78.135373,39.200262],[-78.137204,39.198533],[-78.136255,39.196245],[-78.138829,39.19694],[-78.143297,39.192308],[-78.141506,39.191265],[-78.141152,39.189555],[-78.142526,39.187815],[-78.145816,39.189769],[-78.14714,39.191313],[-78.144808,39.191497],[-78.145938,39.192791],[-78.145176,39.193262],[-78.147932,39.194598],[-78.147834,39.195542],[-78.149844,39.19702],[-78.153206,39.194025],[-78.155538,39.195374],[-78.155037,39.195925],[-78.155946,39.196779],[-78.154974,39.197938],[-78.155916,39.198857],[-78.155985,39.19917],[-78.155327,39.20052],[-78.155418,39.20097],[-78.154074,39.20292],[-78.153823,39.204579],[-78.156614,39.205499],[-78.159931,39.203099],[-78.163071,39.200287],[-78.164126,39.198713],[-78.187794,39.20487],[-78.18915,39.203505],[-78.193367,39.197754],[-78.197264,39.191138],[-78.198858,39.191046]]]}}]}