{"type":"FeatureCollection","features":[{"type":"Feature","properties":{"zcta5":"55962","AFFGEOID10":"8600000US55962","GEOID10":"55962","ALAND10":163803055,"AWATER10":723121,"county_name":"Winona","state_code":"MN","county_state":"Winona County, MN","county_fips":"27169","risk_level_county":"Medium Risk (70–79% vaccinated)","mean_vaccination_rate_county":79.62,"risk_level_zcta":"Very High Risk (<60% vaccinated)","mean_vaccination_rate_zips":48.34,"cases":26},"geometry":{"type":"Polygon","coordinates":[[[-91.914571,43.866966],[-91.91517,43.86534],[-91.91399,43.86152],[-91.91927,43.86114],[-91.91927,43.85274],[-91.92014,43.8508],[-91.92424,43.85022],[-91.924795,43.847016],[-91.95961,43.84702],[-91.95983,43.8462],[-91.95989,43.83886],[-91.95948,43.83756],[-91.95742,43.8363],[-91.95288,43.83598],[-91.95141,43.83538],[-91.9503,43.83401],[-91.95011,43.82518],[-91.92978,43.82514],[-91.9298,43.8221],[-91.93128,43.81976],[-91.92728,43.8178],[-91.92437,43.81748],[-91.92107,43.81547],[-91.91892,43.81565],[-91.9174,43.815],[-91.9173,43.81324],[-91.91513,43.81051],[-91.91282,43.81009],[-91.90968,43.80829],[-91.90712,43.80525],[-91.90898,43.80428],[-91.90958,43.80139],[-91.91062,43.79957],[-91.91035,43.79767],[-91.91113,43.79604],[-91.90633,43.79515],[-91.90346,43.79391],[-91.90053,43.79087],[-91.89562,43.78904],[-91.89281,43.78715],[-91.891039,43.78433],[-91.889986,43.781415],[-91.888801,43.780693],[-91.888374,43.781769],[-91.886374,43.779895],[-91.881111,43.777374],[-91.88102,43.77877],[-91.87689,43.7775],[-91.87377,43.77961],[-91.86771,43.78266],[-91.86344,43.783962],[-91.864664,43.78179],[-91.866761,43.780688],[-91.870055,43.780698],[-91.87214,43.780091],[-91.874122,43.778452],[-91.872128,43.775212],[-91.872052,43.770809],[-91.8729,43.768954],[-91.870681,43.765416],[-91.871374,43.764002],[-91.873386,43.764],[-91.875152,43.76565],[-91.877162,43.765988],[-91.880809,43.764331],[-91.891519,43.763388],[-91.891864,43.762054],[-91.888389,43.760337],[-91.887406,43.760345],[-91.883991,43.757216],[-91.883317,43.753976],[-91.88135,43.75167],[-91.8816,43.749573],[-91.885279,43.746537],[-91.89165,43.746166],[-91.893515,43.746961],[-91.893662,43.745588],[-91.896475,43.743824],[-91.8947,43.741867],[-91.890831,43.740412],[-91.889815,43.73817],[-91.89066,43.73935],[-91.89556,43.74176],[-91.89659,43.74337],[-91.89627,43.74661],[-91.90003,43.74829],[-91.90361,43.74945],[-91.90811,43.75024],[-91.909572,43.750036],[-91.909552,43.752646],[-91.913274,43.752648],[-91.914588,43.750617],[-91.912387,43.74944],[-91.911766,43.748049],[-91.911746,43.744799],[-91.910443,43.741722],[-91.912351,43.740706],[-91.915699,43.740432],[-91.917481,43.738924],[-91.911021,43.738711],[-91.91475,43.73218],[-91.91751,43.73123],[-91.91743,43.73042],[-91.91343,43.73076],[-91.90742,43.72625],[-91.90571,43.72641],[-91.90335,43.72795],[-91.89574,43.72791],[-91.89483,43.72553],[-91.89333,43.72446],[-91.89123,43.7245],[-91.88998,43.7237],[-91.890054,43.71723],[-91.850194,43.717368],[-91.850217,43.70264],[-91.845235,43.702641],[-91.845218,43.705575],[-91.83986,43.705587],[-91.839873,43.709682],[-91.835479,43.709657],[-91.835502,43.702625],[-91.84005,43.702637],[-91.84006,43.69788],[-91.83377,43.69984],[-91.8306,43.70184],[-91.82805,43.70261],[-91.82459,43.70263],[-91.8221,43.70326],[-91.82054,43.70265],[-91.81036,43.70261],[-91.81008,43.69959],[-91.80999,43.69225],[-91.81119,43.69105],[-91.81233,43.68797],[-91.80994,43.68441],[-91.80986,43.67394],[-91.829913,43.673877],[-91.829602,43.67125],[-91.829431,43.659686],[-91.817833,43.65972],[-91.817683,43.645041],[-91.809725,43.645087],[-91.809753,43.647234],[-91.805824,43.647291],[-91.805857,43.649765],[-91.809926,43.649766],[-91.809968,43.653281],[-91.806519,43.653285],[-91.806811,43.655635],[-91.804996,43.657008],[-91.804579,43.655836],[-91.803482,43.656996],[-91.799933,43.655426],[-91.798851,43.654257],[-91.795765,43.653932],[-91.794446,43.654911],[-91.792857,43.658095],[-91.792349,43.6607],[-91.79092,43.661479],[-91.79099,43.65961],[-91.78543,43.6595],[-91.78479,43.65872],[-91.77334,43.65794],[-91.7695,43.65853],[-91.76899,43.65918],[-91.77168,43.66177],[-91.77346,43.66429],[-91.77358,43.66552],[-91.77215,43.66747],[-91.77101,43.66779],[-91.76546,43.66789],[-91.76259,43.66876],[-91.76163,43.66967],[-91.75737,43.67071],[-91.759478,43.673637],[-91.730725,43.6736],[-91.730571,43.695181],[-91.734027,43.695113],[-91.735761,43.693903],[-91.74035,43.69514],[-91.74644,43.69508],[-91.74716,43.69551],[-91.74716,43.69925],[-91.74851,43.70188],[-91.74875,43.70735],[-91.75037,43.7126],[-91.75101,43.71671],[-91.78279,43.71678],[-91.78526,43.71708],[-91.790424,43.720081],[-91.79026,43.72553],[-91.78949,43.7277],[-91.79025,43.72841],[-91.79034,43.73103],[-91.80691,43.73135],[-91.81012,43.73287],[-91.81016,43.74111],[-91.81177,43.74369],[-91.81157,43.74535],[-91.81029,43.74692],[-91.81031,43.74902],[-91.813664,43.754526],[-91.81648,43.7585],[-91.816506,43.760262],[-91.77717,43.760076],[-91.77561,43.76052],[-91.77631,43.76171],[-91.77905,43.76348],[-91.7804,43.76503],[-91.7825,43.76604],[-91.78416,43.77451],[-91.78233,43.77485],[-91.78181,43.7772],[-91.78087,43.77779],[-91.77949,43.77683],[-91.7786,43.77861],[-91.77417,43.78083],[-91.7726,43.78257],[-91.77171,43.78536],[-91.76646,43.78542],[-91.766532,43.788467],[-91.76761,43.789564],[-91.768656,43.792602],[-91.768289,43.794783],[-91.766214,43.797439],[-91.76737,43.79825],[-91.764926,43.798222],[-91.762974,43.801944],[-91.760456,43.802629],[-91.753114,43.803075],[-91.753127,43.803419],[-91.756329,43.803416],[-91.761706,43.802873],[-91.763107,43.802414],[-91.766091,43.798313],[-91.77151,43.800454],[-91.774121,43.799345],[-91.780256,43.79742],[-91.784903,43.797502],[-91.787953,43.796307],[-91.787834,43.79768],[-91.78956,43.799059],[-91.791389,43.798845],[-91.793999,43.795545],[-91.795237,43.795885],[-91.796352,43.797996],[-91.798166,43.79865],[-91.798537,43.799891],[-91.80174,43.79932],[-91.804278,43.797581],[-91.808983,43.798006],[-91.810745,43.797279],[-91.814098,43.797055],[-91.818233,43.798825],[-91.820505,43.799337],[-91.823196,43.7982],[-91.826773,43.797583],[-91.832774,43.79269],[-91.837399,43.792676],[-91.83992,43.79489],[-91.83942,43.79804],[-91.84023,43.80207],[-91.83974,43.80331],[-91.83633,43.80706],[-91.83496,43.80963],[-91.83263,43.81094],[-91.832888,43.813612],[-91.83515,43.81593],[-91.835348,43.827274],[-91.840397,43.829358],[-91.84524,43.83026],[-91.84524,43.83212],[-91.84314,43.83285],[-91.84216,43.83481],[-91.84202,43.83959],[-91.84518,43.83984],[-91.84528,43.84688],[-91.84548,43.846959],[-91.869412,43.847043],[-91.875396,43.846827],[-91.875395,43.848196],[-91.87325,43.849255],[-91.869375,43.848522],[-91.866173,43.84851],[-91.865138,43.849404],[-91.866837,43.849501],[-91.867576,43.85102],[-91.870409,43.852378],[-91.871024,43.854677],[-91.870351,43.856204],[-91.867746,43.857057],[-91.864987,43.858146],[-91.863788,43.860414],[-91.865519,43.860286],[-91.865794,43.862112],[-91.867163,43.863478],[-91.868887,43.863806],[-91.869362,43.863927],[-91.872513,43.861113],[-91.878851,43.859415],[-91.880839,43.859876],[-91.883519,43.859038],[-91.885283,43.857241],[-91.888023,43.857816],[-91.888225,43.858639],[-91.892054,43.86004],[-91.894099,43.85971],[-91.896175,43.860737],[-91.899485,43.860215],[-91.899208,43.862211],[-91.901858,43.861637],[-91.903241,43.863485],[-91.906126,43.864113],[-91.907284,43.865071],[-91.910214,43.864215],[-91.912116,43.865391],[-91.909984,43.866431],[-91.910794,43.867588],[-91.914571,43.866966]]]}},{"type":"Feature","properties":{"zcta5":"55943","AFFGEOID10":"8600000US55943","GEOID10":"55943","ALAND10":441236465,"AWATER10":3087824,"county_name":"Winona","state_code":"MN","county_state":"Winona County, MN","county_fips":"27169","risk_level_county":"Medium Risk (70–79% vaccinated)","mean_vaccination_rate_county":79.62,"risk_level_zcta":"Higher Risk (60–69% vaccinated)","mean_vaccination_rate_zips":68.21,"cases":26},"geometry":{"type":"Polygon","coordinates":[[[-91.730571,43.695181],[-91.730725,43.6736],[-91.695288,43.673504],[-91.696225,43.669826],[-91.699698,43.669825],[-91.699765,43.667834],[-91.696829,43.668015],[-91.69802,43.665122],[-91.701557,43.663192],[-91.703776,43.660143],[-91.70317,43.657083],[-91.697761,43.652905],[-91.694637,43.65188],[-91.691609,43.649611],[-91.690172,43.647299],[-91.686407,43.643205],[-91.680122,43.638386],[-91.678192,43.637865],[-91.673295,43.637881],[-91.665996,43.637442],[-91.662504,43.636233],[-91.661046,43.634798],[-91.660467,43.630752],[-91.653688,43.630625],[-91.651103,43.631718],[-91.650666,43.632865],[-91.650571,43.65407],[-91.657395,43.653954],[-91.660615,43.65439],[-91.670198,43.6545],[-91.67035,43.657731],[-91.66871,43.658402],[-91.669258,43.66235],[-91.672134,43.664251],[-91.672691,43.668352],[-91.672353,43.670018],[-91.665417,43.670395],[-91.66544,43.673466],[-91.648158,43.673448],[-91.645854,43.671935],[-91.645627,43.663863],[-91.640744,43.663849],[-91.640479,43.666677],[-91.640512,43.673459],[-91.625102,43.673488],[-91.623615,43.673676],[-91.610747,43.673761],[-91.611017,43.710581],[-91.605902,43.710228],[-91.602944,43.707289],[-91.600893,43.706249],[-91.593976,43.709542],[-91.593373,43.710379],[-91.593883,43.712329],[-91.599254,43.717893],[-91.599901,43.719262],[-91.599292,43.721825],[-91.598099,43.72321],[-91.588712,43.727437],[-91.581588,43.729679],[-91.574753,43.731336],[-91.569964,43.732152],[-91.564194,43.731859],[-91.566356,43.730743],[-91.56734,43.731545],[-91.569168,43.730472],[-91.567636,43.729762],[-91.569077,43.728363],[-91.568572,43.72583],[-91.56521,43.724236],[-91.562595,43.723928],[-91.563178,43.720844],[-91.56428,43.719832],[-91.559562,43.717518],[-91.560334,43.715347],[-91.55804,43.716358],[-91.553919,43.716395],[-91.553836,43.73232],[-91.549092,43.732234],[-91.549002,43.728604],[-91.532971,43.728568],[-91.533132,43.726655],[-91.531443,43.725575],[-91.526286,43.723821],[-91.524133,43.721955],[-91.521824,43.718803],[-91.51896,43.717832],[-91.514939,43.717776],[-91.511266,43.71534],[-91.509665,43.71727],[-91.503743,43.718648],[-91.501274,43.718579],[-91.501279,43.714892],[-91.491658,43.714866],[-91.491702,43.72481],[-91.48507,43.724845],[-91.482089,43.723831],[-91.482103,43.71635],[-91.480249,43.717263],[-91.479118,43.719025],[-91.479864,43.719828],[-91.478904,43.724197],[-91.480568,43.723826],[-91.483638,43.724832],[-91.486888,43.729072],[-91.488573,43.729217],[-91.488421,43.730848],[-91.49156,43.732922],[-91.489623,43.735875],[-91.490898,43.737755],[-91.49017,43.738506],[-91.491545,43.739418],[-91.491448,43.751923],[-91.48787,43.751198],[-91.48157,43.748533],[-91.479236,43.746239],[-91.477815,43.745694],[-91.476182,43.739244],[-91.473817,43.736097],[-91.472106,43.7353],[-91.472073,43.733461],[-91.439834,43.732931],[-91.438982,43.733462],[-91.438288,43.733635],[-91.435945,43.733981],[-91.434192,43.734416],[-91.433044,43.734489],[-91.432272,43.734322],[-91.432276,43.739023],[-91.429986,43.739021],[-91.430016,43.742809],[-91.425406,43.742805],[-91.425392,43.748079],[-91.420683,43.747919],[-91.421963,43.7663],[-91.415684,43.763509],[-91.412101,43.762546],[-91.402882,43.758531],[-91.402877,43.760527],[-91.392975,43.760525],[-91.392968,43.761466],[-91.392937,43.762817],[-91.397389,43.765643],[-91.399677,43.768248],[-91.403594,43.770342],[-91.406431,43.773969],[-91.414014,43.775115],[-91.41983,43.776516],[-91.421983,43.777415],[-91.42274,43.783817],[-91.422622,43.788062],[-91.420285,43.788041],[-91.423665,43.791821],[-91.426147,43.791794],[-91.428813,43.794059],[-91.429423,43.797169],[-91.431721,43.801497],[-91.430075,43.802815],[-91.430236,43.804394],[-91.429191,43.807843],[-91.427113,43.808883],[-91.426519,43.810593],[-91.425076,43.810609],[-91.425089,43.807404],[-91.419465,43.80741],[-91.419449,43.804961],[-91.41797,43.807129],[-91.414324,43.808119],[-91.410444,43.81082],[-91.410439,43.812844],[-91.412865,43.81328],[-91.412831,43.815658],[-91.411751,43.817376],[-91.413408,43.81874],[-91.41242,43.820116],[-91.409716,43.820743],[-91.409107,43.821925],[-91.40224,43.822118],[-91.405742,43.824599],[-91.411623,43.826482],[-91.413688,43.826648],[-91.417741,43.825607],[-91.420361,43.82568],[-91.423654,43.82667],[-91.425737,43.826174],[-91.428196,43.823636],[-91.434518,43.82226],[-91.439094,43.822907],[-91.439089,43.829101],[-91.445992,43.829227],[-91.445854,43.832604],[-91.466918,43.832663],[-91.467021,43.846928],[-91.481115,43.846925],[-91.48064,43.86881],[-91.48032,43.87872],[-91.48601,43.88073],[-91.4889,43.87955],[-91.49161,43.87778],[-91.49454,43.87533],[-91.49781,43.87319],[-91.50001,43.86889],[-91.50143,43.86948],[-91.504976,43.86968],[-91.50498,43.871904],[-91.499923,43.871947],[-91.499943,43.875933],[-91.517887,43.875957],[-91.51986,43.8774],[-91.52235,43.87826],[-91.53023,43.87916],[-91.53249,43.87973],[-91.53444,43.88088],[-91.54285,43.88889],[-91.54892,43.8933],[-91.55267,43.89668],[-91.55994,43.90428],[-91.56028,43.90514],[-91.56038,43.912],[-91.5504,43.91206],[-91.55021,43.92996],[-91.55523,43.93045],[-91.555203,43.933677],[-91.600408,43.933594],[-91.600269,43.884809],[-91.603196,43.883934],[-91.60588,43.882007],[-91.681981,43.881931],[-91.681945,43.877024],[-91.685063,43.877035],[-91.687952,43.877047],[-91.688681,43.876005],[-91.69263,43.874257],[-91.696651,43.873326],[-91.69602,43.86898],[-91.6942,43.86762],[-91.69179,43.86762],[-91.686,43.86929],[-91.68141,43.87135],[-91.67722,43.87385],[-91.67437,43.87452],[-91.66939,43.87427],[-91.66593,43.87332],[-91.66145,43.86851],[-91.65981,43.86479],[-91.663791,43.865927],[-91.663156,43.867769],[-91.66653,43.870179],[-91.668366,43.870239],[-91.669231,43.871672],[-91.670054,43.872023],[-91.673444,43.870274],[-91.678422,43.869797],[-91.679485,43.869018],[-91.680489,43.870227],[-91.682754,43.869982],[-91.684353,43.868826],[-91.688042,43.868138],[-91.689228,43.866574],[-91.691639,43.865135],[-91.695811,43.865655],[-91.695583,43.867165],[-91.696665,43.868841],[-91.69822,43.868981],[-91.699037,43.871343],[-91.700522,43.871642],[-91.700409,43.873021],[-91.70913,43.876417],[-91.709094,43.859949],[-91.704537,43.859962],[-91.704538,43.858021],[-91.707334,43.858024],[-91.707324,43.856484],[-91.709654,43.856487],[-91.709652,43.854431],[-91.711775,43.854529],[-91.711758,43.852776],[-91.684127,43.852722],[-91.684138,43.847003],[-91.70076,43.84694],[-91.700549,43.839871],[-91.710641,43.839439],[-91.711039,43.824761],[-91.718267,43.824592],[-91.720401,43.822786],[-91.721028,43.821165],[-91.725989,43.821061],[-91.727433,43.821427],[-91.730102,43.820796],[-91.730532,43.819516],[-91.730463,43.800057],[-91.726393,43.800806],[-91.720443,43.798829],[-91.71808,43.798623],[-91.714181,43.801163],[-91.709262,43.797772],[-91.707349,43.798101],[-91.702716,43.796949],[-91.701668,43.795906],[-91.702331,43.793655],[-91.704936,43.793014],[-91.702549,43.79101],[-91.700514,43.790826],[-91.700538,43.788625],[-91.694012,43.788712],[-91.693793,43.786822],[-91.691329,43.785427],[-91.68765,43.788631],[-91.686593,43.78812],[-91.686259,43.784643],[-91.684662,43.782985],[-91.684977,43.780141],[-91.681398,43.778493],[-91.681235,43.776419],[-91.68425,43.776378],[-91.684256,43.768796],[-91.678222,43.768648],[-91.678062,43.76132],[-91.683402,43.761357],[-91.684601,43.76031],[-91.686524,43.756033],[-91.688789,43.753741],[-91.685821,43.753671],[-91.685778,43.749893],[-91.671143,43.74984],[-91.67115,43.743736],[-91.690363,43.743767],[-91.690361,43.74928],[-91.697613,43.749141],[-91.697588,43.746625],[-91.701459,43.746447],[-91.701414,43.738761],[-91.697637,43.738569],[-91.696457,43.731144],[-91.699337,43.730916],[-91.695784,43.729141],[-91.695676,43.725502],[-91.698108,43.725459],[-91.697993,43.723726],[-91.694864,43.723767],[-91.695249,43.716383],[-91.697954,43.716339],[-91.697892,43.711457],[-91.690267,43.711512],[-91.690261,43.704714],[-91.702043,43.70429],[-91.730488,43.704358],[-91.730571,43.695181]]]}},{"type":"Feature","properties":{"zcta5":"55947","AFFGEOID10":"8600000US55947","GEOID10":"55947","ALAND10":189181951,"AWATER10":17638222,"county_name":"Winona","state_code":"MN","county_state":"Winona County, MN","county_fips":"27169","risk_level_county":"Medium Risk (70–79% vaccinated)","mean_vaccination_rate_county":79.62,"risk_level_zcta":"Medium Risk (70–79% vaccinated)","mean_vaccination_rate_zips":75.66,"cases":26},"geometry":{"type":"Polygon","coordinates":[[[-91.48064,43.86881],[-91.481115,43.846925],[-91.467021,43.846928],[-91.466918,43.832663],[-91.445854,43.832604],[-91.445992,43.829227],[-91.439089,43.829101],[-91.439094,43.822907],[-91.434518,43.82226],[-91.428196,43.823636],[-91.425737,43.826174],[-91.423654,43.82667],[-91.420361,43.82568],[-91.417741,43.825607],[-91.413688,43.826648],[-91.411623,43.826482],[-91.405742,43.824599],[-91.40224,43.822118],[-91.409107,43.821925],[-91.409716,43.820743],[-91.41242,43.820116],[-91.413408,43.81874],[-91.411751,43.817376],[-91.412831,43.815658],[-91.412865,43.81328],[-91.410439,43.812844],[-91.410444,43.81082],[-91.414324,43.808119],[-91.41797,43.807129],[-91.419449,43.804961],[-91.419465,43.80741],[-91.425089,43.807404],[-91.425076,43.810609],[-91.426519,43.810593],[-91.427113,43.808883],[-91.429191,43.807843],[-91.430236,43.804394],[-91.430075,43.802815],[-91.431721,43.801497],[-91.429423,43.797169],[-91.428813,43.794059],[-91.426147,43.791794],[-91.423665,43.791821],[-91.420285,43.788041],[-91.422622,43.788062],[-91.42274,43.783817],[-91.421983,43.777415],[-91.41983,43.776516],[-91.414014,43.775115],[-91.406431,43.773969],[-91.403594,43.770342],[-91.399677,43.768248],[-91.397389,43.765643],[-91.392937,43.762817],[-91.392968,43.761466],[-91.390791,43.760523],[-91.382145,43.760543],[-91.378918,43.762475],[-91.376227,43.762556],[-91.373317,43.761602],[-91.367291,43.764602],[-91.360414,43.763653],[-91.354366,43.763392],[-91.350826,43.763522],[-91.345934,43.765674],[-91.344681,43.766663],[-91.34523,43.762973],[-91.344174,43.76084],[-91.34642,43.759392],[-91.345091,43.758188],[-91.342696,43.759428],[-91.342224,43.761729],[-91.344879,43.763005],[-91.343864,43.765484],[-91.337991,43.768058],[-91.338032,43.766689],[-91.339973,43.766275],[-91.341677,43.763929],[-91.338117,43.763314],[-91.286788,43.760328],[-91.290544,43.753233],[-91.293774,43.753222],[-91.293737,43.746869],[-91.298561,43.738468],[-91.29513,43.73428],[-91.291214,43.733343],[-91.291316,43.731541],[-91.259058,43.731435],[-91.265157,43.720114],[-91.26743,43.719289],[-91.268003,43.717197],[-91.267099,43.717191],[-91.26781,43.712948],[-91.268493,43.711611],[-91.2676703761252,43.7115115348125],[-91.266538,43.713947],[-91.261316,43.71949],[-91.258756,43.723426],[-91.25777341547641,43.725660823086095],[-91.255932,43.729849],[-91.254903,43.733533],[-91.255431,43.744876],[-91.243955,43.773046],[-91.244135,43.774667],[-91.262436,43.792166],[-91.264436,43.800366],[-91.267436,43.804166],[-91.272037,43.813766],[-91.273037,43.818566],[-91.2731604133232,43.818853964420896],[-91.2731607241379,43.8188546896552],[-91.27520724137929,43.823629896551694],[-91.275737,43.824866],[-91.2764421408313,43.8295027151187],[-91.2764729506968,43.8297053080804],[-91.277695,43.837741],[-91.281968,43.842738],[-91.284138,43.847065],[-91.291002,43.852733],[-91.296739,43.855165],[-91.298815,43.856555],[-91.301302,43.859515],[-91.310991,43.867381],[-91.313037,43.875757],[-91.31531,43.881808],[-91.320605,43.888491],[-91.328143,43.893435],[-91.338141,43.897664],[-91.342335,43.902697],[-91.3434473308959,43.9047817726167],[-91.360707,43.904564],[-91.361379,43.900999],[-91.361413,43.889442],[-91.366055,43.88947],[-91.36618,43.887292],[-91.36882,43.88711],[-91.3737,43.88747],[-91.37598,43.88896],[-91.37646,43.89155],[-91.37876,43.89245],[-91.38512,43.89268],[-91.38748,43.89309],[-91.39246,43.89525],[-91.39654,43.89646],[-91.39826,43.89756],[-91.39921,43.90143],[-91.4064,43.90102],[-91.40828,43.90127],[-91.41662,43.9012],[-91.41832,43.90146],[-91.42622,43.9045],[-91.4309,43.90488],[-91.432273,43.904344],[-91.459814,43.878213],[-91.459814,43.879822],[-91.465498,43.879844],[-91.465534,43.883331],[-91.467374,43.883367],[-91.46736,43.877025],[-91.472945,43.87702],[-91.472953,43.878583],[-91.475367,43.878602],[-91.475021,43.869026],[-91.48064,43.86881]]]}},{"type":"Feature","properties":{"zcta5":"55969","AFFGEOID10":"8600000US55969","GEOID10":"55969","ALAND10":79892189,"AWATER10":0,"county_name":"Winona","state_code":"MN","county_state":"Winona County, MN","county_fips":"27169","risk_level_county":"Medium Risk (70–79% vaccinated)","mean_vaccination_rate_county":79.62,"risk_level_zcta":"Higher Risk (60–69% vaccinated)","mean_vaccination_rate_zips":64.62,"cases":26},"geometry":{"type":"Polygon","coordinates":[[[-91.86845,44.13605],[-91.86977,44.1355],[-91.88627,44.1355],[-91.88828,44.13501],[-91.88931,44.13391],[-91.8894,44.13046],[-91.89028,44.12893],[-91.89234,44.12827],[-91.89648,44.12825],[-91.89885,44.1273],[-91.89941,44.1261],[-91.8994,44.12281],[-91.90189,44.12103],[-91.91964,44.12091],[-91.91926,44.09741],[-91.91819,44.09588],[-91.91937,44.09355],[-91.9193,44.0817],[-91.92037,44.07947],[-91.92154,44.07878],[-91.91942,44.07827],[-91.9194,44.07098],[-91.92019,44.06875],[-91.924471,44.063792],[-91.93952,44.06369],[-91.939551,44.056427],[-91.92451,44.056522],[-91.92448,44.04926],[-91.93953,44.04965],[-91.9388,44.04625],[-91.93947,44.04083],[-91.93938,44.03473],[-91.92273,44.03468],[-91.91325,44.03492],[-91.9101,44.02342],[-91.90959,44.02038],[-91.8993,44.02063],[-91.88132,44.02096],[-91.871767,44.020849],[-91.87128,44.02227],[-91.87212,44.02691],[-91.87354,44.02818],[-91.87435,44.03059],[-91.8766,44.03147],[-91.87972,44.0316],[-91.87931,44.03219],[-91.87899,44.037],[-91.87907,44.05595],[-91.87656,44.05714],[-91.8723,44.05703],[-91.86951,44.05796],[-91.86899,44.0597],[-91.868211,44.059687],[-91.868222,44.055312],[-91.857641,44.05534],[-91.857652,44.047942],[-91.856112,44.048],[-91.85648,44.049604],[-91.854477,44.05247],[-91.85265,44.05267],[-91.851698,44.055048],[-91.846916,44.056437],[-91.844179,44.060408],[-91.844953,44.061929],[-91.84052,44.06102],[-91.839226,44.060604],[-91.839201,44.055611],[-91.834384,44.055595],[-91.83436,44.063558],[-91.821616,44.063628],[-91.82208,44.06687],[-91.82372,44.0689],[-91.82388,44.07985],[-91.82338,44.08087],[-91.8205,44.08161],[-91.81934,44.08361],[-91.82114,44.08562],[-91.82084,44.08835],[-91.81615,44.0927],[-91.81098,44.09317],[-91.80935,44.09389],[-91.80882,44.09521],[-91.80405,44.09586],[-91.799342,44.097532],[-91.801333,44.098276],[-91.801774,44.097495],[-91.805374,44.09802],[-91.808058,44.099867],[-91.80803,44.100842],[-91.810066,44.101704],[-91.810019,44.103106],[-91.819958,44.103484],[-91.820293,44.104825],[-91.821111,44.103525],[-91.823501,44.103523],[-91.82724,44.1077],[-91.82708,44.11588],[-91.82807,44.11731],[-91.82753,44.11925],[-91.82992,44.12189],[-91.82874,44.12252],[-91.82765,44.125],[-91.82977,44.12614],[-91.82975,44.12947],[-91.83164,44.13126],[-91.83441,44.13189],[-91.83898,44.13202],[-91.839181,44.127938],[-91.848176,44.127919],[-91.848135,44.132135],[-91.854524,44.132167],[-91.858527,44.133362],[-91.858429,44.136033],[-91.86845,44.13605]]]}},{"type":"Feature","properties":{"zcta5":"55979","AFFGEOID10":"8600000US55979","GEOID10":"55979","ALAND10":151537481,"AWATER10":0,"county_name":"Winona","state_code":"MN","county_state":"Winona County, MN","county_fips":"27169","risk_level_county":"Medium Risk (70–79% vaccinated)","mean_vaccination_rate_county":79.62,"risk_level_zcta":"Higher Risk (60–69% vaccinated)","mean_vaccination_rate_zips":69.19,"cases":26},"geometry":{"type":"Polygon","coordinates":[[[-92.01087,43.86162],[-92.01751,43.86138],[-92.01911,43.86031],[-92.01914,43.84899],[-92.019365,43.847118],[-92.032475,43.847123],[-92.033067,43.84483],[-92.028988,43.840922],[-92.029332,43.840047],[-92.032007,43.839438],[-92.032217,43.838769],[-92.028312,43.837178],[-92.02871,43.83387],[-92.02606,43.83209],[-92.0273,43.83094],[-92.02541,43.82786],[-92.02511,43.82603],[-92.0258,43.82473],[-92.02529,43.82259],[-92.02019,43.82254],[-92.01749,43.82158],[-92.00955,43.82169],[-92.00055,43.8216],[-91.99953,43.82237],[-91.999717,43.833039],[-91.98974,43.833047],[-91.989751,43.836085],[-91.985393,43.83602],[-91.985349,43.840291],[-91.989641,43.840306],[-91.989642,43.844243],[-91.979654,43.844195],[-91.97963,43.841213],[-91.969825,43.841156],[-91.96958,43.82524],[-91.95011,43.82518],[-91.9503,43.83401],[-91.95141,43.83538],[-91.95288,43.83598],[-91.95742,43.8363],[-91.95948,43.83756],[-91.95989,43.83886],[-91.95983,43.8462],[-91.95961,43.84702],[-91.924795,43.847016],[-91.92424,43.85022],[-91.92014,43.8508],[-91.91927,43.85274],[-91.91927,43.86114],[-91.91399,43.86152],[-91.91517,43.86534],[-91.914571,43.866966],[-91.90967,43.86942],[-91.90669,43.87131],[-91.9027,43.87597],[-91.89948,43.88227],[-91.89919,43.88342],[-91.89909,43.89648],[-91.89813,43.8973],[-91.88067,43.89727],[-91.88065,43.89857],[-91.87922,43.89887],[-91.879297,43.933602],[-91.8993,43.93361],[-91.89932,43.9338],[-91.89935,43.94053],[-91.8991,43.94112],[-91.8954,43.94322],[-91.89017,43.94285],[-91.8893,43.94359],[-91.88898,43.96248],[-91.91907,43.96264],[-91.9192,43.9844],[-91.89917,43.98422],[-91.8993,44.02063],[-91.90959,44.02038],[-91.951323,44.020325],[-91.952116,44.017169],[-91.953959,44.016372],[-91.95617,44.016319],[-91.957542,44.017773],[-91.962818,44.014519],[-91.962895,44.01283],[-91.960156,44.010833],[-91.960484,44.009402],[-91.958773,44.008824],[-91.958903,44.007625],[-91.957168,44.007443],[-91.956625,44.01054],[-91.955932,44.01148],[-91.954045,44.01039],[-91.951506,44.007325],[-91.953265,44.005389],[-91.951684,44.003914],[-91.952669,43.999856],[-91.952382,43.998905],[-91.95547,43.99879],[-91.97771,43.99904],[-91.98009,43.9984],[-91.97929,43.9971],[-91.97941,43.96271],[-91.9944,43.96271],[-91.99434,43.94821],[-92.00373,43.94821],[-92.00432,43.94803],[-92.0043,43.91915],[-91.993426,43.919146],[-92.000057,43.906145],[-91.995946,43.904677],[-92.00122,43.90464],[-92.00408,43.90537],[-92.00416,43.86902],[-92.00023,43.86836],[-91.99929,43.8669],[-91.9993,43.86173],[-92.00056,43.86146],[-92.00968,43.86144],[-92.01087,43.86162]],[[-91.95936,43.876433],[-91.95937,43.88319],[-91.94641,43.88302],[-91.9426,43.88261],[-91.93628,43.883],[-91.914137,43.882956],[-91.915034,43.881387],[-91.914452,43.877065],[-91.911971,43.87169],[-91.915649,43.871085],[-91.912945,43.869642],[-91.913157,43.86835],[-91.924433,43.868251],[-91.929303,43.868628],[-91.939791,43.868704],[-91.939596,43.876417],[-91.95936,43.876433]]]}},{"type":"Feature","properties":{"zcta5":"55952","AFFGEOID10":"8600000US55952","GEOID10":"55952","ALAND10":170050566,"AWATER10":0,"county_name":"Winona","state_code":"MN","county_state":"Winona County, MN","county_fips":"27169","risk_level_county":"Medium Risk (70–79% vaccinated)","mean_vaccination_rate_county":79.62,"risk_level_zcta":"Medium Risk (70–79% vaccinated)","mean_vaccination_rate_zips":71.69,"cases":26},"geometry":{"type":"MultiPolygon","coordinates":[[[[-91.8993,44.02063],[-91.89917,43.98422],[-91.9192,43.9844],[-91.91907,43.96264],[-91.88898,43.96248],[-91.8893,43.94359],[-91.89017,43.94285],[-91.8954,43.94322],[-91.8991,43.94112],[-91.89935,43.94053],[-91.89932,43.9338],[-91.8993,43.93361],[-91.879297,43.933602],[-91.87922,43.89887],[-91.88065,43.89857],[-91.88067,43.89727],[-91.89813,43.8973],[-91.89909,43.89648],[-91.89919,43.88342],[-91.89948,43.88227],[-91.9027,43.87597],[-91.90669,43.87131],[-91.90967,43.86942],[-91.914571,43.866966],[-91.910794,43.867588],[-91.909984,43.866431],[-91.912116,43.865391],[-91.910214,43.864215],[-91.907284,43.865071],[-91.906126,43.864113],[-91.903241,43.863485],[-91.901858,43.861637],[-91.899208,43.862211],[-91.899485,43.860215],[-91.896175,43.860737],[-91.894099,43.85971],[-91.892054,43.86004],[-91.888225,43.858639],[-91.888023,43.857816],[-91.885283,43.857241],[-91.883519,43.859038],[-91.880839,43.859876],[-91.878851,43.859415],[-91.872513,43.861113],[-91.869362,43.863927],[-91.868887,43.863806],[-91.869222,43.86517],[-91.867814,43.867829],[-91.865188,43.868576],[-91.862642,43.867345],[-91.859019,43.86802],[-91.858406,43.86743],[-91.854991,43.867451],[-91.851526,43.86614],[-91.850105,43.864691],[-91.844815,43.864763],[-91.84441,43.86674],[-91.8477,43.8679],[-91.85097,43.86961],[-91.85486,43.87086],[-91.86172,43.87092],[-91.86633,43.87013],[-91.86939,43.8711],[-91.87068,43.87262],[-91.87351,43.87419],[-91.874363,43.875695],[-91.83933,43.87655],[-91.83926,43.865792],[-91.83,43.86431],[-91.82809,43.86311],[-91.82746,43.86104],[-91.82853,43.85869],[-91.82804,43.85781],[-91.82194,43.85589],[-91.81799,43.85532],[-91.81431,43.85412],[-91.80688,43.85372],[-91.80303,43.85265],[-91.79945,43.85114],[-91.799464,43.84708],[-91.797221,43.847148],[-91.796607,43.851101],[-91.794758,43.852185],[-91.795461,43.854419],[-91.794037,43.855603],[-91.795593,43.857135],[-91.795456,43.858779],[-91.797045,43.859985],[-91.799633,43.859983],[-91.801269,43.860674],[-91.8011,43.86267],[-91.80284,43.87153],[-91.80689,43.87464],[-91.80759,43.87655],[-91.8044,43.87785],[-91.805641,43.875923],[-91.803296,43.877234],[-91.801427,43.877882],[-91.799175,43.879759],[-91.797547,43.882793],[-91.796265,43.883566],[-91.795109,43.886253],[-91.792164,43.88962],[-91.779989,43.889609],[-91.780074,43.897212],[-91.770217,43.897142],[-91.770213,43.904223],[-91.76003,43.90422],[-91.76004,43.93946],[-91.75503,43.94022],[-91.750369,43.940317],[-91.74002,43.94052],[-91.7342,43.94088],[-91.720056,43.944484],[-91.720085,43.946893],[-91.7242,43.94588],[-91.74033,43.94239],[-91.7452,43.94176],[-91.75119,43.94186],[-91.76033,43.94044],[-91.78003,43.94044],[-91.77974,43.96202],[-91.77479,43.96226],[-91.77468,43.96938],[-91.78974,43.96946],[-91.78975,43.97518],[-91.79028,43.97617],[-91.79494,43.98021],[-91.796203,43.982311],[-91.79874,43.982],[-91.79975,43.98298],[-91.79971,43.99129],[-91.80447,43.99127],[-91.80992,43.99443],[-91.81236,43.99484],[-91.81236,44.00067],[-91.813737,44.001482],[-91.808892,44.006027],[-91.80841,44.00782],[-91.812207,44.009397],[-91.812086,44.01106],[-91.814111,44.01221],[-91.81574,44.01194],[-91.82452,44.01232],[-91.83898,44.01228],[-91.83984,44.02094],[-91.83901,44.02242],[-91.83909,44.03283],[-91.83811,44.03435],[-91.83914,44.03499],[-91.839166,44.048028],[-91.856112,44.048],[-91.857652,44.047942],[-91.857641,44.05534],[-91.868222,44.055312],[-91.868211,44.059687],[-91.86899,44.0597],[-91.86951,44.05796],[-91.8723,44.05703],[-91.87656,44.05714],[-91.87907,44.05595],[-91.87899,44.037],[-91.87931,44.03219],[-91.87972,44.0316],[-91.8766,44.03147],[-91.87435,44.03059],[-91.87354,44.02818],[-91.87212,44.02691],[-91.87128,44.02227],[-91.871767,44.020849],[-91.88132,44.02096],[-91.8993,44.02063]]],[[[-91.95936,43.876433],[-91.939596,43.876417],[-91.939791,43.868704],[-91.929303,43.868628],[-91.924433,43.868251],[-91.913157,43.86835],[-91.912945,43.869642],[-91.915649,43.871085],[-91.911971,43.87169],[-91.914452,43.877065],[-91.915034,43.881387],[-91.914137,43.882956],[-91.93628,43.883],[-91.9426,43.88261],[-91.94641,43.88302],[-91.95937,43.88319],[-91.95936,43.876433]]]]}},{"type":"Feature","properties":{"zcta5":"55910","AFFGEOID10":"8600000US55910","GEOID10":"55910","ALAND10":227414027,"AWATER10":1021966,"county_name":"Winona","state_code":"MN","county_state":"Winona County, MN","county_fips":"27169","risk_level_county":"Medium Risk (70–79% vaccinated)","mean_vaccination_rate_county":79.62,"risk_level_zcta":"Higher Risk (60–69% vaccinated)","mean_vaccination_rate_zips":65.1,"cases":26},"geometry":{"type":"Polygon","coordinates":[[[-92.069635,44.193033],[-92.079397,44.192722],[-92.079349,44.185987],[-92.075461,44.185759],[-92.07565,44.17859],[-92.07124,44.17865],[-92.07059,44.1753],[-92.06946,44.17388],[-92.06726,44.1724],[-92.06561,44.17044],[-92.06319,44.16948],[-92.05999,44.16917],[-92.05695,44.16937],[-92.05454,44.16828],[-92.05305,44.16674],[-92.04489,44.16149],[-92.03865,44.15821],[-92.03636,44.15655],[-92.03388,44.15384],[-92.03184,44.1531],[-92.02682,44.15325],[-92.02434,44.15293],[-92.02147,44.15189],[-92.01914,44.15174],[-92.014664,44.153181],[-92.013817,44.154939],[-92.012256,44.156596],[-92.009847,44.155676],[-92.007284,44.155676],[-92.006402,44.156529],[-92.00297,44.154855],[-92.001386,44.153341],[-92.00388,44.151966],[-92.005502,44.149181],[-92.003988,44.14765],[-91.999695,44.144544],[-91.997814,44.142805],[-92.001156,44.142814],[-92.00021,44.14167],[-92.00064,44.13996],[-92.00348,44.13872],[-92.00545,44.13865],[-92.01096,44.13772],[-92.01288,44.13846],[-92.01681,44.13915],[-92.01936,44.13924],[-92.02126,44.14088],[-92.02594,44.14105],[-92.03003,44.1408],[-92.03039,44.14037],[-92.03068,44.13566],[-92.05303,44.13513],[-92.05298,44.1325],[-92.0535,44.13199],[-92.074949,44.131946],[-92.07547,44.129916],[-92.078791,44.129327],[-92.079172,44.128817],[-92.079491,44.106988],[-92.07909,44.077991],[-92.07481,44.077339],[-92.06991,44.07565],[-92.0674,44.07536],[-92.06531,44.0738],[-92.06309,44.07369],[-92.06061,44.06862],[-92.0628,44.06727],[-92.06804,44.06709],[-92.06963,44.06536],[-92.07045,44.06346],[-92.0774,44.06376],[-92.079074,44.062065],[-92.078977,44.052219],[-92.077073,44.05223],[-92.075256,44.051367],[-92.075249,44.049874],[-92.073108,44.049262],[-92.072217,44.05042],[-92.066939,44.051747],[-92.070277,44.053563],[-92.070609,44.054957],[-92.068554,44.055472],[-92.065889,44.055028],[-92.064859,44.056841],[-92.066221,44.059039],[-92.064764,44.059678],[-92.058268,44.056949],[-92.061909,44.055889],[-92.062218,44.054877],[-92.060115,44.053676],[-92.058183,44.053528],[-92.055729,44.054335],[-92.05249,44.056284],[-92.051057,44.053819],[-92.051724,44.051024],[-92.04998,44.05148],[-92.04687,44.05316],[-92.046409,44.056575],[-92.0481,44.05947],[-92.04536,44.05922],[-92.04425,44.06237],[-92.04323,44.06295],[-92.04126,44.0673],[-92.03891,44.06994],[-92.03407,44.07298],[-92.03127,44.076231],[-92.02852,44.07708],[-92.026867,44.078271],[-91.999542,44.078382],[-91.999859,44.091025],[-91.998826,44.090771],[-91.9974,44.0894],[-91.994238,44.088867],[-91.991876,44.083844],[-91.988486,44.079009],[-91.988509,44.077226],[-91.987509,44.076811],[-91.98905,44.07246],[-91.98661,44.0742],[-91.984927,44.074261],[-91.98108,44.07074],[-91.979349,44.070509],[-91.981556,44.067835],[-91.982151,44.064798],[-91.979782,44.063538],[-91.972097,44.061804],[-91.971414,44.060221],[-91.968527,44.057798],[-91.967819,44.055823],[-91.969069,44.05387],[-91.974455,44.052458],[-91.977982,44.050209],[-91.978181,44.046419],[-91.975653,44.044361],[-91.972722,44.043656],[-91.97219,44.042462],[-91.973447,44.039915],[-91.973738,44.037396],[-91.971705,44.036108],[-91.968652,44.036591],[-91.967601,44.035749],[-91.967534,44.033571],[-91.969637,44.031135],[-91.97304,44.030085],[-91.973665,44.029018],[-91.969859,44.026951],[-91.972547,44.025585],[-91.97347,44.023016],[-91.972541,44.021943],[-91.970646,44.021541],[-91.968697,44.02263],[-91.965477,44.022992],[-91.964341,44.020354],[-91.959369,44.020357],[-91.95935,44.018327],[-91.957542,44.017773],[-91.95617,44.016319],[-91.953959,44.016372],[-91.952116,44.017169],[-91.951323,44.020325],[-91.90959,44.02038],[-91.9101,44.02342],[-91.91325,44.03492],[-91.92273,44.03468],[-91.93938,44.03473],[-91.93947,44.04083],[-91.9388,44.04625],[-91.93953,44.04965],[-91.92448,44.04926],[-91.92451,44.056522],[-91.939551,44.056427],[-91.93952,44.06369],[-91.924471,44.063792],[-91.92019,44.06875],[-91.9194,44.07098],[-91.91942,44.07827],[-91.92154,44.07878],[-91.92037,44.07947],[-91.9193,44.0817],[-91.91937,44.09355],[-91.91819,44.09588],[-91.91926,44.09741],[-91.91964,44.12091],[-91.90189,44.12103],[-91.8994,44.12281],[-91.89941,44.1261],[-91.89885,44.1273],[-91.89648,44.12825],[-91.89234,44.12827],[-91.89028,44.12893],[-91.8894,44.13046],[-91.88931,44.13391],[-91.88828,44.13501],[-91.88627,44.1355],[-91.86977,44.1355],[-91.86845,44.13605],[-91.86927,44.13731],[-91.86928,44.16649],[-91.86873,44.16825],[-91.86633,44.17159],[-91.86629,44.17438],[-91.86769,44.17607],[-91.86817,44.17792],[-91.87087,44.18025],[-91.87142,44.18266],[-91.86978,44.1831],[-91.86634,44.18187],[-91.86569,44.18224],[-91.87064,44.18599],[-91.87136,44.1873],[-91.871103,44.189742],[-91.866376,44.189758],[-91.863069,44.188952],[-91.860807,44.188702],[-91.859856,44.189975],[-91.85777,44.190051],[-91.8566050953748,44.1919380729131],[-91.8583929427025,44.1930031501986],[-91.867612,44.193038],[-91.86892,44.193363],[-91.872194,44.195839],[-91.875412,44.198774],[-91.877742,44.200171],[-91.88293,44.201379],[-91.888698,44.201129],[-91.88959,44.200471],[-91.894581,44.200169],[-91.897506,44.200685],[-91.910764,44.203824],[-91.918293,44.205347],[-91.922315,44.208301],[-91.929826,44.217979],[-91.93248,44.220479],[-91.935604,44.222251],[-91.94317,44.224754],[-91.946584,44.227032],[-91.949233,44.23079],[-91.949474,44.219195],[-91.958735,44.21922],[-91.95871,44.222847],[-91.968355,44.22294],[-91.968485,44.217153],[-91.97559,44.217173],[-91.975511,44.215018],[-91.979252,44.215028],[-91.979355,44.207717],[-92.015968,44.206174],[-92.016655,44.206021],[-92.017,44.205083],[-92.01946,44.203291],[-92.01945,44.196226],[-92.026825,44.193642],[-92.026796,44.193141],[-92.031028,44.193028],[-92.069635,44.193033]]]}},{"type":"Feature","properties":{"zcta5":"55923","AFFGEOID10":"8600000US55923","GEOID10":"55923","ALAND10":317769270,"AWATER10":0,"county_name":"Winona","state_code":"MN","county_state":"Winona County, MN","county_fips":"27169","risk_level_county":"Medium Risk (70–79% vaccinated)","mean_vaccination_rate_county":79.62,"risk_level_zcta":"Medium Risk (70–79% vaccinated)","mean_vaccination_rate_zips":79.31,"cases":26},"geometry":{"type":"Polygon","coordinates":[[[-92.318343,43.904476],[-92.31851,43.86254],[-92.33852,43.8626],[-92.33838,43.84809],[-92.35223,43.8481],[-92.350764,43.841069],[-92.32908,43.84086],[-92.32908,43.83361],[-92.34925,43.83396],[-92.3489,43.81924],[-92.34826,43.81194],[-92.32902,43.81183],[-92.32906,43.78999],[-92.30895,43.79009],[-92.298851,43.789979],[-92.298822,43.796332],[-92.277424,43.796415],[-92.27428,43.79631],[-92.27292,43.79686],[-92.26966,43.79676],[-92.2688,43.79737],[-92.26872,43.80851],[-92.26886,43.81157],[-92.26376,43.81159],[-92.26212,43.81129],[-92.25295,43.80819],[-92.25195,43.80805],[-92.23725,43.80806],[-92.23192,43.80959],[-92.22861,43.81155],[-92.22581,43.81259],[-92.225,43.81471],[-92.21807,43.81735],[-92.21711,43.81743],[-92.208927,43.816065],[-92.209192,43.800592],[-92.21517,43.80054],[-92.2153,43.7983],[-92.21937,43.79732],[-92.21917,43.7931],[-92.22093,43.79103],[-92.2203,43.78781],[-92.21894,43.78505],[-92.21809,43.77992],[-92.2174,43.77902],[-92.20945,43.77894],[-92.20944,43.78164],[-92.2083,43.78253],[-92.20317,43.78277],[-92.19996,43.78432],[-92.19621,43.78507],[-92.19301,43.78883],[-92.19207,43.78891],[-92.18981,43.78661],[-92.189,43.78461],[-92.18687,43.78274],[-92.18176,43.78236],[-92.18013,43.78074],[-92.17758,43.77709],[-92.17412,43.77394],[-92.17052,43.77264],[-92.16881,43.77086],[-92.165,43.7699],[-92.16257,43.76492],[-92.16111,43.76353],[-92.15673,43.76188],[-92.155824,43.760723],[-92.15255,43.76083],[-92.13417,43.76081],[-92.13411,43.76705],[-92.13891,43.76719],[-92.14141,43.77153],[-92.1426,43.77438],[-92.14581,43.77706],[-92.14623,43.78116],[-92.1447,43.78487],[-92.14273,43.78638],[-92.14347,43.78936],[-92.13689,43.79005],[-92.1336,43.78973],[-92.13366,43.79144],[-92.13229,43.79505],[-92.12929,43.79801],[-92.12879,43.80157],[-92.12387,43.80099],[-92.11825,43.80184],[-92.1157,43.80106],[-92.11452,43.80231],[-92.113813,43.804562],[-92.115589,43.805433],[-92.116628,43.807009],[-92.113879,43.809296],[-92.112321,43.809077],[-92.112002,43.807898],[-92.10875,43.804635],[-92.10547,43.80369],[-92.101931,43.80377],[-92.096928,43.805644],[-92.095589,43.807256],[-92.095089,43.810289],[-92.096029,43.814541],[-92.097177,43.816405],[-92.096668,43.818173],[-92.092694,43.820666],[-92.088965,43.81913],[-92.08896,43.80708],[-92.08645,43.807],[-92.089074,43.804329],[-92.086332,43.803089],[-92.090365,43.801337],[-92.090957,43.800193],[-92.088289,43.797368],[-92.08464,43.795396],[-92.08055,43.795808],[-92.077643,43.796979],[-92.073719,43.800271],[-92.070356,43.799495],[-92.066998,43.799551],[-92.063789,43.801847],[-92.063783,43.800409],[-92.059253,43.80042],[-92.059271,43.793296],[-92.052735,43.793278],[-92.052823,43.789694],[-92.050907,43.786326],[-92.051032,43.782949],[-92.051906,43.777684],[-92.049342,43.776855],[-92.049357,43.774033],[-92.043343,43.774035],[-92.0433,43.771246],[-92.02932,43.77119],[-92.02932,43.78116],[-92.03031,43.78255],[-92.032164,43.782719],[-92.031981,43.783878],[-92.030289,43.784853],[-92.027925,43.784571],[-92.027507,43.782858],[-92.024364,43.78105],[-92.02354,43.783375],[-92.02433,43.78387],[-92.02386,43.78563],[-92.02609,43.78617],[-92.02494,43.78947],[-92.02684,43.79066],[-92.02709,43.79193],[-92.02333,43.79344],[-92.02439,43.79854],[-92.02433,43.80439],[-92.02346,43.80643],[-92.02118,43.80676],[-92.01949,43.80881],[-92.01962,43.81525],[-92.02303,43.81641],[-92.02599,43.81789],[-92.0264,43.81912],[-92.02538,43.82082],[-92.02529,43.82259],[-92.0258,43.82473],[-92.02511,43.82603],[-92.02541,43.82786],[-92.0273,43.83094],[-92.02606,43.83209],[-92.02871,43.83387],[-92.028312,43.837178],[-92.032217,43.838769],[-92.032007,43.839438],[-92.029332,43.840047],[-92.028988,43.840922],[-92.033067,43.84483],[-92.032475,43.847123],[-92.019365,43.847118],[-92.01914,43.84899],[-92.01911,43.86031],[-92.01751,43.86138],[-92.01087,43.86162],[-92.0116,43.86283],[-92.01486,43.86404],[-92.01877,43.86482],[-92.01911,43.86838],[-92.06211,43.86874],[-92.06475,43.86924],[-92.06698,43.86892],[-92.06892,43.86608],[-92.06905,43.8639],[-92.071783,43.861694],[-92.074743,43.861726],[-92.074843,43.858163],[-92.079248,43.858182],[-92.079133,43.893255],[-92.08359,43.89612],[-92.09038,43.89764],[-92.11108,43.8977],[-92.11244,43.89792],[-92.113838,43.898618],[-92.11619,43.90179],[-92.12202,43.90774],[-92.1281,43.91011],[-92.12971,43.9112],[-92.1331,43.9124],[-92.13582,43.9123],[-92.13842,43.91332],[-92.13897,43.91495],[-92.13898,43.91934],[-92.158469,43.919308],[-92.158597,43.925907],[-92.16908,43.925949],[-92.16905,43.91989],[-92.17885,43.91934],[-92.17914,43.93382],[-92.19894,43.93392],[-92.212635,43.933965],[-92.219154,43.933817],[-92.259199,43.934097],[-92.25907,43.9298],[-92.263912,43.929778],[-92.263917,43.926748],[-92.268562,43.926702],[-92.2685,43.929679],[-92.278572,43.929693],[-92.27854,43.926309],[-92.281487,43.926353],[-92.281415,43.927937],[-92.28823,43.9278],[-92.288118,43.934108],[-92.29887,43.93421],[-92.29871,43.92016],[-92.27877,43.91993],[-92.27869,43.89959],[-92.28037,43.89839],[-92.27973,43.89652],[-92.28086,43.89476],[-92.28095,43.89306],[-92.27995,43.89192],[-92.28032,43.89047],[-92.27525,43.88806],[-92.27204,43.88587],[-92.26941,43.88492],[-92.26368,43.88363],[-92.2624,43.87751],[-92.2602,43.87365],[-92.261666,43.873537],[-92.261787,43.875049],[-92.263443,43.876835],[-92.264099,43.879187],[-92.263739,43.881712],[-92.266873,43.882539],[-92.271587,43.881954],[-92.27299,43.883352],[-92.274631,43.882907],[-92.274082,43.88137],[-92.276112,43.882181],[-92.281147,43.885467],[-92.28186,43.888178],[-92.283182,43.887932],[-92.283982,43.890184],[-92.285784,43.890649],[-92.284689,43.891906],[-92.285241,43.892886],[-92.287414,43.89326],[-92.291197,43.892437],[-92.296936,43.892131],[-92.297357,43.893498],[-92.300053,43.893563],[-92.301966,43.895037],[-92.303883,43.895253],[-92.30544,43.896661],[-92.309327,43.895857],[-92.312572,43.896712],[-92.314325,43.899054],[-92.314472,43.900181],[-92.312577,43.900415],[-92.312926,43.903221],[-92.314097,43.90392],[-92.318343,43.904476]]]}},{"type":"Feature","properties":{"zcta5":"55925","AFFGEOID10":"8600000US55925","GEOID10":"55925","ALAND10":78559831,"AWATER10":1042290,"county_name":"Winona","state_code":"MN","county_state":"Winona County, MN","county_fips":"27169","risk_level_county":"Medium Risk (70–79% vaccinated)","mean_vaccination_rate_county":79.62,"risk_level_zcta":"Higher Risk (60–69% vaccinated)","mean_vaccination_rate_zips":69.71,"cases":26},"geometry":{"type":"Polygon","coordinates":[[[-91.55021,43.92996],[-91.5504,43.91206],[-91.56038,43.912],[-91.56028,43.90514],[-91.55994,43.90428],[-91.55267,43.89668],[-91.54892,43.8933],[-91.54285,43.88889],[-91.53444,43.88088],[-91.53249,43.87973],[-91.53023,43.87916],[-91.52235,43.87826],[-91.51986,43.8774],[-91.517887,43.875957],[-91.499943,43.875933],[-91.499923,43.871947],[-91.50498,43.871904],[-91.504976,43.86968],[-91.50143,43.86948],[-91.50001,43.86889],[-91.49781,43.87319],[-91.49454,43.87533],[-91.49161,43.87778],[-91.4889,43.87955],[-91.48601,43.88073],[-91.48032,43.87872],[-91.48064,43.86881],[-91.475021,43.869026],[-91.475367,43.878602],[-91.472953,43.878583],[-91.472945,43.87702],[-91.46736,43.877025],[-91.467374,43.883367],[-91.465534,43.883331],[-91.465498,43.879844],[-91.459814,43.879822],[-91.459814,43.878213],[-91.432273,43.904344],[-91.4309,43.90488],[-91.42622,43.9045],[-91.41832,43.90146],[-91.41662,43.9012],[-91.40828,43.90127],[-91.4064,43.90102],[-91.39921,43.90143],[-91.39826,43.89756],[-91.39654,43.89646],[-91.39246,43.89525],[-91.38748,43.89309],[-91.38512,43.89268],[-91.37876,43.89245],[-91.37646,43.89155],[-91.37598,43.88896],[-91.3737,43.88747],[-91.36882,43.88711],[-91.36618,43.887292],[-91.366055,43.88947],[-91.361413,43.889442],[-91.361379,43.900999],[-91.360707,43.904564],[-91.3434473308959,43.9047817726167],[-91.346271,43.910074],[-91.347741,43.911964],[-91.351688,43.914545],[-91.356741,43.916564],[-91.357426,43.917231],[-91.363242,43.926563],[-91.36447875586029,43.9334512500093],[-91.369975,43.933462],[-91.371655,43.935434],[-91.378703,43.94182],[-91.381595,43.943731],[-91.384486,43.946236],[-91.390799,43.953465],[-91.397864,43.959138],[-91.405744,43.962317],[-91.406016,43.961748],[-91.398302,43.958683],[-91.392893,43.954835],[-91.38258,43.94376],[-91.37586,43.93878],[-91.370711,43.933444],[-91.42,43.93366],[-91.42553,43.93163],[-91.43227,43.93011],[-91.43456,43.92924],[-91.43885,43.92606],[-91.44085,43.92771],[-91.440678,43.933698],[-91.49048,43.933694],[-91.49048,43.92669],[-91.4927,43.9289],[-91.49788,43.93022],[-91.50001,43.93109],[-91.500919,43.933408],[-91.54521,43.93363],[-91.54522,43.93107],[-91.54587,43.93023],[-91.55021,43.92996]]]}},{"type":"Feature","properties":{"zcta5":"55959","AFFGEOID10":"8600000US55959","GEOID10":"55959","ALAND10":96317584,"AWATER10":13466616,"county_name":"Winona","state_code":"MN","county_state":"Winona County, MN","county_fips":"27169","risk_level_county":"Medium Risk (70–79% vaccinated)","mean_vaccination_rate_county":79.62,"risk_level_zcta":"Very High Risk (<60% vaccinated)","mean_vaccination_rate_zips":57.84,"cases":26},"geometry":{"type":"Polygon","coordinates":[[[-91.8566050953748,44.1919380729131],[-91.85777,44.190051],[-91.859856,44.189975],[-91.860807,44.188702],[-91.863069,44.188952],[-91.866376,44.189758],[-91.871103,44.189742],[-91.87136,44.1873],[-91.87064,44.18599],[-91.86569,44.18224],[-91.86634,44.18187],[-91.86978,44.1831],[-91.87142,44.18266],[-91.87087,44.18025],[-91.86817,44.17792],[-91.86769,44.17607],[-91.86629,44.17438],[-91.86633,44.17159],[-91.86873,44.16825],[-91.86928,44.16649],[-91.86927,44.13731],[-91.86845,44.13605],[-91.858429,44.136033],[-91.858527,44.133362],[-91.854524,44.132167],[-91.848135,44.132135],[-91.848176,44.127919],[-91.839181,44.127938],[-91.83898,44.13202],[-91.83441,44.13189],[-91.83164,44.13126],[-91.82975,44.12947],[-91.82977,44.12614],[-91.82765,44.125],[-91.82874,44.12252],[-91.82992,44.12189],[-91.82753,44.11925],[-91.82807,44.11731],[-91.82708,44.11588],[-91.82724,44.1077],[-91.823501,44.103523],[-91.821111,44.103525],[-91.820293,44.104825],[-91.819958,44.103484],[-91.810019,44.103106],[-91.810066,44.101704],[-91.80803,44.100842],[-91.808058,44.099867],[-91.805374,44.09802],[-91.801774,44.097495],[-91.801333,44.098276],[-91.799342,44.097532],[-91.80405,44.09586],[-91.80882,44.09521],[-91.80935,44.09389],[-91.81098,44.09317],[-91.81615,44.0927],[-91.82084,44.08835],[-91.82114,44.08562],[-91.81934,44.08361],[-91.8205,44.08161],[-91.82338,44.08087],[-91.82388,44.07985],[-91.82372,44.0689],[-91.82208,44.06687],[-91.821616,44.063628],[-91.770537,44.063435],[-91.76795,44.06265],[-91.7668,44.06325],[-91.760875,44.063449],[-91.757478,44.058173],[-91.75673,44.056149],[-91.75154,44.05611],[-91.74867,44.05681],[-91.748724,44.055531],[-91.751617,44.052139],[-91.752719,44.048807],[-91.754373,44.048605],[-91.752474,44.047726],[-91.751765,44.046307],[-91.754092,44.042596],[-91.755306,44.043435],[-91.758319,44.042674],[-91.757621,44.041812],[-91.76279,44.038564],[-91.76272,44.037463],[-91.760065,44.037446],[-91.760019,44.030807],[-91.750291,44.030746],[-91.750259,44.026478],[-91.74551,44.02616],[-91.74031,44.02386],[-91.73508,44.0249],[-91.73133,44.02442],[-91.72872,44.02636],[-91.72481,44.02722],[-91.72804,44.02799],[-91.72491,44.0308],[-91.72741,44.03175],[-91.72742,44.03288],[-91.725117,44.032913],[-91.722018,44.033753],[-91.720377,44.035125],[-91.72032,44.052633],[-91.722783,44.059525],[-91.72267,44.06034],[-91.720228,44.06269],[-91.720205,44.067075],[-91.720583,44.068505],[-91.723292,44.070762],[-91.72494,44.06941],[-91.72934,44.07365],[-91.72757,44.07265],[-91.72616,44.07342],[-91.72757,44.07536],[-91.72588,44.07645],[-91.721452,44.074998],[-91.72084,44.07584],[-91.72136,44.07547],[-91.72589,44.0775],[-91.72541,44.07815],[-91.723746,44.077734],[-91.719968,44.077768],[-91.719731,44.09426],[-91.717822,44.096429],[-91.715716,44.096513],[-91.715177,44.098189],[-91.7075541168691,44.104018834626295],[-91.708207,44.105186],[-91.708082,44.110929],[-91.709476,44.117565],[-91.710597,44.12048],[-91.719097,44.128853],[-91.721552,44.130342],[-91.730648,44.1329],[-91.751747,44.134786],[-91.756719,44.136804],[-91.768574,44.143508],[-91.774486,44.147539],[-91.796669,44.154335],[-91.808064,44.159262],[-91.817302,44.164235],[-91.829167,44.17835],[-91.832479,44.180308],[-91.8330965695902,44.1805379220389],[-91.844754,44.184878],[-91.8566050953748,44.1919380729131]]]}},{"type":"Feature","properties":{"zcta5":"55971","AFFGEOID10":"8600000US55971","GEOID10":"55971","ALAND10":208837520,"AWATER10":366744,"county_name":"Winona","state_code":"MN","county_state":"Winona County, MN","county_fips":"27169","risk_level_county":"Medium Risk (70–79% vaccinated)","mean_vaccination_rate_county":79.62,"risk_level_zcta":"Medium Risk (70–79% vaccinated)","mean_vaccination_rate_zips":74.28,"cases":26},"geometry":{"type":"Polygon","coordinates":[[[-91.868887,43.863806],[-91.867163,43.863478],[-91.865794,43.862112],[-91.865519,43.860286],[-91.863788,43.860414],[-91.864987,43.858146],[-91.867746,43.857057],[-91.870351,43.856204],[-91.871024,43.854677],[-91.870409,43.852378],[-91.867576,43.85102],[-91.866837,43.849501],[-91.865138,43.849404],[-91.866173,43.84851],[-91.869375,43.848522],[-91.87325,43.849255],[-91.875395,43.848196],[-91.875396,43.846827],[-91.869412,43.847043],[-91.84548,43.846959],[-91.84528,43.84688],[-91.84518,43.83984],[-91.84202,43.83959],[-91.84216,43.83481],[-91.84314,43.83285],[-91.84524,43.83212],[-91.84524,43.83026],[-91.840397,43.829358],[-91.835348,43.827274],[-91.83515,43.81593],[-91.832888,43.813612],[-91.83263,43.81094],[-91.83496,43.80963],[-91.83633,43.80706],[-91.83974,43.80331],[-91.84023,43.80207],[-91.83942,43.79804],[-91.83992,43.79489],[-91.837399,43.792676],[-91.832774,43.79269],[-91.826773,43.797583],[-91.823196,43.7982],[-91.820505,43.799337],[-91.818233,43.798825],[-91.814098,43.797055],[-91.810745,43.797279],[-91.808983,43.798006],[-91.804278,43.797581],[-91.80174,43.79932],[-91.798537,43.799891],[-91.798166,43.79865],[-91.796352,43.797996],[-91.795237,43.795885],[-91.793999,43.795545],[-91.791389,43.798845],[-91.78956,43.799059],[-91.787834,43.79768],[-91.787953,43.796307],[-91.784903,43.797502],[-91.780256,43.79742],[-91.774121,43.799345],[-91.77151,43.800454],[-91.766091,43.798313],[-91.763107,43.802414],[-91.761706,43.802873],[-91.756329,43.803416],[-91.753127,43.803419],[-91.753114,43.803075],[-91.760456,43.802629],[-91.762974,43.801944],[-91.764926,43.798222],[-91.76737,43.79825],[-91.766214,43.797439],[-91.768289,43.794783],[-91.768656,43.792602],[-91.76761,43.789564],[-91.766532,43.788467],[-91.76646,43.78542],[-91.77171,43.78536],[-91.7726,43.78257],[-91.77417,43.78083],[-91.7786,43.77861],[-91.77949,43.77683],[-91.78087,43.77779],[-91.78181,43.7772],[-91.78233,43.77485],[-91.78416,43.77451],[-91.7825,43.76604],[-91.7804,43.76503],[-91.77905,43.76348],[-91.77631,43.76171],[-91.77561,43.76052],[-91.77717,43.760076],[-91.816506,43.760262],[-91.81648,43.7585],[-91.813664,43.754526],[-91.81031,43.74902],[-91.81029,43.74692],[-91.81157,43.74535],[-91.81177,43.74369],[-91.81016,43.74111],[-91.81012,43.73287],[-91.80691,43.73135],[-91.79034,43.73103],[-91.79025,43.72841],[-91.78949,43.7277],[-91.79026,43.72553],[-91.790424,43.720081],[-91.78526,43.71708],[-91.78279,43.71678],[-91.75101,43.71671],[-91.75037,43.7126],[-91.74875,43.70735],[-91.74851,43.70188],[-91.74716,43.69925],[-91.74716,43.69551],[-91.74644,43.69508],[-91.74035,43.69514],[-91.735761,43.693903],[-91.734027,43.695113],[-91.730571,43.695181],[-91.730488,43.704358],[-91.702043,43.70429],[-91.690261,43.704714],[-91.690267,43.711512],[-91.697892,43.711457],[-91.697954,43.716339],[-91.695249,43.716383],[-91.694864,43.723767],[-91.697993,43.723726],[-91.698108,43.725459],[-91.695676,43.725502],[-91.695784,43.729141],[-91.699337,43.730916],[-91.696457,43.731144],[-91.697637,43.738569],[-91.701414,43.738761],[-91.701459,43.746447],[-91.697588,43.746625],[-91.697613,43.749141],[-91.690361,43.74928],[-91.690363,43.743767],[-91.67115,43.743736],[-91.671143,43.74984],[-91.685778,43.749893],[-91.685821,43.753671],[-91.688789,43.753741],[-91.686524,43.756033],[-91.684601,43.76031],[-91.683402,43.761357],[-91.678062,43.76132],[-91.678222,43.768648],[-91.684256,43.768796],[-91.68425,43.776378],[-91.681235,43.776419],[-91.681398,43.778493],[-91.684977,43.780141],[-91.684662,43.782985],[-91.686259,43.784643],[-91.686593,43.78812],[-91.68765,43.788631],[-91.691329,43.785427],[-91.693793,43.786822],[-91.694012,43.788712],[-91.700538,43.788625],[-91.700514,43.790826],[-91.702549,43.79101],[-91.704936,43.793014],[-91.702331,43.793655],[-91.701668,43.795906],[-91.702716,43.796949],[-91.707349,43.798101],[-91.709262,43.797772],[-91.714181,43.801163],[-91.71808,43.798623],[-91.720443,43.798829],[-91.726393,43.800806],[-91.730463,43.800057],[-91.730532,43.819516],[-91.730102,43.820796],[-91.727433,43.821427],[-91.725989,43.821061],[-91.721028,43.821165],[-91.720401,43.822786],[-91.718267,43.824592],[-91.711039,43.824761],[-91.710641,43.839439],[-91.700549,43.839871],[-91.70076,43.84694],[-91.684138,43.847003],[-91.684127,43.852722],[-91.711758,43.852776],[-91.711775,43.854529],[-91.709652,43.854431],[-91.709654,43.856487],[-91.707324,43.856484],[-91.707334,43.858024],[-91.704538,43.858021],[-91.704537,43.859962],[-91.709094,43.859949],[-91.70913,43.876417],[-91.700409,43.873021],[-91.700522,43.871642],[-91.699037,43.871343],[-91.69822,43.868981],[-91.696665,43.868841],[-91.695583,43.867165],[-91.695811,43.865655],[-91.691639,43.865135],[-91.689228,43.866574],[-91.688042,43.868138],[-91.684353,43.868826],[-91.682754,43.869982],[-91.680489,43.870227],[-91.679485,43.869018],[-91.678422,43.869797],[-91.673444,43.870274],[-91.670054,43.872023],[-91.669231,43.871672],[-91.668366,43.870239],[-91.66653,43.870179],[-91.663156,43.867769],[-91.663791,43.865927],[-91.65981,43.86479],[-91.66145,43.86851],[-91.66593,43.87332],[-91.66939,43.87427],[-91.67437,43.87452],[-91.67722,43.87385],[-91.68141,43.87135],[-91.686,43.86929],[-91.69179,43.86762],[-91.6942,43.86762],[-91.69602,43.86898],[-91.696651,43.873326],[-91.69263,43.874257],[-91.688681,43.876005],[-91.687952,43.877047],[-91.685063,43.877035],[-91.68432,43.88388],[-91.6843,43.88749],[-91.68188,43.88908],[-91.67649,43.88873],[-91.67391,43.88974],[-91.67359,43.8946],[-91.67582,43.89684],[-91.67858,43.90036],[-91.68165,43.90341],[-91.6852,43.90378],[-91.68827,43.90326],[-91.6914,43.90488],[-91.69497,43.90577],[-91.6982,43.90562],[-91.705437,43.906762],[-91.70768,43.90459],[-91.71982,43.90444],[-91.719919,43.911097],[-91.709858,43.910995],[-91.70986,43.918304],[-91.71997,43.918295],[-91.720019,43.925274],[-91.73014,43.925245],[-91.730139,43.933198],[-91.73997,43.93317],[-91.74002,43.94052],[-91.750369,43.940317],[-91.75503,43.94022],[-91.76004,43.93946],[-91.76003,43.90422],[-91.770213,43.904223],[-91.770217,43.897142],[-91.780074,43.897212],[-91.779989,43.889609],[-91.792164,43.88962],[-91.795109,43.886253],[-91.796265,43.883566],[-91.797547,43.882793],[-91.799175,43.879759],[-91.801427,43.877882],[-91.803296,43.877234],[-91.805641,43.875923],[-91.8044,43.87785],[-91.80759,43.87655],[-91.80689,43.87464],[-91.80284,43.87153],[-91.8011,43.86267],[-91.801269,43.860674],[-91.799633,43.859983],[-91.797045,43.859985],[-91.795456,43.858779],[-91.795593,43.857135],[-91.794037,43.855603],[-91.795461,43.854419],[-91.794758,43.852185],[-91.796607,43.851101],[-91.797221,43.847148],[-91.799464,43.84708],[-91.79945,43.85114],[-91.80303,43.85265],[-91.80688,43.85372],[-91.81431,43.85412],[-91.81799,43.85532],[-91.82194,43.85589],[-91.82804,43.85781],[-91.82853,43.85869],[-91.82746,43.86104],[-91.82809,43.86311],[-91.83,43.86431],[-91.83926,43.865792],[-91.83933,43.87655],[-91.874363,43.875695],[-91.87351,43.87419],[-91.87068,43.87262],[-91.86939,43.8711],[-91.86633,43.87013],[-91.86172,43.87092],[-91.85486,43.87086],[-91.85097,43.86961],[-91.8477,43.8679],[-91.84441,43.86674],[-91.844815,43.864763],[-91.850105,43.864691],[-91.851526,43.86614],[-91.854991,43.867451],[-91.858406,43.86743],[-91.859019,43.86802],[-91.862642,43.867345],[-91.865188,43.868576],[-91.867814,43.867829],[-91.869222,43.86517],[-91.868887,43.863806]]]}},{"type":"Feature","properties":{"zcta5":"55972","AFFGEOID10":"8600000US55972","GEOID10":"55972","ALAND10":224907704,"AWATER10":0,"county_name":"Winona","state_code":"MN","county_state":"Winona County, MN","county_fips":"27169","risk_level_county":"Medium Risk (70–79% vaccinated)","mean_vaccination_rate_county":79.62,"risk_level_zcta":"Medium Risk (70–79% vaccinated)","mean_vaccination_rate_zips":79.33,"cases":26},"geometry":{"type":"MultiPolygon","coordinates":[[[[-92.124035,43.972468],[-92.124027,43.976636],[-92.124027,43.977096],[-92.134637,43.977147],[-92.12704,43.97343],[-92.124105,43.97249],[-92.124035,43.972468]]],[[[-92.079491,44.106988],[-92.09927,44.106963],[-92.104583,44.106775],[-92.138454,44.10698],[-92.138548,44.090378],[-92.142456,44.090436],[-92.142399,44.078346],[-92.14651,44.07836],[-92.15091,44.07886],[-92.15431,44.07833],[-92.15433,44.06029],[-92.15035,44.05686],[-92.14911,44.05622],[-92.14883,44.04945],[-92.13916,44.04942],[-92.13908,44.03491],[-92.12419,44.03485],[-92.12326,44.03359],[-92.12183,44.03484],[-92.1185,44.034834],[-92.1185,44.032041],[-92.119563,44.03148],[-92.11839,44.030368],[-92.119554,44.029017],[-92.118118,44.02775],[-92.116043,44.027403],[-92.115282,44.028054],[-92.116095,44.030288],[-92.111859,44.029534],[-92.111653,44.03164],[-92.113499,44.033564],[-92.111659,44.034288],[-92.107281,44.033685],[-92.107765,44.037664],[-92.106857,44.038403],[-92.104911,44.037931],[-92.10603,44.03664],[-92.10597,44.03483],[-92.10291,44.0314],[-92.09902,44.03089],[-92.09904,44.02436],[-92.09644,44.024],[-92.09523,44.02037],[-92.08907,44.02035],[-92.08925,43.99863],[-92.108112,43.998732],[-92.108146,43.984242],[-92.097814,43.984251],[-92.097902,43.976552],[-92.092779,43.976548],[-92.092691,43.979556],[-92.088691,43.979554],[-92.088982,43.972139],[-92.093762,43.971039],[-92.09704,43.970982],[-92.099463,43.973607],[-92.101757,43.974246],[-92.106395,43.974094],[-92.111323,43.972398],[-92.112711,43.971373],[-92.11698,43.970909],[-92.124035,43.972468],[-92.124029,43.972196],[-92.11928,43.97103],[-92.11366,43.97037],[-92.088695,43.970393],[-92.088712,43.954215],[-92.08394,43.95287],[-92.078676,43.952225],[-92.078992,43.947515],[-92.078544,43.933931],[-92.079133,43.893255],[-92.079248,43.858182],[-92.074843,43.858163],[-92.074743,43.861726],[-92.071783,43.861694],[-92.06905,43.8639],[-92.06892,43.86608],[-92.06698,43.86892],[-92.06475,43.86924],[-92.06211,43.86874],[-92.01911,43.86838],[-92.01877,43.86482],[-92.01486,43.86404],[-92.0116,43.86283],[-92.01087,43.86162],[-92.00968,43.86144],[-92.00056,43.86146],[-91.9993,43.86173],[-91.99929,43.8669],[-92.00023,43.86836],[-92.00416,43.86902],[-92.00408,43.90537],[-92.00122,43.90464],[-91.995946,43.904677],[-92.000057,43.906145],[-91.993426,43.919146],[-92.0043,43.91915],[-92.00432,43.94803],[-92.00373,43.94821],[-91.99434,43.94821],[-91.9944,43.96271],[-91.97941,43.96271],[-91.97929,43.9971],[-91.98009,43.9984],[-91.97771,43.99904],[-91.95547,43.99879],[-91.952382,43.998905],[-91.952669,43.999856],[-91.951684,44.003914],[-91.953265,44.005389],[-91.951506,44.007325],[-91.954045,44.01039],[-91.955932,44.01148],[-91.956625,44.01054],[-91.957168,44.007443],[-91.958903,44.007625],[-91.958773,44.008824],[-91.960484,44.009402],[-91.960156,44.010833],[-91.962895,44.01283],[-91.962818,44.014519],[-91.957542,44.017773],[-91.95935,44.018327],[-91.959369,44.020357],[-91.964341,44.020354],[-91.965477,44.022992],[-91.968697,44.02263],[-91.970646,44.021541],[-91.972541,44.021943],[-91.97347,44.023016],[-91.972547,44.025585],[-91.969859,44.026951],[-91.973665,44.029018],[-91.97304,44.030085],[-91.969637,44.031135],[-91.967534,44.033571],[-91.967601,44.035749],[-91.968652,44.036591],[-91.971705,44.036108],[-91.973738,44.037396],[-91.973447,44.039915],[-91.97219,44.042462],[-91.972722,44.043656],[-91.975653,44.044361],[-91.978181,44.046419],[-91.977982,44.050209],[-91.974455,44.052458],[-91.969069,44.05387],[-91.967819,44.055823],[-91.968527,44.057798],[-91.971414,44.060221],[-91.972097,44.061804],[-91.979782,44.063538],[-91.982151,44.064798],[-91.981556,44.067835],[-91.979349,44.070509],[-91.98108,44.07074],[-91.984927,44.074261],[-91.98661,44.0742],[-91.98905,44.07246],[-91.987509,44.076811],[-91.988509,44.077226],[-91.988486,44.079009],[-91.991876,44.083844],[-91.994238,44.088867],[-91.9974,44.0894],[-91.998826,44.090771],[-91.999859,44.091025],[-91.999542,44.078382],[-92.026867,44.078271],[-92.02852,44.07708],[-92.03127,44.076231],[-92.03407,44.07298],[-92.03891,44.06994],[-92.04126,44.0673],[-92.04323,44.06295],[-92.04425,44.06237],[-92.04536,44.05922],[-92.0481,44.05947],[-92.046409,44.056575],[-92.04687,44.05316],[-92.04998,44.05148],[-92.051724,44.051024],[-92.051057,44.053819],[-92.05249,44.056284],[-92.055729,44.054335],[-92.058183,44.053528],[-92.060115,44.053676],[-92.062218,44.054877],[-92.061909,44.055889],[-92.058268,44.056949],[-92.064764,44.059678],[-92.066221,44.059039],[-92.064859,44.056841],[-92.065889,44.055028],[-92.068554,44.055472],[-92.070609,44.054957],[-92.070277,44.053563],[-92.066939,44.051747],[-92.072217,44.05042],[-92.073108,44.049262],[-92.075249,44.049874],[-92.075256,44.051367],[-92.077073,44.05223],[-92.078977,44.052219],[-92.079074,44.062065],[-92.0774,44.06376],[-92.07045,44.06346],[-92.06963,44.06536],[-92.06804,44.06709],[-92.0628,44.06727],[-92.06061,44.06862],[-92.06309,44.07369],[-92.06531,44.0738],[-92.0674,44.07536],[-92.06991,44.07565],[-92.07481,44.077339],[-92.07909,44.077991],[-92.079491,44.106988]]]]}},{"type":"Feature","properties":{"zcta5":"55964","AFFGEOID10":"8600000US55964","GEOID10":"55964","ALAND10":231557850,"AWATER10":220386,"county_name":"Winona","state_code":"MN","county_state":"Winona County, MN","county_fips":"27169","risk_level_county":"Medium Risk (70–79% vaccinated)","mean_vaccination_rate_county":79.62,"risk_level_zcta":"Medium Risk (70–79% vaccinated)","mean_vaccination_rate_zips":70.73,"cases":26},"geometry":{"type":"Polygon","coordinates":[[[-92.290622,44.193923],[-92.289875,44.19326],[-92.289849,44.189136],[-92.28951,44.187511],[-92.289881,44.182892],[-92.290649,44.18167],[-92.290606,44.179938],[-92.259794,44.179826],[-92.259606,44.150884],[-92.199311,44.150722],[-92.199333,44.1292],[-92.1982,44.124175],[-92.199327,44.122289],[-92.199327,44.107355],[-92.219385,44.107438],[-92.21931,44.09297],[-92.21932,44.0827],[-92.2152,44.08251],[-92.20814,44.080843],[-92.208066,44.084188],[-92.198957,44.084],[-92.199281,44.080478],[-92.19631,44.08015],[-92.19145,44.07865],[-92.18937,44.07844],[-92.18927,44.06731],[-92.18976,44.06553],[-92.19136,44.06335],[-92.19192,44.0614],[-92.19407,44.061],[-92.19461,44.05882],[-92.19446,44.05692],[-92.15044,44.05668],[-92.15035,44.05686],[-92.15433,44.06029],[-92.15431,44.07833],[-92.15091,44.07886],[-92.14651,44.07836],[-92.142399,44.078346],[-92.142456,44.090436],[-92.138548,44.090378],[-92.138454,44.10698],[-92.104583,44.106775],[-92.09927,44.106963],[-92.079491,44.106988],[-92.079172,44.128817],[-92.078791,44.129327],[-92.07547,44.129916],[-92.074949,44.131946],[-92.0535,44.13199],[-92.05298,44.1325],[-92.05303,44.13513],[-92.03068,44.13566],[-92.03039,44.14037],[-92.03003,44.1408],[-92.02594,44.14105],[-92.02126,44.14088],[-92.01936,44.13924],[-92.01681,44.13915],[-92.01288,44.13846],[-92.01096,44.13772],[-92.00545,44.13865],[-92.00348,44.13872],[-92.00064,44.13996],[-92.00021,44.14167],[-92.001156,44.142814],[-91.997814,44.142805],[-91.999695,44.144544],[-92.003988,44.14765],[-92.005502,44.149181],[-92.00388,44.151966],[-92.001386,44.153341],[-92.00297,44.154855],[-92.006402,44.156529],[-92.007284,44.155676],[-92.009847,44.155676],[-92.012256,44.156596],[-92.013817,44.154939],[-92.014664,44.153181],[-92.01914,44.15174],[-92.02147,44.15189],[-92.02434,44.15293],[-92.02682,44.15325],[-92.03184,44.1531],[-92.03388,44.15384],[-92.03636,44.15655],[-92.03865,44.15821],[-92.04489,44.16149],[-92.05305,44.16674],[-92.05454,44.16828],[-92.05695,44.16937],[-92.05999,44.16917],[-92.06319,44.16948],[-92.06561,44.17044],[-92.06726,44.1724],[-92.06946,44.17388],[-92.07059,44.1753],[-92.07124,44.17865],[-92.07565,44.17859],[-92.075461,44.185759],[-92.079349,44.185987],[-92.079397,44.192722],[-92.069635,44.193033],[-92.069312,44.221502],[-92.07049,44.221704],[-92.084035,44.221888],[-92.086295,44.224109],[-92.089164,44.224077],[-92.090602,44.221974],[-92.099542,44.222008],[-92.099495,44.227747],[-92.099009,44.231959],[-92.099473,44.234968],[-92.099503,44.23937],[-92.11327,44.237032],[-92.115441,44.233473],[-92.118564,44.233664],[-92.119534,44.234827],[-92.122312,44.234397],[-92.125298,44.232941],[-92.127061,44.233732],[-92.130625,44.234244],[-92.133379,44.235332],[-92.137128,44.234505],[-92.138051,44.235285],[-92.141982,44.234875],[-92.144111,44.23672],[-92.144674,44.238636],[-92.146926,44.239059],[-92.146115,44.240892],[-92.147825,44.241298],[-92.148206,44.242638],[-92.1469,44.242763],[-92.146372,44.244475],[-92.147379,44.24503],[-92.148354,44.248674],[-92.150286,44.248966],[-92.14949,44.246583],[-92.149106,44.244311],[-92.149842,44.241883],[-92.147904,44.238413],[-92.147961,44.23422],[-92.149624,44.231293],[-92.14963,44.22949],[-92.159719,44.229611],[-92.159677,44.234812],[-92.160338,44.236211],[-92.163,44.236896],[-92.16738,44.236928],[-92.168901,44.237409],[-92.169849,44.236619],[-92.170003,44.227794],[-92.172033,44.227555],[-92.173434,44.226314],[-92.175639,44.226301],[-92.177555,44.224825],[-92.179028,44.226268],[-92.180844,44.224885],[-92.183638,44.227009],[-92.181996,44.228398],[-92.180485,44.231043],[-92.178401,44.232047],[-92.183576,44.234435],[-92.186476,44.233804],[-92.188179,44.235368],[-92.186156,44.235494],[-92.18324,44.236767],[-92.186545,44.238952],[-92.189782,44.238523],[-92.195812,44.238161],[-92.199354,44.23708],[-92.201278,44.237321],[-92.2014,44.239039],[-92.204111,44.240147],[-92.204462,44.241563],[-92.20318,44.243714],[-92.20457,44.244686],[-92.204914,44.247644],[-92.208815,44.247418],[-92.21087,44.249536],[-92.211835,44.251437],[-92.213026,44.250886],[-92.213161,44.248611],[-92.217907,44.246393],[-92.217787,44.244599],[-92.215285,44.242117],[-92.215124,44.240823],[-92.215144,44.229952],[-92.220071,44.229967],[-92.224412,44.231128],[-92.226612,44.23097],[-92.231104,44.231555],[-92.234984,44.229643],[-92.23947,44.22843],[-92.241408,44.228631],[-92.244764,44.230033],[-92.270896,44.230105],[-92.270538,44.229381],[-92.270847,44.220245],[-92.271906,44.216775],[-92.27039,44.214851],[-92.264771,44.21223],[-92.263625,44.211164],[-92.262775,44.208599],[-92.260826,44.206353],[-92.260421,44.201107],[-92.262347,44.197344],[-92.262653,44.19379],[-92.269156,44.193282],[-92.284659,44.193854],[-92.290622,44.193923]]]}},{"type":"Feature","properties":{"zcta5":"55987","AFFGEOID10":"8600000US55987","GEOID10":"55987","ALAND10":413682010,"AWATER10":21574505,"county_name":"Winona","state_code":"MN","county_state":"Winona County, MN","county_fips":"27169","risk_level_county":"Medium Risk (70–79% vaccinated)","mean_vaccination_rate_county":79.62,"risk_level_zcta":"Higher Risk (60–69% vaccinated)","mean_vaccination_rate_zips":69.65,"cases":26},"geometry":{"type":"Polygon","coordinates":[[[-91.821616,44.063628],[-91.83436,44.063558],[-91.834384,44.055595],[-91.839201,44.055611],[-91.839226,44.060604],[-91.84052,44.06102],[-91.844953,44.061929],[-91.844179,44.060408],[-91.846916,44.056437],[-91.851698,44.055048],[-91.85265,44.05267],[-91.854477,44.05247],[-91.85648,44.049604],[-91.856112,44.048],[-91.839166,44.048028],[-91.83914,44.03499],[-91.83811,44.03435],[-91.83909,44.03283],[-91.83901,44.02242],[-91.83984,44.02094],[-91.83898,44.01228],[-91.82452,44.01232],[-91.81574,44.01194],[-91.814111,44.01221],[-91.812086,44.01106],[-91.812207,44.009397],[-91.80841,44.00782],[-91.808892,44.006027],[-91.813737,44.001482],[-91.81236,44.00067],[-91.81236,43.99484],[-91.80992,43.99443],[-91.80447,43.99127],[-91.79971,43.99129],[-91.79975,43.98298],[-91.79874,43.982],[-91.796203,43.982311],[-91.79494,43.98021],[-91.79028,43.97617],[-91.78975,43.97518],[-91.78974,43.96946],[-91.77468,43.96938],[-91.77479,43.96226],[-91.77974,43.96202],[-91.78003,43.94044],[-91.76033,43.94044],[-91.75119,43.94186],[-91.7452,43.94176],[-91.74033,43.94239],[-91.7242,43.94588],[-91.720085,43.946893],[-91.720056,43.944484],[-91.7342,43.94088],[-91.74002,43.94052],[-91.73997,43.93317],[-91.730139,43.933198],[-91.73014,43.925245],[-91.720019,43.925274],[-91.71997,43.918295],[-91.70986,43.918304],[-91.709858,43.910995],[-91.719919,43.911097],[-91.71982,43.90444],[-91.70768,43.90459],[-91.705437,43.906762],[-91.6982,43.90562],[-91.69497,43.90577],[-91.6914,43.90488],[-91.68827,43.90326],[-91.6852,43.90378],[-91.68165,43.90341],[-91.67858,43.90036],[-91.67582,43.89684],[-91.67359,43.8946],[-91.67391,43.88974],[-91.67649,43.88873],[-91.68188,43.88908],[-91.6843,43.88749],[-91.68432,43.88388],[-91.685063,43.877035],[-91.681945,43.877024],[-91.681981,43.881931],[-91.60588,43.882007],[-91.603196,43.883934],[-91.600269,43.884809],[-91.600408,43.933594],[-91.555203,43.933677],[-91.55523,43.93045],[-91.55021,43.92996],[-91.54587,43.93023],[-91.54522,43.93107],[-91.54521,43.93363],[-91.500919,43.933408],[-91.50001,43.93109],[-91.49788,43.93022],[-91.4927,43.9289],[-91.49048,43.92669],[-91.49048,43.933694],[-91.440678,43.933698],[-91.44085,43.92771],[-91.43885,43.92606],[-91.43456,43.92924],[-91.43227,43.93011],[-91.42553,43.93163],[-91.42,43.93366],[-91.370711,43.933444],[-91.37586,43.93878],[-91.38258,43.94376],[-91.392893,43.954835],[-91.398302,43.958683],[-91.406016,43.961748],[-91.405744,43.962317],[-91.397864,43.959138],[-91.390799,43.953465],[-91.384486,43.946236],[-91.381595,43.943731],[-91.378703,43.94182],[-91.371655,43.935434],[-91.369975,43.933462],[-91.36447875586029,43.9334512500093],[-91.364736,43.934884],[-91.366642,43.937463],[-91.375142,43.944289],[-91.385785,43.954239],[-91.395086,43.959409],[-91.406011,43.963929],[-91.407395,43.965148],[-91.410555,43.970892],[-91.412491,43.973411],[-91.424134,43.982631],[-91.42518797925139,43.9843219996781],[-91.425681,43.985113],[-91.42672,43.9885],[-91.429878,43.993888],[-91.432522,43.996827],[-91.43738,43.999962],[-91.440536,44.001501],[-91.457378,44.006301],[-91.463515,44.009041],[-91.468472,44.00948],[-91.478498,44.00803],[-91.48087,44.008145],[-91.494988,44.012536],[-91.502163,44.016856],[-91.507121,44.01898],[-91.524315,44.021433],[-91.533778,44.021433],[-91.547028,44.022226],[-91.559004,44.025315],[-91.573283,44.026901],[-91.580019,44.026925],[-91.582604,44.027381],[-91.59207,44.031372],[-91.597617,44.034965],[-91.60355,44.043681],[-91.607339,44.047357],[-91.610487,44.04931],[-91.615375,44.051598],[-91.623784,44.054106],[-91.62749381105901,44.0556391362029],[-91.6279,44.055807],[-91.62909189290771,44.056800862027494],[-91.633365,44.060364],[-91.638115,44.063285],[-91.640535,44.063679],[-91.6434,44.062711],[-91.644717,44.062782],[-91.647873,44.064109],[-91.652247,44.068634],[-91.657,44.071409],[-91.659511,44.074203],[-91.663442,44.08091],[-91.665263,44.085041],[-91.667006,44.086964],[-91.68153,44.0974],[-91.685748,44.098419],[-91.691281,44.097858],[-91.69531,44.09857],[-91.707491,44.103906],[-91.7075541168691,44.104018834626295],[-91.715177,44.098189],[-91.715716,44.096513],[-91.717822,44.096429],[-91.719731,44.09426],[-91.719968,44.077768],[-91.723746,44.077734],[-91.72541,44.07815],[-91.72589,44.0775],[-91.72136,44.07547],[-91.72084,44.07584],[-91.721452,44.074998],[-91.72588,44.07645],[-91.72757,44.07536],[-91.72616,44.07342],[-91.72757,44.07265],[-91.72934,44.07365],[-91.72494,44.06941],[-91.723292,44.070762],[-91.720583,44.068505],[-91.720205,44.067075],[-91.720228,44.06269],[-91.72267,44.06034],[-91.722783,44.059525],[-91.72032,44.052633],[-91.720377,44.035125],[-91.722018,44.033753],[-91.725117,44.032913],[-91.72742,44.03288],[-91.72741,44.03175],[-91.72491,44.0308],[-91.72804,44.02799],[-91.72481,44.02722],[-91.72872,44.02636],[-91.73133,44.02442],[-91.73508,44.0249],[-91.74031,44.02386],[-91.74551,44.02616],[-91.750259,44.026478],[-91.750291,44.030746],[-91.760019,44.030807],[-91.760065,44.037446],[-91.76272,44.037463],[-91.76279,44.038564],[-91.757621,44.041812],[-91.758319,44.042674],[-91.755306,44.043435],[-91.754092,44.042596],[-91.751765,44.046307],[-91.752474,44.047726],[-91.754373,44.048605],[-91.752719,44.048807],[-91.751617,44.052139],[-91.748724,44.055531],[-91.74867,44.05681],[-91.75154,44.05611],[-91.75673,44.056149],[-91.757478,44.058173],[-91.760875,44.063449],[-91.7668,44.06325],[-91.76795,44.06265],[-91.770537,44.063435],[-91.821616,44.063628]]]}}]}