{"type":"FeatureCollection","features":[{"type":"Feature","properties":{"zcta5":"26160","AFFGEOID10":"8600000US26160","GEOID10":"26160","ALAND10":169463741,"AWATER10":1576667,"county_name":"Wirt","state_code":"WV","county_state":"Wirt County, WV","county_fips":"54105","risk_level_county":"Medium Risk (70–79% vaccinated)","mean_vaccination_rate_county":74.33,"risk_level_zcta":"Medium Risk (70–79% vaccinated)","mean_vaccination_rate_zips":74.93,"cases":0},"geometry":{"type":"Polygon","coordinates":[[[-81.538742,39.00851],[-81.532248,39.005818],[-81.532992,39.003468],[-81.530913,39.00286],[-81.527402,39.00003],[-81.526481,38.998929],[-81.526332,38.996733],[-81.522946,38.993607],[-81.521771,38.994306],[-81.52096,38.99283],[-81.514534,38.990672],[-81.510295,38.990108],[-81.506701,38.990639],[-81.506104,38.989923],[-81.502372,38.988038],[-81.500724,38.985703],[-81.501066,38.984445],[-81.498527,38.984411],[-81.495993,38.983737],[-81.494091,38.982646],[-81.492149,38.98233],[-81.486544,38.978316],[-81.483333,38.976753],[-81.479723,38.976687],[-81.477584,38.977515],[-81.47536,38.976957],[-81.473973,38.975985],[-81.471394,38.973069],[-81.47147,38.971431],[-81.475431,38.969107],[-81.477828,38.96715],[-81.4801,38.965856],[-81.479019,38.964317],[-81.477518,38.96016],[-81.476145,38.958269],[-81.474357,38.956857],[-81.474645,38.955017],[-81.473664,38.949894],[-81.475367,38.946222],[-81.475305,38.942246],[-81.475949,38.940146],[-81.474369,38.938579],[-81.473297,38.936735],[-81.47353,38.933729],[-81.477339,38.933049],[-81.477065,38.931256],[-81.479816,38.93051],[-81.480412,38.928281],[-81.482246,38.926401],[-81.481158,38.924807],[-81.480029,38.924787],[-81.477109,38.925458],[-81.475112,38.92825],[-81.473231,38.927261],[-81.472518,38.926825],[-81.469532,38.927778],[-81.467278,38.927609],[-81.466863,38.930572],[-81.4659,38.931835],[-81.464197,38.932385],[-81.462226,38.931319],[-81.458809,38.932723],[-81.457107,38.932777],[-81.455886,38.933986],[-81.456271,38.936359],[-81.455312,38.937647],[-81.454898,38.9401],[-81.45282,38.940269],[-81.451028,38.939667],[-81.448923,38.940259],[-81.448148,38.941645],[-81.415086,38.920725],[-81.376105,38.90718],[-81.372457,38.906053],[-81.347442,38.896922],[-81.347419,38.898167],[-81.350084,38.898497],[-81.353129,38.900926],[-81.356314,38.902173],[-81.356098,38.903512],[-81.354579,38.903435],[-81.352075,38.901591],[-81.350038,38.903449],[-81.346572,38.903928],[-81.345012,38.905145],[-81.344992,38.907141],[-81.346469,38.909051],[-81.346407,38.912278],[-81.346922,38.913876],[-81.342393,38.913821],[-81.338075,38.91214],[-81.336662,38.912013],[-81.335453,38.912882],[-81.337907,38.914614],[-81.338766,38.915805],[-81.336614,38.916596],[-81.332973,38.919179],[-81.333057,38.920075],[-81.3358,38.921293],[-81.337754,38.920805],[-81.338817,38.921343],[-81.336511,38.922962],[-81.335513,38.924772],[-81.336295,38.92673],[-81.33763,38.927546],[-81.338145,38.929243],[-81.336654,38.930347],[-81.3356,38.932445],[-81.335804,38.93463],[-81.338534,38.936613],[-81.341735,38.937109],[-81.342995,38.940502],[-81.344036,38.940959],[-81.347159,38.940098],[-81.349164,38.939993],[-81.349712,38.940734],[-81.349075,38.944954],[-81.346234,38.946918],[-81.348133,38.944444],[-81.348217,38.943374],[-81.345191,38.941451],[-81.341012,38.940984],[-81.340734,38.939834],[-81.339376,38.939323],[-81.337165,38.939631],[-81.333862,38.93753],[-81.331054,38.936746],[-81.328237,38.936478],[-81.327043,38.93717],[-81.324744,38.937449],[-81.32301,38.936563],[-81.320395,38.937631],[-81.318056,38.937017],[-81.316026,38.939658],[-81.31393,38.940219],[-81.313714,38.943721],[-81.314132,38.945392],[-81.31561,38.946907],[-81.318046,38.947491],[-81.31828,38.949189],[-81.319311,38.949868],[-81.321468,38.949813],[-81.32377,38.948549],[-81.325962,38.948914],[-81.325943,38.95094],[-81.328357,38.952036],[-81.330417,38.951533],[-81.33287,38.953327],[-81.334891,38.952356],[-81.334905,38.953177],[-81.336686,38.953473],[-81.33875,38.95166],[-81.339137,38.952852],[-81.337823,38.954259],[-81.338444,38.958087],[-81.338255,38.960097],[-81.336087,38.958923],[-81.3342,38.956473],[-81.330296,38.956989],[-81.328615,38.958021],[-81.327187,38.960787],[-81.32623,38.961154],[-81.325569,38.959313],[-81.323669,38.959495],[-81.323837,38.962742],[-81.323476,38.963816],[-81.324681,38.964591],[-81.325719,38.965825],[-81.327052,38.968795],[-81.327213,38.972327],[-81.328474,38.973376],[-81.334608,38.97285],[-81.343514,38.969256],[-81.345519,38.969096],[-81.349283,38.970756],[-81.350521,38.972971],[-81.349635,38.974951],[-81.346725,38.978797],[-81.342802,38.982175],[-81.339303,38.983973],[-81.33513,38.987391],[-81.333536,38.987969],[-81.332062,38.987393],[-81.328702,38.98102],[-81.327535,38.979658],[-81.325466,38.979551],[-81.320965,38.984463],[-81.31898,38.987619],[-81.318726,38.989331],[-81.320164,38.991092],[-81.322109,38.991801],[-81.331771,38.991855],[-81.334237,38.992221],[-81.34156,38.994497],[-81.344372,38.995753],[-81.346944,38.9976],[-81.350163,38.999415],[-81.349967,39.001747],[-81.347607,39.004328],[-81.343715,39.005982],[-81.341138,39.008208],[-81.340919,39.009152],[-81.341213,39.010949],[-81.342614,39.012467],[-81.346023,39.013605],[-81.347735,39.014565],[-81.349784,39.020252],[-81.352121,39.023632],[-81.353677,39.024327],[-81.355661,39.024281],[-81.361221,39.020666],[-81.368352,39.013135],[-81.370583,39.01142],[-81.373079,39.010702],[-81.374694,39.01141],[-81.375235,39.012753],[-81.374727,39.015857],[-81.371012,39.022145],[-81.371121,39.023168],[-81.373279,39.026509],[-81.376923,39.029598],[-81.379016,39.030955],[-81.383619,39.032723],[-81.385423,39.032867],[-81.390659,39.031856],[-81.39575,39.031899],[-81.402579,39.032556],[-81.407972,39.033872],[-81.410123,39.034798],[-81.414898,39.035632],[-81.416162,39.034387],[-81.418513,39.038504],[-81.41826,39.040997],[-81.406704,39.047765],[-81.406227,39.0486],[-81.406227,39.050984],[-81.408385,39.050634],[-81.408758,39.052721],[-81.411877,39.049228],[-81.414109,39.048153],[-81.416011,39.047855],[-81.41633,39.044829],[-81.419368,39.045167],[-81.422504,39.043876],[-81.425866,39.044382],[-81.42888,39.044259],[-81.431392,39.043697],[-81.433634,39.044773],[-81.436334,39.044731],[-81.439497,39.047795],[-81.443665,39.048224],[-81.44575,39.048823],[-81.448385,39.047316],[-81.450558,39.047197],[-81.451575,39.048905],[-81.453672,39.049852],[-81.456326,39.049175],[-81.459264,39.050086],[-81.460758,39.049027],[-81.462908,39.048336],[-81.464648,39.0466],[-81.467027,39.046141],[-81.470376,39.046056],[-81.473775,39.045149],[-81.475378,39.042892],[-81.475798,39.040122],[-81.4781,39.040018],[-81.479758,39.038872],[-81.482902,39.039125],[-81.483709,39.038241],[-81.483536,39.03632],[-81.485226,39.035622],[-81.485256,39.034264],[-81.48381,39.033162],[-81.484572,39.031058],[-81.487773,39.028697],[-81.489832,39.028464],[-81.492741,39.027284],[-81.490518,39.025353],[-81.48909,39.023024],[-81.488324,39.020337],[-81.486621,39.01996],[-81.483745,39.017153],[-81.482154,39.014815],[-81.48037,39.014665],[-81.474676,39.01287],[-81.471722,39.01152],[-81.470212,39.009438],[-81.46718,39.007986],[-81.468299,39.006897],[-81.470091,39.007376],[-81.474413,39.005958],[-81.477686,39.006401],[-81.478728,39.007076],[-81.481461,39.007488],[-81.48456,39.007503],[-81.487188,39.006279],[-81.491611,39.005386],[-81.492252,39.004021],[-81.494368,39.004903],[-81.496471,39.003213],[-81.497901,39.003718],[-81.499968,39.00546],[-81.501372,39.005357],[-81.502869,39.006399],[-81.503825,39.009615],[-81.506002,39.010153],[-81.509289,39.010346],[-81.509432,39.012207],[-81.512394,39.014172],[-81.514571,39.013576],[-81.517536,39.011639],[-81.520291,39.00936],[-81.523314,39.009298],[-81.526888,39.010358],[-81.525522,39.013459],[-81.523519,39.015348],[-81.525313,39.015849],[-81.528062,39.015856],[-81.528947,39.01835],[-81.530189,39.019217],[-81.538742,39.00851]]]}},{"type":"Feature","properties":{"zcta5":"26143","AFFGEOID10":"8600000US26143","GEOID10":"26143","ALAND10":377142147,"AWATER10":3457466,"county_name":"Wirt","state_code":"WV","county_state":"Wirt County, WV","county_fips":"54105","risk_level_county":"Medium Risk (70–79% vaccinated)","mean_vaccination_rate_county":74.33,"risk_level_zcta":"Medium Risk (70–79% vaccinated)","mean_vaccination_rate_zips":73.3,"cases":0},"geometry":{"type":"Polygon","coordinates":[[[-81.597059,39.0326],[-81.599139,39.02924],[-81.599316,39.027023],[-81.598107,39.024712],[-81.596625,39.023835],[-81.596838,39.022149],[-81.59797,39.021216],[-81.599809,39.01722],[-81.600583,39.01309],[-81.599851,39.011642],[-81.598446,39.010692],[-81.593987,39.011995],[-81.590442,39.009918],[-81.590309,39.011334],[-81.588631,39.011086],[-81.587255,39.01198],[-81.585054,39.012042],[-81.583009,39.00936],[-81.582004,39.009166],[-81.58308,39.006845],[-81.582411,39.005081],[-81.580686,39.002599],[-81.580925,38.999797],[-81.577419,38.995952],[-81.57416,38.998051],[-81.571517,39.000756],[-81.568939,39.002034],[-81.56642,39.002015],[-81.564893,39.004312],[-81.562662,39.002286],[-81.560003,39.002637],[-81.556894,39.004094],[-81.555948,39.003466],[-81.552124,39.003594],[-81.550166,39.005385],[-81.542292,39.007528],[-81.540624,39.009289],[-81.538742,39.00851],[-81.530189,39.019217],[-81.528947,39.01835],[-81.528062,39.015856],[-81.525313,39.015849],[-81.523519,39.015348],[-81.525522,39.013459],[-81.526888,39.010358],[-81.523314,39.009298],[-81.520291,39.00936],[-81.517536,39.011639],[-81.514571,39.013576],[-81.512394,39.014172],[-81.509432,39.012207],[-81.509289,39.010346],[-81.506002,39.010153],[-81.503825,39.009615],[-81.502869,39.006399],[-81.501372,39.005357],[-81.499968,39.00546],[-81.497901,39.003718],[-81.496471,39.003213],[-81.494368,39.004903],[-81.492252,39.004021],[-81.491611,39.005386],[-81.487188,39.006279],[-81.48456,39.007503],[-81.481461,39.007488],[-81.478728,39.007076],[-81.477686,39.006401],[-81.474413,39.005958],[-81.470091,39.007376],[-81.468299,39.006897],[-81.46718,39.007986],[-81.470212,39.009438],[-81.471722,39.01152],[-81.474676,39.01287],[-81.48037,39.014665],[-81.482154,39.014815],[-81.483745,39.017153],[-81.486621,39.01996],[-81.488324,39.020337],[-81.48909,39.023024],[-81.490518,39.025353],[-81.492741,39.027284],[-81.489832,39.028464],[-81.487773,39.028697],[-81.484572,39.031058],[-81.48381,39.033162],[-81.485256,39.034264],[-81.485226,39.035622],[-81.483536,39.03632],[-81.483709,39.038241],[-81.482902,39.039125],[-81.479758,39.038872],[-81.4781,39.040018],[-81.475798,39.040122],[-81.475378,39.042892],[-81.473775,39.045149],[-81.470376,39.046056],[-81.467027,39.046141],[-81.464648,39.0466],[-81.462908,39.048336],[-81.460758,39.049027],[-81.459264,39.050086],[-81.456326,39.049175],[-81.453672,39.049852],[-81.451575,39.048905],[-81.450558,39.047197],[-81.448385,39.047316],[-81.44575,39.048823],[-81.443665,39.048224],[-81.439497,39.047795],[-81.436334,39.044731],[-81.433634,39.044773],[-81.431392,39.043697],[-81.42888,39.044259],[-81.425866,39.044382],[-81.422504,39.043876],[-81.419368,39.045167],[-81.41633,39.044829],[-81.416011,39.047855],[-81.414109,39.048153],[-81.411877,39.049228],[-81.408758,39.052721],[-81.408385,39.050634],[-81.406227,39.050984],[-81.406227,39.0486],[-81.406704,39.047765],[-81.41826,39.040997],[-81.418513,39.038504],[-81.416162,39.034387],[-81.414898,39.035632],[-81.410123,39.034798],[-81.407972,39.033872],[-81.402579,39.032556],[-81.39575,39.031899],[-81.390659,39.031856],[-81.385423,39.032867],[-81.383619,39.032723],[-81.379016,39.030955],[-81.376923,39.029598],[-81.373279,39.026509],[-81.371121,39.023168],[-81.371012,39.022145],[-81.374727,39.015857],[-81.375235,39.012753],[-81.374694,39.01141],[-81.373079,39.010702],[-81.370583,39.01142],[-81.368352,39.013135],[-81.361221,39.020666],[-81.355661,39.024281],[-81.353677,39.024327],[-81.352121,39.023632],[-81.349784,39.020252],[-81.347735,39.014565],[-81.346023,39.013605],[-81.342614,39.012467],[-81.341213,39.010949],[-81.340919,39.009152],[-81.341138,39.008208],[-81.343715,39.005982],[-81.347607,39.004328],[-81.349967,39.001747],[-81.350163,38.999415],[-81.346944,38.9976],[-81.344372,38.995753],[-81.34156,38.994497],[-81.334237,38.992221],[-81.331771,38.991855],[-81.322109,38.991801],[-81.320164,38.991092],[-81.318726,38.989331],[-81.31898,38.987619],[-81.320965,38.984463],[-81.325466,38.979551],[-81.327535,38.979658],[-81.328702,38.98102],[-81.332062,38.987393],[-81.333536,38.987969],[-81.33513,38.987391],[-81.339303,38.983973],[-81.342802,38.982175],[-81.346725,38.978797],[-81.349635,38.974951],[-81.350521,38.972971],[-81.349283,38.970756],[-81.345519,38.969096],[-81.343514,38.969256],[-81.334608,38.97285],[-81.328474,38.973376],[-81.327213,38.972327],[-81.327052,38.968795],[-81.325719,38.965825],[-81.324681,38.964591],[-81.325069,38.966302],[-81.320137,38.970252],[-81.316954,38.971932],[-81.316106,38.971681],[-81.316274,38.969864],[-81.314604,38.968106],[-81.312376,38.967688],[-81.308256,38.967989],[-81.307028,38.968458],[-81.302427,38.97268],[-81.299023,38.9735],[-81.291152,38.970094],[-81.288777,38.968447],[-81.285601,38.964427],[-81.284309,38.961507],[-81.28421,38.960154],[-81.284976,38.954292],[-81.284068,38.952781],[-81.280173,38.951806],[-81.275658,38.94992],[-81.275816,38.947641],[-81.274843,38.947567],[-81.272887,38.948865],[-81.268851,38.947605],[-81.265731,38.947608],[-81.26165,38.949365],[-81.257303,38.948952],[-81.258114,38.948285],[-81.256295,38.947726],[-81.249493,38.95074],[-81.247633,38.950899],[-81.246325,38.949739],[-81.244485,38.946059],[-81.243209,38.945147],[-81.240236,38.944865],[-81.237458,38.942406],[-81.232941,38.942495],[-81.231201,38.942088],[-81.228452,38.940479],[-81.226504,38.94072],[-81.225498,38.942808],[-81.226553,38.943527],[-81.22673,38.946141],[-81.22602,38.94743],[-81.227556,38.947823],[-81.230212,38.95034],[-81.228169,38.952605],[-81.225724,38.953775],[-81.224805,38.954425],[-81.224777,38.95741],[-81.226438,38.958495],[-81.225977,38.96088],[-81.2245,38.962534],[-81.226453,38.962071],[-81.227283,38.962973],[-81.230607,38.962534],[-81.232344,38.963147],[-81.233258,38.96425],[-81.234907,38.964869],[-81.238125,38.96496],[-81.208424,38.990345],[-81.209856,38.991836],[-81.208624,38.992892],[-81.211518,38.995397],[-81.210329,38.997449],[-81.210443,38.999206],[-81.211809,39.001064],[-81.206586,39.004196],[-81.206281,39.005753],[-81.20849,39.007754],[-81.212639,39.009552],[-81.217719,39.010871],[-81.2178,39.012015],[-81.216636,39.013037],[-81.216792,39.01506],[-81.219404,39.016731],[-81.225207,39.019401],[-81.228785,39.020788],[-81.229798,39.023617],[-81.232745,39.026758],[-81.236673,39.030047],[-81.238903,39.030979],[-81.24118,39.033117],[-81.242641,39.033684],[-81.243984,39.035567],[-81.24409,39.036443],[-81.242037,39.03818],[-81.238437,39.03768],[-81.237637,39.03578],[-81.235237,39.03468],[-81.232437,39.03478],[-81.231637,39.03378],[-81.228238,39.03228],[-81.226138,39.03398],[-81.227538,39.03578],[-81.226038,39.03678],[-81.226238,39.03838],[-81.224738,39.04088],[-81.220637,39.04338],[-81.21552,39.04348],[-81.214543,39.04444],[-81.214539,39.046321],[-81.211673,39.04593],[-81.210386,39.047342],[-81.210425,39.048594],[-81.212084,39.050498],[-81.213891,39.051694],[-81.21413,39.053866],[-81.211563,39.056172],[-81.211279,39.057855],[-81.212355,39.059603],[-81.216764,39.060597],[-81.217558,39.05923],[-81.219729,39.05829],[-81.225223,39.057012],[-81.229112,39.055446],[-81.23023,39.05661],[-81.231006,39.0581],[-81.23081,39.060277],[-81.232707,39.062418],[-81.231554,39.065943],[-81.232682,39.067883],[-81.231394,39.07094],[-81.231198,39.072712],[-81.22981,39.073588],[-81.232934,39.07665],[-81.234005,39.076513],[-81.237389,39.078367],[-81.236255,39.079365],[-81.237477,39.082287],[-81.239226,39.084401],[-81.241478,39.085569],[-81.239582,39.089284],[-81.239802,39.090577],[-81.241008,39.091867],[-81.240911,39.093809],[-81.239812,39.094848],[-81.237739,39.094798],[-81.240645,39.09718],[-81.24226,39.096812],[-81.243505,39.094016],[-81.244724,39.093662],[-81.247884,39.095836],[-81.24955,39.098315],[-81.249777,39.099981],[-81.251414,39.101717],[-81.254911,39.101995],[-81.259353,39.104492],[-81.260931,39.105033],[-81.263361,39.106971],[-81.267009,39.108174],[-81.275701,39.107726],[-81.276479,39.108137],[-81.277265,39.110276],[-81.276082,39.113806],[-81.276723,39.1149],[-81.277429,39.118284],[-81.27892,39.12119],[-81.281391,39.123255],[-81.286279,39.125086],[-81.287374,39.126092],[-81.286516,39.128657],[-81.286333,39.131199],[-81.28781,39.132747],[-81.28895,39.132997],[-81.290479,39.133032],[-81.294268,39.132068],[-81.296874,39.132328],[-81.298601,39.131405],[-81.299929,39.129898],[-81.301191,39.127531],[-81.301652,39.126955],[-81.303616,39.126151],[-81.305372,39.126328],[-81.314423,39.129735],[-81.320151,39.131509],[-81.321888,39.131303],[-81.328595,39.128126],[-81.330944,39.129326],[-81.330268,39.132973],[-81.330579,39.134022],[-81.333259,39.13465],[-81.334705,39.134132],[-81.337687,39.131208],[-81.340325,39.131007],[-81.340684,39.129005],[-81.342446,39.126211],[-81.342121,39.122417],[-81.342986,39.124227],[-81.344702,39.124696],[-81.347689,39.124203],[-81.349142,39.122797],[-81.350024,39.124743],[-81.353812,39.123412],[-81.355011,39.12495],[-81.355085,39.128429],[-81.356262,39.128803],[-81.358489,39.131227],[-81.363542,39.134206],[-81.364726,39.136707],[-81.367079,39.138527],[-81.367443,39.140175],[-81.369313,39.14051],[-81.369697,39.139539],[-81.3719,39.140206],[-81.369379,39.144003],[-81.364955,39.147636],[-81.369535,39.144371],[-81.370246,39.144928],[-81.374372,39.139999],[-81.376353,39.139151],[-81.376224,39.136141],[-81.375399,39.133453],[-81.377085,39.131803],[-81.377454,39.133596],[-81.376866,39.137513],[-81.377246,39.13876],[-81.381039,39.140302],[-81.386654,39.140725],[-81.393158,39.140302],[-81.395176,39.14045],[-81.397877,39.13998],[-81.402019,39.137749],[-81.407754,39.135724],[-81.411915,39.135592],[-81.41808,39.135944],[-81.424906,39.135679],[-81.424469,39.136087],[-81.426531,39.135928],[-81.431162,39.136553],[-81.434485,39.137743],[-81.437822,39.138259],[-81.440734,39.137919],[-81.444709,39.13702],[-81.446304,39.137185],[-81.450984,39.143555],[-81.45568,39.147196],[-81.457119,39.149125],[-81.461586,39.156922],[-81.464571,39.161026],[-81.465503,39.16285],[-81.466571,39.162322],[-81.464356,39.15932],[-81.467907,39.156805],[-81.470317,39.156004],[-81.471706,39.154031],[-81.473145,39.15694],[-81.473409,39.15916],[-81.4735,39.156267],[-81.472723,39.153819],[-81.470062,39.150833],[-81.470128,39.14813],[-81.469404,39.146572],[-81.471372,39.143837],[-81.471416,39.140429],[-81.472373,39.139207],[-81.475344,39.138553],[-81.475922,39.137541],[-81.473546,39.13546],[-81.472634,39.133229],[-81.471958,39.130221],[-81.472501,39.128525],[-81.469068,39.125605],[-81.473815,39.12725],[-81.476558,39.126784],[-81.482021,39.128734],[-81.485233,39.128384],[-81.487749,39.126611],[-81.488845,39.127534],[-81.490815,39.127645],[-81.492797,39.130624],[-81.494597,39.129881],[-81.495367,39.128197],[-81.496805,39.127511],[-81.498773,39.127931],[-81.499044,39.130681],[-81.501308,39.131352],[-81.502956,39.130317],[-81.503735,39.128183],[-81.505665,39.1273],[-81.511392,39.129176],[-81.511964,39.130074],[-81.513317,39.128384],[-81.514094,39.125775],[-81.514825,39.125329],[-81.51733,39.125829],[-81.519221,39.125079],[-81.520592,39.123804],[-81.520188,39.121085],[-81.52223,39.120763],[-81.522336,39.1182],[-81.523719,39.117691],[-81.523596,39.116117],[-81.522248,39.114642],[-81.520328,39.11484],[-81.519289,39.11379],[-81.515553,39.112017],[-81.513363,39.111864],[-81.510599,39.110065],[-81.508623,39.106868],[-81.505118,39.105902],[-81.503822,39.104433],[-81.501524,39.103716],[-81.497231,39.103857],[-81.49488,39.104442],[-81.49207,39.103687],[-81.48912,39.101943],[-81.490437,39.101562],[-81.489709,39.10049],[-81.491879,39.098751],[-81.492752,39.096805],[-81.491404,39.094874],[-81.4916,39.093152],[-81.493574,39.089491],[-81.553546,39.049279],[-81.581447,39.026179],[-81.597059,39.0326]]]}},{"type":"Feature","properties":{"zcta5":"25252","AFFGEOID10":"8600000US25252","GEOID10":"25252","ALAND10":152185592,"AWATER10":182750,"county_name":"Wirt","state_code":"WV","county_state":"Wirt County, WV","county_fips":"54105","risk_level_county":"Medium Risk (70–79% vaccinated)","mean_vaccination_rate_county":74.33,"risk_level_zcta":"Medium Risk (70–79% vaccinated)","mean_vaccination_rate_zips":78.4,"cases":0},"geometry":{"type":"MultiPolygon","coordinates":[[[[-81.651356,38.819046],[-81.651336,38.818184],[-81.648838,38.816145],[-81.646718,38.815381],[-81.642947,38.815116],[-81.64044,38.815807],[-81.638699,38.81496],[-81.636756,38.813004],[-81.63637,38.811746],[-81.633618,38.809436],[-81.633908,38.81056],[-81.636134,38.811606],[-81.636662,38.813211],[-81.63446,38.815065],[-81.634569,38.818246],[-81.633416,38.819437],[-81.631441,38.822807],[-81.629582,38.823998],[-81.627548,38.822867],[-81.627093,38.821785],[-81.627451,38.819092],[-81.626422,38.816102],[-81.625445,38.815338],[-81.623665,38.81705],[-81.621098,38.816831],[-81.619572,38.817989],[-81.618326,38.804082],[-81.619397,38.802294],[-81.618845,38.801459],[-81.618746,38.800641],[-81.61476,38.798656],[-81.612855,38.799731],[-81.609698,38.796731],[-81.606658,38.795693],[-81.603464,38.793541],[-81.601925,38.791707],[-81.599228,38.792398],[-81.597009,38.792219],[-81.594757,38.792854],[-81.592437,38.792524],[-81.588481,38.790801],[-81.582392,38.791665],[-81.580377,38.79301],[-81.577342,38.794098],[-81.576704,38.791506],[-81.575521,38.7893],[-81.573303,38.791058],[-81.571157,38.790236],[-81.570022,38.792877],[-81.568177,38.793682],[-81.567535,38.796063],[-81.568269,38.797134],[-81.567265,38.797959],[-81.567165,38.800775],[-81.565782,38.801914],[-81.568051,38.802947],[-81.569285,38.801625],[-81.57335,38.80405],[-81.574037,38.805675],[-81.575981,38.806321],[-81.576557,38.809186],[-81.579323,38.81146],[-81.580446,38.814509],[-81.583457,38.81684],[-81.583549,38.818052],[-81.580667,38.820155],[-81.581588,38.820863],[-81.580286,38.824173],[-81.580394,38.823407],[-81.575219,38.823699],[-81.570682,38.822326],[-81.569341,38.823491],[-81.56531,38.822656],[-81.562979,38.822579],[-81.560247,38.821167],[-81.555291,38.821997],[-81.551552,38.821639],[-81.550318,38.820348],[-81.546245,38.821243],[-81.544791,38.822358],[-81.542636,38.822649],[-81.5418,38.822045],[-81.538267,38.823659],[-81.535205,38.824296],[-81.531596,38.823119],[-81.523049,38.823948],[-81.521832,38.822148],[-81.521434,38.824014],[-81.51841,38.825052],[-81.516577,38.825239],[-81.51411,38.824396],[-81.511267,38.82395],[-81.508282,38.822914],[-81.502224,38.823047],[-81.498987,38.822673],[-81.495828,38.821645],[-81.492962,38.822147],[-81.495117,38.823598],[-81.494938,38.825759],[-81.495553,38.826254],[-81.494916,38.828617],[-81.494929,38.830518],[-81.493518,38.83159],[-81.491632,38.834225],[-81.490886,38.836806],[-81.491672,38.837959],[-81.491169,38.838987],[-81.488509,38.841158],[-81.490128,38.84199],[-81.492283,38.844202],[-81.492301,38.845493],[-81.49015,38.84697],[-81.490675,38.848623],[-81.492193,38.849836],[-81.492985,38.851431],[-81.492882,38.852793],[-81.493708,38.853749],[-81.490811,38.854819],[-81.49223,38.855924],[-81.491761,38.858762],[-81.492724,38.86023],[-81.493039,38.862683],[-81.490935,38.866633],[-81.491444,38.869503],[-81.491447,38.873576],[-81.48969,38.87516],[-81.486325,38.876418],[-81.480367,38.8774],[-81.478528,38.878677],[-81.470482,38.879892],[-81.46912,38.880889],[-81.467439,38.881037],[-81.465894,38.88319],[-81.461291,38.886371],[-81.460617,38.888808],[-81.45675,38.891815],[-81.45644,38.892634],[-81.451639,38.896628],[-81.456126,38.90083],[-81.460613,38.903888],[-81.459973,38.905694],[-81.461508,38.909334],[-81.464058,38.911348],[-81.465764,38.913671],[-81.468021,38.915714],[-81.47059,38.91888],[-81.474321,38.920273],[-81.476093,38.922233],[-81.475332,38.923261],[-81.473967,38.922577],[-81.473231,38.927261],[-81.475112,38.92825],[-81.477109,38.925458],[-81.480029,38.924787],[-81.481158,38.924807],[-81.482246,38.926401],[-81.480412,38.928281],[-81.479816,38.93051],[-81.477065,38.931256],[-81.477339,38.933049],[-81.47353,38.933729],[-81.473297,38.936735],[-81.474369,38.938579],[-81.475949,38.940146],[-81.475305,38.942246],[-81.475367,38.946222],[-81.473664,38.949894],[-81.474645,38.955017],[-81.474357,38.956857],[-81.476145,38.958269],[-81.477518,38.96016],[-81.479019,38.964317],[-81.4801,38.965856],[-81.477828,38.96715],[-81.475431,38.969107],[-81.47147,38.971431],[-81.471394,38.973069],[-81.473973,38.975985],[-81.47536,38.976957],[-81.477584,38.977515],[-81.479723,38.976687],[-81.483333,38.976753],[-81.486544,38.978316],[-81.492149,38.98233],[-81.494091,38.982646],[-81.495993,38.983737],[-81.498527,38.984411],[-81.501066,38.984445],[-81.500724,38.985703],[-81.502372,38.988038],[-81.506104,38.989923],[-81.506701,38.990639],[-81.510295,38.990108],[-81.514534,38.990672],[-81.52096,38.99283],[-81.521771,38.994306],[-81.522946,38.993607],[-81.526332,38.996733],[-81.526481,38.998929],[-81.527402,39.00003],[-81.530913,39.00286],[-81.532992,39.003468],[-81.533506,39.001802],[-81.535862,38.999801],[-81.53394,38.998294],[-81.534031,38.996259],[-81.535846,38.995276],[-81.536569,38.994012],[-81.537117,38.99],[-81.535936,38.988774],[-81.534598,38.988587],[-81.532857,38.987387],[-81.53391,38.984831],[-81.531594,38.984195],[-81.529428,38.982167],[-81.53019,38.980992],[-81.529707,38.977253],[-81.531246,38.976399],[-81.533149,38.976541],[-81.535918,38.974305],[-81.538228,38.974543],[-81.540036,38.972915],[-81.543585,38.971304],[-81.54509,38.971562],[-81.545664,38.969942],[-81.54939,38.967425],[-81.550152,38.965628],[-81.54916,38.964259],[-81.54993,38.960106],[-81.547435,38.956978],[-81.545635,38.956557],[-81.544255,38.953715],[-81.541425,38.953093],[-81.541689,38.9508],[-81.542103,38.948486],[-81.540847,38.94798],[-81.540014,38.944823],[-81.540573,38.943253],[-81.542542,38.941779],[-81.544243,38.938405],[-81.544219,38.936112],[-81.546865,38.935024],[-81.549249,38.935829],[-81.550999,38.935521],[-81.554858,38.933912],[-81.555866,38.933156],[-81.555253,38.931221],[-81.560506,38.929265],[-81.566068,38.92833],[-81.567645,38.92938],[-81.569947,38.929692],[-81.571941,38.927989],[-81.574334,38.928297],[-81.576984,38.927669],[-81.575727,38.92628],[-81.575712,38.924209],[-81.577171,38.922762],[-81.575829,38.921427],[-81.573428,38.915515],[-81.573521,38.913686],[-81.575237,38.911079],[-81.575253,38.908798],[-81.57581,38.907891],[-81.574073,38.903662],[-81.574686,38.902316],[-81.573356,38.901915],[-81.571197,38.902712],[-81.569475,38.904058],[-81.567085,38.903311],[-81.561889,38.905893],[-81.557669,38.906661],[-81.552072,38.906271],[-81.549357,38.906343],[-81.547341,38.905937],[-81.54644,38.905717],[-81.536877,38.89948],[-81.535008,38.897683],[-81.534285,38.896106],[-81.531972,38.894903],[-81.530779,38.89226],[-81.529009,38.89136],[-81.528806,38.88972],[-81.531922,38.888351],[-81.536883,38.884292],[-81.540582,38.883185],[-81.543501,38.88119],[-81.544091,38.879575],[-81.543945,38.87656],[-81.543185,38.87354],[-81.539892,38.87151],[-81.5405,38.870454],[-81.541472,38.870165],[-81.543872,38.871173],[-81.546449,38.870555],[-81.548731,38.872341],[-81.548701,38.874697],[-81.549277,38.875485],[-81.553971,38.877813],[-81.554793,38.879787],[-81.556575,38.880365],[-81.561577,38.875618],[-81.56412,38.877269],[-81.567515,38.876403],[-81.569198,38.876807],[-81.570926,38.878226],[-81.573648,38.878523],[-81.574879,38.877543],[-81.579055,38.876275],[-81.580155,38.874918],[-81.579392,38.873401],[-81.583086,38.868979],[-81.583527,38.866511],[-81.584943,38.865257],[-81.586686,38.865947],[-81.588637,38.864966],[-81.588332,38.863891],[-81.588754,38.860719],[-81.588334,38.859352],[-81.588483,38.856615],[-81.589064,38.855555],[-81.588935,38.851201],[-81.591917,38.847957],[-81.592456,38.844808],[-81.592272,38.841588],[-81.591785,38.840193],[-81.592347,38.838363],[-81.59315,38.846322],[-81.593108,38.84714],[-81.604574,38.840811],[-81.604434,38.838303],[-81.605367,38.836765],[-81.608298,38.834721],[-81.610161,38.832803],[-81.613121,38.831643],[-81.61625,38.826793],[-81.618282,38.824249],[-81.619313,38.824003],[-81.621336,38.824651],[-81.62383,38.826072],[-81.626059,38.82593],[-81.628635,38.826981],[-81.630938,38.828758],[-81.636981,38.828968],[-81.63708,38.827052],[-81.638808,38.82162],[-81.639462,38.815997],[-81.645862,38.816015],[-81.647649,38.816612],[-81.651356,38.819046]]],[[[-81.651356,38.819046],[-81.65135,38.819063],[-81.650027,38.824215],[-81.651521,38.829505],[-81.65301,38.830605],[-81.658221,38.831953],[-81.65956,38.831354],[-81.663899,38.831739],[-81.668208,38.828986],[-81.662396,38.827122],[-81.659224,38.822959],[-81.65633,38.822889],[-81.653616,38.821441],[-81.651666,38.819197],[-81.651356,38.819046]]]]}},{"type":"Feature","properties":{"zcta5":"25270","AFFGEOID10":"8600000US25270","GEOID10":"25270","ALAND10":103208578,"AWATER10":1539,"county_name":"Wirt","state_code":"WV","county_state":"Wirt County, WV","county_fips":"54105","risk_level_county":"Medium Risk (70–79% vaccinated)","mean_vaccination_rate_county":74.33,"risk_level_zcta":"Higher Risk (60–69% vaccinated)","mean_vaccination_rate_zips":67.19,"cases":0},"geometry":{"type":"Polygon","coordinates":[[[-81.521832,38.822148],[-81.523205,38.80811],[-81.519737,38.809102],[-81.516578,38.809325],[-81.511613,38.811891],[-81.507722,38.812315],[-81.504895,38.811676],[-81.500319,38.811731],[-81.497309,38.811319],[-81.495943,38.810246],[-81.496024,38.808954],[-81.500945,38.805429],[-81.499839,38.803381],[-81.501249,38.800153],[-81.502576,38.799229],[-81.504122,38.796852],[-81.506694,38.795831],[-81.509882,38.796138],[-81.513616,38.795701],[-81.516285,38.794596],[-81.520044,38.794427],[-81.524515,38.79508],[-81.525173,38.788064],[-81.522145,38.787554],[-81.520729,38.787915],[-81.517146,38.787128],[-81.512504,38.78544],[-81.511897,38.786074],[-81.507088,38.786461],[-81.504939,38.785888],[-81.502093,38.787961],[-81.499924,38.788212],[-81.49715,38.787713],[-81.495182,38.790307],[-81.494688,38.791945],[-81.491673,38.790427],[-81.489807,38.791743],[-81.487508,38.792651],[-81.485262,38.790531],[-81.486075,38.789835],[-81.481588,38.788686],[-81.481313,38.79214],[-81.481707,38.79505],[-81.482273,38.797131],[-81.481133,38.797729],[-81.480208,38.799913],[-81.476095,38.802233],[-81.475619,38.803573],[-81.476196,38.806341],[-81.473375,38.809385],[-81.471255,38.809835],[-81.470002,38.811299],[-81.46866,38.811223],[-81.465371,38.807354],[-81.462825,38.807395],[-81.46029,38.811878],[-81.458406,38.813447],[-81.456902,38.813153],[-81.45545,38.813796],[-81.455737,38.815235],[-81.453612,38.817235],[-81.452579,38.819036],[-81.452283,38.820902],[-81.450433,38.821368],[-81.448052,38.823701],[-81.447625,38.825575],[-81.446273,38.827129],[-81.44694,38.829257],[-81.445868,38.832703],[-81.443258,38.834648],[-81.443133,38.836431],[-81.440618,38.839115],[-81.439305,38.839935],[-81.440193,38.841386],[-81.439851,38.842617],[-81.440663,38.845857],[-81.440129,38.84698],[-81.437031,38.846804],[-81.431982,38.843486],[-81.430417,38.840972],[-81.431874,38.839639],[-81.427177,38.838428],[-81.424521,38.836896],[-81.421665,38.836851],[-81.420597,38.83767],[-81.421625,38.840095],[-81.420437,38.842586],[-81.420848,38.843814],[-81.414927,38.844785],[-81.415454,38.846261],[-81.415,38.848373],[-81.413112,38.849504],[-81.408222,38.850481],[-81.403689,38.851022],[-81.402855,38.853724],[-81.402052,38.854734],[-81.398865,38.851872],[-81.394715,38.851356],[-81.392652,38.850075],[-81.390631,38.851264],[-81.384908,38.853417],[-81.383899,38.854887],[-81.383353,38.857991],[-81.381798,38.85933],[-81.379958,38.859977],[-81.374367,38.864874],[-81.373639,38.867003],[-81.369361,38.869789],[-81.366414,38.871006],[-81.365008,38.87087],[-81.364822,38.872761],[-81.362964,38.87628],[-81.362873,38.877601],[-81.360648,38.880198],[-81.355717,38.882874],[-81.353179,38.882956],[-81.354085,38.885832],[-81.354168,38.888186],[-81.35571,38.888692],[-81.3547,38.8892],[-81.355893,38.893157],[-81.357211,38.894477],[-81.362266,38.895176],[-81.364082,38.896222],[-81.366389,38.896828],[-81.368459,38.898679],[-81.371582,38.900005],[-81.375304,38.899219],[-81.379952,38.89654],[-81.379193,38.898653],[-81.377247,38.901388],[-81.377817,38.902763],[-81.376946,38.904102],[-81.376105,38.90718],[-81.415086,38.920725],[-81.448148,38.941645],[-81.448923,38.940259],[-81.451028,38.939667],[-81.45282,38.940269],[-81.454898,38.9401],[-81.455312,38.937647],[-81.456271,38.936359],[-81.455886,38.933986],[-81.457107,38.932777],[-81.458809,38.932723],[-81.462226,38.931319],[-81.464197,38.932385],[-81.4659,38.931835],[-81.466863,38.930572],[-81.467278,38.927609],[-81.469532,38.927778],[-81.472518,38.926825],[-81.473231,38.927261],[-81.473967,38.922577],[-81.475332,38.923261],[-81.476093,38.922233],[-81.474321,38.920273],[-81.47059,38.91888],[-81.468021,38.915714],[-81.465764,38.913671],[-81.464058,38.911348],[-81.461508,38.909334],[-81.459973,38.905694],[-81.460613,38.903888],[-81.456126,38.90083],[-81.451639,38.896628],[-81.45644,38.892634],[-81.45675,38.891815],[-81.460617,38.888808],[-81.461291,38.886371],[-81.465894,38.88319],[-81.467439,38.881037],[-81.46912,38.880889],[-81.470482,38.879892],[-81.478528,38.878677],[-81.480367,38.8774],[-81.486325,38.876418],[-81.48969,38.87516],[-81.491447,38.873576],[-81.491444,38.869503],[-81.490935,38.866633],[-81.493039,38.862683],[-81.492724,38.86023],[-81.491761,38.858762],[-81.49223,38.855924],[-81.490811,38.854819],[-81.493708,38.853749],[-81.492882,38.852793],[-81.492985,38.851431],[-81.492193,38.849836],[-81.490675,38.848623],[-81.49015,38.84697],[-81.492301,38.845493],[-81.492283,38.844202],[-81.490128,38.84199],[-81.488509,38.841158],[-81.491169,38.838987],[-81.491672,38.837959],[-81.490886,38.836806],[-81.491632,38.834225],[-81.493518,38.83159],[-81.494929,38.830518],[-81.494916,38.828617],[-81.495553,38.826254],[-81.494938,38.825759],[-81.495117,38.823598],[-81.492962,38.822147],[-81.495828,38.821645],[-81.498987,38.822673],[-81.502224,38.823047],[-81.508282,38.822914],[-81.511267,38.82395],[-81.51411,38.824396],[-81.516577,38.825239],[-81.51841,38.825052],[-81.521434,38.824014],[-81.521832,38.822148]]]}},{"type":"Feature","properties":{"zcta5":"26152","AFFGEOID10":"8600000US26152","GEOID10":"26152","ALAND10":4702290,"AWATER10":0,"county_name":"Wirt","state_code":"WV","county_state":"Wirt County, WV","county_fips":"54105","risk_level_county":"Medium Risk (70–79% vaccinated)","mean_vaccination_rate_county":74.33,"risk_level_zcta":"Uninhabited","mean_vaccination_rate_zips":null,"cases":0},"geometry":{"type":"Polygon","coordinates":[[[-81.206281,39.005753],[-81.206586,39.004196],[-81.211809,39.001064],[-81.210443,38.999206],[-81.210329,38.997449],[-81.211518,38.995397],[-81.208624,38.992892],[-81.209856,38.991836],[-81.208424,38.990345],[-81.198736,38.998748],[-81.179209,39.016228],[-81.178778,39.018533],[-81.179679,39.018946],[-81.178529,39.020936],[-81.178275,39.022989],[-81.180458,39.024954],[-81.183479,39.025018],[-81.186887,39.020519],[-81.191955,39.01866],[-81.198666,39.024488],[-81.201536,39.020019],[-81.203146,39.016509],[-81.203936,39.015657],[-81.203259,39.012046],[-81.203597,39.00823],[-81.206281,39.005753]]]}},{"type":"Feature","properties":{"zcta5":"26138","AFFGEOID10":"8600000US26138","GEOID10":"26138","ALAND10":13792883,"AWATER10":259,"county_name":"Wirt","state_code":"WV","county_state":"Wirt County, WV","county_fips":"54105","risk_level_county":"Medium Risk (70–79% vaccinated)","mean_vaccination_rate_county":74.33,"risk_level_zcta":"Uninhabited","mean_vaccination_rate_zips":null,"cases":0},"geometry":{"type":"Polygon","coordinates":[[[-81.21552,39.04348],[-81.220637,39.04338],[-81.224738,39.04088],[-81.226238,39.03838],[-81.226038,39.03678],[-81.227538,39.03578],[-81.226138,39.03398],[-81.228238,39.03228],[-81.231637,39.03378],[-81.232437,39.03478],[-81.235237,39.03468],[-81.237637,39.03578],[-81.238437,39.03768],[-81.242037,39.03818],[-81.24409,39.036443],[-81.243984,39.035567],[-81.242641,39.033684],[-81.24118,39.033117],[-81.238903,39.030979],[-81.236673,39.030047],[-81.232745,39.026758],[-81.229798,39.023617],[-81.228785,39.020788],[-81.225207,39.019401],[-81.219404,39.016731],[-81.216792,39.01506],[-81.216636,39.013037],[-81.2178,39.012015],[-81.217719,39.010871],[-81.212639,39.009552],[-81.20849,39.007754],[-81.206281,39.005753],[-81.203597,39.00823],[-81.203259,39.012046],[-81.203936,39.015657],[-81.203146,39.016509],[-81.201536,39.020019],[-81.198666,39.024488],[-81.191955,39.01866],[-81.186887,39.020519],[-81.183479,39.025018],[-81.180458,39.024954],[-81.178275,39.022989],[-81.178529,39.020936],[-81.179679,39.018946],[-81.178778,39.018533],[-81.179209,39.016228],[-81.167037,39.027133],[-81.162455,39.030608],[-81.164916,39.03064],[-81.168188,39.031336],[-81.170202,39.033326],[-81.173768,39.033864],[-81.176453,39.036591],[-81.178648,39.040731],[-81.179656,39.041419],[-81.181307,39.039657],[-81.183538,39.039273],[-81.185123,39.041042],[-81.190575,39.039996],[-81.191028,39.03802],[-81.194475,39.037495],[-81.197107,39.038955],[-81.199502,39.038013],[-81.203374,39.03822],[-81.202968,39.039858],[-81.203603,39.041827],[-81.207741,39.044651],[-81.210741,39.045181],[-81.213739,39.044981],[-81.21552,39.04348]]]}},{"type":"Feature","properties":{"zcta5":"26141","AFFGEOID10":"8600000US26141","GEOID10":"26141","ALAND10":87758920,"AWATER10":851614,"county_name":"Wirt","state_code":"WV","county_state":"Wirt County, WV","county_fips":"54105","risk_level_county":"Medium Risk (70–79% vaccinated)","mean_vaccination_rate_county":74.33,"risk_level_zcta":"Medium Risk (70–79% vaccinated)","mean_vaccination_rate_zips":70.83,"cases":0},"geometry":{"type":"Polygon","coordinates":[[[-81.324681,38.964591],[-81.323476,38.963816],[-81.323837,38.962742],[-81.323669,38.959495],[-81.325569,38.959313],[-81.32623,38.961154],[-81.327187,38.960787],[-81.328615,38.958021],[-81.330296,38.956989],[-81.3342,38.956473],[-81.336087,38.958923],[-81.338255,38.960097],[-81.338444,38.958087],[-81.337823,38.954259],[-81.339137,38.952852],[-81.33875,38.95166],[-81.336686,38.953473],[-81.334905,38.953177],[-81.334891,38.952356],[-81.33287,38.953327],[-81.330417,38.951533],[-81.328357,38.952036],[-81.325943,38.95094],[-81.325962,38.948914],[-81.32377,38.948549],[-81.321468,38.949813],[-81.319311,38.949868],[-81.31828,38.949189],[-81.318046,38.947491],[-81.31561,38.946907],[-81.314132,38.945392],[-81.313714,38.943721],[-81.31393,38.940219],[-81.316026,38.939658],[-81.318056,38.937017],[-81.320395,38.937631],[-81.32301,38.936563],[-81.324744,38.937449],[-81.327043,38.93717],[-81.328237,38.936478],[-81.331054,38.936746],[-81.333862,38.93753],[-81.337165,38.939631],[-81.339376,38.939323],[-81.340734,38.939834],[-81.341012,38.940984],[-81.345191,38.941451],[-81.348217,38.943374],[-81.348133,38.944444],[-81.346234,38.946918],[-81.349075,38.944954],[-81.349712,38.940734],[-81.349164,38.939993],[-81.347159,38.940098],[-81.344036,38.940959],[-81.342995,38.940502],[-81.341735,38.937109],[-81.338534,38.936613],[-81.335804,38.93463],[-81.3356,38.932445],[-81.336654,38.930347],[-81.338145,38.929243],[-81.33763,38.927546],[-81.336295,38.92673],[-81.335513,38.924772],[-81.336511,38.922962],[-81.338817,38.921343],[-81.337754,38.920805],[-81.3358,38.921293],[-81.333057,38.920075],[-81.332973,38.919179],[-81.336614,38.916596],[-81.338766,38.915805],[-81.337907,38.914614],[-81.335453,38.912882],[-81.336662,38.912013],[-81.338075,38.91214],[-81.342393,38.913821],[-81.346922,38.913876],[-81.346407,38.912278],[-81.346469,38.909051],[-81.344992,38.907141],[-81.345012,38.905145],[-81.346572,38.903928],[-81.350038,38.903449],[-81.352075,38.901591],[-81.354579,38.903435],[-81.356098,38.903512],[-81.356314,38.902173],[-81.353129,38.900926],[-81.350084,38.898497],[-81.347419,38.898167],[-81.347442,38.896922],[-81.343911,38.895633],[-81.308894,38.908104],[-81.278412,38.914867],[-81.279482,38.913198],[-81.277341,38.912614],[-81.272516,38.914179],[-81.270524,38.91436],[-81.270176,38.913329],[-81.271435,38.906656],[-81.270428,38.906056],[-81.268538,38.906279],[-81.265126,38.91003],[-81.262885,38.91103],[-81.261264,38.909139],[-81.258634,38.907466],[-81.258422,38.906433],[-81.260431,38.903834],[-81.260471,38.902079],[-81.25879,38.900346],[-81.256129,38.898754],[-81.253034,38.897755],[-81.249294,38.897014],[-81.249565,38.895885],[-81.25278,38.89486],[-81.256493,38.894611],[-81.259474,38.893638],[-81.25921,38.89216],[-81.255731,38.889414],[-81.252984,38.887929],[-81.249176,38.887715],[-81.244974,38.88385],[-81.243735,38.883051],[-81.239588,38.882474],[-81.238571,38.881947],[-81.238945,38.880245],[-81.238143,38.879342],[-81.234354,38.876831],[-81.232154,38.876367],[-81.231387,38.875468],[-81.226224,38.8744],[-81.224478,38.874669],[-81.223134,38.876775],[-81.219327,38.878511],[-81.214658,38.879482],[-81.214369,38.882263],[-81.21077,38.884027],[-81.210089,38.885065],[-81.207707,38.886709],[-81.205732,38.88706],[-81.202752,38.886461],[-81.195203,38.887123],[-81.19284,38.886217],[-81.189186,38.886034],[-81.185873,38.884672],[-81.182691,38.885394],[-81.181969,38.888016],[-81.17899,38.891501],[-81.1766,38.89256],[-81.174537,38.894146],[-81.169826,38.896399],[-81.169492,38.898125],[-81.168459,38.898912],[-81.167354,38.901002],[-81.166854,38.899041],[-81.167799,38.897354],[-81.165519,38.895129],[-81.162658,38.895213],[-81.162726,38.894093],[-81.16133,38.893133],[-81.159097,38.894102],[-81.155138,38.893798],[-81.151213,38.895732],[-81.151154,38.898611],[-81.147929,38.901966],[-81.146122,38.902405],[-81.143437,38.90445],[-81.142161,38.904485],[-81.139059,38.905891],[-81.139365,38.908818],[-81.140673,38.909523],[-81.141071,38.912366],[-81.138377,38.913793],[-81.137385,38.915505],[-81.140019,38.9159],[-81.141796,38.91685],[-81.141602,38.918902],[-81.139886,38.921468],[-81.140781,38.924412],[-81.142833,38.926335],[-81.145883,38.926314],[-81.148113,38.926855],[-81.151244,38.928787],[-81.154669,38.929791],[-81.15519,38.927281],[-81.157476,38.925184],[-81.158539,38.923318],[-81.1578,38.922615],[-81.157374,38.919727],[-81.159317,38.91649],[-81.160915,38.915244],[-81.162377,38.915289],[-81.165035,38.914348],[-81.16734,38.911294],[-81.167768,38.908836],[-81.16945,38.905657],[-81.172587,38.904289],[-81.173605,38.904281],[-81.173809,38.905511],[-81.17613,38.907336],[-81.179427,38.907685],[-81.180955,38.908385],[-81.182108,38.910507],[-81.183104,38.910998],[-81.183922,38.913049],[-81.187508,38.91561],[-81.187208,38.916525],[-81.188146,38.918657],[-81.189496,38.919828],[-81.189854,38.921244],[-81.193929,38.924463],[-81.194311,38.925737],[-81.196445,38.926723],[-81.197514,38.927922],[-81.198844,38.931106],[-81.198999,38.933394],[-81.198324,38.935536],[-81.196997,38.937914],[-81.195633,38.939177],[-81.19996,38.941483],[-81.202694,38.942526],[-81.203972,38.944984],[-81.205355,38.944485],[-81.208784,38.944906],[-81.211032,38.944692],[-81.213813,38.94204],[-81.218392,38.940701],[-81.221712,38.941673],[-81.223961,38.941655],[-81.226504,38.94072],[-81.228452,38.940479],[-81.231201,38.942088],[-81.232941,38.942495],[-81.237458,38.942406],[-81.240236,38.944865],[-81.243209,38.945147],[-81.244485,38.946059],[-81.246325,38.949739],[-81.247633,38.950899],[-81.249493,38.95074],[-81.256295,38.947726],[-81.258114,38.948285],[-81.257303,38.948952],[-81.26165,38.949365],[-81.265731,38.947608],[-81.268851,38.947605],[-81.272887,38.948865],[-81.274843,38.947567],[-81.275816,38.947641],[-81.275658,38.94992],[-81.280173,38.951806],[-81.284068,38.952781],[-81.284976,38.954292],[-81.28421,38.960154],[-81.284309,38.961507],[-81.285601,38.964427],[-81.288777,38.968447],[-81.291152,38.970094],[-81.299023,38.9735],[-81.302427,38.97268],[-81.307028,38.968458],[-81.308256,38.967989],[-81.312376,38.967688],[-81.314604,38.968106],[-81.316274,38.969864],[-81.316106,38.971681],[-81.316954,38.971932],[-81.320137,38.970252],[-81.325069,38.966302],[-81.324681,38.964591]]]}},{"type":"Feature","properties":{"zcta5":"26180","AFFGEOID10":"8600000US26180","GEOID10":"26180","ALAND10":167741786,"AWATER10":1029596,"county_name":"Wirt","state_code":"WV","county_state":"Wirt County, WV","county_fips":"54105","risk_level_county":"Medium Risk (70–79% vaccinated)","mean_vaccination_rate_county":74.33,"risk_level_zcta":"Medium Risk (70–79% vaccinated)","mean_vaccination_rate_zips":77.48,"cases":0},"geometry":{"type":"Polygon","coordinates":[[[-81.465503,39.16285],[-81.464571,39.161026],[-81.461586,39.156922],[-81.457119,39.149125],[-81.45568,39.147196],[-81.450984,39.143555],[-81.446304,39.137185],[-81.444709,39.13702],[-81.440734,39.137919],[-81.437822,39.138259],[-81.434485,39.137743],[-81.431162,39.136553],[-81.426531,39.135928],[-81.424469,39.136087],[-81.424906,39.135679],[-81.41808,39.135944],[-81.411915,39.135592],[-81.407754,39.135724],[-81.402019,39.137749],[-81.397877,39.13998],[-81.395176,39.14045],[-81.393158,39.140302],[-81.386654,39.140725],[-81.381039,39.140302],[-81.377246,39.13876],[-81.376866,39.137513],[-81.377454,39.133596],[-81.377085,39.131803],[-81.375399,39.133453],[-81.376224,39.136141],[-81.376353,39.139151],[-81.374372,39.139999],[-81.370246,39.144928],[-81.369535,39.144371],[-81.364955,39.147636],[-81.369379,39.144003],[-81.3719,39.140206],[-81.369697,39.139539],[-81.369313,39.14051],[-81.367443,39.140175],[-81.367079,39.138527],[-81.364726,39.136707],[-81.363542,39.134206],[-81.358489,39.131227],[-81.356262,39.128803],[-81.355085,39.128429],[-81.355011,39.12495],[-81.353812,39.123412],[-81.350024,39.124743],[-81.349142,39.122797],[-81.347689,39.124203],[-81.344702,39.124696],[-81.342986,39.124227],[-81.342121,39.122417],[-81.342446,39.126211],[-81.340684,39.129005],[-81.340325,39.131007],[-81.337687,39.131208],[-81.334705,39.134132],[-81.333259,39.13465],[-81.330579,39.134022],[-81.330268,39.132973],[-81.330944,39.129326],[-81.328595,39.128126],[-81.321888,39.131303],[-81.320151,39.131509],[-81.314423,39.129735],[-81.305372,39.126328],[-81.303616,39.126151],[-81.301652,39.126955],[-81.306224,39.127345],[-81.308571,39.128648],[-81.31012,39.132451],[-81.309095,39.13453],[-81.315102,39.137609],[-81.324047,39.142568],[-81.324881,39.144608],[-81.327612,39.147209],[-81.329158,39.150206],[-81.328786,39.152584],[-81.325088,39.152819],[-81.320664,39.152616],[-81.319029,39.153896],[-81.321287,39.155957],[-81.320592,39.156689],[-81.313837,39.158012],[-81.310439,39.158169],[-81.31127,39.160409],[-81.315664,39.161425],[-81.318672,39.162708],[-81.318908,39.163388],[-81.316574,39.164782],[-81.316132,39.165925],[-81.316807,39.16758],[-81.312864,39.169537],[-81.310899,39.17004],[-81.308662,39.171578],[-81.305331,39.172553],[-81.302603,39.175436],[-81.297554,39.178651],[-81.301658,39.17969],[-81.301058,39.182267],[-81.298002,39.181246],[-81.296053,39.181392],[-81.296132,39.18327],[-81.298017,39.185572],[-81.295349,39.186895],[-81.296852,39.190851],[-81.296992,39.192297],[-81.298983,39.19454],[-81.301283,39.199004],[-81.301798,39.201557],[-81.301501,39.20268],[-81.299976,39.203197],[-81.298211,39.205013],[-81.296339,39.207978],[-81.296826,39.209234],[-81.294156,39.213381],[-81.293853,39.218333],[-81.292797,39.220093],[-81.291325,39.224076],[-81.288125,39.224012],[-81.287421,39.226252],[-81.284365,39.228348],[-81.283805,39.229244],[-81.281405,39.229948],[-81.280765,39.23134],[-81.277629,39.23326],[-81.277085,39.234188],[-81.276926,39.237004],[-81.278268,39.239692],[-81.277038,39.240812],[-81.27745,39.242623],[-81.275565,39.243596],[-81.273532,39.247675],[-81.270892,39.248507],[-81.270172,39.250939],[-81.271262,39.252251],[-81.27142,39.253963],[-81.268014,39.254563],[-81.276975,39.258162],[-81.281803,39.259202],[-81.290515,39.259115],[-81.293107,39.258222],[-81.295895,39.255042],[-81.298324,39.253315],[-81.305508,39.250183],[-81.308716,39.249785],[-81.320943,39.251108],[-81.327275,39.251507],[-81.327905,39.253872],[-81.334473,39.252594],[-81.334262,39.254582],[-81.336125,39.255009],[-81.338968,39.258041],[-81.335526,39.260818],[-81.337382,39.261552],[-81.339034,39.262971],[-81.339447,39.267078],[-81.340062,39.267637],[-81.343485,39.26659],[-81.348822,39.265985],[-81.350616,39.264758],[-81.352255,39.264443],[-81.353335,39.262038],[-81.355221,39.260847],[-81.356097,39.259347],[-81.355534,39.26108],[-81.353838,39.262394],[-81.35255,39.26484],[-81.350976,39.265662],[-81.352792,39.269149],[-81.350585,39.271488],[-81.34896,39.271781],[-81.34914,39.273063],[-81.347557,39.274025],[-81.348415,39.274443],[-81.346173,39.279753],[-81.349282,39.280819],[-81.352189,39.28581],[-81.355582,39.279063],[-81.355761,39.278052],[-81.357392,39.277174],[-81.359919,39.278321],[-81.363261,39.27866],[-81.365078,39.279699],[-81.36708,39.28168],[-81.370064,39.283729],[-81.371889,39.284359],[-81.373761,39.283979],[-81.376359,39.282623],[-81.37852,39.284662],[-81.379189,39.287034],[-81.380566,39.288521],[-81.38249,39.287406],[-81.382577,39.285153],[-81.383228,39.283394],[-81.398686,39.27669],[-81.401173,39.276904],[-81.402771,39.275406],[-81.404153,39.275153],[-81.405448,39.273515],[-81.40966,39.272852],[-81.409235,39.270445],[-81.410508,39.268568],[-81.410427,39.267199],[-81.413991,39.266754],[-81.414617,39.262509],[-81.415613,39.260775],[-81.415251,39.259703],[-81.413266,39.258185],[-81.411062,39.257818],[-81.410256,39.256854],[-81.412157,39.253698],[-81.422901,39.251493],[-81.425486,39.248352],[-81.426106,39.244661],[-81.425154,39.241471],[-81.425816,39.239396],[-81.428173,39.237867],[-81.422305,39.231925],[-81.421467,39.234448],[-81.419746,39.234852],[-81.417178,39.232583],[-81.415754,39.230462],[-81.414961,39.224811],[-81.41564,39.223568],[-81.4167,39.224536],[-81.418205,39.228291],[-81.417995,39.220512],[-81.419556,39.221989],[-81.420106,39.221164],[-81.418244,39.219548],[-81.419794,39.218679],[-81.420871,39.21643],[-81.424427,39.214427],[-81.422999,39.212253],[-81.420076,39.212625],[-81.417783,39.214097],[-81.415904,39.213976],[-81.411911,39.212215],[-81.40754,39.210974],[-81.407031,39.209307],[-81.405566,39.208544],[-81.406099,39.205473],[-81.408721,39.20425],[-81.412394,39.204772],[-81.414226,39.203543],[-81.41475,39.197881],[-81.412006,39.199976],[-81.405963,39.194932],[-81.407673,39.19294],[-81.407696,39.190881],[-81.409595,39.188747],[-81.413041,39.185829],[-81.419535,39.184669],[-81.419728,39.186847],[-81.420422,39.184645],[-81.422951,39.181965],[-81.426293,39.179318],[-81.426599,39.178287],[-81.429615,39.176909],[-81.431789,39.17922],[-81.434988,39.180685],[-81.441285,39.181289],[-81.442105,39.182515],[-81.444852,39.179226],[-81.447787,39.176373],[-81.449512,39.173973],[-81.450843,39.17306],[-81.454847,39.171332],[-81.460897,39.167892],[-81.464426,39.16494],[-81.465503,39.16285]]]}}]}