{"type":"FeatureCollection","features":[{"type":"Feature","properties":{"zcta5":"50464","AFFGEOID10":"8600000US50464","GEOID10":"50464","ALAND10":61009259,"AWATER10":0,"county_name":"Worth","state_code":"IA","county_state":"Worth County, IA","county_fips":"19195","risk_level_county":"Medium Risk (70–79% vaccinated)","mean_vaccination_rate_county":70.14,"risk_level_zcta":"Very High Risk (<60% vaccinated)","mean_vaccination_rate_zips":54.27,"cases":1},"geometry":{"type":"Polygon","coordinates":[[[-93.099984,43.284139],[-93.141556,43.284175],[-93.141565,43.255106],[-93.141484,43.241872],[-93.129349,43.241828],[-93.125027,43.242614],[-93.124693,43.241194],[-93.122233,43.240305],[-93.120359,43.240333],[-93.121324,43.237528],[-93.122573,43.237485],[-93.122621,43.235999],[-93.121372,43.234611],[-93.118077,43.232636],[-93.118489,43.230498],[-93.117674,43.227164],[-93.114988,43.227148],[-93.113259,43.22356],[-93.108476,43.22067],[-93.10508,43.219362],[-93.101555,43.219731],[-93.100389,43.218143],[-93.100124,43.215384],[-93.096581,43.214434],[-93.092649,43.215421],[-93.091742,43.215145],[-93.089961,43.216553],[-93.085556,43.216641],[-93.084052,43.217341],[-93.082548,43.22005],[-93.043947,43.220065],[-93.044022,43.227389],[-93.024135,43.227363],[-93.024217,43.241878],[-93.024143,43.255538],[-93.024123,43.284565],[-93.055763,43.284541],[-93.05522,43.283091],[-93.056118,43.282316],[-93.059844,43.280971],[-93.058254,43.27903],[-93.058614,43.277431],[-93.060879,43.276405],[-93.066962,43.276148],[-93.066946,43.275068],[-93.064744,43.274174],[-93.064131,43.273187],[-93.066215,43.272497],[-93.067676,43.271141],[-93.067458,43.269965],[-93.077025,43.269847],[-93.077059,43.277563],[-93.073106,43.277616],[-93.073168,43.284418],[-93.099984,43.284139]]]}},{"type":"Feature","properties":{"zcta5":"50456","AFFGEOID10":"8600000US50456","GEOID10":"50456","ALAND10":120255239,"AWATER10":14091,"county_name":"Worth","state_code":"IA","county_state":"Worth County, IA","county_fips":"19195","risk_level_county":"Medium Risk (70–79% vaccinated)","mean_vaccination_rate_county":70.14,"risk_level_zcta":"Medium Risk (70–79% vaccinated)","mean_vaccination_rate_zips":76.01,"cases":1},"geometry":{"type":"Polygon","coordinates":[[[-93.350028,43.291774],[-93.350201,43.279184],[-93.349228,43.263456],[-93.349169,43.255591],[-93.326083,43.255415],[-93.319933,43.255202],[-93.141565,43.255106],[-93.141556,43.284175],[-93.099984,43.284139],[-93.092986,43.295071],[-93.083698,43.295252],[-93.083591,43.305966],[-93.123507,43.305855],[-93.123734,43.313134],[-93.141397,43.31318],[-93.141176,43.327645],[-93.155016,43.327602],[-93.155809,43.328872],[-93.155963,43.333058],[-93.158406,43.33562],[-93.159501,43.338273],[-93.159127,43.342372],[-93.180998,43.3425],[-93.181068,43.331212],[-93.200869,43.331111],[-93.200921,43.327519],[-93.210867,43.327518],[-93.211091,43.313046],[-93.22101,43.313083],[-93.220792,43.321909],[-93.226845,43.325278],[-93.228908,43.327617],[-93.240629,43.32765],[-93.240895,43.313142],[-93.260345,43.313169],[-93.260385,43.298689],[-93.314095,43.298802],[-93.31644,43.297333],[-93.317567,43.293282],[-93.319759,43.289836],[-93.319765,43.284364],[-93.339488,43.284441],[-93.339363,43.291539],[-93.340419,43.291726],[-93.350028,43.291774]]]}},{"type":"Feature","properties":{"zcta5":"50444","AFFGEOID10":"8600000US50444","GEOID10":"50444","ALAND10":55947793,"AWATER10":19090,"county_name":"Worth","state_code":"IA","county_state":"Worth County, IA","county_fips":"19195","risk_level_county":"Medium Risk (70–79% vaccinated)","mean_vaccination_rate_county":70.14,"risk_level_zcta":"Very High Risk (<60% vaccinated)","mean_vaccination_rate_zips":22.82,"cases":1},"geometry":{"type":"Polygon","coordinates":[[[-93.378993,43.342609],[-93.388898,43.342602],[-93.388893,43.345211],[-93.398806,43.34522],[-93.398809,43.342571],[-93.40386,43.342605],[-93.403758,43.338589],[-93.403117,43.334522],[-93.408005,43.334199],[-93.408021,43.328158],[-93.432147,43.328036],[-93.420761,43.306315],[-93.419417,43.303334],[-93.417953,43.302067],[-93.418315,43.291187],[-93.419515,43.291868],[-93.438119,43.291736],[-93.438158,43.26992],[-93.416424,43.270084],[-93.41638,43.269148],[-93.41338,43.269143],[-93.413262,43.264102],[-93.409498,43.263589],[-93.407851,43.260961],[-93.404447,43.25915],[-93.398391,43.259204],[-93.398349,43.255389],[-93.378775,43.255371],[-93.378627,43.249543],[-93.378799,43.242113],[-93.374412,43.242158],[-93.374416,43.245742],[-93.359549,43.24584],[-93.359543,43.243049],[-93.358489,43.24219],[-93.349067,43.242223],[-93.349169,43.255591],[-93.349228,43.263456],[-93.350201,43.279184],[-93.350028,43.291774],[-93.348937,43.316746],[-93.349014,43.327954],[-93.37872,43.328056],[-93.378993,43.342609]]]}},{"type":"Feature","properties":{"zcta5":"50472","AFFGEOID10":"8600000US50472","GEOID10":"50472","ALAND10":315523495,"AWATER10":694575,"county_name":"Worth","state_code":"IA","county_state":"Worth County, IA","county_fips":"19195","risk_level_county":"Medium Risk (70–79% vaccinated)","mean_vaccination_rate_county":70.14,"risk_level_zcta":"Higher Risk (60–69% vaccinated)","mean_vaccination_rate_zips":66.96,"cases":1},"geometry":{"type":"Polygon","coordinates":[[[-93.07118699368701,43.499570856392495],[-93.071079,43.498438],[-93.068729,43.496771],[-93.06712,43.494291],[-93.060983,43.494213],[-93.059503,43.493409],[-93.05944,43.48917],[-93.056984,43.486606],[-93.056976,43.483997],[-93.055654,43.482651],[-93.051986,43.482397],[-93.047903,43.480073],[-93.044684,43.477584],[-93.044596,43.465544],[-93.064605,43.465795],[-93.064412,43.439321],[-93.058177,43.439023],[-93.052626,43.437353],[-93.049985,43.434153],[-93.049329,43.432546],[-93.047513,43.43112],[-93.047187,43.429675],[-93.047315,43.429397],[-93.084367,43.429433],[-93.084154,43.400853],[-93.084002,43.386102],[-93.043774,43.385912],[-93.043863,43.37138],[-93.023973,43.371441],[-93.024092,43.342336],[-92.984798,43.342356],[-92.985024,43.356898],[-92.96521,43.356818],[-92.964886,43.342321],[-92.925034,43.342147],[-92.924943,43.327609],[-92.924549,43.327491],[-92.920599,43.328519],[-92.917491,43.328581],[-92.913805,43.331984],[-92.909243,43.332358],[-92.907925,43.333271],[-92.909336,43.335305],[-92.911257,43.336121],[-92.917101,43.33631],[-92.921162,43.338118],[-92.920341,43.338597],[-92.922016,43.341227],[-92.921769,43.342206],[-92.905166,43.342184],[-92.904962,43.321836],[-92.904583,43.321034],[-92.903223,43.320441],[-92.891279,43.320386],[-92.890011,43.319404],[-92.890062,43.313153],[-92.880309,43.313128],[-92.879615,43.317465],[-92.882197,43.318701],[-92.883748,43.320481],[-92.882537,43.320467],[-92.882725,43.321932],[-92.88098,43.323851],[-92.875184,43.323964],[-92.855304,43.323855],[-92.85522,43.327574],[-92.858196,43.331314],[-92.860136,43.332534],[-92.860243,43.352935],[-92.850232,43.352935],[-92.850562,43.400258],[-92.830527,43.400126],[-92.830394,43.428903],[-92.850396,43.428968],[-92.850426,43.436332],[-92.830407,43.436202],[-92.8302580005962,43.49955750926701],[-92.870277,43.499548],[-92.878525129686,43.4995513569433],[-93.007871,43.499604],[-93.0243476382082,43.499572157239804],[-93.024429,43.499572],[-93.04919199673229,43.4995713943464],[-93.07118699368701,43.499570856392495]],[[-93.018616,43.416793],[-93.015218,43.415947],[-93.014884,43.41411],[-93.016119,43.415031],[-93.019835,43.415062],[-93.018616,43.416793]]]}},{"type":"Feature","properties":{"zcta5":"50446","AFFGEOID10":"8600000US50446","GEOID10":"50446","ALAND10":108696956,"AWATER10":172633,"county_name":"Worth","state_code":"IA","county_state":"Worth County, IA","county_fips":"19195","risk_level_county":"Medium Risk (70–79% vaccinated)","mean_vaccination_rate_county":70.14,"risk_level_zcta":"Very High Risk (<60% vaccinated)","mean_vaccination_rate_zips":45.76,"cases":1},"geometry":{"type":"Polygon","coordinates":[[[-93.398963,43.405711],[-93.401745,43.406521],[-93.404386,43.405515],[-93.410744,43.407023],[-93.412258,43.406885],[-93.41384,43.406635],[-93.413826,43.400762],[-93.433417,43.400994],[-93.433661,43.393706],[-93.467915,43.39387],[-93.467985,43.385028],[-93.466825,43.382213],[-93.469903,43.379799],[-93.472352,43.379461],[-93.473109,43.380631],[-93.476245,43.382139],[-93.480166,43.382001],[-93.481859,43.381497],[-93.485999,43.382753],[-93.488948,43.385611],[-93.490704,43.384901],[-93.493213,43.38554],[-93.493308,43.386752],[-93.496131,43.387117],[-93.495816,43.386248],[-93.497415,43.385378],[-93.497611,43.382179],[-93.497586,43.375579],[-93.499259,43.375171],[-93.507032,43.372258],[-93.514836,43.369895],[-93.523502,43.367506],[-93.522722,43.365778],[-93.522486,43.357482],[-93.53184,43.357395],[-93.530993,43.354235],[-93.530487,43.350252],[-93.524049,43.348776],[-93.519108,43.346801],[-93.511306,43.345414],[-93.507171,43.343711],[-93.507522,43.338561],[-93.506647,43.336447],[-93.504809,43.33528],[-93.50595,43.332864],[-93.505756,43.331767],[-93.503314,43.32978],[-93.503507,43.328182],[-93.517741,43.328124],[-93.51771,43.313456],[-93.513831,43.313402],[-93.497668,43.308474],[-93.497653,43.277148],[-93.492282,43.273811],[-93.485694,43.273317],[-93.480796,43.273434],[-93.477846,43.274376],[-93.477802,43.284274],[-93.458019,43.284114],[-93.458126,43.269865],[-93.438158,43.26992],[-93.438119,43.291736],[-93.419515,43.291868],[-93.418315,43.291187],[-93.417953,43.302067],[-93.419417,43.303334],[-93.420761,43.306315],[-93.432147,43.328036],[-93.408021,43.328158],[-93.408005,43.334199],[-93.403117,43.334522],[-93.403758,43.338589],[-93.40386,43.342605],[-93.398809,43.342571],[-93.398806,43.34522],[-93.388893,43.345211],[-93.388898,43.342602],[-93.378993,43.342609],[-93.378737,43.347677],[-93.378938,43.371604],[-93.374528,43.371626],[-93.374395,43.376783],[-93.379106,43.376914],[-93.379143,43.386115],[-93.398876,43.386183],[-93.398963,43.405711]]]}},{"type":"Feature","properties":{"zcta5":"50450","AFFGEOID10":"8600000US50450","GEOID10":"50450","ALAND10":209818230,"AWATER10":4268389,"county_name":"Worth","state_code":"IA","county_state":"Worth County, IA","county_fips":"19195","risk_level_county":"Medium Risk (70–79% vaccinated)","mean_vaccination_rate_county":70.14,"risk_level_zcta":"Medium Risk (70–79% vaccinated)","mean_vaccination_rate_zips":76.03,"cases":1},"geometry":{"type":"Polygon","coordinates":[[[-93.5765219000897,43.4995200113886],[-93.576566,43.473754],[-93.614292,43.473468],[-93.614281,43.468261],[-93.617053,43.46874],[-93.617121,43.451701],[-93.636963,43.451579],[-93.636962,43.429888],[-93.617189,43.429943],[-93.617119,43.414731],[-93.602347,43.415354],[-93.597019,43.41541],[-93.597049,43.403648],[-93.598635,43.40089],[-93.594755,43.400918],[-93.595975,43.399184],[-93.597106,43.396089],[-93.597018,43.370858],[-93.594327,43.368173],[-93.594285,43.365155],[-93.587395,43.361009],[-93.585273,43.359085],[-93.58348,43.358653],[-93.57702,43.358822],[-93.577083,43.338825],[-93.567145,43.338925],[-93.567068,43.335438],[-93.562115,43.335438],[-93.562114,43.328201],[-93.547122,43.328157],[-93.54709,43.31387],[-93.51771,43.313456],[-93.517741,43.328124],[-93.503507,43.328182],[-93.503314,43.32978],[-93.505756,43.331767],[-93.50595,43.332864],[-93.504809,43.33528],[-93.506647,43.336447],[-93.507522,43.338561],[-93.507171,43.343711],[-93.511306,43.345414],[-93.519108,43.346801],[-93.524049,43.348776],[-93.530487,43.350252],[-93.530993,43.354235],[-93.53184,43.357395],[-93.522486,43.357482],[-93.522722,43.365778],[-93.523502,43.367506],[-93.514836,43.369895],[-93.507032,43.372258],[-93.499259,43.375171],[-93.497586,43.375579],[-93.497611,43.382179],[-93.497415,43.385378],[-93.495816,43.386248],[-93.496131,43.387117],[-93.493308,43.386752],[-93.493213,43.38554],[-93.490704,43.384901],[-93.488948,43.385611],[-93.485999,43.382753],[-93.481859,43.381497],[-93.480166,43.382001],[-93.476245,43.382139],[-93.473109,43.380631],[-93.472352,43.379461],[-93.469903,43.379799],[-93.466825,43.382213],[-93.467985,43.385028],[-93.467915,43.39387],[-93.433661,43.393706],[-93.433417,43.400994],[-93.413826,43.400762],[-93.41384,43.406635],[-93.412258,43.406885],[-93.410744,43.407023],[-93.404386,43.405515],[-93.401745,43.406521],[-93.398963,43.405711],[-93.398312,43.407253],[-93.396428,43.408097],[-93.394243,43.411289],[-93.394069,43.414534],[-93.395143,43.415224],[-93.39787,43.415236],[-93.399006,43.415864],[-93.399232,43.429981],[-93.419105,43.430015],[-93.418073,43.435362],[-93.418035,43.440469],[-93.41351,43.440762],[-93.413577,43.444429],[-93.399213,43.444477],[-93.399579,43.447436],[-93.405923,43.44729],[-93.406754,43.449126],[-93.409153,43.449909],[-93.409009,43.454985],[-93.409826,43.457747],[-93.413563,43.457604],[-93.415196,43.458745],[-93.418934,43.458901],[-93.419028,43.462482],[-93.424593,43.46626],[-93.458439,43.466873],[-93.458308,43.473693],[-93.497384,43.473707],[-93.4973499498203,43.499455765205894],[-93.497405,43.499456],[-93.528482,43.499471],[-93.532178,43.499472],[-93.558631,43.499521],[-93.5765219000897,43.4995200113886]]]}},{"type":"Feature","properties":{"zcta5":"50459","AFFGEOID10":"8600000US50459","GEOID10":"50459","ALAND10":373316205,"AWATER10":2167305,"county_name":"Worth","state_code":"IA","county_state":"Worth County, IA","county_fips":"19195","risk_level_county":"Medium Risk (70–79% vaccinated)","mean_vaccination_rate_county":70.14,"risk_level_zcta":"Medium Risk (70–79% vaccinated)","mean_vaccination_rate_zips":70.82,"cases":1},"geometry":{"type":"Polygon","coordinates":[[[-93.4973499498203,43.499455765205894],[-93.497384,43.473707],[-93.458308,43.473693],[-93.458439,43.466873],[-93.424593,43.46626],[-93.419028,43.462482],[-93.418934,43.458901],[-93.415196,43.458745],[-93.413563,43.457604],[-93.409826,43.457747],[-93.409009,43.454985],[-93.409153,43.449909],[-93.406754,43.449126],[-93.405923,43.44729],[-93.399579,43.447436],[-93.399213,43.444477],[-93.413577,43.444429],[-93.41351,43.440762],[-93.418035,43.440469],[-93.418073,43.435362],[-93.419105,43.430015],[-93.399232,43.429981],[-93.399006,43.415864],[-93.39787,43.415236],[-93.395143,43.415224],[-93.394069,43.414534],[-93.394243,43.411289],[-93.396428,43.408097],[-93.398312,43.407253],[-93.398963,43.405711],[-93.398876,43.386183],[-93.379143,43.386115],[-93.379106,43.376914],[-93.374395,43.376783],[-93.374528,43.371626],[-93.359745,43.371598],[-93.359756,43.378801],[-93.349435,43.378818],[-93.349596,43.389672],[-93.347466,43.38974],[-93.343514,43.388368],[-93.339283,43.387866],[-93.338355,43.389535],[-93.336426,43.389215],[-93.335524,43.386837],[-93.334607,43.386355],[-93.331544,43.386744],[-93.330613,43.384617],[-93.328713,43.383496],[-93.326408,43.383816],[-93.324033,43.384891],[-93.321212,43.382466],[-93.315262,43.382329],[-93.312423,43.379951],[-93.306546,43.379198],[-93.304984,43.378717],[-93.299454,43.378763],[-93.296525,43.379769],[-93.294906,43.379174],[-93.2926,43.379492],[-93.292799,43.378395],[-93.28853,43.378783],[-93.28574,43.378187],[-93.283137,43.379033],[-93.28135,43.378484],[-93.277322,43.378759],[-93.275825,43.379743],[-93.27067,43.380543],[-93.270597,43.371672],[-93.260769,43.371683],[-93.260844,43.377698],[-93.256798,43.378794],[-93.253192,43.37877],[-93.251467,43.379501],[-93.250999,43.377511],[-93.249182,43.3779],[-93.247315,43.377032],[-93.245748,43.374599],[-93.244292,43.374169],[-93.244086,43.372775],[-93.242345,43.373485],[-93.239243,43.372137],[-93.237662,43.37271],[-93.235623,43.370516],[-93.230575,43.370535],[-93.230478,43.386091],[-93.208641,43.386022],[-93.207867,43.37134],[-93.202532,43.369448],[-93.200964,43.369219],[-93.190587,43.369473],[-93.189051,43.368832],[-93.188424,43.367323],[-93.182641,43.364346],[-93.183127,43.362703],[-93.18018,43.362129],[-93.177959,43.363238],[-93.177301,43.367261],[-93.174729,43.369482],[-93.174509,43.370924],[-93.171873,43.373901],[-93.171997,43.375738],[-93.170208,43.377501],[-93.169987,43.380386],[-93.16914,43.382773],[-93.17093,43.38587],[-93.161064,43.385816],[-93.160983,43.400327],[-93.084154,43.400853],[-93.084367,43.429433],[-93.047315,43.429397],[-93.047187,43.429675],[-93.047513,43.43112],[-93.049329,43.432546],[-93.049985,43.434153],[-93.052626,43.437353],[-93.058177,43.439023],[-93.064412,43.439321],[-93.064605,43.465795],[-93.044596,43.465544],[-93.044684,43.477584],[-93.047903,43.480073],[-93.051986,43.482397],[-93.055654,43.482651],[-93.056976,43.483997],[-93.056984,43.486606],[-93.05944,43.48917],[-93.059503,43.493409],[-93.060983,43.494213],[-93.06712,43.494291],[-93.068729,43.496771],[-93.071079,43.498438],[-93.07118699368701,43.499570856392495],[-93.0892869983714,43.4995704137024],[-93.228861,43.499567],[-93.2718,43.499356],[-93.35869804349159,43.4994441034905],[-93.399035,43.499485],[-93.428509,43.499478],[-93.468563,43.499473],[-93.472804,43.4994],[-93.482009,43.499482],[-93.488261,43.499417],[-93.4973499498203,43.499455765205894]]]}},{"type":"Feature","properties":{"zcta5":"50434","AFFGEOID10":"8600000US50434","GEOID10":"50434","ALAND10":23249292,"AWATER10":238127,"county_name":"Worth","state_code":"IA","county_state":"Worth County, IA","county_fips":"19195","risk_level_county":"Medium Risk (70–79% vaccinated)","mean_vaccination_rate_county":70.14,"risk_level_zcta":"Uninhabited","mean_vaccination_rate_zips":null,"cases":1},"geometry":{"type":"Polygon","coordinates":[[[-93.497653,43.277148],[-93.497635,43.255468],[-93.477878,43.255387],[-93.477744,43.235027],[-93.457863,43.235173],[-93.457857,43.245064],[-93.455889,43.247889],[-93.454762,43.248395],[-93.45044,43.24742],[-93.446827,43.247312],[-93.447266,43.245007],[-93.446296,43.244478],[-93.442518,43.245387],[-93.441168,43.246789],[-93.437842,43.246847],[-93.437772,43.242385],[-93.410058,43.2424],[-93.410466,43.243719],[-93.412724,43.244485],[-93.413188,43.246105],[-93.412104,43.247517],[-93.410575,43.252011],[-93.409057,43.252256],[-93.408663,43.253843],[-93.406938,43.255403],[-93.398349,43.255389],[-93.398391,43.259204],[-93.404447,43.25915],[-93.407851,43.260961],[-93.409498,43.263589],[-93.413262,43.264102],[-93.41338,43.269143],[-93.41638,43.269148],[-93.416424,43.270084],[-93.438158,43.26992],[-93.458126,43.269865],[-93.458019,43.284114],[-93.477802,43.284274],[-93.477846,43.274376],[-93.480796,43.273434],[-93.485694,43.273317],[-93.492282,43.273811],[-93.497653,43.277148]]]}},{"type":"Feature","properties":{"zcta5":"50440","AFFGEOID10":"8600000US50440","GEOID10":"50440","ALAND10":80662386,"AWATER10":3414,"county_name":"Worth","state_code":"IA","county_state":"Worth County, IA","county_fips":"19195","risk_level_county":"Medium Risk (70–79% vaccinated)","mean_vaccination_rate_county":70.14,"risk_level_zcta":"Very High Risk (<60% vaccinated)","mean_vaccination_rate_zips":44.68,"cases":1},"geometry":{"type":"Polygon","coordinates":[[[-93.141176,43.327645],[-93.141397,43.31318],[-93.123734,43.313134],[-93.123507,43.305855],[-93.083591,43.305966],[-93.083698,43.295252],[-93.092986,43.295071],[-93.099984,43.284139],[-93.073168,43.284418],[-93.073106,43.277616],[-93.077059,43.277563],[-93.077025,43.269847],[-93.067458,43.269965],[-93.067676,43.271141],[-93.066215,43.272497],[-93.064131,43.273187],[-93.064744,43.274174],[-93.066946,43.275068],[-93.066962,43.276148],[-93.060879,43.276405],[-93.058614,43.277431],[-93.058254,43.27903],[-93.059844,43.280971],[-93.056118,43.282316],[-93.05522,43.283091],[-93.055763,43.284541],[-93.024123,43.284565],[-93.024092,43.342336],[-93.023973,43.371441],[-93.043863,43.37138],[-93.043774,43.385912],[-93.084002,43.386102],[-93.084022,43.371627],[-93.104085,43.37158],[-93.103976,43.356966],[-93.124065,43.357098],[-93.123703,43.342344],[-93.140056,43.342313],[-93.140688,43.340967],[-93.141039,43.342301],[-93.141176,43.327645]]]}},{"type":"Feature","properties":{"zcta5":"50448","AFFGEOID10":"8600000US50448","GEOID10":"50448","ALAND10":160285276,"AWATER10":41612,"county_name":"Worth","state_code":"IA","county_state":"Worth County, IA","county_fips":"19195","risk_level_county":"Medium Risk (70–79% vaccinated)","mean_vaccination_rate_county":70.14,"risk_level_zcta":"Very High Risk (<60% vaccinated)","mean_vaccination_rate_zips":59.06,"cases":1},"geometry":{"type":"Polygon","coordinates":[[[-93.374528,43.371626],[-93.378938,43.371604],[-93.378737,43.347677],[-93.378993,43.342609],[-93.37872,43.328056],[-93.349014,43.327954],[-93.348937,43.316746],[-93.350028,43.291774],[-93.340419,43.291726],[-93.339363,43.291539],[-93.339488,43.284441],[-93.319765,43.284364],[-93.319759,43.289836],[-93.317567,43.293282],[-93.31644,43.297333],[-93.314095,43.298802],[-93.260385,43.298689],[-93.260345,43.313169],[-93.240895,43.313142],[-93.240629,43.32765],[-93.228908,43.327617],[-93.226845,43.325278],[-93.220792,43.321909],[-93.22101,43.313083],[-93.211091,43.313046],[-93.210867,43.327518],[-93.200921,43.327519],[-93.200869,43.331111],[-93.181068,43.331212],[-93.180998,43.3425],[-93.159127,43.342372],[-93.159501,43.338273],[-93.158406,43.33562],[-93.155963,43.333058],[-93.155809,43.328872],[-93.155016,43.327602],[-93.141176,43.327645],[-93.141039,43.342301],[-93.140688,43.340967],[-93.140056,43.342313],[-93.123703,43.342344],[-93.124065,43.357098],[-93.103976,43.356966],[-93.104085,43.37158],[-93.084022,43.371627],[-93.084002,43.386102],[-93.084154,43.400853],[-93.160983,43.400327],[-93.161064,43.385816],[-93.17093,43.38587],[-93.16914,43.382773],[-93.169987,43.380386],[-93.170208,43.377501],[-93.171997,43.375738],[-93.171873,43.373901],[-93.174509,43.370924],[-93.174729,43.369482],[-93.177301,43.367261],[-93.177959,43.363238],[-93.18018,43.362129],[-93.183127,43.362703],[-93.182641,43.364346],[-93.188424,43.367323],[-93.189051,43.368832],[-93.190587,43.369473],[-93.200964,43.369219],[-93.202532,43.369448],[-93.207867,43.37134],[-93.208641,43.386022],[-93.230478,43.386091],[-93.230575,43.370535],[-93.235623,43.370516],[-93.237662,43.37271],[-93.239243,43.372137],[-93.242345,43.373485],[-93.244086,43.372775],[-93.244292,43.374169],[-93.245748,43.374599],[-93.247315,43.377032],[-93.249182,43.3779],[-93.250999,43.377511],[-93.251467,43.379501],[-93.253192,43.37877],[-93.256798,43.378794],[-93.260844,43.377698],[-93.260769,43.371683],[-93.270597,43.371672],[-93.27067,43.380543],[-93.275825,43.379743],[-93.277322,43.378759],[-93.28135,43.378484],[-93.283137,43.379033],[-93.28574,43.378187],[-93.28853,43.378783],[-93.292799,43.378395],[-93.2926,43.379492],[-93.294906,43.379174],[-93.296525,43.379769],[-93.299454,43.378763],[-93.304984,43.378717],[-93.306546,43.379198],[-93.312423,43.379951],[-93.315262,43.382329],[-93.321212,43.382466],[-93.324033,43.384891],[-93.326408,43.383816],[-93.328713,43.383496],[-93.330613,43.384617],[-93.331544,43.386744],[-93.334607,43.386355],[-93.335524,43.386837],[-93.336426,43.389215],[-93.338355,43.389535],[-93.339283,43.387866],[-93.343514,43.388368],[-93.347466,43.38974],[-93.349596,43.389672],[-93.349435,43.378818],[-93.359756,43.378801],[-93.359745,43.371598],[-93.374528,43.371626]]]}}]}